{"type":"Feature","id":"longhurst.41","geometry_name":"the_geom","properties":{"provcode":"ARCT","provdescr":"Polar - Atlantic Arctic Province","x":-19.8715652836,"y":66.4182097969,"area_m2":8216995115570,"orig_fid":40,"mrgid":21451,"name":"Polar - Atlantic Arctic Province"},"geometry":{"type":"Polygon","coordinates":[[[-61.5,59.5],[-57.5,59.5],[-57.5,57.5],[-55.5,57.5],[-55.5,55.5],[-51.5,55.5],[-51.5,51.5],[-49.5,51.5],[-49.5,49.5],[-43.5,49.5],[-43.5,55.5],[-23.5,55.5],[-23.5,64.5],[-22.254762,64.5],[-22.352437,64.5586],[-22.41,64.650837],[-22.299728,64.704437],[-22.325146,64.757628],[-22.407228,64.812482],[-22.6775,64.799991],[-23.047637,64.794855],[-23.165555,64.800828],[-23.286946,64.826246],[-23.392228,64.823046],[-23.527228,64.8111],[-23.630837,64.771655],[-23.632364,64.756237],[-23.66361,64.737782],[-23.835973,64.725964],[-23.905,64.740546],[-23.945,64.76471],[-24.049164,64.855273],[-24.059537,64.890882],[-23.94361,64.916655],[-23.833891,64.927219],[-23.695555,64.893055],[-23.649446,64.89221],[-23.5475,64.918328],[-23.5225,64.940828],[-23.503891,64.946928],[-23.358337,64.966246],[-23.237646,64.992082],[-23.19,65.015828],[-22.975973,65.010964],[-22.959582,65.004019],[-22.615146,65.022764],[-22.525282,65.0511],[-22.355282,65.059437],[-22.146664,65.026655],[-21.835837,65.030273],[-21.8,65.060273],[-21.728337,65.159155],[-21.736464,65.19721],[-21.808337,65.203328],[-21.826946,65.197073],[-21.83681,65.185964],[-21.83611,65.174164],[-21.913337,65.14221],[-21.994164,65.115555],[-22.074446,65.104719],[-22.54431,65.157764],[-22.560137,65.168391],[-22.505,65.228882],[-22.353619,65.289155],[-22.160282,65.326664],[-21.915837,65.414437],[-21.786664,65.423873],[-21.69861,65.449155],[-21.809864,65.43361],[-21.94,65.464428],[-21.993055,65.5011],[-22.037782,65.499437],[-22.116528,65.481937],[-22.195282,65.431928],[-22.229728,65.424991],[-22.287782,65.441373],[-22.33481,65.483173],[-22.313228,65.496964],[-22.267555,65.500219],[-22.159173,65.541655],[-22.109864,65.593328],[-22.122364,65.593882],[-22.163055,65.576528],[-22.203055,65.544437],[-22.259446,65.525837],[-22.473619,65.504719],[-22.573891,65.5311],[-22.678055,65.526655],[-22.722646,65.499991],[-22.782782,65.503873],[-22.853891,65.554991],[-22.9125,65.56471],[-23.017228,65.539446],[-23.150282,65.547773],[-23.2,65.498046],[-23.2257,65.483746],[-23.375246,65.491382],[-23.623337,65.464428],[-23.658191,65.45361],[-23.722782,65.417219],[-23.879446,65.4025],[-23.97861,65.414582],[-24.015837,65.469982],[-24.183337,65.496382],[-24.265555,65.498882],[-24.45861,65.483046],[-24.5384,65.500273],[-24.370346,65.56561],[-24.37611,65.60111],[-24.321946,65.6368],[-24.14361,65.604719],[-24.050837,65.56471],[-23.892228,65.518055],[-23.845837,65.518873],[-23.807437,65.530964],[-23.912782,65.553055],[-24.012782,65.59471],[-24.069582,65.630682],[-24.082364,65.645273],[-23.960837,65.64221],[-23.8059,65.609028],[-23.916946,65.655828],[-24.014446,65.671937],[-24.059446,65.690273],[-24.122782,65.746655],[-24.1325,65.784719],[-24.10521,65.805691],[-24.023337,65.7961],[-23.824173,65.738873],[-23.62,65.7],[-23.569755,65.668591],[-23.553755,65.645828],[-23.527228,65.627773],[-23.34361,65.66611],[-23.452782,65.672482],[-23.514864,65.696964],[-23.538337,65.717773],[-23.461337,65.730937],[-23.229446,65.740546],[-23.192219,65.775837],[-23.21,65.778882],[-23.3075,65.758882],[-23.531673,65.750828],[-23.743619,65.77611],[-23.837228,65.826937],[-23.873337,65.868737],[-23.866946,65.890828],[-23.845282,65.910264],[-23.793337,65.919437],[-23.255,65.837219],[-23.216182,65.840137],[-23.585555,65.905273],[-23.746391,65.966664],[-23.803337,65.9975],[-23.818337,66.014428],[-23.816391,66.033046],[-23.800837,66.056655],[-23.767228,66.070546],[-23.530446,66.029664],[-23.374446,65.986519],[-23.425555,66.03221],[-23.53481,66.058155],[-23.66611,66.11291],[-23.579446,66.161373],[-23.468755,66.199719],[-23.3525,66.1911],[-23.273055,66.174991],[-23.028619,66.104019],[-22.98361,66.080128],[-22.9775,66.070264],[-22.978891,66.034437],[-22.809728,65.994155],[-22.758891,66.055128],[-22.677782,66.045],[-22.61611,66.011937],[-22.576664,65.963337],[-22.5975,65.911937],[-22.656255,65.835128],[-22.649582,65.826528],[-22.638055,65.8311],[-22.532219,65.958328],[-22.499728,65.96611],[-22.42181,65.922491],[-22.432782,65.873882],[-22.461255,65.850546],[-22.462919,65.834155],[-22.445,65.8336],[-22.424728,65.847491],[-22.385837,65.904164],[-22.3975,65.955828],[-22.411119,65.988182],[-22.5,66.076964],[-22.608891,66.1111],[-22.841664,66.147491],[-22.911946,66.1736],[-22.972228,66.221373],[-22.965837,66.229428],[-22.856391,66.255555],[-22.801391,66.261382],[-22.738755,66.260128],[-22.590282,66.23111],[-22.548055,66.23],[-22.434173,66.267773],[-22.546946,66.2686],[-22.67111,66.286655],[-22.832782,66.32361],[-22.941673,66.298464],[-23.027228,66.302491],[-23.13361,66.325819],[-23.18931,66.351528],[-23.132228,66.3586],[-23.0575,66.392491],[-23.078337,66.436664],[-22.94181,66.465691],[-22.886946,66.466382],[-22.738055,66.4386],[-22.611946,66.442219],[-22.421673,66.433319],[-22.258337,66.340273],[-22.2025,66.271946],[-21.97431,66.2729],[-21.766391,66.185819],[-21.730282,66.159719],[-21.644173,66.066664],[-21.637782,66.049782],[-21.651391,66.018873],[-21.618619,66.060546],[-21.510555,66.061382],[-21.399446,66.027219],[-21.3925,65.983046],[-21.517228,65.970828],[-21.599237,65.953119],[-21.589728,65.942219],[-21.468473,65.959573],[-21.392782,65.960264],[-21.299728,65.932637],[-21.285146,65.920619],[-21.278337,65.85611],[-21.339728,65.7329],[-21.437782,65.688046],[-21.591673,65.6893],[-21.681664,65.765],[-21.724164,65.773037],[-21.775,65.76471],[-21.650555,65.652637],[-21.586673,65.636655],[-21.421391,65.634719],[-21.308891,65.596937],[-21.296528,65.573673],[-21.302782,65.530828],[-21.280555,65.478191],[-21.200628,65.431591],[-21.187782,65.340273],[-21.084446,65.159164],[-21.067228,65.186246],[-21.08611,65.231655],[-21.096946,65.440828],[-21.092228,65.453746],[-21.064164,65.45471],[-20.9775,65.430837],[-20.987919,65.465964],[-20.983128,65.5161],[-20.941873,65.578182],[-20.927228,65.588882],[-20.728891,65.674164],[-20.682228,65.691664],[-20.664173,65.690828],[-20.623891,65.671028],[-20.644728,65.567491],[-20.641946,65.542828],[-20.497082,65.488046],[-20.474446,65.487782],[-20.45021,65.493046],[-20.325555,65.6286],[-20.269446,65.709155],[-20.263619,65.740555],[-20.309864,65.858191],[-20.398891,65.9536],[-20.415,66.009428],[-20.422637,66.084446],[-20.174173,66.129437],[-20.092637,66.123182],[-19.993055,66.024155],[-19.924028,65.938191],[-19.847228,65.898882],[-19.789173,65.884428],[-19.736946,65.881946],[-19.699173,65.859855],[-19.654446,65.767628],[-19.635555,65.746937],[-19.45611,65.725691],[-19.424728,65.734573],[-19.396391,65.789155],[-19.390491,65.833528],[-19.417782,65.883328],[-19.450555,65.92221],[-19.485,65.940555],[-19.454446,66.054719],[-19.383755,66.081382],[-19.260282,66.089719],[-19.079728,66.0775],[-19.090837,66.124982],[-19.078891,66.1525],[-19.067228,66.161237],[-18.96861,66.188328],[-18.852637,66.200828],[-18.787782,66.191937],[-18.683055,66.164719],[-18.551946,66.084719],[-18.533337,66.063891],[-18.519582,66.019991],[-18.539237,65.975891],[-18.53,65.967773],[-18.335555,65.943055],[-18.283337,65.9086],[-18.205837,65.816519],[-18.181528,65.738046],[-18.069446,65.643328],[-18.04841,65.658391],[-18.0625,65.824437],[-18.10111,65.893328],[-18.14861,65.923473],[-18.183337,65.910555],[-18.22111,65.929155],[-18.291528,66.01041],[-18.316528,66.058737],[-18.331319,66.152419],[-18.295146,66.175273],[-18.250419,66.179437],[-17.909728,66.144437],[-17.752782,66.080273],[-17.609173,65.987491],[-17.417919,65.98611],[-17.365,66.054991],[-17.341664,66.101382],[-17.265555,66.166928],[-17.218473,66.195273],[-17.13111,66.210537],[-17.041255,66.208319],[-16.968891,66.185546],[-16.91,66.12471],[-16.736946,66.114719],[-16.594728,66.09111],[-16.6582,66.127346],[-16.687082,66.160964],[-16.508891,66.198319],[-16.436391,66.2361],[-16.417364,66.276028],[-16.578055,66.476937],[-16.565282,66.49361],[-16.527782,66.508046],[-16.430837,66.51721],[-16.241391,66.511655],[-16.175282,66.534719],[-16.025419,66.5361],[-15.894164,66.487491],[-15.854164,66.416928],[-15.709728,66.397219],[-15.698337,66.383328],[-15.682919,66.345691],[-15.687228,66.332491],[-15.749728,66.292219],[-15.694582,66.227482],[-15.558891,66.216382],[-15.37431,66.145273],[-15.339582,66.177355],[-15.327782,66.214719],[-15.2125,66.264164],[-15.099446,66.278882],[-15.0009,66.349346],[-14.94361,66.378873],[-14.855837,66.38971],[-14.710837,66.367219],[-14.710837,66.347764],[-14.96361,66.289446],[-15.007082,66.272764],[-14.94861,66.233319],[-14.935973,66.204991],[-14.943191,66.192219],[-14.976946,66.16971],[-15.023055,66.155546],[-15.145555,66.137082],[-15.176255,66.113673],[-15.149446,66.096373],[-15.011391,66.049991],[-14.933891,66.042219],[-14.824446,66.046937],[-14.751664,66.065273],[-14.714728,66.0636],[-14.663055,66.04361],[-14.618891,65.994428],[-14.605555,65.953473],[-14.623891,65.909437],[-14.653055,65.883046],[-14.726946,65.849155],[-14.799028,65.830828],[-14.865555,65.755828],[-14.848337,65.731382],[-14.817782,65.721373],[-14.637219,65.757219],[-14.418055,65.787219],[-14.349446,65.791382],[-14.338473,65.784573],[-14.313055,65.66971],[-14.530837,65.540837],[-14.5475,65.525273],[-14.558337,65.499228],[-14.526673,65.525837],[-14.332782,65.640828],[-14.288055,65.656246],[-14.192219,65.630555],[-14.0,65.598873],[-13.939728,65.611937],[-13.867082,65.611791],[-13.680555,65.548046],[-13.609582,65.5061],[-13.609164,65.487073],[-13.636946,65.42471],[-13.675691,65.373191],[-13.735691,65.317355],[-13.660555,65.3011],[-13.58361,65.273882],[-13.570137,65.26131],[-13.628337,65.224155],[-13.66,65.214428],[-14.030282,65.193464],[-14.0132,65.185955],[-13.871664,65.197491],[-13.618819,65.188882],[-13.636946,65.157773],[-13.591664,65.122773],[-13.5175,65.11221],[-13.5,65.070476],[-13.5,65.5],[-0.5,65.5],[-0.5,71.5],[8.5,71.5],[8.5,73.5],[22.5,73.5],[22.5,76.5],[23.5,76.5],[23.5,77.410371],[23.418328,77.381655],[23.348882,77.36971],[23.234991,77.39221],[23.091946,77.381655],[22.920273,77.338319],[22.902219,77.323673],[22.903191,77.300046],[22.869446,77.283055],[22.779719,77.264855],[22.64111,77.253055],[22.42361,77.257219],[22.386728,77.298591],[22.412355,77.314991],[22.497846,77.329855],[22.491664,77.3679],[22.415619,77.411655],[22.584446,77.475819],[22.692491,77.493046],[22.773191,77.546155],[22.43611,77.570546],[22.3068,77.555119],[22.283055,77.545819],[22.247219,77.515546],[22.13361,77.495819],[21.78861,77.481655],[21.595828,77.485264],[21.120555,77.434982],[20.892773,77.443037],[20.867219,77.454573],[20.843891,77.541928],[20.878746,77.564564],[20.960828,77.585264],[21.129164,77.592482],[21.224719,77.6136],[21.242291,77.630119],[21.239991,77.696364],[21.252637,77.723591],[21.459164,77.829437],[21.645,77.912491],[21.539719,77.945819],[21.32361,77.972219],[21.118882,78.025273],[20.971937,78.048328],[20.883055,78.073873],[20.868746,78.090128],[20.896664,78.112628],[21.425273,78.183319],[21.711664,78.202773],[21.865273,78.209719],[22.399164,78.192473],[22.448046,78.199291],[22.5,78.222144],[22.5,78.5],[22.212594,78.5],[22.241382,78.480546],[22.233328,78.464155],[22.225273,78.334155],[22.235546,78.274991],[22.268055,78.26541],[22.163328,78.244428],[22.025273,78.241364],[21.723046,78.252491],[21.2725,78.2211],[21.090273,78.199419],[21.020837,78.208037],[20.987219,78.219982],[20.843891,78.224155],[20.763719,78.212591],[20.697773,78.186646],[20.67111,78.187482],[20.630555,78.196364],[20.705055,78.242982],[20.754719,78.255146],[20.78,78.284428],[20.671937,78.304155],[20.480273,78.309146],[20.470555,78.316373],[20.535828,78.341664],[20.650555,78.339155],[20.682219,78.346646],[20.67861,78.3772],[20.663882,78.38721],[20.509446,78.430819],[20.153046,78.460537],[20.124719,78.472219],[20.142664,78.4696],[20.17111,78.488582],[20.778328,78.539428],[21.055837,78.549428],[21.111664,78.566664],[21.121937,78.580682],[21.10291,78.589428],[21.12361,78.603046],[21.182773,78.61971],[21.329446,78.618864],[21.44361,78.605819],[21.469719,78.597491],[21.477219,78.581655],[21.5,78.566634],[21.5,78.740569],[21.376664,78.687482],[21.390273,78.657964],[21.355,78.653591],[21.2025,78.668319],[21.122637,78.638737],[21.081391,78.63721],[20.743882,78.689973],[20.646946,78.674991],[20.624437,78.645473],[20.594028,78.628173],[20.55861,78.624419],[20.411664,78.6436],[20.229164,78.643328],[20.107773,78.638882],[20.030828,78.619137],[19.68861,78.612764],[19.579928,78.567828],[19.59861,78.548873],[19.633882,78.53581],[19.6684,78.510273],[19.625,78.502773],[19.494164,78.503873],[19.356946,78.4836],[19.008891,78.460819],[18.969928,78.452],[19.055,78.391937],[19.063746,78.3679],[19.054446,78.3461],[19.0225,78.3311],[18.999437,78.259991],[19.037773,78.198028],[19.085346,78.093455],[18.838328,78.029164],[18.69041,78.0329],[18.5525,78.055255],[18.410828,78.021655],[18.333882,77.898328],[18.370828,77.872755],[18.447773,77.845128],[18.451664,77.769573],[18.3625,77.635546],[18.296528,77.51291],[18.277637,77.499155],[18.213882,77.488873],[18.011391,77.491928],[17.927491,77.508328],[17.778882,77.490537],[17.738328,77.4711],[17.657219,77.420819],[17.560828,77.346373],[17.498328,77.243319],[17.41861,77.176928],[17.3434,77.055464],[17.325828,77.043873],[17.303891,77.04221],[17.138055,77.054428],[17.101182,77.047337],[17.2875,76.988591],[17.315555,76.9688],[17.293328,76.95],[16.93861,76.8129],[16.9209,76.790191],[16.941664,76.778046],[17.103191,76.755137],[17.180273,76.7254],[17.200964,76.699428],[16.997219,76.595264],[16.8225,76.569155],[16.612773,76.570546],[16.571946,76.575],[16.336664,76.653046],[16.294164,76.70151],[15.971391,76.751937],[15.721391,76.838319],[15.614164,76.861928],[15.53,76.8672],[15.502155,76.881373],[15.543328,76.904437],[15.577919,76.913746],[15.882773,76.9454],[16.011664,76.971928],[16.307219,76.971646],[16.52451,76.991573],[16.4986,77.000828],[16.33111,77.003055],[16.092364,77.020128],[16.067637,77.038182],[16.04861,77.07401],[16.015828,77.080555],[15.859373,77.0611],[15.873746,77.032064],[15.827773,77.010273],[15.5975,77.001664],[15.350273,77.0036],[15.241528,77.01721],[15.131664,77.056928],[15.052219,77.099155],[15.035828,77.125264],[14.718328,77.178591],[14.467219,77.171646],[14.38111,77.190255],[14.308055,77.237764],[14.140691,77.29901],[14.137919,77.325128],[14.11611,77.356091],[13.98111,77.40221],[13.920828,77.497482],[13.914164,77.524991],[14.115,77.566937],[14.354719,77.583882],[14.504446,77.577482],[14.540828,77.568173],[14.586319,77.524464],[14.528328,77.498737],[14.54861,77.489428],[14.722919,77.4897],[14.87621,77.546337],[14.94,77.553037],[15.0775,77.555819],[15.152773,77.544437],[15.440555,77.526091],[15.740555,77.533873],[15.8725,77.520537],[16.001055,77.48421],[16.110555,77.442746],[16.223046,77.434982],[16.300064,77.471864],[16.054,77.512164],[15.918328,77.562619],[15.194446,77.615264],[14.883891,77.615537],[14.745628,77.659291],[14.865828,77.6797],[15.451391,77.731937],[16.800555,77.806928],[16.900273,77.871919],[16.992219,77.901091],[17.00611,77.931364],[16.883328,77.926373],[16.73291,77.89971],[16.700691,77.865391],[16.664719,77.85721],[16.150273,77.8486],[15.869719,77.827773],[15.718473,77.8418],[15.618328,77.87331],[15.395273,77.866382],[15.340555,77.860819],[15.133891,77.797482],[15.094446,77.79221],[14.876391,77.783873],[14.713055,77.765273],[14.453328,77.750546],[14.2368,77.767346],[14.214164,77.776382],[14.149164,77.775546],[14.102219,77.768464],[14.025973,77.7365],[13.951664,77.718046],[13.756246,77.729846],[13.728891,77.760891],[13.814164,77.792273],[13.804928,77.814428],[13.713328,77.834719],[13.676664,77.864155],[13.628328,77.950546],[13.592219,78.0522],[13.876946,78.092755],[13.966946,78.090819],[14.103055,78.060673],[14.239719,78.006528],[14.283337,77.964428],[14.355828,77.962773],[14.365828,77.971228],[14.337564,78.022346],[14.26861,78.0461],[14.221946,78.078946],[14.241391,78.095273],[14.276391,78.098328],[14.4725,78.090546],[14.763337,78.113037],[14.989164,78.102764],[15.024928,78.111028],[15.056664,78.14861],[15.294446,78.216937],[15.492219,78.238037],[15.694719,78.216937],[15.729719,78.226028],[15.629164,78.254991],[15.597291,78.287419],[15.765837,78.335264],[15.995,78.344146],[16.1025,78.356373],[16.266391,78.340819],[16.770555,78.330273],[16.881937,78.341664],[17.2952,78.421791],[17.267773,78.433873],[17.192491,78.43471],[16.851391,78.384428],[16.59861,78.407064],[16.57861,78.433028],[16.552773,78.440264],[16.406664,78.430546],[16.330273,78.450955],[16.542219,78.566082],[16.691382,78.612764],[16.811382,78.640828],[16.833955,78.661655],[16.810828,78.674991],[16.665273,78.665819],[16.619928,78.681546],[16.57111,78.713319],[16.513191,78.7136],[16.4843,78.701791],[16.465482,78.678937],[16.317082,78.566791],[16.104446,78.521382],[16.023328,78.481091],[15.747773,78.466664],[15.64611,78.452773],[15.472773,78.451237],[15.357219,78.474846],[15.298055,78.500546],[15.198891,78.590546],[15.235419,78.606791],[15.403055,78.614428],[15.448891,78.633046],[15.500973,78.713737],[15.483328,78.80831],[15.40111,78.843319],[15.370828,78.843037],[15.295555,78.819719],[15.219719,78.771928],[15.197773,78.731646],[15.22,78.675264],[15.027919,78.599019],[14.965273,78.597219],[14.901946,78.608737],[14.855691,78.620128],[14.805273,78.645137],[14.844855,78.673591],[14.837219,78.700546],[14.816391,78.729428],[14.6775,78.7236],[14.531664,78.682755],[14.526946,78.6561],[14.540837,78.578328],[14.388891,78.49151],[14.413191,78.474082],[14.443055,78.468046],[14.569719,78.458882],[14.668055,78.440955],[14.7175,78.406373],[14.728191,78.386237],[14.606382,78.3736],[14.365,78.386382],[14.298891,78.335828],[14.325273,78.306091],[14.111391,78.255555],[14.094719,78.283046],[14.07111,78.286373],[13.99,78.28581],[13.753055,78.256664],[13.855555,78.21401],[13.822219,78.202773],[13.718328,78.196364],[13.627773,78.194137],[13.183055,78.219437],[13.1225,78.217755],[13.030273,78.195528],[13.006664,78.197482],[12.9475,78.219982],[12.915346,78.2422],[12.953119,78.261791],[12.946391,78.291091],[12.874719,78.351655],[12.833055,78.360264],[12.708746,78.361646],[12.612219,78.385546],[12.371591,78.480891],[12.55097,78.5],[11.511999,78.5],[11.628055,78.46361],[11.7625,78.442746],[11.82111,78.441082],[11.877637,78.411373],[11.8725,78.40221],[11.895837,78.38611],[12.099164,78.287764],[12.163746,78.204291],[12.120555,78.195819],[12.064164,78.211928],[11.875273,78.23471],[11.81861,78.268737],[11.852773,78.294019],[11.835273,78.30721],[11.613055,78.3672],[11.528055,78.398882],[11.34361,78.4447],[11.236946,78.445819],[11.164719,78.432755],[11.1075,78.441928],[11.065,78.461382],[10.995555,78.518328],[10.947219,78.564991],[10.93861,78.584719],[10.896391,78.61901],[10.7275,78.699146],[10.536664,78.773882],[10.52611,78.7861],[10.487919,78.893328],[10.5,78.896797],[10.5,79.5],[-7.5,79.5],[-7.5,77.5],[-11.5,77.5],[-11.5,75.5],[-15.5,75.5],[-15.5,71.5],[-19.5,71.5],[-19.5,67.5],[-29.5,67.5],[-29.5,65.5],[-33.5,65.5],[-33.5,63.5],[-37.5,63.5],[-37.5,61.5],[-39.5,61.5],[-39.5,59.5],[-49.5,59.5],[-49.5,61.5],[-51.5,61.5],[-51.5,63.5],[-61.5,63.5],[-61.5,59.5]],[[-9.109746,70.869546],[-8.920591,70.926073],[-8.763673,70.950528],[-8.510864,71.013319],[-8.381955,71.1208],[-8.344482,71.136655],[-8.12891,71.17081],[-7.997255,71.180819],[-7.959782,71.172473],[-7.92851,71.1497],[-7.990846,71.038319],[-8.118655,71.003582],[-8.394473,70.959137],[-8.460328,70.970519],[-8.6203,70.959137],[-8.9375,70.840273],[-8.954773,70.821637],[-9.005619,70.808019],[-9.07391,70.807746],[-9.11991,70.860391],[-9.109746,70.869546]],[[18.825555,74.499419],[18.927773,74.5125],[19.148055,74.523319],[19.281937,74.4836],[19.299864,74.471791],[19.283055,74.44081],[19.19111,74.364428],[19.069164,74.343046],[18.854164,74.433319],[18.79111,74.478873],[18.825555,74.499419]]]}}
