{"type":"Feature","id":"longhurst.6","geometry_name":"the_geom","properties":{"provcode":"EAFR","provdescr":"Coastal - E. Africa Coastal Province","x":36.8361143159,"y":-25.736459979,"area_m2":4000653260700,"orig_fid":5,"mrgid":21473,"name":"Coastal - E. Africa Coastal Province"},"geometry":{"type":"Polygon","coordinates":[[[15.5,-39.5],[28.5,-39.5],[28.5,-37.5],[30.5,-37.5],[30.5,-35.5],[32.5,-35.5],[32.5,-33.5],[34.5,-33.5],[34.5,-31.5],[36.5,-31.5],[36.5,-29.5],[40.5,-29.5],[40.5,-27.5],[46.5,-27.5],[46.5,-29.5],[50.5,-29.5],[50.5,-21.5],[52.5,-21.5],[52.5,-12.5],[49.59392,-12.5],[49.596664,-12.5325],[49.574882,-12.5651],[49.574555,-12.599882],[49.564555,-12.613828],[49.562091,-12.633346],[49.570619,-12.648773],[49.5943,-12.650191],[49.798046,-12.81611],[49.900273,-12.958337],[49.943328,-13.039446],[49.947219,-13.086664],[49.933328,-13.18111],[49.9436,-13.224446],[49.979437,-13.346664],[50.024719,-13.449446],[50.038055,-13.463891],[50.037773,-13.513337],[50.066664,-13.541664],[50.101946,-13.6275],[50.148328,-13.820282],[50.144164,-13.988891],[50.17611,-14.061946],[50.16,-14.221673],[50.168328,-14.241664],[50.202773,-14.269864],[50.216946,-14.307637],[50.190828,-14.43111],[50.2,-14.570282],[50.271946,-14.82611],[50.337491,-14.99861],[50.43361,-15.145837],[50.483891,-15.203891],[50.496782,-15.249455],[50.501391,-15.322782],[50.43361,-15.58],[50.299719,-15.87361],[50.232219,-15.974446],[50.172773,-15.979728],[50.137928,-15.927519],[50.100555,-15.920555],[50.033882,-15.866946],[50.026664,-15.798337],[49.903882,-15.56111],[49.902219,-15.468337],[49.8661,-15.4325],[49.751391,-15.435837],[49.720555,-15.4475],[49.676937,-15.488337],[49.63361,-15.5575],[49.657491,-15.681946],[49.734028,-15.904164],[49.687773,-16.01],[49.681382,-16.055],[49.709719,-16.1275],[49.729719,-16.145555],[49.769164,-16.152228],[49.816937,-16.181946],[49.83611,-16.197228],[49.854028,-16.231391],[49.82541,-16.343337],[49.834446,-16.416391],[49.859446,-16.434446],[49.863055,-16.455282],[49.845837,-16.565837],[49.791937,-16.651391],[49.753882,-16.689728],[49.724164,-16.705837],[49.717219,-16.728337],[49.720837,-16.756946],[49.743046,-16.79611],[49.78861,-16.830282],[49.628055,-16.889728],[49.596937,-16.90861],[49.531664,-17.046391],[49.422773,-17.315837],[49.421664,-17.3625],[49.454719,-17.415419],[49.475273,-17.486946],[49.510273,-17.711391],[49.50111,-17.771119],[49.414446,-18.0725],[49.384164,-18.213891],[49.368337,-18.351391],[49.304164,-18.537228],[49.231382,-18.703891],[49.143882,-18.940282],[49.066382,-19.088055],[49.024991,-19.215837],[48.996382,-19.356391],[48.875546,-19.628337],[48.813046,-19.933055],[48.759164,-20.091119],[48.616664,-20.388055],[48.52111,-20.6975],[48.456382,-20.985555],[48.370555,-21.292228],[48.217773,-21.745],[48.015273,-22.19111],[47.908055,-22.461946],[47.864719,-22.669446],[47.837219,-22.867228],[47.759719,-23.138337],[47.712491,-23.339728],[47.628882,-23.561673],[47.575828,-23.839173],[47.498055,-24.015],[47.426182,-24.124128],[47.339437,-24.306119],[47.303328,-24.503891],[47.19861,-24.741391],[47.130137,-24.84611],[47.133046,-24.928055],[47.094446,-24.973891],[46.730273,-25.1675],[46.646664,-25.191673],[46.503055,-25.161664],[46.413328,-25.161664],[46.290837,-25.18611],[45.923046,-25.328891],[45.739164,-25.43611],[45.653328,-25.509164],[45.550282,-25.562228],[45.487782,-25.575555],[45.214719,-25.588337],[45.127355,-25.548619],[45.098055,-25.520837],[44.782491,-25.32111],[44.711391,-25.303891],[44.522219,-25.286391],[44.355828,-25.255555],[44.2977,-25.163128],[44.323055,-25.1675],[44.389164,-25.232782],[44.411946,-25.211673],[44.401937,-25.193337],[44.174719,-25.064728],[44.139719,-25.053891],[44.108328,-25.061673],[44.032219,-25.004446],[44.017082,-24.980837],[44.021946,-24.944446],[44.005273,-24.880282],[43.953891,-24.810837],[43.917773,-24.74111],[43.9143,-24.717646],[43.931246,-24.672782],[43.905828,-24.598891],[43.834446,-24.505282],[43.755555,-24.456391],[43.711937,-24.417228],[43.671391,-24.331673],[43.664164,-24.311391],[43.662219,-23.868619],[43.648891,-23.81],[43.624991,-23.761673],[43.638328,-23.647782],[43.649719,-23.623755],[43.735273,-23.588891],[43.74791,-23.577364],[43.759991,-23.468055],[43.745282,-23.443055],[43.630555,-23.3475],[43.606946,-23.278055],[43.596937,-23.099164],[43.588055,-23.078337],[43.492773,-23.008055],[43.361937,-22.852782],[43.238882,-22.2825],[43.260828,-22.213337],[43.236828,-22.068746],[43.279164,-21.908337],[43.314437,-21.882782],[43.328046,-21.846391],[43.334164,-21.75861],[43.43111,-21.663891],[43.472355,-21.668055],[43.46611,-21.463337],[43.478337,-21.383337],[43.500546,-21.333891],[43.579719,-21.280555],[43.698882,-21.271946],[43.7411,-21.286119],[43.776664,-21.264728],[43.80861,-21.225282],[43.84111,-21.156946],[43.875546,-21.008891],[43.878882,-20.945837],[43.911664,-20.85],[43.968046,-20.764164],[43.991946,-20.743619],[44.015273,-20.745837],[44.03611,-20.723891],[44.079437,-20.651946],[44.17611,-20.441946],[44.340273,-20.157228],[44.370828,-20.119728],[44.437491,-20.06861],[44.482773,-19.965837],[44.471937,-19.877364],[44.440273,-19.845555],[44.399719,-19.8325],[44.370828,-19.777082],[44.440273,-19.552782],[44.47611,-19.5425],[44.483191,-19.526946],[44.469164,-19.438337],[44.425555,-19.357782],[44.336391,-19.23],[44.261937,-19.14],[44.231382,-19.08111],[44.231382,-18.973619],[44.24861,-18.961673],[44.261664,-18.853055],[44.256946,-18.820555],[44.23111,-18.74111],[44.158882,-18.582228],[44.035691,-18.408055],[44.04361,-18.201391],[44.011937,-18.056391],[44.00111,-17.94861],[44.01361,-17.8775],[44.026937,-17.846946],[44.031391,-17.756946],[43.988055,-17.68361],[43.924437,-17.600837],[43.937219,-17.479446],[43.964164,-17.42111],[44.137773,-17.176391],[44.34611,-16.796946],[44.383328,-16.763891],[44.437773,-16.692219],[44.46611,-16.495837],[44.45861,-16.466664],[44.404446,-16.382782],[44.398055,-16.341664],[44.442773,-16.203891],[44.460273,-16.183891],[44.488882,-16.177228],[44.8736,-16.210282],[45.034437,-16.120555],[45.140691,-15.993473],[45.265,-15.9275],[45.277219,-15.943055],[45.29361,-16.055555],[45.28861,-16.09681],[45.291664,-16.110555],[45.302637,-16.117782],[45.326946,-16.110282],[45.395555,-16.066946],[45.412773,-16.041391],[45.41111,-16.03111],[45.40111,-16.026673],[45.392219,-16.033291],[45.374446,-16.006391],[45.367082,-15.983337],[45.390546,-15.973337],[45.572491,-15.949164],[45.594164,-15.9875],[45.576382,-16.038337],[45.617773,-16.0575],[45.627491,-16.036664],[45.643882,-15.883055],[45.716664,-15.791664],[45.82611,-15.814728],[45.878328,-15.782219],[45.921391,-15.7725],[45.9575,-15.783891],[45.951946,-15.835282],[45.965,-15.853337],[46.06361,-15.871946],[46.072491,-15.86111],[46.070546,-15.784173],[46.048882,-15.788891],[46.011382,-15.823891],[46.004855,-15.808891],[46.027773,-15.775282],[46.068882,-15.74],[46.099446,-15.720282],[46.151382,-15.70361],[46.201946,-15.705],[46.2325,-15.714173],[46.24611,-15.759728],[46.235546,-15.80611],[46.246664,-15.846946],[46.28,-15.9325],[46.302219,-15.96111],[46.33111,-15.977219],[46.477773,-15.961391],[46.447219,-15.885837],[46.413055,-15.853891],[46.380137,-15.835691],[46.303473,-15.712364],[46.312773,-15.674719],[46.338337,-15.624728],[46.47361,-15.498055],[46.705273,-15.364728],[46.880273,-15.230555],[46.947219,-15.198891],[46.968328,-15.202228],[47.076382,-15.334446],[47.054991,-15.368891],[47.007219,-15.405837],[46.962219,-15.502228],[46.959446,-15.558055],[47.042219,-15.49361],[47.093046,-15.479728],[47.12901,-15.445182],[47.180782,-15.458773],[47.223619,-15.448464],[47.236737,-15.417291],[47.212219,-15.413337],[47.19611,-15.401391],[47.111937,-15.305555],[47.059719,-15.223337],[47.058328,-15.185],[47.108746,-15.115555],[47.310555,-14.9125],[47.286882,-14.855737],[47.292773,-14.842228],[47.341664,-14.777782],[47.454991,-14.665282],[47.465555,-14.66361],[47.500828,-14.711664],[47.506382,-14.826946],[47.494991,-14.857782],[47.4361,-14.925282],[47.4125,-14.971391],[47.409164,-15.086946],[47.416664,-15.106946],[47.427219,-15.110555],[47.491946,-15.076664],[47.566937,-14.950282],[47.64361,-14.778055],[47.69861,-14.68361],[47.811273,-14.603891],[47.97861,-14.625837],[47.998882,-14.686673],[47.987491,-14.76],[47.997082,-14.767228],[48.013328,-14.749446],[48.0225,-14.712364],[48.015273,-14.635282],[48.006946,-14.622782],[47.94111,-14.575837],[47.919164,-14.569164],[47.750973,-14.6032],[47.720837,-14.558337],[47.699719,-14.408337],[47.717773,-14.346946],[47.778882,-14.261391],[47.83,-14.233891],[47.875273,-14.252228],[47.927773,-14.253891],[47.948382,-14.177973],[47.939028,-14.13111],[47.9043,-14.096946],[47.914164,-14.088891],[47.987219,-14.120282],[48.016664,-14.1475],[47.997391,-14.195028],[47.971382,-14.306664],[47.977773,-14.3207],[47.993046,-14.326946],[48.003055,-14.322782],[48.048337,-14.155555],[48.0525,-14.10611],[48.04111,-14.068891],[47.994719,-14.051673],[47.941937,-14.006391],[47.946391,-13.996664],[47.983055,-13.994719],[48.022082,-13.960555],[47.910555,-13.8975],[47.88361,-13.826946],[47.8725,-13.776673],[47.905273,-13.596391],[47.927082,-13.587364],[47.955555,-13.592228],[48.019719,-13.58111],[48.047773,-13.55],[48.023046,-13.520837],[48.0343,-13.514728],[48.063328,-13.518055],[48.152773,-13.600837],[48.183464,-13.757637],[48.241946,-13.804446],[48.287219,-13.808055],[48.335546,-13.773055],[48.355828,-13.603891],[48.335273,-13.565282],[48.337637,-13.550837],[48.425555,-13.525282],[48.503882,-13.515555],[48.5,-12.5],[42.5,-12.5],[42.5,-6.5],[39.5,-6.5],[39.5,-6.917399],[39.507355,-6.939164],[39.547882,-6.99431],[39.540273,-7.082782],[39.4836,-7.166946],[39.4211,-7.221946],[39.374991,-7.29111],[39.299719,-7.459164],[39.274437,-7.579164],[39.299719,-7.757782],[39.322219,-7.736946],[39.342355,-7.740282],[39.446664,-7.814164],[39.445546,-8.0],[39.34861,-8.275],[39.324437,-8.295837],[39.295291,-8.267864],[39.305273,-8.296664],[39.31,-8.403337],[39.34,-8.548337],[39.355828,-8.716946],[39.533882,-8.91111],[39.4525,-8.861391],[39.405273,-8.866946],[39.3927,-8.906664],[39.457773,-8.940837],[39.644719,-9.19361],[39.649719,-9.355628],[39.701664,-9.566946],[39.731946,-9.65611],[39.730555,-9.755],[39.784437,-9.802228],[39.803746,-9.843337],[39.805273,-9.867082],[39.79111,-9.923891],[39.826382,-9.993055],[39.889719,-10.021664],[39.92791,-10.054719],[39.972637,-10.125555],[39.982082,-10.176528],[39.975637,-10.202282],[39.988746,-10.21681],[39.997637,-10.170555],[39.98951,-10.135973],[40.047219,-10.140555],[40.11361,-10.167782],[40.128055,-10.194728],[40.1325,-10.247782],[40.22791,-10.297637],[40.261173,-10.272155],[40.208191,-10.244928],[40.238119,-10.205282],[40.39861,-10.37111],[40.433882,-10.447782],[40.43681,-10.478173],[40.447773,-10.47111],[40.516246,-10.481946],[40.569446,-10.597228],[40.588337,-10.686673],[40.503055,-10.79111],[40.551382,-10.799728],[40.602219,-10.823755],[40.617219,-10.841664],[40.608328,-10.862364],[40.533191,-10.897919],[40.509228,-10.929791],[40.501664,-10.958055],[40.506246,-11.031391],[40.531246,-11.016319],[40.563819,-11.024237],[40.561664,-11.066391],[40.4986,-11.176673],[40.387773,-11.317782],[40.476664,-11.4041],[40.451246,-11.522082],[40.428891,-11.574719],[40.424164,-11.649728],[40.505555,-11.957228],[40.514719,-12.316391],[40.51,-12.434028],[40.474164,-12.504928],[40.558882,-12.553337],[40.61111,-12.708891],[40.645973,-12.755419],[40.644028,-12.777364],[40.51361,-12.885],[40.476664,-12.884164],[40.449719,-12.903055],[40.415837,-12.935419],[40.412773,-12.969237],[40.46111,-13.016391],[40.494019,-13.025419],[40.510828,-13.00681],[40.509164,-12.98611],[40.492737,-12.955046],[40.59291,-12.970691],[40.571937,-13.202782],[40.539446,-13.312228],[40.589855,-13.371873],[40.525837,-13.515282],[40.578891,-13.567219],[40.576946,-13.587228],[40.5393,-13.640419],[40.602773,-13.89681],[40.635828,-13.946255],[40.649719,-14.021664],[40.642773,-14.070837],[40.616319,-14.132019],[40.532773,-14.1675],[40.559437,-14.208055],[40.59861,-14.245837],[40.649164,-14.1975],[40.668882,-14.190282],[40.698882,-14.183191],[40.722773,-14.202082],[40.744719,-14.274728],[40.72861,-14.343055],[40.682291,-14.365628],[40.64361,-14.401391],[40.63611,-14.484728],[40.670555,-14.487782],[40.689991,-14.435837],[40.775064,-14.404373],[40.806382,-14.405973],[40.82111,-14.423473],[40.83111,-14.459446],[40.845273,-14.734164],[40.82,-14.81111],[40.728464,-14.889028],[40.770273,-14.978337],[40.703882,-15.08181],[40.6075,-15.115282],[40.537846,-15.124028],[40.514446,-15.183891],[40.538328,-15.194164],[40.581591,-15.196046],[40.605555,-15.163337],[40.6318,-15.157782],[40.668328,-15.191528],[40.6843,-15.254864],[40.578328,-15.498891],[40.543328,-15.534173],[40.43791,-15.602082],[40.360273,-15.723337],[40.125546,-15.94],[40.134019,-15.997637],[40.0975,-16.082919],[40.028055,-16.177228],[39.976664,-16.235555],[39.932773,-16.243337],[39.883891,-16.23931],[39.808055,-16.281946],[39.782637,-16.305555],[39.8175,-16.412782],[39.674437,-16.555282],[39.506664,-16.653337],[39.310555,-16.752228],[39.127491,-16.870419],[39.125,-16.937782],[39.096182,-16.984373],[38.824437,-17.05681],[38.6861,-17.070837],[38.249719,-17.229446],[38.198119,-17.269582],[38.096528,-17.316946],[37.960828,-17.345],[37.872219,-17.376391],[37.220555,-17.750073],[37.08861,-17.871946],[37.004164,-17.989446],[36.983891,-18.001391],[36.916382,-17.950555],[36.899855,-17.89],[36.870137,-17.8757],[36.846382,-17.875555],[36.821519,-17.894791],[36.952219,-18.029446],[36.970482,-18.059446],[36.943882,-18.10861],[36.77361,-18.301528],[36.479719,-18.576946],[36.418882,-18.674164],[36.39861,-18.733337],[36.320546,-18.794446],[36.252773,-18.891391],[36.158055,-18.903891],[36.131037,-18.900073],[36.122637,-18.840973],[36.131046,-18.808755],[36.123055,-18.8025],[36.100137,-18.813055],[36.059164,-18.86611],[35.982773,-18.926946],[35.878882,-18.975],[35.670419,-19.121946],[35.636664,-19.187228],[35.57611,-19.271391],[35.447146,-19.419028],[35.112219,-19.716946],[34.890691,-19.860419],[34.847564,-19.855591],[34.8127,-19.7784],[34.6268,-19.61861],[34.641391,-19.671946],[34.683882,-19.738955],[34.7425,-19.769028],[34.7761,-19.82591],[34.750546,-20.036664],[34.759437,-20.180555],[34.695137,-20.38111],[34.666937,-20.391182],[34.7393,-20.557782],[34.87111,-20.656673],[34.952982,-20.695555],[34.990273,-20.727364],[35.0125,-20.778891],[35.008891,-20.806946],[35.074437,-20.913064],[35.1118,-20.9333],[35.102964,-20.957328],[35.11791,-20.974446],[35.082491,-21.087228],[35.050282,-21.097782],[35.079164,-21.324173],[35.183882,-21.516673],[35.2468,-21.590555],[35.269646,-21.64861],[35.271937,-21.679173],[35.26361,-21.711673],[35.276737,-21.819237],[35.329991,-21.993337],[35.337491,-22.074446],[35.326937,-22.234028],[35.302355,-22.330419],[35.306737,-22.4075],[35.371664,-22.466119],[35.397219,-22.46],[35.409437,-22.414173],[35.391382,-22.347082],[35.3893,-22.298755],[35.403055,-22.221391],[35.41861,-22.17111],[35.445828,-22.120282],[35.480555,-22.0958],[35.545273,-22.2325],[35.540555,-22.414173],[35.491937,-22.570282],[35.485837,-22.629173],[35.504437,-22.834164],[35.535273,-22.950282],[35.597264,-22.919673],[35.563328,-23.015282],[35.519164,-23.083055],[35.479791,-23.178473],[35.48681,-23.28181],[35.412637,-23.521255],[35.406946,-23.65611],[35.347773,-23.695282],[35.338337,-23.905837],[35.339719,-23.969446],[35.360273,-23.953337],[35.376319,-23.857991],[35.439719,-23.87861],[35.49,-23.792919],[35.52291,-23.795491],[35.539791,-23.873055],[35.501664,-23.966664],[35.483255,-24.048128],[35.495555,-24.102219],[35.39,-24.26611],[35.309437,-24.365837],[35.192364,-24.490282],[35.185482,-24.522219],[35.143882,-24.57],[35.012219,-24.654164],[34.812773,-24.743337],[34.374164,-24.891673],[34.303891,-24.926946],[33.722637,-25.109028],[33.365828,-25.265],[33.1319,-25.381155],[32.882082,-25.538337],[32.81111,-25.612082],[32.770273,-25.68361],[32.7334,-25.806182],[32.704437,-25.825837],[32.693882,-25.8741],[32.647919,-25.926528],[32.587155,-25.972437],[32.603882,-26.031391],[32.806528,-26.275282],[32.843191,-26.29111],[32.8733,-26.272419],[32.864164,-26.20931],[32.902355,-26.107782],[32.945619,-26.08771],[32.9025,-26.715282],[32.881937,-26.819164],[32.890428,-26.847146],[32.868337,-27.0075],[32.834719,-27.130555],[32.729719,-27.397782],[32.673882,-27.515837],[32.588119,-27.891182],[32.595346,-27.929655],[32.556946,-28.154173],[32.545273,-28.184173],[32.459164,-28.317219],[32.432219,-28.378055],[32.408328,-28.5],[32.394437,-28.531391],[32.189991,-28.721946],[31.994164,-28.879446],[31.862782,-28.936946],[31.774164,-28.945555],[31.325837,-29.390837],[31.209719,-29.535282],[31.117773,-29.679446],[31.009719,-29.8725],[31.000137,-29.89931],[31.051791,-29.892546],[31.035137,-29.925],[30.918328,-30.020419],[30.87,-30.076946],[30.739446,-30.321946],[30.476391,-30.71361],[30.39,-30.856673],[30.216664,-31.057364],[30.192619,-31.072919],[30.162219,-31.12],[30.023891,-31.28111],[29.850828,-31.422364],[29.773328,-31.440419],[29.711391,-31.493891],[29.629446,-31.581391],[29.526946,-31.645837],[29.411946,-31.704173],[29.296946,-31.83],[29.200837,-31.951946],[29.091664,-32.064446],[28.934164,-32.219455],[28.65361,-32.448337],[28.565273,-32.530282],[28.542364,-32.567919],[28.355,-32.7032],[28.228055,-32.7675],[28.105555,-32.86431],[28.078055,-32.902228],[27.9,-33.040555],[27.730273,-33.1175],[27.60611,-33.211946],[27.451382,-33.310282],[27.100973,-33.5257],[27.030555,-33.5564],[26.731664,-33.654446],[26.644164,-33.700837],[26.62861,-33.717091],[26.460137,-33.772291],[26.277919,-33.765146],[26.223328,-33.742782],[26.079164,-33.714728],[26.003055,-33.710837],[25.86861,-33.721946],[25.725,-33.767228],[25.675282,-33.794446],[25.62861,-33.851391],[25.613055,-33.914455],[25.615619,-33.937019],[25.65,-33.9732],[25.67271,-33.98341],[25.701946,-34.031955],[25.627219,-34.048337],[25.584446,-34.048891],[25.3925,-34.0275],[25.286946,-33.986119],[25.164164,-33.958891],[25.022637,-33.968055],[24.942219,-33.990282],[24.918328,-34.007928],[24.9193,-34.066882],[24.824719,-34.201664],[24.655,-34.169728],[24.590419,-34.179864],[24.515828,-34.170282],[24.475,-34.159864],[24.385555,-34.107228],[23.6493,-33.983891],[23.545828,-33.990564],[23.451946,-34.008055],[23.3893,-34.0291],[23.369028,-34.050282],[23.366182,-34.0909],[23.240837,-34.09361],[23.067219,-34.083891],[22.959446,-34.091391],[22.812464,-34.0466],[22.783337,-34.011119],[22.539164,-34.011182],[22.479446,-34.053619],[22.438891,-34.064173],[22.402637,-34.067919],[22.297219,-34.054446],[22.1625,-34.089455],[22.133473,-34.107228],[22.116946,-34.135555],[21.943882,-34.230282],[21.916664,-34.258891],[21.916946,-34.3075],[21.899582,-34.337782],[21.8025,-34.383055],[21.725555,-34.396946],[21.64861,-34.389446],[21.532082,-34.352228],[21.425519,-34.386355],[21.371946,-34.416946],[21.301382,-34.432782],[21.210282,-34.415],[21.062773,-34.363891],[20.9425,-34.360282],[20.886946,-34.371673],[20.849446,-34.40111],[20.79861,-34.458619],[20.662464,-34.440819],[20.544028,-34.45361],[20.504446,-34.464728],[20.462773,-34.480837],[20.393891,-34.554446],[20.230273,-34.660837],[20.089719,-34.726391],[20.0,-34.822],[19.959582,-34.8125],[19.857773,-34.7525],[19.71361,-34.754446],[19.646455,-34.773128],[19.541946,-34.708619],[19.516391,-34.675564],[19.42361,-34.621946],[19.32041,-34.595282],[19.364028,-34.5307],[19.336664,-34.463619],[19.307637,-34.428055],[19.278191,-34.409173],[19.247637,-34.411673],[19.213682,-34.426464],[19.120346,-34.408473],[19.083337,-34.346391],[18.999446,-34.341119],[18.91361,-34.356946],[18.851391,-34.378064],[18.819719,-34.378891],[18.804582,-34.358337],[18.80861,-34.308619],[18.842919,-34.25681],[18.854582,-34.153337],[18.823473,-34.107155],[18.799028,-34.088891],[18.752637,-34.077928],[18.601946,-34.073619],[18.546664,-34.079173],[18.485973,-34.099446],[18.442219,-34.141255],[18.4418,-34.175073],[18.478882,-34.234455],[18.485028,-34.34831],[18.457637,-34.344728],[18.420273,-34.323055],[18.380273,-34.255837],[18.310555,-34.035555],[18.384791,-33.9107],[18.415137,-33.902782],[18.445555,-33.911664],[18.466664,-33.817219],[18.439028,-33.701946],[18.317889,-33.5],[15.5,-33.5],[15.5,-39.5]],[[45.045273,-12.695282],[45.078891,-12.6625],[45.208328,-12.7275],[45.229719,-12.754864],[45.17701,-12.925346],[45.18111,-12.971391],[45.136382,-12.9925],[45.0975,-12.985837],[45.07,-12.957228],[45.062846,-12.8941],[45.084582,-12.890628],[45.096528,-12.905555],[45.117891,-12.90111],[45.124528,-12.888864],[45.10361,-12.828337],[45.058328,-12.750837],[45.040964,-12.738473],[45.045273,-12.695282]],[[39.6525,-7.913337],[39.80111,-7.78361],[39.862782,-7.706946],[39.901246,-7.642573],[39.91,-7.677782],[39.889446,-7.763337],[39.846382,-7.877364],[39.825,-7.909164],[39.727773,-7.975],[39.682491,-7.993337],[39.646946,-7.99611],[39.611664,-7.974719],[39.59291,-7.949446],[39.6525,-7.913337]],[[48.196664,-13.27],[48.266391,-13.2025],[48.284164,-13.195973],[48.320828,-13.197919],[48.361519,-13.408337],[48.331937,-13.42],[48.222355,-13.405419],[48.207219,-13.393055],[48.192219,-13.338055],[48.196664,-13.27]],[[49.860546,-16.913891],[49.961664,-16.759728],[50.010555,-16.725564],[49.939719,-16.9075],[49.827219,-17.095282],[49.82,-17.088337],[49.817637,-17.04431],[49.860546,-16.913891]],[[39.812773,-16.324864],[39.834991,-16.290137],[39.8643,-16.2775],[39.908746,-16.274864],[39.914855,-16.282919],[39.90291,-16.412364],[39.849446,-16.415282],[39.834373,-16.406737],[39.810555,-16.360691],[39.812773,-16.324864]],[[35.424437,-21.7275],[35.435828,-21.655282],[35.471382,-21.53361],[35.483328,-21.525282],[35.4968,-21.546391],[35.494719,-21.658337],[35.452219,-21.7875],[35.428055,-21.77611],[35.424437,-21.7275]],[[45.283764,-12.7469],[45.293346,-12.785228],[45.280082,-12.805128],[45.263128,-12.768273],[45.283764,-12.7469]],[[42.737846,-17.052019],[42.7609,-17.065282],[42.757773,-17.075],[42.741528,-17.074028],[42.723819,-17.057991],[42.737846,-17.052019]]]}}
