{"type":"Feature","id":"iho.47","geometry_name":"the_geom","properties":{"name":"Singapore Strait","id":"46B","longitude":103.95696616966,"latitude":1.25050208602,"min_x":103.34568774669,"min_y":1.07172334236,"max_x":104.5826405866,"max_y":1.70037245722,"area":2684,"mrgid":4336},"geometry":{"type":"Polygon","coordinates":[[[103.936473,1.694459],[103.935903,1.697845],[103.930112,1.700372],[103.935162,1.696884],[103.935507,1.694458],[103.92951,1.695236],[103.927184,1.693876],[103.92784,1.690641],[103.938344,1.686635],[103.929966,1.682059],[103.928916,1.678205],[103.932469,1.668453],[103.930812,1.665405],[103.924931,1.661365],[103.925652,1.657963],[103.927789,1.654873],[103.939635,1.651665],[103.944526,1.644069],[103.955765,1.633311],[103.9631,1.632047],[103.970028,1.63361],[103.972039,1.630688],[103.962739,1.613795],[103.9569,1.611632],[103.956988,1.616023],[103.955359,1.614483],[103.956005,1.610961],[103.964082,1.609277],[103.963868,1.603072],[103.966488,1.598602],[103.966644,1.593589],[103.964177,1.592796],[103.960218,1.595395],[103.957274,1.595417],[103.950991,1.592536],[103.945689,1.592548],[103.943435,1.590191],[103.950146,1.590454],[103.957483,1.59332],[103.964108,1.589896],[103.970326,1.589309],[103.972972,1.584997],[103.979122,1.580186],[103.978181,1.578699],[103.966919,1.578936],[103.96886,1.577369],[103.974711,1.577191],[103.970771,1.573316],[103.960639,1.571994],[103.955069,1.573306],[103.948829,1.571365],[103.947984,1.568705],[103.944009,1.568128],[103.943226,1.565583],[103.938781,1.565095],[103.931063,1.560827],[103.943777,1.563331],[103.954313,1.570227],[103.961409,1.568667],[103.97433,1.57008],[103.978953,1.57264],[103.98261,1.578759],[103.992399,1.573807],[103.998851,1.56794],[103.999124,1.566153],[103.99148,1.565793],[104.001374,1.56065],[104.008182,1.553024],[104.009124,1.549946],[104.006555,1.54312],[104.009443,1.538698],[104.00783,1.537833],[104.010446,1.537637],[104.015553,1.529902],[104.014833,1.523606],[104.004371,1.515524],[103.999662,1.5196],[104.001906,1.529816],[104.006335,1.530851],[103.9979,1.531691],[104.000524,1.528041],[103.997888,1.522995],[103.997811,1.518945],[104.004517,1.510788],[104.008841,1.50218],[104.00415,1.481985],[104.011785,1.471148],[104.006202,1.447983],[103.997316,1.438759],[103.998167,1.43477],[103.994477,1.43625],[103.98869,1.432093],[103.985624,1.432975],[103.978935,1.430275],[103.974916,1.43032],[103.971604,1.433806],[103.972104,1.439675],[103.970219,1.434698],[103.971709,1.427556],[103.960422,1.426138],[103.923705,1.436042],[103.920765,1.435409],[103.920628,1.429722],[103.898904,1.435113],[103.894781,1.433181],[103.883256,1.439443],[103.883763,1.442521],[103.873409,1.454709],[103.869256,1.466684],[103.863235,1.470526],[103.852067,1.471867],[103.839229,1.480008],[103.833864,1.480211],[103.830695,1.482399],[103.824811,1.481369],[103.816477,1.48514],[103.799178,1.485485],[103.797228,1.489585],[103.798364,1.494734],[103.803893,1.497631],[103.797749,1.496001],[103.795149,1.501321],[103.786185,1.506447],[103.779201,1.513341],[103.774921,1.514313],[103.770731,1.51827],[103.76915,1.517086],[103.768845,1.520075],[103.768531,1.516598],[103.776061,1.505684],[103.785039,1.501145],[103.791988,1.501485],[103.795575,1.498664],[103.794158,1.489862],[103.795012,1.484008],[103.790263,1.479164],[103.784843,1.469863],[103.77527,1.464055],[103.768359,1.455517],[103.757681,1.453154],[103.735659,1.45928],[103.727346,1.466898],[103.721886,1.477897],[103.718609,1.480719],[103.710938,1.480469],[103.709916,1.479345],[103.711993,1.478016],[103.709733,1.475876],[103.703976,1.477832],[103.704767,1.488145],[103.702132,1.490291],[103.694908,1.490696],[103.692941,1.492466],[103.692176,1.490613],[103.693891,1.489233],[103.703454,1.487449],[103.703704,1.485775],[103.700408,1.481767],[103.703756,1.476056],[103.709227,1.474402],[103.71521,1.474805],[103.715607,1.472829],[103.711821,1.467894],[103.707843,1.468884],[103.709663,1.466828],[103.715782,1.468356],[103.716463,1.464875],[103.702326,1.458056],[103.698202,1.458633],[103.692301,1.456521],[103.690438,1.457325],[103.6874,1.463323],[103.683773,1.465562],[103.690432,1.455666],[103.696846,1.454447],[103.696651,1.451285],[103.689557,1.445817],[103.688497,1.442649],[103.684123,1.44369],[103.681462,1.440588],[103.678211,1.439702],[103.67503,1.441907],[103.668076,1.426921],[103.66806,1.422311],[103.666199,1.419136],[103.658592,1.413444],[103.657145,1.40988],[103.65067,1.40625],[103.646455,1.387671],[103.640635,1.379787],[103.637747,1.378598],[103.634665,1.379436],[103.638933,1.375199],[103.633131,1.367726],[103.606673,1.346012],[103.603076,1.344617],[103.583314,1.344659],[103.557869,1.351157],[103.556903,1.34855],[103.563246,1.332393],[103.557724,1.330397],[103.545386,1.359914],[103.539092,1.386126],[103.541259,1.394713],[103.547435,1.399084],[103.54176,1.397087],[103.541085,1.404456],[103.549039,1.429088],[103.552455,1.453822],[103.553586,1.455071],[103.558568,1.453924],[103.56168,1.447465],[103.565798,1.447629],[103.562358,1.447793],[103.558822,1.455343],[103.555907,1.455343],[103.553969,1.457371],[103.549778,1.455545],[103.545653,1.462374],[103.545509,1.45968],[103.549055,1.4548],[103.550033,1.449988],[103.54852,1.444953],[103.547163,1.443567],[103.545251,1.444526],[103.547424,1.44182],[103.546663,1.432394],[103.536459,1.408121],[103.522673,1.407569],[103.517597,1.413049],[103.511667,1.42399],[103.509747,1.425749],[103.5032,1.426827],[103.499812,1.431315],[103.49866,1.43041],[103.501866,1.425811],[103.510852,1.422011],[103.51195,1.416173],[103.509532,1.414863],[103.512754,1.41508],[103.51438,1.411034],[103.521989,1.404629],[103.517928,1.398706],[103.51148,1.395347],[103.518244,1.397349],[103.523145,1.403565],[103.531616,1.403431],[103.535709,1.400934],[103.535604,1.398087],[103.532025,1.393095],[103.529573,1.381981],[103.523918,1.381761],[103.517838,1.384419],[103.513629,1.381153],[103.518284,1.382967],[103.522798,1.380468],[103.531762,1.381312],[103.53302,1.380231],[103.536797,1.369837],[103.535209,1.355951],[103.537976,1.348327],[103.546736,1.334835],[103.546191,1.332311],[103.542916,1.329641],[103.525548,1.319371],[103.515185,1.305031],[103.512757,1.299285],[103.510684,1.284717],[103.513444,1.266022],[103.345688,1.188708],[103.380783,1.157997],[103.381814,1.162061],[103.38854,1.166536],[103.408938,1.14368],[103.796023,1.091595],[103.790582,1.097162],[103.791328,1.106979],[103.793204,1.109413],[103.801968,1.10185],[103.804666,1.101661],[103.80406,1.099388],[103.806608,1.096039],[103.811787,1.095635],[103.811696,1.093185],[103.813835,1.091091],[103.859435,1.091863],[103.859875,1.093401],[103.863177,1.091166],[103.862503,1.094726],[103.865684,1.098131],[103.858585,1.09628],[103.861945,1.101149],[103.865676,1.10334],[103.868844,1.100635],[103.868379,1.098867],[103.871785,1.098469],[103.869984,1.095027],[103.873386,1.092099],[103.887854,1.092344],[103.888989,1.095724],[103.891053,1.096411],[103.896294,1.093268],[103.900322,1.096632],[103.906307,1.096324],[103.912203,1.099543],[103.913948,1.097588],[103.910185,1.086717],[103.912016,1.083737],[103.916672,1.084557],[103.916781,1.077976],[103.91784,1.076923],[103.919782,1.078404],[103.923921,1.071723],[103.929112,1.075419],[103.931976,1.083328],[103.937093,1.083685],[103.933006,1.095909],[103.928571,1.099191],[103.931174,1.101915],[103.931406,1.109521],[103.935049,1.109612],[103.936663,1.111747],[103.932724,1.115251],[103.93346,1.118722],[103.931991,1.122493],[103.923947,1.124943],[103.918538,1.139236],[103.920165,1.142673],[103.924466,1.143064],[103.926045,1.141307],[103.928772,1.141691],[103.944101,1.136565],[103.941717,1.139696],[103.943757,1.144153],[103.94623,1.145433],[103.951651,1.137828],[103.956612,1.137864],[103.961985,1.14237],[103.96785,1.136005],[103.966343,1.125955],[103.96932,1.133181],[103.972819,1.136174],[103.975307,1.134703],[103.977458,1.137183],[103.980009,1.132618],[103.979888,1.128954],[103.983486,1.131023],[103.987489,1.126434],[103.987333,1.129697],[103.98904,1.130965],[103.996871,1.123637],[103.989954,1.138984],[103.986606,1.14275],[103.984836,1.142524],[103.984481,1.144166],[103.985866,1.144745],[103.985029,1.143007],[103.986735,1.143232],[103.990115,1.141237],[103.992349,1.14785],[103.996165,1.149461],[104.000264,1.149319],[104.001512,1.146244],[104.000835,1.1507],[103.996393,1.153951],[103.997708,1.158308],[103.996191,1.160315],[103.999901,1.161384],[104.000318,1.162859],[103.99684,1.164786],[104.001642,1.166494],[103.998192,1.167906],[103.998024,1.173101],[104.00105,1.176099],[103.998739,1.179161],[104.013141,1.189102],[104.02253,1.188307],[104.025095,1.19062],[104.026993,1.185632],[104.024191,1.17445],[104.030553,1.174811],[104.03391,1.171256],[104.037717,1.165858],[104.036291,1.164388],[104.037776,1.161188],[104.036966,1.158197],[104.040137,1.157319],[104.047279,1.161133],[104.051154,1.159884],[104.05272,1.156225],[104.056239,1.154594],[104.056325,1.15202],[104.050573,1.15099],[104.050659,1.138973],[104.048771,1.136656],[104.054005,1.13348],[104.062503,1.13348],[104.069199,1.130648],[104.07332,1.125755],[104.073479,1.121914],[104.071742,1.118912],[104.075343,1.121036],[104.077986,1.125249],[104.084113,1.128403],[104.081198,1.129936],[104.077597,1.137459],[104.079719,1.144802],[104.084417,1.147138],[104.086655,1.142408],[104.092489,1.138543],[104.098597,1.142991],[104.101787,1.140779],[104.098926,1.144122],[104.094749,1.140657],[104.091497,1.140939],[104.089477,1.144694],[104.091011,1.147157],[104.088957,1.152248],[104.092804,1.15646],[104.0864,1.154885],[104.073231,1.161507],[104.071136,1.160867],[104.068436,1.169164],[104.070279,1.179822],[104.073352,1.183733],[104.071928,1.187502],[104.083108,1.19129],[104.082528,1.193992],[104.084961,1.19584],[104.095387,1.193453],[104.098005,1.199428],[104.104042,1.196892],[104.105924,1.191991],[104.117332,1.18491],[104.124261,1.183049],[104.240993,1.124244],[104.242559,1.120318],[104.273701,1.124985],[104.298118,1.132767],[104.306121,1.137483],[104.324264,1.136503],[104.328588,1.138143],[104.331662,1.144536],[104.334929,1.1453],[104.328057,1.145922],[104.322616,1.157245],[104.319185,1.160276],[104.320519,1.161335],[104.324869,1.16006],[104.329547,1.164096],[104.318182,1.16651],[104.317421,1.173718],[104.310405,1.175053],[104.311625,1.176682],[104.309744,1.178545],[104.311493,1.182186],[104.314361,1.179736],[104.318774,1.183694],[104.321321,1.179778],[104.330507,1.179401],[104.33955,1.185362],[104.337952,1.19049],[104.338909,1.191164],[104.341805,1.19035],[104.346446,1.185577],[104.351832,1.187849],[104.353944,1.187179],[104.354872,1.182748],[104.358549,1.18218],[104.359639,1.180348],[104.371715,1.179092],[104.377928,1.182506],[104.380891,1.186984],[104.379812,1.190011],[104.37693,1.19143],[104.379393,1.19326],[104.379779,1.196312],[104.381328,1.19781],[104.390113,1.198363],[104.393883,1.204435],[104.395594,1.200653],[104.406229,1.201811],[104.411557,1.198437],[104.414063,1.200335],[104.414063,1.198103],[104.422636,1.196356],[104.422829,1.194248],[104.428325,1.190985],[104.44559,1.184739],[104.454633,1.183088],[104.457967,1.185312],[104.460438,1.179865],[104.462353,1.180154],[104.465008,1.185051],[104.465514,1.176683],[104.476874,1.173897],[104.483399,1.174888],[104.487307,1.173241],[104.488685,1.174761],[104.499337,1.169148],[104.531075,1.178023],[104.535926,1.182091],[104.535517,1.187963],[104.542458,1.197792],[104.557619,1.200865],[104.561135,1.197188],[104.560336,1.19261],[104.562091,1.190639],[104.561707,1.198274],[104.558238,1.202045],[104.558242,1.205233],[104.556155,1.205171],[104.556989,1.209614],[104.555433,1.209457],[104.554646,1.202189],[104.551518,1.201337],[104.546546,1.20348],[104.54551,1.217494],[104.554083,1.225465],[104.559839,1.228295],[104.570613,1.22988],[104.580237,1.22542],[104.582641,1.227171],[104.293857,1.364979],[104.291775,1.364114],[104.291959,1.365885],[104.283143,1.370092],[104.279663,1.369337],[104.276164,1.364235],[104.269675,1.364211],[104.26132,1.357948],[104.252191,1.359731],[104.251423,1.367807],[104.2473,1.369343],[104.2443,1.368649],[104.238081,1.364865],[104.231309,1.354684],[104.225866,1.351516],[104.225982,1.347266],[104.217237,1.350549],[104.20074,1.337043],[104.196033,1.345395],[104.189774,1.346098],[104.187174,1.348698],[104.178161,1.347906],[104.164346,1.34159],[104.160973,1.341925],[104.156215,1.347031],[104.150264,1.345953],[104.140999,1.341503],[104.136746,1.34161],[104.130314,1.353914],[104.12514,1.356834],[104.10547,1.364609],[104.092816,1.368232],[104.088419,1.367994],[104.095186,1.380018],[104.106962,1.390427],[104.110957,1.390823],[104.112253,1.399142],[104.118699,1.408152],[104.123416,1.409409],[104.130154,1.405341],[104.135512,1.404091],[104.140135,1.408085],[104.139581,1.416167],[104.142159,1.419643],[104.145118,1.42001],[104.152486,1.416322],[104.155553,1.416295],[104.158243,1.412043],[104.161805,1.411036],[104.16962,1.420014],[104.160483,1.414144],[104.148555,1.420253],[104.145138,1.428128],[104.146369,1.438943],[104.143767,1.429049],[104.145787,1.423085],[104.137835,1.41755],[104.138314,1.409202],[104.136719,1.40625],[104.120988,1.413813],[104.106704,1.405378],[104.102988,1.410272],[104.101812,1.417274],[104.094338,1.422271],[104.090671,1.429647],[104.07221,1.441846],[104.0625,1.44308],[104.058935,1.445825],[104.059184,1.449941],[104.065262,1.455777],[104.067273,1.461748],[104.06952,1.463748],[104.075272,1.4639],[104.077713,1.465804],[104.078571,1.468709],[104.072883,1.476368],[104.07596,1.4818],[104.0715,1.477221],[104.073785,1.471926],[104.076718,1.470147],[104.076816,1.466548],[104.067558,1.463835],[104.0625,1.455078],[104.05336,1.45305],[104.045107,1.456498],[104.041027,1.461334],[104.040171,1.465949],[104.047404,1.471431],[104.056601,1.485028],[104.061436,1.488503],[104.054947,1.503094],[104.070042,1.515288],[104.078451,1.515875],[104.087767,1.513713],[104.092087,1.515553],[104.096135,1.515252],[104.101227,1.521191],[104.10788,1.522153],[104.110604,1.52713],[104.117125,1.529784],[104.118919,1.528754],[104.131975,1.540039],[104.133647,1.544227],[104.136552,1.544081],[104.135765,1.54681],[104.137219,1.548578],[104.146183,1.544998],[104.152089,1.549047],[104.156631,1.547056],[104.164361,1.546676],[104.172166,1.548292],[104.173982,1.551589],[104.179493,1.553396],[104.179003,1.560143],[104.177312,1.557055],[104.178397,1.55366],[104.173417,1.552608],[104.167477,1.54818],[104.158409,1.54879],[104.15321,1.551268],[104.144014,1.548586],[104.141882,1.551433],[104.135497,1.552833],[104.132033,1.565179],[104.133046,1.569832],[104.130653,1.565914],[104.132731,1.559529],[104.131481,1.54896],[104.12525,1.539201],[104.120877,1.536056],[104.115104,1.535685],[104.106725,1.532058],[104.102538,1.527929],[104.08801,1.51984],[104.082104,1.521257],[104.074461,1.526687],[104.069286,1.526888],[104.060872,1.524237],[104.057067,1.529688],[104.059916,1.538084],[104.058466,1.5408],[104.055388,1.53087],[104.058383,1.524938],[104.064252,1.521091],[104.052639,1.516715],[104.049415,1.511836],[104.049401,1.508052],[104.045508,1.503464],[104.04519,1.496515],[104.04049,1.495315],[104.036819,1.507542],[104.034188,1.510683],[104.033541,1.523429],[104.029384,1.533412],[104.033164,1.553812],[104.029995,1.560402],[104.02263,1.567638],[104.020311,1.575967],[104.013145,1.583588],[104.011611,1.588622],[104.004604,1.593441],[103.99708,1.595525],[103.996559,1.598023],[103.991556,1.60129],[103.977172,1.618119],[103.974682,1.623734],[103.975975,1.632341],[103.97436,1.636902],[103.976637,1.638904],[103.976812,1.641592],[103.975059,1.644433],[103.963549,1.64757],[103.957462,1.647348],[103.951082,1.65327],[103.943606,1.656654],[103.931265,1.655941],[103.928882,1.65804],[103.928622,1.660599],[103.93468,1.669254],[103.934065,1.673906],[103.931088,1.67512],[103.930353,1.67945],[103.939388,1.686522],[103.93681,1.689234],[103.928738,1.691062],[103.927529,1.692587],[103.936473,1.694459]],[[103.95023,1.650088],[103.952519,1.649932],[103.954921,1.645414],[103.955545,1.647491],[103.959138,1.646905],[103.959677,1.644372],[103.966789,1.643137],[103.967321,1.639959],[103.96277,1.64026],[103.959929,1.63461],[103.955776,1.636719],[103.954329,1.635348],[103.953878,1.639087],[103.951873,1.63862],[103.944893,1.644949],[103.947204,1.645753],[103.94479,1.649981],[103.949749,1.646193],[103.950807,1.646561],[103.95023,1.650088]],[[103.979657,1.590241],[103.980329,1.590681],[103.98148,1.588532],[103.979657,1.590241]],[[104.057665,1.432933],[104.083816,1.414965],[104.085727,1.410239],[104.083172,1.407444],[104.083091,1.401708],[104.079289,1.39121],[104.076747,1.389812],[104.071105,1.391252],[104.057409,1.385746],[104.055169,1.381709],[104.050692,1.38062],[104.040848,1.392977],[104.04074,1.396025],[104.038277,1.395804],[104.036435,1.40114],[104.028619,1.407172],[104.030977,1.412689],[104.028814,1.424369],[104.03023,1.42574],[104.035944,1.424762],[104.039641,1.426116],[104.043617,1.431312],[104.052546,1.428909],[104.057665,1.432933]],[[104.000261,1.390684],[104.004407,1.377389],[104.008557,1.373441],[104.006614,1.371245],[104.007183,1.369433],[104.009984,1.368656],[104.01359,1.37063],[104.029301,1.363678],[104.041406,1.355009],[104.03222,1.358614],[104.030074,1.356554],[104.029988,1.352005],[104.022432,1.335869],[104.018569,1.336298],[104.013675,1.326685],[104.006635,1.325312],[104.00509,1.322222],[104.018637,1.324749],[104.032384,1.324798],[104.032907,1.31793],[104.034382,1.318789],[104.032504,1.315972],[104.032451,1.309428],[104.031968,1.315597],[104.028614,1.31565],[104.028721,1.320264],[104.02298,1.319915],[104.023436,1.311064],[104.026709,1.310903],[104.022899,1.310796],[104.022497,1.315731],[104.010843,1.315237],[104.001678,1.310036],[103.991636,1.313466],[103.987716,1.311604],[103.982624,1.316374],[103.977597,1.315157],[103.973112,1.316335],[103.961004,1.313678],[103.955755,1.31096],[103.948038,1.310541],[103.941231,1.306905],[103.921366,1.302705],[103.902544,1.29659],[103.887902,1.289764],[103.878361,1.283483],[103.876582,1.280553],[103.870443,1.2854],[103.86631,1.293608],[103.86631,1.298532],[103.871282,1.298479],[103.872139,1.299852],[103.870414,1.304133],[103.868241,1.304181],[103.864136,1.298822],[103.864793,1.289096],[103.861715,1.287044],[103.870897,1.280937],[103.871455,1.276648],[103.861061,1.269117],[103.858724,1.269186],[103.851017,1.274347],[103.850528,1.263224],[103.851749,1.26155],[103.850598,1.260678],[103.845332,1.266955],[103.843902,1.26556],[103.846552,1.262491],[103.845611,1.261585],[103.839159,1.267443],[103.832392,1.267582],[103.823797,1.263119],[103.823877,1.260242],[103.823404,1.263119],[103.815791,1.263886],[103.812024,1.266641],[103.808641,1.264967],[103.805049,1.26788],[103.806583,1.26563],[103.804665,1.262631],[103.796818,1.269849],[103.794167,1.270198],[103.794795,1.271488],[103.793679,1.272115],[103.792667,1.270546],[103.777216,1.279473],[103.770555,1.268419],[103.757371,1.27623],[103.750779,1.280798],[103.753081,1.284877],[103.756848,1.285087],[103.768916,1.278427],[103.77202,1.283796],[103.760231,1.290456],[103.762324,1.295024],[103.756743,1.300254],[103.753408,1.30769],[103.752464,1.306775],[103.755533,1.297363],[103.748982,1.296566],[103.744053,1.298041],[103.743138,1.30111],[103.7406,1.298927],[103.729615,1.301747],[103.727151,1.310691],[103.732023,1.318792],[103.732312,1.322387],[103.722805,1.305624],[103.726198,1.305359],[103.72673,1.300638],[103.713184,1.30884],[103.712564,1.306391],[103.720916,1.301553],[103.72189,1.299163],[103.711728,1.299724],[103.711118,1.297274],[103.710528,1.308398],[103.708314,1.307778],[103.708432,1.301759],[103.702235,1.301671],[103.702146,1.303824],[103.695506,1.307837],[103.693676,1.306244],[103.693765,1.300638],[103.683554,1.29931],[103.681547,1.309224],[103.680514,1.30884],[103.681665,1.298514],[103.679953,1.297245],[103.677594,1.296877],[103.673667,1.301258],[103.672516,1.305919],[103.670923,1.305978],[103.670834,1.303618],[103.668945,1.303618],[103.669211,1.30055],[103.674228,1.295239],[103.666437,1.289013],[103.657583,1.297392],[103.653068,1.300136],[103.651698,1.299209],[103.649547,1.301485],[103.657288,1.310315],[103.655931,1.311525],[103.649718,1.304623],[103.645749,1.308899],[103.651976,1.315272],[103.649379,1.317367],[103.643444,1.311347],[103.637426,1.316393],[103.634505,1.312056],[103.643,1.298565],[103.650105,1.283115],[103.647087,1.279333],[103.637251,1.278915],[103.639901,1.275846],[103.639413,1.265107],[103.632228,1.262875],[103.638576,1.265804],[103.638646,1.269919],[103.621556,1.26162],[103.621277,1.257924],[103.629159,1.260853],[103.615487,1.254158],[103.615697,1.250811],[103.621676,1.238236],[103.617397,1.235374],[103.621974,1.224729],[103.61765,1.22452],[103.616743,1.221591],[103.612209,1.222079],[103.610744,1.219847],[103.640598,1.211339],[103.644435,1.212176],[103.642063,1.210014],[103.606629,1.220335],[103.605931,1.225217],[103.607605,1.220614],[103.609837,1.219987],[103.610325,1.227239],[103.617929,1.230469],[103.616187,1.237292],[103.612139,1.236235],[103.611302,1.237561],[103.611441,1.239722],[103.616743,1.240559],[103.618556,1.242861],[103.614511,1.247812],[103.610814,1.246068],[103.609698,1.251787],[103.611651,1.253042],[103.61172,1.255413],[103.617929,1.260086],[103.618068,1.266362],[103.60914,1.267827],[103.605722,1.262178],[103.608372,1.269431],[103.614929,1.268524],[103.616185,1.271592],[103.613255,1.276404],[103.61765,1.275567],[103.619533,1.283099],[103.621894,1.28573],[103.617669,1.295949],[103.635664,1.343985],[103.634096,1.349915],[103.637579,1.351683],[103.638293,1.348979],[103.644732,1.344041],[103.649787,1.34263],[103.651021,1.336326],[103.655442,1.336465],[103.656364,1.338077],[103.653539,1.338715],[103.652192,1.344315],[103.644853,1.350337],[103.641198,1.355728],[103.645842,1.360911],[103.651476,1.362561],[103.654164,1.361639],[103.652405,1.367575],[103.655182,1.372476],[103.668453,1.372507],[103.670673,1.367282],[103.672876,1.366521],[103.67425,1.369308],[103.67161,1.375742],[103.673838,1.378719],[103.677362,1.378865],[103.671703,1.382832],[103.662467,1.38176],[103.65889,1.383121],[103.657038,1.381716],[103.66208,1.3925],[103.663225,1.40625],[103.66554,1.409239],[103.66992,1.411226],[103.674416,1.425105],[103.677834,1.428757],[103.695227,1.434724],[103.706873,1.446015],[103.713572,1.449712],[103.726985,1.451119],[103.730299,1.449725],[103.7384,1.439608],[103.737723,1.432617],[103.736265,1.431159],[103.738322,1.429075],[103.735543,1.420614],[103.730106,1.415292],[103.722495,1.412138],[103.717967,1.412703],[103.714988,1.414847],[103.703865,1.41138],[103.709403,1.41183],[103.711691,1.409895],[103.714532,1.412735],[103.71701,1.409434],[103.725327,1.409522],[103.726283,1.40625],[103.723951,1.399645],[103.724313,1.396036],[103.720141,1.391597],[103.726254,1.395464],[103.726742,1.401155],[103.729077,1.403576],[103.73516,1.391887],[103.73569,1.397489],[103.73019,1.40625],[103.729663,1.409755],[103.732896,1.413771],[103.739303,1.417526],[103.746467,1.428357],[103.74279,1.437633],[103.743827,1.440318],[103.750147,1.437299],[103.761639,1.4386],[103.767569,1.447514],[103.783296,1.455745],[103.796497,1.466767],[103.806522,1.470669],[103.818798,1.470968],[103.822232,1.467936],[103.819771,1.466612],[103.819052,1.463782],[103.821671,1.466563],[103.82505,1.466112],[103.828758,1.471268],[103.830611,1.469627],[103.830226,1.467649],[103.851042,1.454827],[103.851379,1.451275],[103.846069,1.449771],[103.846537,1.448153],[103.853795,1.448969],[103.856259,1.443681],[103.853037,1.439346],[103.857901,1.441129],[103.862549,1.43508],[103.862313,1.432299],[103.847696,1.409857],[103.843367,1.407717],[103.834261,1.41037],[103.829433,1.408051],[103.828243,1.402484],[103.831095,1.405655],[103.835379,1.40625],[103.834123,1.403031],[103.836123,1.397855],[103.839195,1.397942],[103.841799,1.401522],[103.844655,1.401546],[103.858008,1.413733],[103.86331,1.423099],[103.868363,1.424889],[103.871747,1.42379],[103.875952,1.418345],[103.880338,1.415887],[103.880791,1.412638],[103.881445,1.416077],[103.882966,1.416792],[103.89465,1.41283],[103.893176,1.409012],[103.886924,1.404348],[103.886698,1.402058],[103.892857,1.40625],[103.895368,1.40625],[103.894532,1.408353],[103.898448,1.416852],[103.907974,1.421105],[103.91257,1.421407],[103.913028,1.410496],[103.921278,1.400844],[103.916905,1.390942],[103.924521,1.397383],[103.931245,1.399647],[103.935059,1.397753],[103.937927,1.390087],[103.945378,1.384802],[103.950218,1.382562],[103.961635,1.381417],[103.967321,1.381876],[103.965172,1.383231],[103.965598,1.385543],[103.969803,1.385341],[103.976081,1.392769],[104.000261,1.390684]],[[103.842569,1.258106],[103.836194,1.255242],[103.83085,1.256497],[103.830947,1.257784],[103.828371,1.256883],[103.823928,1.260166],[103.830174,1.263996],[103.836291,1.264125],[103.842569,1.258106]],[[103.826345,1.254533],[103.836828,1.253372],[103.839365,1.250156],[103.840634,1.253726],[103.841638,1.251985],[103.846566,1.253343],[103.848101,1.251041],[103.841461,1.242455],[103.840989,1.248209],[103.839483,1.242721],[103.840989,1.242131],[103.83969,1.240567],[103.832017,1.238325],[103.828033,1.242869],[103.827,1.24216],[103.82408,1.244742],[103.82337,1.247678],[103.817409,1.250186],[103.806431,1.259391],[103.815461,1.258447],[103.817704,1.260188],[103.826345,1.254533]],[[103.837428,1.253292],[103.838282,1.254119],[103.839846,1.253694],[103.839021,1.25317],[103.837428,1.253292]],[[103.761505,1.24098],[103.769134,1.237137],[103.778759,1.22714],[103.77871,1.223645],[103.772925,1.225464],[103.769934,1.229659],[103.760821,1.232055],[103.758611,1.238679],[103.761505,1.24098]],[[103.857544,1.232424],[103.857367,1.229532],[103.853855,1.229031],[103.853206,1.227349],[103.855862,1.225992],[103.85807,1.221967],[103.857397,1.218055],[103.850373,1.225431],[103.851996,1.227969],[103.848691,1.228529],[103.851111,1.231598],[103.857544,1.232424]],[[103.858399,1.226382],[103.862009,1.224023],[103.862294,1.221944],[103.857132,1.224499],[103.858399,1.226382]],[[103.848366,1.221537],[103.851619,1.220267],[103.850609,1.219885],[103.851583,1.213482],[103.842995,1.222422],[103.844999,1.223533],[103.848644,1.222659],[103.848366,1.221537]],[[103.835917,1.213828],[103.833734,1.212942],[103.834299,1.215503],[103.835917,1.213828]],[[103.761959,1.21135],[103.768008,1.208913],[103.77886,1.21171],[103.780991,1.210212],[103.781268,1.200158],[103.775779,1.196728],[103.775082,1.19264],[103.772204,1.189761],[103.767935,1.18842],[103.765262,1.189793],[103.771655,1.191165],[103.774197,1.196007],[103.766022,1.201722],[103.760662,1.196718],[103.763791,1.191511],[103.758899,1.195686],[103.759693,1.198247],[103.757565,1.204124],[103.758871,1.217088],[103.761959,1.21135]],[[103.791985,1.204394],[103.791365,1.208175],[103.793213,1.211476],[103.801892,1.202991],[103.801832,1.200993],[103.791985,1.204394]],[[103.731897,1.188224],[103.728784,1.186489],[103.727452,1.183545],[103.719722,1.179941],[103.716281,1.186844],[103.721152,1.187133],[103.723522,1.191418],[103.72916,1.190817],[103.731897,1.188224]],[[103.727954,1.208061],[103.73183,1.206679],[103.733235,1.202988],[103.715916,1.202317],[103.706918,1.2047],[103.713896,1.211465],[103.721994,1.213809],[103.724581,1.210465],[103.729717,1.210945],[103.727954,1.208061]],[[103.707459,1.216551],[103.707577,1.216138],[103.706633,1.216138],[103.707459,1.216551]],[[103.832381,1.217213],[103.833403,1.216536],[103.833007,1.215285],[103.831774,1.215802],[103.832381,1.217213]],[[103.673276,1.222315],[103.670786,1.225147],[103.674134,1.223688],[103.677997,1.228924],[103.679114,1.2321],[103.677225,1.239223],[103.678856,1.238451],[103.680487,1.243773],[103.676029,1.245376],[103.67532,1.242662],[103.672664,1.242957],[103.66688,1.245908],[103.66108,1.255252],[103.663183,1.258256],[103.656347,1.271099],[103.682933,1.289279],[103.687537,1.290813],[103.695565,1.290518],[103.690606,1.282729],[103.683958,1.276281],[103.688329,1.272148],[103.69226,1.277064],[103.695565,1.276946],[103.69586,1.281667],[103.700405,1.285089],[103.706642,1.275684],[103.708427,1.275596],[103.710938,1.278739],[103.708491,1.278893],[103.706521,1.282111],[103.70731,1.285325],[103.703415,1.290341],[103.706012,1.292583],[103.710938,1.291574],[103.711088,1.296802],[103.713099,1.291534],[103.717704,1.290615],[103.718155,1.291752],[103.725195,1.289134],[103.72872,1.282084],[103.734953,1.278719],[103.739773,1.272815],[103.732544,1.269322],[103.72549,1.270691],[103.723365,1.268626],[103.726611,1.268036],[103.72726,1.266502],[103.721771,1.260837],[103.710829,1.266614],[103.709967,1.269688],[103.708786,1.267446],[103.706366,1.268626],[103.705835,1.264672],[103.714157,1.259125],[103.696214,1.250982],[103.692732,1.265734],[103.689427,1.265439],[103.684917,1.268331],[103.679865,1.263197],[103.684217,1.259308],[103.677268,1.246852],[103.680745,1.245317],[103.685123,1.254501],[103.68727,1.253471],[103.690532,1.241627],[103.685381,1.240597],[103.687098,1.236048],[103.673276,1.222315]],[[103.742573,1.231134],[103.739901,1.232872],[103.739837,1.235029],[103.745664,1.237475],[103.750461,1.23593],[103.750364,1.233902],[103.742573,1.231134]],[[103.753648,1.232196],[103.754968,1.235479],[103.757801,1.235898],[103.759094,1.232159],[103.757117,1.228647],[103.753648,1.232196]],[[103.759891,1.230698],[103.761603,1.230624],[103.769505,1.228827],[103.770389,1.227272],[103.768779,1.225115],[103.763312,1.22524],[103.75846,1.227467],[103.759891,1.230698]],[[103.753052,1.224505],[103.752394,1.223866],[103.751716,1.226781],[103.753052,1.224505]],[[103.749887,1.223382],[103.747693,1.223793],[103.747628,1.226004],[103.750201,1.226076],[103.749887,1.223382]],[[103.838722,1.228427],[103.836496,1.230469],[103.836755,1.232417],[103.839771,1.229423],[103.838722,1.228427]],[[103.812728,1.262769],[103.810768,1.262845],[103.812034,1.264733],[103.812728,1.262769]],[[103.699204,1.299224],[103.69526,1.299431],[103.694433,1.305571],[103.695955,1.30696],[103.699166,1.30358],[103.699204,1.299224]],[[103.640539,1.356651],[103.640336,1.356599],[103.640257,1.357204],[103.640539,1.356651]],[[103.654235,1.371778],[103.651562,1.369511],[103.649251,1.372209],[103.652736,1.375034],[103.654293,1.374358],[103.654235,1.371778]],[[103.661708,1.399072],[103.661302,1.396806],[103.661028,1.396719],[103.6605,1.398006],[103.661708,1.399072]],[[103.685368,1.433934],[103.684191,1.434631],[103.685576,1.435188],[103.685368,1.433934]],[[103.738173,1.427163],[103.739764,1.425213],[103.737412,1.423332],[103.738173,1.427163]],[[103.7272,1.404531],[103.727685,1.406132],[103.7281,1.405993],[103.728446,1.404809],[103.7272,1.404531]],[[103.856864,1.450195],[103.859204,1.449742],[103.862444,1.44601],[103.865405,1.441575],[103.865768,1.437838],[103.864353,1.437758],[103.859774,1.443282],[103.858767,1.448308],[103.856864,1.450195]],[[103.869975,1.425432],[103.870507,1.428616],[103.87541,1.431956],[103.880193,1.430975],[103.888053,1.425313],[103.881861,1.417382],[103.869975,1.425432]],[[103.929911,1.426178],[103.936714,1.427987],[103.95357,1.419506],[103.954989,1.417425],[103.969879,1.419293],[103.973926,1.418005],[103.989445,1.417925],[103.991833,1.415286],[103.990461,1.411402],[103.991837,1.407828],[103.977844,1.407748],[103.973772,1.40625],[103.973769,1.403821],[103.970928,1.402218],[103.957692,1.399925],[103.952288,1.40625],[103.95157,1.410386],[103.949859,1.407017],[103.947877,1.409651],[103.940746,1.412702],[103.939208,1.414456],[103.941076,1.417583],[103.935873,1.415307],[103.933829,1.415946],[103.933803,1.417783],[103.930697,1.417101],[103.928049,1.418777],[103.925793,1.422249],[103.929911,1.426178]],[[103.97567,1.426165],[103.975843,1.428723],[103.978578,1.428819],[103.97695,1.425748],[103.97567,1.426165]],[[104.019444,1.423611],[104.025833,1.418889],[104.026944,1.414167],[104.025,1.412222],[104.019444,1.413056],[104.016389,1.416667],[104.019444,1.423611]],[[103.948103,1.40625],[103.953756,1.399321],[103.94533,1.407628],[103.948103,1.40625]],[[103.93034,1.404529],[103.92983,1.402416],[103.926275,1.40549],[103.923689,1.405141],[103.92384,1.407269],[103.915847,1.415862],[103.922571,1.413193],[103.93034,1.404529]],[[103.896111,1.421111],[103.898056,1.418333],[103.894722,1.414444],[103.883889,1.418056],[103.889444,1.425],[103.896111,1.421111]],[[103.784763,1.506109],[103.786171,1.503935],[103.779343,1.505059],[103.777952,1.506883],[103.784763,1.506109]],[[103.776345,1.512315],[103.776704,1.507857],[103.774889,1.509622],[103.774821,1.512077],[103.776345,1.512315]],[[103.732405,1.167741],[103.730902,1.171871],[103.728207,1.172729],[103.729447,1.174914],[103.732242,1.176107],[103.741821,1.17389],[103.739137,1.166584],[103.732405,1.167741]],[[103.89069,1.16836],[103.889373,1.17118],[103.889906,1.172483],[103.892449,1.169469],[103.89069,1.16836]],[[103.896019,1.166566],[103.904401,1.158154],[103.904868,1.155598],[103.899449,1.155136],[103.897522,1.156351],[103.895358,1.161514],[103.896019,1.166566]],[[103.895445,1.149706],[103.889598,1.141943],[103.881881,1.142484],[103.87854,1.140504],[103.870848,1.144714],[103.868462,1.149346],[103.868302,1.153274],[103.870963,1.155983],[103.873968,1.155177],[103.875318,1.150506],[103.878771,1.150167],[103.880704,1.150615],[103.879945,1.153105],[103.881058,1.154105],[103.8836,1.15019],[103.883303,1.155591],[103.886734,1.159067],[103.891175,1.157571],[103.895445,1.149706]],[[103.943278,1.146157],[103.944181,1.148333],[103.945462,1.149755],[103.946011,1.146914],[103.943278,1.146157]],[[103.971944,1.14805],[103.973747,1.148582],[103.976809,1.147843],[103.977629,1.145746],[103.975104,1.143173],[103.971944,1.14805]],[[103.864023,1.154985],[103.862796,1.156465],[103.865649,1.160125],[103.867121,1.158716],[103.864023,1.154985]],[[103.87483,1.158848],[103.878253,1.16403],[103.882942,1.161821],[103.88213,1.157962],[103.87983,1.155722],[103.876846,1.155104],[103.87483,1.158848]],[[103.839463,1.13438],[103.836136,1.136187],[103.837455,1.138213],[103.840503,1.135436],[103.839463,1.13438]],[[103.875373,1.135826],[103.876806,1.137679],[103.878349,1.135473],[103.875373,1.135826]],[[103.850372,1.132874],[103.8545,1.126997],[103.850904,1.126426],[103.850372,1.132874]],[[103.875242,1.132334],[103.880908,1.12741],[103.88427,1.126856],[103.885287,1.125449],[103.884087,1.122093],[103.876443,1.124934],[103.873714,1.123648],[103.872798,1.125706],[103.874084,1.127317],[103.868648,1.130414],[103.875242,1.132334]],[[103.890042,1.121821],[103.888559,1.127144],[103.892282,1.130003],[103.893915,1.12685],[103.891945,1.122298],[103.890042,1.121821]],[[103.910494,1.122305],[103.912495,1.124593],[103.91411,1.120366],[103.911511,1.120227],[103.910494,1.122305]],[[103.888246,1.121307],[103.890035,1.118943],[103.886477,1.118668],[103.886085,1.120158],[103.888246,1.121307]],[[103.908303,1.119488],[103.91028,1.117308],[103.908976,1.117115],[103.908303,1.119488]],[[103.915688,1.119184],[103.917517,1.118203],[103.917918,1.11338],[103.913627,1.109769],[103.919427,1.111327],[103.92065,1.106257],[103.91328,1.105547],[103.90854,1.10213],[103.905563,1.103202],[103.902148,1.101824],[103.900069,1.104965],[103.901636,1.107998],[103.903589,1.109316],[103.906185,1.108677],[103.915688,1.119184]],[[103.922568,1.105503],[103.924063,1.104235],[103.924055,1.102252],[103.921102,1.103049],[103.922568,1.105503]],[[103.904371,1.102069],[103.906837,1.100785],[103.906094,1.098512],[103.903167,1.099661],[103.904371,1.102069]],[[103.902864,1.099887],[103.898457,1.100041],[103.89867,1.102157],[103.902864,1.099887]],[[103.860556,1.106667],[103.861251,1.103264],[103.859097,1.101667],[103.857921,1.103542],[103.859549,1.102391],[103.860556,1.106667]],[[103.823775,1.10101],[103.822281,1.104516],[103.823533,1.104159],[103.823775,1.10101]],[[103.855816,1.102948],[103.856041,1.105168],[103.856699,1.106056],[103.857826,1.103951],[103.855816,1.102948]],[[103.862508,1.109217],[103.859774,1.107676],[103.859365,1.11024],[103.859797,1.110797],[103.862508,1.109217]],[[103.846918,1.110618],[103.845763,1.111817],[103.846991,1.113689],[103.848444,1.112137],[103.846918,1.110618]],[[103.903084,1.112862],[103.903658,1.11444],[103.905836,1.113493],[103.904919,1.112611],[103.903084,1.112862]],[[103.716952,1.114152],[103.710938,1.115792],[103.710693,1.117048],[103.713213,1.117745],[103.716952,1.114152]],[[103.835699,1.11592],[103.834708,1.12119],[103.839012,1.125431],[103.841054,1.121973],[103.835699,1.11592]],[[103.829122,1.125274],[103.825806,1.125553],[103.825216,1.128581],[103.827325,1.12812],[103.829122,1.125274]],[[103.870859,1.117854],[103.87207,1.119978],[103.87395,1.118106],[103.870859,1.117854]],[[103.876216,1.117095],[103.876361,1.119447],[103.880961,1.116236],[103.878986,1.114975],[103.876216,1.117095]],[[103.909183,1.115447],[103.909098,1.11419],[103.906311,1.114106],[103.909183,1.115447]],[[103.907204,1.112772],[103.908077,1.111165],[103.90552,1.111058],[103.905587,1.111582],[103.907204,1.112772]],[[103.779427,1.094376],[103.777969,1.097147],[103.778917,1.099931],[103.781469,1.096503],[103.779427,1.094376]],[[103.88205,1.092977],[103.881178,1.097134],[103.881848,1.097723],[103.883337,1.094078],[103.88205,1.092977]],[[104.373889,1.194444],[104.376243,1.196312],[104.377222,1.195555],[104.375833,1.193333],[104.373889,1.194444]],[[104.331944,1.185278],[104.333927,1.185974],[104.334411,1.184303],[104.331944,1.185278]],[[104.524167,1.196389],[104.526667,1.197222],[104.528056,1.193889],[104.526944,1.192778],[104.524167,1.196389]],[[104.233541,1.35345],[104.234787,1.353102],[104.234722,1.351111],[104.23361,1.351805],[104.233541,1.35345]]]}}
