{"type":"Feature","properties":{"featurecla":"Admin-1 states provinces","scalerank":10,"adm1_code":"AND-4879","diss_me":4879,"iso_3166_2":"AD-02","wikipedia":"http://en.wikipedia.org/wiki/Canillo","iso_a2":"AD","adm0_sr":3,"name":"Canillo","name_alt":null,"name_local":null,"type":null,"type_en":null,"code_local":null,"code_hasc":"AD.CA","note":null,"hasc_maybe":null,"region":null,"region_cod":null,"provnum_ne":0,"gadm_level":0,"check_me":20,"datarank":10,"abbrev":null,"postal":null,"area_sqkm":0,"sameascity":-99,"labelrank":20,"name_len":7,"mapcolor9":1,"mapcolor13":8,"fips":"AN02","fips_alt":null,"woe_id":20070557,"woe_label":"Canillo, AD, Andorra","woe_name":"Canillo","latitude":42.5842,"longitude":1.60543,"sov_a3":"AND","adm0_a3":"AND","adm0_label":5,"admin":"Andorra","geonunit":"Andorra","gu_a3":"AND","gn_id":3041203,"gn_name":"Canillo","gns_id":-1394804,"gns_name":"Canillo, Parroquia de","gn_level":1,"gn_region":null,"gn_a1_code":"AD.02","region_sub":null,"sub_code":null,"gns_level":1,"gns_lang":"fra","gns_adm1":"AN02","gns_region":null,"min_label":11.0,"max_label":11.0,"min_zoom":11.0,"wikidataid":"Q24260","name_ar":"كانيلو","name_bn":"ক্যানিল্লো","name_de":"Canillo","name_en":"Canillo","name_es":"Canillo","name_fr":"Canillo","name_el":"Κανίλιο","name_hi":"कनिल्लो पल्ली","name_hu":"Canillo közösség","name_id":"Canillo","name_it":"Canillo","name_ja":"カニーリョ教区","name_ko":"카닐료","name_nl":"Canillo","name_pl":"Canillo","name_pt":"Canillo","name_ru":"Канильо","name_sv":"Canillo","name_tr":"Canillo","name_vi":"Canillo","name_zh":"卡尼略","ne_id":1159315981,"name_he":"קאנילו","name_uk":"Канільйо","name_ur":"کانیلو","name_fa":"کانیلو","name_zht":"卡尼略","FCLASS_ISO":null,"FCLASS_US":null,"FCLASS_FR":null,"FCLASS_RU":null,"FCLASS_ES":null,"FCLASS_CN":null,"FCLASS_TW":null,"FCLASS_IN":null,"FCLASS_NP":null,"FCLASS_PK":null,"FCLASS_DE":null,"FCLASS_GB":null,"FCLASS_BR":null,"FCLASS_IL":null,"FCLASS_PS":null,"FCLASS_SA":null,"FCLASS_EG":null,"FCLASS_MA":null,"FCLASS_PT":null,"FCLASS_AR":null,"FCLASS_JP":null,"FCLASS_KO":null,"FCLASS_VN":null,"FCLASS_TR":null,"FCLASS_ID":null,"FCLASS_PL":null,"FCLASS_GR":null,"FCLASS_IT":null,"FCLASS_NL":null,"FCLASS_SE":null,"FCLASS_BD":null,"FCLASS_UA":null,"FCLASS_TLC":null,"iso_id":"AD-02","iso_name":"Canillo","source":"iso-3166-2-subdivisions"},"geometry":{"type":"Polygon","coordinates":[[[1.597349,42.621921],[1.598739,42.597606],[1.564531,42.58422],[1.555607,42.562654],[1.682773,42.574553],[1.690209,42.552987],[1.717091,42.53989],[1.739976,42.561641],[1.765091,42.563372],[1.752688,42.576679],[1.713311,42.589546],[1.721993,42.609855],[1.597349,42.621921]]]}}
