{"type":"Feature","properties":{"featurecla":"Admin-1 states provinces","scalerank":5,"adm1_code":"AFG-1760","diss_me":1760,"iso_3166_2":"AF-BDS","wikipedia":null,"iso_a2":"AF","adm0_sr":1,"name":"Badakhshan","name_alt":"Badahšan","name_local":null,"type":"Velayat","type_en":"Province","code_local":null,"code_hasc":"AF.BD","note":null,"hasc_maybe":null,"region":null,"region_cod":null,"provnum_ne":12,"gadm_level":1,"check_me":20,"datarank":5,"abbrev":null,"postal":"BD","area_sqkm":0,"sameascity":-99,"labelrank":5,"name_len":10,"mapcolor9":8,"mapcolor13":7,"fips":"AF01","fips_alt":null,"woe_id":2344549,"woe_label":"Badakhshan, AF, Afghanistan","woe_name":"Badakhshan","latitude":36.781,"longitude":70.8036,"sov_a3":"AFG","adm0_a3":"AFG","adm0_label":2,"admin":"Afghanistan","geonunit":"Afghanistan","gu_a3":"AFG","gn_id":1147745,"gn_name":"Badakhshan","gns_id":-3369558,"gns_name":"Badakhshan, Wilayat-e","gn_level":1,"gn_region":null,"gn_a1_code":"AF.01","region_sub":null,"sub_code":null,"gns_level":1,"gns_lang":"vie","gns_adm1":"AF01","gns_region":null,"min_label":6.7,"max_label":11.0,"min_zoom":6.7,"wikidataid":"Q165376","name_ar":"ولاية بدخشان","name_bn":"বাদাখশন প্রদেশ","name_de":"Badachschan","name_en":"Badakhshan","name_es":"Badajshán","name_fr":"Badakhchan","name_el":"Μπανταχσάν","name_hi":"बदख़्शान प्रान्त","name_hu":"Badakhshan","name_id":"Badakhshan","name_it":"Badakhshan","name_ja":"バダフシャーン州","name_ko":"바다흐샨","name_nl":"Badachsjan","name_pl":"Badachszan","name_pt":"Badakhshan","name_ru":"Бадахшан","name_sv":"Badakhshan","name_tr":"Badahşan Vilayeti","name_vi":"Badakhshan","name_zh":"巴达赫尚省","ne_id":1159312075,"name_he":"בדח'שאן","name_uk":"Бадахшан","name_ur":"صوبہ بدخشاں","name_fa":"ولایت بدخشان","name_zht":"巴達赫尚省","FCLASS_ISO":null,"FCLASS_US":null,"FCLASS_FR":null,"FCLASS_RU":null,"FCLASS_ES":null,"FCLASS_CN":null,"FCLASS_TW":null,"FCLASS_IN":null,"FCLASS_NP":null,"FCLASS_PK":null,"FCLASS_DE":null,"FCLASS_GB":null,"FCLASS_BR":null,"FCLASS_IL":null,"FCLASS_PS":null,"FCLASS_SA":null,"FCLASS_EG":null,"FCLASS_MA":null,"FCLASS_PT":null,"FCLASS_AR":null,"FCLASS_JP":null,"FCLASS_KO":null,"FCLASS_VN":null,"FCLASS_TR":null,"FCLASS_ID":null,"FCLASS_PL":null,"FCLASS_GR":null,"FCLASS_IT":null,"FCLASS_NL":null,"FCLASS_SE":null,"FCLASS_BD":null,"FCLASS_UA":null,"FCLASS_TLC":null,"iso_id":"AF-BDS","iso_name":"Badakhshan"},"geometry":{"type":"Polygon","coordinates":[[[74.794018,37.213931],[74.813138,37.21543],[74.892307,37.231114],[74.862644,37.244601],[74.816859,37.306923],[74.78854,37.331159],[74.660383,37.393972],[74.631444,37.381079],[74.521167,37.375601],[74.476622,37.386091],[74.454814,37.393636],[74.435901,37.392344],[74.418331,37.389192],[74.378126,37.393765],[74.368204,37.396375],[74.353632,37.415909],[74.343813,37.420999],[74.332444,37.420353],[74.320869,37.413893],[74.315598,37.426916],[74.303816,37.400173],[74.279424,37.397512],[74.250382,37.403687],[74.223924,37.403351],[74.207697,37.389915],[74.206044,37.355654],[74.187647,37.338394],[74.163256,37.330074],[74.052151,37.312246],[73.976704,37.290283],[73.95562,37.286769],[73.899292,37.265478],[73.856401,37.261577],[73.836247,37.256745],[73.798213,37.22853],[73.783951,37.225894],[73.768654,37.228892],[73.746123,37.230545],[73.736202,37.227651],[73.719975,37.217549],[73.709227,37.217006],[73.702405,37.221166],[73.688039,37.236901],[73.680494,37.242457],[73.659927,37.243748],[73.617656,37.233181],[73.601636,37.24088],[73.597295,37.261809],[73.609904,37.281395],[73.630988,37.295993],[73.651969,37.302065],[73.690416,37.305218],[73.704989,37.310954],[73.722249,37.322452],[73.739096,37.338342],[73.74571,37.352863],[73.745917,37.394902],[73.753462,37.428388],[73.717805,37.431825],[73.6745,37.43105],[73.605047,37.445777],[73.485261,37.480969],[73.440612,37.479936],[73.378394,37.452547],[73.361858,37.456397],[73.345011,37.464484],[73.32124,37.467017],[73.296332,37.464949],[73.276075,37.459472],[73.260262,37.450041],[73.211479,37.40826],[73.200627,37.404178],[73.179026,37.410741],[73.170241,37.40826],[73.132104,37.384386],[73.116394,37.369064],[73.099238,37.339867],[73.087766,37.326069],[73.067509,37.315062],[72.995575,37.3093],[72.924262,37.274832],[72.902247,37.2538],[72.877443,37.246875],[72.83052,37.239769],[72.79073,37.220262],[72.760964,37.187499],[72.714352,37.109984],[72.672701,37.05761],[72.666603,37.038335],[72.657714,37.028826],[72.50868,37.011075],[72.474987,36.997484],[72.405947,37.007665],[72.360988,37.000275],[72.259806,36.967305],[72.220325,36.94555],[72.210403,36.93661],[72.195934,36.918988],[72.186839,36.911392],[72.152836,36.895708],[72.126687,36.872738],[71.836576,36.699156],[71.797612,36.686082],[71.748519,36.678641],[71.699943,36.678641],[71.653021,36.687012],[71.61106,36.704841],[71.577367,36.733263],[71.563931,36.750678],[71.552872,36.769591],[71.545328,36.790004],[71.538506,36.836099],[71.528481,36.856149],[71.47174,36.930047],[71.463059,36.948082],[71.459958,36.969786],[71.459958,37.010739],[71.456444,37.022548],[71.439184,37.044097],[71.43319,37.054742],[71.431123,37.066989],[71.43319,37.127347],[71.441045,37.16843],[71.446832,37.183597],[71.453757,37.192615],[71.45014,37.21667],[71.487037,37.267055],[71.487863,37.294986],[71.493858,37.307543],[71.496545,37.328524],[71.494685,37.370692],[71.48714,37.409087],[71.490241,37.423376],[71.501506,37.445777],[71.511221,37.485878],[71.497165,37.566545],[71.501506,37.610341],[71.517216,37.629229],[71.522073,37.637626],[71.529515,37.67858],[71.540883,37.709715],[71.542537,37.719559],[71.540263,37.730515],[71.531168,37.751754],[71.529515,37.761133],[71.537783,37.779039],[71.57468,37.798004],[71.590286,37.815729],[71.594214,37.833764],[71.59504,37.857535],[71.593387,37.879343],[71.590286,37.891435],[71.597727,37.89836],[71.567342,37.928074],[71.537059,37.944455],[71.501196,37.946212],[71.379188,37.912932],[71.360998,37.902029],[71.341154,37.893295],[71.31976,37.900582],[71.281829,37.924999],[71.271184,37.926187],[71.263536,37.924353],[71.258265,37.926472],[71.254544,37.939287],[71.255785,37.949881],[71.265913,37.972541],[71.272631,37.997992],[71.302397,38.04233],[71.316039,38.083284],[71.334539,38.11168],[71.340947,38.140929],[71.359086,38.184105],[71.364512,38.206816],[71.358156,38.251258],[71.334384,38.280662],[71.300123,38.298697],[71.217699,38.325827],[71.155946,38.376212],[71.117395,38.398639],[71.089386,38.409853],[71.076984,38.412178],[71.064943,38.411817],[71.05714,38.409026],[71.049802,38.408664],[71.039467,38.415331],[71.032956,38.423651],[71.024584,38.441918],[71.018641,38.449825],[70.998229,38.465664],[70.986809,38.470909],[70.974045,38.473673],[70.950739,38.473053],[70.943452,38.465948],[70.946759,38.443236],[70.936217,38.433004],[70.91224,38.437655],[70.871002,38.45321],[70.859323,38.451659],[70.849814,38.442823],[70.843045,38.440161],[70.834105,38.4406],[70.808887,38.446362],[70.777261,38.446466],[70.761086,38.44352],[70.741811,38.419439],[70.683313,38.414581],[70.664865,38.405409],[70.664865,38.398639],[70.68476,38.38665],[70.676698,38.37492],[70.641352,38.354197],[70.632102,38.350115],[70.609312,38.3512],[70.600011,38.347066],[70.595773,38.338178],[70.5966,38.309187],[70.583061,38.275081],[70.573036,38.27105],[70.559393,38.268182],[70.547197,38.262653],[70.537947,38.238055],[70.508543,38.192502],[70.482602,38.137363],[70.470303,38.120517],[70.460071,38.112248],[70.425964,38.100647],[70.415371,38.094523],[70.371187,38.058298],[70.326281,38.011273],[70.293776,37.996106],[70.288712,37.990809],[70.283751,37.981869],[70.272692,37.978174],[70.26091,37.976469],[70.253934,37.973394],[70.25042,37.964144],[70.250161,37.955617],[70.253675,37.947401],[70.26153,37.939287],[70.238121,37.932363],[70.214711,37.929262],[70.192232,37.93288],[70.17213,37.946083],[70.160503,37.920658],[70.165205,37.889911],[70.179158,37.860791],[70.196004,37.839914],[70.207476,37.835624],[70.240343,37.827563],[70.247164,37.819166],[70.249851,37.804877],[70.256517,37.791803],[70.265561,37.781209],[70.275121,37.774181],[70.269592,37.762632],[70.271762,37.748705],[70.281891,37.719559],[70.283079,37.704831],[70.277033,37.687985],[70.275121,37.675479],[70.262564,37.660881],[70.253572,37.654576],[70.255225,37.637471],[70.253934,37.630805],[70.248301,37.623338],[70.240963,37.617137],[70.216468,37.617137],[70.201947,37.587991],[70.199415,37.579284],[70.192697,37.576028],[70.157867,37.541431],[70.129135,37.532284],[70.099059,37.536573],[70.06919,37.545203],[70.041698,37.548846],[70.048003,37.541431],[70.016894,37.545978],[70.004187,37.551371],[69.998549,37.530914],[70.00227,37.427483],[70.005061,37.407665],[70.008781,37.397149],[70.031777,37.393506],[70.040149,37.390173],[70.041699,37.387305],[70.023096,37.367022],[70.01829,37.359167],[70.010538,37.33307],[70.004286,37.2762],[70.006921,37.249277],[70.030072,37.201166],[70.034413,37.188376],[70.035498,37.177628],[70.031777,37.154787],[70.033018,37.135098],[70.038754,37.122851],[70.046815,37.113652],[70.084229,37.090863],[70.100352,37.075102],[70.124123,37.042545],[70.100352,37.010739],[70.096166,36.996114],[70.083919,36.988027],[70.056427,36.979655],[70.042009,36.959863],[70.039839,36.945368],[70.037358,36.941208],[70.023561,36.934774],[70.010848,36.926713],[70.006611,36.922294],[70.007748,36.91444],[70.009298,36.695797],[70.0032,36.651717],[70.00382,36.615052],[70.008678,36.591694],[70.016119,36.57614],[70.021235,36.551542],[70.034103,36.525574],[70.037358,36.515265],[70.038289,36.505627],[70.035653,36.469841],[70.038444,36.462116],[70.043095,36.457232],[70.082989,36.439482],[70.139626,36.40491],[70.209286,36.337834],[70.224014,36.327034],[70.235021,36.322331],[70.262823,36.326543],[70.296206,36.320987],[70.36137,36.303934],[70.40607,36.30657],[70.440641,36.303883],[70.46002,36.29701],[70.472474,36.283574],[70.47759,36.178076],[70.474799,36.149603],[70.46033,36.130611],[70.454129,36.107745],[70.443897,36.0794],[70.444052,36.061778],[70.442812,36.056895],[70.434285,36.046844],[70.429014,36.037852],[70.428859,36.030127],[70.43165,36.022168],[70.45754,35.990258],[70.463482,35.978321],[70.461777,35.970518],[70.456919,35.964627],[70.40607,35.943465],[70.400179,35.939693],[70.381523,35.920418],[70.370361,35.912124],[70.326746,35.889463],[70.300547,35.879516],[70.286852,35.860835],[70.273365,35.850215],[70.253986,35.805412],[70.25042,35.76128],[70.245769,35.744227],[70.238483,35.694566],[70.238328,35.683455],[70.231197,35.670355],[70.294035,35.660563],[70.31853,35.666712],[70.342404,35.684541],[70.353308,35.690457],[70.371602,35.697124],[70.383849,35.698131],[70.395476,35.696271],[70.423278,35.684179],[70.469373,35.671596],[70.47945,35.666945],[70.486582,35.661519],[70.489837,35.655886],[70.492318,35.649607],[70.496038,35.628963],[70.499449,35.622064],[70.543064,35.582841],[70.554691,35.566873],[70.556241,35.558786],[70.555466,35.551319],[70.543219,35.523982],[70.535778,35.498454],[70.535468,35.47352],[70.537948,35.45887],[70.543529,35.446312],[70.576912,35.442411],[70.603577,35.45024],[70.624868,35.459438],[70.63479,35.465691],[70.641766,35.47215],[70.644401,35.477551],[70.646417,35.487912],[70.645332,35.49295],[70.646262,35.501218],[70.650758,35.510701],[70.667966,35.529305],[70.678198,35.535661],[70.687241,35.537004],[70.693752,35.532715],[70.714061,35.511114],[70.729874,35.497472],[70.757676,35.488764],[70.793333,35.492976],[70.843614,35.483002],[70.856688,35.482098],[70.86444,35.484243],[70.879012,35.504241],[70.882733,35.516282],[70.874982,35.554574],[70.869401,35.565013],[70.868315,35.570077],[70.869556,35.581136],[70.866145,35.600256],[70.868781,35.608731],[70.877927,35.625707],[70.883818,35.630332],[70.890175,35.632373],[70.923248,35.628937],[70.959989,35.642373],[70.97911,35.670278],[71.007945,35.691672],[71.013681,35.699165],[71.014301,35.7064],[71.009495,35.712394],[70.996473,35.722497],[70.973374,35.733401],[70.968878,35.739602],[70.966036,35.750841],[70.969343,35.76637],[70.973219,35.775414],[70.97849,35.781486],[71.013991,35.795541],[71.019779,35.799417],[71.032957,35.818331],[71.061947,35.854504],[71.067063,35.864788],[71.070009,35.87502],[71.072179,35.893572],[71.079982,35.930727],[71.084633,35.941941],[71.090059,35.949589],[71.103081,35.95778],[71.110833,35.965402],[71.143286,36.009869],[71.154448,36.020179],[71.169913,36.030802],[71.165919,36.045708],[71.175376,36.061159],[71.207622,36.087617],[71.212635,36.096816],[71.217699,36.118055],[71.223073,36.125393],[71.262296,36.146115],[71.292682,36.157897],[71.302087,36.163323],[71.309011,36.172729],[71.313972,36.194019],[71.31914,36.200582],[71.382443,36.218566],[71.402752,36.231381],[71.479078,36.300524],[71.495822,36.309619],[71.514632,36.315201],[71.53892,36.319283],[71.55835,36.327861],[71.552666,36.340987],[71.542227,36.356387],[71.547188,36.371631],[71.572303,36.391682],[71.580364,36.402327],[71.588736,36.41845],[71.600725,36.449301],[71.61044,36.457931],[71.629147,36.459533],[71.649301,36.452763],[71.706868,36.421447],[71.736324,36.395919],[71.751,36.391113],[71.766916,36.391837],[71.782626,36.396539],[71.794408,36.407598],[71.791514,36.421292],[71.774564,36.448422],[71.773221,36.480048],[71.793788,36.490745],[71.85859,36.494156],[71.874713,36.499065],[71.913471,36.527591],[71.960909,36.549605],[71.977033,36.563041],[71.997806,36.572446],[72.038838,36.580456],[72.054961,36.592858],[72.056304,36.601901],[72.05217,36.610376],[72.050413,36.618645],[72.059095,36.627119],[72.070877,36.632287],[72.096095,36.638902],[72.154179,36.645465],[72.171646,36.653629],[72.164618,36.670063],[72.149632,36.689338],[72.153456,36.702102],[72.169682,36.711352],[72.213607,36.726442],[72.301974,36.74272],[72.346209,36.74489],[72.387343,36.755794],[72.433129,36.753417],[72.454109,36.757964],[72.516741,36.800597],[72.565214,36.820596],[72.629602,36.832947],[72.695852,36.836719],[72.779361,36.826797],[72.867727,36.830415],[72.896873,36.836977],[72.921058,36.847364],[72.945862,36.852222],[72.976765,36.842093],[72.990511,36.841577],[73.002293,36.846124],[73.026271,36.859457],[73.042497,36.864263],[73.191842,36.877027],[73.223468,36.874339],[73.252717,36.868035],[73.267496,36.866536],[73.281862,36.867983],[73.331782,36.882091],[73.379738,36.879249],[73.445883,36.886483],[73.509342,36.87868],[73.640083,36.896638],[73.772892,36.892013],[73.834077,36.882866],[73.865083,36.872582],[73.946938,36.83088],[73.976704,36.824833],[74.006366,36.815738],[74.035305,36.815583],[74.094319,36.831241],[74.103931,36.841318],[74.108789,36.875631],[74.1153,36.889532],[74.129666,36.898421],[74.145996,36.901702],[74.211728,36.895139],[74.235706,36.902167],[74.284592,36.934232],[74.368101,36.976762],[74.394043,36.994022],[74.43559,37.003221],[74.456984,37.004383],[74.476622,36.999319],[74.480342,36.996916],[74.501736,36.972421],[74.521373,36.958495],[74.537393,36.962241],[74.544214,36.994022],[74.548142,37.001644],[74.549279,37.008931],[74.547418,37.015675],[74.542354,37.021669],[74.519203,37.030247],[74.505767,37.047042],[74.494088,37.066472],[74.476622,37.083138],[74.414403,37.107839],[74.38257,37.126572],[74.366137,37.14776],[74.368308,37.167061],[74.38226,37.172047],[74.420294,37.168068],[74.441585,37.170549],[74.456674,37.177318],[74.46763,37.189927],[74.476622,37.210055],[74.487267,37.225946],[74.500083,37.23163],[74.532225,37.232199],[74.575944,37.242147],[74.59,37.243361],[74.596511,37.240751],[74.609017,37.230183],[74.615011,37.228375],[74.623279,37.230804],[74.629997,37.238297],[74.64302,37.248374],[74.646327,37.254833],[74.650978,37.259639],[74.670925,37.261344],[74.676299,37.263721],[74.698934,37.28031],[74.709372,37.290826],[74.721464,37.297776],[74.737381,37.296123],[74.743995,37.288397],[74.783269,37.219667],[74.794018,37.213931]]]}}
