{"type":"Feature","properties":{"featurecla":"Admin-1 states provinces","scalerank":5,"adm1_code":"AFG-1771","diss_me":1771,"iso_3166_2":"AF-LOG","wikipedia":null,"iso_a2":"AF","adm0_sr":1,"name":"Logar","name_alt":"Lawghar|Loghar","name_local":null,"type":"Velayat","type_en":"Province","code_local":null,"code_hasc":"AF.LW","note":null,"hasc_maybe":null,"region":null,"region_cod":null,"provnum_ne":26,"gadm_level":1,"check_me":20,"datarank":5,"abbrev":null,"postal":"LW","area_sqkm":0,"sameascity":-99,"labelrank":5,"name_len":5,"mapcolor9":8,"mapcolor13":7,"fips":"AF17","fips_alt":null,"woe_id":2344563,"woe_label":"Lowgar, AF, Afghanistan","woe_name":"Logar","latitude":34.0857,"longitude":69.3047,"sov_a3":"AFG","adm0_a3":"AFG","adm0_label":2,"admin":"Afghanistan","geonunit":"Afghanistan","gu_a3":"AFG","gn_id":1134561,"gn_name":"Wilayat-e Logar","gns_id":-3382874,"gns_name":"Logar, Wilayat-e","gn_level":1,"gn_region":null,"gn_a1_code":"AF.17","region_sub":null,"sub_code":null,"gns_level":1,"gns_lang":"vie","gns_adm1":"AF17","gns_region":null,"min_label":6.7,"max_label":11.0,"min_zoom":6.7,"wikidataid":"Q6667298","name_ar":"ولاية لوكر","name_bn":"লগার প্রদেশ","name_de":"Lugar","name_en":"Logar","name_es":"Lawgar","name_fr":"Lôgar","name_el":"Λογκάρ","name_hi":"लोगर प्रान्त","name_hu":"Logar","name_id":"Logar","name_it":"Lowgar","name_ja":"ローガル州","name_ko":"로가르","name_nl":"Logar","name_pl":"Logar","name_pt":"Logar","name_ru":"Логар","name_sv":"Lowgar","name_tr":"Lovgar Vilayeti","name_vi":"Logar","name_zh":"洛加尔省","ne_id":1159312101,"name_he":"לוגר","name_uk":"Логар","name_ur":"صوبہ لوگر","name_fa":"ولایت لوگر","name_zht":"洛加尔省","FCLASS_ISO":null,"FCLASS_US":null,"FCLASS_FR":null,"FCLASS_RU":null,"FCLASS_ES":null,"FCLASS_CN":null,"FCLASS_TW":null,"FCLASS_IN":null,"FCLASS_NP":null,"FCLASS_PK":null,"FCLASS_DE":null,"FCLASS_GB":null,"FCLASS_BR":null,"FCLASS_IL":null,"FCLASS_PS":null,"FCLASS_SA":null,"FCLASS_EG":null,"FCLASS_MA":null,"FCLASS_PT":null,"FCLASS_AR":null,"FCLASS_JP":null,"FCLASS_KO":null,"FCLASS_VN":null,"FCLASS_TR":null,"FCLASS_ID":null,"FCLASS_PL":null,"FCLASS_GR":null,"FCLASS_IT":null,"FCLASS_NL":null,"FCLASS_SE":null,"FCLASS_BD":null,"FCLASS_UA":null,"FCLASS_TLC":null,"iso_id":"AF-LOG","iso_name":"Logar","source":"iso-3166-2-subdivisions"},"geometry":{"type":"Polygon","coordinates":[[[69.281487,34.364078],[69.181132,34.309534],[69.163562,34.316484],[69.116898,34.307751],[68.969155,34.349144],[68.92306,34.298863],[68.893604,34.240856],[68.840842,34.197086],[68.819707,34.158949],[68.806684,34.089082],[68.821257,34.065957],[68.871693,34.030378],[68.888126,33.992861],[68.798003,33.96431],[68.762139,33.933976],[68.746481,33.910179],[68.763844,33.878191],[68.757333,33.842431],[68.711858,33.790057],[68.745861,33.774166],[68.772681,33.715255],[68.754543,33.702439],[68.744776,33.677014],[68.760899,33.661253],[68.772371,33.612962],[68.920734,33.612057],[68.968845,33.60242],[69.009514,33.613039],[69.029358,33.626372],[69.087701,33.720371],[69.19834,33.789772],[69.330218,33.846849],[69.396312,33.912401],[69.481062,33.975498],[69.51429,34.03322],[69.54266,34.050067],[69.591081,34.054924],[69.669732,34.045261],[69.690093,34.035339],[69.689938,34.010121],[69.705441,34.006168],[69.772155,34.038543],[69.81825,34.078489],[69.897574,34.04508],[69.879849,34.066345],[69.869462,34.100399],[69.835304,34.138588],[69.792515,34.208093],[69.735103,34.250158],[69.696604,34.244241],[69.579144,34.198998],[69.504833,34.155874],[69.485868,34.159001],[69.462303,34.143136],[69.391971,34.248711],[69.329133,34.306201],[69.281487,34.364078]]]}}
