{"type":"Feature","properties":{"featurecla":"Admin-1 states provinces","scalerank":5,"adm1_code":"AFG-1765","diss_me":1765,"iso_3166_2":"AF-TAK","wikipedia":null,"iso_a2":"AF","adm0_sr":1,"name":"Takhar","name_alt":"Takar","name_local":null,"type":"Velayat","type_en":"Province","code_local":null,"code_hasc":"AF.TK","note":null,"hasc_maybe":null,"region":null,"region_cod":null,"provnum_ne":28,"gadm_level":1,"check_me":20,"datarank":5,"abbrev":null,"postal":"TK","area_sqkm":0,"sameascity":-99,"labelrank":5,"name_len":6,"mapcolor9":8,"mapcolor13":7,"fips":"AF26","fips_alt":null,"woe_id":2344571,"woe_label":"Takhar, AF, Afghanistan","woe_name":"Takhar","latitude":36.8335,"longitude":69.8124,"sov_a3":"AFG","adm0_a3":"AFG","adm0_label":2,"admin":"Afghanistan","geonunit":"Afghanistan","gu_a3":"AFG","gn_id":1123230,"gn_name":"Wilayat-e Takhar","gns_id":-3394329,"gns_name":"Takhar, Wilayat-e","gn_level":1,"gn_region":null,"gn_a1_code":"AF.26","region_sub":null,"sub_code":null,"gns_level":1,"gns_lang":"vie","gns_adm1":"AF26","gns_region":null,"min_label":6.7,"max_label":11.0,"min_zoom":6.7,"wikidataid":"Q186395","name_ar":"ولاية تخار","name_bn":"তখর প্রদেশ","name_de":"Tachar","name_en":"Takhar","name_es":"Tahār","name_fr":"Takhâr","name_el":"Ταχάρ","name_hi":"तख़ार प्रान्त","name_hu":"Takhar","name_id":"Takhar","name_it":"Takhar","name_ja":"タハール州","name_ko":"타하르","name_nl":"Tachar","name_pl":"Tachar","name_pt":"Takhar","name_ru":"Тахар","name_sv":"Takhar","name_tr":"Tahar Vilayeti","name_vi":"Takhar","name_zh":"塔哈尔省","ne_id":1159312087,"name_he":"תח'אר","name_uk":"Тахар","name_ur":"صوبہ تخار","name_fa":"ولایت تخار","name_zht":"塔哈爾省","FCLASS_ISO":null,"FCLASS_US":null,"FCLASS_FR":null,"FCLASS_RU":null,"FCLASS_ES":null,"FCLASS_CN":null,"FCLASS_TW":null,"FCLASS_IN":null,"FCLASS_NP":null,"FCLASS_PK":null,"FCLASS_DE":null,"FCLASS_GB":null,"FCLASS_BR":null,"FCLASS_IL":null,"FCLASS_PS":null,"FCLASS_SA":null,"FCLASS_EG":null,"FCLASS_MA":null,"FCLASS_PT":null,"FCLASS_AR":null,"FCLASS_JP":null,"FCLASS_KO":null,"FCLASS_VN":null,"FCLASS_TR":null,"FCLASS_ID":null,"FCLASS_PL":null,"FCLASS_GR":null,"FCLASS_IT":null,"FCLASS_NL":null,"FCLASS_SE":null,"FCLASS_BD":null,"FCLASS_UA":null,"FCLASS_TLC":null,"iso_id":"AF-TAK","iso_name":"Takhar","source":"iso-3166-2-subdivisions"},"geometry":{"type":"Polygon","coordinates":[[[69.895247,37.61817],[69.80223,37.581506],[69.754274,37.596673],[69.664977,37.576157],[69.528655,37.586027],[69.508656,37.578973],[69.491448,37.536986],[69.425405,37.49425],[69.411711,37.47252],[69.384478,37.453271],[69.377036,37.380665],[69.391196,37.370692],[69.386441,37.34152],[69.417912,37.267675],[69.409851,37.245661],[69.445197,37.23641],[69.442148,37.223621],[69.407732,37.177473],[69.308617,37.116882],[69.337505,37.088072],[69.339365,37.077479],[69.320606,37.057687],[69.31146,37.030634],[69.316576,36.990171],[69.304638,36.849896],[69.282004,36.811345],[69.229707,36.804576],[69.216168,36.792742],[69.217098,36.740393],[69.207177,36.722074],[69.221749,36.693988],[69.222266,36.665824],[69.244435,36.650528],[69.256062,36.630013],[69.255597,36.612236],[69.221749,36.544514],[69.147904,36.490538],[69.147284,36.483045],[69.20144,36.389097],[69.20113,36.356644],[69.218184,36.320987],[69.220664,36.296958],[69.232808,36.283134],[69.26831,36.27515],[69.300608,36.228177],[69.322002,36.239442],[69.344533,36.229624],[69.444113,36.247194],[69.522661,36.295459],[69.6148,36.320522],[69.670714,36.35313],[69.681101,36.350081],[69.70079,36.30166],[69.707766,36.247142],[69.719858,36.235334],[69.765799,36.232982],[69.777736,36.213578],[69.788123,36.099063],[69.847758,36.054234],[69.88605,36.006123],[69.901294,35.966642],[69.920983,35.947496],[69.923619,35.928376],[69.956381,35.886957],[69.961032,35.809856],[69.978551,35.803112],[69.982116,35.791407],[70.044335,35.812956],[70.112754,35.819313],[70.135595,35.828304],[70.171562,35.860705],[70.176833,35.892254],[70.273365,35.850215],[70.300547,35.879516],[70.370361,35.912124],[70.40607,35.943465],[70.456919,35.964627],[70.463482,35.978321],[70.43165,36.022168],[70.429014,36.037852],[70.442812,36.056895],[70.458056,36.124617],[70.474799,36.149603],[70.47759,36.178076],[70.472474,36.283574],[70.46002,36.29701],[70.40607,36.30657],[70.36137,36.303934],[70.262823,36.326543],[70.235021,36.322331],[70.209286,36.337834],[70.139626,36.40491],[70.038444,36.462116],[70.037358,36.515265],[70.00382,36.615052],[70.006611,36.922294],[70.037358,36.941208],[70.056427,36.979655],[70.096166,36.996114],[70.124123,37.042545],[70.100352,37.075102],[70.046815,37.113652],[70.033018,37.135098],[70.034413,37.188376],[70.006921,37.249277],[70.004286,37.2762],[70.01829,37.359167],[70.041699,37.387305],[70.008781,37.397149],[70.005061,37.407665],[69.998549,37.530914],[70.004187,37.551371],[69.989505,37.56732],[69.955399,37.575485],[69.918812,37.617137],[69.895247,37.61817]]]}}
