{"type":"Feature","properties":{"featurecla":"Admin-1 states provinces","scalerank":10,"adm1_code":"ATG-5094","diss_me":5094,"iso_3166_2":"AG-07","wikipedia":"http://en.wikipedia.org/wiki/Saint_Peter_Parish_(Antigua_and_Barbuda)","iso_a2":"AG","adm0_sr":1,"name":"Saint Peter","name_alt":null,"name_local":null,"type":"Parish","type_en":"Parish","code_local":null,"code_hasc":"AG.PE","note":null,"hasc_maybe":null,"region":null,"region_cod":null,"provnum_ne":0,"gadm_level":0,"check_me":0,"datarank":10,"abbrev":null,"postal":null,"area_sqkm":0,"sameascity":-99,"labelrank":20,"name_len":11,"mapcolor9":5,"mapcolor13":5,"fips":"AC07","fips_alt":null,"woe_id":2344546,"woe_label":"Saint Peter, AG, Antigua and Barbuda","woe_name":"Saint Peter","latitude":17.0935,"longitude":-61.7404,"sov_a3":"ATG","adm0_a3":"ATG","adm0_label":6,"admin":"Antigua and Barbuda","geonunit":"Antigua","gu_a3":"ACA","gn_id":3576016,"gn_name":"Parish of Saint Peter","gns_id":-1323520,"gns_name":"Saint Peter","gn_level":1,"gn_region":null,"gn_a1_code":"AG.07","region_sub":null,"sub_code":null,"gns_level":1,"gns_lang":"fra","gns_adm1":"AC07","gns_region":null,"min_label":11.0,"max_label":11.0,"min_zoom":11.0,"wikidataid":"Q1952603","name_ar":"أبرشية القديس بيتر","name_bn":"সেন্ট পিটার পারিশ","name_de":"Saint Peter","name_en":"Saint Peter","name_es":"Parroquia de Saint Peter","name_fr":"Saint-Peter","name_el":"Άγιος Πέτρος","name_hi":"सेंट पीटर पल्ली","name_hu":"Saint Peter","name_id":"Paroki Saint Peter","name_it":"Saint Peter","name_ja":"セント・ピーター教区","name_ko":"세인트피터구","name_nl":"Saint Peter","name_pl":"Saint Peter","name_pt":"Saint Peter","name_ru":"Приход Сент-Питер","name_sv":"Saint Peter","name_tr":"Saint Peter","name_vi":"Giáo xứ Saint Peter","name_zh":"圣彼得区","ne_id":1159316409,"name_he":"סנט פיטר","name_uk":"Парафія Сент-Пітер","name_ur":"سینٹ پیٹر پیرش، اینٹیگوا و باربوڈا","name_fa":"پریش سنت پیتر","name_zht":"聖彼得區","FCLASS_ISO":null,"FCLASS_US":null,"FCLASS_FR":null,"FCLASS_RU":null,"FCLASS_ES":null,"FCLASS_CN":null,"FCLASS_TW":null,"FCLASS_IN":null,"FCLASS_NP":null,"FCLASS_PK":null,"FCLASS_DE":null,"FCLASS_GB":null,"FCLASS_BR":null,"FCLASS_IL":null,"FCLASS_PS":null,"FCLASS_SA":null,"FCLASS_EG":null,"FCLASS_MA":null,"FCLASS_PT":null,"FCLASS_AR":null,"FCLASS_JP":null,"FCLASS_KO":null,"FCLASS_VN":null,"FCLASS_TR":null,"FCLASS_ID":null,"FCLASS_PL":null,"FCLASS_GR":null,"FCLASS_IT":null,"FCLASS_NL":null,"FCLASS_SE":null,"FCLASS_BD":null,"FCLASS_UA":null,"FCLASS_TLC":null,"iso_id":"AG-07","iso_name":"Saint Peter"},"geometry":{"type":"Polygon","coordinates":[[[-61.756418,17.114163],[-61.761964,17.108164],[-61.756862,17.1],[-61.755841,17.089796],[-61.767066,17.085714],[-61.774209,17.071428],[-61.774209,17.060203],[-61.748698,17.060203],[-61.733392,17.064285],[-61.72829,17.083673],[-61.714833,17.093085],[-61.725087,17.09984],[-61.729644,17.114163],[-61.72053,17.116116],[-61.716298,17.118801],[-61.708608,17.127834],[-61.720082,17.12637],[-61.729848,17.127997],[-61.73762,17.132961],[-61.743316,17.141506],[-61.752756,17.128892],[-61.755442,17.123033],[-61.756418,17.114163]]]}}
