{"type":"Feature","properties":{"iso_id":"AL-DI","iso_name":"Dibër District","name":"Dibër District","source":"iso-3166-2-placeholder-circle"},"geometry":{"type":"Polygon","coordinates":[[[20.85,41.716667],[20.840393,41.814212],[20.81194,41.908008],[20.765735,41.994452],[20.703553,42.07022],[20.627785,42.132401],[20.541342,42.178606],[20.447545,42.207059],[20.35,42.216667],[20.252455,42.207059],[20.158658,42.178606],[20.072215,42.132401],[19.996447,42.07022],[19.934265,41.994452],[19.88806,41.908008],[19.859607,41.814212],[19.85,41.716667],[19.859607,41.619122],[19.88806,41.525325],[19.934265,41.438882],[19.996447,41.363113],[20.072215,41.300932],[20.158658,41.254727],[20.252455,41.226274],[20.35,41.216667],[20.447545,41.226274],[20.541342,41.254727],[20.627785,41.300932],[20.703553,41.363113],[20.765735,41.438882],[20.81194,41.525325],[20.840393,41.619122],[20.85,41.716667]]]}}
