{"type":"Feature","properties":{"featurecla":"Admin-1 states provinces","scalerank":2,"adm1_code":"AUS-2651","diss_me":2651,"iso_3166_2":"AU-WA","wikipedia":null,"iso_a2":"AU","adm0_sr":6,"name":"Western Australia","name_alt":null,"name_local":null,"type":"State","type_en":"State","code_local":null,"code_hasc":"AU.WA","note":null,"hasc_maybe":null,"region":null,"region_cod":null,"provnum_ne":5,"gadm_level":1,"check_me":20,"datarank":3,"abbrev":"W.A.","postal":"WA","area_sqkm":0,"sameascity":-99,"labelrank":2,"name_len":17,"mapcolor9":2,"mapcolor13":7,"fips":"AS08","fips_alt":null,"woe_id":2344706,"woe_label":"Western Australia, AU, Australia","woe_name":"Western Australia","latitude":-25.8483,"longitude":121.646,"sov_a3":"AU1","adm0_a3":"AUS","adm0_label":2,"admin":"Australia","geonunit":"Australia","gu_a3":"AUS","gn_id":2058645,"gn_name":"State of Western Australia","gns_id":-1608952,"gns_name":"Western Australia","gn_level":1,"gn_region":null,"gn_a1_code":"AU.08","region_sub":null,"sub_code":null,"gns_level":1,"gns_lang":"zho","gns_adm1":"AS08","gns_region":null,"min_label":3.5,"max_label":7.5,"min_zoom":2.0,"wikidataid":"Q3206","name_ar":"أستراليا الغربية","name_bn":"পশ্চিম অস্ট্রেলিয়া","name_de":"Western Australia","name_en":"Western Australia","name_es":"Australia Occidental","name_fr":"Australie-Occidentale","name_el":"Δυτική Αυστραλία","name_hi":"पश्चिमी ऑस्ट्रेलिया","name_hu":"Nyugat-Ausztrália","name_id":"Australia Barat","name_it":"Australia Occidentale","name_ja":"西オーストラリア州","name_ko":"웨스턴오스트레일리아","name_nl":"West-Australië","name_pl":"Australia Zachodnia","name_pt":"Austrália Ocidental","name_ru":"Западная Австралия","name_sv":"Western Australia","name_tr":"Batı Avustralya","name_vi":"Tây Úc","name_zh":"西澳大利亚州","ne_id":1159315805,"name_he":"אוסטרליה המערבית","name_uk":"Західна Австралія","name_ur":"مغربی آسٹریلیا","name_fa":"استرالیای غربی","name_zht":"西澳州","FCLASS_ISO":null,"FCLASS_US":null,"FCLASS_FR":null,"FCLASS_RU":null,"FCLASS_ES":null,"FCLASS_CN":null,"FCLASS_TW":null,"FCLASS_IN":null,"FCLASS_NP":null,"FCLASS_PK":null,"FCLASS_DE":null,"FCLASS_GB":null,"FCLASS_BR":null,"FCLASS_IL":null,"FCLASS_PS":null,"FCLASS_SA":null,"FCLASS_EG":null,"FCLASS_MA":null,"FCLASS_PT":null,"FCLASS_AR":null,"FCLASS_JP":null,"FCLASS_KO":null,"FCLASS_VN":null,"FCLASS_TR":null,"FCLASS_ID":null,"FCLASS_PL":null,"FCLASS_GR":null,"FCLASS_IT":null,"FCLASS_NL":null,"FCLASS_SE":null,"FCLASS_BD":null,"FCLASS_UA":null,"FCLASS_TLC":null,"iso_id":"AU-WA","iso_name":"Western Australia","source":"iso-3166-2-subdivisions"},"geometry":{"type":"MultiPolygon","coordinates":[[[[128.158865,-15.090265],[128.152029,-15.052423],[128.131358,-15.03753],[128.12379,-15.048598],[128.125987,-15.134698],[128.186778,-15.190199],[128.196788,-15.175551],[128.194509,-15.126886],[128.186778,-15.107599],[128.158865,-15.090265]]],[[[128.416189,-14.956231],[128.384939,-14.891697],[128.371755,-14.874282],[128.35377,-14.869236],[128.348399,-14.882989],[128.358246,-14.956313],[128.412771,-15.018243],[128.440684,-15.038751],[128.437836,-14.988946],[128.429535,-14.965916],[128.416189,-14.956231]]],[[[126.500987,-13.873712],[126.515147,-13.90488],[126.555675,-13.89422],[126.598643,-13.905206],[126.61085,-13.901056],[126.61085,-13.89422],[126.553966,-13.875258],[126.500987,-13.873712]]],[[[129.000092,-31.689223],[129.000116,-14.868151],[128.91977,-14.840102],[128.834158,-14.840102],[128.7671,-14.82171],[128.748546,-14.82643],[128.71339,-14.79754],[128.590831,-14.778009],[128.5324,-14.752862],[128.440684,-14.79225],[128.395763,-14.795994],[128.388438,-14.803399],[128.402599,-14.823012],[128.427419,-14.835056],[128.438975,-14.849867],[128.407481,-14.868829],[128.406016,-14.884454],[128.422862,-14.940118],[128.459809,-15.001642],[128.450206,-15.042657],[128.417979,-15.039727],[128.364919,-14.984063],[128.358409,-14.999119],[128.364919,-15.046157],[128.350108,-15.037286],[128.330251,-14.936293],[128.323009,-14.91074],[128.313487,-14.904962],[128.283051,-14.94256],[128.283051,-14.963637],[128.215831,-15.021905],[128.195811,-15.056817],[128.19988,-15.100274],[128.218272,-15.118097],[128.225841,-15.160252],[128.216319,-15.185235],[128.220225,-15.205662],[128.291759,-15.290704],[128.296641,-15.316176],[128.289317,-15.401788],[128.283051,-15.401788],[128.255626,-15.310235],[128.224457,-15.260186],[128.17449,-15.213311],[128.125173,-15.182061],[128.111095,-15.190199],[128.110606,-15.224867],[128.100597,-15.229913],[128.117931,-15.291925],[128.118419,-15.335138],[128.101329,-15.424574],[128.083751,-15.457127],[128.024262,-15.496515],[128.014903,-15.487481],[128.055919,-15.443455],[128.072276,-15.404474],[128.0713,-15.367934],[128.042735,-15.291925],[128.060232,-15.292169],[128.075694,-15.277765],[128.084646,-15.174574],[128.069591,-15.141209],[128.068533,-15.106622],[128.090343,-15.060805],[128.090587,-15.011407],[128.132823,-14.895196],[128.137462,-14.862563],[128.117931,-14.853774],[128.148936,-14.834242],[128.190603,-14.829848],[128.193614,-14.805922],[128.179454,-14.754083],[128.184825,-14.736993],[128.197765,-14.731622],[128.227794,-14.74391],[128.227794,-14.709731],[128.214692,-14.698907],[128.175304,-14.698419],[128.117849,-14.649998],[128.066417,-14.633477],[128.054047,-14.600518],[128.005382,-14.560724],[127.96697,-14.578546],[127.947276,-14.573175],[127.939464,-14.543878],[127.954763,-14.532892],[127.90561,-14.497491],[127.887218,-14.474054],[127.874278,-14.469903],[127.857921,-14.483819],[127.855235,-14.465102],[127.879405,-14.439548],[127.87143,-14.422459],[127.851085,-14.41725],[127.841075,-14.443536],[127.826915,-14.436619],[127.823578,-14.380792],[127.789561,-14.36712],[127.75587,-14.284845],[127.682628,-14.216974],[127.666026,-14.178399],[127.61085,-14.133722],[127.590343,-14.133722],[127.574962,-14.123305],[127.504242,-14.065606],[127.489268,-14.058364],[127.480479,-14.079197],[127.450206,-14.057306],[127.448497,-13.986912],[127.418468,-13.94199],[127.398611,-13.963067],[127.389496,-13.943536],[127.367686,-13.935805],[127.344249,-13.904474],[127.330251,-13.901056],[127.322439,-13.917413],[127.332693,-13.961196],[127.302989,-13.949395],[127.251313,-13.897638],[127.236827,-13.892022],[127.213634,-13.935805],[127.196951,-13.949314],[127.189301,-13.946954],[127.187266,-13.901788],[127.165212,-13.880548],[127.159353,-13.902765],[127.172618,-13.915216],[127.129731,-13.967706],[127.107432,-13.952813],[127.085134,-13.883884],[127.055349,-13.887384],[127.072113,-13.842543],[127.07016,-13.828058],[127.049083,-13.839532],[127.055919,-13.820082],[127.050629,-13.813409],[127.021169,-13.825942],[127.02003,-13.777765],[126.993175,-13.76629],[126.952891,-13.723565],[126.90504,-13.743341],[126.932384,-13.757582],[126.913748,-13.76393],[126.881847,-13.745782],[126.863536,-13.743341],[126.845388,-13.754327],[126.846446,-13.768976],[126.877208,-13.798028],[126.853282,-13.800958],[126.843028,-13.818536],[126.823253,-13.81227],[126.827891,-13.791111],[126.814464,-13.768324],[126.785411,-13.787367],[126.747406,-13.791762],[126.767833,-13.846368],[126.795746,-13.883966],[126.807872,-13.923517],[126.844737,-13.932712],[126.85727,-13.949395],[126.818207,-13.942641],[126.810069,-13.949395],[126.843028,-13.969903],[126.829763,-13.982599],[126.761729,-13.969903],[126.747406,-13.990411],[126.707205,-13.983575],[126.701182,-14.007094],[126.720225,-14.031915],[126.747406,-14.010919],[126.726817,-14.058364],[126.733735,-14.072931],[126.704845,-14.118097],[126.692719,-14.120782],[126.679047,-14.085382],[126.651866,-14.066095],[126.647227,-14.077813],[126.656993,-14.09531],[126.647309,-14.11419],[126.651866,-14.143976],[126.646739,-14.158136],[126.61085,-14.175388],[126.603526,-14.230076],[126.575938,-14.209893],[126.569184,-14.195245],[126.569184,-14.140558],[126.558849,-14.134942],[126.521495,-14.147393],[126.493663,-14.113377],[126.52768,-14.072931],[126.515961,-14.069106],[126.462738,-14.085382],[126.453298,-14.077569],[126.493663,-14.031915],[126.500987,-13.997247],[126.519054,-13.983657],[126.526866,-13.963474],[126.569184,-13.94199],[126.527517,-13.928969],[126.469981,-13.991957],[126.449962,-13.991795],[126.43214,-13.969903],[126.39031,-14.00506],[126.377208,-14.042657],[126.343598,-14.045505],[126.329112,-14.059259],[126.343272,-14.072931],[126.315929,-14.086847],[126.293712,-14.136489],[126.319347,-14.145115],[126.34547,-14.174249],[126.345063,-14.184666],[126.310802,-14.192315],[126.295584,-14.230076],[126.288829,-14.230076],[126.282074,-14.208591],[126.247732,-14.22324],[126.226573,-14.212986],[126.228038,-14.204848],[126.243988,-14.198907],[126.241466,-14.185154],[126.191091,-14.159601],[126.199962,-14.126886],[126.180349,-14.133233],[126.213634,-14.099705],[126.21225,-14.081476],[126.165863,-14.085382],[126.169119,-14.049005],[126.214203,-14.039646],[126.210704,-14.026625],[126.192393,-14.014418],[126.165863,-14.010919],[126.209646,-13.976821],[126.22047,-13.956231],[126.181651,-13.970798],[126.14324,-14.002537],[126.110606,-14.017755],[126.124766,-13.987074],[126.151622,-13.969903],[126.151622,-13.963067],[126.130382,-13.956231],[126.151622,-13.922133],[126.129242,-13.932061],[126.091563,-13.925388],[126.10377,-13.897638],[126.098399,-13.887384],[126.074474,-13.899102],[126.060069,-13.931817],[126.017345,-13.922052],[126.035899,-13.942315],[126.085948,-13.969415],[126.096365,-14.025079],[126.074067,-14.026056],[126.047374,-13.984063],[126.034923,-13.990411],[126.033865,-14.028497],[126.020518,-14.031915],[125.980235,-13.990411],[125.97283,-14.021417],[125.992442,-14.071466],[126.006602,-14.07822],[126.107107,-14.079522],[126.134451,-14.094903],[126.151622,-14.133722],[126.140391,-14.142999],[126.144786,-14.195245],[126.108165,-14.220798],[126.071788,-14.226658],[126.062999,-14.23561],[126.064301,-14.27044],[126.075857,-14.295099],[126.062266,-14.319431],[126.060883,-14.35003],[125.980235,-14.380792],[125.982107,-14.400811],[126.012869,-14.424412],[126.017589,-14.447686],[126.031749,-14.462579],[126.04127,-14.508722],[126.026703,-14.519952],[126.000743,-14.511163],[125.997813,-14.541111],[125.983409,-14.545343],[125.965994,-14.521661],[125.925059,-14.51865],[125.903819,-14.569513],[125.925059,-14.596856],[125.918142,-14.637791],[125.909434,-14.639418],[125.8567,-14.600518],[125.847992,-14.601007],[125.833018,-14.584568],[125.828868,-14.573175],[125.83725,-14.545099],[125.822032,-14.539158],[125.833018,-14.519464],[125.817231,-14.484308],[125.842133,-14.474054],[125.849946,-14.457615],[125.833507,-14.448175],[125.822113,-14.461196],[125.805186,-14.459568],[125.80836,-14.445977],[125.798106,-14.434828],[125.782237,-14.457452],[125.733165,-14.470147],[125.744151,-14.444757],[125.743419,-14.434991],[125.733165,-14.429295],[125.741059,-14.410414],[125.732921,-14.398533],[125.719574,-14.400974],[125.70574,-14.494317],[125.696056,-14.504327],[125.652354,-14.622247],[125.637706,-14.634698],[125.636974,-14.598077],[125.684337,-14.506768],[125.658051,-14.333103],[125.672618,-14.325453],[125.699067,-14.339939],[125.710948,-14.333673],[125.719412,-14.313897],[125.712738,-14.305108],[125.733165,-14.270929],[125.727061,-14.264825],[125.718761,-14.270685],[125.706554,-14.291436],[125.665294,-14.264255],[125.658051,-14.250421],[125.644379,-14.257257],[125.635265,-14.231541],[125.618175,-14.223728],[125.605805,-14.229262],[125.610362,-14.243585],[125.585623,-14.245701],[125.58546,-14.255629],[125.59669,-14.264825],[125.584972,-14.287693],[125.593028,-14.336521],[125.58839,-14.351007],[125.617198,-14.4013],[125.59669,-14.487237],[125.603526,-14.504327],[125.589203,-14.511163],[125.583832,-14.526544],[125.589203,-14.545343],[125.539561,-14.553318],[125.527843,-14.545343],[125.555431,-14.513849],[125.555024,-14.497491],[125.532481,-14.497735],[125.509288,-14.485772],[125.493663,-14.490655],[125.486583,-14.503025],[125.493663,-14.545343],[125.466319,-14.524835],[125.462901,-14.541762],[125.473155,-14.55283],[125.459972,-14.570489],[125.459483,-14.593032],[125.442638,-14.589288],[125.439464,-14.638849],[125.404307,-14.553155],[125.390636,-14.539158],[125.388194,-14.559991],[125.342784,-14.607354],[125.355235,-14.570489],[125.356456,-14.504327],[125.347667,-14.498712],[125.314789,-14.573175],[125.290538,-14.566176],[125.26588,-14.575616],[125.232921,-14.61419],[125.239024,-14.631524],[125.30128,-14.634698],[125.284353,-14.649021],[125.263194,-14.653741],[125.260265,-14.671563],[125.217784,-14.663832],[125.204926,-14.668145],[125.201345,-14.684991],[125.211436,-14.70086],[125.181651,-14.698826],[125.174571,-14.705987],[125.177501,-14.727472],[125.144298,-14.728448],[125.135997,-14.735935],[125.137462,-14.757501],[125.154959,-14.762872],[125.160899,-14.778416],[125.181407,-14.771905],[125.188731,-14.779392],[125.191417,-14.832696],[125.202159,-14.844822],[125.227712,-14.850193],[125.232921,-14.860528],[125.267589,-14.856215],[125.297618,-14.868341],[125.308849,-14.885024],[125.287608,-14.894708],[125.29477,-14.914727],[125.289724,-14.920099],[125.263194,-14.919122],[125.253429,-14.901544],[125.215831,-14.90838],[125.204275,-14.932061],[125.182953,-14.939142],[125.186778,-14.945489],[125.214122,-14.958103],[125.238129,-14.952813],[125.242849,-14.966078],[125.253429,-14.970392],[125.287608,-14.956231],[125.273692,-14.97617],[125.280935,-14.993422],[125.321625,-14.984063],[125.329926,-14.99627],[125.354503,-14.99391],[125.366954,-15.008396],[125.384044,-15.01393],[125.417491,-15.002211],[125.429535,-15.009047],[125.430837,-15.019708],[125.366466,-15.051446],[125.390636,-15.076593],[125.369477,-15.086521],[125.37379,-15.107599],[125.394054,-15.120701],[125.425141,-15.116143],[125.43214,-15.137953],[125.419932,-15.149347],[125.357107,-15.136489],[125.329112,-15.141209],[125.328787,-15.152765],[125.288259,-15.140558],[125.273936,-15.128106],[125.280772,-15.107599],[125.249848,-15.07822],[125.246593,-15.066095],[125.229747,-15.072686],[125.215587,-15.05755],[125.172618,-15.044529],[125.165294,-15.011407],[125.145763,-15.028009],[125.176117,-15.116306],[125.165294,-15.162286],[125.134044,-15.114435],[125.116873,-15.069513],[125.123709,-15.038751],[125.110037,-15.025079],[125.098399,-15.029067],[125.075938,-15.059828],[125.069102,-15.025079],[125.061697,-15.031915],[125.063243,-15.013604],[125.083181,-14.993259],[125.082042,-14.976658],[125.072276,-14.96852],[125.059581,-14.972345],[125.041759,-14.990981],[125.000173,-14.970392],[125.011974,-15.005141],[125.010427,-15.031915],[125.027843,-15.040948],[125.031505,-15.061619],[125.021251,-15.100274],[125.013031,-15.084649],[124.972911,-15.134942],[124.959972,-15.119887],[124.917003,-15.102472],[124.883637,-15.10475],[124.863048,-15.114435],[124.834239,-15.164727],[124.869884,-15.165948],[124.856212,-15.195082],[124.856212,-15.229913],[124.869884,-15.216241],[124.87672,-15.223728],[124.869884,-15.250421],[124.931895,-15.20322],[124.962657,-15.190199],[124.979747,-15.162286],[124.986339,-15.178481],[125.003591,-15.182061],[125.013845,-15.148614],[125.055431,-15.162286],[125.006521,-15.221287],[124.970551,-15.207778],[124.924653,-15.229262],[124.917735,-15.2374],[124.924653,-15.247166],[124.887462,-15.275486],[124.885265,-15.296808],[124.897146,-15.299412],[124.906586,-15.333185],[124.917735,-15.339776],[125.038097,-15.281427],[125.072927,-15.304457],[125.090505,-15.305108],[125.096446,-15.285252],[125.114431,-15.308689],[125.144298,-15.313084],[125.144298,-15.319268],[125.113048,-15.329278],[125.08961,-15.347263],[125.07252,-15.418878],[125.185232,-15.517836],[125.086599,-15.454767],[125.061697,-15.44964],[125.049815,-15.498224],[125.027599,-15.491143],[125.027599,-15.466729],[125.017589,-15.463311],[124.979747,-15.477634],[124.976248,-15.469171],[124.993175,-15.438084],[124.993337,-15.422296],[124.95753,-15.406834],[124.920421,-15.361017],[124.883474,-15.347263],[124.822032,-15.354099],[124.83546,-15.318048],[124.797862,-15.291925],[124.74586,-15.335382],[124.739513,-15.33294],[124.761485,-15.292169],[124.756602,-15.285252],[124.715587,-15.274591],[124.708751,-15.250421],[124.698009,-15.264744],[124.663748,-15.250421],[124.663748,-15.291925],[124.697927,-15.298435],[124.698009,-15.313084],[124.68922,-15.320489],[124.667003,-15.324395],[124.669688,-15.352309],[124.705333,-15.33294],[124.708507,-15.345636],[124.728038,-15.347589],[124.732677,-15.357517],[124.698009,-15.373956],[124.683442,-15.392348],[124.672618,-15.418227],[124.672862,-15.442641],[124.691742,-15.457127],[124.682628,-15.473891],[124.66863,-15.478448],[124.654063,-15.472345],[124.643321,-15.457127],[124.649425,-15.426853],[124.640147,-15.415948],[124.629649,-15.43255],[124.629649,-15.504978],[124.578136,-15.506931],[124.504242,-15.467462],[124.472911,-15.468683],[124.451996,-15.491143],[124.447765,-15.525079],[124.424815,-15.535577],[124.389903,-15.522556],[124.376475,-15.525323],[124.396983,-15.539158],[124.403331,-15.559259],[124.396821,-15.608005],[124.418468,-15.604099],[124.427501,-15.621515],[124.417979,-15.669366],[124.404307,-15.635186],[124.396821,-15.676202],[124.380626,-15.664483],[124.376475,-15.676202],[124.389985,-15.717055],[124.381521,-15.748468],[124.399181,-15.804783],[124.404307,-15.87477],[124.438731,-15.849705],[124.438487,-15.826349],[124.45045,-15.843194],[124.475597,-15.927341],[124.493175,-15.950453],[124.486339,-15.998305],[124.515147,-15.970147],[124.558442,-15.874933],[124.586681,-15.847833],[124.609711,-15.806573],[124.631684,-15.794203],[124.678884,-15.791681],[124.732677,-15.806573],[124.708751,-15.820733],[124.684255,-15.881036],[124.665863,-15.861505],[124.642589,-15.865655],[124.609711,-15.898696],[124.607677,-15.957615],[124.615977,-15.977227],[124.591156,-15.977309],[124.583751,-15.988865],[124.596202,-16.115004],[124.569672,-16.109959],[124.546723,-16.128106],[124.520356,-16.176446],[124.472667,-16.115004],[124.465831,-16.060479],[124.454275,-16.052667],[124.434337,-16.057794],[124.425548,-16.153578],[124.394542,-16.166599],[124.378429,-16.214939],[124.396821,-16.238539],[124.383311,-16.282647],[124.401541,-16.329278],[124.428722,-16.340509],[124.456798,-16.333266],[124.476329,-16.347833],[124.499278,-16.335707],[124.573253,-16.32586],[124.697276,-16.344415],[124.753184,-16.374444],[124.809418,-16.387628],[124.840831,-16.405206],[124.903982,-16.402439],[124.878917,-16.420668],[124.839692,-16.425714],[124.803722,-16.418227],[124.768728,-16.385349],[124.725759,-16.382501],[124.657481,-16.395603],[124.650157,-16.388116],[124.623302,-16.399998],[124.592459,-16.4013],[124.473643,-16.393324],[124.386078,-16.35117],[124.366466,-16.364516],[124.342133,-16.407973],[124.222667,-16.395603],[124.199392,-16.375095],[124.167166,-16.29697],[124.126231,-16.272231],[124.068533,-16.258966],[124.037852,-16.263442],[124.029307,-16.249282],[123.972179,-16.240411],[123.910899,-16.217462],[123.942393,-16.252862],[123.986013,-16.278904],[123.986013,-16.28631],[123.951427,-16.293634],[123.957774,-16.320896],[123.992849,-16.377862],[123.98463,-16.384698],[123.945079,-16.353936],[123.891856,-16.3388],[123.897227,-16.353936],[123.889659,-16.429783],[123.869314,-16.416111],[123.863048,-16.429783],[123.835216,-16.368259],[123.848806,-16.360772],[123.858084,-16.370782],[123.866059,-16.368097],[123.869314,-16.340427],[123.862641,-16.327325],[123.803477,-16.308201],[123.732677,-16.258966],[123.813487,-16.246026],[123.82838,-16.231134],[123.787852,-16.225356],[123.769298,-16.216567],[123.766856,-16.20436],[123.804454,-16.207452],[123.806895,-16.191095],[123.785818,-16.180434],[123.773692,-16.162774],[123.749522,-16.162774],[123.724132,-16.136326],[123.719086,-16.155938],[123.690929,-16.148696],[123.594981,-16.155938],[123.603363,-16.175551],[123.581309,-16.16961],[123.57016,-16.176935],[123.553966,-16.210626],[123.570649,-16.221856],[123.576427,-16.242446],[123.567149,-16.260919],[123.539724,-16.265232],[123.601817,-16.31992],[123.615896,-16.308526],[123.603363,-16.299737],[123.619151,-16.293145],[123.65797,-16.327732],[123.711681,-16.333591],[123.711681,-16.38128],[123.681326,-16.376235],[123.651622,-16.360284],[123.631602,-16.364679],[123.651866,-16.392511],[123.675548,-16.399102],[123.711681,-16.429783],[123.648448,-16.42783],[123.553966,-16.395603],[123.549327,-16.411879],[123.506114,-16.407973],[123.506114,-16.416111],[123.654063,-16.48447],[123.607432,-16.494073],[123.588145,-16.505466],[123.635102,-16.515395],[123.643321,-16.525974],[123.618419,-16.529962],[123.543468,-16.505466],[123.489513,-16.468927],[123.465831,-16.4638],[123.492524,-16.500258],[123.482677,-16.505466],[123.424164,-16.491143],[123.488048,-16.543878],[123.498546,-16.561944],[123.512543,-16.566664],[123.543468,-16.56699],[123.533458,-16.532159],[123.555186,-16.539727],[123.596446,-16.535903],[123.609223,-16.546319],[123.609141,-16.563897],[123.553966,-16.594171],[123.566173,-16.615981],[123.51295,-16.642022],[123.509939,-16.653904],[123.595551,-16.665297],[123.643321,-16.704034],[123.708263,-16.741876],[123.732677,-16.813897],[123.768077,-16.878513],[123.792491,-16.89072],[123.902599,-16.858982],[123.923595,-16.8388],[123.931407,-16.800226],[123.948578,-16.809259],[123.953298,-16.828546],[123.937511,-16.867852],[123.8838,-16.896905],[123.870128,-16.923598],[123.841645,-16.946547],[123.835216,-16.960707],[123.84311,-16.979262],[123.86964,-17.004653],[123.863048,-17.025567],[123.817638,-16.996189],[123.804454,-16.991388],[123.794607,-17.000095],[123.837087,-17.13242],[123.85377,-17.163263],[123.882986,-17.190688],[123.914073,-17.198989],[123.913341,-17.21559],[123.879731,-17.21795],[123.86085,-17.210382],[123.821544,-17.155938],[123.771251,-17.126072],[123.751475,-17.082615],[123.733409,-17.066095],[123.698009,-17.046645],[123.680186,-17.060317],[123.667247,-17.008477],[123.656016,-16.995782],[123.60613,-16.996352],[123.594981,-16.985121],[123.574474,-17.042901],[123.5796,-17.094008],[123.644298,-17.184747],[123.643321,-17.203709],[123.629649,-17.202569],[123.612804,-17.215753],[123.594412,-17.278741],[123.594981,-17.313572],[123.567638,-17.361993],[123.560802,-17.447361],[123.587657,-17.515069],[123.588145,-17.570571],[123.570811,-17.595147],[123.553966,-17.518976],[123.511729,-17.471856],[123.501475,-17.429783],[123.457774,-17.384373],[123.434418,-17.344415],[123.399669,-17.329278],[123.38795,-17.315606],[123.36964,-17.279474],[123.379405,-17.254815],[123.368175,-17.228448],[123.333751,-17.162367],[123.271739,-17.085626],[123.260427,-17.014744],[123.21811,-16.977716],[123.183767,-16.928969],[123.143321,-16.913751],[123.157725,-16.843438],[123.15089,-16.807712],[123.106456,-16.786391],[123.094493,-16.769301],[123.094574,-16.745701],[123.100841,-16.732354],[123.125743,-16.721124],[123.132172,-16.686293],[123.112559,-16.709731],[123.102061,-16.712091],[123.081879,-16.70322],[123.067393,-16.683526],[123.042817,-16.692478],[123.030772,-16.676202],[123.021007,-16.614353],[122.98878,-16.629002],[122.980724,-16.625421],[122.959809,-16.580336],[122.990408,-16.529229],[122.977875,-16.505466],[122.990001,-16.473403],[123.040782,-16.478123],[123.053722,-16.470636],[123.05836,-16.453546],[122.998383,-16.422947],[123.020274,-16.382582],[123.006602,-16.374444],[122.938243,-16.416111],[122.916189,-16.415948],[122.886404,-16.512302],[122.870453,-16.516778],[122.837413,-16.561619],[122.783946,-16.565851],[122.7588,-16.604425],[122.7588,-16.638849],[122.745128,-16.669854],[122.746104,-16.702895],[122.763194,-16.730076],[122.820974,-16.779718],[122.7588,-16.758722],[122.740489,-16.761326],[122.704275,-16.786716],[122.664561,-16.788507],[122.642833,-16.800226],[122.614431,-16.796075],[122.601248,-16.772231],[122.582367,-16.779555],[122.553477,-16.813897],[122.551036,-16.837498],[122.540294,-16.834405],[122.526134,-16.861749],[122.594981,-16.970961],[122.529552,-16.953871],[122.506114,-16.91961],[122.472911,-16.92018],[122.481619,-16.949965],[122.478282,-16.970961],[122.464122,-16.983819],[122.450857,-16.981622],[122.444509,-16.968927],[122.45102,-16.950453],[122.412771,-16.972752],[122.276052,-17.089288],[122.256602,-17.12127],[122.279633,-17.139255],[122.207693,-17.224786],[122.19044,-17.230564],[122.172048,-17.261163],[122.149425,-17.341485],[122.141124,-17.458754],[122.14324,-17.563653],[122.177257,-17.663018],[122.205414,-17.71087],[122.19337,-17.805841],[122.207856,-17.91131],[122.196137,-17.945408],[122.16977,-17.978285],[122.190929,-17.998793],[122.217052,-17.969659],[122.248546,-17.96087],[122.344086,-17.983005],[122.360688,-18.000177],[122.369151,-18.063897],[122.347016,-18.121189],[122.323985,-18.150567],[122.220388,-18.197198],[122.197113,-18.238946],[122.183442,-18.225356],[122.158051,-18.263442],[122.122081,-18.293634],[122.062266,-18.320001],[122.0442,-18.360528],[122.022146,-18.384698],[121.91033,-18.464451],[121.866547,-18.470798],[121.823741,-18.451837],[121.811046,-18.462579],[121.773936,-18.545668],[121.731619,-18.580987],[121.77475,-18.606134],[121.78004,-18.619236],[121.769054,-18.657403],[121.715587,-18.703709],[121.643891,-18.717055],[121.613292,-18.712498],[121.621755,-18.739353],[121.646251,-18.763442],[121.642589,-18.810235],[121.597423,-18.911228],[121.569184,-18.944594],[121.564138,-18.975681],[121.539806,-19.013604],[121.519379,-19.069594],[121.416189,-19.221612],[121.311534,-19.354099],[121.193533,-19.472426],[121.166026,-19.484552],[121.128266,-19.520685],[120.954356,-19.633722],[120.650564,-19.763279],[120.3685,-19.86712],[120.238292,-19.906834],[120.070567,-19.921645],[119.802257,-19.965753],[119.734386,-19.96266],[119.716156,-19.97324],[119.71754,-20.003676],[119.702647,-20.013604],[119.664806,-20.010431],[119.637869,-20.041599],[119.589854,-20.065851],[119.566661,-20.06878],[119.523448,-20.053155],[119.487153,-20.030938],[119.473969,-20.005466],[119.463064,-19.999933],[119.435802,-20.013604],[119.192393,-19.958917],[119.163259,-19.966241],[119.161388,-20.00742],[119.118337,-19.971612],[119.09547,-19.966729],[119.068533,-19.982843],[119.056163,-20.009861],[119.014903,-20.024347],[118.97462,-20.050388],[118.958832,-20.104181],[118.88087,-20.185479],[118.831798,-20.261977],[118.805675,-20.28102],[118.738048,-20.292169],[118.681814,-20.323663],[118.606293,-20.309503],[118.410818,-20.346449],[118.368826,-20.362074],[118.353282,-20.36297],[118.335297,-20.3388],[118.322276,-20.335707],[118.230805,-20.371677],[118.209239,-20.36297],[118.195079,-20.371352],[118.188731,-20.349298],[118.15089,-20.356134],[117.940684,-20.492771],[117.935313,-20.52988],[117.91863,-20.555108],[117.878754,-20.565118],[117.839366,-20.616876],[117.810069,-20.623224],[117.736339,-20.658461],[117.729503,-20.650974],[117.674815,-20.672133],[117.664236,-20.657322],[117.650645,-20.672133],[117.635753,-20.673272],[117.623302,-20.661554],[117.602712,-20.657322],[117.513438,-20.706313],[117.437511,-20.722589],[117.311534,-20.722833],[117.181326,-20.673517],[117.160167,-20.644789],[117.16863,-20.60947],[117.154063,-20.596368],[117.107677,-20.635186],[117.09547,-20.637384],[117.062511,-20.621677],[116.957042,-20.668064],[116.921641,-20.698337],[116.879649,-20.713067],[116.855479,-20.712091],[116.835948,-20.704278],[116.783946,-20.657159],[116.788748,-20.633722],[116.810802,-20.61004],[116.820323,-20.5499],[116.845388,-20.539321],[116.824474,-20.52809],[116.790863,-20.534926],[116.79713,-20.548598],[116.779307,-20.560235],[116.743175,-20.616876],[116.699392,-20.659356],[116.587087,-20.735284],[116.520518,-20.751153],[116.506196,-20.780857],[116.451508,-20.814711],[116.434744,-20.822361],[116.347992,-20.828546],[116.289399,-20.863214],[116.26588,-20.862563],[116.218598,-20.842869],[116.1963,-20.846856],[116.174083,-20.943048],[116.151541,-20.969985],[115.936697,-21.059015],[115.877615,-21.115167],[115.85906,-21.154962],[115.830414,-21.190851],[115.818696,-21.225763],[115.662283,-21.298028],[115.625987,-21.321954],[115.49464,-21.466078],[115.478526,-21.501153],[115.223888,-21.59881],[115.105154,-21.665216],[115.098643,-21.652765],[115.088634,-21.652765],[115.055186,-21.676528],[115.008962,-21.693129],[114.970714,-21.682061],[114.928966,-21.693943],[114.778982,-21.781345],[114.70045,-21.809259],[114.678233,-21.834568],[114.646739,-21.843357],[114.624766,-21.918552],[114.611095,-21.925226],[114.550304,-22.041925],[114.503184,-21.996026],[114.495616,-22.00449],[114.501801,-22.041925],[114.522309,-22.069268],[114.497813,-22.16367],[114.467621,-22.172296],[114.467621,-22.206476],[114.439789,-22.244561],[114.391938,-22.358005],[114.367035,-22.478285],[114.337413,-22.493829],[114.319835,-22.487563],[114.299815,-22.449802],[114.286632,-22.443292],[114.221934,-22.46795],[114.179698,-22.521742],[114.148123,-22.521417],[114.122406,-22.504164],[114.11085,-22.477716],[114.125743,-22.438165],[114.117686,-22.398858],[114.151866,-22.358005],[114.163829,-22.355564],[114.171397,-22.317478],[114.166026,-22.302667],[114.147472,-22.294529],[114.12436,-22.336684],[114.109711,-22.330987],[114.12436,-22.275323],[114.077485,-22.17547],[114.096446,-22.106378],[114.127696,-21.922784],[114.152517,-21.846368],[114.176036,-21.822198],[114.172211,-21.802992],[114.15919,-21.791925],[114.067149,-21.819024],[114.035818,-21.837823],[114.011485,-21.859959],[113.947032,-21.952569],[113.923106,-22.013116],[113.89796,-22.049249],[113.885509,-22.110935],[113.803966,-22.330824],[113.747732,-22.401544],[113.731456,-22.479587],[113.693126,-22.535414],[113.660818,-22.553399],[113.646658,-22.577732],[113.67213,-22.668715],[113.658946,-22.727797],[113.713634,-22.741469],[113.759776,-22.788751],[113.775401,-22.852472],[113.801768,-22.899835],[113.807384,-22.930597],[113.811534,-23.051365],[113.789317,-23.097101],[113.758311,-23.118829],[113.748302,-23.162286],[113.782481,-23.327081],[113.768809,-23.457696],[113.737559,-23.527032],[113.699962,-23.549574],[113.68214,-23.579685],[113.636241,-23.596856],[113.627696,-23.611912],[113.60434,-23.624688],[113.559337,-23.741957],[113.538341,-23.748468],[113.526378,-23.764744],[113.502126,-23.852797],[113.459727,-23.910333],[113.455333,-23.990655],[113.414561,-24.049412],[113.433279,-24.17018],[113.397227,-24.214125],[113.385265,-24.249119],[113.391449,-24.41367],[113.400238,-24.45794],[113.439464,-24.53281],[113.542491,-24.643487],[113.60434,-24.728285],[113.620942,-24.795831],[113.605154,-24.830499],[113.610606,-24.892755],[113.639659,-24.896173],[113.658214,-24.912042],[113.666759,-24.93377],[113.665212,-24.954848],[113.647309,-24.977309],[113.645763,-24.993097],[113.692149,-25.105239],[113.713064,-25.124933],[113.747325,-25.136651],[113.802419,-25.171808],[113.816661,-25.208754],[113.853282,-25.26393],[113.862071,-25.302667],[113.928396,-25.449802],[114.015636,-25.569594],[114.049327,-25.646905],[114.093028,-25.671645],[114.100597,-25.694757],[114.129161,-25.715265],[114.136485,-25.733331],[114.132009,-25.749933],[114.144867,-25.757013],[114.155284,-25.789727],[114.193126,-25.802179],[114.258556,-25.841892],[114.263194,-25.862237],[114.234223,-25.927423],[114.237478,-25.94964],[114.268565,-25.989516],[114.219574,-25.996759],[114.190766,-25.97088],[114.186534,-25.978936],[114.191742,-26.004002],[114.22755,-26.06463],[114.226817,-26.0888],[114.191895,-26.195862],[114.234371,-26.316584],[114.207361,-26.375541],[114.156421,-26.393729],[114.103776,-26.447882],[114.085537,-26.447952],[114.069083,-26.43656],[114.021534,-26.390888],[113.969981,-26.33172],[113.935469,-26.191722],[113.948087,-26.139464],[113.928096,-26.137868],[113.906016,-26.119317],[113.911637,-26.088939],[113.902433,-26.031854],[113.909577,-25.976373],[113.885509,-25.951755],[113.854503,-25.944268],[113.852875,-25.971287],[113.878842,-26.043321],[113.84807,-26.12171],[113.795386,-26.206715],[113.766251,-26.210034],[113.762605,-26.196973],[113.728004,-26.197035],[113.728013,-26.180685],[113.70436,-26.148046],[113.71346,-26.121914],[113.718913,-26.032116],[113.738886,-25.98477],[113.735216,-25.935815],[113.760609,-25.904793],[113.756951,-25.885217],[113.722341,-25.866632],[113.716977,-25.846074],[113.727832,-25.79544],[113.675184,-25.780791],[113.660641,-25.749767],[113.631033,-25.736261],[113.60798,-25.704015],[113.58434,-25.632113],[113.562511,-25.631524],[113.555919,-25.619561],[113.532888,-25.618259],[113.520796,-25.600955],[113.51525,-25.509337],[113.502548,-25.514213],[113.489869,-25.545269],[113.464457,-25.573011],[113.422647,-25.654663],[113.413528,-25.702047],[113.420781,-25.728215],[113.46046,-25.776625],[113.474111,-25.817632],[113.511872,-25.853422],[113.523766,-25.891846],[113.518765,-25.919536],[113.557553,-25.940989],[113.553517,-25.972261],[113.562426,-25.999964],[113.576347,-26.008898],[113.567356,-26.036602],[113.577239,-26.089343],[113.611082,-26.096482],[113.648878,-26.139386],[113.679971,-26.183827],[113.684138,-26.221604],[113.781749,-26.241388],[113.868411,-26.3188],[113.884773,-26.342673],[113.883369,-26.378543],[113.873031,-26.398493],[113.889479,-26.464915],[113.886567,-26.492838],[113.870286,-26.52213],[113.8525,-26.544772],[113.813879,-26.563486],[113.812432,-26.599415],[113.780447,-26.601251],[113.772271,-26.587507],[113.694918,-26.61424],[113.68629,-26.654229],[113.669586,-26.652893],[113.662177,-26.600975],[113.628754,-26.598077],[113.638379,-26.587683],[113.633933,-26.57304],[113.642887,-26.549073],[113.644426,-26.48122],[113.625147,-26.439997],[113.617716,-26.446654],[113.623608,-26.487886],[113.598283,-26.518507],[113.593765,-26.553117],[113.581834,-26.565109],[113.565507,-26.565081],[113.567114,-26.490561],[113.556743,-26.470604],[113.567155,-26.445347],[113.552377,-26.384173],[113.561326,-26.352265],[113.543565,-26.287118],[113.530216,-26.267172],[113.51387,-26.273809],[113.509363,-26.312363],[113.525653,-26.354918],[113.507715,-26.41077],[113.507623,-26.469296],[113.486755,-26.479943],[113.479319,-26.473292],[113.492788,-26.434715],[113.48988,-26.400128],[113.503317,-26.376189],[113.495963,-26.326983],[113.473775,-26.26314],[113.461911,-26.249829],[113.45009,-26.200609],[113.451631,-26.159384],[113.413015,-26.155328],[113.396642,-26.17658],[113.387871,-26.060804],[113.362674,-26.012815],[113.356698,-26.042086],[113.380398,-26.099378],[113.377253,-26.2098],[113.363828,-26.228399],[113.3533,-26.274944],[113.356187,-26.308203],[113.38427,-26.382755],[113.367905,-26.378743],[113.335335,-26.310837],[113.327998,-26.274896],[113.306224,-25.996651],[113.285324,-26.056503],[113.292614,-26.131083],[113.275971,-26.234857],[113.258252,-26.185559],[113.210216,-26.174493],[113.161495,-26.139953],[113.15698,-26.151926],[113.24467,-26.240098],[113.299489,-26.338721],[113.291987,-26.35335],[113.297782,-26.397289],[113.312625,-26.415946],[113.590579,-26.675651],[113.654528,-26.775586],[113.764415,-26.918145],[114.012543,-27.315362],[114.074474,-27.447198],[114.143891,-27.687758],[114.142345,-27.709161],[114.10255,-27.797947],[114.097911,-27.862726],[114.143891,-28.01865],[114.148692,-28.068536],[114.166026,-28.106703],[114.244884,-28.192478],[114.310069,-28.230157],[114.422862,-28.400974],[114.531098,-28.522393],[114.589854,-28.655857],[114.59783,-28.701837],[114.595551,-28.748305],[114.577485,-28.785089],[114.592784,-28.797784],[114.60377,-28.838556],[114.652599,-28.912367],[114.842459,-29.108575],[114.896251,-29.233657],[114.929698,-29.327813],[114.953787,-29.429376],[114.97877,-29.479913],[114.97934,-29.523207],[114.946056,-29.658136],[114.940684,-29.744073],[114.94752,-29.830011],[114.967459,-29.902439],[114.942638,-30.03102],[114.94752,-30.066827],[114.971202,-30.09238],[114.988536,-30.145685],[114.974864,-30.214044],[114.9817,-30.232029],[115.022797,-30.262872],[115.022634,-30.296157],[115.008962,-30.320082],[115.03419,-30.370375],[115.054942,-30.448012],[115.060802,-30.522393],[115.101085,-30.633396],[115.161957,-30.74212],[115.180919,-30.827244],[115.238536,-30.878676],[115.312999,-30.990818],[115.4546,-31.303481],[115.550629,-31.434747],[115.604828,-31.546563],[115.680349,-31.648614],[115.700938,-31.691176],[115.721528,-31.772638],[115.743663,-31.92783],[115.72934,-32.07464],[115.742686,-32.102309],[115.735118,-32.12949],[115.755626,-32.163507],[115.756847,-32.185642],[115.73585,-32.264418],[115.719737,-32.273207],[115.673676,-32.27337],[115.686778,-32.290216],[115.727794,-32.315037],[115.73585,-32.333185],[115.707856,-32.369561],[115.733653,-32.387953],[115.745616,-32.418715],[115.745453,-32.455662],[115.714529,-32.537042],[115.729259,-32.566095],[115.76295,-32.579034],[115.769298,-32.602309],[115.762869,-32.627699],[115.748709,-32.637302],[115.704438,-32.636489],[115.676768,-32.622817],[115.658865,-32.628513],[115.673676,-32.642755],[115.683767,-32.690199],[115.717133,-32.741632],[115.722992,-32.763767],[115.714122,-32.78045],[115.691091,-32.770603],[115.639659,-32.656915],[115.639903,-32.608575],[115.69337,-32.552667],[115.700938,-32.512953],[115.629649,-32.59238],[115.600922,-32.661716],[115.624685,-32.811782],[115.660004,-32.938165],[115.674571,-33.024998],[115.66684,-33.287693],[115.673676,-33.287693],[115.697927,-33.193129],[115.704845,-33.192478],[115.707856,-33.208429],[115.710134,-33.270685],[115.701671,-33.297133],[115.677094,-33.308038],[115.636974,-33.299249],[115.625987,-33.308038],[115.575531,-33.42669],[115.5171,-33.512384],[115.434093,-33.595473],[115.367198,-33.63128],[115.282725,-33.650649],[115.194672,-33.644627],[115.118826,-33.616469],[115.045665,-33.537205],[114.988536,-33.521091],[115.003917,-33.616957],[114.971039,-33.653904],[114.956798,-33.682306],[114.958995,-33.719903],[114.988536,-33.78102],[114.961192,-33.859552],[114.972667,-33.922784],[114.971039,-34.082696],[115.009939,-34.163181],[115.010427,-34.24505],[115.017833,-34.26214],[115.108409,-34.344334],[115.118826,-34.363377],[115.137543,-34.349867],[115.164887,-34.310235],[115.183767,-34.301853],[115.290782,-34.301853],[115.508149,-34.386977],[115.526378,-34.414809],[115.570649,-34.424737],[115.612315,-34.445896],[115.745453,-34.540216],[115.915782,-34.701918],[115.933604,-34.722589],[115.946544,-34.757501],[115.981619,-34.801446],[115.973888,-34.830255],[115.978526,-34.835626],[116.019786,-34.82936],[116.096202,-34.838637],[116.248383,-34.877537],[116.330821,-34.912693],[116.37615,-34.917413],[116.398936,-34.903904],[116.372569,-34.863539],[116.387543,-34.857517],[116.442231,-34.905532],[116.489431,-34.920017],[116.503673,-34.939223],[116.488292,-34.945733],[116.382986,-34.924981],[116.375255,-34.932712],[116.39503,-34.949477],[116.465099,-35.000665],[116.503184,-34.999933],[116.531586,-35.014744],[116.584809,-35.021173],[116.637869,-35.050226],[116.658376,-35.028009],[116.728852,-35.028009],[116.736339,-35.007501],[116.877696,-35.054864],[116.899587,-35.050388],[116.949962,-35.013442],[117.002452,-35.028985],[117.052582,-35.02337],[117.106781,-35.038344],[117.140391,-35.062758],[117.171641,-35.013279],[117.191661,-35.007501],[117.223399,-35.020766],[117.266938,-35.014907],[117.323985,-35.032973],[117.332205,-35.018162],[117.340587,-35.017836],[117.459972,-35.076104],[117.538585,-35.092218],[117.61964,-35.137872],[117.626801,-35.080255],[117.641287,-35.061293],[117.684337,-35.046319],[117.747244,-35.051365],[117.809825,-35.071384],[117.860362,-35.108819],[117.932872,-35.120375],[117.982758,-35.099542],[117.996349,-35.103692],[118.001475,-35.088149],[117.951996,-35.089532],[117.934825,-35.081313],[117.917654,-35.047052],[117.901378,-35.041681],[117.89324,-35.046563],[117.901378,-35.072686],[117.888927,-35.08172],[117.843761,-35.060235],[117.832042,-35.045831],[117.83546,-35.031427],[117.907563,-35.021173],[117.920584,-35.007501],[117.944835,-35.014907],[117.979015,-35.007501],[118.026703,-35.01393],[118.106212,-34.987074],[118.113048,-34.993829],[118.119884,-34.987074],[118.181407,-35.021173],[118.199392,-35.016778],[118.192882,-34.983575],[118.181407,-34.965916],[118.158865,-34.956638],[118.160818,-34.945489],[118.202403,-34.939223],[118.264415,-34.91131],[118.385102,-34.90838],[118.398448,-34.900974],[118.401134,-34.877211],[118.38738,-34.825942],[118.442638,-34.740004],[118.479828,-34.717055],[118.613292,-34.685968],[118.724946,-34.635837],[118.757335,-34.603448],[118.732432,-34.598321],[118.723806,-34.578871],[118.727306,-34.558038],[118.789887,-34.518813],[118.887706,-34.500421],[118.839854,-34.452569],[118.89796,-34.458754],[118.931977,-34.445896],[119.116954,-34.472426],[119.147716,-34.493585],[119.200938,-34.497979],[119.214854,-34.511651],[119.220714,-34.531834],[119.229991,-34.532159],[119.26059,-34.522149],[119.269542,-34.466485],[119.301443,-34.445896],[119.333669,-34.451918],[119.349376,-34.489679],[119.364024,-34.49505],[119.367442,-34.479913],[119.401541,-34.458754],[119.382091,-34.440118],[119.376475,-34.411716],[119.38502,-34.384861],[119.408458,-34.37005],[119.442393,-34.374444],[119.479503,-34.404555],[119.559255,-34.383722],[119.483897,-34.358575],[119.4699,-34.336033],[119.469493,-34.313409],[119.497081,-34.239028],[119.538829,-34.20908],[119.572032,-34.142022],[119.618175,-34.12005],[119.623383,-34.111098],[119.613129,-34.103204],[119.640636,-34.085219],[119.730479,-34.048517],[119.806163,-33.984959],[119.858897,-33.96795],[119.928477,-33.962823],[120.002208,-33.926039],[120.039073,-33.925063],[120.100434,-33.952325],[120.178966,-33.931248],[120.278575,-33.938653],[120.381602,-33.962579],[120.394298,-33.97381],[120.527354,-33.936782],[120.542735,-33.928155],[120.545177,-33.905938],[120.562185,-33.892999],[120.790375,-33.886],[120.867686,-33.856134],[120.920177,-33.85711],[120.970551,-33.870375],[121.097667,-33.842462],[121.166352,-33.867934],[121.228526,-33.83766],[121.278494,-33.832778],[121.333751,-33.815199],[121.532888,-33.819513],[121.602224,-33.849542],[121.628429,-33.876397],[121.649669,-33.876642],[121.675141,-33.858982],[121.697276,-33.857192],[121.743826,-33.867934],[121.793712,-33.897149],[121.879242,-33.869887],[121.913748,-33.838556],[121.937022,-33.82879],[121.981456,-33.82879],[122.005707,-33.820733],[122.067393,-33.876642],[122.074229,-33.891534],[122.082367,-33.927179],[122.105805,-33.964044],[122.102794,-33.980157],[122.073578,-34.014418],[122.094737,-34.019138],[122.187266,-34.020685],[122.217621,-33.993341],[122.240245,-34.016209],[122.257823,-34.022068],[122.266124,-34.003839],[122.267751,-33.959242],[122.312266,-33.9249],[122.349864,-33.915297],[122.390147,-33.915785],[122.501964,-33.945489],[122.521821,-33.931085],[122.560313,-33.959161],[122.583018,-33.936944],[122.584239,-33.923923],[122.574555,-33.910821],[122.607432,-33.894789],[122.735606,-33.890883],[122.776622,-33.876642],[122.817882,-33.904555],[122.840831,-33.903741],[123.023123,-33.86061],[123.084972,-33.878351],[123.113617,-33.904474],[123.132823,-33.93906],[123.146983,-34.00213],[123.154633,-34.009454],[123.194102,-34.005304],[123.211274,-33.993341],[123.231944,-34.000746],[123.266612,-33.986505],[123.343598,-33.903497],[123.383311,-33.890883],[123.459727,-33.90016],[123.493337,-33.931248],[123.526622,-33.938653],[123.566661,-33.884373],[123.581065,-33.876235],[123.622813,-33.876642],[123.649587,-33.842462],[123.729015,-33.804946],[123.73878,-33.794041],[123.734874,-33.757989],[123.756847,-33.714125],[123.815196,-33.65838],[123.863048,-33.629571],[123.863048,-33.616469],[123.891612,-33.588149],[123.952485,-33.567315],[124.008311,-33.354181],[124.069672,-33.253595],[124.094737,-33.155694],[124.164806,-33.067966],[124.201182,-33.038018],[124.254893,-33.01336],[124.314952,-32.966078],[124.356944,-32.952813],[124.708832,-32.903904],[124.833991,-32.867698],[124.901914,-32.833659],[125.000255,-32.737237],[125.096446,-32.712172],[125.337827,-32.601515],[125.537275,-32.548379],[125.87,-32.332983],[126.007579,-32.27337],[126.078787,-32.280532],[126.10377,-32.27337],[126.137869,-32.245375],[126.18572,-32.232517],[126.24879,-32.241632],[126.372325,-32.28281],[126.677745,-32.316583],[126.760265,-32.310968],[126.78891,-32.300714],[126.820649,-32.310805],[126.935802,-32.300714],[127.052989,-32.303806],[127.083263,-32.293878],[127.090099,-32.300714],[127.288748,-32.27337],[127.531993,-32.211358],[127.566091,-32.184666],[127.766287,-32.123142],[128.017345,-32.084242],[128.218923,-32.017673],[128.655284,-31.845798],[128.723888,-31.803643],[128.755382,-31.793634],[128.770681,-31.778253],[128.931651,-31.708103],[129.000092,-31.689223]]],[[[113.20338,-26.027032],[113.144705,-25.946222],[113.131358,-25.947931],[113.14503,-25.969008],[113.115571,-25.963311],[113.115245,-25.937758],[113.137543,-25.885919],[113.05128,-25.716974],[113.043379,-25.629647],[113.006064,-25.552923],[113.007823,-25.496189],[112.998383,-25.489923],[112.969005,-25.494317],[112.959483,-25.482517],[112.919444,-25.523614],[112.919599,-25.631555],[112.954791,-25.697521],[112.963552,-25.75449],[112.953868,-25.773045],[113.012426,-25.845132],[113.046153,-25.940037],[113.082698,-25.965498],[113.155699,-26.054059],[113.177257,-26.125584],[113.207042,-26.139744],[113.225108,-26.108331],[113.20338,-26.027032]]],[[[113.055675,-25.262791],[113.069347,-25.276462],[113.076182,-25.205011],[113.103363,-25.140395],[113.117686,-25.009454],[113.08839,-25.029067],[113.079112,-25.062433],[113.083018,-25.136651],[113.05128,-25.239679],[113.055675,-25.262791]]],[[[113.151866,-24.926935],[113.135997,-24.917169],[113.134939,-24.892022],[113.158458,-24.80169],[113.151866,-24.755629],[113.132823,-24.802341],[113.11085,-24.961114],[113.117686,-24.995212],[113.129568,-24.956231],[113.151866,-24.926935]]],[[[115.451182,-20.66839],[115.428966,-20.669122],[115.399425,-20.69378],[115.310557,-20.801853],[115.296397,-20.856541],[115.306977,-20.870538],[115.318126,-20.872735],[115.335704,-20.849705],[115.359386,-20.864516],[115.365245,-20.876886],[115.408051,-20.853692],[115.415375,-20.836196],[115.438487,-20.819024],[115.440278,-20.794366],[115.47047,-20.746189],[115.451182,-20.66839]]],[[[124.40797,-15.272068],[124.334727,-15.291925],[124.336192,-15.300063],[124.376475,-15.319268],[124.396821,-15.299412],[124.431651,-15.308689],[124.444591,-15.299412],[124.431814,-15.292169],[124.451996,-15.264744],[124.433849,-15.246515],[124.422862,-15.246189],[124.40797,-15.272068]]],[[[124.575694,-15.33294],[124.582205,-15.317966],[124.551443,-15.306248],[124.549571,-15.297459],[124.568696,-15.244236],[124.504405,-15.279392],[124.493175,-15.291925],[124.514171,-15.291925],[124.50172,-15.308689],[124.506684,-15.326104],[124.495616,-15.315851],[124.479747,-15.317966],[124.470551,-15.351007],[124.458832,-15.360935],[124.497732,-15.377618],[124.514171,-15.360935],[124.506684,-15.381443],[124.537771,-15.367771],[124.58253,-15.373956],[124.554373,-15.389337],[124.534679,-15.41546],[124.517751,-15.413263],[124.520356,-15.435968],[124.531261,-15.440362],[124.650157,-15.395115],[124.62794,-15.387384],[124.601736,-15.343845],[124.575694,-15.33294]]],[[[124.931895,-14.954685],[124.924571,-14.936293],[124.903982,-14.970392],[124.886974,-14.952813],[124.87143,-14.95672],[124.86378,-14.972589],[124.869884,-14.990981],[124.897146,-14.990981],[124.911469,-15.018243],[124.927013,-15.029229],[124.93629,-15.026056],[124.939789,-15.01393],[124.938162,-14.997735],[124.921641,-14.983982],[124.931895,-14.954685]]],[[[125.181407,-14.466404],[125.171886,-14.440606],[125.152843,-14.44378],[125.157888,-14.456476],[125.122813,-14.481215],[125.115571,-14.49684],[125.130544,-14.511163],[125.138927,-14.509698],[125.137462,-14.559015],[125.115245,-14.542169],[125.102224,-14.538995],[125.096446,-14.549005],[125.091563,-14.618585],[125.120616,-14.618341],[125.137462,-14.647638],[125.149913,-14.638442],[125.146983,-14.61712],[125.153575,-14.610935],[125.169607,-14.611098],[125.204926,-14.593032],[125.177745,-14.542169],[125.200531,-14.510431],[125.208751,-14.481622],[125.181407,-14.466404]]],[[[115.660004,-32.149835],[115.647227,-32.162693],[115.660004,-32.232517],[115.680512,-32.239353],[115.678477,-32.216485],[115.660004,-32.149835]]],[[[115.492107,-31.995649],[115.482366,-32.010885],[115.458296,-32.009713],[115.440142,-32.021834],[115.490731,-32.019098],[115.514759,-32.025362],[115.552192,-32.006203],[115.524607,-31.993807],[115.492107,-31.995649]]],[[[113.679618,-28.452241],[113.684598,-28.486277],[113.749539,-28.427576],[113.720213,-28.428124],[113.703351,-28.448421],[113.679618,-28.452241]]]]}}
