{"type":"Feature","properties":{"featurecla":"Admin-1 states provinces","scalerank":9,"adm1_code":"AZE-1738","diss_me":1738,"iso_3166_2":"AZ-TAR","wikipedia":null,"iso_a2":"AZ","adm0_sr":1,"name":"Tartar","name_alt":"Tartar","name_local":null,"type":"Rayon","type_en":"District","code_local":null,"code_hasc":"AZ.TA","note":"partially in Nagorno-Karabakh","hasc_maybe":null,"region":"Yukhari Garabakh Economic Region","region_cod":"AZ-07","provnum_ne":60,"gadm_level":1,"check_me":10,"datarank":8,"abbrev":null,"postal":"TA","area_sqkm":0,"sameascity":-99,"labelrank":9,"name_len":6,"mapcolor9":5,"mapcolor13":8,"fips":"AJ57","fips_alt":"AJ|","woe_id":20070274,"woe_label":"Tartar, AZ, Azerbaijan","woe_name":"Tərtər","latitude":40.2547,"longitude":46.7929,"sov_a3":"AZE","adm0_a3":"AZE","adm0_label":5,"admin":"Azerbaijan","geonunit":"Azerbaijan","gu_a3":"AZE","gn_id":409420,"gn_name":"Tartar Rayon","gns_id":-2707721,"gns_name":"Tartar Rayonu","gn_level":1,"gn_region":null,"gn_a1_code":"AZ.57","region_sub":null,"sub_code":null,"gns_level":1,"gns_lang":"aze","gns_adm1":"AJ57","gns_region":null,"min_label":9.0,"max_label":11.0,"min_zoom":9.0,"wikidataid":"Q477168","name_ar":"مقاطعة ترتر","name_bn":"তারতার জেলা","name_de":"Tərtər","name_en":"Tartar","name_es":"Tərtər","name_fr":"Tartar","name_el":"Ταρτάρ","name_hi":"टारटर जिला","name_hu":"Tərtəri járás","name_id":"Tartar","name_it":"Tərtər","name_ja":"タルタル県","name_ko":"테르테르 구","name_nl":"Tərtər","name_pl":"Tərtər","name_pt":"Tartar","name_ru":"Тертерский район","name_sv":"Tärtär","name_tr":"Terter Rayonu","name_vi":"Terter","name_zh":"泰尔泰尔区","ne_id":1159312145,"name_he":"טרטר","name_uk":"Тертерський район","name_ur":"تارتار ضلع","name_fa":"شهرستان ترتر","name_zht":"泰爾泰爾區","FCLASS_ISO":null,"FCLASS_US":null,"FCLASS_FR":null,"FCLASS_RU":null,"FCLASS_ES":null,"FCLASS_CN":null,"FCLASS_TW":null,"FCLASS_IN":null,"FCLASS_NP":null,"FCLASS_PK":null,"FCLASS_DE":null,"FCLASS_GB":null,"FCLASS_BR":null,"FCLASS_IL":null,"FCLASS_PS":null,"FCLASS_SA":null,"FCLASS_EG":null,"FCLASS_MA":null,"FCLASS_PT":null,"FCLASS_AR":null,"FCLASS_JP":null,"FCLASS_KO":null,"FCLASS_VN":null,"FCLASS_TR":null,"FCLASS_ID":null,"FCLASS_PL":null,"FCLASS_GR":null,"FCLASS_IT":null,"FCLASS_NL":null,"FCLASS_SE":null,"FCLASS_BD":null,"FCLASS_UA":null,"FCLASS_TLC":null,"iso_id":"AZ-TAR","iso_name":"Tartar","source":"iso-3166-2-subdivisions"},"geometry":{"type":"Polygon","coordinates":[[[47.086305,40.166851],[47.073179,40.238604],[47.077726,40.301675],[47.02481,40.326402],[46.982383,40.369216],[46.969309,40.415725],[46.936495,40.447971],[46.923989,40.48001],[46.877687,40.445852],[46.79671,40.403684],[46.722037,40.403839],[46.56892,40.347667],[46.534452,40.313095],[46.52391,40.278937],[46.504015,40.26594],[46.499415,40.229483],[46.532282,40.133442],[46.577137,40.152459],[46.63703,40.147937],[46.712736,40.095899],[46.737954,40.053318],[46.76157,40.032983],[46.766066,40.069079],[46.780638,40.096028],[46.806425,40.11657],[46.814073,40.150728],[46.930914,40.193258],[46.925126,40.209226],[46.932154,40.221835],[46.980626,40.206771],[47.003829,40.214057],[47.022691,40.195996],[47.031941,40.170236],[47.086305,40.166851]]]}}
