{"type":"Feature","properties":{"iso_id":"BA-02","iso_name":"Posavina Canton","name":"Posavina Canton","source":"iso-3166-2-placeholder-circle"},"geometry":{"type":"Polygon","coordinates":[[[18.983333,45.033333],[18.973726,45.130878],[18.945273,45.224675],[18.899068,45.311118],[18.836887,45.386887],[18.761118,45.449068],[18.674675,45.495273],[18.580878,45.523726],[18.483333,45.533333],[18.385788,45.523726],[18.291992,45.495273],[18.205548,45.449068],[18.12978,45.386887],[18.067599,45.311118],[18.021394,45.224675],[17.992941,45.130878],[17.983333,45.033333],[17.992941,44.935788],[18.021394,44.841992],[18.067599,44.755548],[18.12978,44.67978],[18.205548,44.617599],[18.291992,44.571394],[18.385788,44.542941],[18.483333,44.533333],[18.580878,44.542941],[18.674675,44.571394],[18.761118,44.617599],[18.836887,44.67978],[18.899068,44.755548],[18.945273,44.841992],[18.973726,44.935788],[18.983333,45.033333]]]}}
