{"type":"Feature","properties":{"iso_id":"BA-10","iso_name":"Canton 10","name":"Canton 10","source":"iso-3166-2-placeholder-circle"},"geometry":{"type":"Polygon","coordinates":[[[17.54,43.795],[17.530393,43.892545],[17.50194,43.986342],[17.455735,44.072785],[17.393553,44.148553],[17.317785,44.210735],[17.231342,44.25694],[17.137545,44.285393],[17.04,44.295],[16.942455,44.285393],[16.848658,44.25694],[16.762215,44.210735],[16.686447,44.148553],[16.624265,44.072785],[16.57806,43.986342],[16.549607,43.892545],[16.54,43.795],[16.549607,43.697455],[16.57806,43.603658],[16.624265,43.517215],[16.686447,43.441447],[16.762215,43.379265],[16.848658,43.33306],[16.942455,43.304607],[17.04,43.295],[17.137545,43.304607],[17.231342,43.33306],[17.317785,43.379265],[17.393553,43.441447],[17.455735,43.517215],[17.50194,43.603658],[17.530393,43.697455],[17.54,43.795]]]}}
