{"type":"Feature","properties":{"iso_id":"BD-18","iso_name":"Gazipur District","name":"Gazipur District","source":"iso-3166-2-placeholder-circle"},"geometry":{"type":"Polygon","coordinates":[[[90.93,24.0],[90.920393,24.097545],[90.89194,24.191342],[90.845735,24.277785],[90.783553,24.353553],[90.707785,24.415735],[90.621342,24.46194],[90.527545,24.490393],[90.43,24.5],[90.332455,24.490393],[90.238658,24.46194],[90.152215,24.415735],[90.076447,24.353553],[90.014265,24.277785],[89.96806,24.191342],[89.939607,24.097545],[89.93,24.0],[89.939607,23.902455],[89.96806,23.808658],[90.014265,23.722215],[90.076447,23.646447],[90.152215,23.584265],[90.238658,23.53806],[90.332455,23.509607],[90.43,23.5],[90.527545,23.509607],[90.621342,23.53806],[90.707785,23.584265],[90.783553,23.646447],[90.845735,23.722215],[90.89194,23.808658],[90.920393,23.902455],[90.93,24.0]]]}}
