{"type":"Feature","properties":{"featurecla":"Admin-1 states provinces","scalerank":7,"adm1_code":"BEL-2","diss_me":2,"iso_3166_2":"BE-WHT","wikipedia":null,"iso_a2":"BE","adm0_sr":1,"name":"Hainaut","name_alt":"Henegouwen","name_local":null,"type":"Province","type_en":"Province","code_local":null,"code_hasc":"BE.HT","note":null,"hasc_maybe":null,"region":"Walloon","region_cod":null,"provnum_ne":0,"gadm_level":1,"check_me":20,"datarank":8,"abbrev":null,"postal":null,"area_sqkm":0,"sameascity":-99,"labelrank":7,"name_len":7,"mapcolor9":1,"mapcolor13":8,"fips":null,"fips_alt":null,"woe_id":7153299,"woe_label":"Hainault, BE, Belgium","woe_name":"Hainaut","latitude":50.521,"longitude":3.88925,"sov_a3":"BEL","adm0_a3":"BEL","adm0_label":2,"admin":"Belgium","geonunit":"Walloon Region","gu_a3":"BWR","gn_id":2796741,"gn_name":"Province du Hainaut","gns_id":-1959675,"gns_name":"Hennegau","gn_level":2,"gn_region":null,"gn_a1_code":"BE.WHT","region_sub":null,"sub_code":null,"gns_level":2,"gns_lang":null,"gns_adm1":null,"gns_region":"BE14","min_label":8.7,"max_label":11.0,"min_zoom":8.7,"wikidataid":"Q1129","name_ar":"هينو","name_bn":"হাইনট","name_de":"Hennegau","name_en":"Hainaut","name_es":"Henao","name_fr":"Hainaut","name_el":"Αινώ","name_hi":"हैनौत","name_hu":"Hainaut","name_id":"Hainaut","name_it":"dell'Hainaut","name_ja":"エノー州","name_ko":"에노","name_nl":"Henegouwen","name_pl":"Prowincja Hainaut","name_pt":"Hainaut","name_ru":"Эно","name_sv":"Hainaut","name_tr":"Hainaut","name_vi":"Hainaut","name_zh":"埃诺省","ne_id":1159308705,"name_he":"אנו","name_uk":"Ено","name_ur":"ہائنو","name_fa":"استان انو","name_zht":"埃諾省","FCLASS_ISO":null,"FCLASS_US":null,"FCLASS_FR":null,"FCLASS_RU":null,"FCLASS_ES":null,"FCLASS_CN":null,"FCLASS_TW":null,"FCLASS_IN":null,"FCLASS_NP":null,"FCLASS_PK":null,"FCLASS_DE":null,"FCLASS_GB":null,"FCLASS_BR":null,"FCLASS_IL":null,"FCLASS_PS":null,"FCLASS_SA":null,"FCLASS_EG":null,"FCLASS_MA":null,"FCLASS_PT":null,"FCLASS_AR":null,"FCLASS_JP":null,"FCLASS_KO":null,"FCLASS_VN":null,"FCLASS_TR":null,"FCLASS_ID":null,"FCLASS_PL":null,"FCLASS_GR":null,"FCLASS_IT":null,"FCLASS_NL":null,"FCLASS_SE":null,"FCLASS_BD":null,"FCLASS_UA":null,"FCLASS_TLC":null,"iso_id":"BE-WHT","iso_name":"Hainaut","source":"iso-3166-2-subdivisions"},"geometry":{"type":"MultiPolygon","coordinates":[[[[2.886883,50.696648],[2.948378,50.748686],[3.023817,50.768262],[3.014424,50.80513],[2.998824,50.811613],[2.940637,50.796678],[2.960205,50.776796],[2.922447,50.766965],[2.918106,50.757714],[2.889632,50.754149],[2.875421,50.762469],[2.842193,50.750841],[2.866726,50.700091],[2.886883,50.696648]]],[[[3.361066,50.489787],[3.429175,50.501828],[3.477131,50.519863],[3.498008,50.511853],[3.486743,50.492681],[3.499145,50.48679],[3.563741,50.486532],[3.608286,50.476507],[3.644356,50.445501],[3.661719,50.319307],[3.696859,50.298223],[3.733446,50.337239],[3.755047,50.346334],[3.84021,50.345197],[3.895917,50.325301],[4.0033,50.34406],[4.097868,50.294812],[4.125257,50.25714],[4.143654,50.251611],[4.150992,50.256262],[4.150268,50.269543],[4.162774,50.272953],[4.185201,50.26546],[4.203702,50.251973],[4.201325,50.241534],[4.157296,50.212698],[4.125774,50.128156],[4.180551,50.127226],[4.210006,50.06015],[4.137349,50.025061],[4.128151,50.005786],[4.139623,49.974522],[4.131665,49.974987],[4.201118,49.953024],[4.277599,49.960156],[4.427651,49.933572],[4.443998,49.958966],[4.414749,49.99731],[4.406739,50.049323],[4.390564,50.052966],[4.386172,50.069296],[4.385345,50.109345],[4.398368,50.126424],[4.360075,50.169341],[4.396559,50.18735],[4.388446,50.201691],[4.400538,50.23373],[4.36514,50.243729],[4.33894,50.229777],[4.285971,50.257966],[4.32571,50.276621],[4.359248,50.278068],[4.372168,50.293106],[4.390151,50.292538],[4.398316,50.311219],[4.453765,50.306232],[4.474177,50.328789],[4.501979,50.330442],[4.520272,50.31543],[4.587865,50.322484],[4.581561,50.360027],[4.605848,50.385736],[4.585126,50.401213],[4.601094,50.404288],[4.615977,50.425191],[4.572672,50.441779],[4.582129,50.447877],[4.572465,50.454931],[4.586005,50.456455],[4.599337,50.479839],[4.586987,50.490614],[4.59479,50.499864],[4.558926,50.494128],[4.576755,50.543427],[4.516552,50.527175],[4.501875,50.531386],[4.503064,50.540688],[4.470094,50.529733],[4.468079,50.55955],[4.422966,50.559343],[4.412527,50.566268],[4.355838,50.562392],[4.330826,50.544564],[4.333617,50.570014],[4.30411,50.568128],[4.278943,50.59301],[4.246491,50.597325],[4.251968,50.618203],[4.198586,50.626781],[4.203651,50.64771],[4.184324,50.663885],[4.141846,50.633576],[4.101125,50.636031],[4.091358,50.653653],[4.090221,50.690601],[4.0942,50.703469],[4.112442,50.706879],[4.072712,50.712911],[4.058501,50.696013],[4.051473,50.702834],[4.028012,50.695031],[4.008995,50.698984],[3.988842,50.688726],[3.928225,50.689812],[3.892771,50.70641],[3.887969,50.717562],[3.894988,50.734164],[3.884403,50.751384],[3.828024,50.743503],[3.814692,50.751901],[3.774635,50.74897],[3.757795,50.780322],[3.714543,50.768644],[3.704001,50.782106],[3.675321,50.771925],[3.634651,50.721851],[3.606643,50.734202],[3.540545,50.73494],[3.533979,50.766421],[3.494143,50.758877],[3.457608,50.768515],[3.412753,50.747405],[3.363453,50.709655],[3.323146,50.723453],[3.324582,50.737157],[3.303302,50.756423],[3.260824,50.75234],[3.219689,50.767275],[3.162811,50.749939],[3.188983,50.715097],[3.224433,50.705175],[3.232391,50.695925],[3.24376,50.672102],[3.229808,50.65541],[3.264327,50.570196],[3.271045,50.526943],[3.299881,50.507461],[3.361066,50.489787]]]]}}
