{"type":"Feature","properties":{"iso_id":"BF-09","iso_name":"Guiriko","name":"Guiriko","source":"osm-overpass-bf"},"geometry":{"type":"Polygon","coordinates":[[[-5.488879,11.083035],[-5.474772,11.020759],[-5.41035,11.01697],[-5.38885,11.00204],[-5.39679,11.00039],[-5.39324,10.99398],[-5.37008,10.9743],[-5.27193,10.92026],[-5.25912,10.85359],[-5.22474,10.86201],[-5.20981,10.80938],[-5.19324,10.78904],[-5.10929,10.82316],[-4.99994,10.834],[-4.97717,10.87757],[-4.95713,10.89167],[-4.92572,10.87578],[-4.87392,10.88067],[-4.86922,10.87281],[-4.83786,10.88055],[-4.7696527,10.8751021],[-4.73914,10.82606],[-4.73872,10.8098],[-4.6816825,10.7759842],[-4.6575587,10.7823273],[-4.618029,10.8149623],[-4.58477,10.82797],[-4.58631,10.84285],[-4.54087,10.86928],[-4.48288,10.86678],[-4.46989,10.87903],[-4.44927,10.87347],[-4.38239,10.73391],[-4.35487,10.74653],[-4.28927,10.73863],[-4.27535,10.70845],[-4.24806,10.69804],[-4.23864,10.7104],[-4.22399,10.71277],[-4.20639,10.74369],[-4.13801,10.75443],[-4.0822686,10.7958054],[-4.0521495,10.7473261],[-4.0306986,10.7357022],[-4.0198839,10.7424167],[-4.0081513,10.7249238],[-3.9948294,10.7286752],[-3.9866724,10.7136927],[-3.9496681,10.7146518],[-3.9230274,10.688043],[-3.9277206,10.6759121],[-3.9222615,10.6697815],[-3.9151812,10.6886077],[-3.9016741,10.6886908],[-3.8913471,10.6993189],[-3.8632831,10.6985979],[-3.8481797,10.712117],[-3.85163,10.7303],[-3.8358562,10.7270603],[-3.8336562,10.7383528],[-3.8419103,10.7337658],[-3.8453972,10.7397138],[-3.8377507,10.7495072],[-3.8452157,10.7610939],[-3.8348807,10.7596476],[-3.8223289,10.7710827],[-3.8262563,10.7842594],[-3.7960312,10.8227505],[-3.7987783,10.8360734],[-3.7807043,10.8518971],[-3.7722755,10.8439906],[-3.7533429,10.8497574],[-3.7495515,10.8315126],[-3.7275485,10.8330925],[-3.7139558,10.8411135],[-3.7356412,10.8656495],[-3.7183295,10.8719409],[-3.7213504,10.8872986],[-3.7027493,10.8727168],[-3.6916895,10.894578],[-3.6752691,10.8793119],[-3.6724514,10.8906661],[-3.6489132,10.8866387],[-3.6503364,10.9178513],[-3.6612197,10.9098636],[-3.6678833,10.9254065],[-3.6574362,10.9245939],[-3.6608566,10.9386365],[-3.6497747,10.9484533],[-3.6504831,10.9643291],[-3.6371238,10.9626907],[-3.6385346,10.9550594],[-3.6183752,10.9577401],[-3.6161865,10.9776999],[-3.6054201,10.9763833],[-3.6107295,10.9995036],[-3.5933274,11.0070719],[-3.5821289,11.0253267],[-3.5874228,11.0423669],[-3.6001265,11.0338976],[-3.6059257,11.0423374],[-3.5957384,11.0558806],[-3.5726066,11.0576666],[-3.5799897,11.070443],[-3.5663433,11.0861006],[-3.5550629,11.0860671],[-3.5616946,11.0809319],[-3.5532969,11.0621598],[-3.54609,11.08149],[-3.49774,11.13716],[-3.49596,11.15838],[-3.482049,11.1634851],[-3.4709403,11.1506758],[-3.45684,11.15091],[-3.43878,11.18177],[-3.40703,11.17842],[-3.38611,11.18658],[-3.34809,11.22162],[-3.32321,11.2098],[-3.31472,11.19332],[-3.30335,11.20449],[-3.28998,11.20192],[-3.28677,11.26098],[-3.25422,11.29067],[-3.21772,11.34781],[-3.1674008,11.3643702],[-3.1591946,11.3509101],[-3.1216155,11.334383],[-3.0518506,11.3494604],[-3.0340481,11.3431838],[-3.0268114,11.3251556],[-3.0123826,11.3234135],[-3.0114847,11.3378349],[-2.98228,11.34632],[-2.88247,11.30082],[-2.8454899,11.2995215],[-2.8395884,11.311163],[-2.8443213,11.3468569],[-2.8294449,11.4203302],[-2.8322955,11.4618644],[-2.8571222,11.4767911],[-2.8374316,11.4966756],[-2.8307579,11.5185081],[-2.8464247,11.5386213],[-2.8684778,11.5359296],[-2.8895593,11.5503485],[-2.8950679,11.5435008],[-2.8867973,11.5294736],[-2.9033371,11.5255079],[-2.93954,11.55956],[-2.9471349,11.5572172],[-2.9435119,11.5446893],[-2.9647134,11.5524378],[-2.9888212,11.5301761],[-2.9966438,11.5426632],[-3.0176428,11.5452018],[-3.0204362,11.5586914],[-3.0120182,11.5676868],[-3.0263037,11.5685881],[-3.0362521,11.5789921],[-3.0442946,11.5732352],[-3.0513892,11.5836991],[-3.0745016,11.5779795],[-3.0722647,11.5623262],[-3.0847432,11.5634835],[-3.0974488,11.5392965],[-3.12613,11.5233],[-3.16537,11.51616],[-3.19248,11.49691],[-3.22504,11.50404],[-3.25717,11.48301],[-3.2806843,11.4838857],[-3.3090397,11.5151624],[-3.2986654,11.5268561],[-3.2947,11.56195],[-3.36226,11.56477],[-3.38371,11.57251],[-3.38333,11.58489],[-3.4085073,11.6009629],[-3.4210883,11.6220966],[-3.4070281,11.6243419],[-3.3961007,11.6366107],[-3.38998,11.66445],[-3.36505,11.69621],[-3.38973,11.69587],[-3.40805,11.71161],[-3.41997,11.70813],[-3.4741921,11.7310486],[-3.4894011,11.7249186],[-3.5149404,11.7382294],[-3.5223594,11.7341354],[-3.56895,11.77353],[-3.62555,11.76624],[-3.67836,11.78097],[-3.72802,11.72554],[-3.75067,11.73547],[-3.78348,11.73374],[-3.8198655,11.7640959],[-3.8429292,11.7669342],[-3.86745,11.7992],[-3.869622,11.8265078],[-3.9142709,11.8391214],[-3.9070764,11.8620175],[-3.9123942,11.8717061],[-3.9421238,11.8731905],[-3.9634359,11.8839396],[-3.9708817,11.908128],[-3.9830358,11.918585],[-3.9751746,11.9411578],[-4.0,11.9396],[-4.05593,11.95982],[-4.08979,11.96098],[-4.11774,11.93977],[-4.23788,11.92828],[-4.24869,11.86689],[-4.26292,11.84257],[-4.26296,11.80567],[-4.28807,11.77707],[-4.29713,11.7469],[-4.34495,11.72344],[-4.35935,11.74716],[-4.40684,11.75349],[-4.44286,11.70947],[-4.4822,11.74124],[-4.49104,11.79558],[-4.45731,11.82189],[-4.44894,11.90383],[-4.43976,11.923],[-4.45161,11.93177],[-4.4422,11.9536],[-4.45086,11.96865],[-4.43653,11.97523],[-4.42703,11.99743],[-4.47755,12.00433],[-4.47552,12.03618],[-4.46051,12.07112],[-4.4709,12.08936],[-4.49694,12.10766],[-4.5123,12.1026],[-4.53469,12.07475],[-4.57689,12.07258],[-4.60831,12.05601],[-4.6312312,12.0533185],[-4.6598049,12.0649811],[-4.700418,12.06608],[-4.716163,12.049028],[-4.7232355,12.0163547],[-4.740626,11.999242],[-4.750275,12.009225],[-4.785994,12.005746],[-4.809626,12.01415],[-4.819849,12.007904],[-4.83258,12.018711],[-4.838403,12.012633],[-4.849326,12.017702],[-4.866166,12.002589],[-4.9008609,12.0055783],[-4.916324,11.998403],[-4.944635,12.004307],[-4.969116,11.992905],[-4.981661,11.99545],[-4.98742,11.985299],[-5.004955,11.989743],[-5.014499,11.981591],[-5.031952,11.984935],[-5.055436,11.975872],[-5.074635,11.982503],[-5.083475,11.97034],[-5.12534,11.957818],[-5.147934,11.94564],[-5.150597,11.933613],[-5.159381,11.936433],[-5.172246,11.927671],[-5.179893,11.903459],[-5.188566,11.904099],[-5.184271,11.898438],[-5.208971,11.892401],[-5.221457,11.872953],[-5.244169,11.865634],[-5.245139,11.839918],[-5.255636,11.841402],[-5.257498,11.833182],[-5.276111,11.84057],[-5.277024,11.85301],[-5.284959,11.854764],[-5.297676,11.849764],[-5.302655,11.835326],[-5.323995,11.848247],[-5.337532,11.827547],[-5.354006,11.821165],[-5.361124,11.832977],[-5.373777,11.833377],[-5.370594,11.839594],[-5.381076,11.837399],[-5.378075,11.843171],[-5.404296,11.831121],[-5.393051,11.8161011],[-5.3811,11.820543],[-5.3507563,11.7952954],[-5.345807,11.8079041],[-5.334291,11.7979108],[-5.3227254,11.8046176],[-5.315525,11.793923],[-5.303803,11.792962],[-5.305139,11.786556],[-5.290227,11.784607],[-5.284578,11.775752],[-5.292435,11.765631],[-5.27627,11.756614],[-5.259327,11.762937],[-5.259399,11.736113],[-5.271077,11.708015],[-5.265239,11.679406],[-5.294994,11.615543],[-5.271552,11.600881],[-5.240097,11.604638],[-5.216561,11.579182],[-5.214726,11.554998],[-5.199565,11.530271],[-5.209766,11.497483],[-5.200501,11.483077],[-5.209915,11.457654],[-5.198715,11.428803],[-5.244954,11.392515],[-5.256197,11.34697],[-5.253339,11.249399],[-5.32442,11.206331],[-5.328613,11.143635],[-5.3829648,11.1056754],[-5.488879,11.083035]]]}}
