{"type":"Feature","properties":{"iso_id":"BF-04","iso_name":"Nakambé (région)","name":"Nakambé (région)","source":"osm-overpass-bf"},"geometry":{"type":"Polygon","coordinates":[[[-0.9082618,11.6924193],[-0.9017352,11.6945],[-0.9016772,11.6789382],[-0.8929506,11.6796523],[-0.81466,11.60367],[-0.77512,11.58949],[-0.76875,11.57217],[-0.73602,11.54536],[-0.6978329,11.5387162],[-0.6709452,11.5455619],[-0.61893,11.50957],[-0.59605,11.50224],[-0.59304,11.49406],[-0.55878,11.4839],[-0.56574,11.46367],[-0.59562,11.44065],[-0.57752,11.39977],[-0.56158,11.40224],[-0.56267,11.39361],[-0.5843,11.38833],[-0.61516,11.41306],[-0.63555,11.41215],[-0.63842,11.38279],[-0.68045,11.36147],[-0.69252,11.31967],[-0.70215,11.31165],[-0.72892,11.30997],[-0.74526,11.29225],[-0.72493,11.25155],[-0.7657527,11.2000298],[-0.7560903,11.1600939],[-0.7333514,11.1610971],[-0.7236816,11.1498295],[-0.7431024,11.1175724],[-0.7345573,11.1069167],[-0.7154114,11.1086186],[-0.6973413,11.0929599],[-0.6977117,11.0686367],[-0.6825654,11.0597258],[-0.6839739,11.0479287],[-0.6983429,11.0435285],[-0.7055056,11.0074607],[-0.6967825,11.0051955],[-0.689984,11.0148296],[-0.6821131,11.0078085],[-0.6869238,10.9901959],[-0.6809164,10.9825537],[-0.6724681,10.9902881],[-0.6537546,10.9873089],[-0.6710797,10.9582816],[-0.6527473,10.963225],[-0.6484636,10.9494685],[-0.6259578,10.9388423],[-0.6182217,10.9105024],[-0.5931863,10.9235777],[-0.5862295,10.9607539],[-0.5682938,10.9923173],[-0.5526816,10.9899951],[-0.5447916,10.9747146],[-0.5274622,11.0000944],[-0.5108762,10.9883897],[-0.5014829,11.01772],[-0.480077,11.023547],[-0.4749901,11.0360488],[-0.4616482,11.028073],[-0.4380132,11.030337],[-0.4397546,11.064866],[-0.4275663,11.1143442],[-0.402096,11.1271456],[-0.3724455,11.1232573],[-0.3720532,11.0916908],[-0.3590756,11.0698859],[-0.3548057,11.0837802],[-0.3395549,11.088134],[-0.332746,11.1092964],[-0.2722179,11.1244395],[-0.2717888,11.1379182],[-0.2893785,11.1482981],[-0.2752825,11.1748562],[-0.1517503,11.1423844],[-0.0031516,11.1113891],[0.0183581,11.1135222],[0.0395582,11.1009208],[0.42408,11.02438],[0.45543,11.10961],[0.46919,11.11273],[0.47634,11.10114],[0.48857,11.10486],[0.50828,11.0703],[0.52598,11.07505],[0.52231,11.13578],[0.55892,11.19934],[0.559901,11.2320055],[0.5728682,11.2566107],[0.5673784,11.27626],[0.5472774,11.2888538],[0.5501313,11.314251],[0.5337232,11.3436605],[0.5568277,11.3600359],[0.5897513,11.3620613],[0.54984,11.47345],[0.53191,11.50371],[0.5106268,11.6939177],[0.47566,11.68026],[0.43046,11.67769],[0.31467,11.73609],[0.27574,11.76628],[0.19495,11.76693],[0.1818689,11.7910679],[0.1714535,11.7961792],[0.1634632,11.7912116],[0.157225,11.7994887],[0.11822,11.78596],[0.07484,11.79571],[0.06129,11.80605],[0.04595,11.78853],[0.04659,11.76261],[0.01935,11.75021],[0.0079726,11.7528161],[0.01503,11.76166],[-7e-05,11.85381],[-0.02911,11.88114],[-0.07934,11.87183],[-0.10834,11.88337],[-0.11169,11.91634],[-0.11991,11.92624],[-0.14002,11.93016],[-0.14616,11.9426],[-0.1289,11.98853],[-0.12979,12.02584],[-0.11919,12.04986],[-0.12612,12.06966],[-0.10188,12.08685],[-0.06071,12.07422],[-0.05036,12.10107],[-0.03287,12.0983],[-0.00412,12.11649],[-0.02376,12.15217],[-0.04559,12.15671],[-0.05705,12.20326],[-0.08169,12.21189],[-0.10307,12.24749],[-0.20846,12.28555],[-0.20492,12.31915],[-0.19288,12.32532],[-0.18245,12.35831],[-0.17309,12.35905],[-0.14402,12.39646],[-0.18587,12.4335],[-0.24426,12.4343],[-0.2648,12.45652],[-0.25649,12.51037],[-0.24859,12.52019],[-0.25055,12.54426],[-0.24057,12.55972],[-0.25485,12.56067],[-0.26198,12.55124],[-0.27326,12.55113],[-0.27407,12.54318],[-0.28179,12.55005],[-0.29205,12.54674],[-0.29956,12.55662],[-0.30534,12.54645],[-0.33353,12.54412],[-0.33703,12.53513],[-0.39443,12.51444],[-0.40763,12.49023],[-0.42657,12.48693],[-0.42748,12.47938],[-0.53375,12.51507],[-0.54487,12.50986],[-0.59916,12.53509],[-0.6313,12.54146],[-0.62755,12.48173],[-0.61389,12.46932],[-0.55449,12.46979],[-0.54909,12.40833],[-0.51627,12.40862],[-0.51671,12.37519],[-0.53231,12.3663],[-0.53966,12.33293],[-0.51789,12.3115],[-0.52082,12.29348],[-0.49588,12.27776],[-0.49092,12.21924],[-0.46195,12.21093],[-0.42328,12.1648],[-0.4395,12.16506],[-0.44052,12.158],[-0.42605,12.13092],[-0.43004,12.10826],[-0.41281,12.08925],[-0.43692,12.03861],[-0.46762,12.01053],[-0.50237,12.00098],[-0.56242,12.01903],[-0.60292,12.00127],[-0.65065,11.94945],[-0.66023,11.91691],[-0.67514,11.91423],[-0.69967,11.88716],[-0.71636,11.89069],[-0.73141,11.87579],[-0.8270085,11.8738185],[-0.8349972,11.8575882],[-0.8210497,11.8489152],[-0.82223,11.83629],[-0.84399,11.7972],[-0.85505,11.78716],[-0.89752,11.7784],[-0.89884,11.74305],[-0.9103864,11.7169548],[-0.9082618,11.6924193]]]}}
