{"type":"Feature","properties":{"featurecla":"Admin-1 states provinces","scalerank":8,"adm1_code":"BFA-2818","diss_me":2818,"iso_3166_2":"BF-ZON","wikipedia":null,"iso_a2":"BF","adm0_sr":1,"name":"Zondoma","name_alt":null,"name_local":null,"type":"Province","type_en":"Province","code_local":null,"code_hasc":"BF.ZM","note":null,"hasc_maybe":null,"region":"Nord","region_cod":null,"provnum_ne":20026,"gadm_level":1,"check_me":10,"datarank":8,"abbrev":null,"postal":"ZM","area_sqkm":0,"sameascity":-99,"labelrank":8,"name_len":7,"mapcolor9":5,"mapcolor13":11,"fips":"UV34","fips_alt":"UV78","woe_id":55967363,"woe_label":null,"woe_name":"Zondoma","latitude":13.1939,"longitude":-2.38127,"sov_a3":"BFA","adm0_a3":"BFA","adm0_label":2,"admin":"Burkina Faso","geonunit":"Burkina Faso","gu_a3":"BFA","gn_id":2597270,"gn_name":"Province du Zondoma","gns_id":9145860,"gns_name":"Zondoma, Province du","gn_level":2,"gn_region":null,"gn_a1_code":"BF.78","region_sub":null,"sub_code":null,"gns_level":2,"gns_lang":null,"gns_adm1":null,"gns_region":"UV88","min_label":9.0,"max_label":11.0,"min_zoom":9.0,"wikidataid":"Q219859","name_ar":"محافظة زوندوما","name_bn":"জোন্ডোমা প্রদেশ","name_de":"Zondoma","name_en":"Zondoma","name_es":"Zondoma","name_fr":"Zondoma","name_el":"Ζοντόμα","name_hi":"ज़ोंडोमा प्रांत","name_hu":"Zondoma","name_id":"Zondoma","name_it":"Zondoma","name_ja":"ゾンドマ県","name_ko":"존도마 현","name_nl":"Zondoma","name_pl":"Prowincja Zondoma","name_pt":"Zondoma","name_ru":"Зондома","name_sv":"Zondoma","name_tr":"Zondoma","name_vi":"Zondoma","name_zh":"宗多马省","ne_id":1159313909,"name_he":"זונדומה","name_uk":"Зондома","name_ur":"زوندوما صوبہ","name_fa":"زوندوما","name_zht":"宗多馬省","FCLASS_ISO":null,"FCLASS_US":null,"FCLASS_FR":null,"FCLASS_RU":null,"FCLASS_ES":null,"FCLASS_CN":null,"FCLASS_TW":null,"FCLASS_IN":null,"FCLASS_NP":null,"FCLASS_PK":null,"FCLASS_DE":null,"FCLASS_GB":null,"FCLASS_BR":null,"FCLASS_IL":null,"FCLASS_PS":null,"FCLASS_SA":null,"FCLASS_EG":null,"FCLASS_MA":null,"FCLASS_PT":null,"FCLASS_AR":null,"FCLASS_JP":null,"FCLASS_KO":null,"FCLASS_VN":null,"FCLASS_TR":null,"FCLASS_ID":null,"FCLASS_PL":null,"FCLASS_GR":null,"FCLASS_IT":null,"FCLASS_NL":null,"FCLASS_SE":null,"FCLASS_BD":null,"FCLASS_UA":null,"FCLASS_TLC":null,"iso_id":"BF-ZON","iso_name":"Zondoma","source":"iso-3166-2-subdivisions"},"geometry":{"type":"Polygon","coordinates":[[[-2.129038,13.064345],[-2.149321,13.080881],[-2.144825,13.111293],[-2.124335,13.122145],[-2.117514,13.146045],[-2.098781,13.155011],[-2.103871,13.194466],[-2.093097,13.225782],[-2.066406,13.262938],[-2.089738,13.336137],[-2.111287,13.34239],[-2.161387,13.322365],[-2.236344,13.332778],[-2.324064,13.362699],[-2.376749,13.366161],[-2.400675,13.388356],[-2.439716,13.375721],[-2.493305,13.327301],[-2.517309,13.31526],[-2.590637,13.293142],[-2.542191,13.266064],[-2.461808,13.264772],[-2.442584,13.253093],[-2.45261,13.224671],[-2.548986,13.090571],[-2.583661,13.081837],[-2.660891,13.090157],[-2.682931,13.085765],[-2.695773,13.058196],[-2.696135,13.019645],[-2.685903,12.970475],[-2.527928,12.958227],[-2.417702,12.978433],[-2.369901,13.029231],[-2.236473,13.091294],[-2.161,13.066076],[-2.129038,13.064345]]]}}
