{"type":"Feature","properties":{"featurecla":"Admin-1 states provinces","scalerank":7,"adm1_code":"BGR-2256","diss_me":2256,"iso_3166_2":"BG-17","wikipedia":null,"iso_a2":"BG","adm0_sr":1,"name":"Razgrad","name_alt":null,"name_local":"Разград","type":"Oblast","type_en":"Province","code_local":null,"code_hasc":"BG.RG","note":null,"hasc_maybe":null,"region":null,"region_cod":null,"provnum_ne":20021,"gadm_level":1,"check_me":20,"datarank":7,"abbrev":null,"postal":"RG","area_sqkm":0,"sameascity":7,"labelrank":7,"name_len":7,"mapcolor9":1,"mapcolor13":8,"fips":"BU52","fips_alt":"BU35","woe_id":20070071,"woe_label":"Razgrad, BG, Bulgaria","woe_name":"Razgrad","latitude":43.6291,"longitude":26.5873,"sov_a3":"BGR","adm0_a3":"BGR","adm0_label":2,"admin":"Bulgaria","geonunit":"Bulgaria","gu_a3":"BGR","gn_id":453751,"gn_name":"Oblast Razgrad","gns_id":-3431455,"gns_name":"Razgrad","gn_level":1,"gn_region":null,"gn_a1_code":"BG.52","region_sub":null,"sub_code":null,"gns_level":1,"gns_lang":"vie","gns_adm1":"BU52","gns_region":null,"min_label":8.0,"max_label":11.0,"min_zoom":8.0,"wikidataid":"Q2790675","name_ar":"مقاطعة رازغراد","name_bn":"রাজগ্রাদ প্রদেশ","name_de":"Rasgrad","name_en":"Razgrad","name_es":"Razgrad","name_fr":"Razgrad","name_el":"Ράζγκραντ","name_hi":"रैज़ग्रेड प्रांत","name_hu":"Razgrad","name_id":"Razgrad","name_it":"Razgrad","name_ja":"ラズグラト州","name_ko":"라즈그라드","name_nl":"Razgrad","name_pl":"Razgrad","name_pt":"Razgrad","name_ru":"Разградская область","name_sv":"Razgrad","name_tr":"Razgrad ili","name_vi":"Razgrad","name_zh":"拉兹格勒州","ne_id":1159312449,"name_he":"מחוז ראזגרד","name_uk":"Разградська область","name_ur":"رازگراڈ صوبہ","name_fa":"استان رازگراد","name_zht":"拉兹格勒州","FCLASS_ISO":null,"FCLASS_US":null,"FCLASS_FR":null,"FCLASS_RU":null,"FCLASS_ES":null,"FCLASS_CN":null,"FCLASS_TW":null,"FCLASS_IN":null,"FCLASS_NP":null,"FCLASS_PK":null,"FCLASS_DE":null,"FCLASS_GB":null,"FCLASS_BR":null,"FCLASS_IL":null,"FCLASS_PS":null,"FCLASS_SA":null,"FCLASS_EG":null,"FCLASS_MA":null,"FCLASS_PT":null,"FCLASS_AR":null,"FCLASS_JP":null,"FCLASS_KO":null,"FCLASS_VN":null,"FCLASS_TR":null,"FCLASS_ID":null,"FCLASS_PL":null,"FCLASS_GR":null,"FCLASS_IT":null,"FCLASS_NL":null,"FCLASS_SE":null,"FCLASS_BD":null,"FCLASS_UA":null,"FCLASS_TLC":null,"iso_id":"BG-17","iso_name":"Razgrad","source":"iso-3166-2-subdivisions"},"geometry":{"type":"Polygon","coordinates":[[[27.000761,43.699581],[26.971408,43.716918],[26.947534,43.742834],[26.931307,43.749991],[26.913324,43.741361],[26.903299,43.75304],[26.903092,43.77552],[26.859787,43.806164],[26.837153,43.843681],[26.822167,43.842208],[26.808111,43.826369],[26.775141,43.819289],[26.76739,43.807249],[26.735454,43.844921],[26.617218,43.869364],[26.568332,43.936957],[26.545698,43.944863],[26.491644,43.925019],[26.464773,43.946827],[26.43139,43.953286],[26.39625,43.949566],[26.321526,43.890164],[26.299511,43.852724],[26.253933,43.832105],[26.251556,43.792108],[26.357802,43.762936],[26.339922,43.745082],[26.342506,43.704387],[26.322249,43.696455],[26.295274,43.658369],[26.243597,43.66395],[26.206287,43.643538],[26.179932,43.661625],[26.168563,43.643538],[26.171044,43.620723],[26.161535,43.61155],[26.162362,43.562122],[26.18417,43.535948],[26.227268,43.547678],[26.322766,43.515096],[26.363693,43.483574],[26.348501,43.448614],[26.36049,43.441483],[26.48534,43.41766],[26.480069,43.378955],[26.4872,43.349706],[26.598408,43.342161],[26.634168,43.369343],[26.677059,43.376526],[26.681193,43.415309],[26.723051,43.410942],[26.732146,43.439003],[26.71809,43.459932],[26.723258,43.484736],[26.795088,43.510523],[26.809351,43.529643],[26.792608,43.549538],[26.883972,43.607364],[26.895547,43.607881],[26.922316,43.587624],[27.013163,43.667412],[27.000761,43.699581]]]}}
