{"type":"Feature","properties":{"featurecla":"Admin-1 states provinces","scalerank":7,"adm1_code":"BGR-2232","diss_me":2232,"iso_3166_2":"BG-26","wikipedia":null,"iso_a2":"BG","adm0_sr":1,"name":"Haskovo","name_alt":"Khaskovo","name_local":"Хасково","type":"Oblast","type_en":"Province","code_local":null,"code_hasc":"BG.KK","note":null,"hasc_maybe":null,"region":null,"region_cod":null,"provnum_ne":20007,"gadm_level":1,"check_me":20,"datarank":7,"abbrev":null,"postal":"KK","area_sqkm":0,"sameascity":7,"labelrank":7,"name_len":7,"mapcolor9":1,"mapcolor13":8,"fips":"BU43","fips_alt":"BU31","woe_id":20070073,"woe_label":"Khaskovo, BG, Bulgaria","woe_name":"Haskovo","latitude":41.8489,"longitude":25.8816,"sov_a3":"BGR","adm0_a3":"BGR","adm0_label":2,"admin":"Bulgaria","geonunit":"Bulgaria","gu_a3":"BGR","gn_id":730436,"gn_name":"Oblast Khaskovo","gns_id":-835028,"gns_name":"Khaskovo, Oblast","gn_level":1,"gn_region":null,"gn_a1_code":"BG.43","region_sub":null,"sub_code":null,"gns_level":1,"gns_lang":"hun","gns_adm1":"BU43","gns_region":null,"min_label":8.0,"max_label":11.0,"min_zoom":8.0,"wikidataid":"Q182809","name_ar":"مقاطعة خاسكوفو","name_bn":"হাস্কোভো প্রদেশ","name_de":"Chaskowo","name_en":"Haskovo","name_es":"Haskovo","name_fr":"Khaskovo","name_el":"Χάσκοβο","name_hi":"हस्कोवो प्रांत","name_hu":"Haszkovo","name_id":"Haskovo","name_it":"Haskovo","name_ja":"ハスコヴォ州","name_ko":"하스코보","name_nl":"Chaskovo","name_pl":"Chaskowo","name_pt":"Haskovo","name_ru":"Хасковская область","name_sv":"Chaskovo","name_tr":"Hasköy ili","name_vi":"Haskovo","name_zh":"哈斯科沃州","ne_id":1159312467,"name_he":"מחוז חאסקובו","name_uk":"Хасковська область","name_ur":"خاسکوو صوبہ","name_fa":"استان خاسکوو","name_zht":"哈斯科沃州","FCLASS_ISO":null,"FCLASS_US":null,"FCLASS_FR":null,"FCLASS_RU":null,"FCLASS_ES":null,"FCLASS_CN":null,"FCLASS_TW":null,"FCLASS_IN":null,"FCLASS_NP":null,"FCLASS_PK":null,"FCLASS_DE":null,"FCLASS_GB":null,"FCLASS_BR":null,"FCLASS_IL":null,"FCLASS_PS":null,"FCLASS_SA":null,"FCLASS_EG":null,"FCLASS_MA":null,"FCLASS_PT":null,"FCLASS_AR":null,"FCLASS_JP":null,"FCLASS_KO":null,"FCLASS_VN":null,"FCLASS_TR":null,"FCLASS_ID":null,"FCLASS_PL":null,"FCLASS_GR":null,"FCLASS_IT":null,"FCLASS_NL":null,"FCLASS_SE":null,"FCLASS_BD":null,"FCLASS_UA":null,"FCLASS_TLC":null,"iso_id":"BG-26","iso_name":"Haskovo","source":"iso-3166-2-subdivisions"},"geometry":{"type":"Polygon","coordinates":[[[26.552895,41.881643],[26.530712,41.872277],[26.480276,41.893851],[26.460018,41.911525],[26.461569,41.949274],[26.437281,41.974182],[26.402968,41.979919],[26.366794,41.940748],[26.350361,41.987567],[26.320079,42.004594],[26.228508,42.013508],[26.142828,42.045703],[26.057046,42.019606],[25.949765,42.108076],[25.869977,42.1273],[25.803521,42.07831],[25.756599,42.061516],[25.663685,42.135775],[25.632575,42.124587],[25.607564,42.129987],[25.62255,42.14549],[25.622963,42.180216],[25.588857,42.192748],[25.540488,42.167323],[25.506795,42.176289],[25.473929,42.166522],[25.449847,42.098671],[25.283966,42.133242],[25.282312,42.087095],[25.299986,42.017022],[25.294301,42.005757],[25.310424,41.987877],[25.307531,41.972012],[25.273734,41.929172],[25.222574,41.903696],[25.210792,41.878478],[25.247172,41.817034],[25.299986,41.809696],[25.330372,41.817551],[25.370162,41.846025],[25.389283,41.846645],[25.408403,41.797785],[25.470828,41.769983],[25.492222,41.771378],[25.509689,41.785925],[25.5316,41.7867],[25.567153,41.761482],[25.585756,41.761379],[25.634022,41.700917],[25.611388,41.661204],[25.6056,41.633661],[25.639087,41.620354],[25.680221,41.630431],[25.714741,41.621052],[25.734895,41.632007],[25.746987,41.651696],[25.78223,41.664641],[25.817164,41.654822],[25.827602,41.614773],[25.873077,41.57816],[25.916899,41.562709],[25.956897,41.591984],[25.964235,41.612602],[25.998858,41.619062],[26.009813,41.635753],[26.05949,41.643777],[26.047485,41.674615],[26.060507,41.7073],[26.108359,41.727893],[26.189905,41.734689],[26.211816,41.750476],[26.23445,41.745825],[26.273931,41.714897],[26.333359,41.713036],[26.316305,41.743758],[26.334185,41.789543],[26.375527,41.816622],[26.478363,41.813289],[26.526112,41.824244],[26.539548,41.83799],[26.552895,41.881643]]]}}
