{"type":"Feature","properties":{"featurecla":"Admin-1 states provinces","scalerank":9,"adm1_code":"BDI-2632","diss_me":2632,"iso_3166_2":"BI-CA","wikipedia":null,"iso_a2":"BI","adm0_sr":1,"name":"Cankuzo","name_alt":null,"name_local":null,"type":"Province","type_en":"Province","code_local":null,"code_hasc":"BI.CA","note":null,"hasc_maybe":null,"region":null,"region_cod":null,"provnum_ne":20005,"gadm_level":1,"check_me":0,"datarank":8,"abbrev":null,"postal":"CA","area_sqkm":0,"sameascity":7,"labelrank":7,"name_len":7,"mapcolor9":5,"mapcolor13":8,"fips":"BY11","fips_alt":null,"woe_id":2344904,"woe_label":"Cankuzo, BI, Burundi","woe_name":"Cankuzo","latitude":-3.11103,"longitude":30.5612,"sov_a3":"BDI","adm0_a3":"BDI","adm0_label":2,"admin":"Burundi","geonunit":"Burundi","gu_a3":"BDI","gn_id":427700,"gn_name":"Cankuzo Province","gns_id":6036353,"gns_name":"Cankuzo, iProvense ya","gn_level":1,"gn_region":null,"gn_a1_code":"BI.11","region_sub":null,"sub_code":null,"gns_level":1,"gns_lang":"run","gns_adm1":"BY11","gns_region":null,"min_label":10.0,"max_label":11.0,"min_zoom":10.0,"wikidataid":"Q645033","name_ar":"إقليم كانكوزو","name_bn":"কানকুজো প্রদেশ","name_de":"Cankuzo","name_en":"Cankuzo","name_es":"Cankuzo","name_fr":"Cankuzo","name_el":"Κανκούζο","name_hi":"कैन्कुज़ो प्रांत","name_hu":"Cankuzo","name_id":"Cankuzo","name_it":"Cankuzo","name_ja":"カンクゾ県","name_ko":"캉쿠조","name_nl":"Cankuzo","name_pl":"Prowincja Cankuzo","name_pt":"Cankuzo","name_ru":"Чанкузо","name_sv":"Cankuzo","name_tr":"Cankuzo ili","name_vi":"Tỉnh Cankuzo","name_zh":"坎库佐省","ne_id":1159313305,"name_he":"קנקוזו","name_uk":"Провінція Чанкузо","name_ur":"کانکوزو صوبہ","name_fa":"استان کانکوزو","name_zht":"坎庫佐省","FCLASS_ISO":null,"FCLASS_US":null,"FCLASS_FR":null,"FCLASS_RU":null,"FCLASS_ES":null,"FCLASS_CN":null,"FCLASS_TW":null,"FCLASS_IN":null,"FCLASS_NP":null,"FCLASS_PK":null,"FCLASS_DE":null,"FCLASS_GB":null,"FCLASS_BR":null,"FCLASS_IL":null,"FCLASS_PS":null,"FCLASS_SA":null,"FCLASS_EG":null,"FCLASS_MA":null,"FCLASS_PT":null,"FCLASS_AR":null,"FCLASS_JP":null,"FCLASS_KO":null,"FCLASS_VN":null,"FCLASS_TR":null,"FCLASS_ID":null,"FCLASS_PL":null,"FCLASS_GR":null,"FCLASS_IT":null,"FCLASS_NL":null,"FCLASS_SE":null,"FCLASS_BD":null,"FCLASS_UA":null,"FCLASS_TLC":null,"iso_id":"BI-CA","iso_name":"Cankuzo"},"geometry":{"type":"Polygon","coordinates":[[[30.477344,-2.950104],[30.461738,-2.972686],[30.45626,-2.977596],[30.446855,-2.978991],[30.439414,-2.982763],[30.434453,-2.988293],[30.429492,-3.003796],[30.415436,-3.010927],[30.412232,-3.022244],[30.413162,-3.043225],[30.410268,-3.050511],[30.38412,-3.057591],[30.376472,-3.06927],[30.371201,-3.107924],[30.358178,-3.135829],[30.351564,-3.140893],[30.338128,-3.145079],[30.330273,-3.149523],[30.288932,-3.18518],[30.326966,-3.197582],[30.344226,-3.205489],[30.36717,-3.200941],[30.379366,-3.206832],[30.392905,-3.217219],[30.409028,-3.223317],[30.425461,-3.224557],[30.440034,-3.231172],[30.449232,-3.241766],[30.45533,-3.254116],[30.4544,-3.267966],[30.456364,-3.28135],[30.478584,-3.299437],[30.506283,-3.305844],[30.516722,-3.298713],[30.529227,-3.293494],[30.539356,-3.29768],[30.546797,-3.305069],[30.566641,-3.31525],[30.577286,-3.323518],[30.584935,-3.334783],[30.591136,-3.360621],[30.592376,-3.383101],[30.61025,-3.376359],[30.603279,-3.372558],[30.621676,-3.35044],[30.640538,-3.33287],[30.662603,-3.319228],[30.68994,-3.308893],[30.702239,-3.307342],[30.712006,-3.301865],[30.718414,-3.292873],[30.721463,-3.280987],[30.747921,-3.294113],[30.775671,-3.291012],[30.799753,-3.274579],[30.814842,-3.247708],[30.809364,-3.216805],[30.823524,-3.196651],[30.832205,-3.172777],[30.833962,-3.160271],[30.832929,-3.147662],[30.828795,-3.140531],[30.815824,-3.131022],[30.812258,-3.123477],[30.817839,-3.104357],[30.817684,-3.099086],[30.807814,-3.085237],[30.783216,-3.062086],[30.778255,-3.04741],[30.78487,-3.031493],[30.815824,-2.995837],[30.825488,-2.978577],[30.80213,-2.97837],[30.755414,-2.991393],[30.732057,-2.99346],[30.718879,-2.989532],[30.695986,-2.974546],[30.683687,-2.969998],[30.671337,-2.970825],[30.650925,-2.977337],[30.637592,-2.974443],[30.634905,-2.970102],[30.632114,-2.953772],[30.62953,-2.947674],[30.61196,-2.939199],[30.547003,-2.900339],[30.53889,-2.898995],[30.524937,-2.904163],[30.513052,-2.913981],[30.49326,-2.941266],[30.477344,-2.950104]]]}}
