{"type":"Feature","properties":{"iso_id":"BI-RM","iso_name":"Rumonge Province","name":"Rumonge Province","source":"iso-3166-2-placeholder-circle"},"geometry":{"type":"Polygon","coordinates":[[[29.933333,-3.966667],[29.923726,-3.869122],[29.895273,-3.775325],[29.849068,-3.688882],[29.786887,-3.613113],[29.711118,-3.550932],[29.624675,-3.504727],[29.530878,-3.476274],[29.433333,-3.466667],[29.335788,-3.476274],[29.241992,-3.504727],[29.155548,-3.550932],[29.07978,-3.613113],[29.017599,-3.688882],[28.971394,-3.775325],[28.942941,-3.869122],[28.933333,-3.966667],[28.942941,-4.064212],[28.971394,-4.158008],[29.017599,-4.244452],[29.07978,-4.32022],[29.155548,-4.382401],[29.241992,-4.428606],[29.335788,-4.457059],[29.433333,-4.466667],[29.530878,-4.457059],[29.624675,-4.428606],[29.711118,-4.382401],[29.786887,-4.32022],[29.849068,-4.244452],[29.895273,-4.158008],[29.923726,-4.064212],[29.933333,-3.966667]]]}}
