{"type":"Feature","properties":{"featurecla":"Admin-1 states provinces","scalerank":10,"adm1_code":"BHS-5032","diss_me":5032,"iso_3166_2":"BS-RC","wikipedia":"http://en.wikipedia.org/wiki/Rum_Cay","iso_a2":"BS","adm0_sr":4,"name":"Rum Cay","name_alt":null,"name_local":null,"type":"Third Schedule District","type_en":"District","code_local":null,"code_hasc":"BS.RC","note":null,"hasc_maybe":null,"region":null,"region_cod":null,"provnum_ne":0,"gadm_level":0,"check_me":0,"datarank":10,"abbrev":null,"postal":"RC","area_sqkm":0,"sameascity":-99,"labelrank":20,"name_len":7,"mapcolor9":2,"mapcolor13":5,"fips":"BF49","fips_alt":null,"woe_id":24551252,"woe_label":"Rum Cay, BS, The Bahamas","woe_name":"Rum Cay","latitude":23.6787,"longitude":-74.8408,"sov_a3":"BHS","adm0_a3":"BHS","adm0_label":2,"admin":"The Bahamas","geonunit":"The Bahamas","gu_a3":"BHS","gn_id":8030554,"gn_name":"Rum Cay District","gns_id":11057050,"gns_name":"Rum Cay District","gn_level":1,"gn_region":null,"gn_a1_code":"BS.49","region_sub":null,"sub_code":null,"gns_level":1,"gns_lang":"fas","gns_adm1":"BF49","gns_region":null,"min_label":8.0,"max_label":11.0,"min_zoom":8.0,"wikidataid":"Q1859950","name_ar":"روم كاي","name_bn":"রাম কে","name_de":"Rum Cay","name_en":"Rum Cay","name_es":"Cayo Rum","name_fr":"Rum Cay","name_el":"Ραμ Κέι","name_hi":"रम के","name_hu":"Rum Cay","name_id":"Rum Cay","name_it":"Rum Cay","name_ja":"ラム・キー","name_ko":"럼케이섬","name_nl":"Rum Cay","name_pl":"Rum Cay","name_pt":"Rum Cay","name_ru":"Рам-Ки","name_sv":"Rum Cay Island","name_tr":"Rum Cay","name_vi":"Rum Cay","name_zh":"拉姆岛","ne_id":1159316283,"name_he":"רום קיי","name_uk":"Рам-Кі","name_ur":"رم کای","name_fa":"رام کی","name_zht":"拉姆岛","FCLASS_ISO":null,"FCLASS_US":null,"FCLASS_FR":null,"FCLASS_RU":null,"FCLASS_ES":null,"FCLASS_CN":null,"FCLASS_TW":null,"FCLASS_IN":null,"FCLASS_NP":null,"FCLASS_PK":null,"FCLASS_DE":null,"FCLASS_GB":null,"FCLASS_BR":null,"FCLASS_IL":null,"FCLASS_PS":null,"FCLASS_SA":null,"FCLASS_EG":null,"FCLASS_MA":null,"FCLASS_PT":null,"FCLASS_AR":null,"FCLASS_JP":null,"FCLASS_KO":null,"FCLASS_VN":null,"FCLASS_TR":null,"FCLASS_ID":null,"FCLASS_PL":null,"FCLASS_GR":null,"FCLASS_IT":null,"FCLASS_NL":null,"FCLASS_SE":null,"FCLASS_BD":null,"FCLASS_UA":null,"FCLASS_TLC":null,"iso_id":"BS-RC","iso_name":"Rum Cay","source":"iso-3166-2-subdivisions"},"geometry":{"type":"MultiPolygon","coordinates":[[[[-74.938629,23.694322],[-74.945383,23.681586],[-74.94164,23.658677],[-74.872792,23.672349],[-74.860748,23.657904],[-74.818715,23.651068],[-74.824941,23.664944],[-74.803782,23.664049],[-74.793691,23.671332],[-74.777211,23.699652],[-74.812367,23.719672],[-74.849721,23.72012],[-74.938629,23.694322]]],[[[-75.109039,23.84691],[-75.117299,23.845445],[-75.123647,23.831],[-75.117421,23.815131],[-75.105784,23.831448],[-75.109039,23.84691]]]]}}
