{"type":"Feature","properties":{"featurecla":"Admin-1 states provinces","scalerank":10,"adm1_code":"BHS-5016","diss_me":5016,"iso_3166_2":"BS-SO","wikipedia":"http://en.wikipedia.org/wiki/South_Abaco","iso_a2":"BS","adm0_sr":4,"name":"South Abaco","name_alt":null,"name_local":null,"type":"Second Schedule District","type_en":"District","code_local":null,"code_hasc":"BS.SB","note":null,"hasc_maybe":null,"region":null,"region_cod":null,"provnum_ne":0,"gadm_level":0,"check_me":0,"datarank":10,"abbrev":null,"postal":"SO","area_sqkm":0,"sameascity":-99,"labelrank":20,"name_len":11,"mapcolor9":2,"mapcolor13":5,"fips":"BF50","fips_alt":null,"woe_id":24551253,"woe_label":"South Abaco, BS, The Bahamas","woe_name":"South Abaco","latitude":26.0179,"longitude":-77.2421,"sov_a3":"BHS","adm0_a3":"BHS","adm0_label":2,"admin":"The Bahamas","geonunit":"The Bahamas","gu_a3":"BHS","gn_id":8030555,"gn_name":"South Abaco District","gns_id":11057051,"gns_name":"South Abaco District","gn_level":1,"gn_region":null,"gn_a1_code":"BS.50","region_sub":null,"sub_code":null,"gns_level":1,"gns_lang":"fas","gns_adm1":"BF50","gns_region":null,"min_label":8.0,"max_label":11.0,"min_zoom":8.0,"wikidataid":"Q2703192","name_ar":"جنوب أباكو","name_bn":"দক্ষিন অ্যাবাকো","name_de":"South Abaco","name_en":"South Abaco","name_es":"Abaco Sul","name_fr":"South Abaco","name_el":"Νότιο Αμπάκο","name_hi":"दक्षिण अबैको","name_hu":"South Abaco","name_id":"South Abaco","name_it":"South Abaco","name_ja":"サウス・アバコ","name_ko":"사우스아바코","name_nl":"South Abaco","name_pl":"South Abaco","name_pt":"South Abaco","name_ru":"Южный Абако","name_sv":"South Abaco","name_tr":"Güney Abaco","name_vi":"Nam Abaco","name_zh":"南阿巴科区","ne_id":1159316247,"name_he":"דרום אבאקו","name_uk":"Південний Абако","name_ur":"ساؤتھ اباکو","name_fa":"آباکو جنوبی","name_zht":"南阿巴科區","FCLASS_ISO":null,"FCLASS_US":null,"FCLASS_FR":null,"FCLASS_RU":null,"FCLASS_ES":null,"FCLASS_CN":null,"FCLASS_TW":null,"FCLASS_IN":null,"FCLASS_NP":null,"FCLASS_PK":null,"FCLASS_DE":null,"FCLASS_GB":null,"FCLASS_BR":null,"FCLASS_IL":null,"FCLASS_PS":null,"FCLASS_SA":null,"FCLASS_EG":null,"FCLASS_MA":null,"FCLASS_PT":null,"FCLASS_AR":null,"FCLASS_JP":null,"FCLASS_KO":null,"FCLASS_VN":null,"FCLASS_TR":null,"FCLASS_ID":null,"FCLASS_PL":null,"FCLASS_GR":null,"FCLASS_IT":null,"FCLASS_NL":null,"FCLASS_SE":null,"FCLASS_BD":null,"FCLASS_UA":null,"FCLASS_TLC":null,"iso_id":"BS-SO","iso_name":"South Abaco","source":"iso-3166-2-subdivisions"},"geometry":{"type":"Polygon","coordinates":[[[-77.031565,26.355292],[-77.23058,26.285102],[-77.233876,26.244045],[-77.258046,26.214748],[-77.236318,26.183661],[-77.223297,26.145819],[-77.272369,26.118313],[-77.308949,26.080634],[-77.34789,26.070624],[-77.35912,26.045885],[-77.373931,26.035468],[-77.408274,26.029731],[-77.388173,26.005439],[-77.315053,25.990953],[-77.29898,25.977932],[-77.276235,25.926011],[-77.253041,25.89761],[-77.226674,25.885077],[-77.190745,25.916327],[-77.192209,26.068996],[-77.174387,26.220689],[-77.164947,26.245429],[-77.115305,26.290432],[-77.084462,26.306138],[-77.051991,26.309638],[-77.058827,26.290432],[-77.024729,26.303453],[-77.01476,26.31566],[-77.031565,26.355292]]]}}
