{"type":"Feature","properties":{"featurecla":"Admin-1 states provinces","scalerank":4,"adm1_code":"BWA-5506","diss_me":5506,"iso_3166_2":"BW-JW","wikipedia":"http://en.wikipedia.org/wiki/Jwaneng","iso_a2":"BW","adm0_sr":1,"name":"Jwaneng","name_alt":null,"name_local":null,"type":"Town","type_en":"Town","code_local":"BC15","code_hasc":"BW.JW","note":null,"hasc_maybe":null,"region":null,"region_cod":"BW.SO","provnum_ne":4,"gadm_level":1,"check_me":0,"datarank":7,"abbrev":null,"postal":"SE","area_sqkm":0,"sameascity":-99,"labelrank":4,"name_len":7,"mapcolor9":7,"mapcolor13":3,"fips":"BC","fips_alt":null,"woe_id":-2344750,"woe_label":null,"woe_name":null,"latitude":-24.5774,"longitude":24.7253,"sov_a3":"BWA","adm0_a3":"BWA","adm0_label":2,"admin":"Botswana","geonunit":null,"gu_a3":null,"gn_id":-933043,"gn_name":"Southern District","gns_id":0,"gns_name":null,"gn_level":2,"gn_region":null,"gn_a1_code":"BW.","region_sub":"Southern","sub_code":null,"gns_level":0,"gns_lang":null,"gns_adm1":null,"gns_region":null,"min_label":6.0,"max_label":11.0,"min_zoom":6.0,"wikidataid":"Q165954","name_ar":"غوانينغ","name_bn":"জোওনেং","name_de":"Jwaneng","name_en":"Jwaneng","name_es":"Jwaneng","name_fr":"Jwaneng","name_el":"Τζουανένγκ","name_hi":"ज्वानेंग","name_hu":"Jwaneng","name_id":"Jwaneng","name_it":"Jwaneng","name_ja":"ジュワネン","name_ko":"주아넹","name_nl":"Jwaneng","name_pl":"Jwaneng","name_pt":"Jwaneng","name_ru":"Джваненг","name_sv":"Jwaneng","name_tr":"Jwaneng","name_vi":"Jwaneng","name_zh":"朱瓦能","ne_id":1159317157,"name_he":"ג'וואננג","name_uk":"Джваненг","name_ur":"جوانینگ","name_fa":"یواننگ، بوتسوانا","name_zht":"朱瓦能","FCLASS_ISO":null,"FCLASS_US":null,"FCLASS_FR":null,"FCLASS_RU":null,"FCLASS_ES":null,"FCLASS_CN":null,"FCLASS_TW":null,"FCLASS_IN":null,"FCLASS_NP":null,"FCLASS_PK":null,"FCLASS_DE":null,"FCLASS_GB":null,"FCLASS_BR":null,"FCLASS_IL":null,"FCLASS_PS":null,"FCLASS_SA":null,"FCLASS_EG":null,"FCLASS_MA":null,"FCLASS_PT":null,"FCLASS_AR":null,"FCLASS_JP":null,"FCLASS_KO":null,"FCLASS_VN":null,"FCLASS_TR":null,"FCLASS_ID":null,"FCLASS_PL":null,"FCLASS_GR":null,"FCLASS_IT":null,"FCLASS_NL":null,"FCLASS_SE":null,"FCLASS_BD":null,"FCLASS_UA":null,"FCLASS_TLC":null,"iso_id":"BW-JW","iso_name":"Jwaneng","source":"iso-3166-2-subdivisions"},"geometry":{"type":"Polygon","coordinates":[[[24.639661,-24.461185],[24.637647,-24.660326],[24.820578,-24.652038],[24.81361,-24.511855],[24.639661,-24.461185]]]}}
