{"type":"Feature","properties":{"featurecla":"Admin-1 states provinces","scalerank":2,"adm1_code":"CHN-1808","diss_me":1808,"iso_3166_2":"CN-HN","wikipedia":null,"iso_a2":"CN","adm0_sr":1,"name":"Hunan","name_alt":"Húnán","name_local":"湖南","type":"Shěng","type_en":"Province","code_local":null,"code_hasc":"CN.HN","note":null,"hasc_maybe":null,"region":"South Central China","region_cod":"4","provnum_ne":40,"gadm_level":1,"check_me":20,"datarank":1,"abbrev":null,"postal":"HN","area_sqkm":0,"sameascity":-99,"labelrank":2,"name_len":5,"mapcolor9":4,"mapcolor13":3,"fips":"CH11","fips_alt":null,"woe_id":12578001,"woe_label":"Hunan, CN, China","woe_name":"Hunan","latitude":27.6667,"longitude":111.712,"sov_a3":"CH1","adm0_a3":"CHN","adm0_label":2,"admin":"China","geonunit":"China","gu_a3":"CHN","gn_id":1806691,"gn_name":"Hunan Sheng","gns_id":-1911104,"gns_name":"Hunan Sheng","gn_level":1,"gn_region":null,"gn_a1_code":"CN.11","region_sub":"Central","sub_code":null,"gns_level":1,"gns_lang":"zho","gns_adm1":"CH11","gns_region":null,"min_label":4.6,"max_label":10.1,"min_zoom":4.6,"wikidataid":"Q45761","name_ar":"خونان","name_bn":"হুনান","name_de":"Hunan","name_en":"Hunan","name_es":"Hunan","name_fr":"Hunan","name_el":"Χουνάν","name_hi":"हूनान","name_hu":"Hunan","name_id":"Hunan","name_it":"Hunan","name_ja":"湖南省","name_ko":"후난성","name_nl":"Hunan","name_pl":"Hunan","name_pt":"Hunan","name_ru":"Хунань","name_sv":"Hunan","name_tr":"Hunan","name_vi":"Hồ Nam","name_zh":"湖南省","ne_id":1159312745,"name_he":"חונאן","name_uk":"Хунань","name_ur":"ہونان","name_fa":"هونان","name_zht":"湖南省","FCLASS_ISO":null,"FCLASS_US":null,"FCLASS_FR":null,"FCLASS_RU":null,"FCLASS_ES":null,"FCLASS_CN":null,"FCLASS_TW":null,"FCLASS_IN":null,"FCLASS_NP":null,"FCLASS_PK":null,"FCLASS_DE":null,"FCLASS_GB":null,"FCLASS_BR":null,"FCLASS_IL":null,"FCLASS_PS":null,"FCLASS_SA":null,"FCLASS_EG":null,"FCLASS_MA":null,"FCLASS_PT":null,"FCLASS_AR":null,"FCLASS_JP":null,"FCLASS_KO":null,"FCLASS_VN":null,"FCLASS_TR":null,"FCLASS_ID":null,"FCLASS_PL":null,"FCLASS_GR":null,"FCLASS_IT":null,"FCLASS_NL":null,"FCLASS_SE":null,"FCLASS_BD":null,"FCLASS_UA":null,"FCLASS_TLC":null,"iso_id":"CN-HN","iso_name":"Hunan","source":"iso-3166-2-subdivisions"},"geometry":{"type":"Polygon","coordinates":[[[109.249797,28.460434],[109.273155,28.390748],[109.263853,28.322225],[109.338474,28.279334],[109.354287,28.265174],[109.358628,28.248069],[109.354287,28.208847],[109.295892,28.083144],[109.296719,28.057254],[109.307726,28.04604],[109.346949,28.063274],[109.363278,28.057487],[109.367464,28.046118],[109.358783,28.024853],[109.323901,28.000668],[109.312842,27.98191],[109.313617,27.957131],[109.340334,27.935479],[109.316253,27.912948],[109.310827,27.887652],[109.330722,27.834658],[109.328242,27.807657],[109.335063,27.79249],[109.358783,27.760735],[109.413405,27.738953],[109.41449,27.714019],[109.446167,27.659242],[109.44193,27.591081],[109.418366,27.559507],[109.318423,27.500621],[109.276875,27.438532],[109.244578,27.435664],[109.206389,27.444759],[109.170577,27.4198],[109.135644,27.411195],[109.11735,27.370552],[109.014928,27.262186],[108.963871,27.246451],[108.900103,27.188806],[108.890026,27.131006],[108.852922,27.108966],[108.798145,27.105478],[108.788378,27.088218],[108.833388,27.059305],[108.882584,27.011866],[108.903513,27.010186],[108.950177,27.026904],[108.976532,27.069769],[109.007796,27.094057],[109.095491,27.134442],[109.122156,27.135217],[109.109909,27.106098],[109.112079,27.093127],[109.127582,27.080104],[109.147581,27.077882],[109.177088,27.093359],[109.225819,27.153072],[109.269537,27.132194],[109.322454,27.152012],[109.381882,27.151857],[109.438209,27.131032],[109.456864,27.099793],[109.501255,27.059821],[109.509316,27.032149],[109.50327,26.96422],[109.490196,26.940785],[109.443842,26.897919],[109.455779,26.878308],[109.48508,26.882416],[109.502495,26.875931],[109.519858,26.858361],[109.515517,26.833918],[109.386843,26.74953],[109.335373,26.740745],[109.282922,26.718628],[109.282922,26.703228],[109.296719,26.684366],[109.34762,26.668579],[109.377231,26.646152],[109.406738,26.59724],[109.408909,26.57799],[109.402553,26.537295],[109.386429,26.509519],[109.315013,26.425726],[109.291603,26.337514],[109.299975,26.306172],[109.323074,26.283745],[109.406893,26.263772],[109.387515,26.237598],[109.385293,26.219589],[109.410407,26.188014],[109.426427,26.132953],[109.427512,26.098562],[109.456709,26.03885],[109.487922,26.049986],[109.536756,26.036654],[109.565953,26.038463],[109.595719,26.052079],[109.613392,26.046059],[109.672252,25.985313],[109.674267,25.963403],[109.653752,25.916274],[109.657524,25.898626],[109.676593,25.889066],[109.712611,25.890229],[109.75943,25.902579],[109.780824,25.916377],[109.786767,25.944153],[109.771522,25.999757],[109.774623,26.013761],[109.792968,26.032287],[109.838443,26.045026],[109.85038,26.057247],[109.911669,26.181219],[109.927327,26.197083],[109.967221,26.19313],[110.00448,26.167912],[110.043082,26.163261],[110.062047,26.149929],[110.05781,26.124633],[110.027579,26.073577],[110.023858,26.057505],[110.033625,26.036499],[110.138218,26.051666],[110.164573,26.047041],[110.181213,26.03916],[110.222347,25.983272],[110.246997,25.978208],[110.287977,26.005338],[110.35283,26.126648],[110.409726,26.164011],[110.484554,26.171555],[110.53654,26.22486],[110.545687,26.243489],[110.542431,26.272118],[110.55597,26.301315],[110.55163,26.333716],[110.577054,26.350795],[110.688624,26.332321],[110.700871,26.316818],[110.697461,26.288809],[110.713274,26.276148],[110.878948,26.275218],[110.906492,26.292995],[110.929746,26.372499],[110.947264,26.389888],[110.964524,26.385237],[111.006279,26.351286],[111.038835,26.344335],[111.123274,26.305992],[111.211073,26.282505],[111.247246,26.282401],[111.270966,26.261498],[111.277012,26.250233],[111.256703,26.210132],[111.231692,26.062906],[111.19526,25.974022],[111.202081,25.930278],[111.242905,25.878059],[111.27851,25.861057],[111.296132,25.863745],[111.303108,25.896456],[111.317371,25.909013],[111.408322,25.90785],[111.4539,25.92865],[111.451006,25.906533],[111.476121,25.895862],[111.422429,25.856949],[111.411267,25.802611],[111.366257,25.738584],[111.319955,25.725045],[111.318611,25.682257],[111.303212,25.647039],[111.325743,25.5965],[111.321092,25.520303],[111.289569,25.46581],[111.282748,25.430024],[111.249572,25.396099],[111.199911,25.387856],[111.171333,25.372379],[111.147459,25.303185],[111.113042,25.282178],[111.115316,25.245229],[111.099038,25.213733],[111.061469,25.178644],[111.005142,25.162702],[110.993205,25.150765],[110.958116,25.062424],[110.954602,25.025346],[111.006279,24.935455],[111.023022,24.921141],[111.047052,24.921141],[111.079039,24.94424],[111.125755,25.044466],[111.17092,25.065034],[111.263989,25.143866],[111.279647,25.145571],[111.318146,25.112008],[111.3799,25.135004],[111.415298,25.12286],[111.42708,25.100329],[111.414316,25.059763],[111.461858,25.019481],[111.42863,24.948348],[111.449869,24.883908],[111.441808,24.849724],[111.46961,24.820217],[111.474416,24.804817],[111.458551,24.749187],[111.426615,24.687253],[111.432506,24.677486],[111.475811,24.666712],[111.516945,24.642656],[111.572756,24.702808],[111.615751,24.706968],[111.636266,24.759807],[111.667117,24.779676],[111.797032,24.760427],[111.891961,24.763502],[111.933406,24.774715],[111.987098,24.758825],[111.996554,24.735674],[112.018414,24.742547],[112.057688,24.789805],[112.091226,24.809158],[112.107039,24.812207],[112.139646,24.784431],[112.167397,24.901168],[112.161661,24.915999],[112.126417,24.940493],[112.122387,24.960751],[112.182745,25.152574],[112.185845,25.187998],[112.195354,25.199883],[112.219538,25.198333],[112.257107,25.176241],[112.331573,25.181461],[112.382319,25.163219],[112.458387,25.164252],[112.535953,25.133531],[112.610884,25.137794],[112.637394,25.130353],[112.663335,25.113144],[112.68535,25.085446],[112.697183,25.023873],[112.714082,24.999508],[112.800071,24.945015],[112.876397,24.942173],[112.925593,24.957547],[112.988897,24.963929],[112.993083,24.975375],[112.95939,25.038575],[112.973704,25.105057],[112.966883,25.172366],[112.986261,25.196705],[113.020523,25.213913],[113.028481,25.230372],[113.014787,25.245617],[112.974944,25.251818],[112.88911,25.241457],[112.858879,25.283858],[112.851748,25.321297],[112.864615,25.342795],[112.881203,25.341503],[112.897326,25.321969],[112.913036,25.321995],[112.943732,25.348866],[113.010291,25.368943],[113.063518,25.3969],[113.186404,25.49307],[113.282936,25.51759],[113.291307,25.514102],[113.301849,25.471365],[113.357557,25.424366],[113.395745,25.40863],[113.421635,25.3838],[113.471348,25.376565],[113.523438,25.385583],[113.562092,25.344267],[113.563022,25.324837],[113.569533,25.323442],[113.69397,25.363233],[113.763992,25.341399],[113.809105,25.348221],[113.846519,25.374834],[113.880212,25.433487],[113.927548,25.448111],[113.941965,25.511001],[113.978397,25.563143],[113.982428,25.581669],[113.961809,25.624689],[113.917936,25.660191],[113.902846,25.740186],[113.94181,25.79716],[113.967132,25.854081],[114.014571,25.916842],[114.018602,26.037222],[114.053845,26.080786],[114.087021,26.089622],[114.117304,26.121765],[114.175181,26.139361],[114.207944,26.163416],[114.21523,26.180573],[114.204843,26.203285],[114.14924,26.222069],[114.105366,26.20853],[114.047179,26.171684],[114.027748,26.172796],[114.001032,26.188479],[113.959484,26.162409],[113.925377,26.170367],[113.939485,26.209434],[113.998603,26.283099],[114.020617,26.399242],[114.073379,26.462674],[114.087848,26.568482],[114.085057,26.577499],[114.016431,26.585225],[113.967855,26.619073],[113.896645,26.631114],[113.864709,26.655867],[113.831636,26.827484],[113.866053,26.867714],[113.872564,26.909262],[113.892408,26.945332],[113.893234,26.961042],[113.863159,26.977733],[113.843728,27.014191],[113.810656,27.047083],[113.794377,27.085531],[113.762286,27.077262],[113.752468,27.097003],[113.755775,27.147258],[113.823575,27.228674],[113.847294,27.273607],[113.850963,27.345902],[113.78275,27.370784],[113.745647,27.362516],[113.700171,27.334378],[113.675522,27.328771],[113.608601,27.356728],[113.598265,27.375513],[113.575838,27.526925],[113.558526,27.575449],[113.610978,27.699472],[113.70813,27.834555],[113.705959,27.937727],[113.718827,27.96372],[113.742649,27.984313],[113.778099,27.985966],[113.824505,28.005629],[113.916489,28.021184],[113.989146,28.071853],[114.010643,28.094461],[114.023873,28.179133],[114.072138,28.208976],[114.091879,28.257707],[114.158593,28.275768],[114.192234,28.300598],[114.227788,28.358321],[114.233989,28.388862],[114.221587,28.415268],[114.171615,28.439711],[114.181227,28.489295],[114.177041,28.507304],[114.121954,28.515831],[114.056945,28.564277],[114.112808,28.615515],[114.12304,28.714346],[114.142728,28.788501],[114.130481,28.826122],[114.112033,28.84116],[114.038652,28.872347],[114.003409,28.917925],[113.964961,28.9395],[113.905172,28.955985],[113.896955,28.990143],[113.902381,29.06634],[113.860782,29.078871],[113.772828,29.125303],[113.736448,29.106518],[113.71123,29.072929],[113.701928,29.072386],[113.688389,29.096674],[113.654903,29.124037],[113.647771,29.149952],[113.649322,29.20597],[113.641364,29.221757],[113.62121,29.235761],[113.586276,29.243771],[113.580902,29.253047],[113.587723,29.293794],[113.609428,29.328779],[113.653352,29.382548],[113.705029,29.40389],[113.729524,29.445541],[113.71185,29.487296],[113.674126,29.53135],[113.680948,29.602354],[113.649425,29.676277],[113.621675,29.687697],[113.547674,29.681754],[113.533256,29.693304],[113.542352,29.759889],[113.591134,29.860012],[113.590307,29.879959],[113.519511,29.841667],[113.44644,29.780095],[113.415848,29.764566],[113.186249,29.531738],[113.145683,29.472077],[113.118088,29.464016],[113.084912,29.494737],[113.076437,29.483937],[113.07561,29.447557],[113.066463,29.442363],[113.05003,29.446988],[113.044914,29.508432],[113.032874,29.519051],[113.008121,29.518095],[112.953344,29.476625],[112.935825,29.480526],[112.908488,29.600803],[112.913708,29.634548],[112.935257,29.659611],[113.00626,29.706197],[113.021763,29.747435],[113.019541,29.770974],[113.012926,29.772989],[112.93629,29.693304],[112.91872,29.723535],[112.912519,29.764488],[112.886164,29.791774],[112.786222,29.736687],[112.751909,29.690565],[112.695892,29.675708],[112.683696,29.647493],[112.664886,29.631938],[112.555797,29.630311],[112.496214,29.644289],[112.450894,29.644005],[112.363095,29.572175],[112.281912,29.536931],[112.277261,29.594576],[112.233698,29.625427],[112.213802,29.673099],[112.172823,29.645607],[112.126314,29.707153],[111.923639,29.856395],[111.856615,29.871252],[111.75476,29.924711],[111.683137,29.899028],[111.5849,29.904351],[111.475036,29.939697],[111.396229,29.924685],[111.36388,29.959593],[111.246161,30.031733],[111.052323,30.059251],[110.943544,30.063514],[110.764795,30.098396],[110.741851,30.096174],[110.733944,30.08819],[110.725986,30.039924],[110.698701,30.024731],[110.636172,30.046177],[110.559381,30.054987],[110.501193,30.046151],[110.46316,30.013982],[110.497783,29.998893],[110.506568,29.984604],[110.476957,29.957991],[110.473392,29.906263],[110.500573,29.86257],[110.544912,29.837817],[110.580465,29.804796],[110.591162,29.771361],[110.567133,29.749011],[110.501917,29.715112],[110.482073,29.712295],[110.446727,29.726687],[110.427451,29.722165],[110.419235,29.68284],[110.37686,29.653539],[110.361667,29.650103],[110.285031,29.679997],[110.208188,29.749916],[110.154341,29.762318],[110.129692,29.779345],[110.103905,29.785417],[109.783201,29.73493],[109.747958,29.711468],[109.700002,29.655735],[109.685119,29.600726],[109.655767,29.594861],[109.610498,29.618916],[109.586417,29.616074],[109.533656,29.596902],[109.507456,29.566774],[109.465856,29.566413],[109.455004,29.53135],[109.436349,29.540316],[109.426272,29.504633],[109.410769,29.499828],[109.400692,29.452983],[109.378471,29.438203],[109.380952,29.395338],[109.328345,29.353712],[109.338164,29.289685],[109.257755,29.228681],[109.252794,29.220775],[109.258065,29.185015],[109.245353,29.132201],[109.235896,29.116259],[109.206595,29.104244],[109.274808,29.049261],[109.285712,29.03027],[109.267677,29.006602],[109.245508,28.931258],[109.240392,28.882708],[109.246748,28.78553],[109.281061,28.720883],[109.260081,28.699282],[109.259719,28.664013],[109.21321,28.628795],[109.226233,28.613267],[109.285092,28.584638],[109.249797,28.460434]]]}}
