{"type":"Feature","properties":{"featurecla":"Admin-1 states provinces","scalerank":2,"adm1_code":"CHN-1811","diss_me":1811,"iso_3166_2":"CN-HE","wikipedia":null,"iso_a2":"CN","adm0_sr":1,"name":"Hebei","name_alt":"Héběi","name_local":"河北","type":"Shěng","type_en":"Province","code_local":null,"code_hasc":"CN.HB","note":null,"hasc_maybe":null,"region":"North China","region_cod":"1","provnum_ne":44,"gadm_level":1,"check_me":20,"datarank":1,"abbrev":null,"postal":"HB","area_sqkm":0,"sameascity":-99,"labelrank":2,"name_len":5,"mapcolor9":4,"mapcolor13":3,"fips":"CH10","fips_alt":null,"woe_id":12578000,"woe_label":"Hebei, CN, China","woe_name":"Hebei","latitude":38.5205,"longitude":115.314,"sov_a3":"CH1","adm0_a3":"CHN","adm0_label":2,"admin":"China","geonunit":"China","gu_a3":"CHN","gn_id":1808773,"gn_name":"Hebei Sheng","gns_id":-1908578,"gns_name":"Hebei Sheng","gn_level":1,"gn_region":null,"gn_a1_code":"CN.10","region_sub":null,"sub_code":null,"gns_level":1,"gns_lang":"zho","gns_adm1":"CH10","gns_region":null,"min_label":4.6,"max_label":10.1,"min_zoom":4.6,"wikidataid":"Q21208","name_ar":"خبي","name_bn":"হপেই","name_de":"Hebei","name_en":"Hebei","name_es":"Hebei","name_fr":"Hebei","name_el":"Χεμπέι","name_hi":"हेबेई","name_hu":"Hopej","name_id":"Hebei","name_it":"Hebei","name_ja":"河北省","name_ko":"허베이성","name_nl":"Hebei","name_pl":"Hebei","name_pt":"Hebei","name_ru":"Хэбэй","name_sv":"Hebei","name_tr":"Hebei","name_vi":"Hà Bắc","name_zh":"河北省","ne_id":1159312747,"name_he":"חביי","name_uk":"Хебей","name_ur":"ہیبئی","name_fa":"هبئی","name_zht":"河北省","FCLASS_ISO":null,"FCLASS_US":null,"FCLASS_FR":null,"FCLASS_RU":null,"FCLASS_ES":null,"FCLASS_CN":null,"FCLASS_TW":null,"FCLASS_IN":null,"FCLASS_NP":null,"FCLASS_PK":null,"FCLASS_DE":null,"FCLASS_GB":null,"FCLASS_BR":null,"FCLASS_IL":null,"FCLASS_PS":null,"FCLASS_SA":null,"FCLASS_EG":null,"FCLASS_MA":null,"FCLASS_PT":null,"FCLASS_AR":null,"FCLASS_JP":null,"FCLASS_KO":null,"FCLASS_VN":null,"FCLASS_TR":null,"FCLASS_ID":null,"FCLASS_PL":null,"FCLASS_GR":null,"FCLASS_IT":null,"FCLASS_NL":null,"FCLASS_SE":null,"FCLASS_BD":null,"FCLASS_UA":null,"FCLASS_TLC":null,"iso_id":"CN-HE","iso_name":"Hebei","source":"iso-3166-2-subdivisions"},"geometry":{"type":"MultiPolygon","coordinates":[[[[117.543549,38.621324],[117.271323,38.559249],[117.255665,38.561367],[117.227605,38.575423],[117.21329,38.597903],[117.189416,38.605809],[117.0949,38.611752],[117.07273,38.624154],[117.052835,38.690352],[117.035627,38.707715],[116.934754,38.690765],[116.897496,38.692781],[116.876877,38.702754],[116.851142,38.738876],[116.773834,38.764197],[116.723449,38.803213],[116.700608,38.840446],[116.68247,38.896799],[116.68216,38.952713],[116.695802,38.993382],[116.712184,39.011831],[116.891811,39.102523],[116.910105,39.130067],[116.902043,39.156499],[116.843649,39.183345],[116.82613,39.216547],[116.853157,39.352249],[116.831556,39.383359],[116.8252,39.418473],[116.793419,39.483714],[116.786908,39.55216],[116.793419,39.602312],[116.676424,39.603268],[116.614309,39.612104],[116.564389,39.597532],[116.537673,39.561539],[116.493283,39.552366],[116.428274,39.521412],[116.426878,39.505858],[116.461657,39.482965],[116.464602,39.466299],[116.44729,39.44736],[116.410394,39.440435],[116.317634,39.460899],[116.249783,39.505806],[116.224978,39.535675],[116.210406,39.5719],[116.195523,39.577843],[116.010108,39.556449],[115.938071,39.575466],[115.840196,39.544848],[115.802007,39.542393],[115.778908,39.517381],[115.755911,39.508958],[115.68806,39.549679],[115.673539,39.583527],[115.660362,39.595516],[115.618452,39.603733],[115.554218,39.598307],[115.471949,39.629158],[115.436086,39.751372],[115.440944,39.770053],[115.468539,39.785143],[115.527812,39.782172],[115.565691,39.800723],[115.504712,39.849377],[115.501457,39.919889],[115.427094,39.962574],[115.425234,39.985467],[115.479546,40.012907],[115.52838,40.073162],[115.577628,40.096313],[115.845002,40.160572],[115.892182,40.227777],[115.943032,40.271522],[115.945202,40.293717],[115.930319,40.325058],[115.894973,40.346866],[115.728161,40.539593],[115.727851,40.556026],[115.887945,40.613103],[115.994708,40.595972],[116.039408,40.601915],[116.130359,40.657984],[116.226115,40.764747],[116.25061,40.764696],[116.298876,40.738676],[116.353808,40.764799],[116.468013,40.765574],[116.472302,40.769812],[116.458866,40.791567],[116.355823,40.901586],[116.350862,40.926133],[116.364815,40.930319],[116.417111,40.902413],[116.45406,40.902827],[116.49721,40.953211],[116.591829,40.991865],[116.596015,41.020778],[116.608934,41.040338],[116.642731,41.045609],[116.652653,41.03101],[116.657924,40.965252],[116.668052,40.94794],[116.865249,40.784746],[116.958835,40.718342],[117.07273,40.673538],[117.116294,40.68731],[117.174378,40.693434],[117.303466,40.661808],[117.428523,40.669042],[117.485935,40.661937],[117.488571,40.651266],[117.438134,40.6369],[117.411779,40.597367],[117.32827,40.594577],[117.243108,40.57016],[117.197322,40.534193],[117.184145,40.49727],[117.195617,40.479493],[117.240162,40.446369],[117.243573,40.352292],[117.287963,40.297851],[117.331216,40.267517],[117.451054,40.226692],[117.555905,40.170365],[117.622516,40.123908],[117.650111,40.083187],[117.73238,40.06926],[117.755324,40.058175],[117.741992,40.026136],[117.788811,39.986552],[117.772688,39.964899],[117.697447,39.968207],[117.634453,39.961411],[117.53048,40.002468],[117.502988,39.992908],[117.517406,39.939733],[117.503247,39.873225],[117.523504,39.828164],[117.533116,39.750416],[117.564122,39.729746],[117.580296,39.684245],[117.62727,39.660474],[117.637089,39.628538],[117.618899,39.588928],[117.62479,39.578463],[117.679877,39.561694],[117.71357,39.533143],[117.73424,39.542212],[117.742612,39.57221],[117.756255,39.581512],[117.823899,39.56557],[117.87418,39.571435],[117.905083,39.553891],[117.912679,39.53335],[117.878211,39.447334],[117.876196,39.424596],[117.891337,39.401781],[117.976293,39.371757],[118.007919,39.342663],[118.009563,39.218552],[118.04538,39.218972],[118.096404,39.202392],[118.140528,39.172835],[118.207122,39.076706],[118.235285,39.053098],[118.326096,39.030932],[118.34427,39.030709],[118.529146,39.124653],[118.519379,39.13935],[118.52711,39.149237],[118.590151,39.148312],[118.61936,39.161042],[118.727779,39.14725],[118.795991,39.151777],[118.840535,39.17563],[118.858979,39.207506],[118.87379,39.213813],[118.87143,39.2001],[118.885509,39.185248],[118.880626,39.172797],[118.969981,39.193305],[118.956309,39.188056],[118.941987,39.159125],[118.894298,39.131822],[118.894298,39.124416],[118.910411,39.125434],[119.015636,39.189765],[119.184804,39.354814],[119.203345,39.363438],[119.22585,39.357767],[119.25566,39.365522],[119.279429,39.384006],[119.305075,39.432978],[119.270763,39.489061],[119.256425,39.493111],[119.261981,39.535084],[119.281398,39.575014],[119.262397,39.577512],[119.22934,39.535956],[119.243012,39.570705],[119.208995,39.550198],[119.208588,39.569566],[119.245372,39.594468],[119.284923,39.595445],[119.314057,39.641181],[119.33961,39.715562],[119.367866,39.748348],[119.466795,39.814848],[119.530699,39.814702],[119.519867,39.858303],[119.535592,39.890826],[119.620616,39.911038],[119.660899,39.932685],[119.708217,39.934935],[119.749649,39.952397],[119.774425,39.950507],[119.85019,39.986314],[119.823467,40.031097],[119.765434,40.063033],[119.741818,40.090473],[119.736857,40.107113],[119.746934,40.13724],[119.748329,40.192999],[119.742593,40.205195],[119.706626,40.214884],[119.634745,40.209071],[119.636967,40.275268],[119.598313,40.3271],[119.580123,40.373402],[119.599863,40.476935],[119.563689,40.540058],[119.550822,40.545484],[119.464057,40.532307],[119.293628,40.530705],[119.272441,40.548197],[119.239523,40.559643],[119.189759,40.620105],[119.185831,40.641396],[119.196993,40.684494],[119.190999,40.70041],[119.164592,40.700849],[119.118652,40.664908],[119.06155,40.651369],[118.849263,40.829834],[118.851123,40.857248],[118.893343,40.922309],[118.902179,40.956622],[118.92533,40.963831],[118.978867,40.95378],[119.002277,40.964167],[119.010338,40.976259],[119.006307,41.000753],[118.928896,41.029692],[118.927449,41.046771],[118.937113,41.060543],[118.96476,41.074702],[119.030079,41.084676],[119.100669,41.141804],[119.163507,41.176402],[119.215494,41.232832],[119.236423,41.288229],[119.238283,41.31983],[119.213633,41.323886],[119.152655,41.312207],[118.867143,41.336547],[118.84363,41.347089],[118.824303,41.378172],[118.808903,41.382849],[118.708858,41.342283],[118.625039,41.35484],[118.478433,41.355099],[118.42226,41.342593],[118.410168,41.330811],[118.406551,41.309624],[118.370274,41.313964],[118.358905,41.32262],[118.342472,41.365847],[118.339371,41.43313],[118.33255,41.446566],[118.294723,41.460622],[118.313637,41.569556],[118.301027,41.585136],[118.231213,41.599425],[118.218345,41.61529],[118.203772,41.660274],[118.159382,41.719133],[118.151631,41.750475],[118.168064,41.790111],[118.183412,41.796674],[118.21509,41.79316],[118.2632,41.752336],[118.278238,41.752697],[118.302888,41.785563],[118.319218,41.83047],[118.322163,41.863543],[118.304645,41.88827],[118.274362,41.911421],[118.297617,41.972296],[118.277153,42.01263],[118.277153,42.062446],[118.253899,42.081979],[118.232298,42.084202],[118.214469,42.075675],[118.205116,42.041879],[118.188993,42.026737],[118.147755,42.019813],[118.124811,42.029321],[118.126671,42.064229],[118.096802,42.124509],[118.098559,42.175643],[118.021561,42.20161],[117.989315,42.221609],[117.991176,42.244579],[118.041302,42.278247],[118.018461,42.335194],[118.024248,42.382633],[117.944615,42.43617],[117.87356,42.499783],[117.845655,42.535724],[117.805761,42.559521],[117.80111,42.580089],[117.809481,42.599622],[117.801885,42.609751],[117.593629,42.551589],[117.540712,42.619414],[117.529395,42.620241],[117.498337,42.581613],[117.450433,42.549289],[117.427592,42.476632],[117.4124,42.458081],[117.348631,42.456789],[117.243883,42.482265],[117.154948,42.470845],[117.103426,42.476116],[116.887109,42.395371],[116.837034,42.339819],[116.826595,42.308167],[116.884783,42.203161],[116.886023,42.166987],[116.859823,42.138307],[116.854242,42.117274],[116.889434,42.063376],[116.86773,42.02529],[116.817294,42.005963],[116.797295,41.986998],[116.746084,41.974854],[116.672393,41.939249],[116.599736,41.92372],[116.580202,41.927131],[116.5524,41.959971],[116.536742,41.967103],[116.452148,41.949584],[116.427033,41.997773],[116.377527,42.009684],[116.276241,41.950334],[116.20715,41.884007],[116.117491,41.867858],[116.085969,41.810885],[116.056617,41.798483],[116.037858,41.800627],[115.937347,41.927467],[115.923808,41.935012],[115.88009,41.93341],[115.841746,41.919922],[115.794255,41.890441],[115.682376,41.848299],[115.577938,41.791093],[115.339761,41.720839],[115.322398,41.710891],[115.311494,41.688102],[115.341622,41.638208],[115.347358,41.624075],[115.341311,41.615858],[115.282814,41.624023],[115.268344,41.61963],[115.239974,41.586041],[115.097399,41.616168],[114.877154,41.612447],[114.888988,41.737143],[114.868886,41.795899],[114.881185,41.815484],[114.931311,41.838609],[114.923094,41.927105],[114.896119,41.976766],[114.879841,42.028779],[114.847388,42.074848],[114.856225,42.126189],[114.850644,42.138875],[114.804858,42.178408],[114.775713,42.149159],[114.751942,42.139857],[114.596344,42.141278],[114.522912,42.115879],[114.481312,42.075262],[114.44271,41.981727],[114.419714,41.956302],[114.324009,41.913514],[114.255693,41.860081],[114.231922,41.826905],[114.213525,41.766908],[114.197092,41.593586],[114.190374,41.584206],[114.136372,41.555707],[114.016741,41.525476],[113.991936,41.499844],[113.965788,41.451579],[113.927961,41.418351],[113.910908,41.333601],[113.910288,41.286111],[113.931888,41.259962],[113.980258,41.248645],[113.987699,41.2249],[113.987699,41.169839],[113.963824,41.153354],[113.923827,41.162527],[113.89835,41.155938],[113.874631,41.089895],[113.8228,41.094184],[113.856906,41.058321],[113.912458,41.024654],[113.969406,40.952281],[114.018602,40.923601],[114.044388,40.875852],[114.05245,40.820506],[114.115908,40.786891],[114.154097,40.742578],[114.14986,40.682737],[114.156268,40.663875],[114.229028,40.600029],[114.25621,40.557473],[114.259104,40.492619],[114.285769,40.378569],[114.295122,40.366787],[114.385608,40.355237],[114.448239,40.358881],[114.492216,40.34839],[114.510768,40.333559],[114.501828,40.316222],[114.450306,40.293768],[114.288559,40.254959],[114.233214,40.230826],[114.09963,40.196823],[114.085367,40.185015],[114.074929,40.159978],[114.060821,40.086675],[114.039996,40.088819],[114.014881,40.126983],[113.995967,40.131814],[113.965065,40.085461],[113.934214,40.060708],[113.924447,40.029082],[113.935919,40.015723],[114.009455,39.980712],[114.038652,39.93764],[114.058031,39.924488],[114.185723,39.904025],[114.233214,39.876429],[114.388088,39.857619],[114.405451,39.82651],[114.405606,39.750132],[114.39677,39.69706],[114.402144,39.658458],[114.430463,39.612673],[114.475731,39.598074],[114.536399,39.544408],[114.540947,39.531231],[114.528958,39.482242],[114.468393,39.390102],[114.459453,39.338168],[114.416407,39.290057],[114.416148,39.22572],[114.405606,39.183913],[114.377856,39.157403],[114.316671,39.136707],[114.267992,39.082085],[114.231353,39.070148],[114.158955,39.073068],[114.116683,39.065574],[114.089088,39.074359],[114.021185,39.119266],[113.927548,39.085263],[113.875406,39.083299],[113.85334,39.072292],[113.815823,38.994804],[113.766937,38.963358],[113.754225,38.931267],[113.768798,38.891192],[113.826055,38.823651],[113.825125,38.810267],[113.748747,38.729471],[113.69056,38.713555],[113.680948,38.667769],[113.608962,38.644463],[113.534497,38.537286],[113.542868,38.439256],[113.517392,38.368718],[113.539458,38.252136],[113.675987,38.212242],[113.745802,38.161805],[113.790657,38.152865],[113.817684,38.09137],[113.85427,38.040521],[113.891477,37.949467],[113.926411,37.923577],[113.987131,37.839034],[114.026353,37.750771],[114.100405,37.69819],[114.106451,37.669381],[114.091879,37.583236],[114.051519,37.49797],[114.018912,37.454613],[113.951112,37.388416],[113.930493,37.348832],[113.896955,37.312245],[113.857681,37.208944],[113.799804,37.163778],[113.754328,37.114944],[113.748437,37.051486],[113.774844,36.9687],[113.770813,36.868189],[113.748334,36.861575],[113.699861,36.874881],[113.679242,36.8716],[113.66467,36.819949],[113.607774,36.769074],[113.556511,36.760702],[113.507625,36.741401],[113.463545,36.739644],[113.440291,36.725149],[113.440446,36.714969],[113.468971,36.689647],[113.455018,36.640193],[113.506385,36.603218],[113.522663,36.569267],[113.547364,36.548519],[113.53305,36.516273],[113.535117,36.483381],[113.556201,36.464906],[113.630822,36.438086],[113.69149,36.395324],[113.721049,36.355869],[113.808278,36.339384],[113.867293,36.3653],[113.907135,36.344138],[113.954109,36.346619],[113.989301,36.359021],[114.027748,36.333907],[114.048005,36.311918],[114.059736,36.281352],[114.073534,36.271611],[114.193165,36.240941],[114.220191,36.240631],[114.245616,36.2528],[114.304579,36.240734],[114.343078,36.244713],[114.365867,36.222079],[114.418164,36.211873],[114.560636,36.134384],[114.623474,36.130611],[114.714373,36.15353],[114.797882,36.140068],[114.842272,36.148647],[114.915498,36.099192],[114.924179,36.08803],[114.918908,36.061236],[114.930691,36.056559],[114.977716,36.060926],[114.997146,36.070124],[115.033837,36.100949],[115.060605,36.151618],[115.10608,36.184562],[115.141117,36.177947],[115.189796,36.182934],[115.241524,36.165312],[115.300487,36.083431],[115.322088,36.077876],[115.349683,36.082191],[115.398052,36.125185],[115.460322,36.157871],[115.455826,36.227091],[115.448075,36.250449],[115.40477,36.295511],[115.360018,36.300782],[115.349838,36.308973],[115.343327,36.352148],[115.276147,36.479737],[115.317644,36.528158],[115.327669,36.565365],[115.348029,36.581721],[115.341622,36.599756],[115.400119,36.671664],[115.461097,36.722875],[115.477841,36.753571],[115.62641,36.793568],[115.664393,36.815273],[115.691781,36.869584],[115.773016,36.945704],[115.781388,36.996269],[115.857352,37.066213],[115.870271,37.09709],[115.870892,37.131687],[115.898383,37.196231],[115.947993,37.232818],[115.967113,37.257209],[115.97719,37.323794],[116.049175,37.358185],[116.133925,37.370019],[116.195523,37.354103],[116.226529,37.363456],[116.256501,37.394255],[116.249163,37.416528],[116.222705,37.438309],[116.219914,37.462365],[116.263942,37.511302],[116.278722,37.550034],[116.303527,37.566364],[116.319495,37.597499],[116.350087,37.620908],[116.375977,37.583081],[116.386416,37.515643],[116.4106,37.484637],[116.425173,37.48071],[116.449358,37.511612],[116.593948,37.622562],[116.648622,37.703797],[116.72531,37.750254],[116.750269,37.808959],[116.781947,37.833841],[116.802411,37.840326],[116.839515,37.83366],[116.959456,37.838078],[116.996508,37.831851],[117.075521,37.842445],[117.234839,37.841153],[117.319434,37.850765],[117.377466,37.84105],[117.413175,37.843685],[117.433794,37.857948],[117.464489,37.90686],[117.489346,37.93076],[117.532651,38.015354],[117.568669,38.048918],[117.687318,38.072663],[117.754084,38.128164],[117.779819,38.164441],[117.767727,38.190899],[117.775168,38.235806],[117.790568,38.251981],[117.837159,38.270908],[117.716082,38.378511],[117.565971,38.612507],[117.543549,38.621324]]],[[[118.632743,39.074581],[118.614637,39.067649],[118.628711,39.048554],[118.577812,39.008619],[118.559718,39.003125],[118.526381,39.046694],[118.488193,39.050492],[118.478483,39.042858],[118.469477,39.006319],[118.470698,38.970551],[118.4909,38.943187],[118.480276,38.93482],[118.502699,38.919028],[118.514308,38.919445],[118.594321,38.972197],[118.648736,39.044651],[118.648672,39.055851],[118.632743,39.074581]]],[[[117.239077,40.092618],[117.064307,40.064842],[116.987671,40.034353],[116.829386,40.036678],[116.764997,40.018953],[116.744998,39.953065],[116.776004,39.909942],[116.784428,39.885628],[116.810938,39.878548],[116.845406,39.847491],[116.879202,39.832401],[116.892225,39.831057],[116.906074,39.843718],[116.928708,39.801395],[116.922197,39.773593],[116.876567,39.714346],[116.875636,39.686467],[116.903128,39.685873],[117.122185,39.617996],[117.152777,39.618409],[117.169417,39.627246],[117.183215,39.655099],[117.188641,39.721012],[117.202903,39.761604],[117.1843,39.808785],[117.203058,39.824004],[117.253339,39.838189],[117.263106,39.851237],[117.248172,39.864699],[117.208949,39.866818],[117.179649,39.879401],[117.159443,39.905704],[117.148436,39.955753],[117.239077,40.092618]]]]}}
