{"type":"Feature","properties":{"featurecla":"Admin-1 states provinces","scalerank":5,"adm1_code":"COL-1317","diss_me":1317,"iso_3166_2":"CO-SAN","wikipedia":null,"iso_a2":"CO","adm0_sr":1,"name":"Santander","name_alt":null,"name_local":null,"type":"Departamento","type_en":"Department","code_local":null,"code_hasc":"CO.ST","note":null,"hasc_maybe":null,"region":null,"region_cod":null,"provnum_ne":21,"gadm_level":1,"check_me":0,"datarank":5,"abbrev":null,"postal":"ST","area_sqkm":0,"sameascity":-99,"labelrank":5,"name_len":9,"mapcolor9":3,"mapcolor13":1,"fips":"CO26","fips_alt":null,"woe_id":2345071,"woe_label":"Santander, CO, Colombia","woe_name":"Santander","latitude":6.85402,"longitude":-73.4981,"sov_a3":"COL","adm0_a3":"COL","adm0_label":2,"admin":"Colombia","geonunit":"Colombia","gu_a3":"COL","gn_id":3668578,"gn_name":"Departamento de Santander","gns_id":-598768,"gns_name":"Santander, Departamento de","gn_level":1,"gn_region":null,"gn_a1_code":"CO.26","region_sub":null,"sub_code":null,"gns_level":1,"gns_lang":"por","gns_adm1":"CO26","gns_region":null,"min_label":6.7,"max_label":11.0,"min_zoom":6.7,"wikidataid":"Q235166","name_ar":"إدارة سانتاندير","name_bn":"সান্তান্দের বিভাগ","name_de":"Santander","name_en":"Santander","name_es":"Santander","name_fr":"Santander","name_el":"Διαμέρισμα Σανταντέρ","name_hi":"संतान्दर विभाग","name_hu":"Santander","name_id":"Departemen Santander","name_it":"dipartimento di Santander","name_ja":"サンタンデール県","name_ko":"산탄데르","name_nl":"Santander","name_pl":"Santander","name_pt":"Santander","name_ru":"Сантандер","name_sv":"Santander","name_tr":"Santander","name_vi":"Khu vực hành chính Santander","name_zh":"桑坦德省","ne_id":1159310185,"name_he":"סנטנדר","name_uk":"Сантандер","name_ur":"سانتاندر محکمہ","name_fa":"شهرستان سانتاندر","name_zht":"桑坦德省","FCLASS_ISO":null,"FCLASS_US":null,"FCLASS_FR":null,"FCLASS_RU":null,"FCLASS_ES":null,"FCLASS_CN":null,"FCLASS_TW":null,"FCLASS_IN":null,"FCLASS_NP":null,"FCLASS_PK":null,"FCLASS_DE":null,"FCLASS_GB":null,"FCLASS_BR":null,"FCLASS_IL":null,"FCLASS_PS":null,"FCLASS_SA":null,"FCLASS_EG":null,"FCLASS_MA":null,"FCLASS_PT":null,"FCLASS_AR":null,"FCLASS_JP":null,"FCLASS_KO":null,"FCLASS_VN":null,"FCLASS_TR":null,"FCLASS_ID":null,"FCLASS_PL":null,"FCLASS_GR":null,"FCLASS_IT":null,"FCLASS_NL":null,"FCLASS_SE":null,"FCLASS_BD":null,"FCLASS_UA":null,"FCLASS_TLC":null,"iso_id":"CO-SAN","iso_name":"Santander","source":"iso-3166-2-subdivisions"},"geometry":{"type":"Polygon","coordinates":[[[-73.625449,7.734541],[-73.751901,7.740897],[-73.750506,7.770069],[-73.740351,7.787225],[-73.744227,7.830737],[-73.722781,7.85797],[-73.676996,7.893369],[-73.670304,7.928974],[-73.682396,7.954734],[-73.728517,7.987239],[-73.729448,8.00561],[-73.778979,8.098033],[-73.785646,8.161466],[-73.816161,8.138367],[-73.831121,8.116094],[-73.855357,8.105449],[-73.872255,8.04491],[-73.857812,7.938586],[-73.843653,7.879106],[-73.829106,7.861148],[-73.815541,7.779525],[-73.836004,7.694776],[-73.823292,7.672038],[-73.835152,7.595273],[-73.8482,7.589149],[-73.913183,7.494866],[-73.913054,7.455695],[-73.899386,7.421253],[-73.924268,7.342136],[-73.937109,7.253899],[-73.926722,7.126103],[-73.922382,7.105536],[-73.892564,7.060939],[-73.88781,7.019856],[-73.900755,6.992881],[-73.925069,6.97451],[-74.016097,6.927795],[-74.063872,6.869142],[-74.108572,6.790309],[-74.292721,6.654426],[-74.33078,6.636391],[-74.386436,6.626288],[-74.40876,6.567145],[-74.40584,6.475341],[-74.379201,6.423484],[-74.392224,6.402581],[-74.413334,6.404235],[-74.459506,6.333516],[-74.519425,6.282304],[-74.479789,6.15518],[-74.419535,6.073583],[-74.356851,6.039115],[-74.290266,6.070689],[-74.269983,6.049838],[-74.239158,5.981702],[-74.239933,5.963874],[-74.26957,5.898452],[-74.257452,5.848196],[-74.233784,5.84631],[-74.174511,5.900777],[-74.153272,5.882019],[-74.11082,5.870598],[-74.09697,5.85587],[-74.087979,5.824063],[-74.04873,5.813651],[-74.008423,5.75213],[-73.973179,5.73257],[-73.89396,5.747324],[-73.877449,5.737092],[-73.878534,5.711409],[-73.833886,5.739107],[-73.737122,5.761147],[-73.694308,5.751975],[-73.648651,5.71544],[-73.638368,5.722726],[-73.613977,5.844863],[-73.613718,5.922197],[-73.593952,5.952221],[-73.589249,5.98886],[-73.578268,6.007231],[-73.535222,6.04206],[-73.499281,6.107095],[-73.483804,6.091566],[-73.438122,6.069552],[-73.397452,6.031906],[-73.381872,6.001029],[-73.385386,5.962944],[-73.40076,5.922274],[-73.415617,5.898684],[-73.438122,5.887445],[-73.441946,5.8668],[-73.471556,5.847705],[-73.468301,5.813496],[-73.415307,5.755075],[-73.403008,5.756238],[-73.389778,5.791378],[-73.369418,5.810938],[-73.351331,5.862537],[-73.311618,5.85339],[-73.286167,5.85587],[-73.236816,5.932455],[-73.219246,5.982478],[-73.195423,5.991107],[-73.12703,5.955477],[-73.016855,5.940749],[-73.007037,5.950593],[-72.992387,5.999634],[-72.893659,6.123218],[-72.817436,6.153423],[-72.799298,6.202516],[-72.770281,6.216959],[-72.74775,6.241325],[-72.74266,6.288945],[-72.755734,6.319666],[-72.735322,6.375994],[-72.740231,6.418446],[-72.73341,6.456609],[-72.744521,6.485858],[-72.794414,6.533193],[-72.801571,6.5519],[-72.791624,6.567093],[-72.762246,6.573604],[-72.70889,6.528775],[-72.68145,6.486168],[-72.661554,6.434801],[-72.643907,6.430228],[-72.616673,6.438083],[-72.542414,6.502549],[-72.542414,6.561357],[-72.497817,6.64577],[-72.481203,6.72158],[-72.476863,6.75982],[-72.487766,6.809171],[-72.477974,6.844079],[-72.504871,6.915082],[-72.522131,6.890562],[-72.546574,6.884955],[-72.547737,6.957276],[-72.560733,6.999496],[-72.583549,7.002441],[-72.629127,6.991253],[-72.650883,6.995439],[-72.670081,6.973425],[-72.688813,7.005077],[-72.715427,7.003294],[-72.744831,6.98916],[-72.792993,7.030837],[-72.87937,7.059854],[-72.885933,7.073806],[-72.830045,7.162095],[-72.837176,7.207881],[-72.853041,7.217183],[-72.881463,7.256379],[-72.844515,7.300976],[-72.842292,7.357536],[-72.855987,7.363065],[-72.897638,7.428694],[-72.903116,7.47634],[-72.97523,7.532512],[-72.983886,7.546775],[-72.99541,7.592715],[-72.991327,7.613179],[-73.027656,7.621189],[-73.056595,7.607598],[-73.216404,7.630026],[-73.247849,7.597056],[-73.260742,7.544914],[-73.360349,7.549643],[-73.393835,7.573621],[-73.467526,7.585739],[-73.496723,7.600854],[-73.544317,7.669765],[-73.60297,7.709866],[-73.625449,7.734541]]]}}
