{"type":"Feature","properties":{"featurecla":"Admin-1 states provinces","scalerank":6,"adm1_code":"CUB-1368","diss_me":1368,"iso_3166_2":"CU-10","wikipedia":null,"iso_a2":"CU","adm0_sr":1,"name":"Las Tunas","name_alt":null,"name_local":null,"type":"Provincia","type_en":"Province","code_local":null,"code_hasc":"CU.LT","note":null,"hasc_maybe":"CU.CM|CUB-LTU","region":null,"region_cod":null,"provnum_ne":12,"gadm_level":1,"check_me":10,"datarank":6,"abbrev":null,"postal":"LT","area_sqkm":0,"sameascity":7,"labelrank":7,"name_len":9,"mapcolor9":3,"mapcolor13":4,"fips":"CU13","fips_alt":"CU05","woe_id":2345117,"woe_label":"Las Tunas, CU, Cuba","woe_name":"Las Tunas","latitude":21.0299,"longitude":-77.0723,"sov_a3":"CU1","adm0_a3":"CUB","adm0_label":2,"admin":"Cuba","geonunit":"Cuba","gu_a3":"CUB","gn_id":3550595,"gn_name":"Las Tunas","gns_id":-1631638,"gns_name":"Las Tunas","gn_level":1,"gn_region":null,"gn_a1_code":"CU.13","region_sub":null,"sub_code":null,"gns_level":1,"gns_lang":"zho","gns_adm1":"CU13","gns_region":null,"min_label":7.7,"max_label":11.0,"min_zoom":7.7,"wikidataid":"Q115334","name_ar":"مقاطعة لاس توناس","name_bn":"লাস তুনাস প্রদেশ","name_de":"Las Tunas","name_en":"Las Tunas","name_es":"Las Tunas","name_fr":"Las Tunas","name_el":"Λας Τούνας","name_hi":"लास ट्यूनास प्रांत","name_hu":"Las Tunas","name_id":"Las Tunas","name_it":"Las Tunas","name_ja":"ラス・トゥーナス州","name_ko":"라스투나스","name_nl":"Las Tunas","name_pl":"Prowincja Las Tunas","name_pt":"Las Tunas","name_ru":"Лас-Тунас","name_sv":"Las Tunas","name_tr":"Las Tunas ili","name_vi":"Las Tunas","name_zh":"拉斯图纳斯省","ne_id":1159310357,"name_he":"לאס טונאס","name_uk":"Лас-Тунас","name_ur":"لاس ٹناس صوبہ","name_fa":"استان لاس توناس","name_zht":"拉斯圖納斯省","FCLASS_ISO":null,"FCLASS_US":null,"FCLASS_FR":null,"FCLASS_RU":null,"FCLASS_ES":null,"FCLASS_CN":null,"FCLASS_TW":null,"FCLASS_IN":null,"FCLASS_NP":null,"FCLASS_PK":null,"FCLASS_DE":null,"FCLASS_GB":null,"FCLASS_BR":null,"FCLASS_IL":null,"FCLASS_PS":null,"FCLASS_SA":null,"FCLASS_EG":null,"FCLASS_MA":null,"FCLASS_PT":null,"FCLASS_AR":null,"FCLASS_JP":null,"FCLASS_KO":null,"FCLASS_VN":null,"FCLASS_TR":null,"FCLASS_ID":null,"FCLASS_PL":null,"FCLASS_GR":null,"FCLASS_IT":null,"FCLASS_NL":null,"FCLASS_SE":null,"FCLASS_BD":null,"FCLASS_UA":null,"FCLASS_TLC":null,"iso_id":"CU-10","iso_name":"Las Tunas"},"geometry":{"type":"Polygon","coordinates":[[[-76.944814,21.45775],[-76.955375,21.448433],[-76.971265,21.442464],[-76.999739,21.421638],[-77.012426,21.416161],[-77.039556,21.409805],[-77.057462,21.409029],[-77.08069,21.414326],[-77.100482,21.416471],[-77.116347,21.370686],[-77.124667,21.361461],[-77.130739,21.348491],[-77.131591,21.339111],[-77.127147,21.322704],[-77.117794,21.313893],[-77.079502,21.3141],[-77.073688,21.312653],[-77.071673,21.309165],[-77.073249,21.305522],[-77.129705,21.256687],[-77.134795,21.244931],[-77.135519,21.238084],[-77.131126,21.173514],[-77.167558,21.116825],[-77.186988,21.099048],[-77.222723,21.091219],[-77.248949,21.078352],[-77.263005,21.059903],[-77.29184,20.995024],[-77.300082,20.991148],[-77.308299,20.993396],[-77.314268,20.996186],[-77.328995,21.008485],[-77.333646,21.009493],[-77.346307,21.001509],[-77.356591,20.980658],[-77.366642,20.99045],[-77.369794,20.997117],[-77.368967,21.003085],[-77.361526,21.015203],[-77.363903,21.020113],[-77.377235,21.023032],[-77.393927,21.024221],[-77.411419,21.028458],[-77.41452,21.033032],[-77.414055,21.038975],[-77.416923,21.048173],[-77.432865,21.069102],[-77.436121,21.076259],[-77.437671,21.076104],[-77.447929,21.066079],[-77.462398,21.059387],[-77.467902,21.053676],[-77.464827,21.034582],[-77.473173,21.011999],[-77.479735,21.004093],[-77.511361,20.999365],[-77.526787,21.00014],[-77.529397,20.99691],[-77.532187,20.982285],[-77.546656,20.98027],[-77.566914,20.974689],[-77.576991,20.969444],[-77.582313,20.955982],[-77.582262,20.943347],[-77.587352,20.937792],[-77.617014,20.941332],[-77.620812,20.944432],[-77.635282,20.964018],[-77.640811,20.96624],[-77.647426,20.965155],[-77.655125,20.960142],[-77.652645,20.939394],[-77.658536,20.90968],[-77.658097,20.896864],[-77.666029,20.891516],[-77.68117,20.885728],[-77.742174,20.874669],[-77.76579,20.876194],[-77.817725,20.807309],[-77.83113,20.725558],[-77.822133,20.723049],[-77.795562,20.705878],[-77.778432,20.700751],[-77.729319,20.697984],[-77.71642,20.698879],[-77.712717,20.701117],[-77.706125,20.697414],[-77.686676,20.692043],[-77.678863,20.691148],[-77.649281,20.692572],[-77.634999,20.687934],[-77.620513,20.677558],[-77.611643,20.678453],[-77.572743,20.697984],[-77.521962,20.680325],[-77.504506,20.677558],[-77.493398,20.677476],[-77.469716,20.684394],[-77.457672,20.689887],[-77.451894,20.690009],[-77.442372,20.684394],[-77.429351,20.698432],[-77.403188,20.709174],[-77.371734,20.716132],[-77.343129,20.718492],[-77.33668,20.716339],[-77.316851,20.726022],[-77.310779,20.730595],[-77.303674,20.744961],[-77.293726,20.755736],[-77.28936,20.766407],[-77.288119,20.777078],[-77.285329,20.781626],[-77.281686,20.782737],[-77.27626,20.777027],[-77.272203,20.767467],[-77.268198,20.767544],[-77.238639,20.78421],[-77.232205,20.78421],[-77.225875,20.772221],[-77.202491,20.766149],[-77.104358,20.763436],[-77.068029,20.75062],[-77.053457,20.740879],[-77.046868,20.73876],[-77.038057,20.738993],[-77.021624,20.743954],[-76.993228,20.74646],[-76.970955,20.753566],[-76.929252,20.746538],[-76.901218,20.747855],[-76.858688,20.743101],[-76.836106,20.743334],[-76.8213,20.739768],[-76.812024,20.732611],[-76.793447,20.695275],[-76.782879,20.690985],[-76.762182,20.706953],[-76.712392,20.725634],[-76.702238,20.732068],[-76.699473,20.736564],[-76.698827,20.742636],[-76.702548,20.752455],[-76.718723,20.770826],[-76.720893,20.776407],[-76.719653,20.797284],[-76.716785,20.806405],[-76.709576,20.819608],[-76.691308,20.841932],[-76.687923,20.851518],[-76.686347,20.865497],[-76.687303,20.936138],[-76.674668,20.970348],[-76.662757,20.96531],[-76.64728,20.953321],[-76.63679,20.951099],[-76.613587,20.955181],[-76.560825,20.976627],[-76.547803,20.979805],[-76.538423,20.980399],[-76.527623,20.977557],[-76.520776,20.97841],[-76.517236,20.981278],[-76.514368,20.996212],[-76.502457,21.024195],[-76.483569,21.042308],[-76.437008,21.076362],[-76.392593,21.103182],[-76.370837,21.111709],[-76.343913,21.127496],[-76.338513,21.134059],[-76.33686,21.140338],[-76.340296,21.158244],[-76.33996,21.164471],[-76.334741,21.171059],[-76.325672,21.177571],[-76.318075,21.194262],[-76.313547,21.251899],[-76.316518,21.254218],[-76.348785,21.266059],[-76.363026,21.277086],[-76.387563,21.284329],[-76.507314,21.287665],[-76.525543,21.28205],[-76.532379,21.268622],[-76.529042,21.252631],[-76.516957,21.239244],[-76.504262,21.234809],[-76.471588,21.230658],[-76.456125,21.225572],[-76.467641,21.22134],[-76.49706,21.205146],[-76.514556,21.205268],[-76.519521,21.197252],[-76.525502,21.191596],[-76.537465,21.184638],[-76.546742,21.187812],[-76.556793,21.205227],[-76.565338,21.211982],[-76.577301,21.211371],[-76.58845,21.206366],[-76.598256,21.205878],[-76.606313,21.218736],[-76.592681,21.225572],[-76.613149,21.225572],[-76.613149,21.232367],[-76.559885,21.234524],[-76.548411,21.247626],[-76.544911,21.287665],[-76.551666,21.287665],[-76.551666,21.266588],[-76.557932,21.266588],[-76.57079,21.282416],[-76.592926,21.294827],[-76.61677,21.301825],[-76.634267,21.301337],[-76.653554,21.294135],[-76.654042,21.287746],[-76.641469,21.264635],[-76.634918,21.260077],[-76.613149,21.252916],[-76.613149,21.246731],[-76.634389,21.247992],[-76.65331,21.251899],[-76.670155,21.259019],[-76.685211,21.269965],[-76.701161,21.275865],[-76.721344,21.279039],[-76.73469,21.285549],[-76.729848,21.301337],[-76.731435,21.311916],[-76.721506,21.311469],[-76.71231,21.302639],[-76.716176,21.287665],[-76.660146,21.311591],[-76.64391,21.315009],[-76.636586,21.321357],[-76.642486,21.335517],[-76.656077,21.349555],[-76.671498,21.355943],[-76.682281,21.356635],[-76.70934,21.362779],[-76.73058,21.374945],[-76.738393,21.370551],[-76.74413,21.370266],[-76.805572,21.390082],[-76.807281,21.378119],[-76.811431,21.368069],[-76.825429,21.348538],[-76.818593,21.348538],[-76.825022,21.324408],[-76.829457,21.314114],[-76.839101,21.307563],[-76.836171,21.332465],[-76.887278,21.307359],[-76.901194,21.332017],[-76.89745,21.346096],[-76.887441,21.355658],[-76.873158,21.36107],[-76.837717,21.363186],[-76.825551,21.366645],[-76.817616,21.376899],[-76.811757,21.397528],[-76.832265,21.397528],[-76.825429,21.4112],[-76.83845,21.4206],[-76.893707,21.431627],[-76.929921,21.447943],[-76.944814,21.45775]]]}}
