{"type":"Feature","properties":{"featurecla":"Admin-1 states provinces","scalerank":5,"adm1_code":"CPV-5053","diss_me":5053,"iso_3166_2":"CV-PR","wikipedia":"http://en.wikipedia.org/wiki/Praia_(municipality)","iso_a2":"CV","adm0_sr":3,"name":"Praia","name_alt":null,"name_local":null,"type":null,"type_en":null,"code_local":"74","code_hasc":"CV.PC","note":null,"hasc_maybe":null,"region":"Ilhas de Sotavento","region_cod":"CV-S","provnum_ne":0,"gadm_level":0,"check_me":0,"datarank":10,"abbrev":null,"postal":"PR","area_sqkm":0,"sameascity":-99,"labelrank":20,"name_len":5,"mapcolor9":4,"mapcolor13":11,"fips":"CV14","fips_alt":null,"woe_id":2345125,"woe_label":"Praia, CV, Cape Verde","woe_name":"Praia","latitude":14.9529,"longitude":-23.5159,"sov_a3":"CPV","adm0_a3":"CPV","adm0_label":2,"admin":"Cape Verde","geonunit":"Cape Verde","gu_a3":"CPV","gn_id":3374332,"gn_name":"Concelho da Praia","gns_id":-1313469,"gns_name":"Praia, Concelho da","gn_level":1,"gn_region":null,"gn_a1_code":"CV.14","region_sub":null,"sub_code":null,"gns_level":1,"gns_lang":"por","gns_adm1":"CV14","gns_region":null,"min_label":11.0,"max_label":11.0,"min_zoom":11.0,"wikidataid":"Q497019","name_ar":"برايا","name_bn":"পারাইয়া","name_de":"Praia","name_en":"Praia","name_es":"Praia","name_fr":"Praia","name_el":"Πράια","name_hi":"प्रेया","name_hu":"Praia","name_id":"Praia","name_it":"Praia","name_ja":"プライア市","name_ko":"프라이아시","name_nl":"Praia","name_pl":"Praia","name_pt":"Praia","name_ru":"община Прая","name_sv":"Praia","name_tr":"Praia","name_vi":"Praia","name_zh":"普拉亚县","ne_id":1159316329,"name_he":"פראיה","name_uk":"Прая","name_ur":"پرایا","name_fa":"پریا","name_zht":"普拉亞縣","FCLASS_ISO":null,"FCLASS_US":null,"FCLASS_FR":null,"FCLASS_RU":null,"FCLASS_ES":null,"FCLASS_CN":null,"FCLASS_TW":null,"FCLASS_IN":null,"FCLASS_NP":null,"FCLASS_PK":null,"FCLASS_DE":null,"FCLASS_GB":null,"FCLASS_BR":null,"FCLASS_IL":null,"FCLASS_PS":null,"FCLASS_SA":null,"FCLASS_EG":null,"FCLASS_MA":null,"FCLASS_PT":null,"FCLASS_AR":null,"FCLASS_JP":null,"FCLASS_KO":null,"FCLASS_VN":null,"FCLASS_TR":null,"FCLASS_ID":null,"FCLASS_PL":null,"FCLASS_GR":null,"FCLASS_IT":null,"FCLASS_NL":null,"FCLASS_SE":null,"FCLASS_BD":null,"FCLASS_UA":null,"FCLASS_TLC":null,"iso_id":"CV-PR","iso_name":"Praia"},"geometry":{"type":"Polygon","coordinates":[[[-23.471468,14.973722],[-23.490999,14.98619],[-23.51093,14.982868],[-23.536398,14.966259],[-23.56408,14.960723],[-23.560465,14.941756],[-23.547631,14.925713],[-23.539296,14.90762],[-23.50829,14.913804],[-23.494008,14.918687],[-23.486318,14.930854],[-23.480214,14.946601],[-23.470448,14.962226],[-23.477895,14.969062],[-23.471468,14.973722]]]}}
