{"type":"Feature","properties":{"iso_id":"CZ-31","iso_name":"South Bohemian Region","name":"South Bohemian Region","source":"osm-overpass-cz"},"geometry":{"type":"Polygon","coordinates":[[[13.5710135,49.0509864],[13.5359667,48.9856894],[13.5509533,48.9786814],[13.5509,48.9676316],[13.5839023,48.9692081],[13.5930013,48.9608858],[13.5903409,48.9529709],[13.610246,48.9386224],[13.6079203,48.9435066],[13.6286031,48.9492428],[13.6224887,48.9388049],[13.655475,48.8935723],[13.6696391,48.8905132],[13.6714332,48.8801415],[13.7168637,48.8781319],[13.7379281,48.8860154],[13.7644187,48.8344761],[13.7929373,48.8301132],[13.7881724,48.8248444],[13.8152291,48.7970883],[13.8033882,48.7808224],[13.8131743,48.7739974],[13.8761128,48.7666041],[13.9558039,48.7144516],[14.0032784,48.7085822],[14.0341578,48.6769846],[14.0594662,48.6738245],[14.0535237,48.6529256],[14.024183,48.6526568],[14.0105583,48.6396542],[14.0286927,48.626163],[14.0481344,48.6273669],[14.0421494,48.6128659],[14.0542382,48.6041322],[14.0689955,48.6069745],[14.066963,48.5948589],[14.0970844,48.5998368],[14.0955755,48.5922383],[14.1158363,48.5891601],[14.1301889,48.5977588],[14.1635271,48.589236],[14.1943855,48.5927286],[14.2405638,48.57765],[14.2715453,48.5813734],[14.2955995,48.5680678],[14.3243309,48.5642427],[14.3332343,48.5518081],[14.3531214,48.5624723],[14.3576724,48.5746466],[14.3880813,48.5718809],[14.3935902,48.5786596],[14.386243,48.5926724],[14.4314131,48.5891316],[14.4560481,48.6251396],[14.4437604,48.6434296],[14.4698709,48.6484941],[14.5032907,48.6173668],[14.5465656,48.6145996],[14.5620564,48.6033296],[14.6104736,48.6281063],[14.6263686,48.6045086],[14.6456874,48.6100569],[14.6537968,48.6043363],[14.6634582,48.5819592],[14.701529,48.582692],[14.7211369,48.6023788],[14.7140942,48.617448],[14.7221544,48.6384352],[14.7123407,48.6500974],[14.7269676,48.6870691],[14.7365659,48.6989322],[14.7740393,48.7116422],[14.8081323,48.7338828],[14.8004926,48.7473879],[14.8114993,48.7614504],[14.8086608,48.7788018],[14.8812929,48.7801091],[14.8880926,48.7700775],[14.9557928,48.7580851],[14.9756541,48.7688946],[14.9801424,48.7791605],[14.9531927,48.7950984],[14.9582045,48.8139294],[14.9697368,48.8239055],[14.9683412,48.8369371],[14.9845243,48.8423909],[14.9733613,48.8530756],[14.9729379,48.8746545],[14.9838233,48.8747459],[14.9834634,48.8909571],[14.9929231,48.9040413],[14.9790215,48.9280381],[14.9865209,48.9359238],[14.976194,48.9710067],[14.9845204,48.9865872],[14.9978219,48.9919621],[15.0007916,49.0037206],[14.9904394,49.0096538],[14.9959183,49.0150866],[15.0030296,49.011491],[15.0206422,49.0205249],[15.0408146,49.0114882],[15.0585953,49.0155063],[15.0654261,49.0142211],[15.0648428,48.9995865],[15.1025658,48.9938422],[15.1327658,49.0006944],[15.1562475,48.9932991],[15.1510859,48.9809471],[15.1620387,48.9777104],[15.1697853,48.9622538],[15.1553818,48.9461383],[15.1602433,48.9416908],[15.1770125,48.9476945],[15.1902888,48.9432852],[15.2244452,48.9601444],[15.2616177,48.9536483],[15.2813742,48.9793633],[15.2788737,48.994659],[15.3056931,48.9779183],[15.3217322,48.9761307],[15.3322282,48.9848269],[15.3669737,48.981884],[15.4247543,48.9516077],[15.4558922,48.9452864],[15.4684899,48.9518173],[15.5020114,48.9359742],[15.5120946,48.914776],[15.5424248,48.9077369],[15.5495901,48.923886],[15.5697409,48.9277032],[15.5580862,48.9294384],[15.5692214,48.9318925],[15.5674095,48.9419652],[15.5796491,48.9385029],[15.5870137,48.9468344],[15.573502,48.9561613],[15.5803045,48.9657453],[15.5234452,48.9761226],[15.5281408,48.9950347],[15.5083039,48.9985536],[15.495124,48.989175],[15.4872813,48.9968669],[15.5092406,49.0174084],[15.5337365,49.0254184],[15.5248565,49.0369897],[15.545785,49.0424622],[15.5493445,49.0499086],[15.5405534,49.0598719],[15.555222,49.0611205],[15.553239,49.0771058],[15.589917,49.0721993],[15.5977858,49.0764808],[15.589973,49.0844965],[15.6042038,49.087781],[15.5820405,49.0982766],[15.5901991,49.1044409],[15.5747137,49.1020313],[15.5496991,49.114763],[15.5700822,49.1165793],[15.5697187,49.1218655],[15.5674655,49.1289023],[15.5521186,49.1254897],[15.5555672,49.1304909],[15.5445434,49.1356433],[15.5362633,49.1354113],[15.5358561,49.1246813],[15.5155733,49.131294],[15.4990577,49.118975],[15.4642854,49.1200717],[15.4412704,49.1330231],[15.4238485,49.1176364],[15.4222219,49.1252001],[15.3827474,49.1360823],[15.3725739,49.1504708],[15.3583767,49.1505062],[15.3605767,49.1552349],[15.3535164,49.1529589],[15.337218,49.1668357],[15.35088,49.1926038],[15.3414856,49.2183294],[15.284927,49.2167846],[15.2795506,49.2102755],[15.2655285,49.214707],[15.253181,49.2064582],[15.2575286,49.2176028],[15.2057239,49.2259519],[15.1914836,49.2364516],[15.1665157,49.2160234],[15.139309,49.2211251],[15.1370506,49.2354139],[15.1237318,49.2477899],[15.0991203,49.2408075],[15.0749157,49.2520624],[15.1008419,49.2490362],[15.1036731,49.2701117],[15.0621563,49.2722238],[15.0298961,49.2966012],[14.9911767,49.2750171],[14.9788249,49.2772268],[14.9526463,49.2933576],[14.9478688,49.3042438],[14.9241689,49.3104048],[14.9263781,49.3211736],[14.9038321,49.3331489],[14.9319409,49.3516043],[14.9330004,49.3562957],[14.9268851,49.3525491],[14.9254062,49.3630146],[14.8881812,49.3759636],[14.8934222,49.393973],[14.9062954,49.4049529],[14.9024333,49.4129983],[14.9161455,49.4250771],[14.9017168,49.4220785],[14.9001567,49.4279654],[14.9120394,49.430599],[14.91252,49.4436258],[14.9275234,49.4563614],[14.9300873,49.4679879],[14.9175374,49.4744407],[14.9336028,49.4840438],[14.9244601,49.503885],[14.9013231,49.5145089],[14.9062152,49.5223451],[14.9353416,49.5203027],[14.9452139,49.5273958],[14.9287634,49.541529],[14.9320068,49.5493788],[14.9086074,49.5431601],[14.8914204,49.5531496],[14.8830839,49.5755778],[14.8763052,49.5719214],[14.8702122,49.5842044],[14.8776595,49.5868934],[14.8688172,49.5915446],[14.8451467,49.5761251],[14.8137781,49.6022811],[14.779514,49.6046884],[14.7663418,49.6211124],[14.7631548,49.6098463],[14.7413638,49.6035289],[14.7461285,49.5954654],[14.7241298,49.592474],[14.7340067,49.5868175],[14.7195348,49.5694578],[14.7292721,49.5667093],[14.7247227,49.5603554],[14.7380021,49.5490424],[14.7098182,49.5407766],[14.693847,49.5442929],[14.6508259,49.5193913],[14.6564341,49.5140914],[14.6480253,49.5031235],[14.640135,49.5037667],[14.6316542,49.5192797],[14.5735188,49.5216085],[14.5905464,49.5339124],[14.5893036,49.5442026],[14.5610159,49.5310869],[14.4773516,49.5460914],[14.4669077,49.5315021],[14.4435712,49.5411211],[14.4431901,49.5489847],[14.4278962,49.5423189],[14.4059469,49.5578002],[14.4105059,49.5536036],[14.3998302,49.5541229],[14.4078699,49.5469081],[14.4047992,49.5401788],[14.4135562,49.5368244],[14.3868043,49.5429584],[14.3546418,49.5241153],[14.3429788,49.5325171],[14.3320527,49.5268222],[14.3244716,49.527913],[14.3344565,49.5391925],[14.3064127,49.5505177],[14.2995941,49.544176],[14.288964,49.5508516],[14.2923547,49.5593236],[14.2658624,49.5678548],[14.2266712,49.561831],[14.2258437,49.549244],[14.2106212,49.5420701],[14.2172253,49.5402916],[14.2083373,49.5317457],[14.200692,49.5377892],[14.1513924,49.530235],[14.1219018,49.536881],[14.1255278,49.5280423],[14.1073896,49.5296552],[14.1067703,49.5370863],[14.1015701,49.5283059],[14.0741676,49.5294521],[14.0641545,49.5413046],[14.0665887,49.5554709],[14.0762305,49.5564345],[14.061806,49.562945],[14.0389275,49.5600798],[14.0244272,49.5487659],[14.0097603,49.5512897],[14.0146544,49.5397826],[14.0062916,49.5288578],[13.9984398,49.5312449],[14.0052336,49.5226186],[13.9967549,49.5190385],[13.9857928,49.5271485],[13.9783066,49.5116808],[13.9481117,49.5173059],[13.9320273,49.501346],[13.8908553,49.5072775],[13.9011587,49.5139579],[13.8812817,49.5129376],[13.8814966,49.5227153],[13.8662227,49.5257651],[13.8419763,49.5107066],[13.8338873,49.5115111],[13.83259,49.5192738],[13.8213576,49.5273107],[13.8087936,49.515584],[13.7910884,49.5192023],[13.7842829,49.5089182],[13.7567612,49.5125561],[13.7502138,49.5051733],[13.7583232,49.4970824],[13.7473725,49.4954555],[13.7478084,49.4867383],[13.7689408,49.4827555],[13.7590225,49.4811286],[13.7688515,49.4745274],[13.7640671,49.4525994],[13.7784743,49.4369335],[13.7906206,49.4350023],[13.7633265,49.4222851],[13.7585948,49.3991305],[13.7755777,49.3814096],[13.7713734,49.3759679],[13.7915234,49.3683562],[13.7784035,49.3556445],[13.7853174,49.3587443],[13.785583,49.3518239],[13.7690665,49.3416686],[13.7700876,49.3233955],[13.7499539,49.3227684],[13.7338047,49.3078251],[13.722182,49.3105183],[13.7249439,49.2928665],[13.7360102,49.2891323],[13.7308697,49.2801664],[13.6983836,49.2786699],[13.7078854,49.2578664],[13.7334498,49.2571052],[13.7198297,49.2506052],[13.7266973,49.2436322],[13.7057119,49.2456618],[13.7100729,49.2364305],[13.6991407,49.2387596],[13.6887966,49.2282002],[13.6989357,49.2129095],[13.7152228,49.2085159],[13.7198796,49.1948603],[13.6917185,49.1871584],[13.6939427,49.1691802],[13.6844759,49.1652229],[13.6946085,49.1651834],[13.6896656,49.1598882],[13.6591063,49.1604914],[13.6601928,49.1543423],[13.6297519,49.1357261],[13.6070172,49.1471174],[13.5887654,49.1464172],[13.6004436,49.1415524],[13.5895001,49.1262712],[13.5981404,49.1087522],[13.5794073,49.1042512],[13.5985571,49.0887666],[13.5941096,49.080132],[13.6070688,49.064482],[13.5876129,49.0445877],[13.5710135,49.0509864]]]}}
