{"type":"Feature","properties":{"iso_id":"CZ-534","iso_name":"Ústí nad Orlicí District","name":"Ústí nad Orlicí District","source":"osm-overpass-cz"},"geometry":{"type":"Polygon","coordinates":[[[16.0353287,49.9590641],[16.0685805,49.9456701],[16.0739891,49.9312211],[16.0633879,49.9251206],[16.0670907,49.9101955],[16.0597809,49.9080516],[16.0670146,49.9085208],[16.0612904,49.9060228],[16.0659337,49.8946791],[16.0958693,49.8847401],[16.0707232,49.8730044],[16.1034661,49.8565583],[16.1100133,49.8435761],[16.1264892,49.8451593],[16.1211071,49.8339895],[16.1454715,49.8314636],[16.1633122,49.8469451],[16.1583494,49.8575109],[16.1435828,49.8628134],[16.1515283,49.875372],[16.1750379,49.8873932],[16.1927239,49.8811102],[16.2072914,49.8900174],[16.1998188,49.9011309],[16.2117839,49.9061926],[16.2021525,49.9173733],[16.2085174,49.921888],[16.203534,49.929908],[16.2306463,49.92223],[16.2336094,49.9291659],[16.2714747,49.9102883],[16.2812178,49.9374282],[16.3360756,49.9486013],[16.3148963,49.957085],[16.3285841,49.9650856],[16.3753594,49.9269107],[16.3741168,49.9176805],[16.4103873,49.8962109],[16.3825044,49.8998958],[16.3662124,49.8958368],[16.3695088,49.89142],[16.3954222,49.889206],[16.3939575,49.8815051],[16.4051832,49.8855875],[16.4044058,49.8786632],[16.439637,49.8501448],[16.4681577,49.8511513],[16.4787231,49.8632836],[16.4703964,49.8478592],[16.5283572,49.8535318],[16.5416027,49.8317024],[16.5364517,49.8196505],[16.5681362,49.8190803],[16.5668467,49.83476],[16.626033,49.8602553],[16.660403,49.8498114],[16.6630963,49.8549169],[16.7347077,49.8460369],[16.7415476,49.8640048],[16.7691349,49.8743075],[16.749855,49.8944607],[16.7572099,49.9006929],[16.7566918,49.9200249],[16.7459486,49.9248152],[16.7506735,49.9315606],[16.7316319,49.9509658],[16.7352324,49.9680769],[16.7119943,49.999502],[16.7433984,50.001261],[16.7486092,49.9946523],[16.768288,50.0071308],[16.7668255,50.0167232],[16.8097104,50.0312667],[16.8070411,50.0380823],[16.8187387,50.0445136],[16.8064676,50.052814],[16.8137463,50.0588125],[16.7983195,50.06929],[16.8243337,50.0854963],[16.8047013,50.1089723],[16.8257692,50.1146693],[16.8244835,50.127582],[16.832286,50.1270834],[16.8673168,50.1890074],[16.8486285,50.2076424],[16.8228522,50.1886645],[16.8122343,50.1910128],[16.7833456,50.1455978],[16.7450434,50.1347249],[16.7238796,50.1052452],[16.7035502,50.0963336],[16.6336045,50.1113384],[16.5953173,50.1404689],[16.569348,50.1386524],[16.5233534,50.1512927],[16.5057104,50.1649274],[16.4861722,50.1660196],[16.4785633,50.1633867],[16.4722328,50.1368852],[16.4518419,50.1283439],[16.4349337,50.1306709],[16.4227551,50.126139],[16.4302501,50.1208223],[16.4076467,50.1144705],[16.393819,50.1181263],[16.3749142,50.1009616],[16.352093,50.1006477],[16.3406586,50.0923665],[16.3398936,50.0857574],[16.3574269,50.0776122],[16.3332724,50.0664596],[16.3164487,50.0679475],[16.3121104,50.0608023],[16.332661,50.0403184],[16.2817915,50.0514413],[16.2825952,50.0460117],[16.2477049,50.0426415],[16.2512926,50.0526965],[16.2422784,50.0556577],[16.2304118,50.0421749],[16.2231839,50.0464029],[16.1970455,50.0383951],[16.1751023,50.0594201],[16.1464809,50.0673501],[16.1147724,50.0193393],[16.0821637,50.0347424],[16.0899313,50.0274277],[16.0812268,50.0176238],[16.0922189,50.0074354],[16.066239,50.00431],[16.0665396,49.9957111],[16.0473396,49.9915992],[16.0600492,49.9863788],[16.059514,49.9773806],[16.0413534,49.9786694],[16.046882,49.9700448],[16.0353287,49.9590641]]]}}
