{"type":"Feature","properties":{"iso_id":"CZ-533","iso_name":"Svitavy District","name":"Svitavy District","source":"osm-overpass-cz"},"geometry":{"type":"Polygon","coordinates":[[[16.0634482,49.7539571],[16.0831385,49.7442211],[16.074519,49.7290072],[16.0987205,49.7164424],[16.0693254,49.7140133],[16.0894515,49.7013568],[16.0984951,49.6853597],[16.139465,49.6913648],[16.1508803,49.6782056],[16.1940386,49.678217],[16.2056989,49.6662015],[16.2401975,49.6608148],[16.2748092,49.6401289],[16.2698125,49.6296921],[16.2871286,49.6199034],[16.3023197,49.6238168],[16.3697573,49.6024857],[16.4060963,49.5721332],[16.4203119,49.5853009],[16.4170794,49.5948994],[16.4356866,49.5985596],[16.4509882,49.5966171],[16.4459501,49.5873254],[16.4873384,49.5999683],[16.5062867,49.5907031],[16.5399902,49.5896905],[16.5484013,49.628564],[16.5554333,49.6308332],[16.603605,49.6213206],[16.6217199,49.633255],[16.6506687,49.6186666],[16.6700577,49.6231733],[16.6653031,49.6282902],[16.6965269,49.6263617],[16.7738352,49.5981029],[16.8042316,49.5988343],[16.8107758,49.6271413],[16.8219964,49.6233311],[16.8003901,49.639225],[16.8038192,49.6565314],[16.845717,49.6805898],[16.848513,49.7015285],[16.8398885,49.705815],[16.845927,49.7212602],[16.8309449,49.7295012],[16.7887554,49.7291013],[16.8130397,49.7485422],[16.7919974,49.7590268],[16.8012686,49.7727076],[16.7856756,49.7759874],[16.7611368,49.7975115],[16.7558159,49.8052276],[16.7605873,49.8182602],[16.7366806,49.8296636],[16.7353414,49.8452788],[16.7395141,49.848566],[16.7395354,49.8588216],[16.7324123,49.8457412],[16.6630963,49.8549169],[16.6653856,49.8493336],[16.660403,49.8498114],[16.626033,49.8602553],[16.5668467,49.83476],[16.5681362,49.8190803],[16.5364517,49.8196505],[16.5416027,49.8317024],[16.5283572,49.8535318],[16.4703964,49.8478592],[16.4787231,49.8632836],[16.4681577,49.8511513],[16.439637,49.8501448],[16.4044058,49.8786632],[16.4051832,49.8855875],[16.4018802,49.8862676],[16.3982084,49.8827108],[16.3939575,49.8815051],[16.3954222,49.889206],[16.3695088,49.89142],[16.3662124,49.8958368],[16.3825044,49.8998958],[16.4103873,49.8962109],[16.3741168,49.9176805],[16.3753594,49.9269107],[16.3285841,49.9650856],[16.3148963,49.957085],[16.3360756,49.9486013],[16.2812178,49.9374282],[16.2714747,49.9102883],[16.2336094,49.9291659],[16.2306463,49.92223],[16.203534,49.929908],[16.2085174,49.921888],[16.2021525,49.9173733],[16.2117839,49.9061926],[16.1998188,49.9011309],[16.2068219,49.8895016],[16.1927239,49.8811102],[16.1750379,49.8873932],[16.1444074,49.8695108],[16.1633122,49.8469451],[16.1468127,49.8390537],[16.1531431,49.8241041],[16.1453735,49.802003],[16.1540569,49.7921566],[16.1427759,49.7758442],[16.1447265,49.7611755],[16.1353598,49.752526],[16.0867662,49.7655571],[16.0634482,49.7539571]]]}}
