{"type":"Feature","properties":{"iso_id":"CZ-635","iso_name":"Žďár nad Sázavou District","name":"Žďár nad Sázavou District","source":"iso-3166-2-placeholder-circle"},"geometry":{"type":"Polygon","coordinates":[[[16.439722,49.562778],[16.430115,49.660323],[16.401662,49.754119],[16.355457,49.840563],[16.293276,49.916331],[16.217507,49.978513],[16.131064,50.024718],[16.037267,50.05317],[15.939722,50.062778],[15.842177,50.05317],[15.748381,50.024718],[15.661937,49.978513],[15.586169,49.916331],[15.523987,49.840563],[15.477782,49.754119],[15.44933,49.660323],[15.439722,49.562778],[15.44933,49.465233],[15.477782,49.371436],[15.523987,49.284993],[15.586169,49.209224],[15.661937,49.147043],[15.748381,49.100838],[15.842177,49.072385],[15.939722,49.062778],[16.037267,49.072385],[16.131064,49.100838],[16.217507,49.147043],[16.293276,49.209224],[16.355457,49.284993],[16.401662,49.371436],[16.430115,49.465233],[16.439722,49.562778]]]}}
