{"type":"Feature","properties":{"iso_id":"CZ-711","iso_name":"Jeseník District","name":"Jeseník District","source":"osm-overpass-cz"},"geometry":{"type":"Polygon","coordinates":[[[16.8603219,50.4077491],[16.9109693,50.389036],[16.9195689,50.3689674],[16.9153693,50.3629804],[16.9374824,50.3422128],[16.9344207,50.3298607],[16.9461389,50.3153884],[16.9682631,50.3159266],[16.9735269,50.3081795],[17.0022403,50.3024056],[17.0146657,50.2884613],[17.0171533,50.2681802],[17.001551,50.2563955],[17.0283129,50.2299894],[17.0147759,50.2194315],[17.021701,50.2024264],[17.032592,50.1992963],[17.0243392,50.1831377],[17.0526588,50.1707168],[17.0492739,50.1591964],[17.1162064,50.1635566],[17.1359934,50.1512707],[17.1570529,50.1198899],[17.173919,50.1188351],[17.1875764,50.1077988],[17.2203058,50.102214],[17.2439817,50.114772],[17.2493203,50.12099],[17.2406979,50.1431498],[17.2587877,50.1474664],[17.2849354,50.1730918],[17.3025473,50.1735554],[17.3087807,50.1866473],[17.3484761,50.1898919],[17.3769193,50.2229437],[17.398073,50.2091366],[17.4232801,50.2117702],[17.4311863,50.263054],[17.420671,50.2774226],[17.3661241,50.2820573],[17.3625358,50.2643286],[17.3495619,50.2640189],[17.3377348,50.283473],[17.3481961,50.2874372],[17.3536803,50.3080428],[17.3375078,50.3130628],[17.3486618,50.3283501],[17.2899263,50.3175013],[17.2478797,50.3318308],[17.2011425,50.3640162],[17.2031763,50.3865865],[17.1840374,50.3899563],[17.14333,50.3804206],[17.1235332,50.394081],[17.1111076,50.3936892],[17.1107534,50.4049625],[17.0525324,50.4069605],[16.9982906,50.4277499],[16.9740102,50.4177556],[16.907898,50.4494483],[16.8811687,50.4424399],[16.8603219,50.4077491]]]}}
