{"type":"Feature","properties":{"iso_id":"CZ-713","iso_name":"Prostějov District","name":"Prostějov District","source":"osm-overpass-cz"},"geometry":{"type":"Polygon","coordinates":[[[16.7382416,49.5426914],[16.8329476,49.5323039],[16.8065286,49.5285944],[16.8053411,49.5125661],[16.7878691,49.5098413],[16.7844321,49.4968929],[16.7918226,49.493125],[16.797999,49.4563414],[16.8180591,49.4519276],[16.8186306,49.4395855],[16.829079,49.4363907],[16.8003472,49.4288219],[16.7961666,49.4114688],[16.8071751,49.4124184],[16.8053904,49.4056886],[16.835798,49.3915656],[16.8596124,49.3812189],[16.8929793,49.4029644],[16.8935929,49.4173115],[16.9068534,49.4158667],[16.9034303,49.4223656],[16.9157329,49.4289756],[16.9075622,49.4435532],[16.8916224,49.4475786],[16.9016314,49.4563523],[16.858449,49.4795777],[16.917264,49.4997424],[16.9361956,49.4879435],[16.938116,49.4948875],[16.9481327,49.4927089],[16.9589478,49.4813874],[16.9526105,49.4750692],[16.9576477,49.4689304],[16.9750873,49.4668459],[16.969502,49.4597021],[16.9873273,49.4549967],[16.9834016,49.4356382],[16.9935851,49.4321418],[16.9877996,49.426054],[17.0149382,49.4177058],[17.0113287,49.4058287],[17.0242938,49.403591],[17.0295371,49.3932332],[17.022828,49.3714237],[17.051169,49.3653851],[17.0352672,49.35941],[17.1409395,49.3254587],[17.1360662,49.3153633],[17.1428617,49.2986175],[17.1648595,49.2702904],[17.1771343,49.2687947],[17.1785337,49.2861087],[17.1946615,49.2909323],[17.1938711,49.2972668],[17.2123362,49.2886069],[17.2288754,49.2981435],[17.2443315,49.2951817],[17.2586444,49.3065329],[17.2516807,49.3209847],[17.2378503,49.3242266],[17.2437204,49.3319752],[17.2285647,49.3343952],[17.2353738,49.3447406],[17.2307418,49.3571019],[17.2429696,49.365674],[17.2257462,49.3836208],[17.2336414,49.3943107],[17.2226648,49.4040233],[17.2277028,49.4121179],[17.2510562,49.4087496],[17.264065,49.4247945],[17.2357621,49.4395943],[17.2721808,49.4454433],[17.2467085,49.4589024],[17.2482899,49.4715418],[17.2028147,49.5186395],[17.2037197,49.5266053],[17.1886018,49.5221926],[17.1739982,49.5375331],[17.1789909,49.5432788],[17.1635958,49.5543124],[17.1333171,49.5454981],[17.1293374,49.5307444],[17.1215987,49.5300319],[17.1028521,49.5441958],[17.1017203,49.5550111],[17.0388755,49.5577733],[17.0075654,49.5942427],[17.0065319,49.606551],[16.9892361,49.605841],[16.9756738,49.6165788],[16.9795536,49.6355266],[16.9594941,49.6451197],[16.9252011,49.6397208],[16.9178344,49.6577955],[16.9237255,49.6605847],[16.9051763,49.6634395],[16.9013174,49.6515467],[16.8945471,49.662721],[16.8733246,49.6638283],[16.8604514,49.6748669],[16.8038192,49.6565314],[16.8003901,49.639225],[16.8219964,49.6233311],[16.8107758,49.6271413],[16.804742,49.5969468],[16.7883993,49.5916709],[16.8027136,49.5780362],[16.7840611,49.5725963],[16.7454345,49.5873582],[16.7426237,49.5731411],[16.7529144,49.5598532],[16.7382416,49.5426914]]]}}
