{"type":"Feature","properties":{"iso_id":"CZ-802","iso_name":"Frýdek-Místek District","name":"Frýdek-Místek District","source":"iso-3166-2-placeholder-circle"},"geometry":{"type":"Polygon","coordinates":[[[18.850556,49.685556],[18.840949,49.783101],[18.812496,49.876898],[18.766291,49.963341],[18.704109,50.039109],[18.628341,50.101291],[18.541898,50.147496],[18.448101,50.175949],[18.350556,50.185556],[18.253011,50.175949],[18.159214,50.147496],[18.072771,50.101291],[17.997003,50.039109],[17.934821,49.963341],[17.888616,49.876898],[17.860163,49.783101],[17.850556,49.685556],[17.860163,49.588011],[17.888616,49.494214],[17.934821,49.407771],[17.997003,49.332003],[18.072771,49.269821],[18.159214,49.223616],[18.253011,49.195163],[18.350556,49.185556],[18.448101,49.195163],[18.541898,49.223616],[18.628341,49.269821],[18.704109,49.332003],[18.766291,49.407771],[18.812496,49.494214],[18.840949,49.588011],[18.850556,49.685556]]]}}
