{"type":"Feature","properties":{"featurecla":"Admin-0 country","scalerank":0,"LABELRANK":5,"SOVEREIGNT":"Czechia","SOV_A3":"CZE","ADM0_DIF":0,"LEVEL":2,"TYPE":"Sovereign country","TLC":"1","ADMIN":"Czechia","ADM0_A3":"CZE","GEOU_DIF":0,"GEOUNIT":"Czechia","GU_A3":"CZE","SU_DIF":0,"SUBUNIT":"Czechia","SU_A3":"CZE","BRK_DIFF":0,"NAME":"Czechia","NAME_LONG":"Czech Republic","BRK_A3":"CZE","BRK_NAME":"Czechia","BRK_GROUP":null,"ABBREV":"Cz.","POSTAL":"CZ","FORMAL_EN":"Czech Republic","FORMAL_FR":"la République tchèque","NAME_CIAWF":"Czechia","NOTE_ADM0":null,"NOTE_BRK":null,"NAME_SORT":"Czechia","NAME_ALT":"Česko","MAPCOLOR7":1,"MAPCOLOR8":1,"MAPCOLOR9":2,"MAPCOLOR13":6,"POP_EST":10669709.0,"POP_RANK":14,"POP_YEAR":2019,"GDP_MD":250680,"GDP_YEAR":2019,"ECONOMY":"2. Developed region: nonG7","INCOME_GRP":"1. High income: OECD","FIPS_10":"EZ","ISO_A2":"CZ","ISO_A2_EH":"CZ","ISO_A3":"CZE","ISO_A3_EH":"CZE","ISO_N3":"203","ISO_N3_EH":"203","UN_A3":"203","WB_A2":"CZ","WB_A3":"CZE","WOE_ID":23424810,"WOE_ID_EH":23424810,"WOE_NOTE":"Exact WOE match as country","ADM0_ISO":"CZE","ADM0_DIFF":null,"ADM0_TLC":"CZE","ADM0_A3_US":"CZE","ADM0_A3_FR":"CZE","ADM0_A3_RU":"CZE","ADM0_A3_ES":"CZE","ADM0_A3_CN":"CZE","ADM0_A3_TW":"CZE","ADM0_A3_IN":"CZE","ADM0_A3_NP":"CZE","ADM0_A3_PK":"CZE","ADM0_A3_DE":"CZE","ADM0_A3_GB":"CZE","ADM0_A3_BR":"CZE","ADM0_A3_IL":"CZE","ADM0_A3_PS":"CZE","ADM0_A3_SA":"CZE","ADM0_A3_EG":"CZE","ADM0_A3_MA":"CZE","ADM0_A3_PT":"CZE","ADM0_A3_AR":"CZE","ADM0_A3_JP":"CZE","ADM0_A3_KO":"CZE","ADM0_A3_VN":"CZE","ADM0_A3_TR":"CZE","ADM0_A3_ID":"CZE","ADM0_A3_PL":"CZE","ADM0_A3_GR":"CZE","ADM0_A3_IT":"CZE","ADM0_A3_NL":"CZE","ADM0_A3_SE":"CZE","ADM0_A3_BD":"CZE","ADM0_A3_UA":"CZE","ADM0_A3_UN":-99,"ADM0_A3_WB":-99,"CONTINENT":"Europe","REGION_UN":"Europe","SUBREGION":"Eastern Europe","REGION_WB":"Europe & Central Asia","NAME_LEN":7,"LONG_LEN":14,"ABBREV_LEN":3,"TINY":-99,"HOMEPART":1,"MIN_ZOOM":0.0,"MIN_LABEL":4.0,"MAX_LABEL":9.0,"LABEL_X":15.377555,"LABEL_Y":49.882364,"NE_ID":1159320535,"WIKIDATAID":"Q213","NAME_AR":"التشيك","NAME_BN":"চেক প্রজাতন্ত্র","NAME_DE":"Tschechien","NAME_EN":"Czech Republic","NAME_ES":"República Checa","NAME_FA":"جمهوری چک","NAME_FR":"Tchéquie","NAME_EL":"Τσεχία","NAME_HE":"צ'כיה","NAME_HI":"चेक गणराज्य","NAME_HU":"Csehország","NAME_ID":"Republik Ceko","NAME_IT":"Repubblica Ceca","NAME_JA":"チェコ","NAME_KO":"체코","NAME_NL":"Tsjechië","NAME_PL":"Czechy","NAME_PT":"Chéquia","NAME_RU":"Чехия","NAME_SV":"Tjeckien","NAME_TR":"Çek Cumhuriyeti","NAME_UK":"Чехія","NAME_UR":"چیک جمہوریہ","NAME_VI":"Cộng hòa Séc","NAME_ZH":"捷克","NAME_ZHT":"捷克共和國","FCLASS_ISO":"Admin-0 country","TLC_DIFF":null,"FCLASS_TLC":"Admin-0 country","FCLASS_US":null,"FCLASS_FR":null,"FCLASS_RU":null,"FCLASS_ES":null,"FCLASS_CN":null,"FCLASS_TW":null,"FCLASS_IN":null,"FCLASS_NP":null,"FCLASS_PK":null,"FCLASS_DE":null,"FCLASS_GB":null,"FCLASS_BR":null,"FCLASS_IL":null,"FCLASS_PS":null,"FCLASS_SA":null,"FCLASS_EG":null,"FCLASS_MA":null,"FCLASS_PT":null,"FCLASS_AR":null,"FCLASS_JP":null,"FCLASS_KO":null,"FCLASS_VN":null,"FCLASS_TR":null,"FCLASS_ID":null,"FCLASS_PL":null,"FCLASS_GR":null,"FCLASS_IT":null,"FCLASS_NL":null,"FCLASS_SE":null,"FCLASS_BD":null,"FCLASS_UA":null,"iso_id":"CZ","iso_name":"Czech Republic","name":"Czech Republic","source":"iso-3166-1-countries"},"geometry":{"type":"Polygon","coordinates":[[[14.810393,50.858447],[14.785071,50.820052],[14.759233,50.810181],[14.700425,50.815969],[14.647922,50.839379],[14.613195,50.84558],[14.611852,50.870953],[14.634589,50.9094],[14.629215,50.920717],[14.561829,50.906351],[14.550357,50.912087],[14.575575,50.95069],[14.574335,50.975494],[14.542295,50.998749],[14.502918,51.008516],[14.482144,51.037196],[14.462094,51.019652],[14.397808,51.013115],[14.375897,51.01699],[14.35657,51.032338],[14.319363,51.040012],[14.287531,51.036834],[14.263553,51.021435],[14.238335,50.982471],[14.303757,50.969707],[14.293732,50.96397],[14.292802,50.95348],[14.31833,50.937512],[14.381892,50.920872],[14.375897,50.895964],[14.346545,50.880203],[14.232133,50.879376],[14.190792,50.847905],[14.034936,50.802585],[13.959592,50.802068],[13.923315,50.779951],[13.892516,50.780416],[13.87908,50.763518],[13.882181,50.742744],[13.834535,50.723675],[13.556567,50.706725],[13.51564,50.691016],[13.527215,50.675668],[13.523288,50.66218],[13.493315,50.643215],[13.498173,50.629159],[13.447944,50.597274],[13.407016,50.601305],[13.368775,50.628332],[13.321853,50.60239],[13.305627,50.575777],[13.284646,50.568956],[13.232349,50.58203],[13.19907,50.525341],[13.160106,50.497022],[13.009624,50.492681],[12.996602,50.433667],[12.952573,50.40416],[12.918363,50.4054],[12.817388,50.44302],[12.737909,50.431548],[12.691814,50.394651],[12.625358,50.399922],[12.510223,50.38876],[12.475083,50.369433],[12.466815,50.34189],[12.398189,50.315173],[12.367183,50.279051],[12.336487,50.258587],[12.3338,50.242722],[12.308685,50.217091],[12.305584,50.199314],[12.314369,50.167327],[12.300417,50.160815],[12.283363,50.162211],[12.273235,50.172339],[12.254321,50.217401],[12.22993,50.234816],[12.242436,50.248355],[12.239645,50.256572],[12.178047,50.268767],[12.168538,50.302977],[12.149315,50.311711],[12.076141,50.315173],[12.10725,50.290885],[12.110971,50.276622],[12.109111,50.263806],[12.079552,50.242722],[12.089887,50.230837],[12.13929,50.211045],[12.17505,50.182623],[12.185592,50.155699],[12.179184,50.117976],[12.187865,50.102834],[12.232514,50.08051],[12.24688,50.044957],[12.414518,49.983048],[12.451312,49.980568],[12.468158,49.970233],[12.462681,49.931269],[12.524072,49.904965],[12.51291,49.870239],[12.482524,49.827244],[12.462474,49.831223],[12.452655,49.779702],[12.395398,49.757894],[12.383616,49.742856],[12.419583,49.700223],[12.496374,49.669993],[12.504642,49.659399],[12.496891,49.633871],[12.507432,49.629995],[12.501955,49.619711],[12.546603,49.595579],[12.562313,49.550827],[12.58288,49.522405],[12.622981,49.509847],[12.627218,49.460186],[12.643548,49.42949],[12.729331,49.391147],[12.762094,49.343242],[12.777907,49.332545],[12.856662,49.32221],[12.875369,49.323864],[12.870925,49.336731],[12.88467,49.339573],[12.939861,49.326758],[12.999806,49.294925],[13.011278,49.267795],[13.055823,49.238184],[13.14946,49.15483],[13.178503,49.118347],[13.206821,49.107495],[13.267283,49.105634],[13.299529,49.093645],[13.372393,49.038507],[13.383555,49.021092],[13.384175,48.993031],[13.427273,48.959958],[13.482257,48.937634],[13.5021,48.966056],[13.51595,48.970242],[13.590467,48.944817],[13.608657,48.946161],[13.611138,48.927247],[13.637389,48.893451],[13.673356,48.876346],[13.724671,48.867303],[13.796191,48.779814],[13.815725,48.76643],[13.874946,48.752426],[13.991115,48.700181],[14.014162,48.675066],[14.032146,48.667263],[14.032869,48.654912],[14.006204,48.639513],[14.015196,48.620393],[14.040827,48.601169],[14.07483,48.591712],[14.216527,48.58117],[14.315746,48.557916],[14.405353,48.586286],[14.421166,48.597061],[14.443593,48.636516],[14.458166,48.643182],[14.482144,48.624475],[14.53382,48.608714],[14.594179,48.621323],[14.605134,48.600316],[14.634693,48.602332],[14.659187,48.576959],[14.675621,48.576235],[14.695671,48.589542],[14.703836,48.673103],[14.722749,48.693411],[14.775356,48.724004],[14.800367,48.776507],[14.86765,48.775577],[14.939584,48.762813],[14.951056,48.780331],[14.938137,48.80281],[14.968213,48.885028],[14.964595,48.971741],[14.978858,49.00626],[15.003973,49.009774],[15.059576,48.997217],[15.137401,48.993031],[15.148977,48.965333],[15.141949,48.937479],[15.238067,48.95076],[15.257084,48.963886],[15.266902,48.986675],[15.27455,48.986727],[15.28871,48.975358],[15.357853,48.97081],[15.450354,48.944817],[15.521254,48.908489],[15.681347,48.858466],[15.726823,48.854952],[15.779222,48.870868],[15.818497,48.872315],[15.833276,48.852006],[15.885986,48.842033],[15.875754,48.833093],[15.899629,48.834746],[15.908103,48.819709],[15.930324,48.818313],[15.931771,48.806428],[16.032334,48.758059],[16.085354,48.742866],[16.177751,48.746535],[16.339498,48.735579],[16.358309,48.727259],[16.384974,48.737078],[16.43572,48.794542],[16.453083,48.80219],[16.519539,48.805601],[16.643149,48.778264],[16.661959,48.740023],[16.675085,48.733926],[16.729035,48.733099],[16.798902,48.709224],[16.873006,48.718991],[16.896674,48.696977],[16.910523,48.63078],[16.945043,48.604166],[16.947523,48.623157],[16.974808,48.649874],[17.025348,48.746328],[17.049946,48.774027],[17.098728,48.805756],[17.113715,48.83392],[17.167458,48.859758],[17.21221,48.866062],[17.260269,48.857794],[17.374371,48.819605],[17.453332,48.842756],[17.498497,48.816763],[17.535084,48.812991],[17.727217,48.86291],[17.795533,48.920581],[17.860336,48.921718],[17.878733,48.933552],[17.914079,49.010498],[17.959244,49.021867],[18.012885,49.019128],[18.075516,49.047188],[18.09629,49.070288],[18.102905,49.09225],[18.105075,49.169765],[18.117788,49.202579],[18.160576,49.2587],[18.190031,49.276942],[18.324597,49.311255],[18.385162,49.342261],[18.387642,49.389751],[18.416788,49.385462],[18.481797,49.429077],[18.514663,49.440601],[18.527995,49.454864],[18.535643,49.481684],[18.556211,49.490159],[18.600446,49.485973],[18.635896,49.496721],[18.704522,49.479255],[18.732531,49.480288],[18.773562,49.504886],[18.833196,49.510261],[18.83454,49.547623],[18.788444,49.668597],[18.773458,49.675832],[18.727673,49.668907],[18.682404,49.695779],[18.637343,49.700327],[18.617706,49.713866],[18.60768,49.74296],[18.566753,49.804765],[18.566339,49.831585],[18.593831,49.852204],[18.567269,49.861454],[18.559208,49.907187],[18.544428,49.912975],[18.505051,49.896697],[18.481797,49.896645],[18.368832,49.932044],[18.328524,49.92884],[18.334932,49.925429],[18.292454,49.907808],[18.27261,49.918298],[18.255867,49.946048],[18.208738,49.958295],[18.162023,49.98124],[18.098151,49.989043],[18.085128,49.998758],[18.091639,50.017207],[18.002446,50.046765],[18.00689,50.024131],[18.028698,50.024131],[18.035726,50.017207],[18.032418,50.00284],[17.941571,49.992764],[17.912116,49.975814],[17.875735,49.968682],[17.839355,49.973643],[17.763287,50.025216],[17.74303,50.060563],[17.719466,50.080872],[17.731971,50.094876],[17.677608,50.107744],[17.648359,50.101801],[17.632753,50.106348],[17.584177,50.145881],[17.589448,50.163244],[17.675334,50.174716],[17.738173,50.202363],[17.747578,50.217504],[17.719156,50.252799],[17.734452,50.28949],[17.707994,50.311039],[17.684533,50.312382],[17.676368,50.297396],[17.629549,50.262101],[17.469352,50.265563],[17.44,50.242722],[17.424187,50.240552],[17.409821,50.261326],[17.388013,50.272643],[17.365896,50.271558],[17.355044,50.253264],[17.341711,50.259724],[17.334063,50.295691],[17.319077,50.308248],[17.337474,50.313002],[17.24611,50.322149],[17.210866,50.336412],[17.195053,50.351915],[17.187612,50.378476],[17.131698,50.376823],[17.084672,50.397958],[16.958789,50.414598],[16.892953,50.432943],[16.865771,50.422401],[16.865874,50.408449],[16.897914,50.378218],[16.926543,50.319255],[16.987831,50.284942],[17.014806,50.218486],[17.008398,50.20996],[16.996306,50.212905],[16.98101,50.229183],[16.960339,50.231974],[16.955275,50.213474],[16.918998,50.217091],[16.880964,50.191563],[16.817712,50.186757],[16.701233,50.094928],[16.660616,50.093016],[16.618654,50.10702],[16.566668,50.142212],[16.535042,50.207738],[16.50476,50.227995],[16.437787,50.297965],[16.371021,50.318377],[16.353244,50.333518],[16.343736,50.36995],[16.288649,50.371862],[16.2625,50.36442],[16.24493,50.376823],[16.232011,50.402609],[16.199559,50.406278],[16.190153,50.424158],[16.198008,50.440023],[16.217955,50.437129],[16.211237,50.451289],[16.264981,50.471649],[16.287719,50.492785],[16.352624,50.492785],[16.391175,50.521827],[16.394482,50.559344],[16.425901,50.567561],[16.416806,50.586629],[16.331644,50.644042],[16.300948,50.6551],[16.232011,50.660888],[16.219092,50.659131],[16.192324,50.626575],[16.175477,50.624095],[16.128658,50.644042],[16.086491,50.64678],[16.024479,50.608592],[15.982001,50.603631],[15.980037,50.612984],[15.996367,50.623681],[15.998641,50.635567],[15.971459,50.678613],[15.941486,50.68838],[15.882265,50.674221],[15.848159,50.675151],[15.792245,50.742692],[15.684345,50.731426],[15.641866,50.755766],[15.441775,50.800208],[15.400124,50.797986],[15.370255,50.772613],[15.356096,50.775455],[15.349688,50.783723],[15.352995,50.812972],[15.341006,50.83173],[15.28778,50.854881],[15.25605,50.899892],[15.253053,50.914103],[15.269796,50.952653],[15.253776,50.969035],[15.227111,50.977406],[15.170164,50.977975],[15.156108,51.007844],[15.144429,51.011564],[15.13151,51.005828],[15.119211,50.982471],[15.107946,50.981024],[15.073632,51.002624],[15.02299,51.009652],[15.003973,51.020685],[14.996531,51.007844],[14.960978,50.992651],[14.965215,50.981334],[14.996635,50.959216],[14.997771,50.930174],[14.981132,50.90909],[14.982062,50.859067],[14.867857,50.86439],[14.810393,50.858447]]]}}
