{"type":"Feature","properties":{"featurecla":"Admin-1 states provinces","scalerank":8,"adm1_code":"DJI-1570","diss_me":1570,"iso_3166_2":"DJ-OB","wikipedia":null,"iso_a2":"DJ","adm0_sr":1,"name":"Obock","name_alt":null,"name_local":null,"type":"Region","type_en":"Region","code_local":null,"code_hasc":"DJ.OB","note":null,"hasc_maybe":null,"region":null,"region_cod":null,"provnum_ne":2,"gadm_level":1,"check_me":10,"datarank":8,"abbrev":null,"postal":"OB","area_sqkm":0,"sameascity":7,"labelrank":7,"name_len":5,"mapcolor9":4,"mapcolor13":8,"fips":"DJ04","fips_alt":"GM15","woe_id":2345159,"woe_label":"Obock, DJ, Djibouti","woe_name":"Obock","latitude":12.2842,"longitude":43.0464,"sov_a3":"DJI","adm0_a3":"DJI","adm0_label":5,"admin":"Djibouti","geonunit":"Djibouti","gu_a3":"DJI","gn_id":221525,"gn_name":"Obock","gns_id":-2036713,"gns_name":"Obock","gn_level":1,"gn_region":null,"gn_a1_code":"DJ.04","region_sub":null,"sub_code":null,"gns_level":1,"gns_lang":"fra","gns_adm1":"DJ04","gns_region":null,"min_label":9.0,"max_label":11.0,"min_zoom":9.0,"wikidataid":"Q844929","name_ar":"إقليم أوبوك","name_bn":"ওবাক অঞ্চল","name_de":"Obock","name_en":"Obock","name_es":"Obock","name_fr":"Obock","name_el":"Περιφέρεια Ομπόκ","name_hi":"ओबॉक क्षेत्र","name_hu":"Obock","name_id":"Wilayah Obock","name_it":"Obock","name_ja":"オボック州","name_ko":"오보크","name_nl":"Obock","name_pl":"Obock","name_pt":"de Obock","name_ru":"Обок","name_sv":"Obock","name_tr":"Obuk Bölgesi","name_vi":"Khu vực Obock","name_zh":"奥博克州","ne_id":1159310203,"name_he":"מחוז אובוק","name_uk":"Обок","name_ur":"اوبوک علاقہ","name_fa":"منطقه اوبوک","name_zht":"奧博克州","FCLASS_ISO":null,"FCLASS_US":null,"FCLASS_FR":null,"FCLASS_RU":null,"FCLASS_ES":null,"FCLASS_CN":null,"FCLASS_TW":null,"FCLASS_IN":null,"FCLASS_NP":null,"FCLASS_PK":null,"FCLASS_DE":null,"FCLASS_GB":null,"FCLASS_BR":null,"FCLASS_IL":null,"FCLASS_PS":null,"FCLASS_SA":null,"FCLASS_EG":null,"FCLASS_MA":null,"FCLASS_PT":null,"FCLASS_AR":null,"FCLASS_JP":null,"FCLASS_KO":null,"FCLASS_VN":null,"FCLASS_TR":null,"FCLASS_ID":null,"FCLASS_PL":null,"FCLASS_GR":null,"FCLASS_IT":null,"FCLASS_NL":null,"FCLASS_SE":null,"FCLASS_BD":null,"FCLASS_UA":null,"FCLASS_TLC":null,"iso_id":"DJ-OB","iso_name":"Obock"},"geometry":{"type":"Polygon","coordinates":[[[42.890126,12.615407],[42.877723,12.62507],[42.868835,12.626155],[42.852092,12.611738],[42.828838,12.557633],[42.785223,12.517222],[42.788737,12.487456],[42.798038,12.456088],[42.792251,12.429165],[42.779745,12.422602],[42.749876,12.417073],[42.741401,12.408081],[42.727758,12.388806],[42.696187,12.380126],[42.698614,12.363948],[42.69572,12.344001],[42.682336,12.332994],[42.678615,12.327956],[42.673964,12.314365],[42.674274,12.306639],[42.6766,12.298965],[42.700061,12.251914],[42.712773,12.236437],[42.762434,12.194501],[42.781968,12.184683],[42.807548,12.177732],[43.013943,11.952578],[43.025571,11.934595],[43.053838,11.874831],[43.062209,11.862429],[43.086002,11.838842],[43.097179,11.84455],[43.174001,11.935004],[43.206554,11.957831],[43.225434,11.962877],[43.268403,11.963813],[43.288341,11.967434],[43.315684,11.981106],[43.350434,11.987942],[43.377126,12.004828],[43.398774,12.029527],[43.413341,12.059272],[43.418712,12.091254],[43.411388,12.166653],[43.414317,12.224921],[43.411388,12.241767],[43.374034,12.292955],[43.367849,12.306871],[43.364757,12.327135],[43.363536,12.365302],[43.360525,12.383002],[43.336192,12.419908],[43.331228,12.436713],[43.329356,12.453559],[43.329356,12.488756],[43.312999,12.477688],[43.297374,12.482001],[43.283214,12.496527],[43.259613,12.533352],[43.161794,12.642727],[43.151134,12.659735],[43.143321,12.679511],[43.133962,12.697211],[43.117686,12.707913],[42.900358,12.616389],[42.890126,12.615407]]]}}
