{"type":"Feature","properties":{"featurecla":"Admin-1 states provinces","scalerank":6,"adm1_code":"DZA-2197","diss_me":2197,"iso_3166_2":"DZ-15","wikipedia":null,"iso_a2":"DZ","adm0_sr":1,"name":"Tizi Ouzou","name_alt":"Tizi-ouzou|Tizi Wezzu","name_local":"ولاية غليزان","type":"Wilaya","type_en":"Province","code_local":null,"code_hasc":"DZ.TO","note":null,"hasc_maybe":null,"region":null,"region_cod":null,"provnum_ne":5,"gadm_level":1,"check_me":0,"datarank":5,"abbrev":null,"postal":"TO","area_sqkm":0,"sameascity":7,"labelrank":7,"name_len":10,"mapcolor9":6,"mapcolor13":3,"fips":"AG14","fips_alt":null,"woe_id":2344588,"woe_label":"Tizi Ouzou, DZ, Algeria","woe_name":"Tizi Ouzou","latitude":36.6814,"longitude":4.19086,"sov_a3":"DZA","adm0_a3":"DZA","adm0_label":2,"admin":"Algeria","geonunit":"Algeria","gu_a3":"DZA","gn_id":2475741,"gn_name":"Wilaya de Tizi Ouzou","gns_id":-490236,"gns_name":"Tizi Ouzou","gn_level":1,"gn_region":null,"gn_a1_code":"DZ.14","region_sub":null,"sub_code":null,"gns_level":1,"gns_lang":"fra","gns_adm1":"AG14","gns_region":"7","min_label":7.7,"max_label":11.0,"min_zoom":7.7,"wikidataid":"Q233645","name_ar":"ولاية تيزي وزو","name_bn":"তিজি ওউজু প্রদেশ","name_de":"Tizi Ouzou","name_en":"Tizi Ouzou","name_es":"Tizi Ouzou","name_fr":"Tizi Ouzou","name_el":"Επαρχία Τιζί Ουζού","name_hi":"तिज़ि ओउज़ोउ प्रांत","name_hu":"Tizi Ouzou","name_id":"Tizi Ouzou","name_it":"Tizi Ouzou","name_ja":"ティジ・ウズー県","name_ko":"티지우주","name_nl":"Tizi Ouzou","name_pl":"Prowincja Tizi Wuzu","name_pt":"Tizi Ouzou","name_ru":"Тизи-Узу","name_sv":"Tizi Ouzou","name_tr":"Tizi Vuzu Vilayeti","name_vi":"Tizi Ouzou","name_zh":"提济乌祖省","ne_id":1159311929,"name_he":"טיזי אוזו","name_uk":"Тізі-Узу","name_ur":"صوبہ تیزی وزو","name_fa":"استان تیزی وزو","name_zht":"提濟烏祖省","FCLASS_ISO":null,"FCLASS_US":null,"FCLASS_FR":null,"FCLASS_RU":null,"FCLASS_ES":null,"FCLASS_CN":null,"FCLASS_TW":null,"FCLASS_IN":null,"FCLASS_NP":null,"FCLASS_PK":null,"FCLASS_DE":null,"FCLASS_GB":null,"FCLASS_BR":null,"FCLASS_IL":null,"FCLASS_PS":null,"FCLASS_SA":null,"FCLASS_EG":null,"FCLASS_MA":null,"FCLASS_PT":null,"FCLASS_AR":null,"FCLASS_JP":null,"FCLASS_KO":null,"FCLASS_VN":null,"FCLASS_TR":null,"FCLASS_ID":null,"FCLASS_PL":null,"FCLASS_GR":null,"FCLASS_IT":null,"FCLASS_NL":null,"FCLASS_SE":null,"FCLASS_BD":null,"FCLASS_UA":null,"FCLASS_TLC":null,"iso_id":"DZ-15","iso_name":"Tizi Ouzou","source":"iso-3166-2-subdivisions"},"geometry":{"type":"Polygon","coordinates":[[[4.039463,36.89692],[4.037614,36.863125],[4.025987,36.835995],[3.97214,36.781476],[3.932556,36.768996],[3.933176,36.753881],[3.965009,36.712126],[3.932246,36.679519],[3.908837,36.667323],[3.836386,36.677865],[3.813855,36.648694],[3.795407,36.647763],[3.778974,36.66107],[3.760629,36.661303],[3.744661,36.656264],[3.735514,36.640761],[3.733654,36.607611],[3.761869,36.567794],[3.888786,36.488522],[3.936122,36.474415],[4.186287,36.46625],[4.234088,36.480642],[4.291191,36.470203],[4.351084,36.478006],[4.370927,36.472658],[4.426635,36.488522],[4.453661,36.501545],[4.528127,36.568543],[4.592051,36.661613],[4.599492,36.688252],[4.587245,36.702385],[4.548281,36.717346],[4.540839,36.731789],[4.544095,36.744424],[4.578563,36.759617],[4.624659,36.748972],[4.634736,36.753674],[4.646518,36.785171],[4.646673,36.804136],[4.601508,36.861368],[4.591482,36.89525],[4.550548,36.883734],[4.50408,36.889309],[4.440684,36.911607],[4.320323,36.898017],[4.261974,36.911607],[4.21046,36.891181],[4.159516,36.904202],[4.104828,36.883734],[4.039463,36.89692]]]}}
