{"type":"Feature","properties":{"iso_id":"DZ-52","iso_name":"Beni Abbes Province","name":"Beni Abbes Province","source":"iso-3166-2-placeholder-circle"},"geometry":{"type":"Polygon","coordinates":[[[-2.25,29.5],[-2.259607,29.597545],[-2.28806,29.691342],[-2.334265,29.777785],[-2.396447,29.853553],[-2.472215,29.915735],[-2.558658,29.96194],[-2.652455,29.990393],[-2.75,30.0],[-2.847545,29.990393],[-2.941342,29.96194],[-3.027785,29.915735],[-3.103553,29.853553],[-3.165735,29.777785],[-3.21194,29.691342],[-3.240393,29.597545],[-3.25,29.5],[-3.240393,29.402455],[-3.21194,29.308658],[-3.165735,29.222215],[-3.103553,29.146447],[-3.027785,29.084265],[-2.941342,29.03806],[-2.847545,29.009607],[-2.75,29.0],[-2.652455,29.009607],[-2.558658,29.03806],[-2.472215,29.084265],[-2.396447,29.146447],[-2.334265,29.222215],[-2.28806,29.308658],[-2.259607,29.402455],[-2.25,29.5]]]}}
