{"type":"Feature","properties":{"iso_id":"EE-442","iso_name":"Lüganuse Rural Municipality","name":"Lüganuse Rural Municipality","source":"iso-3166-2-placeholder-circle"},"geometry":{"type":"Polygon","coordinates":[[[27.533333,59.383333],[27.523726,59.480878],[27.495273,59.574675],[27.449068,59.661118],[27.386886,59.736886],[27.311118,59.799068],[27.224675,59.845273],[27.130878,59.873726],[27.033333,59.883333],[26.935788,59.873726],[26.841991,59.845273],[26.755548,59.799068],[26.67978,59.736886],[26.617598,59.661118],[26.571393,59.574675],[26.54294,59.480878],[26.533333,59.383333],[26.54294,59.285788],[26.571393,59.191991],[26.617598,59.105548],[26.67978,59.02978],[26.755548,58.967598],[26.841991,58.921393],[26.935788,58.89294],[27.033333,58.883333],[27.130878,58.89294],[27.224675,58.921393],[27.311118,58.967598],[27.386886,59.02978],[27.449068,59.105548],[27.495273,59.191991],[27.523726,59.285788],[27.533333,59.383333]]]}}
