{"type":"Feature","properties":{"iso_id":"EE-431","iso_name":"Lääne-Harju Rural Municipality","name":"Lääne-Harju Rural Municipality","source":"iso-3166-2-placeholder-circle"},"geometry":{"type":"Polygon","coordinates":[[[24.7,59.316667],[24.690393,59.414212],[24.66194,59.508009],[24.615735,59.594452],[24.553553,59.67022],[24.477785,59.732402],[24.391342,59.778607],[24.297545,59.80706],[24.2,59.816667],[24.102455,59.80706],[24.008658,59.778607],[23.922215,59.732402],[23.846447,59.67022],[23.784265,59.594452],[23.73806,59.508009],[23.709607,59.414212],[23.7,59.316667],[23.709607,59.219122],[23.73806,59.125325],[23.784265,59.038882],[23.846447,58.963114],[23.922215,58.900932],[24.008658,58.854727],[24.102455,58.826274],[24.2,58.816667],[24.297545,58.826274],[24.391342,58.854727],[24.477785,58.900932],[24.553553,58.963114],[24.615735,59.038882],[24.66194,59.125325],[24.690393,59.219122],[24.7,59.316667]]]}}
