{"type":"Feature","properties":{"featurecla":"Admin-1 states provinces","scalerank":6,"adm1_code":"EGY-1549","diss_me":1549,"iso_3166_2":"EG-AST","wikipedia":null,"iso_a2":"EG","adm0_sr":1,"name":"Asyut","name_alt":"Asyiut|Assiout|Assiut|Assyut|Asyout","name_local":null,"type":"Muhafazah","type_en":"Governorate","code_local":null,"code_hasc":"EG.AT","note":null,"hasc_maybe":null,"region":null,"region_cod":null,"provnum_ne":23,"gadm_level":1,"check_me":20,"datarank":3,"abbrev":null,"postal":"AT","area_sqkm":0,"sameascity":7,"labelrank":7,"name_len":5,"mapcolor9":7,"mapcolor13":2,"fips":"EG17","fips_alt":null,"woe_id":2345239,"woe_label":"Asyut, EG, Egypt","woe_name":"Asyut","latitude":27.2223,"longitude":31.1431,"sov_a3":"EGY","adm0_a3":"EGY","adm0_label":2,"admin":"Egypt","geonunit":"Egypt","gu_a3":"EGY","gn_id":359781,"gn_name":"Muhafazat Asyut","gns_id":-291546,"gns_name":"Asyut, Muhafazat","gn_level":1,"gn_region":null,"gn_a1_code":"EG.17","region_sub":null,"sub_code":null,"gns_level":1,"gns_lang":"ara","gns_adm1":"EG17","gns_region":"7","min_label":7.7,"max_label":11.0,"min_zoom":7.7,"wikidataid":"Q29965","name_ar":"محافظة أسيوط","name_bn":"আসুত গভর্নোরেট","name_de":"Asyut","name_en":"Asyut","name_es":"Asiut","name_fr":"Assiout","name_el":"Κυβερνείο Ασιούτ","name_hi":"असयूत मुहाफ़ज़ाह","name_hu":"Aszjút","name_id":"Asyut","name_it":"Asyut","name_ja":"アシュート県","name_ko":"아시우트","name_nl":"Assioet","name_pl":"Asjut","name_pt":"Assiut","name_ru":"Асьют","name_sv":"Asyut","name_tr":"Asyut","name_vi":"Tỉnh Asyut","name_zh":"艾斯尤特省","ne_id":1159310487,"name_he":"מחוז אסיוט","name_uk":"Асьют","name_ur":"محافظہ اسیوط","name_fa":"استان اسیوط","name_zht":"艾斯尤特省","FCLASS_ISO":null,"FCLASS_US":null,"FCLASS_FR":null,"FCLASS_RU":null,"FCLASS_ES":null,"FCLASS_CN":null,"FCLASS_TW":null,"FCLASS_IN":null,"FCLASS_NP":null,"FCLASS_PK":null,"FCLASS_DE":null,"FCLASS_GB":null,"FCLASS_BR":null,"FCLASS_IL":null,"FCLASS_PS":null,"FCLASS_SA":null,"FCLASS_EG":null,"FCLASS_MA":null,"FCLASS_PT":null,"FCLASS_AR":null,"FCLASS_JP":null,"FCLASS_KO":null,"FCLASS_VN":null,"FCLASS_TR":null,"FCLASS_ID":null,"FCLASS_PL":null,"FCLASS_GR":null,"FCLASS_IT":null,"FCLASS_NL":null,"FCLASS_SE":null,"FCLASS_BD":null,"FCLASS_UA":null,"FCLASS_TLC":null,"iso_id":"EG-AST","iso_name":"Asyut"},"geometry":{"type":"Polygon","coordinates":[[[30.671234,27.634024],[30.667203,27.595396],[30.670304,27.568085],[30.681001,27.536588],[30.773657,27.360087],[30.790865,27.337453],[30.806523,27.320348],[30.939383,27.208986],[30.987959,27.18338],[31.080408,27.149506],[31.115341,27.125606],[31.162057,27.079794],[31.174304,27.06424],[31.299981,26.83738],[31.393102,26.882468],[31.413721,26.898901],[31.437027,26.929623],[31.444779,26.936392],[31.45098,26.939803],[31.461987,26.940113],[31.474699,26.935307],[31.500176,26.91182],[31.507462,26.900503],[31.523275,26.868722],[31.531492,26.856578],[31.54131,26.845752],[31.552782,26.837225],[31.578982,26.828776],[31.619032,26.833194],[31.512113,27.033027],[31.489014,27.067805],[31.474854,27.083257],[31.412171,27.140824],[31.370726,27.171933],[31.347782,27.184413],[31.340651,27.190485],[31.333209,27.199322],[31.325458,27.214076],[31.309593,27.254564],[31.300601,27.268982],[31.288354,27.283374],[31.26634,27.301073],[31.236678,27.31717],[31.173374,27.334792],[31.071882,27.373187],[30.984238,27.418353],[30.974471,27.426156],[30.965583,27.436465],[30.952096,27.460934],[30.939228,27.502482],[30.937678,27.531782],[30.941244,27.620149],[30.83448,27.608703],[30.823938,27.610408],[30.76544,27.630924],[30.749266,27.6302],[30.71733,27.623921],[30.698416,27.623611],[30.671234,27.634024]]]}}
