{"type":"Feature","properties":{"featurecla":"Admin-1 states provinces","scalerank":6,"adm1_code":"EGY-1536","diss_me":1536,"iso_3166_2":"EG-SUZ","wikipedia":null,"iso_a2":"EG","adm0_sr":1,"name":"Suez","name_alt":"El Suweiz|Es Suweis|Suez","name_local":null,"type":"Muhafazah","type_en":"Governorate","code_local":null,"code_hasc":"EG.SW","note":null,"hasc_maybe":null,"region":null,"region_cod":null,"provnum_ne":13,"gadm_level":1,"check_me":20,"datarank":3,"abbrev":null,"postal":"SW","area_sqkm":0,"sameascity":9,"labelrank":9,"name_len":9,"mapcolor9":7,"mapcolor13":2,"fips":"EG15","fips_alt":null,"woe_id":2345237,"woe_label":"As Suways, EG, Egypt","woe_name":"As Suways","latitude":29.6098,"longitude":32.1523,"sov_a3":"EGY","adm0_a3":"EGY","adm0_label":2,"admin":"Egypt","geonunit":"Egypt","gu_a3":"EGY","gn_id":359797,"gn_name":"Muhafazat as Suways","gns_id":-291530,"gns_name":"Suways, Muhafazat as","gn_level":1,"gn_region":null,"gn_a1_code":"EG.15","region_sub":null,"sub_code":null,"gns_level":1,"gns_lang":"ara","gns_adm1":"EG15","gns_region":"7","min_label":7.7,"max_label":11.0,"min_zoom":7.7,"wikidataid":"Q31070","name_ar":"محافظة السويس","name_bn":"সুয়েজ গভর্নোরেট","name_de":"as-Suwais","name_en":"Suez","name_es":"Suez","name_fr":"Suez","name_el":"Κυβερνείο Σουέζ","name_hi":"सुएज़ मुहाफ़ज़ाह","name_hu":"As-Suways","name_id":"As Suways","name_it":"Suez","name_ja":"スエズ県","name_ko":"수에즈","name_nl":"Suez","name_pl":"Suez","name_pt":"Suez","name_ru":"Суэц","name_sv":"Suez","name_tr":"Süveyş","name_vi":"Tỉnh Suez","name_zh":"苏伊士省","ne_id":1159310459,"name_he":"סואץ","name_uk":"Суец","name_ur":"محافظہ سوئیز","name_fa":"استان سوئز","name_zht":"蘇伊士省","FCLASS_ISO":null,"FCLASS_US":null,"FCLASS_FR":null,"FCLASS_RU":null,"FCLASS_ES":null,"FCLASS_CN":null,"FCLASS_TW":null,"FCLASS_IN":null,"FCLASS_NP":null,"FCLASS_PK":null,"FCLASS_DE":null,"FCLASS_GB":null,"FCLASS_BR":null,"FCLASS_IL":null,"FCLASS_PS":null,"FCLASS_SA":null,"FCLASS_EG":null,"FCLASS_MA":null,"FCLASS_PT":null,"FCLASS_AR":null,"FCLASS_JP":null,"FCLASS_KO":null,"FCLASS_VN":null,"FCLASS_TR":null,"FCLASS_ID":null,"FCLASS_PL":null,"FCLASS_GR":null,"FCLASS_IT":null,"FCLASS_NL":null,"FCLASS_SE":null,"FCLASS_BD":null,"FCLASS_UA":null,"FCLASS_TLC":null,"iso_id":"EG-SUZ","iso_name":"Suez","source":"iso-3166-2-subdivisions"},"geometry":{"type":"Polygon","coordinates":[[[32.651775,29.790019],[32.854822,29.913756],[32.829862,29.957577],[32.817563,30.161105],[32.79865,30.254045],[32.577371,30.263269],[32.537477,30.251177],[32.497944,30.219008],[32.459135,30.203764],[32.377177,30.215339],[32.334078,30.237121],[32.247624,30.242961],[31.887336,30.232367],[31.888576,30.175445],[31.914776,30.077932],[31.936377,29.872518],[31.932656,29.736764],[31.869146,28.968206],[31.91152,28.951334],[32.048876,28.969214],[32.145046,28.967896],[32.49965,29.106105],[32.559853,29.119722],[32.656174,29.120649],[32.628673,29.21894],[32.632335,29.243069],[32.605479,29.291938],[32.581228,29.369127],[32.451345,29.487291],[32.387706,29.525621],[32.337657,29.592475],[32.357432,29.630561],[32.363943,29.688218],[32.392833,29.734361],[32.491547,29.854071],[32.509532,29.866848],[32.472911,29.881985],[32.467947,29.915229],[32.476899,29.932196],[32.513438,29.961575],[32.53004,29.956204],[32.553966,29.962104],[32.564138,29.942572],[32.571544,29.942572],[32.557465,29.976467],[32.571544,30.01142],[32.57781,30.01142],[32.57781,29.983547],[32.561615,29.976386],[32.58546,29.95246],[32.57781,29.948798],[32.584321,29.938707],[32.571544,29.9289],[32.625336,29.874254],[32.625499,29.84634],[32.604503,29.824164],[32.625499,29.815253],[32.651775,29.790019]]]}}
