{"type":"Feature","properties":{"featurecla":"Admin-1 states provinces","scalerank":6,"adm1_code":"ERI-1565","diss_me":1565,"iso_3166_2":"ER-DK","wikipedia":null,"iso_a2":"ER","adm0_sr":1,"name":"Southern Red Sea","name_alt":"Southern Red Sea|Debubawi Keyh Bahri|Debub-Keih-Bahri|al-Bahru al-Ahmaru al-Janubi","name_local":null,"type":"Zoba","type_en":"Region","code_local":null,"code_hasc":"ER.DK","note":"Old Province : Denkalia","hasc_maybe":null,"region":null,"region_cod":null,"provnum_ne":3,"gadm_level":1,"check_me":10,"datarank":8,"abbrev":null,"postal":"DK","area_sqkm":0,"sameascity":-99,"labelrank":6,"name_len":20,"mapcolor9":2,"mapcolor13":12,"fips":"ER03","fips_alt":"ER03","woe_id":24549685,"woe_label":"Debub-Keih-Bahri, ER, Eritrea","woe_name":"Debubawi Keyih Bahri","latitude":13.5712,"longitude":41.7389,"sov_a3":"ERI","adm0_a3":"ERI","adm0_label":5,"admin":"Eritrea","geonunit":"Eritrea","gu_a3":"ERI","gn_id":448499,"gn_name":"Southern Red Sea Region","gns_id":9165325,"gns_name":"Debubawi K'eyih Bahri","gn_level":1,"gn_region":null,"gn_a1_code":"ER.03","region_sub":null,"sub_code":null,"gns_level":1,"gns_lang":"tir","gns_adm1":"ER03","gns_region":null,"min_label":8.7,"max_label":11.0,"min_zoom":8.7,"wikidataid":"Q27928","name_ar":"إقليم البحر الأحمر الجنوبي","name_bn":"সাউদার্ন লোহিত সাগর অঞ্চল","name_de":"Debubawi Kayih Bahri","name_en":"Southern Red Sea","name_es":"Debubawi Keyih Bahri","name_fr":"Debub-Keih-Bahri","name_el":"Νότια Ερυθρά Θάλασσα","name_hi":"दक्षिणी लाल सागर क्षेत्र","name_hu":"Debubawi Keyih Bahri","name_id":"Wilayah Laut Merah Selatan","name_it":"Mar Rosso Meridionale","name_ja":"デブバウィ・ケイバハリ地方","name_ko":"홍해 남부","name_nl":"Debubawi Keyih Bahri","name_pl":"Południowy Morza Czerwonego","name_pt":"Debub-Keih-Bahri","name_ru":"Дэбуб-Кэй-Бахри","name_sv":"Södra rödahavsregionen","name_tr":"Güney Kızıldeniz","name_vi":"Nam Biển Đỏ","name_zh":"南红海区","ne_id":1159310253,"name_he":"דבובאווי קייח בהרי","name_uk":"Дебубаві-Кей-Бахрі","name_ur":"جنوبی بحیرہ احمر علاقہ","name_fa":"منطقه دریای سرخ جنوبی","name_zht":"南紅海區","FCLASS_ISO":null,"FCLASS_US":null,"FCLASS_FR":null,"FCLASS_RU":null,"FCLASS_ES":null,"FCLASS_CN":null,"FCLASS_TW":null,"FCLASS_IN":null,"FCLASS_NP":null,"FCLASS_PK":null,"FCLASS_DE":null,"FCLASS_GB":null,"FCLASS_BR":null,"FCLASS_IL":null,"FCLASS_PS":null,"FCLASS_SA":null,"FCLASS_EG":null,"FCLASS_MA":null,"FCLASS_PT":null,"FCLASS_AR":null,"FCLASS_JP":null,"FCLASS_KO":null,"FCLASS_VN":null,"FCLASS_TR":null,"FCLASS_ID":null,"FCLASS_PL":null,"FCLASS_GR":null,"FCLASS_IT":null,"FCLASS_NL":null,"FCLASS_SE":null,"FCLASS_BD":null,"FCLASS_UA":null,"FCLASS_TLC":null,"iso_id":"ER-DK","iso_name":"Southern Red Sea"},"geometry":{"type":"Polygon","coordinates":[[[43.117686,12.707913],[43.123871,12.715318],[43.097179,12.762519],[43.094574,12.777533],[43.093272,12.807766],[43.086436,12.820868],[43.053233,12.844875],[43.043142,12.865627],[43.02947,12.878852],[43.000987,12.900295],[42.99586,12.893297],[42.9935,12.884589],[42.994884,12.874905],[43.000987,12.864936],[42.991466,12.859605],[42.987315,12.838202],[42.978038,12.823961],[42.966319,12.81094],[42.963227,12.810452],[42.944591,12.798489],[42.945649,12.797309],[42.93572,12.791938],[42.927989,12.78974],[42.918468,12.790473],[42.927419,12.805854],[42.93214,12.81094],[42.896251,12.813178],[42.868907,12.821357],[42.849294,12.837836],[42.835785,12.864936],[42.808442,12.852281],[42.795421,12.848375],[42.781261,12.851874],[42.773936,12.862128],[42.770193,12.87816],[42.767589,12.90648],[42.763682,12.925238],[42.747244,12.961737],[42.737641,13.017727],[42.729747,13.033149],[42.718272,13.044013],[42.7046,13.054023],[42.688243,13.061347],[42.668305,13.064154],[42.655447,13.072333],[42.620453,13.12934],[42.570079,13.170966],[42.562185,13.183987],[42.559906,13.194322],[42.541759,13.208197],[42.538097,13.217719],[42.537771,13.226264],[42.533946,13.232571],[42.520681,13.2355],[42.507498,13.206977],[42.495942,13.197903],[42.476817,13.194525],[42.431326,13.198391],[42.410167,13.204576],[42.379405,13.222642],[42.376801,13.225491],[42.377696,13.230048],[42.372325,13.278632],[42.358084,13.302476],[42.34254,13.418118],[42.335216,13.443508],[42.32545,13.454576],[42.314789,13.461005],[42.305919,13.476142],[42.294688,13.509223],[42.29477,13.549954],[42.288422,13.574612],[42.270356,13.585598],[42.25587,13.591986],[42.219005,13.640204],[42.184825,13.667467],[42.171641,13.667182],[42.162364,13.662299],[42.159923,13.656562],[42.167735,13.653795],[42.18922,13.652737],[42.206309,13.643866],[42.219737,13.632554],[42.219005,13.606024],[42.198497,13.606024],[42.198741,13.5987],[42.206554,13.591742],[42.224294,13.567613],[42.229503,13.56387],[42.230235,13.560004],[42.223888,13.553941],[42.215994,13.55386],[42.212169,13.567572],[42.208018,13.568549],[42.184825,13.585598],[42.180837,13.594143],[42.175141,13.617255],[42.171153,13.626532],[42.147309,13.64411],[42.143809,13.650377],[42.139496,13.65119],[42.116954,13.640774],[42.106619,13.643541],[42.09962,13.654364],[42.089203,13.687974],[42.075531,13.69477],[42.068696,13.708441],[42.045746,13.739],[42.041352,13.739163],[42.034923,13.752265],[41.993663,13.783596],[41.988943,13.798774],[41.986013,13.819485],[41.980968,13.837795],[41.969737,13.845649],[41.956798,13.850531],[41.92156,13.873114],[41.904307,13.879788],[41.874278,13.873196],[41.863292,13.872952],[41.848969,13.876166],[41.841563,13.880316],[41.82545,13.896796],[41.806,13.929674],[41.798106,13.934394],[41.785655,13.932807],[41.753429,13.920722],[41.740082,13.921536],[41.676524,13.940253],[41.667817,13.955146],[41.657237,13.996487],[41.620942,14.063625],[41.605968,14.081773],[41.588634,14.096177],[41.555431,14.115912],[41.541759,14.126166],[41.533458,14.136949],[41.528982,14.14883],[41.521332,14.181383],[41.514496,14.199205],[41.50587,14.213446],[41.479666,14.242865],[41.433604,14.282131],[41.412771,14.306545],[41.399669,14.346666],[41.381033,14.368801],[41.376638,14.376288],[41.368988,14.384752],[41.352387,14.392157],[41.335948,14.402004],[41.328298,14.417629],[41.32252,14.454535],[41.306814,14.488918],[41.28297,14.517564],[41.208751,14.568101],[41.195649,14.58511],[41.179535,14.621772],[41.167491,14.636949],[41.156098,14.641588],[41.040212,14.667426],[40.972667,14.669623],[40.944672,14.677314],[40.91391,14.699123],[40.884451,14.714545],[40.831065,14.712226],[40.808116,14.722073],[40.808116,14.702826],[40.796886,14.706773],[40.786632,14.706041],[40.766449,14.695299],[40.766368,14.714586],[40.757986,14.72602],[40.732432,14.74372],[40.723888,14.757066],[40.724132,14.768256],[40.732432,14.790961],[40.733735,14.818183],[40.732432,14.82567],[40.727387,14.834133],[40.722667,14.835924],[40.719249,14.834174],[40.718761,14.831855],[40.670909,14.880316],[40.677094,14.887152],[40.692719,14.881903],[40.697439,14.887397],[40.694509,14.896226],[40.687673,14.900824],[40.660411,14.902574],[40.652029,14.897121],[40.656586,14.880316],[40.627696,14.891995],[40.624278,14.900092],[40.620616,14.939276],[40.616384,14.948676],[40.6067,14.952948],[40.58839,14.95539],[40.579356,14.954413],[40.572334,14.951211],[40.57125,14.94454],[40.573265,14.913224],[40.592954,14.817029],[40.595435,14.775998],[40.591094,14.738791],[40.575746,14.701532],[40.486656,14.578051],[40.436375,14.47059],[40.353687,14.335241],[40.421646,14.273755],[40.479834,14.244403],[40.585874,14.19469],[40.614089,14.185802],[40.704419,14.173219],[40.772322,14.148362],[40.833197,14.105962],[41.043623,13.872488],[41.192038,13.615863],[41.222217,13.586614],[41.530726,13.393783],[41.7118,13.247926],[41.750764,13.208316],[41.784767,13.164572],[41.8166,13.112792],[41.894321,12.94797],[41.946617,12.876166],[42.024649,12.82697],[42.0817,12.803922],[42.137304,12.77333],[42.184949,12.733048],[42.250165,12.623985],[42.33171,12.515465],[42.379459,12.465907],[42.430929,12.520322],[42.448499,12.523371],[42.475681,12.516343],[42.521569,12.496241],[42.678252,12.360022],[42.691482,12.378832],[42.727758,12.388806],[42.741401,12.408081],[42.749876,12.417073],[42.779745,12.422602],[42.792251,12.429165],[42.798038,12.456088],[42.788737,12.487456],[42.785223,12.517222],[42.828838,12.557633],[42.852092,12.611738],[42.868835,12.626155],[42.877723,12.62507],[42.890126,12.615407],[42.900358,12.616389],[43.117686,12.707913]]]}}
