{"type":"Feature","properties":{"featurecla":"Admin-1 states provinces","scalerank":3,"adm1_code":"ESP-5807","diss_me":5807,"iso_3166_2":"ES-BA","wikipedia":null,"iso_a2":"ES","adm0_sr":1,"name":"Badajoz","name_alt":null,"name_local":null,"type":"Comunidad Autónoma","type_en":"Autonomous Community","code_local":null,"code_hasc":"ES.EX","note":null,"hasc_maybe":null,"region":"Extremadura","region_cod":"ES.EX","provnum_ne":6,"gadm_level":1,"check_me":20,"datarank":3,"abbrev":null,"postal":"EX","area_sqkm":0,"sameascity":-99,"labelrank":3,"name_len":7,"mapcolor9":5,"mapcolor13":5,"fips":"SP90","fips_alt":"SP57","woe_id":12602128,"woe_label":"Extremadura, ES, Spain","woe_name":"Extremadura","latitude":38.5731,"longitude":-6.26724,"sov_a3":"ESP","adm0_a3":"ESP","adm0_label":2,"admin":"Spain","geonunit":null,"gu_a3":null,"gn_id":2521419,"gn_name":"Provincia de Badajoz","gns_id":-372125,"gns_name":"Badajoz, Provincia de","gn_level":2,"gn_region":null,"gn_a1_code":"ES.BA","region_sub":null,"sub_code":null,"gns_level":2,"gns_lang":null,"gns_adm1":null,"gns_region":"SP57","min_label":7.7,"max_label":11.0,"min_zoom":7.7,"wikidataid":"Q81803","name_ar":"بطليوس","name_bn":"বাদাজোজ প্রদেশ","name_de":"Badajoz","name_en":"Badajoz","name_es":"Badajoz","name_fr":"Badajoz","name_el":"Μπαδαχόθ","name_hi":"बदाओज़ प्रांत","name_hu":"Badajoz","name_id":"Badajoz","name_it":"Badajoz","name_ja":"バダホス県","name_ko":"바다호스","name_nl":"Badajoz","name_pl":"Badajoz","name_pt":"Badajoz","name_ru":"Бадахос","name_sv":"Badajoz","name_tr":"Badajoz ili","name_vi":"Badajoz","name_zh":"巴达霍斯省","ne_id":1159310641,"name_he":"בדאג'וז","name_uk":"Бадахос","name_ur":"صوبہ بطليوس","name_fa":"استان باداخس","name_zht":"巴达霍斯省","FCLASS_ISO":null,"FCLASS_US":null,"FCLASS_FR":null,"FCLASS_RU":null,"FCLASS_ES":null,"FCLASS_CN":null,"FCLASS_TW":null,"FCLASS_IN":null,"FCLASS_NP":null,"FCLASS_PK":null,"FCLASS_DE":null,"FCLASS_GB":null,"FCLASS_BR":null,"FCLASS_IL":null,"FCLASS_PS":null,"FCLASS_SA":null,"FCLASS_EG":null,"FCLASS_MA":null,"FCLASS_PT":null,"FCLASS_AR":null,"FCLASS_JP":null,"FCLASS_KO":null,"FCLASS_VN":null,"FCLASS_TR":null,"FCLASS_ID":null,"FCLASS_PL":null,"FCLASS_GR":null,"FCLASS_IT":null,"FCLASS_NL":null,"FCLASS_SE":null,"FCLASS_BD":null,"FCLASS_UA":null,"FCLASS_TLC":null,"iso_id":"ES-BA","iso_name":"Badajoz"},"geometry":{"type":"Polygon","coordinates":[[[-7.27043,38.617696],[-7.275856,38.60382],[-7.317714,38.556252],[-7.335801,38.505868],[-7.345619,38.494137],[-7.334095,38.481011],[-7.335181,38.469436],[-7.344844,38.458326],[-7.35921,38.446362],[-7.345516,38.440962],[-7.317146,38.424581],[-7.211364,38.317533],[-7.196326,38.29216],[-7.167181,38.272084],[-7.126873,38.1909],[-7.103515,38.173588],[-7.088322,38.173382],[-7.063053,38.177542],[-7.038713,38.186223],[-7.026414,38.199633],[-7.018146,38.198031],[-6.992101,38.204284],[-6.964196,38.206145],[-6.950576,38.198386],[-6.933809,38.209296],[-6.7979,38.172942],[-6.792681,38.165319],[-6.792371,38.158317],[-6.795549,38.151444],[-6.804928,38.139274],[-6.811904,38.125761],[-6.813144,38.118811],[-6.810354,38.113023],[-6.801905,38.108682],[-6.788676,38.10615],[-6.776377,38.100465],[-6.748833,38.093644],[-6.701523,38.092946],[-6.677442,38.096021],[-6.644628,38.093747],[-6.617342,38.086771],[-6.603364,38.077521],[-6.584399,38.056825],[-6.579412,38.042588],[-6.580084,38.035069],[-6.577603,38.028506],[-6.571712,38.023855],[-6.523912,38.021297],[-6.499236,38.014941],[-6.484792,38.016388],[-6.481227,38.019359],[-6.478979,38.025018],[-6.458748,38.039694],[-6.449575,38.051399],[-6.442676,38.055352],[-6.434305,38.057212],[-6.423969,38.056799],[-6.413066,38.053698],[-6.372422,38.031167],[-6.365006,38.021194],[-6.356273,38.000006],[-6.330874,37.994606],[-6.200288,37.951973],[-6.18326,37.938977],[-6.169954,37.949648],[-6.138922,37.968303],[-6.114092,37.978587],[-6.038308,37.990498],[-6.018929,37.991661],[-5.975986,37.998637],[-5.962964,38.002642],[-5.952112,38.00799],[-5.941079,38.018274],[-5.930769,38.042045],[-5.91369,38.059589],[-5.910926,38.066514],[-5.910667,38.07349],[-5.913742,38.080337],[-5.92276,38.092791],[-5.922811,38.099794],[-5.915396,38.114082],[-5.909479,38.121136],[-5.90059,38.127647],[-5.867104,38.144752],[-5.861704,38.149455],[-5.853151,38.16196],[-5.846278,38.168575],[-5.83708,38.174259],[-5.807211,38.183044],[-5.740393,38.190202],[-5.727526,38.188315],[-5.71378,38.179995],[-5.697993,38.165914],[-5.691714,38.153847],[-5.696029,38.148499],[-5.728405,38.134313],[-5.734089,38.129688],[-5.734657,38.12341],[-5.728249,38.095401],[-5.722048,38.090182],[-5.710886,38.088683],[-5.693575,38.091267],[-5.671431,38.104005],[-5.642828,38.12682],[-5.62345,38.136897],[-5.581049,38.135089],[-5.538209,38.162374],[-5.533403,38.167645],[-5.533248,38.180667],[-5.529864,38.194827],[-5.526841,38.201906],[-5.519709,38.208883],[-5.517306,38.222887],[-5.517823,38.237615],[-5.52126,38.252187],[-5.521337,38.26676],[-5.522939,38.270739],[-5.538416,38.295079],[-5.54702,38.316111],[-5.550276,38.320814],[-5.56428,38.332079],[-5.567122,38.336291],[-5.560043,38.372413],[-5.563918,38.381766],[-5.575804,38.394323],[-5.575649,38.404478],[-5.56937,38.425329],[-5.562084,38.432486],[-5.549294,38.440806],[-5.504826,38.460159],[-5.488212,38.464629],[-5.480849,38.469203],[-5.464906,38.489072],[-5.449817,38.500389],[-5.419638,38.515841],[-5.411473,38.524832],[-5.40783,38.53186],[-5.406925,38.538113],[-5.400311,38.54912],[-5.379899,38.571444],[-5.362406,38.583873],[-5.349487,38.586043],[-5.329152,38.585733],[-5.31706,38.583795],[-5.306828,38.5855],[-5.303469,38.590306],[-5.303159,38.594621],[-5.300524,38.599246],[-5.288147,38.612527],[-5.255772,38.634386],[-5.210064,38.659036],[-5.180815,38.666038],[-5.176294,38.67087],[-5.16725,38.693427],[-5.169188,38.701152],[-5.173038,38.708206],[-5.170454,38.713813],[-5.159447,38.717947],[-5.079865,38.71942],[-5.06382,38.725388],[-5.036586,38.728412],[-5.021445,38.734225],[-4.997855,38.735827],[-4.990775,38.739315],[-4.98137,38.749599],[-4.971655,38.769158],[-4.947522,38.839361],[-4.942871,38.848869],[-4.927342,38.870315],[-4.912899,38.882278],[-4.904682,38.885999],[-4.886337,38.889099],[-4.858587,38.886154],[-4.850758,38.886671],[-4.845719,38.892045],[-4.841404,38.91424],[-4.836314,38.928529],[-4.840061,38.939639],[-4.84665,38.945969],[-4.873211,38.948941],[-4.879774,38.952248],[-4.913829,38.959689],[-4.920624,38.964134],[-4.92804,38.977466],[-4.93127,39.000126],[-4.939512,39.004622],[-4.944318,39.009661],[-4.947599,39.024388],[-4.953594,39.038961],[-4.954137,39.045576],[-4.946385,39.050976],[-4.937807,39.053069],[-4.928583,39.051518],[-4.919927,39.049141],[-4.895329,39.037669],[-4.877294,39.032605],[-4.867604,39.033638],[-4.859,39.036506],[-4.834712,39.047591],[-4.831043,39.054257],[-4.833627,39.062887],[-4.840242,39.068623],[-4.857476,39.07622],[-4.863987,39.08162],[-4.867475,39.091981],[-4.867398,39.10614],[-4.855564,39.147843],[-4.847037,39.165491],[-4.806781,39.198796],[-4.798642,39.199106],[-4.781098,39.195127],[-4.771925,39.194817],[-4.744769,39.198822],[-4.727329,39.196497],[-4.676117,39.175619],[-4.658392,39.17394],[-4.670433,39.190993],[-4.699113,39.218123],[-4.710611,39.225306],[-4.715676,39.232076],[-4.734615,39.260963],[-4.753554,39.297395],[-4.75619,39.306154],[-4.756758,39.316515],[-4.749394,39.324577],[-4.740661,39.327936],[-4.730274,39.329538],[-4.720352,39.334835],[-4.710947,39.344136],[-4.696064,39.378372],[-4.681362,39.400128],[-4.677874,39.417594],[-4.692731,39.449815],[-4.703558,39.43842],[-4.75296,39.418163],[-4.767016,39.404649],[-4.77792,39.400593],[-4.81368,39.392376],[-4.842619,39.380542],[-4.855383,39.378243],[-4.880136,39.366874],[-4.94437,39.391911],[-4.991939,39.370863],[-5.056813,39.363315],[-5.083334,39.391309],[-5.098704,39.398384],[-5.113206,39.387255],[-5.115865,39.377883],[-5.115294,39.357053],[-5.117106,39.347473],[-5.122786,39.339431],[-5.140859,39.326764],[-5.178762,39.309977],[-5.247152,39.310197],[-5.321386,39.328291],[-5.339623,39.323589],[-5.348698,39.301869],[-5.355147,39.263054],[-5.346127,39.237028],[-5.347215,39.228755],[-5.371286,39.194851],[-5.396412,39.171637],[-5.410386,39.163848],[-5.444488,39.15864],[-5.469031,39.170319],[-5.51747,39.209056],[-5.541651,39.214198],[-5.566282,39.209089],[-5.612831,39.188534],[-5.607152,39.185062],[-5.57795,39.147874],[-5.577895,39.137579],[-5.589936,39.117101],[-5.60168,39.105972],[-5.614425,39.101577],[-5.646021,39.102181],[-5.689945,39.082944],[-5.767849,39.136821],[-5.810399,39.144721],[-5.82857,39.119166],[-5.858101,39.103126],[-5.924656,39.083296],[-5.941839,39.108685],[-5.986103,39.065542],[-6.003088,39.063334],[-6.009097,39.065795],[-6.011987,39.068838],[-6.021435,39.12756],[-6.089726,39.084658],[-6.14223,39.031473],[-6.167971,39.058917],[-6.196678,39.059456],[-6.205621,39.06106],[-6.212872,39.066586],[-6.23079,39.089833],[-6.248929,39.098765],[-6.293819,39.10027],[-6.312199,39.115914],[-6.316583,39.130416],[-6.319307,39.184524],[-6.37147,39.162903],[-6.528564,39.174131],[-6.535386,39.168506],[-6.545736,39.155696],[-6.554975,39.153773],[-6.570697,39.158772],[-6.574575,39.162452],[-6.580255,39.179371],[-6.585308,39.181821],[-6.65973,39.198938],[-6.681043,39.177328],[-6.769549,39.19061],[-6.778118,39.199224],[-6.800772,39.239423],[-6.762089,39.278193],[-6.751685,39.302737],[-6.760002,39.32917],[-6.780239,39.341705],[-6.799465,39.377048],[-6.815109,39.387815],[-6.833643,39.389177],[-6.872183,39.382531],[-6.888784,39.383475],[-7.049228,39.436737],[-7.06707,39.414435],[-7.035155,39.400493],[-7.023795,39.389034],[-7.021575,39.382069],[-7.022048,39.373709],[-7.040142,39.320952],[-7.045042,39.314921],[-7.053194,39.311339],[-7.07286,39.315997],[-7.078309,39.33541],[-7.072969,39.380586],[-7.096711,39.384025],[-7.118266,39.380015],[-7.161102,39.361261],[-7.163651,39.358416],[-7.170462,39.343386],[-7.167957,39.335762],[-7.157026,39.325523],[-7.155004,39.318909],[-7.157476,39.314163],[-7.203992,39.265845],[-7.250845,39.270627],[-7.264332,39.252334],[-7.265779,39.231353],[-7.258079,39.211303],[-7.244127,39.195645],[-7.219322,39.184844],[-7.191572,39.17916],[-7.168059,39.170633],[-7.155812,39.151513],[-7.15793,39.141385],[-7.168886,39.121851],[-7.167491,39.113479],[-7.157207,39.105444],[-7.142531,39.099527],[-7.127286,39.097485],[-7.115194,39.101103],[-7.091268,39.112446],[-7.064913,39.114771],[-7.038816,39.109138],[-7.015769,39.096814],[-6.999697,39.084696],[-6.985693,39.066764],[-6.979388,39.047178],[-6.986313,39.030074],[-6.974893,39.02302],[-6.973291,39.013951],[-6.97882,39.003822],[-6.988638,38.993771],[-7.022125,38.94287],[-7.044501,38.918633],[-7.06605,38.904603],[-7.0522,38.884992],[-7.057265,38.869437],[-7.056076,38.855149],[-7.07654,38.843237],[-7.088684,38.833367],[-7.104859,38.827192],[-7.151006,38.819285],[-7.160618,38.812903],[-7.166199,38.803421],[-7.179738,38.790889],[-7.196429,38.779985],[-7.211519,38.77536],[-7.27043,38.737507],[-7.284073,38.713245],[-7.290946,38.679087],[-7.292961,38.656272],[-7.290946,38.638159],[-7.286036,38.631907],[-7.273531,38.625395],[-7.27043,38.617696]]]}}
