{"type":"Feature","properties":{"featurecla":"Admin-1 states provinces","scalerank":3,"adm1_code":"ESP-5836","diss_me":5836,"iso_3166_2":"ES-MU","wikipedia":null,"iso_a2":"ES","adm0_sr":5,"name":"Region of Murcia","name_alt":null,"name_local":null,"type":"Comunidad Autónoma","type_en":"Autonomous Community","code_local":null,"code_hasc":"ES.MU","note":null,"hasc_maybe":null,"region":"Murcia","region_cod":"ES.MU","provnum_ne":17,"gadm_level":1,"check_me":20,"datarank":3,"abbrev":null,"postal":"MU","area_sqkm":0,"sameascity":7,"labelrank":7,"name_len":7,"mapcolor9":5,"mapcolor13":5,"fips":"SP96","fips_alt":"SP31","woe_id":12578025,"woe_label":"Murcia, ES, Spain","woe_name":"Región de Murcia","latitude":37.9136,"longitude":-1.45758,"sov_a3":"ESP","adm0_a3":"ESP","adm0_label":2,"admin":"Spain","geonunit":null,"gu_a3":null,"gn_id":6355234,"gn_name":"Murcia","gns_id":-393421,"gns_name":"Region de Murcia, Comunidad Autonoma de la","gn_level":2,"gn_region":null,"gn_a1_code":"ES.MU","region_sub":null,"sub_code":null,"gns_level":1,"gns_lang":null,"gns_adm1":null,"gns_region":"SP31","min_label":7.7,"max_label":11.0,"min_zoom":7.7,"wikidataid":"Q5772","name_ar":"منطقة مرسية","name_bn":"মুর্সিয়া অঞ্চল","name_de":"Autonome Gemeinschaft Murcia","name_en":"Murcia","name_es":"Murcia","name_fr":"Murcie","name_el":"Περιοχή της Μούρθια","name_hi":"मर्सिया","name_hu":"Murcia","name_id":"Murcia","name_it":"Murcia","name_ja":"ムルシア州","name_ko":"무르시아 지방","name_nl":"Murcia","name_pl":"Murcja","name_pt":"de Múrcia","name_ru":"Мурсия","name_sv":"Murcia","name_tr":"Murcia","name_vi":"Vùng Murcia","name_zh":"穆尔西亚自治区","ne_id":1159310549,"name_he":"מורסיה","name_uk":"Мурсія","name_ur":"ریجن مورکیا","name_fa":"مورسیا","name_zht":"穆爾西亞自治區","FCLASS_ISO":null,"FCLASS_US":null,"FCLASS_FR":null,"FCLASS_RU":null,"FCLASS_ES":null,"FCLASS_CN":null,"FCLASS_TW":null,"FCLASS_IN":null,"FCLASS_NP":null,"FCLASS_PK":null,"FCLASS_DE":null,"FCLASS_GB":null,"FCLASS_BR":null,"FCLASS_IL":null,"FCLASS_PS":null,"FCLASS_SA":null,"FCLASS_EG":null,"FCLASS_MA":null,"FCLASS_PT":null,"FCLASS_AR":null,"FCLASS_JP":null,"FCLASS_KO":null,"FCLASS_VN":null,"FCLASS_TR":null,"FCLASS_ID":null,"FCLASS_PL":null,"FCLASS_GR":null,"FCLASS_IT":null,"FCLASS_NL":null,"FCLASS_SE":null,"FCLASS_BD":null,"FCLASS_UA":null,"FCLASS_TLC":null,"iso_id":"ES-MC","iso_name":"Region of Murcia","source":"iso-3166-2-es-autonomous-community"},"geometry":{"type":"MultiPolygon","coordinates":[[[[-0.760575,37.845898],[-0.787104,37.844279],[-0.838703,37.867973],[-0.8887,37.908022],[-0.923065,37.941302],[-1.025849,38.078865],[-1.032903,38.116899],[-1.028097,38.135347],[-0.985955,38.195188],[-0.96916,38.270843],[-0.994662,38.324948],[-1.076673,38.349701],[-1.08445,38.415692],[-1.075614,38.442124],[-1.019441,38.490622],[-1.005437,38.590306],[-1.022128,38.65454],[-1.105302,38.707508],[-1.119926,38.740065],[-1.174186,38.754095],[-1.243174,38.738075],[-1.278237,38.711591],[-1.334202,38.686735],[-1.371487,38.702703],[-1.433628,38.655832],[-1.450319,38.62772],[-1.454273,38.589686],[-1.485149,38.562918],[-1.501996,38.534909],[-1.485718,38.483698],[-1.481015,38.388277],[-1.567315,38.326214],[-1.626743,38.311409],[-1.654596,38.314664],[-1.681933,38.331562],[-1.681881,38.357607],[-1.690873,38.370216],[-1.750534,38.380345],[-1.791074,38.366935],[-1.795725,38.353912],[-1.926182,38.291048],[-1.992793,38.279524],[-2.023359,38.29898],[-2.042893,38.29836],[-2.12741,38.235186],[-2.170327,38.223817],[-2.211927,38.195938],[-2.250529,38.136277],[-2.32422,38.06238],[-2.338534,38.026491],[-2.296237,38.000575],[-2.232235,37.926419],[-2.1718,37.896447],[-2.125472,37.898746],[-2.076974,37.881099],[-1.975688,37.865854],[-1.991682,37.841153],[-2.002818,37.78803],[-1.995196,37.735475],[-2.004446,37.704546],[-2.000725,37.653826],[-1.826446,37.445363],[-1.805698,37.437457],[-1.792702,37.450738],[-1.732421,37.438439],[-1.641618,37.381036],[-1.543731,37.414984],[-1.515004,37.433214],[-1.496938,37.427802],[-1.488352,37.433214],[-1.470896,37.482245],[-1.413686,37.506537],[-1.369171,37.541368],[-1.323735,37.561991],[-1.261671,37.557661],[-1.242699,37.579203],[-1.178585,37.563883],[-1.167057,37.543755],[-1.105767,37.532135],[-1.119985,37.559027],[-1.103424,37.576402],[-1.087758,37.580878],[-0.9735,37.576402],[-0.92516,37.555894],[-0.886708,37.574286],[-0.836415,37.576402],[-0.754506,37.604315],[-0.727895,37.60342],[-0.705312,37.619534],[-0.701243,37.631334],[-0.707997,37.643012],[-0.726471,37.651516],[-0.734853,37.63935],[-0.754791,37.641303],[-0.809926,37.666897],[-0.85261,37.723782],[-0.856109,37.742499],[-0.847808,37.75609],[-0.812408,37.770087],[-0.787994,37.822821],[-0.760732,37.796129],[-0.760575,37.845898]]],[[[-0.732737,37.747748],[-0.754506,37.7744],[-0.746897,37.683783],[-0.726471,37.665188],[-0.740142,37.70246],[-0.741851,37.725531],[-0.732737,37.747748]]]]}}
