{"type":"Feature","properties":{"featurecla":"Admin-0 country","scalerank":0,"LABELRANK":2,"SOVEREIGNT":"Spain","SOV_A3":"ESP","ADM0_DIF":0,"LEVEL":2,"TYPE":"Sovereign country","TLC":"1","ADMIN":"Spain","ADM0_A3":"ESP","GEOU_DIF":0,"GEOUNIT":"Spain","GU_A3":"ESP","SU_DIF":0,"SUBUNIT":"Spain","SU_A3":"ESP","BRK_DIFF":0,"NAME":"Spain","NAME_LONG":"Spain","BRK_A3":"ESP","BRK_NAME":"Spain","BRK_GROUP":null,"ABBREV":"Sp.","POSTAL":"E","FORMAL_EN":"Kingdom of Spain","FORMAL_FR":null,"NAME_CIAWF":"Spain","NOTE_ADM0":null,"NOTE_BRK":null,"NAME_SORT":"Spain","NAME_ALT":null,"MAPCOLOR7":4,"MAPCOLOR8":5,"MAPCOLOR9":5,"MAPCOLOR13":5,"POP_EST":47076781.0,"POP_RANK":15,"POP_YEAR":2019,"GDP_MD":1393490,"GDP_YEAR":2019,"ECONOMY":"2. Developed region: nonG7","INCOME_GRP":"1. High income: OECD","FIPS_10":"SP","ISO_A2":"ES","ISO_A2_EH":"ES","ISO_A3":"ESP","ISO_A3_EH":"ESP","ISO_N3":"724","ISO_N3_EH":"724","UN_A3":"724","WB_A2":"ES","WB_A3":"ESP","WOE_ID":23424950,"WOE_ID_EH":23424950,"WOE_NOTE":"Exact WOE match as country","ADM0_ISO":"ESP","ADM0_DIFF":null,"ADM0_TLC":"ESP","ADM0_A3_US":"ESP","ADM0_A3_FR":"ESP","ADM0_A3_RU":"ESP","ADM0_A3_ES":"ESP","ADM0_A3_CN":"ESP","ADM0_A3_TW":"ESP","ADM0_A3_IN":"ESP","ADM0_A3_NP":"ESP","ADM0_A3_PK":"ESP","ADM0_A3_DE":"ESP","ADM0_A3_GB":"ESP","ADM0_A3_BR":"ESP","ADM0_A3_IL":"ESP","ADM0_A3_PS":"ESP","ADM0_A3_SA":"ESP","ADM0_A3_EG":"ESP","ADM0_A3_MA":"ESP","ADM0_A3_PT":"ESP","ADM0_A3_AR":"ESP","ADM0_A3_JP":"ESP","ADM0_A3_KO":"ESP","ADM0_A3_VN":"ESP","ADM0_A3_TR":"ESP","ADM0_A3_ID":"ESP","ADM0_A3_PL":"ESP","ADM0_A3_GR":"ESP","ADM0_A3_IT":"ESP","ADM0_A3_NL":"ESP","ADM0_A3_SE":"ESP","ADM0_A3_BD":"ESP","ADM0_A3_UA":"ESP","ADM0_A3_UN":-99,"ADM0_A3_WB":-99,"CONTINENT":"Europe","REGION_UN":"Europe","SUBREGION":"Southern Europe","REGION_WB":"Europe & Central Asia","NAME_LEN":5,"LONG_LEN":5,"ABBREV_LEN":3,"TINY":-99,"HOMEPART":1,"MIN_ZOOM":0.0,"MIN_LABEL":2.0,"MAX_LABEL":7.0,"LABEL_X":-3.464718,"LABEL_Y":40.090953,"NE_ID":1159320587,"WIKIDATAID":"Q29","NAME_AR":"إسبانيا","NAME_BN":"স্পেন","NAME_DE":"Spanien","NAME_EN":"Spain","NAME_ES":"España","NAME_FA":"اسپانیا","NAME_FR":"Espagne","NAME_EL":"Ισπανία","NAME_HE":"ספרד","NAME_HI":"स्पेन","NAME_HU":"Spanyolország","NAME_ID":"Spanyol","NAME_IT":"Spagna","NAME_JA":"スペイン","NAME_KO":"스페인","NAME_NL":"Spanje","NAME_PL":"Hiszpania","NAME_PT":"Espanha","NAME_RU":"Испания","NAME_SV":"Spanien","NAME_TR":"İspanya","NAME_UK":"Іспанія","NAME_UR":"ہسپانیہ","NAME_VI":"Tây Ban Nha","NAME_ZH":"西班牙","NAME_ZHT":"西班牙","FCLASS_ISO":"Admin-0 country","TLC_DIFF":null,"FCLASS_TLC":"Admin-0 country","FCLASS_US":null,"FCLASS_FR":null,"FCLASS_RU":null,"FCLASS_ES":null,"FCLASS_CN":null,"FCLASS_TW":null,"FCLASS_IN":null,"FCLASS_NP":null,"FCLASS_PK":null,"FCLASS_DE":null,"FCLASS_GB":null,"FCLASS_BR":null,"FCLASS_IL":null,"FCLASS_PS":null,"FCLASS_SA":null,"FCLASS_EG":null,"FCLASS_MA":null,"FCLASS_PT":null,"FCLASS_AR":null,"FCLASS_JP":null,"FCLASS_KO":null,"FCLASS_VN":null,"FCLASS_TR":null,"FCLASS_ID":null,"FCLASS_PL":null,"FCLASS_GR":null,"FCLASS_IT":null,"FCLASS_NL":null,"FCLASS_SE":null,"FCLASS_BD":null,"FCLASS_UA":null,"iso_id":"ES","iso_name":"Spain","name":"Spain","source":"iso-3166-1-countries"},"geometry":{"type":"MultiPolygon","coordinates":[[[[-5.340728,35.847357],[-5.335561,35.862372],[-5.29186,35.89053],[-5.28307,35.911689],[-5.309316,35.900824],[-5.3662,35.92475],[-5.398859,35.924504],[-5.378401,35.881687],[-5.340728,35.847357]]],[[[-2.947825,35.329779],[-2.96692,35.313866],[-2.963768,35.286219],[-2.943046,35.267874],[-2.912913,35.276923],[-2.922027,35.287991],[-2.947825,35.329779]]],[[[-1.794075,43.386015],[-1.811269,43.395087],[-1.925689,43.342637],[-1.904652,43.328437],[-1.918691,43.32099],[-1.945627,43.342637],[-1.960357,43.343085],[-2.098866,43.304145],[-2.127797,43.287421],[-2.144846,43.301093],[-2.174469,43.297431],[-2.196278,43.314765],[-2.284657,43.303494],[-2.367421,43.315701],[-2.464426,43.349229],[-2.48351,43.370632],[-2.661204,43.411933],[-2.677805,43.406195],[-2.691029,43.36754],[-2.715199,43.424506],[-2.768625,43.452501],[-2.806996,43.441677],[-2.905263,43.439887],[-2.946685,43.430772],[-2.939931,43.4171],[-3.029286,43.376166],[-3.008168,43.320909],[-3.089508,43.366889],[-3.112375,43.354071],[-3.1315,43.35578],[-3.17691,43.366238],[-3.21052,43.389838],[-3.268951,43.40412],[-3.392486,43.424587],[-3.436187,43.419013],[-3.447011,43.430772],[-3.46109,43.412462],[-3.481801,43.428046],[-3.501698,43.430772],[-3.470041,43.454169],[-3.428619,43.446845],[-3.431508,43.466864],[-3.50536,43.479193],[-3.539052,43.498969],[-3.556264,43.499701],[-3.554351,43.516913],[-3.579416,43.518256],[-3.656077,43.500678],[-3.688385,43.484239],[-3.728871,43.479193],[-3.721425,43.471747],[-3.728871,43.465522],[-3.755523,43.471747],[-3.743031,43.451361],[-3.744985,43.438259],[-3.772288,43.452501],[-3.811187,43.425482],[-3.831288,43.424587],[-3.823842,43.430772],[-3.844309,43.445095],[-3.769154,43.479193],[-3.826731,43.497016],[-3.885854,43.479193],[-3.893788,43.48489],[-3.940053,43.477118],[-3.974599,43.458767],[-3.961008,43.445095],[-3.981435,43.438259],[-4.012766,43.452501],[-4.029205,43.438259],[-4.097727,43.435614],[-4.160959,43.421169],[-4.188588,43.405382],[-4.312815,43.395779],[-4.359364,43.399685],[-4.379262,43.383612],[-4.432525,43.402615],[-4.460805,43.398708],[-4.481679,43.383612],[-4.508168,43.402452],[-4.734934,43.4171],[-4.836537,43.449774],[-4.941029,43.471747],[-4.975168,43.458767],[-5.045033,43.474311],[-5.057037,43.468614],[-5.067698,43.481391],[-5.091664,43.486274],[-5.177887,43.489366],[-5.299875,43.537665],[-5.356801,43.538601],[-5.372426,43.520209],[-5.41393,43.506537],[-5.420806,43.513373],[-5.390736,43.541327],[-5.39387,43.555243],[-5.424224,43.561143],[-5.6256,43.554958],[-5.67748,43.561143],[-5.696767,43.582831],[-5.701975,43.56863],[-5.708852,43.56863],[-5.803822,43.650499],[-5.852203,43.66295],[-5.863515,43.641425],[-5.907379,43.636827],[-5.900624,43.623236],[-5.913075,43.61286],[-5.90217,43.59752],[-5.907379,43.588446],[-6.023508,43.588446],[-6.069163,43.569688],[-6.178049,43.575385],[-6.222768,43.595893],[-6.314605,43.56863],[-6.417633,43.561143],[-6.469106,43.575385],[-6.462961,43.554958],[-6.510121,43.547471],[-6.597727,43.575222],[-6.648671,43.579047],[-6.703725,43.557563],[-6.770823,43.56863],[-6.943959,43.565985],[-7.001373,43.556667],[-7.010365,43.53323],[-7.023752,43.525824],[-7.038319,43.479193],[-7.044586,43.479193],[-7.053619,43.496527],[-7.030873,43.53323],[-7.032338,43.553005],[-7.044301,43.559394],[-7.079335,43.56863],[-7.095855,43.560981],[-7.156972,43.559272],[-7.215443,43.568671],[-7.257721,43.556667],[-7.271067,43.561143],[-7.256744,43.58161],[-7.304107,43.598578],[-7.367055,43.68008],[-7.490142,43.725328],[-7.541412,43.731635],[-7.57429,43.714545],[-7.586415,43.717963],[-7.615956,43.688544],[-7.613026,43.704291],[-7.641021,43.752672],[-7.672475,43.743842],[-7.67516,43.731635],[-7.691558,43.72724],[-7.695627,43.745917],[-7.668324,43.772528],[-7.685536,43.793443],[-7.712758,43.760688],[-7.812001,43.72309],[-7.826039,43.711737],[-7.819163,43.697455],[-7.843861,43.703803],[-7.867584,43.697455],[-7.849233,43.675605],[-7.858388,43.668199],[-7.908559,43.670152],[-7.894887,43.684475],[-7.884104,43.678616],[-7.873769,43.684475],[-7.879262,43.700507],[-7.867584,43.717963],[-7.846506,43.711737],[-7.846506,43.717963],[-7.880849,43.763251],[-7.908559,43.766343],[-7.952952,43.730129],[-7.981191,43.717841],[-8.059316,43.709418],[-8.073964,43.678534],[-8.071156,43.667873],[-8.051869,43.65648],[-8.065541,43.642808],[-8.051869,43.642808],[-8.074615,43.639635],[-8.086659,43.65648],[-8.232249,43.575507],[-8.260976,43.564521],[-8.312652,43.567125],[-8.308217,43.546332],[-8.292104,43.532945],[-8.305165,43.519355],[-8.31664,43.522895],[-8.333119,43.471503],[-8.288971,43.472968],[-8.269195,43.478949],[-8.257314,43.492011],[-8.243723,43.485175],[-8.257314,43.477729],[-8.168568,43.492011],[-8.178782,43.473293],[-8.286488,43.461982],[-8.305165,43.451077],[-8.26476,43.427314],[-8.175404,43.416327],[-8.209625,43.390692],[-8.202463,43.32925],[-8.210194,43.313218],[-8.217275,43.328315],[-8.250559,43.354885],[-8.267201,43.385932],[-8.330719,43.405666],[-8.339915,43.392727],[-8.34081,43.359931],[-8.353586,43.348619],[-8.375722,43.362982],[-8.388295,43.385891],[-8.443023,43.375312],[-8.455719,43.363349],[-8.486073,43.354315],[-8.505971,43.331529],[-8.55842,43.313218],[-8.592519,43.324205],[-8.693105,43.293402],[-8.785553,43.312445],[-8.829986,43.341213],[-8.988026,43.283026],[-8.963124,43.272284],[-8.94815,43.249945],[-8.915273,43.245022],[-8.932525,43.235297],[-8.985748,43.226874],[-9.011545,43.238756],[-9.026967,43.21015],[-9.052398,43.196357],[-9.100413,43.189521],[-9.137929,43.201524],[-9.170074,43.188747],[-9.2176,43.155341],[-9.208363,43.137885],[-9.162262,43.148505],[-9.163319,43.139757],[-9.107737,43.148505],[-9.107737,43.14114],[-9.141225,43.134874],[-9.162262,43.114447],[-9.189809,43.102322],[-9.2176,43.114447],[-9.22232,43.102729],[-9.245717,43.087999],[-9.257924,43.060899],[-9.27953,43.054999],[-9.272125,43.031277],[-9.250966,43.016791],[-9.291982,42.928778],[-9.273061,42.893337],[-9.244252,42.928778],[-9.224233,42.940212],[-9.214345,42.939032],[-9.210072,42.925727],[-9.19579,42.926581],[-9.190012,42.9324],[-9.195872,42.949327],[-9.167877,42.926825],[-9.134511,42.917548],[-9.137522,42.896064],[-9.148671,42.884467],[-9.141225,42.857449],[-9.108388,42.844835],[-9.10025,42.833279],[-9.113189,42.816352],[-9.134999,42.812771],[-9.113433,42.766059],[-9.10025,42.757514],[-9.068674,42.759711],[-9.045644,42.778022],[-9.04894,42.794745],[-8.951039,42.795111],[-8.912587,42.816596],[-8.908437,42.839464],[-8.887685,42.831122],[-8.884918,42.815009],[-8.898264,42.792304],[-8.922231,42.788113],[-8.963124,42.751288],[-9.006256,42.733832],[-9.030141,42.707709],[-9.038808,42.661078],[-9.065745,42.620307],[-9.070872,42.596137],[-9.033355,42.578111],[-9.026357,42.543118],[-9.011545,42.530707],[-8.980784,42.551215],[-8.969879,42.579169],[-8.922231,42.593695],[-8.936391,42.606431],[-8.903432,42.625474],[-8.889475,42.630601],[-8.894846,42.620103],[-8.880523,42.611802],[-8.868764,42.617499],[-8.846995,42.64057],[-8.857004,42.649115],[-8.839508,42.68244],[-8.803822,42.645941],[-8.784983,42.64057],[-8.753896,42.656887],[-8.737172,42.688422],[-8.730946,42.688422],[-8.775502,42.604722],[-8.822987,42.569525],[-8.825185,42.537421],[-8.812856,42.502753],[-8.825063,42.49494],[-8.826527,42.461859],[-8.874338,42.469306],[-8.861155,42.475572],[-8.860829,42.485012],[-8.881256,42.496568],[-8.916737,42.487616],[-8.942616,42.469306],[-8.88801,42.455634],[-8.867502,42.4147],[-8.843577,42.403713],[-8.757639,42.407213],[-8.694488,42.439643],[-8.655263,42.441352],[-8.662506,42.426907],[-8.726877,42.388739],[-8.771962,42.342719],[-8.830719,42.34162],[-8.827219,42.296698],[-8.832997,42.28913],[-8.853261,42.304836],[-8.867502,42.256415],[-8.784983,42.260077],[-8.674794,42.299018],[-8.649892,42.335598],[-8.622711,42.34748],[-8.625152,42.301947],[-8.771962,42.222235],[-8.805776,42.197496],[-8.815989,42.174506],[-8.846995,42.160834],[-8.82372,42.14761],[-8.819081,42.139716],[-8.826527,42.13052],[-8.884592,42.126044],[-8.895497,42.119086],[-8.881256,41.893297],[-8.864654,41.888902],[-8.832834,41.913967],[-8.777089,41.937161],[-8.750803,41.96898],[-8.67081,41.999815],[-8.652568,42.031441],[-8.626885,42.051026],[-8.572805,42.054411],[-8.501208,42.083091],[-8.346747,42.101695],[-8.29538,42.130091],[-8.252334,42.137584],[-8.222362,42.15363],[-8.204327,42.128799],[-8.204016,42.069552],[-8.191304,42.062085],[-8.137612,42.072911],[-8.103196,42.055806],[-8.095083,42.040923],[-8.108028,42.010899],[-8.182132,41.965424],[-8.230216,41.904678],[-8.231715,41.886049],[-8.220398,41.868195],[-8.177041,41.84985],[-8.179574,41.810705],[-8.093481,41.806726],[-8.048574,41.816389],[-7.993642,41.863673],[-7.944756,41.866955],[-7.925791,41.908167],[-7.906102,41.913851],[-7.896593,41.857937],[-7.864812,41.857885],[-7.849723,41.875765],[-7.750142,41.888375],[-7.72203,41.899252],[-7.661156,41.874913],[-7.60736,41.873182],[-7.622812,41.841737],[-7.622192,41.832331],[-7.606068,41.825536],[-7.546692,41.832047],[-7.531551,41.84016],[-7.515841,41.864991],[-7.469384,41.852537],[-7.442719,41.805951],[-7.391921,41.842047],[-7.322468,41.845406],[-7.21865,41.879047],[-7.197928,41.9015],[-7.199943,41.963719],[-7.145373,41.98749],[-7.05127,41.942015],[-6.992359,41.96638],[-6.945127,41.943358],[-6.854952,41.942945],[-6.831232,41.953952],[-6.824928,41.983769],[-6.794387,41.979713],[-6.757903,41.93757],[-6.727983,41.930853],[-6.622821,41.940955],[-6.609488,41.962324],[-6.571661,41.942609],[-6.567631,41.926072],[-6.575795,41.882897],[-6.524222,41.86742],[-6.560137,41.766883],[-6.577397,41.739727],[-6.55528,41.674899],[-6.541534,41.658905],[-6.503035,41.653092],[-6.460815,41.676553],[-6.365937,41.663608],[-6.272248,41.628235],[-6.205947,41.57028],[-6.279534,41.497003],[-6.285891,41.486874],[-6.282945,41.465635],[-6.321134,41.411013],[-6.352347,41.409256],[-6.379167,41.397319],[-6.379167,41.377475],[-6.399579,41.377475],[-6.430998,41.339028],[-6.495852,41.294948],[-6.563496,41.270712],[-6.646644,41.267611],[-6.70695,41.194334],[-6.755216,41.158833],[-6.764776,41.108861],[-6.80436,41.06442],[-6.818003,41.054136],[-6.845288,41.051914],[-6.906835,41.0561],[-6.927867,41.047935],[-6.942491,41.015999],[-6.940424,41.00339],[-6.885182,40.948923],[-6.855262,40.887221],[-6.821155,40.870065],[-6.816194,40.856835],[-6.820328,40.844226],[-6.836658,40.840247],[-6.839139,40.757513],[-6.814282,40.647184],[-6.850456,40.582227],[-6.848389,40.56476],[-6.818055,40.531894],[-6.812525,40.514634],[-6.857122,40.442132],[-6.851283,40.409524],[-6.82808,40.380585],[-6.794438,40.356401],[-6.811957,40.33232],[-6.870196,40.295526],[-6.878051,40.265244],[-6.896448,40.255477],[-6.954687,40.253358],[-7.015769,40.225504],[-7.043105,40.181373],[-7.027654,40.132642],[-7.015769,40.119051],[-6.955721,40.102928],[-6.879705,40.009187],[-6.901615,39.976476],[-6.909522,39.931982],[-6.925231,39.917926],[-6.92766,39.861909],[-6.952827,39.832867],[-6.985228,39.821136],[-7.000266,39.802533],[-6.993031,39.774214],[-7.01334,39.738919],[-7.009619,39.715458],[-7.021143,39.694012],[-7.18289,39.675099],[-7.214051,39.676184],[-7.235755,39.686519],[-7.341433,39.671843],[-7.557286,39.679801],[-7.515841,39.59376],[-7.451349,39.537846],[-7.417553,39.524204],[-7.399414,39.493663],[-7.362931,39.476093],[-7.320918,39.467411],[-7.313528,39.457438],[-7.318851,39.413254],[-7.331925,39.384729],[-7.326654,39.341321],[-7.250845,39.270627],[-7.264332,39.252334],[-7.258079,39.211303],[-7.244127,39.195645],[-7.168059,39.170633],[-7.155812,39.151513],[-7.168886,39.121851],[-7.157207,39.105444],[-7.127286,39.097485],[-7.064913,39.114771],[-7.015769,39.096814],[-6.985693,39.066764],[-6.979388,39.047178],[-6.986313,39.030074],[-6.973291,39.013951],[-7.022125,38.94287],[-7.06605,38.904603],[-7.0522,38.884992],[-7.056076,38.855149],[-7.104859,38.827192],[-7.151006,38.819285],[-7.179738,38.790889],[-7.27043,38.737507],[-7.284073,38.713245],[-7.292961,38.656272],[-7.290946,38.638159],[-7.27043,38.617696],[-7.317714,38.556252],[-7.345619,38.494137],[-7.334095,38.481011],[-7.335181,38.469436],[-7.35921,38.446362],[-7.317146,38.424581],[-7.211364,38.317533],[-7.196326,38.29216],[-7.167181,38.272084],[-7.126873,38.1909],[-7.103515,38.173588],[-7.063053,38.177542],[-7.038713,38.186223],[-7.026414,38.199633],[-6.964196,38.206145],[-6.947504,38.196636],[-7.023985,38.022564],[-7.049358,38.020213],[-7.123256,38.040005],[-7.159739,37.996803],[-7.185267,37.98869],[-7.223301,37.993832],[-7.272704,37.977011],[-7.268621,37.949235],[-7.306862,37.850766],[-7.334405,37.811931],[-7.426338,37.750617],[-7.444011,37.730153],[-7.471606,37.636903],[-7.514343,37.601401],[-7.512534,37.590368],[-7.529691,37.567165],[-7.529122,37.556701],[-7.506333,37.518124],[-7.475947,37.49425],[-7.468868,37.475569],[-7.462253,37.417872],[-7.444993,37.386763],[-7.427578,37.274522],[-7.434244,37.259329],[-7.414418,37.192816],[-7.381418,37.179918],[-7.362904,37.181708],[-7.32787,37.201565],[-7.085561,37.206488],[-7.127349,37.214748],[-7.10104,37.224251],[-6.94164,37.171088],[-6.928456,37.172349],[-6.962554,37.233832],[-6.931142,37.233873],[-6.852691,37.295233],[-6.917633,37.215074],[-6.910878,37.188951],[-6.892893,37.166571],[-6.811757,37.123725],[-6.744862,37.101386],[-6.499582,36.959662],[-6.471099,36.935614],[-6.416249,36.837795],[-6.38801,36.808173],[-6.352447,36.80858],[-6.346669,36.819892],[-6.352447,36.880276],[-6.344716,36.901272],[-6.283559,36.92593],[-6.265045,36.912909],[-6.239654,36.913398],[-6.194814,36.932115],[-6.223256,36.90233],[-6.304351,36.907213],[-6.338206,36.883734],[-6.343739,36.859931],[-6.335194,36.818264],[-6.345611,36.794989],[-6.41454,36.767646],[-6.433339,36.751207],[-6.437896,36.733303],[-6.406972,36.676703],[-6.394683,36.636908],[-6.379791,36.624254],[-6.283193,36.612372],[-6.234893,36.575751],[-6.226023,36.556667],[-6.232452,36.52619],[-6.224355,36.51085],[-6.179351,36.513536],[-6.211497,36.480536],[-6.231475,36.472683],[-6.254099,36.496283],[-6.248972,36.504747],[-6.257517,36.51378],[-6.289377,36.537299],[-6.310007,36.534125],[-6.279612,36.511298],[-6.218373,36.402452],[-6.184193,36.370714],[-6.159454,36.304307],[-6.104726,36.280707],[-6.036773,36.189521],[-5.983551,36.176988],[-5.917185,36.184068],[-5.832753,36.122382],[-5.796051,36.085517],[-5.713124,36.059963],[-5.689361,36.067125],[-5.629709,36.03677],[-5.611765,36.006456],[-5.438629,36.062812],[-5.4287,36.080797],[-5.442332,36.14879],[-5.425445,36.179755],[-5.382517,36.172309],[-5.366607,36.163153],[-5.358387,36.141109],[-5.338773,36.14112],[-5.334055,36.187812],[-5.285308,36.26081],[-5.290598,36.277411],[-5.253651,36.297105],[-5.227122,36.357937],[-5.186554,36.4112],[-5.108713,36.429023],[-5.062489,36.452216],[-4.994166,36.457094],[-4.902659,36.506537],[-4.722768,36.492987],[-4.65925,36.507636],[-4.615021,36.530556],[-4.5878,36.573818],[-4.524826,36.580715],[-4.433258,36.710679],[-4.403188,36.723863],[-4.224721,36.712388],[-4.110172,36.725733],[-4.056711,36.747992],[-3.960961,36.726793],[-3.838541,36.75197],[-3.731281,36.724097],[-3.679822,36.728808],[-3.665667,36.73937],[-3.6011,36.74255],[-3.586402,36.726579],[-3.549832,36.712373],[-3.515963,36.721047],[-3.477602,36.696096],[-3.415155,36.695516],[-3.329579,36.7449],[-3.227895,36.754828],[-3.156711,36.744526],[-3.076453,36.749756],[-2.987719,36.737109],[-2.933258,36.751654],[-2.913971,36.750312],[-2.886098,36.734402],[-2.848256,36.700222],[-2.820994,36.713894],[-2.756663,36.680365],[-2.736195,36.687405],[-2.718251,36.682034],[-2.658884,36.69481],[-2.617177,36.72842],[-2.576894,36.811306],[-2.56078,36.818793],[-2.481435,36.829942],[-2.433095,36.81627],[-2.361684,36.836778],[-2.318349,36.827908],[-2.282786,36.810085],[-2.203643,36.737128],[-2.166127,36.727566],[-2.126698,36.736396],[-2.111073,36.746121],[-2.100819,36.765163],[-2.071156,36.775336],[-2.056874,36.810085],[-2.013051,36.845771],[-2.002797,36.88703],[-1.988922,36.900499],[-1.941396,36.929877],[-1.900339,36.941189],[-1.906117,36.987616],[-1.855214,37.076606],[-1.812734,37.207058],[-1.728505,37.282416],[-1.670888,37.363308],[-1.652839,37.361259],[-1.641618,37.381036],[-1.543731,37.414984],[-1.515004,37.433214],[-1.496938,37.427802],[-1.488352,37.433214],[-1.470896,37.482245],[-1.413686,37.506537],[-1.369171,37.541368],[-1.323735,37.561991],[-1.261671,37.557661],[-1.242699,37.579203],[-1.178585,37.563883],[-1.167057,37.543755],[-1.105767,37.532135],[-1.119985,37.559027],[-1.103424,37.576402],[-1.087758,37.580878],[-0.9735,37.576402],[-0.92516,37.555894],[-0.886708,37.574286],[-0.836415,37.576402],[-0.754506,37.604315],[-0.736643,37.599433],[-0.705312,37.619534],[-0.701243,37.631334],[-0.707997,37.643012],[-0.726471,37.651516],[-0.734853,37.63935],[-0.754791,37.641303],[-0.809926,37.666897],[-0.85261,37.723782],[-0.856109,37.742499],[-0.847808,37.75609],[-0.812408,37.770087],[-0.787994,37.822821],[-0.760732,37.796129],[-0.758616,37.863349],[-0.718414,37.94302],[-0.689931,37.972154],[-0.65453,37.989325],[-0.645009,38.116034],[-0.623687,38.162421],[-0.591379,38.189643],[-0.515452,38.195502],[-0.504018,38.207221],[-0.518788,38.298651],[-0.509836,38.338365],[-0.474355,38.336737],[-0.460194,38.360053],[-0.413686,38.364814],[-0.395172,38.413764],[-0.329416,38.470038],[-0.176991,38.527248],[-0.075429,38.539944],[-0.060048,38.55272],[-0.054758,38.595282],[-0.042958,38.611721],[-0.01476,38.624416],[0.060435,38.634833],[0.080577,38.631008],[0.073131,38.645209],[0.083018,38.660956],[0.118582,38.682807],[0.14503,38.686347],[0.176768,38.724026],[0.227712,38.734565],[0.234548,38.742255],[0.227712,38.770209],[0.217865,38.768134],[0.170909,38.796088],[0.185313,38.803534],[0.153982,38.831],[0.111013,38.849921],[-0.009755,38.869696],[-0.105946,38.93651],[-0.15803,39.002143],[-0.226703,39.111782],[-0.242182,39.166275],[-0.215493,39.181839],[-0.30134,39.322008],[-0.327472,39.430675],[-0.330593,39.480407],[-0.323354,39.516221],[-0.281484,39.569363],[-0.257436,39.616238],[-0.208933,39.664089],[-0.194488,39.71544],[-0.091298,39.847927],[-0.028676,39.901801],[0.066173,40.031928],[0.117035,40.056342],[0.144542,40.078843],[0.205251,40.171536],[0.26474,40.209784],[0.298839,40.246772],[0.350597,40.284898],[0.420258,40.388251],[0.446137,40.408433],[0.452647,40.434068],[0.501313,40.484198],[0.563487,40.590033],[0.599783,40.613715],[0.682221,40.634223],[0.732677,40.633734],[0.696218,40.590359],[0.663178,40.574734],[0.640636,40.586859],[0.592459,40.582099],[0.615896,40.553453],[0.677094,40.565172],[0.707042,40.583401],[0.756358,40.642239],[0.784028,40.660956],[0.848318,40.67536],[0.858084,40.686265],[0.872406,40.707099],[0.873709,40.727932],[0.841807,40.732123],[0.766938,40.78502],[0.750173,40.785997],[0.767263,40.771023],[0.750173,40.76557],[0.694835,40.785997],[0.714203,40.815212],[0.822765,40.899604],[0.877452,40.954779],[0.990408,41.0397],[1.017426,41.051785],[1.097667,41.070868],[1.141694,41.071723],[1.172944,41.058661],[1.217784,41.104682],[1.288097,41.116278],[1.539236,41.187445],[1.62436,41.192165],[1.819835,41.237128],[1.854015,41.235989],[1.951345,41.260688],[2.019705,41.265855],[2.130544,41.303656],[2.191905,41.356757],[2.267345,41.448635],[2.371349,41.489203],[2.449474,41.535224],[2.778497,41.645582],[2.792003,41.669013],[2.813162,41.670315],[2.84018,41.694648],[2.932991,41.712464],[2.950938,41.73428],[3.069058,41.799076],[3.078631,41.826618],[3.116829,41.847569],[3.150165,41.845351],[3.194916,41.888292],[3.232188,41.946031],[3.235688,41.965522],[3.207856,41.990017],[3.195896,42.033118],[3.214496,42.068334],[3.173106,42.112006],[3.122488,42.140489],[3.116466,42.158433],[3.118826,42.218329],[3.1303,42.239732],[3.151622,42.256822],[3.170177,42.25967],[3.178722,42.249701],[3.210134,42.239732],[3.247162,42.245714],[3.263031,42.239854],[3.287039,42.262926],[3.294037,42.288031],[3.317719,42.322984],[3.293712,42.334988],[3.263031,42.32921],[3.249848,42.343207],[3.204194,42.339586],[3.187348,42.349514],[3.17449,42.363796],[3.170177,42.396593],[3.18097,42.431484],[3.086147,42.427179],[3.053591,42.437643],[3.029613,42.465652],[2.983104,42.469321],[2.966051,42.461001],[2.933702,42.470225],[2.900835,42.45126],[2.850813,42.448366],[2.788594,42.412012],[2.708082,42.41289],[2.690409,42.406172],[2.640283,42.372841],[2.662194,42.339019],[2.548092,42.352248],[2.531969,42.330776],[2.514812,42.325661],[2.445566,42.351964],[2.422518,42.383693],[2.375493,42.389326],[2.277411,42.428626],[2.184187,42.411805],[2.136954,42.416223],[2.121038,42.410617],[2.103985,42.38483],[2.063264,42.357907],[2.00921,42.34708],[1.963735,42.367234],[1.927458,42.436894],[1.869787,42.44679],[1.792686,42.481723],[1.730571,42.488054],[1.707006,42.502781],[1.686336,42.490612],[1.653986,42.496529],[1.639517,42.466427],[1.544432,42.450356],[1.51663,42.429504],[1.447901,42.434646],[1.436429,42.440951],[1.436429,42.453482],[1.407593,42.486762],[1.449968,42.504073],[1.446557,42.519886],[1.428987,42.531462],[1.406456,42.52924],[1.4263,42.561796],[1.418032,42.569832],[1.429297,42.595386],[1.361084,42.686724],[1.338243,42.694449],[1.342584,42.70866],[1.195927,42.713647],[1.151485,42.706723],[1.134328,42.715973],[1.106733,42.759613],[1.08906,42.771318],[0.982916,42.780361],[0.950257,42.796123],[0.921111,42.784366],[0.812901,42.831624],[0.706757,42.846585],[0.656321,42.83842],[0.653737,42.802686],[0.639681,42.774677],[0.65074,42.763386],[0.63348,42.744782],[0.64764,42.741036],[0.66645,42.714758],[0.656735,42.68799],[0.466927,42.690444],[0.409282,42.682254],[0.389283,42.685148],[0.381816,42.700108],[0.354169,42.717497],[0.336031,42.712691],[0.290245,42.670291],[0.275388,42.668689],[0.238362,42.710366],[0.169168,42.726463],[-0.038933,42.685148],[-0.119032,42.716851],[-0.123114,42.730364],[-0.157789,42.760699],[-0.161407,42.795348],[-0.208355,42.783875],[-0.235149,42.786227],[-0.247034,42.80483],[-0.322792,42.842502],[-0.335169,42.824958],[-0.351679,42.829247],[-0.423923,42.790671],[-0.454464,42.788914],[-0.508414,42.807492],[-0.53389,42.808008],[-0.535647,42.784211],[-0.56903,42.772636],[-0.578694,42.777338],[-0.582931,42.795839],[-0.610165,42.799094],[-0.609493,42.811445],[-0.648302,42.849789],[-0.700392,42.876428],[-0.730106,42.877513],[-0.740286,42.884799],[-0.745867,42.89392],[-0.740906,42.910896],[-0.759665,42.946501],[-0.786433,42.953271],[-0.863534,42.943065],[-0.943219,42.947896],[-0.98146,42.957043],[-1.028485,42.986705],[-1.079697,42.993398],[-1.112408,43.008254],[-1.149925,43.005722],[-1.216898,43.03926],[-1.293689,43.055203],[-1.315083,43.082875],[-1.286041,43.109179],[-1.308623,43.113571],[-1.348259,43.093081],[-1.366139,43.033318],[-1.410529,43.030915],[-1.457141,43.045074],[-1.487837,43.081816],[-1.425774,43.135275],[-1.399677,43.206744],[-1.403501,43.243331],[-1.432233,43.265009],[-1.466392,43.260771],[-1.508094,43.276765],[-1.559047,43.284077],[-1.573982,43.277437],[-1.587573,43.251599],[-1.621886,43.247],[-1.639043,43.255681],[-1.645037,43.292372],[-1.654907,43.297539],[-1.683019,43.304929],[-1.747356,43.291002],[-1.75578,43.318546],[-1.796914,43.341128],[-1.794075,43.386015]]],[[[1.999495,42.443896],[1.967972,42.485702],[1.956604,42.481775],[1.945648,42.463817],[1.947509,42.451234],[1.999495,42.443896]]],[[[-17.933949,27.852037],[-17.989858,27.823717],[-18.003245,27.798814],[-18.056793,27.756496],[-18.140492,27.768785],[-18.167226,27.757554],[-18.16039,27.722357],[-18.126943,27.700263],[-18.053131,27.69123],[-18.015777,27.653469],[-17.979482,27.642524],[-17.96524,27.686998],[-17.930165,27.718655],[-17.926422,27.742825],[-17.879262,27.814521],[-17.896474,27.840318],[-17.933949,27.852037]]],[[[-15.391591,28.030219],[-15.414947,28.114488],[-15.415639,28.141506],[-15.400136,28.157213],[-15.409291,28.179755],[-15.43871,28.174872],[-15.435048,28.140937],[-15.45873,28.134223],[-15.521311,28.147528],[-15.597035,28.147528],[-15.650787,28.163886],[-15.706207,28.167385],[-15.69811,28.133043],[-15.702138,28.115058],[-15.713694,28.105902],[-15.708363,28.081936],[-15.749827,28.035956],[-15.81607,27.996039],[-15.821197,27.92178],[-15.786,27.844224],[-15.739654,27.804348],[-15.685699,27.763332],[-15.607249,27.750312],[-15.577952,27.734361],[-15.539662,27.765611],[-15.453033,27.791246],[-15.406972,27.838324],[-15.377838,27.852281],[-15.375966,27.86758],[-15.391591,27.899848],[-15.381907,27.92121],[-15.363637,27.934638],[-15.376698,27.957506],[-15.363637,28.009711],[-15.391591,28.030219]]],[[[-17.309673,28.207117],[-17.338817,28.171047],[-17.343221,28.09766],[-17.310073,28.053474],[-17.257888,28.02457],[-17.232706,28.019106],[-17.184975,28.031619],[-17.113937,28.080967],[-17.09842,28.100764],[-17.116119,28.146226],[-17.212721,28.205449],[-17.259173,28.217717],[-17.309673,28.207117]]],[[[-16.427695,28.14967],[-16.419233,28.211383],[-16.380016,28.288342],[-16.358106,28.314631],[-16.365772,28.362455],[-16.355514,28.38115],[-16.296136,28.417762],[-16.248015,28.461123],[-16.231391,28.488416],[-16.12707,28.543819],[-16.117747,28.572089],[-16.141347,28.583441],[-16.202707,28.564032],[-16.316396,28.572089],[-16.322743,28.553453],[-16.363352,28.543036],[-16.408274,28.519843],[-16.4204,28.490627],[-16.507135,28.424134],[-16.564479,28.415335],[-16.584634,28.4011],[-16.66418,28.400727],[-16.770131,28.366278],[-16.794179,28.369127],[-16.83744,28.391083],[-16.916058,28.35497],[-16.847239,28.262519],[-16.837148,28.20897],[-16.7954,28.165269],[-16.780629,28.127875],[-16.727895,28.078599],[-16.721059,28.044501],[-16.704091,28.03498],[-16.703552,28.013683],[-16.692683,27.999847],[-16.67634,27.997096],[-16.57971,28.030332],[-16.545766,28.023993],[-16.521547,28.057573],[-16.427695,28.14967]]],[[[-13.972646,28.735907],[-13.999908,28.716742],[-14.036122,28.587388],[-14.075551,28.536119],[-14.098297,28.48664],[-14.140859,28.434882],[-14.171295,28.352362],[-14.201894,28.3039],[-14.207387,28.254381],[-14.224436,28.218573],[-14.270131,28.175971],[-14.341176,28.134508],[-14.436025,28.100531],[-14.496897,28.102525],[-14.507069,28.071194],[-14.428619,28.071194],[-14.369008,28.050767],[-14.34317,28.050686],[-14.30134,28.067857],[-14.212229,28.160549],[-14.19164,28.170844],[-14.152008,28.179999],[-14.11856,28.200507],[-13.966786,28.227973],[-13.933705,28.244208],[-13.875152,28.349066],[-13.869618,28.376899],[-13.842926,28.406928],[-13.856557,28.434882],[-13.856557,28.47899],[-13.828684,28.551581],[-13.824371,28.681789],[-13.83552,28.715481],[-13.864573,28.744208],[-13.898671,28.753892],[-13.972646,28.735907]]],[[[-17.755767,28.818508],[-17.781484,28.842271],[-17.801381,28.849311],[-17.841664,28.835435],[-17.890535,28.843946],[-17.911145,28.855619],[-17.970693,28.813218],[-17.996816,28.780097],[-18.002187,28.749579],[-17.976145,28.728176],[-17.963098,28.671489],[-17.879688,28.543713],[-17.865122,28.475381],[-17.837066,28.45539],[-17.830881,28.45539],[-17.78334,28.548596],[-17.759856,28.576821],[-17.745604,28.621887],[-17.765254,28.677549],[-17.721044,28.730644],[-17.721883,28.749029],[-17.741438,28.757912],[-17.750602,28.774763],[-17.755767,28.818508]]],[[[-13.482981,29.239936],[-13.537221,29.138251],[-13.63683,29.126939],[-13.690175,29.090888],[-13.766835,29.074042],[-13.798492,29.048082],[-13.832102,29.000393],[-13.842926,28.921536],[-13.876332,28.888821],[-13.867299,28.864895],[-13.791493,28.853461],[-13.774648,28.839586],[-13.736073,28.89647],[-13.709299,28.9147],[-13.607574,28.932603],[-13.589955,28.951361],[-13.54304,28.961737],[-13.482045,28.999457],[-13.465566,29.023912],[-13.465566,29.058051],[-13.451894,29.086005],[-13.462392,29.132148],[-13.45873,29.147406],[-13.438791,29.159003],[-13.417795,29.20893],[-13.465403,29.243313],[-13.482981,29.239936]]],[[[-13.486684,29.284613],[-13.508168,29.289455],[-13.541249,29.229397],[-13.517079,29.226264],[-13.492014,29.242662],[-13.477895,29.266262],[-13.486684,29.284613]]],[[[-0.732737,37.747748],[-0.754506,37.7744],[-0.746897,37.683783],[-0.726471,37.665188],[-0.740142,37.70246],[-0.741851,37.725531],[-0.732737,37.747748]]],[[[1.526383,38.677768],[1.486095,38.694566],[1.431326,38.754869],[1.418142,38.727891],[1.401002,38.730326],[1.382823,38.711575],[1.393728,38.70421],[1.383474,38.680406],[1.38295,38.642061],[1.396977,38.638646],[1.412792,38.646446],[1.458086,38.681341],[1.523448,38.6494],[1.581391,38.653062],[1.582367,38.674913],[1.565684,38.691486],[1.526383,38.677768]]],[[[1.605968,39.091295],[1.589692,39.102769],[1.522716,39.118883],[1.499522,39.104885],[1.450694,39.101793],[1.403331,39.077623],[1.391938,39.083319],[1.372244,39.071397],[1.356781,39.077623],[1.292817,39.033271],[1.300955,38.96776],[1.259939,38.960924],[1.236827,38.965155],[1.218435,38.954088],[1.22755,38.942003],[1.212169,38.903225],[1.216645,38.885077],[1.259939,38.857896],[1.266612,38.870347],[1.283458,38.87462],[1.300304,38.870469],[1.307791,38.857896],[1.343516,38.862372],[1.36085,38.851915],[1.37065,38.831809],[1.403105,38.832278],[1.414728,38.890622],[1.444998,38.913153],[1.458669,38.900133],[1.509776,38.930162],[1.541189,38.96776],[1.576182,38.985826],[1.593272,39.02025],[1.623057,39.029202],[1.600841,39.082384],[1.605968,39.091295]]],[[[3.354503,39.784369],[3.292491,39.749701],[3.223888,39.749701],[3.162608,39.76911],[3.136485,39.788764],[3.124848,39.811103],[3.126313,39.831855],[3.187185,39.854356],[3.206798,39.893012],[3.130219,39.87641],[3.094737,39.881212],[3.096934,39.91352],[3.115489,39.908759],[3.14088,39.928087],[3.214203,39.955105],[3.201345,39.960517],[3.193126,39.955105],[3.179454,39.968777],[3.075694,39.936103],[2.933279,39.914496],[2.843598,39.872585],[2.813243,39.872585],[2.747406,39.83161],[2.710623,39.818549],[2.651866,39.770128],[2.631358,39.770128],[2.617686,39.749701],[2.569672,39.71308],[2.517589,39.700141],[2.468272,39.659369],[2.357677,39.611884],[2.350759,39.576483],[2.355642,39.558661],[2.391856,39.523749],[2.425955,39.537421],[2.438162,39.525214],[2.453949,39.537421],[2.480642,39.516221],[2.469005,39.505886],[2.492686,39.470242],[2.520193,39.472846],[2.544932,39.492987],[2.555675,39.520046],[2.569102,39.531521],[2.655284,39.564724],[2.681651,39.558661],[2.7435,39.523383],[2.754893,39.502631],[2.736583,39.462104],[2.751231,39.454779],[2.761729,39.400214],[2.786632,39.375922],[2.82545,39.363593],[2.958832,39.363227],[2.991384,39.347276],[3.001313,39.317694],[3.029307,39.304633],[3.060802,39.26907],[3.129405,39.315741],[3.221039,39.35989],[3.252615,39.386176],[3.268809,39.427558],[3.282481,39.420111],[3.291759,39.475775],[3.323253,39.523871],[3.406016,39.591986],[3.398692,39.607733],[3.401866,39.623236],[3.413097,39.635077],[3.443207,39.645779],[3.453868,39.659695],[3.46754,39.687567],[3.461436,39.700059],[3.474376,39.715522],[3.468516,39.739325],[3.474376,39.749701],[3.439789,39.75198],[3.354503,39.784369]]],[[[4.298025,39.941962],[4.254568,39.949693],[4.27239,39.955349],[4.264903,39.986396],[4.17864,40.038845],[4.170502,40.064602],[4.163829,40.060574],[4.165782,40.045925],[4.142263,40.024807],[4.135427,40.028225],[4.139089,40.045925],[4.107839,40.067613],[4.105072,40.079413],[4.052013,40.058173],[3.915457,40.051988],[3.891531,40.059556],[3.821869,40.047634],[3.803152,40.018134],[3.812918,40.001207],[3.850515,39.983873],[3.839122,39.975572],[3.830658,39.936062],[3.869314,39.925523],[3.981375,39.936062],[4.248139,39.816474],[4.300059,39.821763],[4.302908,39.8876],[4.337087,39.867174],[4.298025,39.941962]]],[[[2.980582,39.18556],[2.940424,39.17193],[2.913614,39.151963],[2.930867,39.118176],[2.962154,39.116062],[2.982308,39.139184],[2.980582,39.18556]]],[[[-4.301885,35.172664],[-4.2969,35.172249],[-4.298701,35.172612],[-4.301885,35.172664]]],[[[-3.902533,35.214787],[-3.901957,35.215464],[-3.902329,35.215905],[-3.902533,35.214787]]],[[[-3.901308,35.217319],[-3.899818,35.217285],[-3.899953,35.217861],[-3.901308,35.217319]]],[[[-2.431414,35.178766],[-2.426502,35.182114],[-2.429394,35.186038],[-2.431414,35.178766]]],[[[-5.42084,35.914269],[-5.417888,35.910874],[-5.41597,35.913531],[-5.42084,35.914269]]]]}}
