{"type":"Feature","properties":{"featurecla":"Admin-1 states provinces","scalerank":3,"adm1_code":"ETH-3134","diss_me":3134,"iso_3166_2":"ET-SO","wikipedia":null,"iso_a2":"ET","adm0_sr":1,"name":"Somali","name_alt":"Sumale","name_local":null,"type":"Kilil","type_en":"Administrative State","code_local":null,"code_hasc":"ET.SO","note":null,"hasc_maybe":null,"region":null,"region_cod":null,"provnum_ne":20005,"gadm_level":1,"check_me":10,"datarank":3,"abbrev":null,"postal":"SO","area_sqkm":0,"sameascity":-99,"labelrank":3,"name_len":6,"mapcolor9":1,"mapcolor13":13,"fips":"ET52","fips_alt":"ET38|ET52","woe_id":56013540,"woe_label":null,"woe_name":"Somali","latitude":7.09365,"longitude":43.5345,"sov_a3":"ETH","adm0_a3":"ETH","adm0_label":2,"admin":"Ethiopia","geonunit":"Ethiopia","gu_a3":"ETH","gn_id":444186,"gn_name":"Somali Region","gns_id":9087452,"gns_name":"Sumale","gn_level":1,"gn_region":null,"gn_a1_code":"ET.52","region_sub":null,"sub_code":null,"gns_level":1,"gns_lang":"amh","gns_adm1":"ET52","gns_region":null,"min_label":6.6,"max_label":11.0,"min_zoom":6.6,"wikidataid":"Q202800","name_ar":"المنطقة الصومالية","name_bn":"সোমালি অঞ্চল","name_de":"Somali","name_en":"Somali","name_es":"Somali","name_fr":"Somali","name_el":"Σομαλία","name_hi":"सोमाली प्रदेश","name_hu":"Szomália","name_id":"Somali","name_it":"regione dei Somali","name_ja":"ソマリ州","name_ko":"소말리","name_nl":"Somali","name_pl":"Somali","name_pt":"Somali","name_ru":"Сомали","name_sv":"Somali","name_tr":"Somali Bölgesi","name_vi":"Vùng Somali","name_zh":"索马里州","ne_id":1159313865,"name_he":"סומלי","name_uk":"Сомалі","name_ur":"صومالی علاقہ","name_fa":"استان سومالی","name_zht":"索馬里州","FCLASS_ISO":null,"FCLASS_US":null,"FCLASS_FR":null,"FCLASS_RU":null,"FCLASS_ES":null,"FCLASS_CN":null,"FCLASS_TW":null,"FCLASS_IN":null,"FCLASS_NP":null,"FCLASS_PK":null,"FCLASS_DE":null,"FCLASS_GB":null,"FCLASS_BR":null,"FCLASS_IL":null,"FCLASS_PS":null,"FCLASS_SA":null,"FCLASS_EG":null,"FCLASS_MA":null,"FCLASS_PT":null,"FCLASS_AR":null,"FCLASS_JP":null,"FCLASS_KO":null,"FCLASS_VN":null,"FCLASS_TR":null,"FCLASS_ID":null,"FCLASS_PL":null,"FCLASS_GR":null,"FCLASS_IT":null,"FCLASS_NL":null,"FCLASS_SE":null,"FCLASS_BD":null,"FCLASS_UA":null,"FCLASS_TLC":null,"iso_id":"ET-SO","iso_name":"Somali","source":"iso-3166-2-subdivisions"},"geometry":{"type":"Polygon","coordinates":[[[47.979169,7.996567],[46.97923,7.996567],[46.920526,8.025609],[45.766384,8.412227],[44.023855,8.985525],[43.984788,9.008314],[43.621502,9.336899],[43.60724,9.344625],[43.548225,9.336072],[43.419034,9.413018],[43.406322,9.42865],[43.399449,9.480947],[43.370665,9.544225],[43.331753,9.575076],[43.305966,9.617554],[43.270671,9.628354],[43.248812,9.652332],[43.206334,9.851209],[43.187214,9.883326],[43.067686,9.922522],[43.039884,9.949988],[42.999887,10.061971],[42.981903,10.091633],[42.958235,10.115559],[42.862324,10.177158],[42.836279,10.208086],[42.78946,10.333324],[42.776644,10.42461],[42.765792,10.451947],[42.695202,10.524708],[42.668537,10.56623],[42.64859,10.611033],[42.647247,10.63222],[42.699646,10.65855],[42.711635,10.675163],[42.738094,10.759784],[42.801242,10.820788],[42.819432,10.872567],[42.834832,10.888406],[42.893536,10.919671],[42.923715,10.998787],[42.908109,11.004187],[42.873279,10.978246],[42.771787,10.996462],[42.754837,11.010544],[42.729619,11.06501],[42.615621,11.08966],[42.569732,11.086146],[42.479712,11.059119],[42.391758,11.005893],[42.338532,11.015504],[42.305872,11.004601],[42.270835,11.003516],[42.221639,10.984344],[42.151359,10.996203],[42.096272,10.990261],[42.069401,10.981501],[42.038395,10.950444],[41.954162,10.941271],[41.937522,10.929825],[41.916852,10.947059],[41.79872,10.970675],[41.766523,10.989466],[41.719862,10.967083],[41.69113,10.964292],[41.292291,10.967109],[41.270484,10.960132],[41.250433,10.939798],[41.23245,10.861405],[41.204131,10.815568],[41.126823,10.740688],[41.083312,10.679297],[41.086619,10.591163],[40.943165,10.047036],[40.952054,9.996703],[41.012515,9.964741],[41.021817,9.951124],[41.007141,9.929007],[40.880844,9.820615],[40.825963,9.759715],[40.73708,9.623599],[40.704007,9.513942],[40.695118,9.444385],[40.866891,9.456994],[40.914537,9.429218],[40.924045,9.408961],[40.910506,9.395913],[40.860483,9.387644],[40.797748,9.394621],[40.793924,9.374725],[40.80922,9.328733],[40.823896,9.314083],[40.846427,9.307081],[40.892316,9.31323],[40.936137,9.32863],[40.978305,9.354339],[41.011068,9.358215],[41.058197,9.392244],[41.171782,9.444592],[41.2309,9.496578],[41.269864,9.50588],[41.395334,9.488052],[41.493209,9.459707],[41.566486,9.509239],[41.615166,9.517585],[41.63749,9.514045],[41.664568,9.4803],[41.711697,9.468208],[41.736915,9.473763],[41.731748,9.51774],[41.740636,9.584945],[41.76296,9.640135],[41.818461,9.647499],[41.86652,9.678014],[41.892048,9.68388],[42.021963,9.625356],[42.040359,9.628999],[42.156321,9.744108],[42.20314,9.774391],[42.2543,9.780566],[42.302669,9.762583],[42.341013,9.720363],[42.380907,9.708322],[42.393516,9.665612],[42.387108,9.567737],[42.418838,9.561587],[42.48736,9.479267],[42.551853,9.351523],[42.558881,9.30473],[42.592264,9.210187],[42.625853,9.164299],[42.62575,9.119754],[42.644043,9.080221],[42.705332,8.983199],[42.774888,8.90757],[42.85695,8.840365],[42.865529,8.80029],[42.833283,8.707324],[42.844031,8.662288],[42.894984,8.609914],[42.911624,8.565395],[42.913381,8.51098],[42.896948,8.412381],[42.879895,8.399023],[42.770444,8.365459],[42.743779,8.327296],[42.703885,8.181904],[42.668435,8.14077],[42.634535,8.147565],[42.604459,8.183764],[42.580378,8.230816],[42.562601,8.283086],[42.533352,8.450363],[42.503587,8.492531],[42.446639,8.516199],[42.32675,8.538704],[42.274144,8.622781],[42.207067,8.604772],[42.112706,8.525216],[42.032298,8.433723],[42.025063,8.409771],[42.029301,8.325151],[41.961191,8.21999],[41.940934,8.17131],[41.931322,8.115577],[41.917679,7.873602],[41.92078,7.84841],[41.947859,7.795132],[41.95344,7.751439],[41.876545,7.552459],[41.875098,7.510756],[41.891945,7.427738],[41.901453,7.412339],[42.207481,7.293044],[42.227118,7.22266],[42.208411,7.129953],[42.18464,7.091015],[42.182883,7.044609],[42.15229,6.981771],[42.13472,6.964123],[42.136994,6.951591],[42.103508,6.933686],[42.093069,6.919165],[42.075603,6.859091],[42.077773,6.826896],[42.068781,6.814416],[42.079117,6.79571],[42.041393,6.731863],[42.024236,6.662178],[41.993127,6.606445],[41.959847,6.569238],[41.908791,6.543451],[41.861145,6.537147],[41.845849,6.569935],[41.806782,6.565982],[41.763684,6.541255],[41.735882,6.511644],[41.701879,6.444801],[41.633252,6.386742],[41.621987,6.364005],[41.45931,6.529369],[41.416108,6.556861],[41.341384,6.572752],[41.121966,6.692744],[41.073493,6.690186],[41.028431,6.656312],[40.978822,6.590167],[40.904408,6.512264],[40.858519,6.419919],[40.866684,6.371782],[40.863687,6.330441],[40.883634,6.237992],[40.865547,6.110403],[40.88012,5.811687],[40.922495,5.699497],[40.849734,5.645883],[40.704317,5.565423],[40.546704,5.423519],[40.528824,5.415535],[40.486862,5.402487],[40.440457,5.402487],[40.366043,5.385511],[40.259383,5.375021],[40.187449,5.354557],[40.115412,5.36882],[40.051127,5.399697],[40.036037,5.399076],[40.01454,5.383186],[39.919455,5.246502],[39.85827,5.088837],[39.820443,5.015069],[39.77042,4.851487],[39.741998,4.657003],[39.585109,4.293821],[39.541494,4.234496],[39.483823,4.040968],[39.498602,3.979654],[39.469767,3.917539],[39.333031,3.684013],[39.300682,3.642569],[39.095216,3.53627],[39.102141,3.528674],[39.090441,3.518334],[39.180481,3.476998],[39.219445,3.468704],[39.257583,3.469686],[39.302748,3.495679],[39.315874,3.494904],[39.320525,3.484543],[39.311326,3.466094],[39.436176,3.462374],[39.466976,3.452013],[39.488473,3.413901],[39.504389,3.403333],[39.536325,3.405013],[39.553172,3.431316],[39.574979,3.497901],[39.764218,3.685745],[39.828297,3.842583],[39.848451,3.867284],[40.162437,4.019394],[40.167191,4.035465],[40.185588,4.032158],[40.365732,4.094867],[40.382682,4.121377],[40.700699,4.243515],[40.763744,4.284933],[40.785758,4.25584],[40.846013,4.214989],[40.897689,4.145924],[40.963628,4.12037],[41.0059,4.086677],[41.070082,3.996915],[41.114524,3.962343],[41.162996,3.94268],[41.215293,3.936608],[41.429543,3.948882],[41.586329,3.984151],[41.642967,3.969449],[41.699811,3.996915],[41.791381,3.958157],[41.835927,3.94945],[41.885019,3.977226],[41.912201,4.007974],[41.923466,4.070554],[42.102887,4.19189],[42.13534,4.200081],[42.297294,4.201734],[42.78977,4.285605],[42.831628,4.302322],[42.868938,4.326765],[42.899634,4.361104],[42.9325,4.463217],[42.960406,4.517374],[43.119259,4.647702],[43.528485,4.841566],[43.845158,4.914352],[43.968975,4.953962],[44.912586,4.899392],[44.941525,4.911484],[45.935986,5.996689],[46.423915,6.496736],[47.979169,7.996567]]]}}
