{"type":"Feature","properties":{"featurecla":"Admin-0 country","scalerank":0,"LABELRANK":2,"SOVEREIGNT":"Ethiopia","SOV_A3":"ETH","ADM0_DIF":0,"LEVEL":2,"TYPE":"Sovereign country","TLC":"1","ADMIN":"Ethiopia","ADM0_A3":"ETH","GEOU_DIF":0,"GEOUNIT":"Ethiopia","GU_A3":"ETH","SU_DIF":0,"SUBUNIT":"Ethiopia","SU_A3":"ETH","BRK_DIFF":0,"NAME":"Ethiopia","NAME_LONG":"Ethiopia","BRK_A3":"ETH","BRK_NAME":"Ethiopia","BRK_GROUP":null,"ABBREV":"Eth.","POSTAL":"ET","FORMAL_EN":"Federal Democratic Republic of Ethiopia","FORMAL_FR":null,"NAME_CIAWF":"Ethiopia","NOTE_ADM0":null,"NOTE_BRK":null,"NAME_SORT":"Ethiopia","NAME_ALT":null,"MAPCOLOR7":4,"MAPCOLOR8":4,"MAPCOLOR9":1,"MAPCOLOR13":13,"POP_EST":112078730.0,"POP_RANK":17,"POP_YEAR":2019,"GDP_MD":95912,"GDP_YEAR":2019,"ECONOMY":"7. Least developed region","INCOME_GRP":"5. Low income","FIPS_10":"ET","ISO_A2":"ET","ISO_A2_EH":"ET","ISO_A3":"ETH","ISO_A3_EH":"ETH","ISO_N3":"231","ISO_N3_EH":"231","UN_A3":"231","WB_A2":"ET","WB_A3":"ETH","WOE_ID":23424808,"WOE_ID_EH":23424808,"WOE_NOTE":"Exact WOE match as country","ADM0_ISO":"ETH","ADM0_DIFF":null,"ADM0_TLC":"ETH","ADM0_A3_US":"ETH","ADM0_A3_FR":"ETH","ADM0_A3_RU":"ETH","ADM0_A3_ES":"ETH","ADM0_A3_CN":"ETH","ADM0_A3_TW":"ETH","ADM0_A3_IN":"ETH","ADM0_A3_NP":"ETH","ADM0_A3_PK":"ETH","ADM0_A3_DE":"ETH","ADM0_A3_GB":"ETH","ADM0_A3_BR":"ETH","ADM0_A3_IL":"ETH","ADM0_A3_PS":"ETH","ADM0_A3_SA":"ETH","ADM0_A3_EG":"ETH","ADM0_A3_MA":"ETH","ADM0_A3_PT":"ETH","ADM0_A3_AR":"ETH","ADM0_A3_JP":"ETH","ADM0_A3_KO":"ETH","ADM0_A3_VN":"ETH","ADM0_A3_TR":"ETH","ADM0_A3_ID":"ETH","ADM0_A3_PL":"ETH","ADM0_A3_GR":"ETH","ADM0_A3_IT":"ETH","ADM0_A3_NL":"ETH","ADM0_A3_SE":"ETH","ADM0_A3_BD":"ETH","ADM0_A3_UA":"ETH","ADM0_A3_UN":-99,"ADM0_A3_WB":-99,"CONTINENT":"Africa","REGION_UN":"Africa","SUBREGION":"Eastern Africa","REGION_WB":"Sub-Saharan Africa","NAME_LEN":8,"LONG_LEN":8,"ABBREV_LEN":4,"TINY":-99,"HOMEPART":1,"MIN_ZOOM":0.0,"MIN_LABEL":2.0,"MAX_LABEL":7.0,"LABEL_X":39.0886,"LABEL_Y":8.032795,"NE_ID":1159320617,"WIKIDATAID":"Q115","NAME_AR":"إثيوبيا","NAME_BN":"ইথিওপিয়া","NAME_DE":"Äthiopien","NAME_EN":"Ethiopia","NAME_ES":"Etiopía","NAME_FA":"اتیوپی","NAME_FR":"Éthiopie","NAME_EL":"Αιθιοπία","NAME_HE":"אתיופיה","NAME_HI":"इथियोपिया","NAME_HU":"Etiópia","NAME_ID":"Ethiopia","NAME_IT":"Etiopia","NAME_JA":"エチオピア","NAME_KO":"에티오피아","NAME_NL":"Ethiopië","NAME_PL":"Etiopia","NAME_PT":"Etiópia","NAME_RU":"Эфиопия","NAME_SV":"Etiopien","NAME_TR":"Etiyopya","NAME_UK":"Ефіопія","NAME_UR":"ایتھوپیا","NAME_VI":"Ethiopia","NAME_ZH":"埃塞俄比亚","NAME_ZHT":"衣索比亞","FCLASS_ISO":"Admin-0 country","TLC_DIFF":null,"FCLASS_TLC":"Admin-0 country","FCLASS_US":null,"FCLASS_FR":null,"FCLASS_RU":null,"FCLASS_ES":null,"FCLASS_CN":null,"FCLASS_TW":null,"FCLASS_IN":null,"FCLASS_NP":null,"FCLASS_PK":null,"FCLASS_DE":null,"FCLASS_GB":null,"FCLASS_BR":null,"FCLASS_IL":null,"FCLASS_PS":null,"FCLASS_SA":null,"FCLASS_EG":null,"FCLASS_MA":null,"FCLASS_PT":null,"FCLASS_AR":null,"FCLASS_JP":null,"FCLASS_KO":null,"FCLASS_VN":null,"FCLASS_TR":null,"FCLASS_ID":null,"FCLASS_PL":null,"FCLASS_GR":null,"FCLASS_IT":null,"FCLASS_NL":null,"FCLASS_SE":null,"FCLASS_BD":null,"FCLASS_UA":null,"iso_id":"ET","iso_name":"Ethiopia","name":"Ethiopia","source":"iso-3166-1-countries"},"geometry":{"type":"Polygon","coordinates":[[[34.11185,8.626555],[34.103169,8.579322],[34.090249,8.556507],[33.95031,8.433207],[33.824116,8.419487],[33.756213,8.370136],[33.74102,8.367087],[33.695545,8.372875],[33.651672,8.434499],[33.620407,8.460699],[33.600099,8.463955],[33.552143,8.446824],[33.505117,8.474884],[33.484757,8.474006],[33.489924,8.462921],[33.480519,8.45765],[33.392101,8.451862],[33.361353,8.434293],[33.25273,8.458167],[33.23516,8.455635],[33.206427,8.430572],[33.210355,8.420779],[33.202913,8.414113],[33.174078,8.404475],[33.161882,8.361506],[33.174078,8.343058],[33.161159,8.304585],[33.164363,8.292777],[33.185757,8.26451],[33.208288,8.253683],[33.206893,8.240738],[33.181623,8.225726],[33.169944,8.205495],[33.16798,8.181362],[33.187824,8.160898],[33.185137,8.14108],[33.164776,8.117051],[33.117544,8.104158],[33.100594,8.071033],[33.031141,7.996309],[33.021633,7.965251],[32.9898,7.917244],[33.023493,7.835078],[33.040753,7.824846],[33.058323,7.797975],[33.120851,7.783299],[33.132117,7.793944],[33.164518,7.801127],[33.233919,7.783195],[33.29159,7.733069],[33.347142,7.718961],[33.393289,7.739735],[33.462329,7.749502],[33.516796,7.726093],[33.550851,7.691315],[33.572297,7.685217],[33.637202,7.691315],[33.71606,7.657156],[33.761071,7.598142],[33.811507,7.560987],[33.852538,7.553545],[33.882407,7.536079],[34.006534,7.409936],[34.02369,7.382445],[34.030615,7.3487],[34.033612,7.250256],[34.085909,7.211499],[34.132417,7.163388],[34.167764,7.175377],[34.181407,7.167212],[34.195773,7.129023],[34.198253,7.064376],[34.270807,7.003398],[34.280729,6.980092],[34.297575,6.968568],[34.439169,6.934875],[34.503661,6.89002],[34.523298,6.844183],[34.524745,6.824572],[34.511102,6.814314],[34.524745,6.752871],[34.553994,6.739254],[34.618486,6.736541],[34.703545,6.684916],[34.714501,6.655667],[34.733518,6.637606],[34.776099,6.499449],[34.784264,6.44183],[34.832633,6.353541],[34.844725,6.248689],[34.898882,6.13867],[34.951489,6.08118],[34.959447,6.061724],[34.969782,5.996689],[34.955313,5.952558],[34.979911,5.912844],[34.974433,5.863106],[35.079543,5.699782],[35.088225,5.64175],[35.098663,5.622474],[35.261961,5.511887],[35.27364,5.479873],[35.250695,5.435147],[35.287489,5.374092],[35.320769,5.348719],[35.344953,5.352362],[35.430219,5.427215],[35.469287,5.430755],[35.508044,5.423417],[35.57388,5.375332],[35.598168,5.368743],[35.658319,5.386417],[35.683641,5.379595],[35.749373,5.339158],[35.80415,5.318023],[35.809111,5.309109],[35.782033,5.26986],[35.775315,5.24658],[35.807147,5.165267],[35.807354,5.144674],[35.755884,5.063439],[35.751647,4.854356],[35.760018,4.805728],[35.784513,4.764181],[35.920835,4.619332],[35.936028,4.578533],[35.933755,4.52218],[35.940472,4.508046],[36.018401,4.449135],[36.041345,4.443683],[36.236268,4.449652],[36.277196,4.436449],[36.619501,4.443373],[36.651333,4.430583],[36.844087,4.432237],[36.903721,4.415778],[36.974828,4.37994],[37.015652,4.370587],[37.048415,4.331959],[37.075907,4.33108],[37.094821,4.284882],[37.111874,4.282298],[37.976731,3.72644],[38.036158,3.648926],[38.078843,3.632673],[38.101891,3.612649],[38.176925,3.620917],[38.389935,3.596888],[38.445953,3.601668],[38.496906,3.62394],[38.499386,3.64691],[38.508998,3.650812],[38.533182,3.632828],[38.547135,3.609522],[38.57411,3.604561],[38.593747,3.61084],[38.601912,3.59867],[38.660306,3.594459],[38.66103,3.621951],[38.703715,3.570429],[38.722008,3.560404],[38.895227,3.513585],[38.963234,3.522086],[39.010466,3.514464],[39.06793,3.526582],[39.180481,3.476998],[39.219445,3.468704],[39.257583,3.469686],[39.302748,3.495679],[39.315874,3.494904],[39.320525,3.484543],[39.311326,3.466094],[39.436176,3.462374],[39.466976,3.452013],[39.488473,3.413901],[39.504389,3.403333],[39.536325,3.405013],[39.553172,3.431316],[39.574979,3.497901],[39.764218,3.685745],[39.828297,3.842583],[39.848451,3.867284],[40.162437,4.019394],[40.167191,4.035465],[40.185588,4.032158],[40.365732,4.094867],[40.382682,4.121377],[40.700699,4.243515],[40.763744,4.284933],[40.785758,4.25584],[40.846013,4.214989],[40.897689,4.145924],[40.963628,4.12037],[41.0059,4.086677],[41.070082,3.996915],[41.114524,3.962343],[41.162996,3.94268],[41.215293,3.936608],[41.429543,3.948882],[41.586329,3.984151],[41.642967,3.969449],[41.699811,3.996915],[41.791381,3.958157],[41.835927,3.94945],[41.885019,3.977226],[41.912201,4.007974],[41.923466,4.070554],[42.102887,4.19189],[42.13534,4.200081],[42.297294,4.201734],[42.78977,4.285605],[42.831628,4.302322],[42.868938,4.326765],[42.899634,4.361104],[42.9325,4.463217],[42.960406,4.517374],[43.119259,4.647702],[43.528485,4.841566],[43.845158,4.914352],[43.968975,4.953962],[44.912586,4.899392],[44.941525,4.911484],[45.935986,5.996689],[46.423915,6.496736],[47.979169,7.996567],[46.97923,7.996567],[46.920526,8.025609],[45.766384,8.412227],[44.023855,8.985525],[43.984788,9.008314],[43.621502,9.336899],[43.60724,9.344625],[43.548225,9.336072],[43.419034,9.413018],[43.406322,9.42865],[43.399449,9.480947],[43.370665,9.544225],[43.331753,9.575076],[43.305966,9.617554],[43.270671,9.628354],[43.248812,9.652332],[43.206334,9.851209],[43.187214,9.883326],[43.067686,9.922522],[43.039884,9.949988],[42.999887,10.061971],[42.981903,10.091633],[42.958235,10.115559],[42.862324,10.177158],[42.836279,10.208086],[42.78946,10.333324],[42.776644,10.42461],[42.765792,10.451947],[42.695202,10.524708],[42.668537,10.56623],[42.64859,10.611033],[42.647247,10.63222],[42.699646,10.65855],[42.711635,10.675163],[42.738094,10.759784],[42.801242,10.820788],[42.819432,10.872567],[42.834832,10.888406],[42.893536,10.919671],[42.923715,10.998787],[42.908109,11.004187],[42.873279,10.978246],[42.771787,10.996462],[42.754837,11.010544],[42.729619,11.06501],[42.615621,11.08966],[42.569732,11.086146],[42.479712,11.059119],[42.391758,11.005893],[42.338532,11.015504],[42.305872,11.004601],[42.270835,11.003516],[42.221639,10.984344],[42.151359,10.996203],[42.096272,10.990261],[42.069401,10.981501],[42.038395,10.950444],[41.954162,10.941271],[41.937522,10.929825],[41.916852,10.947059],[41.773811,10.980054],[41.761306,10.996203],[41.779289,11.024677],[41.785594,11.067388],[41.787971,11.259727],[41.775672,11.368429],[41.749834,11.483383],[41.74911,11.537953],[41.778669,11.628645],[41.792415,11.704455],[41.808228,11.736236],[41.862282,11.763056],[41.877784,11.790134],[41.936386,11.827445],[42.057308,11.996271],[42.097719,12.070169],[42.132343,12.093475],[42.155494,12.142257],[42.288715,12.321006],[42.319205,12.386377],[42.379459,12.465907],[42.33171,12.515465],[42.250165,12.623985],[42.184949,12.733048],[42.137304,12.77333],[42.024649,12.82697],[41.946617,12.876166],[41.894321,12.94797],[41.8166,13.112792],[41.784767,13.164572],[41.7118,13.247926],[41.530726,13.393783],[41.222217,13.586614],[41.192038,13.615863],[41.043623,13.872488],[40.833197,14.105962],[40.772322,14.148362],[40.704419,14.173219],[40.585874,14.19469],[40.479834,14.244403],[40.421646,14.273755],[40.277055,14.404574],[40.194373,14.444649],[40.104559,14.465966],[40.037483,14.451522],[39.979812,14.458731],[39.961519,14.454209],[39.93072,14.428784],[39.892273,14.426562],[39.796878,14.495111],[39.766906,14.504775],[39.650944,14.496584],[39.59379,14.514567],[39.552138,14.556684],[39.515035,14.56782],[39.489403,14.524489],[39.448579,14.505111],[39.36662,14.482916],[39.268538,14.48643],[39.233191,14.440438],[39.20818,14.440179],[39.158467,14.560146],[39.127461,14.602211],[39.0855,14.633475],[39.009742,14.651226],[38.996823,14.638901],[38.993826,14.585157],[38.979667,14.567122],[38.917552,14.535703],[38.866082,14.493664],[38.821537,14.489478],[38.742885,14.461056],[38.668471,14.467723],[38.606563,14.436484],[38.569356,14.426821],[38.426832,14.417183],[38.41443,14.426304],[38.394276,14.464312],[38.340636,14.492682],[38.313351,14.519347],[38.28927,14.587741],[38.257644,14.610427],[38.247825,14.647712],[38.229325,14.679725],[38.190258,14.687322],[38.115223,14.681017],[38.006703,14.7244],[37.989856,14.757317],[37.964432,14.771193],[37.95761,14.802844],[37.94004,14.81088],[37.908828,14.864727],[37.891464,14.879532],[37.564973,14.116685],[37.553707,14.105497],[37.525285,14.128829],[37.5165,14.180557],[37.475366,14.199574],[37.452628,14.260578],[37.397748,14.301738],[37.390203,14.358169],[37.33708,14.426356],[37.293775,14.457439],[37.258221,14.448111],[37.184221,14.449558],[37.149701,14.441936],[37.121072,14.420826],[37.097818,14.379511],[37.090997,14.314218],[37.060197,14.27683],[37.026091,14.27683],[37.011518,14.265074],[36.995395,14.264092],[36.970901,14.27683],[36.946923,14.304735],[36.848531,14.327783],[36.748072,14.332072],[36.713655,14.317784],[36.648543,14.31458],[36.61764,14.300446],[36.565654,14.292927],[36.545707,14.263162],[36.52638,14.263523],[36.432122,13.969924],[36.438013,13.919952],[36.455376,13.870007],[36.458167,13.820139],[36.398429,13.67604],[36.391298,13.599352],[36.382099,13.571033],[36.233581,13.36164],[36.136946,13.032436],[36.149865,12.980242],[36.114415,12.933889],[36.115346,12.911719],[36.143044,12.856942],[36.143251,12.832551],[36.115035,12.70181],[36.099429,12.69566],[36.029976,12.717158],[35.728392,12.67437],[35.687671,12.659228],[35.672375,12.604296],[35.616875,12.575151],[35.428772,12.266953],[35.412546,12.198636],[35.353738,12.14603],[35.317358,12.023712],[35.297824,12.001594],[35.251419,11.971725],[35.245734,11.929867],[35.215555,11.896588],[35.126672,11.862946],[35.088018,11.838193],[35.072722,11.818866],[35.048227,11.771376],[35.040579,11.727399],[35.046263,11.648644],[35.074375,11.587356],[35.073135,11.54896],[34.947148,11.274868],[34.944254,11.253242],[34.953969,11.226112],[34.984148,11.186398],[34.980324,11.155263],[34.913558,10.952976],[34.952832,10.91843],[34.95831,10.903418],[34.950662,10.869183],[34.933816,10.845308],[34.861572,10.787586],[34.85134,10.745753],[34.838524,10.72914],[34.798527,10.729656],[34.772895,10.688263],[34.764834,10.680254],[34.754395,10.684129],[34.756979,10.728804],[34.750674,10.743945],[34.574768,10.884143],[34.420048,10.780816],[34.365582,10.685783],[34.279489,10.565506],[34.271737,10.530082],[34.276181,10.488715],[34.32486,10.268651],[34.325894,10.223563],[34.317419,10.181266],[34.301813,10.160285],[34.303466,10.113544],[34.280832,10.080109],[34.221921,10.02603],[34.098208,9.67972],[34.066892,9.531176],[34.11185,8.626555]]]}}
