{"type":"Feature","properties":{"iso_id":"FJ-05","iso_name":"Lau","name":"Lau","source":"iso-3166-2-placeholder-circle"},"geometry":{"type":"Polygon","coordinates":[[[-178.0,-18.333333],[-178.009607,-18.235788],[-178.03806,-18.141992],[-178.084265,-18.055548],[-178.146447,-17.97978],[-178.222215,-17.917599],[-178.308658,-17.871394],[-178.402455,-17.842941],[-178.5,-17.833333],[-178.597545,-17.842941],[-178.691342,-17.871394],[-178.777785,-17.917599],[-178.853553,-17.97978],[-178.915735,-18.055548],[-178.96194,-18.141992],[-178.990393,-18.235788],[-179.0,-18.333333],[-178.990393,-18.430878],[-178.96194,-18.524675],[-178.915735,-18.611118],[-178.853553,-18.686887],[-178.777785,-18.749068],[-178.691342,-18.795273],[-178.597545,-18.823726],[-178.5,-18.833333],[-178.402455,-18.823726],[-178.308658,-18.795273],[-178.222215,-18.749068],[-178.146447,-18.686887],[-178.084265,-18.611118],[-178.03806,-18.524675],[-178.009607,-18.430878],[-178.0,-18.333333]]]}}
