{"type":"Feature","properties":{"featurecla":"Admin-1 states provinces","scalerank":3,"adm1_code":"FRA-5316","diss_me":5316,"iso_3166_2":"FR-44","wikipedia":null,"iso_a2":"FR","adm0_sr":5,"name":"Loire-Atlantique","name_alt":null,"name_local":null,"type":"Metropolitan département","type_en":"Metropolitan department","code_local":null,"code_hasc":"FR.LA","note":null,"hasc_maybe":null,"region":"Pays de la Loire","region_cod":"FR-PDL","provnum_ne":3,"gadm_level":1,"check_me":20,"datarank":3,"abbrev":null,"postal":null,"area_sqkm":0,"sameascity":-99,"labelrank":3,"name_len":16,"mapcolor9":9,"mapcolor13":11,"fips":"FRA5","fips_alt":"FRB5","woe_id":12597177,"woe_label":null,"woe_name":"Loire-Atlantique","latitude":47.3637,"longitude":-1.6025,"sov_a3":"FR1","adm0_a3":"FRA","adm0_label":2,"admin":"France","geonunit":"France","gu_a3":"FXX","gn_id":2997861,"gn_name":"Departement de la Loire-Atlantique","gns_id":0,"gns_name":null,"gn_level":2,"gn_region":null,"gn_a1_code":"FR.44","region_sub":null,"sub_code":null,"gns_level":1,"gns_lang":null,"gns_adm1":null,"gns_region":null,"min_label":8.0,"max_label":11.0,"min_zoom":8.0,"wikidataid":"Q3068","name_ar":"لوار الأطلسية","name_bn":"লইরে-আটলান্তিক","name_de":"Département Loire-Atlantique","name_en":"Loire-Atlantique","name_es":"Loira Atlántico","name_fr":"Loire-Atlantique","name_el":"Λουάρ-Ατλαντίκ","name_hi":"लोइर-अटलांटिक","name_hu":"Loire-Atlantique","name_id":"Loire-Atlantique","name_it":"Loira Atlantica","name_ja":"ロワール＝アトランティック県","name_ko":"루아르아틀랑티크","name_nl":"Loire-Atlantique","name_pl":"Loara Atlantycka","name_pt":"Loire-Atlantique","name_ru":"Атлантическая Луара","name_sv":"Loire-Atlantique","name_tr":"Loire-Atlantique","name_vi":"Loire-Atlantique","name_zh":"大西洋卢瓦尔省","ne_id":1159316759,"name_he":"הלואר האטלנטי","name_uk":"Атлантична Луара","name_ur":"لوار-اتلانتیک","name_fa":"لوآر-آتلانتیک","name_zht":"大西洋盧瓦爾省","FCLASS_ISO":null,"FCLASS_US":null,"FCLASS_FR":null,"FCLASS_RU":null,"FCLASS_ES":null,"FCLASS_CN":null,"FCLASS_TW":null,"FCLASS_IN":null,"FCLASS_NP":null,"FCLASS_PK":null,"FCLASS_DE":null,"FCLASS_GB":null,"FCLASS_BR":null,"FCLASS_IL":null,"FCLASS_PS":null,"FCLASS_SA":null,"FCLASS_EG":null,"FCLASS_MA":null,"FCLASS_PT":null,"FCLASS_AR":null,"FCLASS_JP":null,"FCLASS_KO":null,"FCLASS_VN":null,"FCLASS_TR":null,"FCLASS_ID":null,"FCLASS_PL":null,"FCLASS_GR":null,"FCLASS_IT":null,"FCLASS_NL":null,"FCLASS_SE":null,"FCLASS_BD":null,"FCLASS_UA":null,"FCLASS_TLC":null,"iso_id":"FR-44","iso_name":"Loire-Atlantique","source":"iso-3166-2-subdivisions"},"geometry":{"type":"Polygon","coordinates":[[[-1.990716,47.035387],[-1.876612,46.959373],[-1.771572,46.924458],[-1.720331,46.8846],[-1.550142,46.859947],[-1.518677,46.868307],[-1.499957,46.882677],[-1.517689,46.900948],[-1.539354,46.94575],[-1.552988,46.993365],[-1.546648,47.020105],[-1.498177,47.035387],[-1.474798,47.026291],[-1.467997,47.010525],[-1.467975,46.955572],[-1.459483,46.940443],[-1.443113,46.933577],[-1.424085,46.935807],[-1.370285,46.964668],[-1.362386,46.98596],[-1.367989,47.023994],[-1.362825,47.035948],[-1.343929,47.045088],[-1.305389,47.039167],[-1.269683,47.076322],[-1.23122,47.066973],[-1.148614,47.029499],[-1.118357,47.041045],[-1.129355,47.062644],[-1.160534,47.084134],[-1.23011,47.109424],[-1.219278,47.131792],[-1.161852,47.185823],[-1.196371,47.24816],[-1.250578,47.246424],[-1.301489,47.297115],[-1.33926,47.300894],[-1.334722,47.323855],[-1.304246,47.340939],[-1.223244,47.351145],[-1.164797,47.375799],[-1.000903,47.383247],[-0.923779,47.394256],[-0.95587,47.438838],[-0.965593,47.491759],[-1.128959,47.504976],[-1.15314,47.516863],[-1.174651,47.542],[-1.178892,47.563786],[-1.161731,47.571311],[-1.058317,47.564148],[-1.032137,47.569784],[-1.008209,47.587758],[-1.031324,47.601414],[-1.158084,47.631473],[-1.176124,47.655247],[-1.179343,47.699489],[-1.212345,47.72022],[-1.240536,47.722945],[-1.247974,47.733975],[-1.251006,47.780392],[-1.351312,47.791862],[-1.409495,47.82359],[-1.461713,47.823437],[-1.592011,47.775481],[-1.640571,47.739512],[-1.685318,47.718484],[-1.806135,47.692337],[-1.865845,47.702796],[-1.958251,47.675846],[-2.030695,47.671221],[-2.081034,47.649809],[-2.088549,47.632626],[-2.085835,47.607995],[-2.109972,47.542318],[-2.119948,47.529629],[-2.154412,47.513117],[-2.179263,47.482476],[-2.197643,47.487804],[-2.202521,47.506767],[-2.253366,47.495264],[-2.292357,47.505888],[-2.345739,47.459482],[-2.394969,47.455274],[-2.433102,47.465832],[-2.452889,47.461855],[-2.461097,47.452644],[-2.439036,47.44477],[-2.44815,47.430609],[-2.391835,47.423651],[-2.439036,47.396308],[-2.446401,47.402533],[-2.439036,47.40998],[-2.476796,47.415676],[-2.556386,47.383246],[-2.514801,47.364936],[-2.503326,47.349595],[-2.501698,47.320624],[-2.488922,47.33039],[-2.494252,47.341742],[-2.480621,47.347886],[-2.436187,47.307034],[-2.453359,47.29328],[-2.476064,47.290676],[-2.519032,47.304633],[-2.541982,47.306952],[-2.541982,47.300116],[-2.448394,47.266588],[-2.419179,47.266018],[-2.404897,47.286444],[-2.371409,47.286444],[-2.31607,47.251654],[-2.278391,47.246405],[-2.206288,47.273424],[-2.179555,47.300116],[-2.148101,47.313218],[-2.010121,47.319729],[-1.905629,47.293931],[-1.835927,47.259752],[-1.788238,47.225572],[-1.72704,47.210761],[-1.780995,47.211982],[-1.836252,47.239936],[-1.877838,47.24551],[-1.918853,47.266018],[-1.918853,47.273424],[-1.898427,47.273424],[-1.927805,47.286322],[-1.947865,47.279364],[-1.999135,47.28856],[-2.014556,47.300116],[-2.151682,47.27969],[-2.170888,47.246324],[-2.169301,47.22016],[-2.158681,47.204495],[-2.165191,47.167873],[-2.205393,47.1612],[-2.241119,47.142483],[-2.205474,47.129096],[-2.090159,47.11518],[-2.030019,47.092108],[-2.003774,47.070014],[-1.990716,47.035387]]]}}
