{"type":"Feature","properties":{"featurecla":"Admin-1 states provinces","scalerank":3,"adm1_code":"FRA-5335","diss_me":5335,"iso_3166_2":"FR-63","wikipedia":null,"iso_a2":"FR","adm0_sr":1,"name":"Puy-de-Dôme","name_alt":null,"name_local":null,"type":"Metropolitan département","type_en":"Metropolitan department","code_local":null,"code_hasc":"FR.PD","note":null,"hasc_maybe":null,"region":"Auvergne-Rhône-Alpes","region_cod":"FR-ARA","provnum_ne":18,"gadm_level":1,"check_me":20,"datarank":3,"abbrev":null,"postal":null,"area_sqkm":0,"sameascity":-99,"labelrank":3,"name_len":11,"mapcolor9":9,"mapcolor13":11,"fips":"FR98","fips_alt":null,"woe_id":12597146,"woe_label":null,"woe_name":"Puy-de-Dôme","latitude":45.8135,"longitude":3.26844,"sov_a3":"FR1","adm0_a3":"FRA","adm0_label":2,"admin":"France","geonunit":"France","gu_a3":"FXX","gn_id":2984986,"gn_name":"Departement du Puy-de-Dome","gns_id":-1460463,"gns_name":"Puy-de-Dome, Departement du","gn_level":2,"gn_region":null,"gn_a1_code":"FR.63","region_sub":null,"sub_code":null,"gns_level":2,"gns_lang":null,"gns_adm1":null,"gns_region":"FR98","min_label":8.0,"max_label":11.0,"min_zoom":8.0,"wikidataid":"Q12694","name_ar":"بوي دي دوم","name_bn":"পুয়-দে-ডোম","name_de":"Département Puy-de-Dôme","name_en":"Puy-de-Dôme","name_es":"Puy-de-Dôme","name_fr":"Puy-de-Dôme","name_el":"Πουί-ντε-Ντομ","name_hi":"पुए-डे-डोम","name_hu":"Puy-de-Dôme","name_id":"Puy-de-Dôme","name_it":"Puy-de-Dôme","name_ja":"ピュイ＝ド＝ドーム県","name_ko":"퓌드돔","name_nl":"Puy-de-Dôme","name_pl":"Puy-de-Dôme","name_pt":"Puy-de-Dôme","name_ru":"Пюи-де-Дом","name_sv":"Puy-de-Dôme","name_tr":"Puy-de-Dôme","name_vi":"Puy-de-Dôme","name_zh":"多姆山省","ne_id":1159313557,"name_he":"פויי-דה-דום","name_uk":"Пюї-де-Дом","name_ur":"پوی-دو-دوم","name_fa":"پوی ددوم","name_zht":"多姆山省","FCLASS_ISO":null,"FCLASS_US":null,"FCLASS_FR":null,"FCLASS_RU":null,"FCLASS_ES":null,"FCLASS_CN":null,"FCLASS_TW":null,"FCLASS_IN":null,"FCLASS_NP":null,"FCLASS_PK":null,"FCLASS_DE":null,"FCLASS_GB":null,"FCLASS_BR":null,"FCLASS_IL":null,"FCLASS_PS":null,"FCLASS_SA":null,"FCLASS_EG":null,"FCLASS_MA":null,"FCLASS_PT":null,"FCLASS_AR":null,"FCLASS_JP":null,"FCLASS_KO":null,"FCLASS_VN":null,"FCLASS_TR":null,"FCLASS_ID":null,"FCLASS_PL":null,"FCLASS_GR":null,"FCLASS_IT":null,"FCLASS_NL":null,"FCLASS_SE":null,"FCLASS_BD":null,"FCLASS_UA":null,"FCLASS_TLC":null,"iso_id":"FR-63","iso_name":"Puy-de-Dôme","source":"iso-3166-2-subdivisions"},"geometry":{"type":"Polygon","coordinates":[[[2.871789,46.262664],[2.819143,46.241757],[2.815649,46.201316],[2.79862,46.197482],[2.73257,46.223388],[2.71363,46.169203],[2.650854,46.125752],[2.621103,46.122039],[2.566743,46.135948],[2.561162,46.081895],[2.594648,46.026853],[2.595285,45.971197],[2.567819,45.946389],[2.541892,45.903455],[2.501594,45.869859],[2.464021,45.868672],[2.400564,45.829187],[2.401025,45.814202],[2.427678,45.787593],[2.438576,45.761544],[2.48417,45.741187],[2.524687,45.697725],[2.52049,45.644375],[2.481379,45.623732],[2.465097,45.584555],[2.495398,45.54518],[2.502363,45.487172],[2.668037,45.434525],[2.703479,45.388031],[2.748017,45.385878],[2.83382,45.396414],[2.900442,45.372639],[2.948562,45.30916],[2.995451,45.288616],[3.033991,45.300262],[3.103535,45.354468],[3.2005,45.35972],[3.235415,45.387735],[3.302541,45.40495],[3.32581,45.421627],[3.343542,45.421891],[3.395134,45.400951],[3.505041,45.416442],[3.567685,45.393898],[3.607346,45.354116],[3.62343,45.347624],[3.678515,45.369563],[3.759836,45.349667],[3.780732,45.357204],[3.790862,45.377957],[3.804748,45.385911],[3.88552,45.358676],[3.90791,45.414179],[3.961281,45.464331],[3.967478,45.498202],[3.927136,45.570086],[3.803935,45.649099],[3.752102,45.732914],[3.697016,45.789296],[3.696071,45.801183],[3.710815,45.825287],[3.710969,45.853533],[3.730393,45.892029],[3.722658,45.907608],[3.681657,45.933426],[3.674692,45.948312],[3.679504,45.957035],[3.58445,46.004782],[3.520027,46.01479],[3.457031,46.003244],[3.45791,46.019965],[3.438112,46.071765],[3.332094,46.044179],[3.313,46.057681],[3.233393,46.073183],[3.127771,46.071535],[3.090988,46.11169],[3.016963,46.102494],[2.984201,46.1157],[2.950056,46.14177],[2.923777,46.174422],[2.909582,46.252578],[2.871789,46.262664]]]}}
