{"type":"Feature","properties":{"featurecla":"Admin-1 states provinces","scalerank":3,"adm1_code":"FRA-5343","diss_me":5343,"iso_3166_2":"FR-76","wikipedia":null,"iso_a2":"FR","adm0_sr":1,"name":"Seine-Maritime","name_alt":"Alta Normand¡a|Upper Normandy","name_local":null,"type":"Metropolitan département","type_en":"Metropolitan department","code_local":null,"code_hasc":"FR.SM","note":null,"hasc_maybe":null,"region":"Normandie","region_cod":"FR-NOR","provnum_ne":22,"gadm_level":1,"check_me":20,"datarank":3,"abbrev":null,"postal":null,"area_sqkm":0,"sameascity":-99,"labelrank":3,"name_len":14,"mapcolor9":9,"mapcolor13":11,"fips":"FRA7","fips_alt":null,"woe_id":12597115,"woe_label":null,"woe_name":"Seine-Maritime","latitude":49.5936,"longitude":1.1513,"sov_a3":"FR1","adm0_a3":"FRA","adm0_label":2,"admin":"France","geonunit":"France","gu_a3":"FXX","gn_id":2975248,"gn_name":"Departement de la Seine-Maritime","gns_id":-1470223,"gns_name":"Seine-Maritime, Departement de la","gn_level":2,"gn_region":null,"gn_a1_code":"FR.76","region_sub":null,"sub_code":null,"gns_level":2,"gns_lang":null,"gns_adm1":null,"gns_region":"FRA7","min_label":8.0,"max_label":11.0,"min_zoom":8.0,"wikidataid":"Q12758","name_ar":"السان البحرية","name_bn":"সেইন-মেরিটাইম","name_de":"Département Seine-Maritime","name_en":"Seine-Maritime","name_es":"Sena Marítimo","name_fr":"Seine-Maritime","name_el":"Σεν-Μαριτίμ","name_hi":"सीन-मेरीटाइम","name_hu":"Seine-Maritime","name_id":"Seine-Maritime","name_it":"Senna Marittima","name_ja":"セーヌ＝マリティーム県","name_ko":"센마리팀","name_nl":"Seine-Maritime","name_pl":"Seine-Maritime","name_pt":"Sena Marítimo","name_ru":"Приморская Сена","name_sv":"Seine-Maritime","name_tr":"Seine-Maritime","name_vi":"Seine-Maritime","name_zh":"滨海塞纳省","ne_id":1159316745,"name_he":"סן-מריטים","name_uk":"Приморська Сена","name_ur":"سین-ماریتیم","name_fa":"سن ماریتیم","name_zht":"滨海塞纳省","FCLASS_ISO":null,"FCLASS_US":null,"FCLASS_FR":null,"FCLASS_RU":null,"FCLASS_ES":null,"FCLASS_CN":null,"FCLASS_TW":null,"FCLASS_IN":null,"FCLASS_NP":null,"FCLASS_PK":null,"FCLASS_DE":null,"FCLASS_GB":null,"FCLASS_BR":null,"FCLASS_IL":null,"FCLASS_PS":null,"FCLASS_SA":null,"FCLASS_EG":null,"FCLASS_MA":null,"FCLASS_PT":null,"FCLASS_AR":null,"FCLASS_JP":null,"FCLASS_KO":null,"FCLASS_VN":null,"FCLASS_TR":null,"FCLASS_ID":null,"FCLASS_PL":null,"FCLASS_GR":null,"FCLASS_IT":null,"FCLASS_NL":null,"FCLASS_SE":null,"FCLASS_BD":null,"FCLASS_UA":null,"FCLASS_TLC":null,"iso_id":"FR-76","iso_name":"Seine-Maritime","source":"iso-3166-2-subdivisions"},"geometry":{"type":"Polygon","coordinates":[[[0.493175,49.493598],[0.520407,49.486152],[0.5729,49.444041],[0.592434,49.43835],[0.633786,49.444601],[0.663977,49.407709],[0.709768,49.402535],[0.80469,49.41986],[0.818796,49.415828],[0.919101,49.361292],[0.920046,49.338594],[0.859489,49.345329],[0.873552,49.315105],[0.939008,49.293891],[1.00341,49.258042],[1.022461,49.256307],[1.044499,49.261844],[1.037292,49.278312],[1.045905,49.291672],[1.12738,49.313128],[1.170974,49.346471],[1.266511,49.348064],[1.350117,49.442008],[1.39248,49.453863],[1.539016,49.439756],[1.67718,49.398689],[1.717984,49.410994],[1.716555,49.423804],[1.737495,49.464629],[1.761577,49.477967],[1.767927,49.489898],[1.761577,49.508399],[1.726025,49.503125],[1.712534,49.509893],[1.693571,49.626996],[1.680871,49.64508],[1.730354,49.676709],[1.729431,49.69376],[1.689704,49.68808],[1.680695,49.688959],[1.679157,49.697045],[1.719499,49.745418],[1.754546,49.765622],[1.753469,49.776806],[1.680871,49.888482],[1.516384,50.000674],[1.373069,50.06572],[1.260997,50.007514],[1.221202,49.97899],[1.172618,49.961005],[0.760916,49.875067],[0.674815,49.8758],[0.59669,49.857245],[0.387462,49.775051],[0.23585,49.729315],[0.170909,49.691636],[0.13087,49.603502],[0.079682,49.542182],[0.075369,49.524075],[0.104421,49.493598],[0.12436,49.485785],[0.33961,49.456732],[0.42213,49.464423],[0.493175,49.493598]]]}}
