{"type":"Feature","properties":{"featurecla":"Admin-1 states provinces","scalerank":3,"adm1_code":"FRA-5335","diss_me":5335,"iso_3166_2":"FR-63","wikipedia":null,"iso_a2":"FR","adm0_sr":1,"name":"Auvergne","name_alt":null,"name_local":null,"type":"Metropolitan département","type_en":"Metropolitan department","code_local":null,"code_hasc":"FR.PD","note":null,"hasc_maybe":null,"region":"Auvergne-Rhône-Alpes","region_cod":"FR-ARA","provnum_ne":18,"gadm_level":1,"check_me":20,"datarank":3,"abbrev":null,"postal":null,"area_sqkm":0,"sameascity":-99,"labelrank":3,"name_len":11,"mapcolor9":9,"mapcolor13":11,"fips":"FR98","fips_alt":null,"woe_id":12597146,"woe_label":null,"woe_name":"Puy-de-Dôme","latitude":45.8135,"longitude":3.26844,"sov_a3":"FR1","adm0_a3":"FRA","adm0_label":2,"admin":"France","geonunit":"France","gu_a3":"FXX","gn_id":2984986,"gn_name":"Departement du Puy-de-Dome","gns_id":-1460463,"gns_name":"Puy-de-Dome, Departement du","gn_level":2,"gn_region":null,"gn_a1_code":"FR.63","region_sub":null,"sub_code":null,"gns_level":2,"gns_lang":null,"gns_adm1":null,"gns_region":"FR98","min_label":8.0,"max_label":11.0,"min_zoom":8.0,"wikidataid":"Q12694","name_ar":"بوي دي دوم","name_bn":"পুয়-দে-ডোম","name_de":"Département Puy-de-Dôme","name_en":"Puy-de-Dôme","name_es":"Puy-de-Dôme","name_fr":"Puy-de-Dôme","name_el":"Πουί-ντε-Ντομ","name_hi":"पुए-डे-डोम","name_hu":"Puy-de-Dôme","name_id":"Puy-de-Dôme","name_it":"Puy-de-Dôme","name_ja":"ピュイ＝ド＝ドーム県","name_ko":"퓌드돔","name_nl":"Puy-de-Dôme","name_pl":"Puy-de-Dôme","name_pt":"Puy-de-Dôme","name_ru":"Пюи-де-Дом","name_sv":"Puy-de-Dôme","name_tr":"Puy-de-Dôme","name_vi":"Puy-de-Dôme","name_zh":"多姆山省","ne_id":1159313557,"name_he":"פויי-דה-דום","name_uk":"Пюї-де-Дом","name_ur":"پوی-دو-دوم","name_fa":"پوی ددوم","name_zht":"多姆山省","FCLASS_ISO":null,"FCLASS_US":null,"FCLASS_FR":null,"FCLASS_RU":null,"FCLASS_ES":null,"FCLASS_CN":null,"FCLASS_TW":null,"FCLASS_IN":null,"FCLASS_NP":null,"FCLASS_PK":null,"FCLASS_DE":null,"FCLASS_GB":null,"FCLASS_BR":null,"FCLASS_IL":null,"FCLASS_PS":null,"FCLASS_SA":null,"FCLASS_EG":null,"FCLASS_MA":null,"FCLASS_PT":null,"FCLASS_AR":null,"FCLASS_JP":null,"FCLASS_KO":null,"FCLASS_VN":null,"FCLASS_TR":null,"FCLASS_ID":null,"FCLASS_PL":null,"FCLASS_GR":null,"FCLASS_IT":null,"FCLASS_NL":null,"FCLASS_SE":null,"FCLASS_BD":null,"FCLASS_UA":null,"FCLASS_TLC":null,"iso_id":"FR-C","iso_name":"Auvergne","source":"iso-3166-2-fr-region-historic"},"geometry":{"type":"MultiPolygon","coordinates":[[[[2.871789,46.262664],[2.819143,46.241757],[2.815649,46.201316],[2.79862,46.197482],[2.73257,46.223388],[2.71363,46.169203],[2.650854,46.125752],[2.621103,46.122039],[2.566743,46.135948],[2.561162,46.081895],[2.594648,46.026853],[2.595285,45.971197],[2.567819,45.946389],[2.541892,45.903455],[2.501594,45.869859],[2.464021,45.868672],[2.400564,45.829187],[2.401025,45.814202],[2.427678,45.787593],[2.438576,45.761544],[2.48417,45.741187],[2.524687,45.697725],[2.52049,45.644375],[2.481379,45.623732],[2.465097,45.584555],[2.495398,45.54518],[2.502363,45.487172],[2.668037,45.434525],[2.703479,45.388031],[2.748017,45.385878],[2.83382,45.396414],[2.900442,45.372639],[2.948562,45.30916],[2.995451,45.288616],[3.033991,45.300262],[3.103535,45.354468],[3.2005,45.35972],[3.235415,45.387735],[3.302541,45.40495],[3.32581,45.421627],[3.343542,45.421891],[3.395134,45.400951],[3.505041,45.416442],[3.567685,45.393898],[3.607346,45.354116],[3.62343,45.347624],[3.678515,45.369563],[3.759836,45.349667],[3.780732,45.357204],[3.790862,45.377957],[3.804748,45.385911],[3.88552,45.358676],[3.90791,45.414179],[3.961281,45.464331],[3.967478,45.498202],[3.927136,45.570086],[3.803935,45.649099],[3.752102,45.732914],[3.697016,45.789296],[3.696071,45.801183],[3.710815,45.825287],[3.710969,45.853533],[3.730393,45.892029],[3.722658,45.907608],[3.681657,45.933426],[3.674692,45.948312],[3.679504,45.957035],[3.58445,46.004782],[3.520027,46.01479],[3.457031,46.003244],[3.45791,46.019965],[3.438112,46.071765],[3.332094,46.044179],[3.313,46.057681],[3.233393,46.073183],[3.127771,46.071535],[3.090988,46.11169],[3.016963,46.102494],[2.984201,46.1157],[2.950056,46.14177],[2.923777,46.174422],[2.909582,46.252578],[2.871789,46.262664]]],[[[3.016963,46.102494],[3.090988,46.11169],[3.127771,46.071535],[3.233393,46.073183],[3.313,46.057681],[3.332094,46.044179],[3.438112,46.071765],[3.45791,46.019965],[3.457031,46.003244],[3.520027,46.01479],[3.58445,46.004782],[3.679504,45.957035],[3.718264,45.971823],[3.79697,45.985435],[3.81758,46.008616],[3.79029,46.109482],[3.792773,46.161941],[3.7855,46.203843],[3.766516,46.22876],[3.82114,46.261807],[3.886465,46.276199],[3.999734,46.326341],[3.978947,46.388172],[3.989494,46.427239],[3.978816,46.462637],[3.946714,46.481303],[3.878247,46.492849],[3.834851,46.521864],[3.805495,46.523106],[3.74094,46.54933],[3.745598,46.59333],[3.740017,46.615446],[3.657883,46.685934],[3.62488,46.739262],[3.596755,46.742887],[3.588845,46.715828],[3.567619,46.706292],[3.559863,46.681386],[3.470456,46.649965],[3.456833,46.656249],[3.456965,46.674717],[3.43352,46.705775],[3.397243,46.709632],[3.35844,46.684649],[3.285512,46.702425],[3.204192,46.687275],[3.14737,46.724639],[3.102524,46.727177],[3.051526,46.750325],[3.032871,46.768518],[3.029773,46.790941],[2.975764,46.793216],[2.931379,46.78324],[2.867614,46.754412],[2.838149,46.725935],[2.805542,46.730736],[2.772693,46.713345],[2.722243,46.734307],[2.653293,46.69012],[2.628025,46.689296],[2.619675,46.661369],[2.586892,46.661336],[2.576213,46.650591],[2.593418,46.628728],[2.585507,46.601394],[2.615786,46.569897],[2.617346,46.551967],[2.529631,46.532202],[2.399641,46.521765],[2.340051,46.500573],[2.315485,46.476645],[2.291623,46.468383],[2.253896,46.419801],[2.315969,46.366682],[2.339743,46.322649],[2.396828,46.310147],[2.424602,46.275111],[2.449431,46.283373],[2.474084,46.271409],[2.514602,46.225805],[2.531345,46.185452],[2.566743,46.135948],[2.621103,46.122039],[2.650854,46.125752],[2.71363,46.169203],[2.73257,46.223388],[2.79862,46.197482],[2.815649,46.201316],[2.819143,46.241757],[2.871789,46.262664],[2.909582,46.252578],[2.923777,46.174422],[2.950056,46.14177],[2.984201,46.1157],[3.016963,46.102494]]],[[[3.112302,45.284716],[3.19281,45.286001],[3.226516,45.268006],[3.233459,45.232267],[3.268132,45.188014],[3.274592,45.136148],[3.288105,45.120558],[3.327832,45.112033],[3.3306,45.098146],[3.294807,45.069724],[3.290368,45.05263],[3.296323,45.039095],[3.355803,44.993161],[3.369734,44.954236],[3.386696,44.953489],[3.402978,44.914696],[3.478674,44.821653],[3.49278,44.816028],[3.569465,44.829146],[3.584055,44.83855],[3.594602,44.870982],[3.643469,44.874311],[3.661157,44.862687],[3.655114,44.833518],[3.728679,44.820939],[3.795102,44.776181],[3.872204,44.750912],[3.893803,44.758042],[3.947483,44.818401],[4.013445,44.836078],[4.031418,44.865269],[4.15352,44.875354],[4.193269,44.914521],[4.215417,44.958938],[4.252068,44.960147],[4.296628,44.974176],[4.298474,44.987591],[4.28885,45.00128],[4.301902,45.021132],[4.367666,45.038128],[4.347824,45.068439],[4.383486,45.101299],[4.369995,45.132852],[4.392319,45.134148],[4.419961,45.116834],[4.435781,45.1198],[4.443076,45.150913],[4.478166,45.218117],[4.477837,45.22595],[4.429585,45.259458],[4.353559,45.278498],[4.338794,45.306689],[4.350769,45.343559],[4.32561,45.380901],[4.302517,45.392887],[4.264636,45.372266],[4.196675,45.386999],[4.160046,45.386691],[4.137722,45.359555],[4.042097,45.346426],[3.998635,45.345602],[3.961765,45.369948],[3.902483,45.345503],[3.88552,45.358676],[3.804748,45.385911],[3.790862,45.377957],[3.780732,45.357204],[3.759836,45.349667],[3.678515,45.369563],[3.62343,45.347624],[3.607346,45.354116],[3.567685,45.393898],[3.505041,45.416442],[3.395134,45.400951],[3.343542,45.421891],[3.32581,45.421627],[3.302541,45.40495],[3.235415,45.387735],[3.2005,45.35972],[3.103535,45.354468],[3.113269,45.32041],[3.112302,45.284716]]],[[[3.103535,45.354468],[3.033991,45.300262],[2.995451,45.288616],[2.948562,45.30916],[2.900442,45.372639],[2.83382,45.396414],[2.748017,45.385878],[2.703479,45.388031],[2.668037,45.434525],[2.590935,45.454356],[2.537365,45.480042],[2.518645,45.47924],[2.498781,45.417749],[2.48217,45.3918],[2.441389,45.392272],[2.391247,45.413278],[2.351828,45.406631],[2.369033,45.376606],[2.347785,45.339713],[2.330427,45.331342],[2.297666,45.293098],[2.246008,45.274784],[2.237614,45.249878],[2.194636,45.223698],[2.192131,45.201483],[2.207336,45.180313],[2.206875,45.159494],[2.160666,45.086237],[2.107448,45.050949],[2.132717,45.005443],[2.131618,44.992655],[2.058713,44.97511],[2.071106,44.956631],[2.085388,44.879793],[2.156799,44.783827],[2.132255,44.698672],[2.161281,44.684555],[2.181606,44.631227],[2.205315,44.622339],[2.214213,44.647201],[2.300456,44.668723],[2.321286,44.667174],[2.340051,44.651903],[2.471623,44.668229],[2.533982,44.723161],[2.54343,44.754999],[2.583486,44.802273],[2.594033,44.83499],[2.726726,44.935351],[2.739909,44.931055],[2.770056,44.899997],[2.775769,44.863105],[2.830085,44.864599],[2.866999,44.823521],[2.878601,44.797165],[2.926567,44.778092],[2.926567,44.768589],[2.90688,44.756779],[2.925798,44.690817],[2.94632,44.665076],[2.980114,44.644279],[2.994265,44.676831],[3.024961,44.715053],[3.053547,44.811271],[3.089494,44.837001],[3.107072,44.888527],[3.124299,44.895657],[3.154204,44.86974],[3.1682,44.871762],[3.244226,44.922068],[3.285359,44.926254],[3.344948,44.952962],[3.369734,44.954236],[3.355803,44.993161],[3.296323,45.039095],[3.290368,45.05263],[3.294807,45.069724],[3.3306,45.098146],[3.327832,45.112033],[3.288105,45.120558],[3.274592,45.136148],[3.268132,45.188014],[3.233459,45.232267],[3.226516,45.268006],[3.19281,45.286001],[3.112302,45.284716],[3.113269,45.32041],[3.103535,45.354468]]]]}}
