{"type":"Feature","properties":{"featurecla":"Admin-1 states provinces","scalerank":3,"adm1_code":"FRA-5268","diss_me":5268,"iso_3166_2":"FR-08","wikipedia":null,"iso_a2":"FR","adm0_sr":1,"name":"Grand Est","name_alt":"Champaña-Ardenne","name_local":null,"type":"Metropolitan département","type_en":"Metropolitan department","code_local":null,"code_hasc":"FR.AN","note":null,"hasc_maybe":null,"region":"Grand Est","region_cod":"FR-GES","provnum_ne":16,"gadm_level":1,"check_me":20,"datarank":3,"abbrev":null,"postal":null,"area_sqkm":0,"sameascity":-99,"labelrank":3,"name_len":8,"mapcolor9":9,"mapcolor13":11,"fips":"FRA4","fips_alt":null,"woe_id":12597142,"woe_label":null,"woe_name":"Ardennes","latitude":49.5403,"longitude":4.62417,"sov_a3":"FR1","adm0_a3":"FRA","adm0_label":2,"admin":"France","geonunit":"France","gu_a3":"FXX","gn_id":3037136,"gn_name":"Departement des Ardennes","gns_id":-1408170,"gns_name":"Ardennes, Departement des","gn_level":2,"gn_region":null,"gn_a1_code":"FR.08","region_sub":null,"sub_code":null,"gns_level":2,"gns_lang":null,"gns_adm1":null,"gns_region":"FRA4","min_label":8.0,"max_label":11.0,"min_zoom":8.0,"wikidataid":"Q3164","name_ar":"الأردين","name_bn":"আরদেনেস","name_de":"Département Ardennes","name_en":"Ardennes","name_es":"Ardenas","name_fr":"Ardennes","name_el":"Αρδέννες","name_hi":"आर्देनेस","name_hu":"Ardennes","name_id":"Ardennes","name_it":"Ardenne","name_ja":"アルデンヌ県","name_ko":"아르덴","name_nl":"Ardennes","name_pl":"Ardeny","name_pt":"Ardenas","name_ru":"Арденны","name_sv":"Ardennes","name_tr":"Ardennes","name_vi":"Ardennes","name_zh":"阿登省","ne_id":1159316801,"name_he":"ארדן","name_uk":"Арденни","name_ur":"اردن","name_fa":"آردن","name_zht":"阿登省","FCLASS_ISO":null,"FCLASS_US":null,"FCLASS_FR":null,"FCLASS_RU":null,"FCLASS_ES":null,"FCLASS_CN":null,"FCLASS_TW":null,"FCLASS_IN":null,"FCLASS_NP":null,"FCLASS_PK":null,"FCLASS_DE":null,"FCLASS_GB":null,"FCLASS_BR":null,"FCLASS_IL":null,"FCLASS_PS":null,"FCLASS_SA":null,"FCLASS_EG":null,"FCLASS_MA":null,"FCLASS_PT":null,"FCLASS_AR":null,"FCLASS_JP":null,"FCLASS_KO":null,"FCLASS_VN":null,"FCLASS_TR":null,"FCLASS_ID":null,"FCLASS_PL":null,"FCLASS_GR":null,"FCLASS_IT":null,"FCLASS_NL":null,"FCLASS_SE":null,"FCLASS_BD":null,"FCLASS_UA":null,"FCLASS_TLC":null,"iso_id":"FR-GES","iso_name":"Grand Est","source":"iso-3166-2-fr-region-current"},"geometry":{"type":"MultiPolygon","coordinates":[[[[4.815551,50.161332],[4.788575,50.153374],[4.681915,50.083921],[4.67344,50.066196],[4.680572,50.048316],[4.672924,50.01638],[4.656697,49.989095],[4.645845,49.984495],[4.604194,49.980206],[4.435109,49.93225],[4.277599,49.960156],[4.215945,49.954411],[4.216999,49.916794],[4.250222,49.87019],[4.247893,49.854523],[4.217439,49.8135],[4.209836,49.778223],[4.228513,49.761403],[4.234863,49.736706],[4.221174,49.720193],[4.140974,49.673864],[4.117551,49.648705],[4.06341,49.637741],[4.046447,49.6257],[4.073166,49.567308],[4.065564,49.549817],[4.071936,49.522615],[4.048469,49.505246],[4.043042,49.487448],[4.072243,49.447579],[4.043503,49.440295],[4.033879,49.426748],[4.047238,49.421761],[4.05528,49.407292],[4.196565,49.394624],[4.334311,49.318907],[4.374939,49.318731],[4.413808,49.282102],[4.448855,49.276104],[4.577307,49.284399],[4.636523,49.235015],[4.723117,49.252483],[4.836189,49.236136],[4.90749,49.254087],[4.940405,49.254527],[4.978747,49.235674],[5.049499,49.279784],[5.037085,49.323268],[5.091863,49.378738],[5.110166,49.411456],[5.113879,49.421761],[5.099619,49.461476],[5.082414,49.471814],[5.071098,49.498918],[5.094653,49.520802],[5.105508,49.569922],[5.139521,49.58504],[5.193508,49.561111],[5.254966,49.561419],[5.283178,49.543028],[5.389944,49.593257],[5.391166,49.608817],[5.3411,49.625137],[5.32167,49.61258],[5.297898,49.613252],[5.290664,49.626378],[5.293764,49.640537],[5.306373,49.647513],[5.299449,49.662499],[5.259244,49.691335],[5.192478,49.682808],[5.169431,49.687201],[5.136358,49.705339],[5.081891,49.752727],[5.026287,49.766731],[4.970993,49.797065],[4.884177,49.784146],[4.849037,49.794171],[4.849244,49.831585],[4.834878,49.85303],[4.859372,49.891684],[4.860199,49.913337],[4.844593,49.931734],[4.797257,49.944291],[4.783925,49.958295],[4.826713,50.036017],[4.827229,50.064077],[4.84604,50.09069],[4.862886,50.084076],[4.871878,50.139783],[4.862679,50.147586],[4.820098,50.146449],[4.815551,50.161332]]],[[[5.391166,49.608817],[5.389944,49.593257],[5.283178,49.543028],[5.254966,49.561419],[5.193508,49.561111],[5.139521,49.58504],[5.11311,49.576426],[5.100849,49.563539],[5.094653,49.520802],[5.071098,49.498918],[5.082414,49.471814],[5.099619,49.461476],[5.113879,49.421761],[5.110166,49.411456],[5.091863,49.378738],[5.037085,49.323268],[5.049499,49.279784],[4.978747,49.235674],[4.979978,49.209758],[4.955434,49.173096],[4.98479,49.102795],[4.991777,49.036932],[5.026692,49.02099],[5.03414,49.006049],[5.020188,48.991272],[5.019111,48.955435],[5.00852,48.934737],[4.945217,48.915675],[4.928781,48.89779],[4.921179,48.867358],[4.930166,48.832157],[4.906919,48.804768],[4.912654,48.79064],[4.982768,48.750002],[5.004631,48.655398],[5.035854,48.618067],[5.187004,48.541899],[5.268589,48.51084],[5.344768,48.500403],[5.356303,48.481386],[5.455246,48.419214],[5.479153,48.411864],[5.553772,48.439627],[5.614944,48.440528],[5.668865,48.46628],[5.736145,48.466807],[5.765237,48.496602],[5.759348,48.539526],[5.723796,48.55528],[5.716062,48.569782],[5.722785,48.587536],[5.748032,48.600401],[5.757942,48.627262],[5.752141,48.701233],[5.723906,48.729985],[5.72573,48.74152],[5.760227,48.779258],[5.775783,48.82305],[5.776355,48.873213],[5.758557,48.906568],[5.762226,48.919213],[5.797207,48.945174],[5.843393,48.943196],[5.849546,48.960093],[5.818498,48.990877],[5.842492,49.046281],[5.820761,49.103926],[5.809533,49.112078],[5.760073,49.109145],[5.749636,49.151277],[5.762029,49.180765],[5.759699,49.193937],[5.722412,49.211416],[5.727993,49.259339],[5.759458,49.300274],[5.72696,49.320708],[5.729114,49.357447],[5.717907,49.382309],[5.664734,49.428352],[5.643596,49.43579],[5.581018,49.412642],[5.50987,49.409192],[5.489062,49.417806],[5.464123,49.464596],[5.477724,49.495224],[5.456132,49.498944],[5.44993,49.507832],[5.450241,49.545762],[5.391166,49.608817]]],[[[5.746346,49.549431],[5.710276,49.531086],[5.644647,49.543799],[5.619739,49.53553],[5.602273,49.513723],[5.547599,49.523438],[5.528789,49.517961],[5.477724,49.495224],[5.464123,49.464596],[5.485305,49.422255],[5.498532,49.412093],[5.581018,49.412642],[5.643596,49.43579],[5.699297,49.402633],[5.724983,49.370444],[5.72696,49.320708],[5.759458,49.300274],[5.727993,49.259339],[5.720852,49.222348],[5.732365,49.201814],[5.759699,49.193937],[5.762029,49.180765],[5.749636,49.151277],[5.753591,49.117835],[5.774114,49.106343],[5.809533,49.112078],[5.820761,49.103926],[5.84146,49.055575],[5.818498,48.990877],[5.84759,48.965641],[5.847546,48.947371],[5.797207,48.945174],[5.762226,48.919213],[5.758557,48.906568],[5.776355,48.873213],[5.775783,48.82305],[5.760227,48.779258],[5.72573,48.74152],[5.723906,48.729985],[5.752141,48.701233],[5.757942,48.627262],[5.748032,48.600401],[5.722785,48.587536],[5.716062,48.569782],[5.723796,48.55528],[5.759348,48.539526],[5.765237,48.496602],[5.779519,48.486209],[5.842009,48.501974],[5.895886,48.487637],[5.901994,48.459908],[5.874045,48.414183],[5.95497,48.387365],[5.948664,48.365326],[5.976855,48.357493],[6.117217,48.361305],[6.149231,48.371523],[6.147429,48.407777],[6.173642,48.399439],[6.256831,48.40368],[6.284187,48.437814],[6.304204,48.416852],[6.331032,48.406327],[6.389875,48.407777],[6.387414,48.392078],[6.402575,48.39377],[6.43303,48.410491],[6.501804,48.414512],[6.606218,48.46929],[6.635486,48.470575],[6.648889,48.432991],[6.663852,48.423114],[6.736428,48.416292],[6.807246,48.396044],[6.864485,48.435595],[6.887424,48.419434],[7.054724,48.518443],[7.08865,48.523442],[6.970437,48.610992],[6.925437,48.626361],[6.868418,48.620121],[6.706897,48.668099],[6.666489,48.694839],[6.598923,48.715735],[6.557615,48.755022],[6.520679,48.754451],[6.433183,48.78908],[6.371506,48.780203],[6.302292,48.847077],[6.298711,48.87061],[6.322639,48.902195],[6.308664,48.924607],[6.287527,48.931276],[6.143166,48.934561],[6.108493,48.966322],[6.05176,48.981143],[6.034358,49.020144],[5.967385,49.041491],[5.935041,49.084008],[5.93469,49.098565],[6.009397,49.130942],[6.015549,49.15198],[5.986545,49.20065],[6.01968,49.232258],[6.019724,49.244331],[5.996059,49.304811],[5.97011,49.317764],[5.953037,49.352964],[5.924099,49.376497],[5.942204,49.43033],[5.928142,49.482306],[5.839571,49.499874],[5.790685,49.537753],[5.746346,49.549431]]],[[[6.345307,49.455349],[6.298768,49.466232],[6.249365,49.490314],[6.193554,49.499409],[6.13609,49.495275],[6.142601,49.486076],[6.107255,49.48251],[6.099813,49.46463],[6.078006,49.452021],[5.9607,49.441324],[5.946954,49.469953],[5.928142,49.482306],[5.942204,49.43033],[5.924099,49.376497],[5.953037,49.352964],[5.97011,49.317764],[5.996059,49.304811],[6.019724,49.244331],[6.01968,49.232258],[5.986545,49.20065],[6.015549,49.15198],[6.009397,49.130942],[5.93469,49.098565],[5.935041,49.084008],[5.954333,49.052598],[5.967385,49.041491],[6.034358,49.020144],[6.05176,48.981143],[6.108493,48.966322],[6.143166,48.934561],[6.287527,48.931276],[6.308664,48.924607],[6.322639,48.902195],[6.298711,48.87061],[6.302292,48.847077],[6.371506,48.780203],[6.433183,48.78908],[6.520679,48.754451],[6.557615,48.755022],[6.598923,48.715735],[6.666489,48.694839],[6.706897,48.668099],[6.868418,48.620121],[6.925437,48.626361],[6.970437,48.610992],[7.08865,48.523442],[7.19302,48.533527],[7.213696,48.55316],[7.262893,48.575791],[7.300422,48.65564],[7.268782,48.672043],[7.264914,48.684886],[7.313342,48.740795],[7.317671,48.75589],[7.304136,48.775468],[7.247644,48.81837],[7.216333,48.829839],[7.214004,48.846813],[7.204402,48.854174],[7.191636,48.847351],[7.183879,48.824621],[7.14668,48.812679],[7.129255,48.793145],[7.110974,48.789091],[7.074939,48.824544],[7.096384,48.85803],[7.015217,48.882343],[6.981094,48.90492],[6.977073,48.917532],[6.985137,48.936857],[7.042859,48.977342],[7.047034,49.000237],[7.082541,49.035251],[7.078674,49.060157],[7.112666,49.06186],[7.145427,49.009905],[7.284448,48.977474],[7.301806,48.954743],[7.341709,48.943372],[7.490683,48.958852],[7.545154,48.937967],[7.564072,48.939648],[7.589648,48.96117],[7.644932,49.036295],[7.625663,49.043002],[7.60861,49.061968],[7.520863,49.083672],[7.471047,49.12832],[7.482726,49.137054],[7.476112,49.151523],[7.414823,49.157776],[7.410483,49.168938],[7.350951,49.159171],[7.334002,49.13416],[7.297105,49.128114],[7.274367,49.105014],[7.241191,49.113902],[7.154994,49.114419],[7.079857,49.142014],[7.070762,49.136123],[7.073242,49.12031],[7.042546,49.107598],[7.020532,49.118967],[7.008957,49.146407],[7.009474,49.181702],[6.914389,49.206662],[6.833464,49.209452],[6.827676,49.195551],[6.839045,49.162788],[6.821785,49.147751],[6.713781,49.158861],[6.700965,49.172865],[6.70882,49.197773],[6.702516,49.213638],[6.680605,49.207489],[6.663758,49.243869],[6.640297,49.252757],[6.639677,49.271154],[6.556426,49.326396],[6.550122,49.338023],[6.555599,49.34717],[6.573376,49.347738],[6.577717,49.3558],[6.518806,49.402154],[6.511674,49.424736],[6.402741,49.465457],[6.345307,49.455349]]],[[[7.644932,49.036295],[7.589648,48.96117],[7.564072,48.939648],[7.545154,48.937967],[7.490683,48.958852],[7.341709,48.943372],[7.301806,48.954743],[7.284448,48.977474],[7.145427,49.009905],[7.132661,49.020935],[7.119192,49.056388],[7.08643,49.064551],[7.077729,49.054114],[7.082541,49.035251],[7.047034,49.000237],[7.042859,48.977342],[6.991487,48.943888],[6.977073,48.917532],[6.999551,48.889363],[7.096384,48.85803],[7.074939,48.824544],[7.103218,48.79253],[7.120115,48.789399],[7.14668,48.812679],[7.183879,48.824621],[7.191636,48.847351],[7.204402,48.854174],[7.214004,48.846813],[7.216333,48.829839],[7.247644,48.81837],[7.304136,48.775468],[7.317671,48.75589],[7.313342,48.740795],[7.264914,48.684886],[7.268782,48.672043],[7.300422,48.65564],[7.262893,48.575791],[7.213696,48.55316],[7.19302,48.533527],[7.08865,48.523442],[7.148855,48.499887],[7.127717,48.4841],[7.118093,48.387123],[7.104294,48.352604],[7.109875,48.342266],[7.134836,48.333169],[7.188537,48.331005],[7.209038,48.315273],[7.20873,48.303407],[7.291567,48.293509],[7.303454,48.259956],[7.466096,48.207277],[7.476159,48.198191],[7.470073,48.160157],[7.514436,48.151477],[7.525928,48.127395],[7.543286,48.122902],[7.581976,48.121353],[7.604786,48.152566],[7.613364,48.179205],[7.687158,48.252921],[7.702454,48.311187],[7.736974,48.326664],[7.75072,48.341366],[7.738318,48.406607],[7.776455,48.498178],[7.813455,48.519468],[7.801673,48.54758],[7.810252,48.615018],[7.852419,48.658685],[7.895931,48.676513],[7.959183,48.721368],[7.970138,48.757283],[8.017267,48.761831],[8.038765,48.79077],[8.090338,48.807513],[8.148112,48.903734],[8.200305,48.958563],[8.090441,48.979182],[7.931898,49.034838],[7.856864,49.032254],[7.773665,49.048118],[7.726949,49.035664],[7.685091,49.042796],[7.644932,49.036295]]],[[[7.581976,48.121353],[7.525928,48.127395],[7.514436,48.151477],[7.470073,48.160157],[7.476159,48.198191],[7.466096,48.207277],[7.303454,48.259956],[7.291567,48.293509],[7.20873,48.303407],[7.083157,48.164507],[7.07417,48.14605],[7.086892,48.125385],[7.081157,48.10461],[7.059448,48.084659],[7.008537,48.01027],[6.95176,47.956964],[6.941675,47.917436],[6.914956,47.875688],[6.923855,47.843179],[6.868923,47.818998],[6.870154,47.802255],[6.882722,47.791038],[7.023742,47.735667],[7.050307,47.715584],[7.057888,47.666442],[7.023742,47.619475],[7.023435,47.605984],[7.037278,47.59591],[7.079751,47.590922],[7.1429,47.540253],[7.151492,47.51906],[7.142169,47.487651],[7.180833,47.488265],[7.162642,47.459895],[7.168327,47.443565],[7.23809,47.416797],[7.309093,47.432661],[7.378547,47.430646],[7.406349,47.438242],[7.429293,47.465114],[7.414307,47.490177],[7.46743,47.481909],[7.485827,47.495784],[7.476939,47.514879],[7.505464,47.523018],[7.505154,47.533017],[7.482726,47.542267],[7.526341,47.566452],[7.586028,47.584619],[7.590317,47.607948],[7.536573,47.665205],[7.517866,47.675024],[7.511872,47.707322],[7.537813,47.731816],[7.525928,47.783157],[7.542878,47.829433],[7.561998,47.839226],[7.559001,47.882711],[7.578948,47.906328],[7.584942,47.940408],[7.621116,47.97144],[7.618945,48.002652],[7.575744,48.053709],[7.572643,48.094972],[7.581976,48.121353]]],[[[4.866972,48.693279],[4.802131,48.678426],[4.773391,48.643962],[4.837397,48.644599],[4.854382,48.612782],[4.77572,48.595116],[4.768821,48.575517],[4.785212,48.538339],[4.670229,48.531813],[4.668845,48.505391],[4.63727,48.460776],[4.680073,48.43565],[4.716042,48.399384],[4.75311,48.383333],[4.773918,48.358427],[4.824016,48.342101],[4.819182,48.31313],[4.846626,48.290059],[4.862446,48.19829],[4.827597,48.111465],[4.813799,48.104731],[4.741926,48.115179],[4.711142,48.103445],[4.695212,48.07877],[4.718415,48.042911],[4.698508,48.022026],[4.732038,48.005854],[4.804812,47.99133],[4.800769,47.96638],[4.860666,47.943847],[4.843879,47.917029],[4.848889,47.900253],[4.86438,47.895628],[4.884067,47.91258],[4.894614,47.910976],[4.967893,47.842146],[4.989448,47.800805],[4.97844,47.791192],[4.940559,47.786665],[4.931572,47.773438],[4.954511,47.750993],[4.963542,47.705619],[4.981692,47.687843],[4.998896,47.688151],[5.021748,47.705465],[5.033679,47.703807],[5.069692,47.667035],[5.109375,47.648337],[5.137961,47.650534],[5.160901,47.671408],[5.179358,47.676571],[5.203593,47.646315],[5.263491,47.618959],[5.275576,47.590845],[5.283794,47.588307],[5.330508,47.608566],[5.35103,47.594921],[5.365598,47.596679],[5.406885,47.658697],[5.433406,47.674143],[5.501345,47.6819],[5.576338,47.656884],[5.692397,47.685668],[5.704175,47.705509],[5.700923,47.733316],[5.709909,47.76411],[5.7,47.792016],[5.704328,47.801134],[5.821025,47.863482],[5.860752,47.90111],[5.892085,47.909064],[5.89782,47.919292],[5.891755,47.93263],[5.849238,47.96761],[5.804282,47.95836],[5.795844,47.973664],[5.797756,48.008589],[5.787956,48.022542],[5.732234,48.046679],[5.658076,48.095535],[5.68853,48.147709],[5.697517,48.180492],[5.720302,48.19595],[5.713008,48.21143],[5.654978,48.242994],[5.64553,48.276073],[5.625161,48.284082],[5.584402,48.283775],[5.508486,48.350693],[5.478098,48.351824],[5.454323,48.333686],[5.438196,48.331444],[5.422397,48.380147],[5.455246,48.419214],[5.356303,48.481386],[5.344768,48.500403],[5.268589,48.51084],[5.070791,48.597918],[5.014914,48.637183],[4.999995,48.686896],[4.992085,48.692895],[4.866972,48.693279]]],[[[4.992085,48.692895],[4.993623,48.722096],[4.982768,48.750002],[4.912654,48.79064],[4.906919,48.804768],[4.930166,48.832157],[4.921179,48.867358],[4.928781,48.89779],[4.945217,48.915675],[5.00852,48.934737],[5.019111,48.955435],[5.020188,48.991272],[5.03414,49.006049],[5.026692,49.02099],[4.991777,49.036932],[4.98479,49.102795],[4.955434,49.165219],[4.958291,49.181446],[4.979978,49.209758],[4.978747,49.235674],[4.940405,49.254527],[4.90749,49.254087],[4.836189,49.236136],[4.723117,49.252483],[4.636523,49.235015],[4.577307,49.284399],[4.448855,49.276104],[4.413808,49.282102],[4.374939,49.318731],[4.334311,49.318907],[4.196565,49.394624],[4.05528,49.407292],[4.05405,49.382056],[4.040866,49.361951],[3.99602,49.370729],[3.963611,49.36205],[3.914414,49.379672],[3.877939,49.381012],[3.859021,49.371202],[3.857483,49.347328],[3.703366,49.324532],[3.650149,49.302834],[3.665661,49.272962],[3.675307,49.210021],[3.705234,49.201727],[3.746674,49.16969],[3.723735,49.149355],[3.649226,49.150563],[3.625495,49.138401],[3.626111,49.090336],[3.586384,49.06031],[3.584824,49.041326],[3.604204,49.031845],[3.65696,49.033031],[3.671286,49.024341],[3.670803,49.015508],[3.590559,48.958973],[3.574123,48.933451],[3.503064,48.884353],[3.463952,48.817172],[3.409328,48.81314],[3.406384,48.808647],[3.42561,48.790486],[3.394914,48.760153],[3.397243,48.751034],[3.42049,48.750353],[3.451252,48.72436],[3.463337,48.685611],[3.454965,48.662254],[3.459294,48.642402],[3.501218,48.643643],[3.537802,48.61342],[3.56562,48.614771],[3.600183,48.578186],[3.623913,48.579142],[3.635647,48.541283],[3.701169,48.555785],[3.715979,48.568672],[3.748059,48.540229],[3.84843,48.525804],[3.869216,48.570342],[4.009599,48.65787],[4.057302,48.667264],[4.078615,48.694532],[4.116013,48.69284],[4.196037,48.710736],[4.317195,48.702738],[4.331806,48.675393],[4.320754,48.623747],[4.328181,48.611167],[4.526111,48.52888],[4.599411,48.549908],[4.670229,48.531813],[4.785212,48.538339],[4.768821,48.575517],[4.77572,48.595116],[4.854382,48.612782],[4.837397,48.644599],[4.773391,48.643962],[4.802131,48.678426],[4.866972,48.693279],[4.992085,48.692895]]],[[[6.887424,48.419434],[6.864485,48.435595],[6.807246,48.396044],[6.736428,48.416292],[6.663852,48.423114],[6.648889,48.432991],[6.635486,48.470575],[6.606218,48.46929],[6.501804,48.414512],[6.43303,48.410491],[6.402575,48.39377],[6.387414,48.392078],[6.389875,48.407777],[6.331032,48.406327],[6.304204,48.416852],[6.284187,48.437814],[6.256831,48.40368],[6.173642,48.399439],[6.147429,48.407777],[6.149231,48.371523],[6.117217,48.361305],[5.976855,48.357493],[5.948664,48.365326],[5.95497,48.387365],[5.874045,48.414183],[5.901994,48.459908],[5.902038,48.48032],[5.865915,48.499305],[5.842009,48.501974],[5.779519,48.486209],[5.765237,48.496602],[5.736145,48.466807],[5.668865,48.46628],[5.614944,48.440528],[5.553772,48.439627],[5.479153,48.411864],[5.455246,48.419214],[5.422397,48.380147],[5.438196,48.331444],[5.454323,48.333686],[5.478098,48.351824],[5.508486,48.350693],[5.584402,48.283775],[5.625161,48.284082],[5.64553,48.276073],[5.654978,48.242994],[5.713008,48.21143],[5.720302,48.19595],[5.697517,48.180492],[5.68853,48.147709],[5.658076,48.095535],[5.732234,48.046679],[5.787956,48.022542],[5.797756,48.008589],[5.795844,47.973664],[5.804282,47.95836],[5.849238,47.96761],[5.891755,47.93263],[5.922209,47.944099],[5.948554,47.976377],[5.961738,47.979289],[5.970923,47.940902],[6.026338,47.967303],[6.070986,48.00436],[6.099397,48.008699],[6.166897,47.99211],[6.182695,47.976762],[6.186123,47.952834],[6.243845,47.932212],[6.282803,47.934849],[6.322375,47.950461],[6.37344,47.95302],[6.498662,47.90467],[6.537773,47.899945],[6.576533,47.908031],[6.60635,47.937431],[6.624631,47.940331],[6.68499,47.895573],[6.740713,47.876094],[6.841743,47.821217],[6.868923,47.818998],[6.923855,47.843179],[6.914956,47.875688],[6.941675,47.917436],[6.95176,47.956964],[7.008537,48.01027],[7.059448,48.084659],[7.081157,48.10461],[7.086892,48.125385],[7.07417,48.14605],[7.083157,48.164507],[7.20873,48.303407],[7.209038,48.315273],[7.188537,48.331005],[7.134836,48.333169],[7.107392,48.34576],[7.127717,48.4841],[7.148855,48.499887],[7.08865,48.523442],[7.054724,48.518443],[6.887424,48.419434]]],[[[4.196037,48.710736],[4.116013,48.69284],[4.078615,48.694532],[4.057302,48.667264],[4.009599,48.65787],[3.869216,48.570342],[3.84843,48.525804],[3.748059,48.540229],[3.715979,48.568672],[3.701169,48.555785],[3.635647,48.541283],[3.623913,48.579142],[3.600183,48.578186],[3.56562,48.614771],[3.537802,48.61342],[3.493571,48.587734],[3.461316,48.5398],[3.405923,48.524716],[3.420644,48.498492],[3.391047,48.474454],[3.401111,48.44958],[3.391816,48.421104],[3.412888,48.402054],[3.421281,48.369809],[3.461623,48.368183],[3.509743,48.347441],[3.599875,48.26724],[3.613235,48.217209],[3.581572,48.180965],[3.665793,48.143886],[3.697632,48.145896],[3.708178,48.160519],[3.733183,48.157212],[3.752256,48.128066],[3.783171,48.104247],[3.858713,48.015258],[3.852341,48.00637],[3.830456,48.001097],[3.831687,47.993813],[3.858713,47.982607],[3.89844,47.986353],[3.905735,47.976037],[3.904196,47.947923],[3.925114,47.930927],[3.990593,47.931289],[4.037614,47.922654],[4.067893,47.938211],[4.127483,47.933146],[4.161738,47.954097],[4.203025,47.939145],[4.21823,47.972422],[4.255495,47.934541],[4.28841,47.924258],[4.325918,47.946044],[4.541777,47.965292],[4.560366,47.974433],[4.563156,47.997845],[4.583217,48.010743],[4.6102,48.015258],[4.659221,48.008699],[4.698508,48.022026],[4.718415,48.042911],[4.695212,48.07877],[4.711142,48.103445],[4.726062,48.111751],[4.758405,48.114937],[4.813799,48.104731],[4.827597,48.111465],[4.84612,48.17055],[4.861677,48.190314],[4.846626,48.290059],[4.819182,48.31313],[4.824016,48.342101],[4.773918,48.358427],[4.75311,48.383333],[4.716042,48.399384],[4.680073,48.43565],[4.63727,48.460776],[4.668845,48.505391],[4.670229,48.531813],[4.599411,48.549908],[4.526111,48.52888],[4.328181,48.611167],[4.320754,48.623747],[4.331806,48.675393],[4.317195,48.702738],[4.196037,48.710736]]]]}}
