{"type":"Feature","properties":{"featurecla":"Admin-1 states provinces","scalerank":3,"adm1_code":"FRA-5330","diss_me":5330,"iso_3166_2":"FR-59","wikipedia":null,"iso_a2":"FR","adm0_sr":1,"name":"Hauts-de-France","name_alt":null,"name_local":null,"type":"Metropolitan département","type_en":"Metropolitan department","code_local":null,"code_hasc":"FR.NO","note":null,"hasc_maybe":null,"region":"Hauts-de-France","region_cod":"FR-HDF","provnum_ne":19,"gadm_level":1,"check_me":20,"datarank":3,"abbrev":null,"postal":null,"area_sqkm":0,"sameascity":-99,"labelrank":3,"name_len":4,"mapcolor9":9,"mapcolor13":11,"fips":"FRB4","fips_alt":null,"woe_id":12597168,"woe_label":null,"woe_name":"Nord","latitude":50.403,"longitude":3.22709,"sov_a3":"FR1","adm0_a3":"FRA","adm0_label":2,"admin":"France","geonunit":"France","gu_a3":"FXX","gn_id":2990129,"gn_name":"Departement du Nord","gns_id":-1455303,"gns_name":"Nord, Departement du","gn_level":2,"gn_region":null,"gn_a1_code":"FR.59","region_sub":null,"sub_code":null,"gns_level":2,"gns_lang":null,"gns_adm1":null,"gns_region":"FRB4","min_label":8.0,"max_label":11.0,"min_zoom":8.0,"wikidataid":"Q12661","name_ar":"نور","name_bn":"নর্ড","name_de":"Nord","name_en":"Nord","name_es":"Norte","name_fr":"Nord","name_el":"Νορ","name_hi":"नोर्ड","name_hu":"Nord","name_id":"Nord","name_it":"Nord","name_ja":"ノール県","name_ko":"노르","name_nl":"Noorderdepartement","name_pl":"Nord","name_pt":"Norte","name_ru":"Нор","name_sv":"Nord","name_tr":"Nord","name_vi":"Nord","name_zh":"诺尔省","ne_id":1159316737,"name_he":"נור","name_uk":"Нор","name_ur":"نور","name_fa":"نورد","name_zht":"诺尔省","FCLASS_ISO":null,"FCLASS_US":null,"FCLASS_FR":null,"FCLASS_RU":null,"FCLASS_ES":null,"FCLASS_CN":null,"FCLASS_TW":null,"FCLASS_IN":null,"FCLASS_NP":null,"FCLASS_PK":null,"FCLASS_DE":null,"FCLASS_GB":null,"FCLASS_BR":null,"FCLASS_IL":null,"FCLASS_PS":null,"FCLASS_SA":null,"FCLASS_EG":null,"FCLASS_MA":null,"FCLASS_PT":null,"FCLASS_AR":null,"FCLASS_JP":null,"FCLASS_KO":null,"FCLASS_VN":null,"FCLASS_TR":null,"FCLASS_ID":null,"FCLASS_PL":null,"FCLASS_GR":null,"FCLASS_IT":null,"FCLASS_NL":null,"FCLASS_SE":null,"FCLASS_BD":null,"FCLASS_UA":null,"FCLASS_TLC":null,"iso_id":"FR-HDF","iso_name":"Hauts-de-France","source":"iso-3166-2-fr-region-current"},"geometry":{"type":"MultiPolygon","coordinates":[[[[2.5218,51.087541],[2.466075,51.068793],[2.384451,51.055325],[2.316091,51.059027],[2.134044,51.019965],[2.063324,51.01432],[2.105669,50.983676],[2.187407,50.878405],[2.222299,50.80573],[2.273342,50.785208],[2.362419,50.786746],[2.393422,50.770794],[2.35352,50.737308],[2.35218,50.726794],[2.369121,50.709457],[2.362705,50.68933],[2.371472,50.674312],[2.425129,50.666819],[2.489201,50.633256],[2.726264,50.625829],[2.803103,50.668445],[2.839489,50.65658],[2.869812,50.631202],[2.838589,50.625818],[2.811167,50.610372],[2.806025,50.577984],[2.788469,50.555308],[2.790644,50.541971],[2.806706,50.527798],[2.824218,50.524953],[2.877063,50.530995],[2.910791,50.503859],[2.972556,50.506529],[2.993496,50.494817],[3.014919,50.453531],[3.058755,50.442632],[3.055481,50.426263],[3.006789,50.399863],[3.001911,50.381307],[3.044362,50.346678],[3.062534,50.316443],[3.029113,50.28934],[3.019753,50.267444],[3.043,50.256919],[3.079475,50.269686],[3.116696,50.267598],[3.168354,50.232618],[3.164399,50.217017],[3.126079,50.183025],[3.089143,50.073777],[3.088265,50.050021],[3.156994,50.018681],[3.225944,50.028986],[3.316208,50.018296],[3.361999,50.032447],[3.448615,50.015374],[3.477905,50.019065],[3.554743,50.049454],[3.616179,50.036687],[3.696862,50.060099],[3.853901,50.043049],[3.895803,50.019769],[3.962072,50.042609],[3.983474,50.03705],[3.984089,50.003663],[3.990901,49.994621],[4.099358,49.969045],[4.139623,49.974522],[4.128151,50.005786],[4.137349,50.025061],[4.210006,50.06015],[4.180551,50.127226],[4.125774,50.128156],[4.152749,50.204534],[4.167942,50.222465],[4.201325,50.241534],[4.197604,50.258484],[4.162774,50.272953],[4.150268,50.269543],[4.150992,50.256262],[4.143654,50.251611],[4.125257,50.25714],[4.097868,50.294812],[4.0033,50.34406],[3.895917,50.325301],[3.84021,50.345197],[3.755047,50.346334],[3.733446,50.337239],[3.696859,50.298223],[3.661719,50.319307],[3.644356,50.445501],[3.608286,50.476507],[3.563741,50.486532],[3.499145,50.48679],[3.486743,50.492681],[3.498008,50.511853],[3.477131,50.519863],[3.429175,50.501828],[3.361066,50.489787],[3.299881,50.507461],[3.271045,50.526943],[3.264327,50.570196],[3.229808,50.65541],[3.24376,50.672102],[3.232391,50.695925],[3.224433,50.705175],[3.188983,50.715097],[3.146195,50.768892],[3.129245,50.779072],[3.103304,50.784085],[2.971425,50.757833],[2.930188,50.736232],[2.886883,50.696648],[2.768234,50.733235],[2.743842,50.766205],[2.706635,50.788787],[2.691856,50.808838],[2.620439,50.816486],[2.586746,50.845425],[2.596668,50.867646],[2.576928,50.911519],[2.611654,50.941233],[2.60845,50.961128],[2.55698,51.001177],[2.537033,51.06461],[2.5218,51.087541]]],[[[3.062732,50.173863],[3.03654,50.154087],[3.003713,50.150088],[3.001384,50.123436],[3.072356,50.130796],[3.062732,50.173863]]],[[[4.131665,49.974987],[4.081076,49.970879],[3.990901,49.994621],[3.984089,50.003663],[3.985935,50.030645],[3.974926,50.04139],[3.942473,50.038445],[3.895803,50.019769],[3.853901,50.043049],[3.696862,50.060099],[3.616179,50.036687],[3.554743,50.049454],[3.464568,50.016374],[3.361999,50.032447],[3.316208,50.018296],[3.225944,50.028986],[3.156994,50.018681],[3.193073,49.975582],[3.153347,49.941337],[3.117509,49.882692],[3.084067,49.861082],[3.08499,49.814269],[3.057019,49.788265],[3.056755,49.778454],[3.094944,49.769379],[3.105249,49.754009],[3.121289,49.696924],[3.10738,49.626194],[3.132341,49.580162],[3.122871,49.491777],[3.135505,49.471672],[3.161257,49.459762],[3.169387,49.437295],[3.154314,49.420629],[3.11885,49.428825],[3.100437,49.418948],[3.07051,49.350789],[3.041638,49.337715],[2.991628,49.335254],[2.96425,49.321335],[3.010788,49.284168],[3.019819,49.26292],[3.006569,49.243529],[2.965239,49.224369],[2.969655,49.200881],[2.98519,49.187378],[3.067544,49.197134],[3.117619,49.181116],[3.130715,49.156012],[3.123069,49.140654],[3.079738,49.1062],[3.140866,49.093149],[3.159016,49.078141],[3.175649,49.046105],[3.165564,49.023726],[3.169145,49.010345],[3.319944,48.919905],[3.36323,48.920476],[3.383093,48.870763],[3.435212,48.848384],[3.477905,48.850098],[3.511765,48.89267],[3.574123,48.933451],[3.590559,48.958973],[3.670803,49.015508],[3.671286,49.024341],[3.65696,49.033031],[3.604204,49.031845],[3.584824,49.041326],[3.586384,49.06031],[3.626111,49.090336],[3.625495,49.138401],[3.649226,49.150563],[3.723735,49.149355],[3.746674,49.16969],[3.705234,49.201727],[3.675307,49.210021],[3.665661,49.272962],[3.650149,49.302834],[3.703366,49.324532],[3.857483,49.347328],[3.859021,49.371202],[3.877939,49.381012],[3.914414,49.379672],[3.963611,49.36205],[3.99602,49.370729],[4.032033,49.359831],[4.046601,49.366829],[4.05528,49.407292],[4.047238,49.421761],[4.033879,49.426748],[4.043503,49.440295],[4.072243,49.447579],[4.041965,49.496149],[4.071936,49.522615],[4.065564,49.549817],[4.073166,49.567308],[4.046447,49.6257],[4.06341,49.637741],[4.117551,49.648705],[4.140974,49.673864],[4.221174,49.720193],[4.234863,49.736706],[4.228513,49.761403],[4.209836,49.778223],[4.217439,49.8135],[4.247893,49.854523],[4.250222,49.87019],[4.216999,49.916794],[4.215945,49.954411],[4.187682,49.955505],[4.131665,49.974987]]],[[[1.373069,50.06572],[1.516384,50.000674],[1.680871,49.888482],[1.695417,49.874222],[1.710227,49.835022],[1.750349,49.783705],[1.754546,49.765622],[1.836504,49.740309],[1.846941,49.706482],[1.856213,49.701407],[1.972207,49.715293],[2.066425,49.684455],[2.238647,49.697847],[2.306565,49.689223],[2.357739,49.664449],[2.437631,49.652814],[2.476809,49.62659],[2.521062,49.629787],[2.576081,49.600102],[2.621301,49.610143],[2.633825,49.579887],[2.644636,49.575009],[2.698645,49.621602],[2.738679,49.625282],[2.792424,49.616164],[2.803982,49.657417],[2.842544,49.664822],[2.884819,49.70868],[2.90198,49.708691],[2.935993,49.693024],[2.99655,49.701165],[3.02674,49.685894],[3.042693,49.685828],[3.052976,49.694738],[3.052404,49.713843],[3.118564,49.705768],[3.100393,49.765874],[3.056755,49.778454],[3.057019,49.788265],[3.08499,49.814269],[3.084067,49.861082],[3.117509,49.882692],[3.153347,49.941337],[3.193073,49.975582],[3.156994,50.018681],[3.022961,50.075008],[2.978708,50.072624],[2.974687,50.047696],[2.964602,50.038083],[2.906264,50.034314],[2.86823,50.018549],[2.852409,50.02056],[2.849311,50.057463],[2.832414,50.071053],[2.766277,50.038445],[2.747358,50.040093],[2.742722,50.047696],[2.763947,50.07203],[2.762849,50.084621],[2.743029,50.108934],[2.710554,50.128621],[2.699084,50.120502],[2.698777,50.084225],[2.691042,50.077952],[2.572785,50.105879],[2.567819,50.112032],[2.574345,50.129445],[2.567072,50.134125],[2.518776,50.123403],[2.442312,50.124765],[2.41467,50.09586],[2.395905,50.095992],[2.376635,50.11658],[2.377141,50.142002],[2.39406,50.159372],[2.467888,50.194176],[2.455957,50.208667],[2.395905,50.227839],[2.364397,50.214227],[2.325153,50.240242],[2.309773,50.22396],[2.288525,50.217764],[2.097517,50.204174],[2.06926,50.218533],[2.046145,50.256238],[1.935974,50.29636],[1.952102,50.319904],[1.93861,50.328968],[1.887107,50.313829],[1.838371,50.345425],[1.803742,50.356774],[1.653713,50.339042],[1.603923,50.368969],[1.572032,50.375678],[1.551524,50.349066],[1.541515,50.277899],[1.593923,50.256293],[1.610037,50.232245],[1.625499,50.224311],[1.66505,50.219794],[1.66505,50.212388],[1.644542,50.212388],[1.655284,50.200507],[1.672537,50.199368],[1.672537,50.192532],[1.654307,50.186591],[1.555349,50.217719],[1.521007,50.214667],[1.486827,50.185045],[1.464529,50.132148],[1.373069,50.06572]]],[[[1.594981,50.372667],[1.653713,50.339042],[1.803742,50.356774],[1.838371,50.345425],[1.887107,50.313829],[1.93861,50.328968],[1.952102,50.319904],[1.935974,50.29636],[2.046145,50.256238],[2.06926,50.218533],[2.097517,50.204174],[2.288525,50.217764],[2.309773,50.22396],[2.325153,50.240242],[2.364397,50.214227],[2.383645,50.226136],[2.410319,50.224839],[2.455957,50.208667],[2.467888,50.194176],[2.381491,50.148572],[2.37446,50.122941],[2.395905,50.095992],[2.41467,50.09586],[2.442312,50.124765],[2.518776,50.123403],[2.567072,50.134125],[2.574345,50.129445],[2.567819,50.112032],[2.572785,50.105879],[2.691042,50.077952],[2.698777,50.084225],[2.699084,50.120502],[2.710554,50.128621],[2.743029,50.108934],[2.762849,50.084621],[2.763947,50.07203],[2.742722,50.047696],[2.747358,50.040093],[2.766277,50.038445],[2.832414,50.071053],[2.849311,50.057463],[2.84885,50.028525],[2.860012,50.018033],[2.906264,50.034314],[2.964602,50.038083],[2.974687,50.047696],[2.97361,50.067823],[2.989563,50.076557],[3.022961,50.075008],[3.088265,50.050021],[3.089143,50.073777],[3.126079,50.183025],[3.169299,50.2244],[3.163366,50.239946],[3.116696,50.267598],[3.079475,50.269686],[3.043,50.256919],[3.019753,50.267444],[3.029113,50.28934],[3.062534,50.316443],[3.044362,50.346678],[3.001911,50.381307],[3.006789,50.399863],[3.055481,50.426263],[3.058755,50.442632],[3.014919,50.453531],[2.993496,50.494817],[2.972556,50.506529],[2.910791,50.503859],[2.877063,50.530995],[2.824218,50.524953],[2.806706,50.527798],[2.790644,50.541971],[2.788469,50.555308],[2.806025,50.577984],[2.811167,50.610372],[2.838589,50.625818],[2.869812,50.631202],[2.839489,50.65658],[2.803103,50.668445],[2.726264,50.625829],[2.489201,50.633256],[2.425129,50.666819],[2.371472,50.674312],[2.362705,50.68933],[2.369121,50.709457],[2.35218,50.726794],[2.35352,50.737308],[2.393422,50.770794],[2.362419,50.786746],[2.273342,50.785208],[2.222299,50.80573],[2.187407,50.878405],[2.105669,50.983676],[2.063324,51.01432],[1.921397,50.996772],[1.729828,50.943915],[1.653331,50.889106],[1.604828,50.881049],[1.580577,50.868801],[1.605642,50.790025],[1.567638,50.716742],[1.563162,50.67829],[1.577891,50.588609],[1.610362,50.548163],[1.579275,50.533149],[1.573497,50.44538],[1.555186,50.404771],[1.610362,50.376899],[1.610362,50.370673],[1.594981,50.372667]],[[3.001384,50.123436],[3.003713,50.150088],[3.03654,50.154087],[3.062732,50.173863],[3.072356,50.130796],[3.001384,50.123436]]],[[[3.118564,49.705768],[3.052404,49.713843],[3.052976,49.694738],[3.042693,49.685828],[3.02674,49.685894],[2.99655,49.701165],[2.935993,49.693024],[2.90198,49.708691],[2.884819,49.70868],[2.842544,49.664822],[2.803982,49.657417],[2.792424,49.616164],[2.738679,49.625282],[2.698645,49.621602],[2.644636,49.575009],[2.633825,49.579887],[2.621301,49.610143],[2.576081,49.600102],[2.521062,49.629787],[2.476809,49.62659],[2.437631,49.652814],[2.357739,49.664449],[2.306565,49.689223],[2.238647,49.697847],[2.066425,49.684455],[1.972207,49.715293],[1.856213,49.701407],[1.846941,49.706482],[1.836504,49.740309],[1.754546,49.765622],[1.7282,49.752625],[1.685354,49.709624],[1.680695,49.688959],[1.720752,49.694485],[1.734858,49.685345],[1.71906,49.664328],[1.680871,49.64508],[1.693571,49.626996],[1.712534,49.509893],[1.726025,49.503125],[1.761577,49.508399],[1.769487,49.498764],[1.761577,49.477967],[1.737495,49.464629],[1.716555,49.423804],[1.721213,49.382056],[1.78344,49.251209],[1.760808,49.247507],[1.735319,49.267227],[1.714863,49.269655],[1.692165,49.252319],[1.69278,49.243123],[1.718576,49.203561],[1.737495,49.189455],[1.8857,49.167801],[1.987522,49.177469],[2.071589,49.211933],[2.134563,49.184961],[2.17385,49.181962],[2.23779,49.163099],[2.266508,49.161857],[2.318737,49.179578],[2.509196,49.112561],[2.535695,49.117824],[2.583332,49.084546],[2.626486,49.097829],[2.650986,49.094104],[2.680627,49.075768],[2.712114,49.082096],[2.75573,49.067803],[2.794709,49.086667],[2.859397,49.075043],[2.953593,49.088941],[2.978554,49.078141],[3.016281,49.092094],[3.056316,49.095401],[3.109731,49.125877],[3.130715,49.156012],[3.12865,49.170547],[3.10259,49.188378],[3.067544,49.197134],[2.977324,49.191268],[2.965239,49.224369],[3.006569,49.243529],[3.019819,49.26292],[3.010788,49.284168],[2.96425,49.321335],[2.991628,49.335254],[3.041638,49.337715],[3.07051,49.350789],[3.100437,49.418948],[3.11885,49.428825],[3.154314,49.420629],[3.169387,49.437295],[3.161257,49.459762],[3.135505,49.471672],[3.122871,49.491777],[3.132341,49.580162],[3.10738,49.626194],[3.120959,49.686224],[3.118564,49.705768]]]]}}
