{"type":"Feature","properties":{"featurecla":"Admin-1 states provinces","scalerank":3,"adm1_code":"FRA-5290","diss_me":5290,"iso_3166_2":"FR-27","wikipedia":null,"iso_a2":"FR","adm0_sr":1,"name":"Haute-Normandie","name_alt":"Alta Normand¡a|Upper Normandy","name_local":null,"type":"Metropolitan département","type_en":"Metropolitan department","code_local":null,"code_hasc":"FR.EU","note":null,"hasc_maybe":null,"region":"Normandie","region_cod":"FR-NOR","provnum_ne":22,"gadm_level":1,"check_me":20,"datarank":3,"abbrev":null,"postal":null,"area_sqkm":0,"sameascity":-99,"labelrank":3,"name_len":4,"mapcolor9":9,"mapcolor13":11,"fips":"FRA7","fips_alt":null,"woe_id":12597139,"woe_label":null,"woe_name":"Eure","latitude":49.0414,"longitude":0.92951,"sov_a3":"FR1","adm0_a3":"FRA","adm0_label":2,"admin":"France","geonunit":"France","gu_a3":"FXX","gn_id":3019317,"gn_name":"Departement de l'Eure","gns_id":-1426044,"gns_name":"Eure, Departement de l'","gn_level":2,"gn_region":null,"gn_a1_code":"FR.27","region_sub":null,"sub_code":null,"gns_level":2,"gns_lang":null,"gns_adm1":null,"gns_region":"FRA7","min_label":8.0,"max_label":11.0,"min_zoom":8.0,"wikidataid":"Q3372","name_ar":"أور","name_bn":"ইউর","name_de":"Département Eure","name_en":"Eure","name_es":"Eure","name_fr":"Eure","name_el":"Ερ","name_hi":"यूरे","name_hu":"Eure","name_id":"Eure","name_it":"Eure","name_ja":"ウール県","name_ko":"외르","name_nl":"Eure","name_pl":"Eure","name_pt":"Eure","name_ru":"Эр","name_sv":"Eure","name_tr":"Eure","name_vi":"Eure","name_zh":"厄尔省","ne_id":1159313563,"name_he":"אר","name_uk":"Ер","name_ur":"اور","name_fa":"شهرستان اور","name_zht":"厄爾省","FCLASS_ISO":null,"FCLASS_US":null,"FCLASS_FR":null,"FCLASS_RU":null,"FCLASS_ES":null,"FCLASS_CN":null,"FCLASS_TW":null,"FCLASS_IN":null,"FCLASS_NP":null,"FCLASS_PK":null,"FCLASS_DE":null,"FCLASS_GB":null,"FCLASS_BR":null,"FCLASS_IL":null,"FCLASS_PS":null,"FCLASS_SA":null,"FCLASS_EG":null,"FCLASS_MA":null,"FCLASS_PT":null,"FCLASS_AR":null,"FCLASS_JP":null,"FCLASS_KO":null,"FCLASS_VN":null,"FCLASS_TR":null,"FCLASS_ID":null,"FCLASS_PL":null,"FCLASS_GR":null,"FCLASS_IT":null,"FCLASS_NL":null,"FCLASS_SE":null,"FCLASS_BD":null,"FCLASS_UA":null,"FCLASS_TLC":null,"iso_id":"FR-Q","iso_name":"Haute-Normandie","source":"iso-3166-2-fr-region-historic"},"geometry":{"type":"MultiPolygon","coordinates":[[[[0.294264,49.434715],[0.303889,49.392691],[0.304987,49.313062],[0.325422,49.287892],[0.365192,49.28107],[0.376486,49.268622],[0.337067,49.249089],[0.3352,49.237817],[0.38455,49.195135],[0.422585,49.130436],[0.408127,49.1062],[0.414851,49.076285],[0.378046,49.072824],[0.373542,49.065485],[0.383166,49.044424],[0.417795,49.024989],[0.430495,49.009125],[0.426452,48.959313],[0.395712,48.913247],[0.40114,48.897174],[0.430188,48.881178],[0.540512,48.867478],[0.576943,48.877223],[0.599773,48.873861],[0.613747,48.846275],[0.659978,48.803406],[0.723764,48.784521],[0.747165,48.770074],[0.758371,48.743663],[0.729961,48.706309],[0.768918,48.678843],[0.816423,48.665088],[0.872739,48.69897],[0.999499,48.717592],[1.038918,48.747727],[1.096816,48.752375],[1.108901,48.778215],[1.162756,48.757439],[1.218918,48.757824],[1.248999,48.749738],[1.334055,48.780225],[1.372397,48.830795],[1.451367,48.870763],[1.448093,48.917268],[1.492807,48.939549],[1.488303,48.973321],[1.451521,48.986153],[1.455388,49.014937],[1.444533,49.042688],[1.581225,49.068638],[1.619875,49.082591],[1.668149,49.19074],[1.698054,49.230664],[1.692165,49.252319],[1.705085,49.265623],[1.725564,49.270435],[1.760808,49.247507],[1.78344,49.251209],[1.749909,49.310997],[1.721213,49.382056],[1.717984,49.410994],[1.67718,49.398689],[1.539016,49.439756],[1.39248,49.453863],[1.350117,49.442008],[1.323178,49.417948],[1.279255,49.355184],[1.266511,49.348064],[1.170974,49.346471],[1.12738,49.313128],[1.045905,49.291672],[1.037292,49.278312],[1.044499,49.261844],[1.022461,49.256307],[1.00341,49.258042],[0.939008,49.293891],[0.873552,49.315105],[0.859489,49.345329],[0.920046,49.338594],[0.919101,49.361292],[0.80469,49.41986],[0.709768,49.402535],[0.663977,49.407709],[0.633786,49.444601],[0.592434,49.43835],[0.5729,49.444041],[0.540183,49.473166],[0.501862,49.4936],[0.457286,49.467434],[0.411306,49.452053],[0.294264,49.434715]]],[[[0.493175,49.493598],[0.520407,49.486152],[0.5729,49.444041],[0.592434,49.43835],[0.633786,49.444601],[0.663977,49.407709],[0.709768,49.402535],[0.80469,49.41986],[0.818796,49.415828],[0.919101,49.361292],[0.920046,49.338594],[0.859489,49.345329],[0.873552,49.315105],[0.939008,49.293891],[1.00341,49.258042],[1.022461,49.256307],[1.044499,49.261844],[1.037292,49.278312],[1.045905,49.291672],[1.12738,49.313128],[1.170974,49.346471],[1.266511,49.348064],[1.350117,49.442008],[1.39248,49.453863],[1.539016,49.439756],[1.67718,49.398689],[1.717984,49.410994],[1.716555,49.423804],[1.737495,49.464629],[1.761577,49.477967],[1.767927,49.489898],[1.761577,49.508399],[1.726025,49.503125],[1.712534,49.509893],[1.693571,49.626996],[1.680871,49.64508],[1.730354,49.676709],[1.729431,49.69376],[1.689704,49.68808],[1.680695,49.688959],[1.679157,49.697045],[1.719499,49.745418],[1.754546,49.765622],[1.753469,49.776806],[1.680871,49.888482],[1.516384,50.000674],[1.373069,50.06572],[1.260997,50.007514],[1.221202,49.97899],[1.172618,49.961005],[0.760916,49.875067],[0.674815,49.8758],[0.59669,49.857245],[0.387462,49.775051],[0.23585,49.729315],[0.170909,49.691636],[0.13087,49.603502],[0.079682,49.542182],[0.075369,49.524075],[0.104421,49.493598],[0.12436,49.485785],[0.33961,49.456732],[0.42213,49.464423],[0.493175,49.493598]]]]}}
