{"type":"Feature","properties":{"featurecla":"Admin-1 states provinces","scalerank":5,"adm1_code":"GAB-2624","diss_me":2624,"iso_3166_2":"GA-8","wikipedia":null,"iso_a2":"GA","adm0_sr":5,"name":"Ogooué-Maritime","name_alt":null,"name_local":null,"type":"Province","type_en":"Province","code_local":null,"code_hasc":"GA.OM","note":null,"hasc_maybe":null,"region":null,"region_cod":null,"provnum_ne":1,"gadm_level":1,"check_me":0,"datarank":7,"abbrev":null,"postal":"OM","area_sqkm":0,"sameascity":-99,"labelrank":5,"name_len":15,"mapcolor9":5,"mapcolor13":5,"fips":"GB08","fips_alt":null,"woe_id":2345456,"woe_label":"Ogooue-Martime, GA, Gabon","woe_name":"Ogooué-Maritime","latitude":-0.682548,"longitude":8.99566,"sov_a3":"GAB","adm0_a3":"GAB","adm0_label":5,"admin":"Gabon","geonunit":"Gabon","gu_a3":"GAB","gn_id":2396924,"gn_name":"Province de l' Ogooue-Maritime","gns_id":-1329399,"gns_name":"Ogooue-Maritime","gn_level":1,"gn_region":null,"gn_a1_code":"GA.08","region_sub":null,"sub_code":null,"gns_level":1,"gns_lang":"fra","gns_adm1":"GB08","gns_region":null,"min_label":7.7,"max_label":11.0,"min_zoom":7.7,"wikidataid":"Q823751","name_ar":"مقاطعة أوغووي - البحرية","name_bn":"ওগুয়ে-মেরিটাইম প্রদেশ","name_de":"Ogooué-Maritime","name_en":"Ogooué-Maritime","name_es":"Ogooué-Maritime","name_fr":"Ogooué-Maritime","name_el":"Ογκοουέ-Μαριτίμε","name_hi":"ओगोउई-मेरीटाइम प्रांत","name_hu":"Ogooué-Maritime","name_id":"Ogooué-Maritime","name_it":"Ogooué-Maritime","name_ja":"オゴウェ・マリティム州","name_ko":"오고웨마리팀","name_nl":"Ogooué-Maritime","name_pl":"Ogowe Nadmorskie","name_pt":"Ogooué-Maritime","name_ru":"Огове-Маритим","name_sv":"l'Ogooué-Maritime","name_tr":"Ogooué-Maritime","name_vi":"Ogooué-Maritime","name_zh":"滨海奥果韦省","ne_id":1159313333,"name_he":"אוגואוה-מאריטיים","name_uk":"Провінція Огове-Марітім","name_ur":"وجووی-ماریتیمی صوبہ","name_fa":"استان اوگوئه-مارتینتایم","name_zht":"濱海奧果韋省","FCLASS_ISO":null,"FCLASS_US":null,"FCLASS_FR":null,"FCLASS_RU":null,"FCLASS_ES":null,"FCLASS_CN":null,"FCLASS_TW":null,"FCLASS_IN":null,"FCLASS_NP":null,"FCLASS_PK":null,"FCLASS_DE":null,"FCLASS_GB":null,"FCLASS_BR":null,"FCLASS_IL":null,"FCLASS_PS":null,"FCLASS_SA":null,"FCLASS_EG":null,"FCLASS_MA":null,"FCLASS_PT":null,"FCLASS_AR":null,"FCLASS_JP":null,"FCLASS_KO":null,"FCLASS_VN":null,"FCLASS_TR":null,"FCLASS_ID":null,"FCLASS_PL":null,"FCLASS_GR":null,"FCLASS_IT":null,"FCLASS_NL":null,"FCLASS_SE":null,"FCLASS_BD":null,"FCLASS_UA":null,"FCLASS_TLC":null,"iso_id":"GA-8","iso_name":"Ogooué-Maritime"},"geometry":{"type":"MultiPolygon","coordinates":[[[[9.961721,-2.745406],[10.296354,-2.648675],[10.316198,-2.648675],[10.325654,-2.644799],[10.334956,-2.629813],[10.339297,-2.617876],[10.347513,-2.57576],[10.351079,-2.565269],[10.358262,-2.554417],[10.368494,-2.543875],[10.386477,-2.532558],[10.409784,-2.525324],[10.416295,-2.520569],[10.417225,-2.513438],[10.415055,-2.5061],[10.401205,-2.483724],[10.398415,-2.474216],[10.400585,-2.463312],[10.407096,-2.45122],[10.41955,-2.434942],[10.430092,-2.41024],[10.464251,-2.380785],[10.607136,-2.309885],[10.566932,-2.245806],[10.552049,-2.228856],[10.539801,-2.218624],[10.512775,-2.17904],[10.506574,-2.164415],[10.485955,-2.090776],[10.464251,-2.07362],[10.455517,-2.06406],[10.449936,-2.053156],[10.446836,-2.038945],[10.446836,-2.027628],[10.448386,-2.016879],[10.46084,-1.984323],[10.46239,-1.974246],[10.459238,-1.964221],[10.448696,-1.9574],[10.428542,-1.950423],[10.407923,-1.933163],[10.365859,-1.910219],[10.356402,-1.909909],[10.338212,-1.922466],[10.328445,-1.927427],[10.318058,-1.929391],[10.307206,-1.928978],[10.236771,-1.911873],[10.216875,-1.911873],[10.206488,-1.906808],[10.195326,-1.896628],[10.184784,-1.891305],[10.161943,-1.875544],[10.130472,-1.867018],[10.098485,-1.849706],[10.048514,-1.83348],[10.028205,-1.830327],[9.98614,-1.828622],[9.976993,-1.824539],[9.958545,-1.808675],[9.925162,-1.76816],[9.919581,-1.758239],[9.907644,-1.727026],[9.888058,-1.697932],[9.873796,-1.682894],[9.8724,-1.674419],[9.890229,-1.657521],[9.895965,-1.648685],[9.89891,-1.628272],[9.908729,-1.616077],[9.918341,-1.609824],[9.947331,-1.605638],[9.956478,-1.601142],[9.964591,-1.588016],[9.973273,-1.567656],[9.979319,-1.536237],[9.980714,-1.518512],[9.979784,-1.504611],[9.968932,-1.452986],[9.966917,-1.433297],[9.967382,-1.414074],[9.970792,-1.40317],[9.976683,-1.391801],[10.046963,-1.324467],[10.061071,-1.295528],[10.066497,-1.255479],[10.050219,-1.247779],[10.003658,-1.240337],[9.989861,-1.234808],[9.980714,-1.229227],[9.919271,-1.172745],[9.910279,-1.161686],[9.909194,-1.152591],[9.911364,-1.143186],[9.937409,-1.094351],[9.944386,-1.073991],[9.946091,-1.063346],[9.946401,-1.053062],[9.944696,-1.04283],[9.927022,-0.998337],[9.927487,-0.991309],[9.934774,-0.973687],[9.935549,-0.96392],[9.931518,-0.952035],[9.923457,-0.939167],[9.888833,-0.910693],[9.876276,-0.904337],[9.866354,-0.902063],[9.846821,-0.903304],[9.794989,-0.899066],[9.767807,-0.901392],[9.757885,-0.900772],[9.748429,-0.897361],[9.740057,-0.890436],[9.734631,-0.879429],[9.724037,-0.868939],[9.697682,-0.851472],[9.676598,-0.841757],[9.635619,-0.786722],[9.570145,-0.578001],[9.52436,-0.522138],[9.492217,-0.500021],[9.458731,-0.484105],[9.430308,-0.480332],[9.417441,-0.472219],[9.402713,-0.457646],[9.351037,-0.388348],[9.342045,-0.368608],[9.319824,-0.284944],[9.306107,-0.271648],[9.306488,-0.332289],[9.292166,-0.373712],[9.267426,-0.412367],[9.177989,-0.510837],[9.160004,-0.546808],[9.100841,-0.599705],[9.09254,-0.625665],[9.100841,-0.642348],[9.112478,-0.658298],[9.114513,-0.681573],[9.100841,-0.65488],[9.089122,-0.659926],[9.087901,-0.668715],[9.089854,-0.679295],[9.087169,-0.68963],[9.081716,-0.693292],[9.065196,-0.698989],[9.059337,-0.702732],[9.052013,-0.710626],[9.050548,-0.714288],[9.052989,-0.733657],[9.047618,-0.750177],[9.023774,-0.7763],[9.018321,-0.79518],[9.015798,-0.85589],[9.011485,-0.874607],[9.004649,-0.874607],[8.99822,-0.860447],[9.005138,-0.825291],[9.004649,-0.805108],[8.993175,-0.787205],[8.957042,-0.753513],[8.949474,-0.733657],[8.946462,-0.718438],[8.938975,-0.701349],[8.929047,-0.68727],[8.904959,-0.675877],[8.895274,-0.675063],[8.88795,-0.681573],[8.887706,-0.693292],[8.894542,-0.70379],[8.904796,-0.711847],[8.914561,-0.716404],[8.914561,-0.72324],[8.896983,-0.722263],[8.879405,-0.718357],[8.866059,-0.719496],[8.860688,-0.733657],[8.857677,-0.753595],[8.852875,-0.771254],[8.851899,-0.788018],[8.860688,-0.805108],[8.844412,-0.800226],[8.839529,-0.78631],[8.837413,-0.77158],[8.8296,-0.764744],[8.815684,-0.760024],[8.806,-0.748305],[8.800304,-0.733657],[8.795746,-0.691827],[8.787364,-0.657647],[8.772309,-0.633233],[8.750824,-0.633884],[8.745453,-0.622247],[8.74643,-0.616143],[8.750824,-0.60711],[8.718598,-0.600844],[8.707693,-0.592218],[8.716563,-0.572931],[8.709158,-0.565606],[8.695567,-0.586602],[8.718923,-0.660252],[8.749685,-0.699965],[8.76295,-0.752618],[8.784353,-0.789158],[8.81072,-0.84881],[8.825857,-0.874607],[8.831065,-0.886814],[8.83961,-0.922459],[8.847016,-0.922459],[8.856944,-0.915948],[8.864513,-0.933038],[8.87086,-0.957696],[8.877452,-0.973728],[8.894705,-0.978123],[8.924001,-0.958266],[8.93572,-0.963474],[8.930675,-0.965102],[8.922699,-0.972589],[8.914399,-0.984063],[8.908458,-0.997491],[8.922699,-1.003676],[8.907725,-1.008559],[8.893403,-1.00156],[8.867442,-0.976983],[8.966645,-1.104425],[8.983572,-1.14837],[8.990896,-1.209649],[8.994151,-1.220392],[9.000499,-1.221368],[9.003917,-1.212335],[9.009776,-1.185317],[8.997244,-1.155206],[9.015798,-1.169854],[9.033051,-1.193455],[9.037771,-1.216729],[9.018321,-1.23089],[9.020763,-1.237563],[9.025727,-1.24391],[9.018809,-1.26214],[9.021251,-1.282485],[9.03004,-1.299086],[9.042166,-1.305922],[9.057384,-1.3117],[9.09254,-1.338067],[9.107107,-1.346368],[9.119884,-1.348565],[9.124278,-1.345961],[9.126231,-1.342055],[9.146495,-1.332289],[9.150076,-1.338637],[9.15919,-1.346368],[9.156505,-1.35475],[9.154796,-1.3742],[9.15797,-1.395196],[9.169119,-1.40838],[9.18572,-1.410577],[9.233653,-1.401625],[9.243988,-1.394952],[9.251964,-1.380304],[9.262055,-1.366143],[9.278331,-1.36061],[9.284923,-1.36419],[9.293224,-1.378025],[9.302257,-1.381117],[9.312999,-1.378188],[9.322927,-1.370864],[9.330251,-1.360935],[9.333018,-1.350193],[9.325694,-1.297947],[9.326182,-1.278009],[9.33546,-1.28338],[9.339366,-1.287774],[9.33839,-1.292413],[9.333018,-1.298517],[9.351248,-1.333266],[9.354503,-1.350518],[9.338634,-1.379653],[9.334158,-1.398614],[9.326182,-1.40838],[9.318207,-1.411065],[9.294281,-1.413344],[9.28533,-1.415785],[9.28533,-1.422052],[9.29477,-1.429946],[9.298839,-1.444106],[9.29713,-1.457696],[9.288748,-1.463637],[9.271251,-1.465509],[9.256602,-1.471449],[9.248546,-1.482029],[9.250336,-1.497735],[9.274181,-1.503025],[9.278331,-1.507989],[9.278331,-1.535333],[9.285411,-1.549981],[9.286632,-1.566095],[9.292166,-1.5735],[9.299815,-1.577407],[9.319347,-1.5735],[9.351899,-1.570977],[9.37908,-1.562921],[9.402029,-1.546482],[9.434581,-1.504571],[9.436046,-1.494317],[9.431814,-1.479425],[9.432302,-1.473077],[9.439464,-1.470473],[9.456554,-1.470473],[9.476248,-1.481622],[9.484386,-1.484145],[9.480154,-1.500746],[9.481293,-1.522556],[9.490571,-1.559828],[9.502452,-1.579848],[9.518321,-1.591729],[9.559581,-1.607599],[9.529552,-1.614435],[9.446788,-1.603285],[9.415538,-1.607599],[9.42213,-1.619399],[9.422618,-1.635919],[9.415538,-1.669692],[9.400645,-1.661391],[9.39503,-1.646905],[9.396251,-1.63006],[9.402029,-1.614435],[9.377696,-1.616469],[9.350922,-1.62477],[9.327485,-1.63836],[9.312511,-1.65545],[9.310395,-1.646661],[9.305024,-1.638442],[9.297537,-1.634535],[9.288748,-1.63836],[9.285981,-1.645766],[9.295095,-1.659438],[9.292166,-1.669692],[9.280284,-1.675063],[9.274181,-1.659601],[9.264659,-1.535333],[9.235199,-1.526544],[9.226817,-1.522068],[9.178722,-1.483331],[9.172618,-1.476739],[9.15919,-1.468032],[9.127615,-1.428888],[9.121349,-1.419041],[9.115977,-1.399509],[9.09254,-1.375095],[9.082286,-1.34352],[9.069835,-1.33172],[9.05421,-1.324884],[9.038748,-1.32643],[9.019379,-1.304783],[9.007091,-1.287367],[8.996918,-1.257582],[8.983572,-1.23089],[8.988292,-1.251723],[9.007091,-1.298517],[9.016612,-1.315851],[9.141856,-1.490981],[9.197276,-1.548272],[9.220063,-1.579767],[9.236827,-1.62127],[9.237966,-1.63128],[9.236827,-1.662286],[9.248546,-1.696059],[9.250336,-1.706964],[9.250336,-1.748224],[9.245128,-1.774102],[9.244314,-1.785821],[9.246918,-1.815525],[9.255382,-1.835219],[9.270193,-1.840427],[9.292166,-1.826104],[9.314952,-1.842869],[9.317231,-1.854099],[9.305675,-1.873956],[9.316661,-1.873956],[9.325531,-1.876153],[9.333263,-1.880955],[9.340505,-1.888279],[9.340017,-1.876153],[9.342133,-1.86533],[9.347667,-1.857192],[9.357188,-1.854099],[9.367198,-1.82586],[9.374522,-1.819268],[9.391938,-1.826349],[9.417328,-1.872979],[9.436046,-1.888279],[9.432384,-1.866143],[9.432465,-1.856622],[9.436046,-1.847263],[9.441173,-1.851983],[9.456554,-1.860935],[9.466645,-1.851332],[9.485199,-1.870375],[9.517751,-1.926446],[9.519298,-1.933038],[9.509776,-1.939548],[9.498057,-1.957127],[9.503673,-1.96852],[9.528168,-1.985447],[9.539073,-1.998142],[9.548513,-1.997735],[9.55714,-2.011651],[9.563731,-2.031671],[9.566417,-2.049574],[9.563162,-2.052911],[9.549083,-2.058201],[9.543224,-2.070896],[9.537852,-2.062758],[9.532237,-2.045831],[9.511892,-2.032322],[9.51059,-2.007501],[9.508067,-2.00156],[9.480724,-1.998142],[9.474946,-1.996026],[9.456554,-1.977634],[9.47877,-1.959568],[9.481293,-1.939142],[9.467296,-1.922459],[9.439464,-1.915623],[9.388194,-1.915623],[9.389903,-1.919692],[9.384776,-1.927423],[9.37794,-1.931817],[9.374522,-1.925714],[9.375499,-1.918634],[9.37794,-1.914158],[9.388194,-1.909356],[9.380707,-1.888279],[9.374522,-1.888279],[9.366873,-1.909356],[9.359711,-1.914727],[9.34669,-1.909356],[9.351817,-1.905857],[9.354177,-1.901788],[9.333751,-1.903985],[9.311046,-1.896742],[9.292735,-1.882582],[9.28533,-1.864353],[9.280935,-1.860447],[9.273611,-1.866957],[9.271251,-1.876642],[9.281912,-1.881443],[9.283214,-1.885919],[9.291677,-1.89544],[9.301117,-1.903985],[9.305675,-1.905532],[9.312266,-1.915948],[9.354177,-1.957127],[9.368012,-1.995212],[9.380382,-2.012628],[9.402029,-2.018487],[9.395193,-2.032322],[9.409434,-2.043715],[9.439789,-2.079767],[9.466563,-2.094903],[9.565766,-2.19256],[9.573253,-2.207208],[9.579112,-2.298028],[9.586762,-2.320896],[9.586762,-2.32643],[9.597016,-2.352227],[9.619802,-2.381768],[9.646495,-2.407647],[9.668793,-2.422621],[9.659841,-2.408461],[9.637706,-2.381768],[9.628429,-2.367364],[9.645844,-2.378839],[9.687673,-2.428888],[9.703461,-2.435724],[9.712657,-2.422947],[9.709239,-2.408136],[9.696625,-2.384454],[9.698416,-2.377537],[9.70281,-2.374119],[9.709321,-2.373468],[9.717784,-2.37477],[9.723969,-2.379083],[9.722341,-2.393813],[9.723969,-2.402114],[9.728201,-2.402032],[9.739268,-2.407159],[9.747081,-2.413344],[9.738048,-2.418715],[9.723969,-2.43255],[9.726736,-2.444513],[9.733246,-2.455824],[9.742361,-2.46502],[9.751964,-2.470392],[9.775401,-2.464044],[9.798188,-2.442153],[9.822032,-2.424249],[9.847504,-2.429457],[9.86378,-2.42018],[9.867442,-2.419529],[9.86964,-2.409356],[9.874522,-2.409356],[9.884776,-2.416436],[9.886404,-2.424249],[9.908946,-2.470392],[9.926524,-2.46852],[9.954112,-2.47324],[9.979747,-2.481703],[9.991547,-2.491469],[9.988129,-2.499933],[9.966563,-2.500421],[9.957367,-2.505141],[9.955333,-2.515232],[9.961274,-2.535903],[9.957367,-2.546157],[9.970063,-2.554295],[9.984141,-2.560317],[9.991954,-2.542169],[10.005219,-2.525079],[10.006196,-2.520196],[10.004649,-2.507745],[10.008311,-2.505141],[10.035655,-2.511977],[10.04363,-2.51629],[10.054861,-2.535089],[10.067231,-2.542901],[10.072032,-2.550877],[10.079845,-2.558201],[10.094005,-2.560317],[10.080333,-2.50921],[10.073497,-2.491469],[10.080333,-2.491469],[10.093598,-2.508233],[10.117931,-2.517511],[10.137462,-2.527439],[10.135509,-2.546157],[10.14324,-2.548923],[10.162283,-2.560317],[10.156586,-2.572931],[10.147472,-2.577569],[10.121267,-2.580255],[10.110118,-2.577895],[10.089366,-2.578546],[10.067393,-2.581801],[10.052989,-2.587091],[10.04713,-2.594822],[10.039561,-2.613214],[10.031912,-2.62127],[10.011974,-2.63242],[10.008067,-2.629083],[10.011404,-2.615004],[10.001231,-2.614353],[9.992035,-2.616388],[9.984141,-2.621026],[9.977306,-2.628676],[9.973643,-2.616876],[9.97047,-2.580255],[9.964854,-2.58172],[9.963634,-2.587091],[9.954438,-2.58115],[9.948578,-2.580255],[9.944998,-2.584731],[9.943126,-2.594496],[9.93629,-2.594496],[9.932628,-2.572849],[9.917817,-2.549981],[9.910004,-2.545017],[9.874278,-2.532485],[9.858735,-2.538832],[9.850271,-2.528416],[9.847179,-2.509698],[9.847504,-2.491469],[9.84254,-2.500584],[9.833263,-2.505141],[9.830089,-2.492771],[9.837576,-2.470798],[9.840099,-2.45672],[9.821137,-2.47617],[9.808604,-2.492283],[9.794932,-2.500909],[9.771821,-2.498305],[9.750255,-2.487237],[9.72169,-2.456801],[9.703461,-2.443048],[9.725108,-2.481378],[9.902438,-2.700431],[9.961721,-2.745406]]],[[[8.997244,-0.627618],[8.997244,-0.620212],[9.00587,-0.616957],[9.010427,-0.611017],[9.01002,-0.602797],[9.004649,-0.592869],[8.996104,-0.603692],[8.974376,-0.616957],[8.963145,-0.627618],[8.951671,-0.642999],[8.949474,-0.650649],[8.949474,-0.661716],[8.952891,-0.672784],[8.966645,-0.68727],[8.971202,-0.695896],[8.971202,-0.711521],[8.968435,-0.724867],[8.968516,-0.7374],[8.977306,-0.750584],[8.992931,-0.761163],[9.006602,-0.76214],[9.021007,-0.755548],[9.038748,-0.743748],[9.037852,-0.712091],[9.041515,-0.669854],[9.033458,-0.635431],[8.997244,-0.627618]]]]}}
