{"type":"Feature","properties":{"featurecla":"Admin-1 states provinces","scalerank":8,"adm1_code":"GBR-5696","diss_me":5696,"iso_3166_2":"GB-COV","wikipedia":null,"iso_a2":"GB","adm0_sr":1,"name":"Coventry","name_alt":null,"name_local":null,"type":"Metropolitan Borough","type_en":"Metropolitan Borough","code_local":null,"code_hasc":"GB.CT","note":null,"hasc_maybe":null,"region":"West Midlands","region_cod":"GB.WM","provnum_ne":3,"gadm_level":2,"check_me":20,"datarank":5,"abbrev":"W Mid","postal":"WM","area_sqkm":0,"sameascity":-99,"labelrank":9,"name_len":8,"mapcolor9":6,"mapcolor13":3,"fips":"UKC7","fips_alt":null,"woe_id":-12602191,"woe_label":null,"woe_name":"West Midlands","latitude":52.4068,"longitude":-1.53187,"sov_a3":"GB1","adm0_a3":"GBR","adm0_label":7,"admin":"United Kingdom","geonunit":"England","gu_a3":"ENG","gn_id":3333139,"gn_name":"City and Borough of Coventry","gns_id":6077581,"gns_name":"Coventry, City and Borough of","gn_level":2,"gn_region":null,"gn_a1_code":"GB.C7","region_sub":"West Midlands","sub_code":null,"gns_level":1,"gns_lang":"ind","gns_adm1":null,"gns_region":"UK35","min_label":10.0,"max_label":11.0,"min_zoom":10.0,"wikidataid":"Q6225","name_ar":"كوفنتري","name_bn":"কোভেন্ট্রি","name_de":"Coventry","name_en":"Coventry","name_es":"Coventry","name_fr":"Coventry","name_el":"Κόβεντρι","name_hi":"कोवेन्ट्री","name_hu":"Coventry","name_id":"Coventry","name_it":"Coventry","name_ja":"コヴェントリー","name_ko":"코번트리","name_nl":"Coventry","name_pl":"Coventry","name_pt":"Coventry","name_ru":"Ковентри","name_sv":"Coventry","name_tr":"Coventry","name_vi":"Coventry","name_zh":"考文垂","ne_id":1159317539,"name_he":"קובנטרי","name_uk":"Ковентрі","name_ur":"کووینٹری","name_fa":"کاونتری","name_zht":"科芬特里","FCLASS_ISO":null,"FCLASS_US":null,"FCLASS_FR":null,"FCLASS_RU":null,"FCLASS_ES":null,"FCLASS_CN":null,"FCLASS_TW":null,"FCLASS_IN":null,"FCLASS_NP":null,"FCLASS_PK":null,"FCLASS_DE":null,"FCLASS_GB":null,"FCLASS_BR":null,"FCLASS_IL":null,"FCLASS_PS":null,"FCLASS_SA":null,"FCLASS_EG":null,"FCLASS_MA":null,"FCLASS_PT":null,"FCLASS_AR":null,"FCLASS_JP":null,"FCLASS_KO":null,"FCLASS_VN":null,"FCLASS_TR":null,"FCLASS_ID":null,"FCLASS_PL":null,"FCLASS_GR":null,"FCLASS_IT":null,"FCLASS_NL":null,"FCLASS_SE":null,"FCLASS_BD":null,"FCLASS_UA":null,"FCLASS_TLC":null,"iso_id":"GB-COV","iso_name":"Coventry"},"geometry":{"type":"Polygon","coordinates":[[[-1.640049,52.350784],[-1.601395,52.361869],[-1.589458,52.374374],[-1.562793,52.372152],[-1.536955,52.355771],[-1.510884,52.36745],[-1.462799,52.365796],[-1.43169,52.383573],[-1.438098,52.429358],[-1.4428,52.435198],[-1.455022,52.437988],[-1.619456,52.444396],[-1.640049,52.350784]]]}}
