{"type":"Feature","properties":{"iso_id":"GB-FMO","iso_name":"Fermanagh and Omagh","name":"Fermanagh and Omagh","source":"osm-overpass-gb"},"geometry":{"type":"Polygon","coordinates":[[[-8.1775099,54.4647612],[-8.1429143,54.4509245],[-8.1618468,54.4420305],[-8.0841613,54.3974065],[-8.0573261,54.3657226],[-8.031293,54.3567145],[-8.0009305,54.3584648],[-7.9994579,54.3471941],[-7.9864535,54.3442263],[-7.9615952,54.312469],[-7.9109541,54.2959539],[-7.9016974,54.3014347],[-7.8808683,54.2918826],[-7.8618694,54.2934313],[-7.8732238,54.2794462],[-7.8727067,54.2664597],[-7.8604615,54.2602599],[-7.8601691,54.2172798],[-7.8117352,54.2007467],[-7.7682042,54.2094921],[-7.7394039,54.2035315],[-7.6854337,54.2077607],[-7.6885503,54.1991602],[-7.6765985,54.1820392],[-7.6561272,54.1857197],[-7.6285047,54.1692489],[-7.6253619,54.1532017],[-7.610433,54.1437826],[-7.5745375,54.1415122],[-7.5657614,54.1265876],[-7.5473753,54.1221425],[-7.5467672,54.1291343],[-7.5280969,54.1357411],[-7.479193,54.1222654],[-7.4684058,54.1408114],[-7.4419219,54.1540929],[-7.4095892,54.156458],[-7.425079,54.1410755],[-7.4207839,54.1370532],[-7.372794,54.1396266],[-7.393023,54.1263935],[-7.3918058,54.1201274],[-7.3631985,54.1316004],[-7.3460153,54.1164466],[-7.3271274,54.1245777],[-7.3186709,54.1132886],[-7.3053349,54.1233641],[-7.3395628,54.1467174],[-7.2912976,54.1719648],[-7.279967,54.167969],[-7.2838219,54.1538484],[-7.301494,54.144214],[-7.2855117,54.1362582],[-7.3089111,54.1321133],[-7.2919469,54.1191122],[-7.2629552,54.1374093],[-7.2525119,54.1556638],[-7.2581192,54.1645085],[-7.240283,54.1696954],[-7.2582784,54.177372],[-7.2594208,54.1922517],[-7.2329953,54.1978367],[-7.2494018,54.1981269],[-7.2480558,54.2044601],[-7.1985989,54.2157848],[-7.1881122,54.2248887],[-7.1710361,54.2175991],[-7.1450287,54.2247272],[-7.1459405,54.2395692],[-7.1589271,54.2439561],[-7.1418705,54.2547844],[-7.1609173,54.2737117],[-7.1793724,54.2725964],[-7.1730151,54.2861306],[-7.2121862,54.2996241],[-7.1978897,54.311058],[-7.179493,54.3092412],[-7.1814857,54.3332548],[-7.2012848,54.3418053],[-7.2271112,54.3269331],[-7.246309,54.327017],[-7.2718503,54.3439807],[-7.2711178,54.3611149],[-7.2805886,54.3715633],[-7.3337656,54.372037],[-7.3312549,54.3783816],[-7.3409115,54.3844974],[-7.329041,54.3975351],[-7.3313615,54.4045812],[-7.3615714,54.4191083],[-7.3671023,54.4375404],[-7.2947572,54.443561],[-7.2705954,54.4536554],[-7.272771,54.4603779],[-7.2530021,54.4510399],[-7.2357036,54.4544512],[-7.2165701,54.4676077],[-7.198573,54.4663296],[-7.2028619,54.4778877],[-7.161968,54.4591297],[-7.1509626,54.4647129],[-7.1601735,54.4724913],[-7.1502802,54.4779007],[-7.1198096,54.4759382],[-7.1217205,54.4867765],[-7.1087794,54.4855222],[-7.1018591,54.4986976],[-7.0880337,54.504304],[-7.0394923,54.5055224],[-7.0392208,54.5178717],[-7.0293415,54.5257943],[-7.0088162,54.5245287],[-6.9742273,54.5442033],[-6.9714801,54.5489407],[-6.9856423,54.5572811],[-6.9699396,54.5707242],[-6.9885445,54.581468],[-6.9696834,54.579605],[-6.9630223,54.5884848],[-6.9668971,54.5970036],[-6.9479528,54.607946],[-6.9613858,54.6124156],[-6.9599759,54.6219821],[-6.9884228,54.6519289],[-6.9693313,54.6636337],[-7.0032234,54.6721947],[-6.994281,54.7061067],[-7.0110886,54.7179565],[-7.0029305,54.7234014],[-7.0066302,54.7312676],[-6.991562,54.7407985],[-6.9407737,54.75239],[-6.9359963,54.7661504],[-6.939874,54.7736367],[-7.0053283,54.7798452],[-7.0808111,54.7657602],[-7.1173387,54.7493263],[-7.2258442,54.7520166],[-7.2610711,54.7309002],[-7.2838512,54.7406243],[-7.3070568,54.7381066],[-7.3197587,54.733433],[-7.3179133,54.7166746],[-7.3265516,54.7140273],[-7.3280516,54.6997611],[-7.3752715,54.6983747],[-7.3737043,54.6922],[-7.4257261,54.6673464],[-7.4476803,54.641035],[-7.4814448,54.6537544],[-7.5067357,54.651634],[-7.5227184,54.6628619],[-7.5450407,54.6556288],[-7.5435585,54.6480919],[-7.5711603,54.6424736],[-7.5837228,54.6591203],[-7.6205781,54.6495453],[-7.6400405,54.6523971],[-7.6640796,54.6216365],[-7.695465,54.6080907],[-7.751511,54.598778],[-7.7621154,54.5858797],[-7.793408,54.5818758],[-7.7965917,54.5716301],[-7.8332549,54.5522326],[-7.8240183,54.5442669],[-7.8506553,54.5331824],[-7.949731,54.533633],[-7.9702989,54.5470493],[-8.0060085,54.5459409],[-8.0418515,54.5063808],[-8.0426472,54.4876308],[-8.0880653,54.4872897],[-8.0986798,54.4843344],[-8.0914846,54.4765264],[-8.1132439,54.4764008],[-8.1146731,54.4690344],[-8.1775099,54.4647612]]]}}
