{"type":"Feature","properties":{"featurecla":"Admin-1 states provinces","scalerank":8,"adm1_code":"GBR-2039","diss_me":2039,"iso_3166_2":"GB-GLS","wikipedia":null,"iso_a2":"GB","adm0_sr":1,"name":"Gloucestershire","name_alt":null,"name_local":null,"type":"Administrative County","type_en":"Administrative County","code_local":null,"code_hasc":"GB.GC","note":null,"hasc_maybe":null,"region":"South West","region_cod":null,"provnum_ne":20084,"gadm_level":2,"check_me":20,"datarank":5,"abbrev":null,"postal":"GC","area_sqkm":0,"sameascity":-99,"labelrank":9,"name_len":15,"mapcolor9":6,"mapcolor13":3,"fips":"UKE6","fips_alt":"UKE6","woe_id":12602184,"woe_label":null,"woe_name":"Gloucestershire","latitude":51.8153,"longitude":-2.14862,"sov_a3":"GB1","adm0_a3":"GBR","adm0_label":7,"admin":"United Kingdom","geonunit":"England","gu_a3":"ENG","gn_id":2648402,"gn_name":"Gloucestershire","gns_id":-2597217,"gns_name":"Gloucestershire, County of","gn_level":2,"gn_region":null,"gn_a1_code":"GB.E6","region_sub":"Gloucestershire","sub_code":null,"gns_level":1,"gns_lang":"eng","gns_adm1":null,"gns_region":"UK01","min_label":10.0,"max_label":11.0,"min_zoom":10.0,"wikidataid":"Q23165","name_ar":"غلوسترشير","name_bn":"গ্লোচেস্টারশায়ার","name_de":"Gloucestershire","name_en":"Gloucestershire","name_es":"Gloucestershire","name_fr":"Gloucestershire","name_el":"Γκλόστερσιρ","name_hi":"ग्लॉस्टरशायर","name_hu":"Gloucestershire","name_id":"Gloucestershire","name_it":"Gloucestershire","name_ja":"グロスターシャー","name_ko":"글로스터셔","name_nl":"Gloucestershire","name_pl":"Gloucestershire","name_pt":"Gloucestershire","name_ru":"Глостершир","name_sv":"Gloucestershire","name_tr":"Gloucestershire","name_vi":"Gloucestershire","name_zh":"格洛斯特郡","ne_id":1159312871,"name_he":"גלוסטרשייר","name_uk":"Глостершир","name_ur":"گلوسٹرشائر","name_fa":"گلاسترشایر","name_zht":"格洛斯特郡","FCLASS_ISO":null,"FCLASS_US":null,"FCLASS_FR":null,"FCLASS_RU":null,"FCLASS_ES":null,"FCLASS_CN":null,"FCLASS_TW":null,"FCLASS_IN":null,"FCLASS_NP":null,"FCLASS_PK":null,"FCLASS_DE":null,"FCLASS_GB":null,"FCLASS_BR":null,"FCLASS_IL":null,"FCLASS_PS":null,"FCLASS_SA":null,"FCLASS_EG":null,"FCLASS_MA":null,"FCLASS_PT":null,"FCLASS_AR":null,"FCLASS_JP":null,"FCLASS_KO":null,"FCLASS_VN":null,"FCLASS_TR":null,"FCLASS_ID":null,"FCLASS_PL":null,"FCLASS_GR":null,"FCLASS_IT":null,"FCLASS_NL":null,"FCLASS_SE":null,"FCLASS_BD":null,"FCLASS_UA":null,"FCLASS_TLC":null,"iso_id":"GB-GLS","iso_name":"Gloucestershire","source":"iso-3166-2-subdivisions"},"geometry":{"type":"Polygon","coordinates":[[[-2.665354,51.617255],[-2.581695,51.681708],[-2.522125,51.706366],[-2.482086,51.742865],[-2.4204,51.753119],[-2.402415,51.763577],[-2.398061,51.782131],[-2.383372,51.773261],[-2.380767,51.761908],[-2.388539,51.750434],[-2.464996,51.725898],[-2.53549,51.67295],[-2.487233,51.659689],[-2.478913,51.639122],[-2.445013,51.648269],[-2.379203,51.635763],[-2.38419,51.603],[-2.377265,51.593854],[-2.343908,51.608556],[-2.300319,51.606618],[-2.308071,51.623568],[-2.28616,51.622715],[-2.273086,51.612457],[-2.287245,51.588273],[-2.271639,51.577162],[-2.240013,51.579126],[-2.191695,51.598298],[-2.148933,51.589358],[-2.101132,51.620209],[-2.057259,51.664108],[-1.96835,51.634368],[-1.948661,51.639949],[-1.949488,51.660206],[-1.940031,51.662997],[-1.874764,51.640776],[-1.869183,51.646331],[-1.887244,51.662428],[-1.888096,51.672454],[-1.866366,51.67328],[-1.832828,51.656589],[-1.816679,51.669663],[-1.806137,51.697982],[-1.795854,51.694364],[-1.777354,51.660361],[-1.724489,51.662713],[-1.701131,51.681032],[-1.649274,51.673745],[-1.647232,51.686354],[-1.67612,51.704674],[-1.692527,51.762448],[-1.709218,51.774928],[-1.679194,51.797149],[-1.675861,51.855233],[-1.6578,51.882983],[-1.637517,51.893835],[-1.646147,51.909958],[-1.61279,51.931611],[-1.61894,51.944943],[-1.656922,51.959103],[-1.651987,51.989127],[-1.612273,52.026592],[-1.674466,52.031062],[-1.715885,52.084935],[-1.736994,52.089379],[-1.75782,52.10576],[-1.778361,52.098836],[-1.813915,52.068838],[-1.843086,52.072998],[-1.863343,52.062714],[-1.827816,52.034395],[-1.831976,52.007989],[-1.878898,52.027987],[-1.942253,52.030209],[-1.970882,52.026075],[-2.030852,51.999927],[-2.105861,52.00773],[-2.130019,51.995225],[-2.143326,52.006283],[-2.11493,52.042147],[-2.164772,52.040493],[-2.176347,52.007317],[-2.159966,51.994914],[-2.174745,51.987731],[-2.208077,51.99078],[-2.234199,51.964115],[-2.251717,51.96272],[-2.307812,51.973572],[-2.341686,52.014965],[-2.368945,52.012174],[-2.413077,51.989385],[-2.429459,51.994398],[-2.441396,52.01326],[-2.460878,52.019667],[-2.481445,51.957966],[-2.460335,51.947734],[-2.454754,51.929931],[-2.433903,51.915488],[-2.434471,51.896626],[-2.470335,51.882725],[-2.505811,51.879934],[-2.519737,51.85885],[-2.550614,51.861589],[-2.578648,51.854355],[-2.585496,51.844639],[-2.620041,51.837715],[-2.636138,51.853528],[-2.654174,51.807769],[-2.675775,51.786659],[-2.680581,51.764929],[-2.670556,51.743949],[-2.684353,51.721935],[-2.661616,51.672248],[-2.684043,51.662119],[-2.665354,51.617255]]]}}
