{"type":"Feature","properties":{"featurecla":"Admin-1 states provinces","scalerank":8,"adm1_code":"GBR-2069","diss_me":2069,"iso_3166_2":"GB-HMF","wikipedia":null,"iso_a2":"GB","adm0_sr":1,"name":"Hammersmith and Fulham","name_alt":null,"name_local":null,"type":"London Borough","type_en":"London Borough","code_local":null,"code_hasc":"GB.HF","note":null,"hasc_maybe":null,"region":"Greater London","region_cod":null,"provnum_ne":3,"gadm_level":2,"check_me":20,"datarank":5,"abbrev":"Ham&Fulh","postal":"HF","area_sqkm":0,"sameascity":-99,"labelrank":9,"name_len":22,"mapcolor9":6,"mapcolor13":3,"fips":"UK17","fips_alt":"UKF1","woe_id":12695809,"woe_label":null,"woe_name":"London Borough of Hammersmith and Fulham","latitude":51.4894,"longitude":-0.20785,"sov_a3":"GB1","adm0_a3":"GBR","adm0_label":7,"admin":"United Kingdom","geonunit":"England","gu_a3":"ENG","gn_id":-2648110,"gn_name":"Greater London","gns_id":6077591,"gns_name":"Hammersmith and Fulham, London Borough of","gn_level":-2,"gn_region":null,"gn_a1_code":"GB.","region_sub":"Greater London","sub_code":null,"gns_level":1,"gns_lang":"ind","gns_adm1":null,"gns_region":"UK35","min_label":10.0,"max_label":11.0,"min_zoom":10.0,"wikidataid":"Q40478","name_ar":"هامرسميث وفولهام","name_bn":"হ্যামারস্মিথ অ্যান্ড ফুলহ্যাম","name_de":"Hammersmith and Fulham","name_en":"Hammersmith and Fulham","name_es":"Hammersmith y Fulham","name_fr":"Hammersmith et Fulham","name_el":"Χάμερσμιθ και Φούλαμ","name_hi":"हैमरस्मिथ ऐंड फ़ुलहम बरो","name_hu":"Hammersmith and Fulham","name_id":"Hammersmith dan Fulham","name_it":"Hammersmith e Fulham","name_ja":"ハマースミス・アンド・フラム・ロンドン特別区","name_ko":"해머스미스 풀럼 구","name_nl":"Hammersmith en Fulham","name_pl":"Hammersmith and Fulham","name_pt":"Hammersmith e Fulham","name_ru":"Хаммерсмит и Фулем","name_sv":"Hammersmith and Fulham","name_tr":"Hammersmith ve Fulham","name_vi":"Khu Hammersmith và Fulham của Luân Đôn","name_zh":"哈默史密斯-富勒姆區","ne_id":1159312935,"name_he":"האמרסמית' ופולהאם","name_uk":"Гаммерсміт і Фулем","name_ur":"ہیمرسمت اور فلہم بورو","name_fa":"منطقه همرسمیت و فولام لندن","name_zht":"哈默史密斯-富勒姆區","FCLASS_ISO":null,"FCLASS_US":null,"FCLASS_FR":null,"FCLASS_RU":null,"FCLASS_ES":null,"FCLASS_CN":null,"FCLASS_TW":null,"FCLASS_IN":null,"FCLASS_NP":null,"FCLASS_PK":null,"FCLASS_DE":null,"FCLASS_GB":null,"FCLASS_BR":null,"FCLASS_IL":null,"FCLASS_PS":null,"FCLASS_SA":null,"FCLASS_EG":null,"FCLASS_MA":null,"FCLASS_PT":null,"FCLASS_AR":null,"FCLASS_JP":null,"FCLASS_KO":null,"FCLASS_VN":null,"FCLASS_TR":null,"FCLASS_ID":null,"FCLASS_PL":null,"FCLASS_GR":null,"FCLASS_IT":null,"FCLASS_NL":null,"FCLASS_SE":null,"FCLASS_BD":null,"FCLASS_UA":null,"FCLASS_TLC":null,"iso_id":"GB-HMF","iso_name":"Hammersmith and Fulham","source":"iso-3166-2-subdivisions"},"geometry":{"type":"Polygon","coordinates":[[[-0.198329,51.46735],[-0.171173,51.472647],[-0.202308,51.493756],[-0.203936,51.506288],[-0.21626,51.513807],[-0.211093,51.522049],[-0.236621,51.526468],[-0.235536,51.509776],[-0.244527,51.494377],[-0.198329,51.46735]]]}}
