{"type":"Feature","properties":{"featurecla":"Admin-1 states provinces","scalerank":8,"adm1_code":"GBR-5669","diss_me":5669,"iso_3166_2":"GB-SHN","wikipedia":null,"iso_a2":"GB","adm0_sr":1,"name":"Merseyside","name_alt":null,"name_local":null,"type":"Metropolitan Borough","type_en":"Metropolitan Borough","code_local":null,"code_hasc":"GB.MS","note":null,"hasc_maybe":null,"region":"North West","region_cod":"GB.MS","provnum_ne":3,"gadm_level":2,"check_me":20,"datarank":5,"abbrev":null,"postal":"MS","area_sqkm":0,"sameascity":-99,"labelrank":9,"name_len":10,"mapcolor9":6,"mapcolor13":3,"fips":"UK28","fips_alt":null,"woe_id":12602161,"woe_label":null,"woe_name":"Merseyside","latitude":53.4417,"longitude":-2.73472,"sov_a3":"GB1","adm0_a3":"GBR","adm0_label":7,"admin":"United Kingdom","geonunit":"England","gu_a3":"ENG","gn_id":3333201,"gn_name":"Borough of St. Helens","gns_id":6077643,"gns_name":"St. Helens, Borough of","gn_level":2,"gn_region":null,"gn_a1_code":"GB.N1","region_sub":"Merseyside","sub_code":null,"gns_level":1,"gns_lang":"ind","gns_adm1":null,"gns_region":"UK35","min_label":10.0,"max_label":11.0,"min_zoom":10.0,"wikidataid":null,"name_ar":"مرزيسايد","name_bn":"মারসেসাইড","name_de":"Merseyside","name_en":"Merseyside","name_es":"Merseyside","name_fr":"Merseyside","name_el":"Μέρσισαϊντ","name_hi":"मर्सेसाइड","name_hu":"Merseyside","name_id":"Merseyside","name_it":"Merseyside","name_ja":"マージ―サイド","name_ko":"머지사이드","name_nl":"Merseyside","name_pl":"Merseyside","name_pt":"Merseyside","name_ru":"Мерсисайд","name_sv":"Merseyside","name_tr":"Merseyside","name_vi":"Merseyside","name_zh":"默西塞德","ne_id":1159317489,"name_he":"מרסין","name_uk":"Мерсейсайд","name_ur":"مرسیسائیڈ","name_fa":"مرسیساید","name_zht":"默西塞德郡","FCLASS_ISO":null,"FCLASS_US":null,"FCLASS_FR":null,"FCLASS_RU":null,"FCLASS_ES":null,"FCLASS_CN":null,"FCLASS_TW":null,"FCLASS_IN":null,"FCLASS_NP":null,"FCLASS_PK":null,"FCLASS_DE":null,"FCLASS_GB":null,"FCLASS_BR":null,"FCLASS_IL":null,"FCLASS_PS":null,"FCLASS_SA":null,"FCLASS_EG":null,"FCLASS_MA":null,"FCLASS_PT":null,"FCLASS_AR":null,"FCLASS_JP":null,"FCLASS_KO":null,"FCLASS_VN":null,"FCLASS_TR":null,"FCLASS_ID":null,"FCLASS_PL":null,"FCLASS_GR":null,"FCLASS_IT":null,"FCLASS_NL":null,"FCLASS_SE":null,"FCLASS_BD":null,"FCLASS_UA":null,"FCLASS_TLC":null,"iso_id":"GB-SHN","iso_name":"Merseyside","source":"iso-3166-2-subdivisions"},"geometry":{"type":"Polygon","coordinates":[[[-2.68058,53.378809],[-2.648127,53.391341],[-2.645027,53.401599],[-2.661977,53.410229],[-2.670865,53.431054],[-2.666162,53.441028],[-2.61614,53.430486],[-2.566427,53.435602],[-2.599732,53.458288],[-2.603918,53.472447],[-2.649471,53.472447],[-2.675051,53.480767],[-2.690037,53.47162],[-2.765588,53.527172],[-2.801684,53.516889],[-2.805043,53.493531],[-2.815585,53.491051],[-2.803931,53.46696],[-2.793412,53.402527],[-2.754702,53.37809],[-2.741119,53.388266],[-2.68058,53.378809]]]}}
