{"type":"Feature","properties":{"featurecla":"Admin-1 states provinces","scalerank":8,"adm1_code":"GBR-2135","diss_me":2135,"iso_3166_2":"GB-STB","wikipedia":null,"iso_a2":"GB","adm0_sr":1,"name":"Strabane","name_alt":null,"name_local":null,"type":"District","type_en":"District","code_local":null,"code_hasc":"GB.SB","note":null,"hasc_maybe":null,"region":"Northern Ireland","region_cod":null,"provnum_ne":3,"gadm_level":2,"check_me":20,"datarank":5,"abbrev":null,"postal":"SB","area_sqkm":0,"sameascity":-99,"labelrank":9,"name_len":8,"mapcolor9":6,"mapcolor13":3,"fips":"UK77","fips_alt":"UKT4","woe_id":20078345,"woe_label":null,"woe_name":"Strabane","latitude":54.8064,"longitude":-7.41337,"sov_a3":"GB1","adm0_a3":"GBR","adm0_label":7,"admin":"United Kingdom","geonunit":"Northern Ireland","gu_a3":"NIR","gn_id":2636745,"gn_name":"Strabane District","gns_id":-2608907,"gns_name":"Strabane District","gn_level":2,"gn_region":null,"gn_a1_code":"GB.T4","region_sub":"North of Northern Ireland","sub_code":null,"gns_level":1,"gns_lang":"cym","gns_adm1":null,"gns_region":"UK01","min_label":10.0,"max_label":11.0,"min_zoom":10.0,"wikidataid":"Q1198500","name_ar":"سترابان","name_bn":"স্ট্রাবেন","name_de":"Strabane","name_en":"Strabane","name_es":"Strabane","name_fr":"Strabane","name_el":"Στραμπάνε","name_hi":"स्ट्राबेन","name_hu":"Strabane","name_id":"Strabane","name_it":"Strabane","name_ja":"ストラバン区","name_ko":"스트러밴 구","name_nl":"Strabane","name_pl":"Strabane","name_pt":"Strabane","name_ru":"Страбэйн","name_sv":"Strabane","name_tr":"Strabane","name_vi":"Strabane","name_zh":"斯特拉班区","ne_id":1159312823,"name_he":"סטראבאן","name_uk":"Страбане","name_ur":"اسٹرابین","name_fa":"استرابان","name_zht":"斯特拉班區","FCLASS_ISO":null,"FCLASS_US":null,"FCLASS_FR":null,"FCLASS_RU":null,"FCLASS_ES":null,"FCLASS_CN":null,"FCLASS_TW":null,"FCLASS_IN":null,"FCLASS_NP":null,"FCLASS_PK":null,"FCLASS_DE":null,"FCLASS_GB":null,"FCLASS_BR":null,"FCLASS_IL":null,"FCLASS_PS":null,"FCLASS_SA":null,"FCLASS_EG":null,"FCLASS_MA":null,"FCLASS_PT":null,"FCLASS_AR":null,"FCLASS_JP":null,"FCLASS_KO":null,"FCLASS_VN":null,"FCLASS_TR":null,"FCLASS_ID":null,"FCLASS_PL":null,"FCLASS_GR":null,"FCLASS_IT":null,"FCLASS_NL":null,"FCLASS_SE":null,"FCLASS_BD":null,"FCLASS_UA":null,"FCLASS_TLC":null,"iso_id":"GB-STB","iso_name":"Strabane","source":"iso-3166-2-subdivisions"},"geometry":{"type":"Polygon","coordinates":[[[-7.649683,54.744877],[-7.736603,54.707463],[-7.770503,54.706016],[-7.845899,54.731027],[-7.880109,54.711029],[-7.929666,54.696714],[-7.907135,54.686689],[-7.914835,54.671651],[-7.906619,54.661316],[-7.864347,54.649069],[-7.846416,54.631447],[-7.814996,54.639457],[-7.753553,54.614497],[-7.710558,54.624264],[-7.707951,54.604763],[-7.693375,54.60075],[-7.653093,54.625503],[-7.611985,54.624108],[-7.55974,54.642143],[-7.543384,54.637156],[-7.482535,54.651031],[-7.465327,54.641626],[-7.441995,54.643538],[-7.439489,54.655786],[-7.390293,54.692424],[-7.329728,54.709116],[-7.308076,54.731621],[-7.268311,54.72883],[-7.205575,54.752731],[-7.109741,54.748855],[-7.000058,54.777174],[-6.929752,54.767717],[-6.896447,54.782445],[-6.918926,54.801617],[-6.917479,54.815828],[-6.942258,54.827713],[-6.991971,54.825233],[-7.069485,54.805751],[-7.109509,54.813838],[-7.162245,54.851045],[-7.20586,54.847996],[-7.19555,54.8566],[-7.208908,54.864662],[-7.209503,54.883575],[-7.276398,54.887141],[-7.279188,54.893833],[-7.262239,54.913858],[-7.317558,54.922436],[-7.373911,54.917992],[-7.391688,54.936905],[-7.415755,54.944372],[-7.445251,54.932152],[-7.444735,54.884455],[-7.45507,54.863009],[-7.543385,54.793091],[-7.551705,54.754695],[-7.543075,54.741673],[-7.649683,54.744877]]]}}
