{"type":"Feature","properties":{"featurecla":"Admin-1 states provinces","scalerank":5,"adm1_code":"GHA-2173","diss_me":2173,"iso_3166_2":"GH-TV","wikipedia":null,"iso_a2":"GH","adm0_sr":1,"name":"Volta","name_alt":null,"name_local":null,"type":"Region","type_en":"Region","code_local":null,"code_hasc":"GH.TV","note":null,"hasc_maybe":null,"region":null,"region_cod":null,"provnum_ne":4,"gadm_level":1,"check_me":0,"datarank":6,"abbrev":null,"postal":"TV","area_sqkm":0,"sameascity":-99,"labelrank":5,"name_len":5,"mapcolor9":1,"mapcolor13":4,"fips":"GH08","fips_alt":null,"woe_id":2345468,"woe_label":"Volta, GH, Ghana","woe_name":"Volta","latitude":7.33855,"longitude":0.396325,"sov_a3":"GHA","adm0_a3":"GHA","adm0_label":2,"admin":"Ghana","geonunit":"Ghana","gu_a3":"GHA","gn_id":2294234,"gn_name":"Volta Region","gns_id":-2079841,"gns_name":"Volta","gn_level":1,"gn_region":null,"gn_a1_code":"GH.08","region_sub":null,"sub_code":null,"gns_level":1,"gns_lang":"fra","gns_adm1":"GH08","gns_region":null,"min_label":7.7,"max_label":11.0,"min_zoom":7.7,"wikidataid":"Q712832","name_ar":"إقليم فولتا","name_bn":"ভুল্টা অঞ্চল","name_de":"Volta","name_en":"Volta","name_es":"Volta","name_fr":"Volta","name_el":"Βόλτα","name_hi":"वोल्टा क्षेत्र","name_hu":"Volta","name_id":"Volta","name_it":"Volta","name_ja":"ヴォルタ州","name_ko":"볼타","name_nl":"Volta","name_pl":"Wolta","name_pt":"do Volta","name_ru":"Вольта","name_sv":"Voltaregionen","name_tr":"Volta Bölgesi","name_vi":"Khu vực Volta","name_zh":"沃尔特地区","ne_id":1159311471,"name_he":"וולטה","name_uk":"Вольта","name_ur":"وولٹا علاقہ","name_fa":"منطقه ولتا","name_zht":"沃爾特地區","FCLASS_ISO":null,"FCLASS_US":null,"FCLASS_FR":null,"FCLASS_RU":null,"FCLASS_ES":null,"FCLASS_CN":null,"FCLASS_TW":null,"FCLASS_IN":null,"FCLASS_NP":null,"FCLASS_PK":null,"FCLASS_DE":null,"FCLASS_GB":null,"FCLASS_BR":null,"FCLASS_IL":null,"FCLASS_PS":null,"FCLASS_SA":null,"FCLASS_EG":null,"FCLASS_MA":null,"FCLASS_PT":null,"FCLASS_AR":null,"FCLASS_JP":null,"FCLASS_KO":null,"FCLASS_VN":null,"FCLASS_TR":null,"FCLASS_ID":null,"FCLASS_PL":null,"FCLASS_GR":null,"FCLASS_IT":null,"FCLASS_NL":null,"FCLASS_SE":null,"FCLASS_BD":null,"FCLASS_UA":null,"FCLASS_TLC":null,"iso_id":"GH-TV","iso_name":"Volta","source":"iso-3166-2-subdivisions"},"geometry":{"type":"Polygon","coordinates":[[[0.593173,8.015739],[0.574983,8.124621],[0.593276,8.150666],[0.572709,8.191],[0.573846,8.203945],[0.645056,8.253425],[0.705207,8.282751],[0.712752,8.29797],[0.708825,8.322568],[0.689187,8.331301],[0.685053,8.382564],[0.646709,8.414165],[0.616324,8.488759],[0.550798,8.519326],[0.443518,8.606866],[0.403727,8.662082],[0.374426,8.724766],[0.368084,8.761481],[0.328383,8.76683],[0.278102,8.759517],[0.232782,8.778302],[0.189064,8.763031],[0.183121,8.74727],[0.191544,8.728098],[0.146534,8.6457],[0.171494,8.608932],[0.173819,8.593119],[0.161572,8.584954],[0.135527,8.593016],[0.124158,8.586737],[0.095168,8.523899],[0.094548,8.502091],[0.120127,8.486201],[0.126949,8.473152],[0.091912,8.4515],[0.097028,8.390754],[0.127724,8.381375],[0.214489,8.393545],[0.229216,8.387266],[0.245391,8.362281],[0.241464,8.335357],[0.197745,8.330086],[0.189684,8.320474],[0.19759,8.254044],[0.171959,8.244045],[0.103074,8.240402],[0.045817,8.295179],[0.010728,8.317529],[-0.02653,8.331249],[-0.071592,8.335202],[-0.116086,8.319777],[-0.149055,8.294636],[-0.168279,8.240402],[-0.20347,8.211463],[-0.237732,8.208982],[-0.278608,8.223478],[-0.313438,8.211928],[-0.341291,8.213168],[-0.394906,8.139297],[-0.318192,8.114776],[-0.167013,7.989487],[-0.112262,7.870786],[-0.10203,7.813994],[-0.075106,7.769914],[-0.057898,7.754462],[-0.007462,7.741828],[0.009953,7.726945],[0.038995,7.63832],[0.116717,7.496804],[0.127414,7.41146],[0.135837,7.400608],[0.214799,7.366243],[0.236813,7.342575],[0.241154,7.299581],[0.218984,7.20447],[0.227976,7.113778],[0.207047,7.043472],[0.212473,6.952237],[0.161107,6.893972],[0.142968,6.833382],[0.15382,6.810024],[0.186687,6.794495],[0.206427,6.772765],[0.215574,6.709152],[0.207357,6.694114],[0.163897,6.668198],[0.134907,6.635693],[0.110826,6.534123],[0.166378,6.522496],[0.178935,6.474308],[0.212783,6.439556],[0.216504,6.408188],[0.179865,6.307807],[0.140643,6.2791],[0.091344,6.256259],[0.105658,6.208949],[0.093514,6.183163],[0.091137,6.148488],[0.144519,6.102522],[0.248337,6.096424],[0.317066,6.051],[0.322647,6.035859],[0.320012,5.944237],[0.33784,5.97116],[0.394012,5.999712],[0.482948,5.996456],[0.574777,5.972246],[0.593122,5.955322],[0.639527,5.845638],[0.718954,5.795745],[0.714768,5.779441],[0.673572,5.759063],[0.723481,5.755439],[0.914399,5.777086],[0.954845,5.791083],[0.986583,5.820746],[0.995291,5.839342],[1.011729,5.926256],[1.048025,5.992662],[1.098806,6.047024],[1.185395,6.100491],[1.187968,6.135647],[1.176186,6.151512],[1.079655,6.167919],[1.009685,6.244452],[0.983536,6.324602],[0.886798,6.33039],[0.841323,6.379224],[0.766805,6.419351],[0.745721,6.4409],[0.711718,6.513376],[0.713475,6.53999],[0.727428,6.571435],[0.714612,6.583914],[0.668207,6.585827],[0.63224,6.62399],[0.626659,6.644893],[0.635341,6.695381],[0.625832,6.727756],[0.593793,6.751114],[0.576636,6.754731],[0.541083,6.817182],[0.516071,6.841806],[0.54625,6.914773],[0.534468,6.935909],[0.494574,6.973116],[0.57891,6.996783],[0.59803,7.0312],[0.59772,7.158892],[0.644436,7.301933],[0.629656,7.389162],[0.623042,7.397896],[0.586248,7.384357],[0.548214,7.383271],[0.516692,7.411022],[0.500568,7.45505],[0.495608,7.504298],[0.499432,7.562382],[0.50925,7.585378],[0.562063,7.612301],[0.570538,7.683925],[0.583354,7.704285],[0.612293,7.699428],[0.593173,8.015739]]]}}
