{"type":"Feature","properties":{"iso_id":"GN-N","iso_name":"Nzérékoré Region","name":"Nzérékoré Region","source":"iso-3166-2-placeholder-circle"},"geometry":{"type":"Polygon","coordinates":[[[-8.5,8.5],[-8.509607,8.597545],[-8.53806,8.691342],[-8.584265,8.777785],[-8.646447,8.853553],[-8.722215,8.915735],[-8.808658,8.96194],[-8.902455,8.990393],[-9.0,9.0],[-9.097545,8.990393],[-9.191342,8.96194],[-9.277785,8.915735],[-9.353553,8.853553],[-9.415735,8.777785],[-9.46194,8.691342],[-9.490393,8.597545],[-9.5,8.5],[-9.490393,8.402455],[-9.46194,8.308658],[-9.415735,8.222215],[-9.353553,8.146447],[-9.277785,8.084265],[-9.191342,8.03806],[-9.097545,8.009607],[-9.0,8.0],[-8.902455,8.009607],[-8.808658,8.03806],[-8.722215,8.084265],[-8.646447,8.146447],[-8.584265,8.222215],[-8.53806,8.308658],[-8.509607,8.402455],[-8.5,8.5]]]}}
