{"type":"Feature","properties":{"iso_id":"GR-34","iso_name":"Preveza Regional Unit","name":"Preveza Regional Unit","source":"iso-3166-2-placeholder-circle"},"geometry":{"type":"Polygon","coordinates":[[[21.2506,38.9592],[21.240993,39.056745],[21.21254,39.150542],[21.166335,39.236985],[21.104153,39.312753],[21.028385,39.374935],[20.941942,39.42114],[20.848145,39.449593],[20.7506,39.4592],[20.653055,39.449593],[20.559258,39.42114],[20.472815,39.374935],[20.397047,39.312753],[20.334865,39.236985],[20.28866,39.150542],[20.260207,39.056745],[20.2506,38.9592],[20.260207,38.861655],[20.28866,38.767858],[20.334865,38.681415],[20.397047,38.605647],[20.472815,38.543465],[20.559258,38.49726],[20.653055,38.468807],[20.7506,38.4592],[20.848145,38.468807],[20.941942,38.49726],[21.028385,38.543465],[21.104153,38.605647],[21.166335,38.681415],[21.21254,38.767858],[21.240993,38.861655],[21.2506,38.9592]]]}}
