{"type":"Feature","properties":{"iso_id":"GR-54","iso_name":"Thessaloniki Regional Unit","name":"Thessaloniki Regional Unit","source":"iso-3166-2-placeholder-circle"},"geometry":{"type":"Polygon","coordinates":[[[23.778611,40.683694],[23.769004,40.78124],[23.740551,40.875036],[23.694346,40.96148],[23.632165,41.037248],[23.556396,41.099429],[23.469953,41.145634],[23.376156,41.174087],[23.278611,41.183694],[23.181066,41.174087],[23.087269,41.145634],[23.000826,41.099429],[22.925058,41.037248],[22.862876,40.96148],[22.816671,40.875036],[22.788218,40.78124],[22.778611,40.683694],[22.788218,40.586149],[22.816671,40.492353],[22.862876,40.405909],[22.925058,40.330141],[23.000826,40.26796],[23.087269,40.221755],[23.181066,40.193302],[23.278611,40.183694],[23.376156,40.193302],[23.469953,40.221755],[23.556396,40.26796],[23.632165,40.330141],[23.694346,40.405909],[23.740551,40.492353],[23.769004,40.586149],[23.778611,40.683694]]]}}
