{"type":"Feature","properties":{"iso_id":"GR-93","iso_name":"Rethymno Prefecture","name":"Rethymno Prefecture","source":"iso-3166-2-placeholder-circle"},"geometry":{"type":"Polygon","coordinates":[[[25.083333,35.25],[25.073726,35.347545],[25.045273,35.441342],[24.999068,35.527785],[24.936887,35.603553],[24.861118,35.665735],[24.774675,35.71194],[24.680878,35.740393],[24.583333,35.75],[24.485788,35.740393],[24.391992,35.71194],[24.305548,35.665735],[24.22978,35.603553],[24.167599,35.527785],[24.121394,35.441342],[24.092941,35.347545],[24.083333,35.25],[24.092941,35.152455],[24.121394,35.058658],[24.167599,34.972215],[24.22978,34.896447],[24.305548,34.834265],[24.391992,34.78806],[24.485788,34.759607],[24.583333,34.75],[24.680878,34.759607],[24.774675,34.78806],[24.861118,34.834265],[24.936887,34.896447],[24.999068,34.972215],[25.045273,35.058658],[25.073726,35.152455],[25.083333,35.25]]]}}
