{"type":"Feature","properties":{"featurecla":"Admin-1 states provinces","scalerank":7,"adm1_code":"GTM-1948","diss_me":1948,"iso_3166_2":"GT-AV","wikipedia":null,"iso_a2":"GT","adm0_sr":1,"name":"Alta Verapaz","name_alt":null,"name_local":null,"type":"Departamento","type_en":"Department","code_local":null,"code_hasc":"GT.AV","note":null,"hasc_maybe":null,"region":null,"region_cod":null,"provnum_ne":14,"gadm_level":1,"check_me":0,"datarank":8,"abbrev":null,"postal":"AV","area_sqkm":0,"sameascity":-99,"labelrank":7,"name_len":12,"mapcolor9":3,"mapcolor13":6,"fips":"GT01","fips_alt":null,"woe_id":2345552,"woe_label":"Alta Verapaz, GT, Guatemala","woe_name":"Alta Verapaz","latitude":15.6455,"longitude":-90.1072,"sov_a3":"GTM","adm0_a3":"GTM","adm0_label":2,"admin":"Guatemala","geonunit":"Guatemala","gu_a3":"GTM","gn_id":3599773,"gn_name":"Departamento de Alta Verapaz","gns_id":-1131551,"gns_name":"Alta Verapaz","gn_level":1,"gn_region":null,"gn_a1_code":"GT.01","region_sub":null,"sub_code":null,"gns_level":1,"gns_lang":"fra","gns_adm1":"GT01","gns_region":null,"min_label":8.0,"max_label":11.0,"min_zoom":8.0,"wikidataid":"Q504637","name_ar":"إدارة ألتا فيراباز","name_bn":"আল্টা ভেরাপাজ বিভাগ","name_de":"Alta Verapaz","name_en":"Alta Verapaz","name_es":"Alta Verapaz","name_fr":"Alta Verapaz","name_el":"Άλτα Βεραπάς","name_hi":"ऑल्टा वेरापाज़ विभाग","name_hu":"Alta Verapaz","name_id":"Alta Verapaz","name_it":"dipartimento di Alta Verapaz","name_ja":"アルタ・ベラパス県","name_ko":"알타베라파스","name_nl":"Alta Verapaz","name_pl":"Alta Verapaz","name_pt":"Alta Verapaz","name_ru":"Альта-Верапас","name_sv":"Alta Verapaz","name_tr":"Alta Verapaz İli","name_vi":"Alta Verapaz","name_zh":"上维拉帕斯省","ne_id":1159311649,"name_he":"אלטה וראפז","name_uk":"Альта-Верапас","name_ur":"آلتا ویراپاس محکمہ","name_fa":"حوزه التا وراپاز","name_zht":"上維拉帕斯省","FCLASS_ISO":null,"FCLASS_US":null,"FCLASS_FR":null,"FCLASS_RU":null,"FCLASS_ES":null,"FCLASS_CN":null,"FCLASS_TW":null,"FCLASS_IN":null,"FCLASS_NP":null,"FCLASS_PK":null,"FCLASS_DE":null,"FCLASS_GB":null,"FCLASS_BR":null,"FCLASS_IL":null,"FCLASS_PS":null,"FCLASS_SA":null,"FCLASS_EG":null,"FCLASS_MA":null,"FCLASS_PT":null,"FCLASS_AR":null,"FCLASS_JP":null,"FCLASS_KO":null,"FCLASS_VN":null,"FCLASS_TR":null,"FCLASS_ID":null,"FCLASS_PL":null,"FCLASS_GR":null,"FCLASS_IT":null,"FCLASS_NL":null,"FCLASS_SE":null,"FCLASS_BD":null,"FCLASS_UA":null,"FCLASS_TLC":null,"iso_id":"GT-AV","iso_name":"Alta Verapaz"},"geometry":{"type":"Polygon","coordinates":[[[-90.448195,16.07926],[-90.436412,16.073283],[-90.431503,16.06548],[-90.433544,16.056049],[-90.441993,16.044835],[-90.435999,16.034009],[-90.440262,16.02481],[-90.450494,16.020676],[-90.462483,16.024965],[-90.46933,16.010703],[-90.475531,16.010703],[-90.487365,16.017963],[-90.506744,16.006207],[-90.517105,16.010703],[-90.523952,16.010703],[-90.527776,16.004527],[-90.531032,16.003959],[-90.538215,16.010703],[-90.541626,16.004269],[-90.544416,16.010703],[-90.558084,15.99768],[-90.571339,16.004346],[-90.580228,16.012615],[-90.590305,16.018351],[-90.6071,16.017524],[-90.6071,16.024965],[-90.592837,16.031192],[-90.592837,16.038634],[-90.599762,16.042664],[-90.605549,16.042949],[-90.610097,16.039176],[-90.613301,16.031192],[-90.620148,16.031192],[-90.634307,16.045222],[-90.660145,16.039796],[-90.702701,16.017524],[-90.69526,16.003881],[-90.7042,15.998197],[-90.702158,15.988637],[-90.705802,15.980291],[-90.712752,15.976286],[-90.71748,15.980472],[-90.723165,15.990213],[-90.73443,15.985381],[-90.750192,15.972798],[-90.763524,15.969723],[-90.763524,15.962282],[-90.750502,15.949259],[-90.743655,15.956081],[-90.741381,15.950112],[-90.736213,15.949259],[-90.736213,15.942438],[-90.746109,15.935565],[-90.753809,15.921044],[-90.763524,15.887816],[-90.738616,15.885284],[-90.73257,15.868102],[-90.742957,15.848619],[-90.767245,15.839395],[-90.771353,15.833452],[-90.784634,15.798416],[-90.811816,15.76511],[-90.818146,15.750641],[-90.80502,15.752114],[-90.793341,15.750796],[-90.783859,15.745938],[-90.777167,15.736973],[-90.791455,15.729531],[-90.791455,15.72333],[-90.770966,15.709041],[-90.784479,15.69974],[-90.788225,15.688448],[-90.780629,15.678914],[-90.743396,15.672739],[-90.700996,15.660802],[-90.689033,15.654419],[-90.68079,15.6592],[-90.671618,15.660802],[-90.662471,15.6592],[-90.65428,15.654419],[-90.662187,15.652327],[-90.661722,15.647598],[-90.642756,15.635816],[-90.632705,15.622923],[-90.631904,15.608608],[-90.640638,15.592356],[-90.625548,15.582124],[-90.615445,15.561273],[-90.60865,15.540757],[-90.603379,15.531533],[-90.596971,15.525952],[-90.603741,15.514066],[-90.614515,15.503163],[-90.620148,15.500501],[-90.648079,15.476291],[-90.648079,15.46947],[-90.640069,15.458876],[-90.652213,15.452623],[-90.692159,15.44898],[-90.705595,15.442314],[-90.709755,15.426604],[-90.707765,15.40844],[-90.702701,15.394358],[-90.68203,15.374953],[-90.650818,15.363094],[-90.493515,15.339736],[-90.477624,15.330977],[-90.478477,15.310642],[-90.48783,15.287646],[-90.503773,15.262195],[-90.424113,15.260128],[-90.400549,15.260981],[-90.378922,15.254315],[-90.323835,15.21809],[-90.313164,15.207806],[-90.31027,15.207057],[-90.306317,15.207522],[-90.296214,15.21287],[-90.275337,15.235659],[-90.268567,15.24509],[-90.259756,15.282168],[-90.254821,15.291057],[-90.248775,15.295708],[-90.235236,15.294932],[-90.187177,15.283719],[-90.07801,15.268836],[-90.038814,15.270154],[-90.006051,15.282788],[-89.997008,15.284855],[-89.952101,15.288499],[-89.945099,15.286742],[-89.937657,15.282478],[-89.921715,15.266562],[-89.917374,15.257183],[-89.918149,15.247054],[-89.928846,15.217934],[-89.973004,15.156543],[-89.923834,15.151065],[-89.907194,15.152409],[-89.877997,15.15985],[-89.850531,15.171736],[-89.840118,15.173183],[-89.817044,15.172356],[-89.782034,15.159333],[-89.770251,15.156956],[-89.706612,15.166361],[-89.674676,15.164294],[-89.605507,15.179901],[-89.623439,15.204654],[-89.629795,15.219252],[-89.629795,15.229071],[-89.626539,15.250697],[-89.627392,15.254857],[-89.639717,15.273254],[-89.646202,15.287258],[-89.647262,15.305707],[-89.638296,15.422909],[-89.630622,15.429239],[-89.611656,15.438024],[-89.607755,15.441228],[-89.602303,15.449987],[-89.597549,15.466136],[-89.588144,15.481226],[-89.593105,15.490553],[-89.614964,15.511482],[-89.622844,15.522955],[-89.644962,15.545951],[-89.650207,15.553754],[-89.654186,15.557526],[-89.661369,15.560885],[-89.654031,15.577706],[-89.530628,15.747954],[-89.512102,15.755602],[-89.495384,15.766997],[-89.481406,15.774283],[-89.459314,15.812317],[-89.45332,15.816038],[-89.433967,15.81795],[-89.423761,15.825804],[-89.396347,15.86128],[-89.426396,15.853968],[-89.438437,15.848619],[-89.446395,15.849369],[-89.463345,15.858257],[-89.484662,15.854175],[-89.512438,15.842108],[-89.515512,15.89518],[-89.516313,15.897686],[-89.520603,15.899288],[-89.540834,15.899211],[-89.561246,15.892157],[-89.626953,15.900063],[-89.633955,15.899702],[-89.650388,15.888229],[-89.65584,15.886963],[-89.66925,15.887739],[-89.679533,15.892002],[-89.700385,15.905799],[-89.716198,15.91877],[-89.742553,15.930863],[-89.748496,15.931922],[-89.757617,15.926289],[-89.774799,15.925669],[-89.785005,15.914326],[-89.792214,15.91182],[-89.825855,15.910037],[-89.845596,15.912595],[-89.851952,15.911458],[-89.858902,15.915747],[-89.867791,15.935513],[-89.887273,15.962669],[-89.889702,15.963961],[-89.904714,15.96422],[-89.92218,15.975718],[-89.929079,15.970292],[-89.940474,15.972565],[-89.957449,15.985149],[-89.954943,15.991996],[-89.955201,15.994166],[-89.961351,15.999928],[-89.959723,16.007628],[-89.963211,16.010806],[-89.970782,16.013803],[-89.974554,16.013932],[-89.972539,15.999773],[-89.985794,15.995303],[-89.991039,15.995251],[-89.996491,16.000031],[-90.008531,15.999489],[-90.014733,16.008946],[-90.019177,16.010083],[-90.030106,16.008532],[-90.03716,16.003494],[-90.040106,15.998791],[-90.046669,15.999463],[-90.216813,16.052147],[-90.420754,16.082378],[-90.448195,16.07926]]]}}
