{"type":"Feature","properties":{"featurecla":"Admin-1 states provinces","scalerank":7,"adm1_code":"GTM-1951","diss_me":1951,"iso_3166_2":"GT-GU","wikipedia":null,"iso_a2":"GT","adm0_sr":1,"name":"Guatemala","name_alt":null,"name_local":null,"type":"Departamento","type_en":"Department","code_local":null,"code_hasc":"GT.GU","note":null,"hasc_maybe":null,"region":null,"region_cod":null,"provnum_ne":21,"gadm_level":1,"check_me":0,"datarank":8,"abbrev":null,"postal":"GU","area_sqkm":0,"sameascity":9,"labelrank":9,"name_len":9,"mapcolor9":3,"mapcolor13":6,"fips":"GT07","fips_alt":null,"woe_id":2345558,"woe_label":"Guatemala, GT, Guatemala","woe_name":"Guatemala","latitude":14.6006,"longitude":-90.4872,"sov_a3":"GTM","adm0_a3":"GTM","adm0_label":2,"admin":"Guatemala","geonunit":"Guatemala","gu_a3":"GTM","gn_id":3595530,"gn_name":"Departamento de Guatemala","gns_id":-1135820,"gns_name":"Guatemala","gn_level":1,"gn_region":null,"gn_a1_code":"GT.07","region_sub":null,"sub_code":null,"gns_level":1,"gns_lang":"fra","gns_adm1":"GT07","gns_region":null,"min_label":8.0,"max_label":11.0,"min_zoom":8.0,"wikidataid":"Q695660","name_ar":"إدارة غواتيمالا","name_bn":"গোয়াতেমালা বিভাগ","name_de":"Guatemala","name_en":"Guatemala","name_es":"Guatemala","name_fr":"Guatemala","name_el":"Γουατεμάλα","name_hi":"ग्वाटेमाला विभाग","name_hu":"Guatemala","name_id":"Departemen Guatemala","name_it":"dipartimento di Guatemala","name_ja":"グアテマラ県","name_ko":"과테말라","name_nl":"Guatemala","name_pl":"Gwatemala","name_pt":"Guatemala","name_ru":"Гватемала","name_sv":"Guatemala","name_tr":"Guatemala Departmanı","name_vi":"Guatemala","name_zh":"瓜地马拉省","ne_id":1159311655,"name_he":"גואטמלה","name_uk":"Гватемала","name_ur":"گواتیمالا محکمہ","name_fa":"استان گواتمالا","name_zht":"瓜地馬拉省","FCLASS_ISO":null,"FCLASS_US":null,"FCLASS_FR":null,"FCLASS_RU":null,"FCLASS_ES":null,"FCLASS_CN":null,"FCLASS_TW":null,"FCLASS_IN":null,"FCLASS_NP":null,"FCLASS_PK":null,"FCLASS_DE":null,"FCLASS_GB":null,"FCLASS_BR":null,"FCLASS_IL":null,"FCLASS_PS":null,"FCLASS_SA":null,"FCLASS_EG":null,"FCLASS_MA":null,"FCLASS_PT":null,"FCLASS_AR":null,"FCLASS_JP":null,"FCLASS_KO":null,"FCLASS_VN":null,"FCLASS_TR":null,"FCLASS_ID":null,"FCLASS_PL":null,"FCLASS_GR":null,"FCLASS_IT":null,"FCLASS_NL":null,"FCLASS_SE":null,"FCLASS_BD":null,"FCLASS_UA":null,"FCLASS_TLC":null,"iso_id":"GT-GU","iso_name":"Guatemala"},"geometry":{"type":"Polygon","coordinates":[[[-90.709781,14.747472],[-90.697585,14.749488],[-90.691591,14.748816],[-90.681514,14.739514],[-90.651335,14.702049],[-90.642498,14.67342],[-90.618158,14.645308],[-90.61759,14.637815],[-90.623016,14.619573],[-90.621052,14.607894],[-90.629424,14.598747],[-90.634643,14.586552],[-90.641878,14.506247],[-90.650508,14.46873],[-90.637744,14.431523],[-90.623016,14.418913],[-90.614799,14.416226],[-90.601829,14.416536],[-90.596351,14.415089],[-90.592165,14.401809],[-90.585551,14.350391],[-90.586326,14.317266],[-90.583173,14.305329],[-90.571029,14.277888],[-90.564932,14.256236],[-90.536355,14.26621],[-90.528629,14.271326],[-90.509664,14.28843],[-90.490337,14.297371],[-90.474007,14.302435],[-90.463878,14.313494],[-90.450572,14.321452],[-90.443828,14.328583],[-90.442407,14.341037],[-90.447755,14.387908],[-90.429384,14.433486],[-90.388276,14.496531],[-90.3713,14.504076],[-90.359647,14.502474],[-90.355074,14.49679],[-90.353549,14.484749],[-90.349803,14.478135],[-90.338744,14.483199],[-90.314146,14.505937],[-90.305955,14.50883],[-90.297144,14.50883],[-90.285207,14.514308],[-90.282727,14.550172],[-90.281021,14.556321],[-90.277094,14.55937],[-90.274665,14.563918],[-90.272081,14.572082],[-90.271616,14.587792],[-90.265803,14.611512],[-90.222834,14.644843],[-90.218183,14.651974],[-90.209088,14.674298],[-90.219733,14.677761],[-90.236709,14.695072],[-90.250248,14.701687],[-90.308487,14.722254],[-90.317867,14.729282],[-90.338847,14.750986],[-90.344273,14.761528],[-90.344635,14.765766],[-90.339364,14.777445],[-90.332594,14.78592],[-90.331147,14.794084],[-90.334946,14.818476],[-90.344015,14.84359],[-90.350139,14.854856],[-90.357399,14.857336],[-90.38024,14.855683],[-90.400575,14.851239],[-90.40675,14.852117],[-90.413339,14.855941],[-90.416594,14.861419],[-90.417602,14.870876],[-90.399929,14.899039],[-90.404295,14.91077],[-90.412073,14.917023],[-90.428351,14.913974],[-90.436619,14.908186],[-90.443053,14.897489],[-90.456282,14.894078],[-90.467806,14.893148],[-90.477495,14.894233],[-90.484988,14.898574],[-90.489794,14.907773],[-90.497235,14.907773],[-90.513384,14.898781],[-90.538835,14.889996],[-90.563976,14.884932],[-90.585395,14.887257],[-90.594155,14.883536],[-90.599426,14.88581],[-90.6071,14.894078],[-90.621982,14.891339],[-90.657613,14.903948],[-90.661851,14.883071],[-90.668491,14.87501],[-90.688878,14.865501],[-90.704096,14.853926],[-90.712985,14.851549],[-90.721046,14.852375],[-90.731821,14.844882],[-90.737634,14.835115],[-90.74691,14.805143],[-90.765229,14.77791],[-90.741949,14.757394],[-90.728798,14.749849],[-90.709781,14.747472]]]}}
