{"type":"Feature","properties":{"featurecla":"Admin-1 states provinces","scalerank":6,"adm1_code":"GUY-673","diss_me":673,"iso_3166_2":"GY-UT","wikipedia":null,"iso_a2":"GY","adm0_sr":1,"name":"Upper Takutu-Upper Essequibo","name_alt":"Upper Takutu-Upper Essequibo","name_local":null,"type":"Region","type_en":"Region","code_local":null,"code_hasc":"GY.UT","note":null,"hasc_maybe":null,"region":null,"region_cod":null,"provnum_ne":10,"gadm_level":1,"check_me":10,"datarank":8,"abbrev":null,"postal":"UT","area_sqkm":0,"sameascity":-99,"labelrank":6,"name_len":28,"mapcolor9":4,"mapcolor13":8,"fips":"GY19","fips_alt":"GY19","woe_id":2345611,"woe_label":"Upper Demerara-Berbice, GY, Guyana","woe_name":"Upper Takutu-Upper Essequibo","latitude":5.36479,"longitude":-58.2455,"sov_a3":"GUY","adm0_a3":"GUY","adm0_label":2,"admin":"Guyana","geonunit":"Guyana","gu_a3":"GUY","gn_id":3375469,"gn_name":"Upper Demerara-Berbice Region","gns_id":-923448,"gns_name":"Upper Demerara-Berbice","gn_level":1,"gn_region":null,"gn_a1_code":"GY.18","region_sub":null,"sub_code":null,"gns_level":1,"gns_lang":"ara","gns_adm1":"GY18","gns_region":null,"min_label":8.0,"max_label":11.0,"min_zoom":8.0,"wikidataid":"Q1516381","name_ar":"أبر كاتوكو - أبر ايسيكوبيو","name_bn":"আপার টাকুটু-আপার এসেকুইবো","name_de":"Upper Takutu-Upper Essequibo","name_en":"Upper Takutu-Upper Essequibo","name_es":"Alto Tacutu-Alto Esequibo","name_fr":"Haut-Takutu-Haut-Essequibo","name_el":"Άπερ Τακούτου-Άπερ Εσεκουίμπο","name_hi":"ऊपरी टकूटू-ऊपरी एसेकिबो","name_hu":"Upper Takutu-Upper Essequibo","name_id":"Takutu Hulu-Essequibo Hulu","name_it":"Alto Takutu-Alto Essequibo","name_ja":"アッパー・タクトゥ＝アッパー・エセキボ州","name_ko":"어퍼타쿠투어퍼에세키보","name_nl":"Upper Takutu-Upper Essequibo","name_pl":"Upper Takutu-Upper Essequibo","name_pt":"Alto Takutu-Alto Essequibo","name_ru":"Аппер-Такуту-Аппер-Эссекибо","name_sv":"Upper Takatu-Upper Esseqiubo","name_tr":"Upper Takutu- Upper Essequibo","name_vi":"Thượng Takutu-Thượng Essequibo","name_zh":"上塔库图-上埃塞奎博","ne_id":1159308889,"name_he":"טאקאטו - אסקיבו עילית","name_uk":"Верхнє Такуту-Верхня Есекібо","name_ur":"بالائی تاکوتو بالائی ایسیکویبو","name_fa":"تاکوتو بالا- اسیکوییبو بالا","name_zht":"上塔庫圖-上埃塞奎博","FCLASS_ISO":null,"FCLASS_US":null,"FCLASS_FR":null,"FCLASS_RU":null,"FCLASS_ES":null,"FCLASS_CN":null,"FCLASS_TW":null,"FCLASS_IN":null,"FCLASS_NP":null,"FCLASS_PK":null,"FCLASS_DE":null,"FCLASS_GB":null,"FCLASS_BR":null,"FCLASS_IL":null,"FCLASS_PS":null,"FCLASS_SA":null,"FCLASS_EG":null,"FCLASS_MA":null,"FCLASS_PT":null,"FCLASS_AR":null,"FCLASS_JP":null,"FCLASS_KO":null,"FCLASS_VN":null,"FCLASS_TR":null,"FCLASS_ID":null,"FCLASS_PL":null,"FCLASS_GR":null,"FCLASS_IT":null,"FCLASS_NL":null,"FCLASS_SE":null,"FCLASS_BD":null,"FCLASS_UA":null,"FCLASS_TLC":null,"iso_id":"GY-UT","iso_name":"Upper Takutu-Upper Essequibo"},"geometry":{"type":"Polygon","coordinates":[[[-58.602011,6.416592],[-58.59988,6.405501],[-58.599751,6.361033],[-58.597555,6.341551],[-58.573603,6.293725],[-58.570244,6.276387],[-58.572362,6.258042],[-58.582853,6.235098],[-58.573138,6.218045],[-58.570244,6.208407],[-58.584506,6.074901],[-58.583886,6.054179],[-58.573086,6.029891],[-58.570244,6.019426],[-58.570321,5.937493],[-58.573241,5.913696],[-58.586367,5.895041],[-58.611223,5.841892],[-58.61528,5.819438],[-58.611223,5.756238],[-58.618122,5.692314],[-58.61714,5.62343],[-58.622721,5.581133],[-58.634684,5.540489],[-58.652797,5.499277],[-58.675612,5.45543],[-58.692975,5.437601],[-58.717031,5.430392],[-58.803614,5.416724],[-58.844749,5.415019],[-58.858986,5.408662],[-58.866272,5.38825],[-58.875264,5.371817],[-58.878726,5.362102],[-58.880509,5.333861],[-58.884927,5.326729],[-58.838238,5.256114],[-58.826895,5.244796],[-58.820564,5.229138],[-58.821753,5.157127],[-58.845937,5.012821],[-58.843974,4.971687],[-58.819634,4.908073],[-58.794261,4.765859],[-58.780696,4.748858],[-58.735117,4.762216],[-58.72057,4.746687],[-58.706179,4.704183],[-58.682123,4.67093],[-58.663261,4.660879],[-58.620137,4.647081],[-58.58833,4.628297],[-58.567763,4.621243],[-58.52097,4.613776],[-58.370385,4.615042],[-58.282173,4.634265],[-58.11469,4.637908],[-58.083968,4.644135],[-58.066037,4.65398],[-58.026478,4.767177],[-58.011544,4.82955],[-57.995498,4.870685],[-57.970229,4.905437],[-57.872431,5.014759],[-57.823158,5.143614],[-57.80259,5.18033],[-57.770086,5.223222],[-57.746082,5.286086],[-57.730295,5.313836],[-57.698411,5.347297],[-57.692364,5.362257],[-57.68792,5.383987],[-57.679936,5.479718],[-57.626322,5.702701],[-57.607796,5.748487],[-57.606013,5.756238],[-57.607589,5.773782],[-57.622989,5.788355],[-57.636425,5.791378],[-57.652315,5.808767],[-57.682959,5.875042],[-57.694173,5.871528],[-57.714637,5.872071],[-57.752412,5.859824],[-57.797474,5.862692],[-57.80905,5.859126],[-57.817421,5.85401],[-57.828687,5.841969],[-57.835999,5.839489],[-57.843725,5.841039],[-57.86145,5.858738],[-57.8707,5.864474],[-57.90292,5.865792],[-57.909509,5.869513],[-57.928448,5.895351],[-57.939507,5.906074],[-57.950876,5.929509],[-58.032886,5.942764],[-58.100763,5.965114],[-58.114974,5.971548],[-58.126059,5.989247],[-58.113579,6.029813],[-58.114122,6.047435],[-58.125206,6.079862],[-58.139882,6.081877],[-58.146316,6.08521],[-58.179932,6.115079],[-58.217294,6.10446],[-58.234993,6.09583],[-58.248351,6.094357],[-58.274655,6.105855],[-58.292095,6.117172],[-58.310983,6.123916],[-58.360437,6.12743],[-58.363822,6.129755],[-58.362608,6.143863],[-58.379041,6.199958],[-58.383175,6.231765],[-58.389169,6.248379],[-58.401313,6.271891],[-58.439942,6.315325],[-58.480663,6.340621],[-58.490946,6.35031],[-58.503581,6.364754],[-58.559753,6.451415],[-58.581018,6.464877],[-58.597727,6.423407],[-58.59024,6.417222],[-58.602011,6.416592]]]}}
