{"type":"Feature","properties":{"featurecla":"Admin-1 states provinces","scalerank":9,"adm1_code":"HRV-1592","diss_me":1592,"iso_3166_2":"HR-18","wikipedia":null,"iso_a2":"HR","adm0_sr":1,"name":"Istria","name_alt":"Istra","name_local":null,"type":"Županija","type_en":"County","code_local":null,"code_hasc":"HR.IS","note":null,"hasc_maybe":"SI.JP","region":null,"region_cod":null,"provnum_ne":8,"gadm_level":2,"check_me":20,"datarank":8,"abbrev":null,"postal":"IS","area_sqkm":0,"sameascity":-99,"labelrank":9,"name_len":8,"mapcolor9":5,"mapcolor13":1,"fips":"HR04","fips_alt":"SIJ9","woe_id":12577974,"woe_label":"Istarska, HR, Croatia","woe_name":"Istarska","latitude":45.1248,"longitude":13.8682,"sov_a3":"HRV","adm0_a3":"HRV","adm0_label":2,"admin":"Croatia","geonunit":"Croatia","gu_a3":"HRV","gn_id":3337514,"gn_name":"Istarska Zupanija","gns_id":9031015,"gns_name":"Istarska Zupanija","gn_level":1,"gn_region":null,"gn_a1_code":"HR.04","region_sub":null,"sub_code":null,"gns_level":1,"gns_lang":"ara","gns_adm1":"HR04","gns_region":null,"min_label":9.0,"max_label":11.0,"min_zoom":9.0,"wikidataid":"Q58268","name_ar":"مقاطعة إستريا","name_bn":"ইস্ত্রিয়া কাউন্টি","name_de":"Gespanschaft Istrien","name_en":"Istria","name_es":"Istria","name_fr":"Comitat d'Istrie","name_el":"Ζουπανίγια Ίστρια","name_hi":"इस्ट्रिया काउंटी","name_hu":"Isztria","name_id":"Kabupaten Istria","name_it":"regione istriana","name_ja":"イストラ郡","name_ko":"이스트라","name_nl":"Istrië","name_pl":"istryjska","name_pt":"Ístria","name_ru":"Истрийская жупания","name_sv":"Istriens län","name_tr":"İstriya","name_vi":"Hạt Istria","name_zh":"伊斯特拉县","ne_id":1159312535,"name_he":"איסטארסקה","name_uk":"Істрійська жупанія","name_ur":"استریا کاؤنٹی","name_fa":"ایستریا","name_zht":"伊斯特拉縣","FCLASS_ISO":null,"FCLASS_US":null,"FCLASS_FR":null,"FCLASS_RU":null,"FCLASS_ES":null,"FCLASS_CN":null,"FCLASS_TW":null,"FCLASS_IN":null,"FCLASS_NP":null,"FCLASS_PK":null,"FCLASS_DE":null,"FCLASS_GB":null,"FCLASS_BR":null,"FCLASS_IL":null,"FCLASS_PS":null,"FCLASS_SA":null,"FCLASS_EG":null,"FCLASS_MA":null,"FCLASS_PT":null,"FCLASS_AR":null,"FCLASS_JP":null,"FCLASS_KO":null,"FCLASS_VN":null,"FCLASS_TR":null,"FCLASS_ID":null,"FCLASS_PL":null,"FCLASS_GR":null,"FCLASS_IT":null,"FCLASS_NL":null,"FCLASS_SE":null,"FCLASS_BD":null,"FCLASS_UA":null,"FCLASS_TLC":null,"iso_id":"HR-18","iso_name":"Istria"},"geometry":{"type":"Polygon","coordinates":[[[13.64282,45.459448],[13.624107,45.462745],[13.589529,45.488837],[13.568614,45.49079],[13.523123,45.506252],[13.513357,45.511908],[13.507091,45.511908],[13.501475,45.498603],[13.504568,45.483873],[13.520763,45.457261],[13.517833,45.449774],[13.515636,45.448147],[13.520763,45.44302],[13.513357,45.436225],[13.543142,45.376166],[13.554942,45.367336],[13.554942,45.36107],[13.540538,45.356757],[13.54127,45.346137],[13.550629,45.334296],[13.561778,45.326361],[13.597911,45.324368],[13.609548,45.320136],[13.594493,45.311103],[13.585704,45.307807],[13.57545,45.306464],[13.578949,45.299018],[13.584646,45.293199],[13.602712,45.285346],[13.602712,45.27912],[13.592052,45.27912],[13.584239,45.276068],[13.578787,45.270982],[13.57545,45.264879],[13.588227,45.259589],[13.595225,45.2508],[13.595714,45.240546],[13.589122,45.230699],[13.594249,45.220771],[13.594493,45.212633],[13.590505,45.206488],[13.582286,45.202826],[13.582286,45.196601],[13.590587,45.191799],[13.594412,45.187323],[13.593761,45.182278],[13.589122,45.175482],[13.599376,45.171291],[13.600597,45.164618],[13.595958,45.145413],[13.600597,45.137274],[13.61199,45.136786],[13.636892,45.142035],[13.683604,45.143378],[13.706716,45.141099],[13.726248,45.134508],[13.63852,45.130032],[13.612559,45.117865],[13.636892,45.093573],[13.62322,45.073065],[13.643809,45.070502],[13.660818,45.061225],[13.681326,45.046373],[13.732758,44.99494],[13.774099,44.963813],[13.796723,44.924872],[13.808116,44.915432],[13.798676,44.903957],[13.794607,44.901109],[13.794607,44.894965],[13.804861,44.885403],[13.815278,44.883531],[13.842296,44.888129],[13.833751,44.873358],[13.819591,44.867662],[13.804861,44.870592],[13.794607,44.881293],[13.78712,44.875067],[13.799327,44.864569],[13.815684,44.856594],[13.831391,44.852729],[13.842296,44.854641],[13.849132,44.847154],[13.842296,44.840277],[13.855968,44.840277],[13.849132,44.826646],[13.860037,44.82567],[13.889659,44.817084],[13.896983,44.813056],[13.89975,44.798285],[13.899425,44.781968],[13.903168,44.772406],[13.917979,44.778266],[13.913422,44.782416],[13.90447,44.798774],[13.909353,44.808987],[13.904307,44.817288],[13.893891,44.823391],[13.883149,44.826646],[13.890147,44.833482],[13.899587,44.829047],[13.909679,44.830959],[13.918712,44.829047],[13.924815,44.813056],[13.929535,44.815253],[13.931651,44.820502],[13.9463,44.813788],[13.963878,44.811835],[14.000011,44.813056],[13.989431,44.8251],[13.983246,44.827053],[13.972667,44.826646],[13.976329,44.83747],[13.972667,44.847154],[13.981293,44.859809],[13.98585,44.864163],[13.993012,44.867621],[13.993012,44.875067],[13.986176,44.875067],[13.986176,44.881293],[13.993012,44.881293],[13.98585,44.892076],[13.972667,44.901109],[13.988455,44.900784],[14.01059,44.90526],[14.020518,44.901109],[14.021495,44.907375],[14.027843,44.908637],[14.027843,44.915432],[14.022634,44.9206],[14.022472,44.923489],[14.034679,44.922309],[14.039073,44.93183],[14.040212,44.941067],[14.038748,44.949408],[14.034679,44.956366],[14.040294,44.956366],[14.044444,44.951402],[14.050792,44.956488],[14.064789,44.976142],[14.075694,44.98371],[14.071544,44.993354],[14.054698,44.996527],[14.044281,45.00141],[14.039887,45.009426],[14.044119,45.027167],[14.040294,45.038967],[14.051931,45.038031],[14.053071,45.033149],[14.051524,45.026028],[14.054535,45.018459],[14.075694,45.004828],[14.083832,44.986396],[14.0796,44.977932],[14.071625,44.969062],[14.068858,44.94953],[14.075694,44.94953],[14.080414,44.957261],[14.089692,44.966498],[14.101329,44.97427],[14.113292,44.977484],[14.124197,44.975409],[14.131847,44.972073],[14.139903,44.97134],[14.151378,44.977484],[14.163748,44.995754],[14.166189,45.018948],[14.159434,45.040351],[14.143891,45.053209],[14.143891,45.059394],[14.158214,45.053209],[14.154063,45.071967],[14.154307,45.078925],[14.158214,45.087348],[14.164399,45.079901],[14.180431,45.091457],[14.193126,45.105618],[14.195323,45.120592],[14.179373,45.134508],[14.209239,45.12637],[14.232595,45.149359],[14.234682,45.154574],[14.211154,45.161533],[14.202627,45.171558],[14.201542,45.177966],[14.203092,45.196001],[14.202162,45.219566],[14.194565,45.275015],[14.1941,45.292068],[14.197511,45.303902],[14.206503,45.317338],[14.210533,45.327776],[14.208983,45.345605],[14.197666,45.385705],[14.198131,45.393199],[14.203557,45.403947],[14.201232,45.407565],[14.192395,45.412319],[14.138858,45.434281],[14.129867,45.440948],[14.120875,45.451024],[14.117309,45.459034],[14.116224,45.464202],[14.117321,45.472976],[14.092917,45.473918],[14.066665,45.480274],[14.041551,45.493142],[14.028322,45.50265],[14.013956,45.507973],[13.971891,45.514226],[13.964966,45.51097],[13.961452,45.50389],[13.961452,45.493142],[13.98264,45.475313],[13.969824,45.462963],[13.923005,45.448958],[13.908432,45.438881],[13.899647,45.429218],[13.889002,45.423637],[13.835568,45.429114],[13.819859,45.432628],[13.806526,45.442137],[13.759294,45.463169],[13.64282,45.459448]]]}}
