{"type":"Feature","properties":{"featurecla":"Admin-1 states provinces","scalerank":7,"adm1_code":"HTI-1386","diss_me":1386,"iso_3166_2":"HT-NE","wikipedia":null,"iso_a2":"HT","adm0_sr":1,"name":"Nord-Est","name_alt":null,"name_local":null,"type":"Département","type_en":"Department","code_local":null,"code_hasc":"HT.NE","note":null,"hasc_maybe":null,"region":null,"region_cod":null,"provnum_ne":11,"gadm_level":1,"check_me":0,"datarank":8,"abbrev":null,"postal":"NE","area_sqkm":0,"sameascity":-99,"labelrank":7,"name_len":8,"mapcolor9":7,"mapcolor13":2,"fips":"HA10","fips_alt":null,"woe_id":2345619,"woe_label":"Nord-Est, HT, Haiti","woe_name":"Nord-Est","latitude":19.4929,"longitude":-71.9088,"sov_a3":"HTI","adm0_a3":"HTI","adm0_label":5,"admin":"Haiti","geonunit":"Haiti","gu_a3":"HTI","gn_id":3719540,"gn_name":"Departement du Nord-Est","gns_id":-69193,"gns_name":"Nord-Est, Departement du","gn_level":1,"gn_region":null,"gn_a1_code":"HT.10","region_sub":null,"sub_code":null,"gns_level":1,"gns_lang":"srp","gns_adm1":"HA10","gns_region":null,"min_label":7.7,"max_label":11.0,"min_zoom":7.7,"wikidataid":"Q928694","name_ar":"الإدارة الشمال شرقية","name_bn":"নর্ড-এস্ট","name_de":"Département Nord-Est","name_en":"Nord-Est","name_es":"Noreste","name_fr":"Nord-Est","name_el":"Νορ-Εστ","name_hi":"नोर्ड-एस्ट","name_hu":"Nord-Est","name_id":"Nord-Est","name_it":"dipartimento del Nordest","name_ja":"北東県","name_ko":"북동부","name_nl":"Nord-Est","name_pl":"Departament Północno-Wschodni","name_pt":"Nordeste","name_ru":"Северо-Восточный департамент","name_sv":"Nord-Est","name_tr":"Nord-Est","name_vi":"Nord-Est","name_zh":"东北省","ne_id":1159310321,"name_he":"צפון-מזרח","name_uk":"Північно-Східний департамент Гаїті","name_ur":"شمالی-مشرقی محکمہ","name_fa":"شهرستان شمال شرقی","name_zht":"東北省","FCLASS_ISO":null,"FCLASS_US":null,"FCLASS_FR":null,"FCLASS_RU":null,"FCLASS_ES":null,"FCLASS_CN":null,"FCLASS_TW":null,"FCLASS_IN":null,"FCLASS_NP":null,"FCLASS_PK":null,"FCLASS_DE":null,"FCLASS_GB":null,"FCLASS_BR":null,"FCLASS_IL":null,"FCLASS_PS":null,"FCLASS_SA":null,"FCLASS_EG":null,"FCLASS_MA":null,"FCLASS_PT":null,"FCLASS_AR":null,"FCLASS_JP":null,"FCLASS_KO":null,"FCLASS_VN":null,"FCLASS_TR":null,"FCLASS_ID":null,"FCLASS_PL":null,"FCLASS_GR":null,"FCLASS_IT":null,"FCLASS_NL":null,"FCLASS_SE":null,"FCLASS_BD":null,"FCLASS_UA":null,"FCLASS_TLC":null,"iso_id":"HT-NE","iso_name":"Nord-Est"},"geometry":{"type":"Polygon","coordinates":[[[-71.757436,19.71011],[-71.799428,19.711127],[-71.825307,19.71662],[-71.836741,19.717353],[-71.84439,19.711127],[-71.846018,19.701117],[-71.842437,19.692328],[-71.835357,19.686184],[-71.813303,19.680732],[-71.811147,19.67357],[-71.816518,19.659857],[-71.821441,19.656684],[-71.83259,19.663275],[-71.850657,19.677639],[-71.884267,19.670396],[-71.901601,19.672309],[-71.912099,19.690619],[-71.884185,19.690253],[-71.872304,19.692125],[-71.863637,19.697455],[-71.857574,19.710028],[-71.864735,19.715074],[-71.891591,19.718573],[-71.9405,19.732123],[-71.968861,19.732327],[-71.987864,19.718573],[-71.999338,19.715562],[-72.010813,19.700873],[-72.018544,19.697455],[-72.027659,19.699612],[-72.047915,19.712043],[-72.056526,19.695077],[-72.060996,19.656527],[-72.082339,19.626864],[-72.098384,19.62366],[-72.110502,19.616116],[-72.109779,19.60237],[-72.113706,19.589657],[-72.110735,19.566145],[-72.097273,19.542528],[-72.087041,19.512969],[-72.069988,19.486925],[-72.073089,19.460415],[-72.083011,19.445687],[-72.045959,19.435765],[-71.995522,19.387344],[-71.978883,19.335771],[-71.943278,19.315772],[-71.906226,19.299753],[-71.887622,19.28487],[-71.837651,19.277118],[-71.819254,19.278358],[-71.783907,19.275465],[-71.749517,19.279708],[-71.771558,19.307556],[-71.776519,19.327504],[-71.769956,19.333808],[-71.742981,19.348381],[-71.733472,19.355461],[-71.720811,19.38595],[-71.715282,19.39166],[-71.703861,19.41463],[-71.70319,19.459278],[-71.715127,19.537465],[-71.743084,19.600071],[-71.747683,19.622783],[-71.745048,19.664899],[-71.748613,19.682598],[-71.757436,19.71011]]]}}
