{"type":"Feature","properties":{"iso_id":"ID-NU","iso_name":"Lesser Sunda Islands","name":"Lesser Sunda Islands","source":"iso-3166-2-placeholder-circle"},"geometry":{"type":"Polygon","coordinates":[[[124.090278,-10.163611],[124.08067,-10.066066],[124.052218,-9.972269],[124.006013,-9.885826],[123.943831,-9.810058],[123.868063,-9.747876],[123.781619,-9.701671],[123.687823,-9.673218],[123.590278,-9.663611],[123.492733,-9.673218],[123.398936,-9.701671],[123.312493,-9.747876],[123.236724,-9.810058],[123.174543,-9.885826],[123.128338,-9.972269],[123.099885,-10.066066],[123.090278,-10.163611],[123.099885,-10.261156],[123.128338,-10.354953],[123.174543,-10.441396],[123.236724,-10.517165],[123.312493,-10.579346],[123.398936,-10.625551],[123.492733,-10.654004],[123.590278,-10.663611],[123.687823,-10.654004],[123.781619,-10.625551],[123.868063,-10.579346],[123.943831,-10.517165],[124.006013,-10.441396],[124.052218,-10.354953],[124.08067,-10.261156],[124.090278,-10.163611]]]}}
