{"type":"Feature","properties":{"featurecla":"Admin-1 states provinces","scalerank":8,"adm1_code":"IRL-76","diss_me":76,"iso_3166_2":"IE-CE","wikipedia":null,"iso_a2":"IE","adm0_sr":1,"name":"Clare","name_alt":"An Clár","name_local":null,"type":"Administrative County","type_en":"County","code_local":null,"code_hasc":"IE.CE","note":null,"hasc_maybe":"IE.GY|IRL-CNN","region":"Mid-West","region_cod":null,"provnum_ne":10,"gadm_level":1,"check_me":20,"datarank":8,"abbrev":null,"postal":"CE","area_sqkm":0,"sameascity":-99,"labelrank":8,"name_len":5,"mapcolor9":2,"mapcolor13":2,"fips":"EI03","fips_alt":"EI10","woe_id":2345251,"woe_label":"Clare, IE, Ireland","woe_name":"Clare","latitude":52.8909,"longitude":-9.10704,"sov_a3":"IRL","adm0_a3":"IRL","adm0_label":2,"admin":"Ireland","geonunit":"Ireland","gu_a3":"IRL","gn_id":2965479,"gn_name":"An Clar","gns_id":-1501647,"gns_name":"Clare, County","gn_level":2,"gn_region":null,"gn_a1_code":"IE.03","region_sub":"Clare","sub_code":null,"gns_level":1,"gns_lang":"eng","gns_adm1":"EI03","gns_region":null,"min_label":8.0,"max_label":11.0,"min_zoom":8.0,"wikidataid":"Q181862","name_ar":"مقاطعة كلير","name_bn":"কাউন্টি ক্লেয়ার","name_de":"Clare","name_en":"Clare","name_es":"Clare","name_fr":"Clare","name_el":"Κομητεία Κλέιρ","name_hi":"काउंटी क्लेयर","name_hu":"Clare","name_id":"Clare","name_it":"Clare","name_ja":"クレア県","name_ko":"클래어","name_nl":"Clare","name_pl":"Clare","name_pt":"Clare","name_ru":"Клэр","name_sv":"Clare","name_tr":"Clare","name_vi":"Hạt Clare","name_zh":"克莱尔郡","ne_id":1159308715,"name_he":"מחוז קלייר","name_uk":"Клер","name_ur":"کاؤنٹی کلیئر","name_fa":"شهرستان کلر","name_zht":"克萊爾郡","FCLASS_ISO":null,"FCLASS_US":null,"FCLASS_FR":null,"FCLASS_RU":null,"FCLASS_ES":null,"FCLASS_CN":null,"FCLASS_TW":null,"FCLASS_IN":null,"FCLASS_NP":null,"FCLASS_PK":null,"FCLASS_DE":null,"FCLASS_GB":null,"FCLASS_BR":null,"FCLASS_IL":null,"FCLASS_PS":null,"FCLASS_SA":null,"FCLASS_EG":null,"FCLASS_MA":null,"FCLASS_PT":null,"FCLASS_AR":null,"FCLASS_JP":null,"FCLASS_KO":null,"FCLASS_VN":null,"FCLASS_TR":null,"FCLASS_ID":null,"FCLASS_PL":null,"FCLASS_GR":null,"FCLASS_IT":null,"FCLASS_NL":null,"FCLASS_SE":null,"FCLASS_BD":null,"FCLASS_UA":null,"FCLASS_TLC":null,"iso_id":"IE-CE","iso_name":"Clare"},"geometry":{"type":"Polygon","coordinates":[[[-8.722847,52.673943],[-8.707344,52.672031],[-8.694942,52.666243],[-8.689774,52.655804],[-8.682436,52.651153],[-8.665796,52.652859],[-8.637994,52.659215],[-8.635204,52.662109],[-8.63231,52.675803],[-8.627142,52.680351],[-8.619287,52.681022],[-8.611949,52.674873],[-8.606627,52.672909],[-8.579083,52.673943],[-8.558206,52.680351],[-8.551901,52.686138],[-8.545183,52.698489],[-8.527872,52.701486],[-8.513144,52.706396],[-8.507356,52.710478],[-8.504773,52.72133],[-8.50901,52.733939],[-8.509062,52.744326],[-8.476971,52.755075],[-8.459504,52.771456],[-8.446585,52.793522],[-8.448962,52.81688],[-8.438937,52.834191],[-8.43625,52.844733],[-8.411031,52.870727],[-8.40111,52.897702],[-8.396975,52.903851],[-8.391549,52.907469],[-8.344369,52.906642],[-8.338426,52.907572],[-8.331811,52.910879],[-8.283649,52.951187],[-8.279308,52.956768],[-8.277913,52.961781],[-8.27967,52.965088],[-8.309436,52.980126],[-8.345299,52.972271],[-8.362197,52.972116],[-8.40204,52.978782],[-8.411497,52.977955],[-8.430979,52.971961],[-8.442347,52.971547],[-8.476506,52.976508],[-8.494127,52.981728],[-8.499191,52.987619],[-8.50653,53.002243],[-8.51764,53.008393],[-8.540429,53.015369],[-8.574226,53.030355],[-8.596963,53.033404],[-8.66776,53.030562],[-8.679025,53.028443],[-8.718661,53.017539],[-8.732097,53.006687],[-8.743259,52.99475],[-8.778244,52.97656],[-8.790595,52.972788],[-8.811369,52.972116],[-8.819534,52.973563],[-8.833331,52.979195],[-8.838292,52.978679],[-8.851728,52.968498],[-8.862167,52.969015],[-8.877101,52.973924],[-8.88108,52.977077],[-8.885163,52.983536],[-8.88878,52.999556],[-8.878807,53.010563],[-8.877721,53.013819],[-8.880667,53.020278],[-8.888108,53.02958],[-8.888935,53.033352],[-8.886868,53.048855],[-8.890692,53.055625],[-8.894309,53.058157],[-9.00252,53.095674],[-9.009651,53.099602],[-9.018023,53.107973],[-9.02257,53.118825],[-9.022054,53.126783],[-9.017093,53.132519],[-9.005827,53.135258],[-9.003088,53.137532],[-9.00128,53.145645],[-9.004058,53.146923],[-9.004058,53.145738],[-9.023427,53.147162],[-9.053944,53.162421],[-9.069569,53.166205],[-9.128163,53.15941],[-9.128163,53.151923],[-9.08434,53.143459],[-9.070058,53.134467],[-9.072865,53.118476],[-9.096669,53.127021],[-9.118967,53.123358],[-9.139556,53.115424],[-9.158599,53.111029],[-9.180531,53.116767],[-9.227447,53.143541],[-9.251088,53.151923],[-9.272206,53.146674],[-9.289662,53.129218],[-9.303334,53.107896],[-9.319936,53.091132],[-9.341624,53.076972],[-9.39509,53.015448],[-9.387603,53.008612],[-9.398549,53.004096],[-9.407948,52.997016],[-9.437571,52.966742],[-9.449452,52.957506],[-9.477651,52.940334],[-9.451405,52.934638],[-9.372874,52.937161],[-9.354075,52.933498],[-9.365305,52.91413],[-9.42748,52.877753],[-9.429189,52.857733],[-9.437489,52.853461],[-9.450347,52.830471],[-9.469797,52.813178],[-9.480621,52.80683],[-9.491282,52.803168],[-9.483795,52.795722],[-9.486684,52.788764],[-9.489329,52.78734],[-9.483795,52.78266],[-9.491322,52.773342],[-9.498647,52.752509],[-9.508372,52.748481],[-9.519521,52.747301],[-9.538197,52.742255],[-9.549387,52.741034],[-9.580719,52.743354],[-9.593658,52.741034],[-9.617543,52.730618],[-9.628407,52.727444],[-9.621653,52.713772],[-9.824086,52.59516],[-9.87564,52.586819],[-9.918202,52.568101],[-9.93635,52.562934],[-9.93635,52.556708],[-9.757476,52.571967],[-9.730824,52.584052],[-9.714508,52.578599],[-9.706858,52.580227],[-9.703521,52.594306],[-9.694407,52.605618],[-9.672719,52.61164],[-9.628407,52.61758],[-9.552805,52.639309],[-9.556996,52.64704],[-9.563385,52.653062],[-9.57136,52.657131],[-9.580719,52.659125],[-9.580719,52.665961],[-9.544179,52.666653],[-9.533274,52.660956],[-9.538442,52.645453],[-9.524892,52.63703],[-9.490712,52.634101],[-9.475453,52.619574],[-9.456166,52.614447],[-9.434478,52.612006],[-9.383656,52.613105],[-9.310618,52.627265],[-9.278961,52.639309],[-9.278676,52.625718],[-9.295237,52.615302],[-9.317128,52.606431],[-9.333079,52.597724],[-9.310699,52.590644],[-9.285797,52.590806],[-9.275787,52.595201],[-9.254791,52.611396],[-9.165761,52.61758],[-9.146799,52.623765],[-9.058217,52.696763],[-9.025787,52.73428],[-9.02359,52.747138],[-9.000234,52.760443],[-8.968902,52.770819],[-8.942616,52.775214],[-8.950307,52.769517],[-8.969879,52.748481],[-8.954498,52.744696],[-8.952056,52.73432],[-8.953521,52.722398],[-8.949371,52.713772],[-8.949371,52.706936],[-8.962066,52.700019],[-8.960846,52.693671],[-8.949696,52.68891],[-8.932688,52.687079],[-8.867502,52.693305],[-8.834462,52.689154],[-8.769358,52.673163],[-8.722847,52.673943]]]}}
