{"type":"Feature","properties":{"featurecla":"Admin-1 states provinces","scalerank":8,"adm1_code":"IRL-731","diss_me":731,"iso_3166_2":"IE-LD","wikipedia":null,"iso_a2":"IE","adm0_sr":1,"name":"Longford","name_alt":"An Longfort","name_local":null,"type":"Administrative County","type_en":"County","code_local":null,"code_hasc":"IE.LD","note":null,"hasc_maybe":null,"region":"Midlands","region_cod":null,"provnum_ne":19,"gadm_level":1,"check_me":20,"datarank":8,"abbrev":null,"postal":"LD","area_sqkm":0,"sameascity":-99,"labelrank":8,"name_len":8,"mapcolor9":2,"mapcolor13":2,"fips":"EI18","fips_alt":null,"woe_id":2345262,"woe_label":"Longford, IE, Ireland","woe_name":"Longford","latitude":53.7166,"longitude":-7.70239,"sov_a3":"IRL","adm0_a3":"IRL","adm0_label":2,"admin":"Ireland","geonunit":"Ireland","gu_a3":"IRL","gn_id":2962839,"gn_name":"An Longfort","gns_id":-1504293,"gns_name":"Longford, County","gn_level":2,"gn_region":null,"gn_a1_code":"IE.18","region_sub":"Longford","sub_code":null,"gns_level":1,"gns_lang":"eng","gns_adm1":"EI18","gns_region":null,"min_label":8.0,"max_label":11.0,"min_zoom":8.0,"wikidataid":"Q186220","name_ar":"مقاطعة لونجفورد","name_bn":"কাউন্টি লংফোর্ড","name_de":"Longford","name_en":"Longford","name_es":"Longford","name_fr":"Longford","name_el":"Κομητεία Λόνγκφορντ","name_hi":"लोंग्फोर्ड काउंटी","name_hu":"Longford","name_id":"Longford","name_it":"Longford","name_ja":"ロングフォード県","name_ko":"롱퍼드","name_nl":"Longford","name_pl":"Longford","name_pt":"Longford","name_ru":"Лонгфорд","name_sv":"Longford","name_tr":"Longford","name_vi":"Hạt Longford","name_zh":"朗福德郡","ne_id":1159311023,"name_he":"מחוז לונגפורד","name_uk":"Лонгфорд","name_ur":"کاؤنٹی لونگفرڈ","name_fa":"شهرستان لانگفورد","name_zht":"朗福德郡","FCLASS_ISO":null,"FCLASS_US":null,"FCLASS_FR":null,"FCLASS_RU":null,"FCLASS_ES":null,"FCLASS_CN":null,"FCLASS_TW":null,"FCLASS_IN":null,"FCLASS_NP":null,"FCLASS_PK":null,"FCLASS_DE":null,"FCLASS_GB":null,"FCLASS_BR":null,"FCLASS_IL":null,"FCLASS_PS":null,"FCLASS_SA":null,"FCLASS_EG":null,"FCLASS_MA":null,"FCLASS_PT":null,"FCLASS_AR":null,"FCLASS_JP":null,"FCLASS_KO":null,"FCLASS_VN":null,"FCLASS_TR":null,"FCLASS_ID":null,"FCLASS_PL":null,"FCLASS_GR":null,"FCLASS_IT":null,"FCLASS_NL":null,"FCLASS_SE":null,"FCLASS_BD":null,"FCLASS_UA":null,"FCLASS_TLC":null,"iso_id":"IE-LD","iso_name":"Longford"},"geometry":{"type":"Polygon","coordinates":[[[-7.388768,53.778992],[-7.443029,53.807207],[-7.456361,53.818317],[-7.459772,53.832115],[-7.473001,53.850512],[-7.486282,53.859038],[-7.506591,53.861726],[-7.519251,53.861726],[-7.548655,53.856558],[-7.563331,53.85661],[-7.566639,53.858832],[-7.566742,53.862036],[-7.560644,53.872061],[-7.554546,53.877745],[-7.540077,53.881414],[-7.53894,53.88436],[-7.542971,53.893765],[-7.54912,53.901103],[-7.555787,53.904049],[-7.570773,53.906374],[-7.576974,53.910198],[-7.598781,53.933142],[-7.638676,53.935209],[-7.658002,53.92906],[-7.678931,53.917433],[-7.682807,53.913144],[-7.707147,53.895677],[-7.747764,53.874386],[-7.763526,53.864206],[-7.772311,53.85661],[-7.775721,53.835629],[-7.782284,53.823278],[-7.787297,53.817387],[-7.799027,53.814958],[-7.829465,53.815837],[-7.843728,53.827102],[-7.850342,53.828859],[-7.853753,53.827102],[-7.855303,53.824105],[-7.856595,53.810669],[-7.859644,53.808499],[-7.865535,53.809636],[-7.875922,53.821005],[-7.889203,53.82302],[-7.922017,53.811599],[-7.915351,53.798835],[-7.900882,53.790154],[-7.89375,53.792789],[-7.887601,53.788913],[-7.884655,53.780542],[-7.887239,53.769638],[-7.893854,53.765607],[-7.928839,53.755375],[-7.922017,53.741733],[-7.931164,53.742818],[-7.938709,53.741475],[-7.949354,53.735532],[-7.950388,53.731811],[-7.948889,53.722974],[-7.969198,53.714396],[-7.987698,53.695121],[-7.996793,53.682512],[-8.003925,53.666595],[-8.025629,53.636106],[-8.032347,53.619156],[-8.022166,53.599519],[-7.988628,53.563294],[-7.962997,53.524278],[-7.921759,53.539161],[-7.905223,53.543089],[-7.829465,53.5496],[-7.810758,53.548411],[-7.797477,53.542882],[-7.761149,53.534614],[-7.716759,53.53265],[-7.676554,53.536888],[-7.659966,53.540608],[-7.652111,53.544587],[-7.652111,53.552184],[-7.649114,53.559005],[-7.632836,53.572751],[-7.621312,53.58722],[-7.607566,53.59554],[-7.597851,53.60417],[-7.587516,53.609648],[-7.570308,53.613369],[-7.563125,53.617296],[-7.559817,53.621327],[-7.560127,53.62944],[-7.564675,53.635486],[-7.597851,53.648715],[-7.603536,53.654296],[-7.602192,53.658017],[-7.59196,53.659051],[-7.570308,53.652746],[-7.556923,53.663908],[-7.529121,53.678533],[-7.518786,53.690625],[-7.504368,53.702252],[-7.499563,53.703957],[-7.479409,53.704681],[-7.473518,53.706283],[-7.469073,53.708557],[-7.45326,53.724111],[-7.442202,53.729692],[-7.430885,53.731191],[-7.3959,53.728814],[-7.383187,53.732741],[-7.374816,53.741733],[-7.372439,53.759406],[-7.377348,53.769018],[-7.388768,53.778992]]]}}
