{"type":"Feature","properties":{"featurecla":"Admin-0 country","scalerank":0,"LABELRANK":4,"SOVEREIGNT":"Israel","SOV_A3":"IS1","ADM0_DIF":1,"LEVEL":2,"TYPE":"Disputed","TLC":"1","ADMIN":"Israel","ADM0_A3":"ISR","GEOU_DIF":0,"GEOUNIT":"Israel","GU_A3":"ISR","SU_DIF":0,"SUBUNIT":"Israel","SU_A3":"ISR","BRK_DIFF":1,"NAME":"Israel","NAME_LONG":"Israel","BRK_A3":"ISR","BRK_NAME":"Israel","BRK_GROUP":null,"ABBREV":"Isr.","POSTAL":"IS","FORMAL_EN":"State of Israel","FORMAL_FR":null,"NAME_CIAWF":"Israel","NOTE_ADM0":null,"NOTE_BRK":null,"NAME_SORT":"Israel","NAME_ALT":null,"MAPCOLOR7":3,"MAPCOLOR8":2,"MAPCOLOR9":5,"MAPCOLOR13":9,"POP_EST":9053300.0,"POP_RANK":13,"POP_YEAR":2019,"GDP_MD":394652,"GDP_YEAR":2019,"ECONOMY":"2. Developed region: nonG7","INCOME_GRP":"1. High income: OECD","FIPS_10":"-99","ISO_A2":"IL","ISO_A2_EH":"IL","ISO_A3":"ISR","ISO_A3_EH":"ISR","ISO_N3":"376","ISO_N3_EH":"376","UN_A3":"376","WB_A2":"IL","WB_A3":"ISR","WOE_ID":23424852,"WOE_ID_EH":23424852,"WOE_NOTE":"Exact WOE match as country","ADM0_ISO":"ISR","ADM0_DIFF":null,"ADM0_TLC":"ISR","ADM0_A3_US":"ISR","ADM0_A3_FR":"ISR","ADM0_A3_RU":"ISR","ADM0_A3_ES":"ISR","ADM0_A3_CN":"ISR","ADM0_A3_TW":"ISR","ADM0_A3_IN":"ISR","ADM0_A3_NP":"ISR","ADM0_A3_PK":"PSX","ADM0_A3_DE":"ISR","ADM0_A3_GB":"ISR","ADM0_A3_BR":"ISR","ADM0_A3_IL":"ISR","ADM0_A3_PS":"ISR","ADM0_A3_SA":"PSX","ADM0_A3_EG":"ISR","ADM0_A3_MA":"ISR","ADM0_A3_PT":"ISR","ADM0_A3_AR":"ISR","ADM0_A3_JP":"ISR","ADM0_A3_KO":"ISR","ADM0_A3_VN":"ISR","ADM0_A3_TR":"ISR","ADM0_A3_ID":"ISR","ADM0_A3_PL":"ISR","ADM0_A3_GR":"ISR","ADM0_A3_IT":"ISR","ADM0_A3_NL":"ISR","ADM0_A3_SE":"ISR","ADM0_A3_BD":"PSX","ADM0_A3_UA":"ISR","ADM0_A3_UN":-99,"ADM0_A3_WB":-99,"CONTINENT":"Asia","REGION_UN":"Asia","SUBREGION":"Western Asia","REGION_WB":"Middle East & North Africa","NAME_LEN":6,"LONG_LEN":6,"ABBREV_LEN":4,"TINY":-99,"HOMEPART":1,"MIN_ZOOM":0.0,"MIN_LABEL":3.0,"MAX_LABEL":8.0,"LABEL_X":34.847915,"LABEL_Y":30.911148,"NE_ID":1159320895,"WIKIDATAID":"Q801","NAME_AR":"إسرائيل","NAME_BN":"ইসরায়েল","NAME_DE":"Israel","NAME_EN":"Israel","NAME_ES":"Israel","NAME_FA":"اسرائیل","NAME_FR":"Israël","NAME_EL":"Ισραήλ","NAME_HE":"ישראל","NAME_HI":"इज़राइल","NAME_HU":"Izrael","NAME_ID":"Israel","NAME_IT":"Israele","NAME_JA":"イスラエル","NAME_KO":"이스라엘","NAME_NL":"Israël","NAME_PL":"Izrael","NAME_PT":"Israel","NAME_RU":"Израиль","NAME_SV":"Israel","NAME_TR":"İsrail","NAME_UK":"Ізраїль","NAME_UR":"اسرائیل","NAME_VI":"Israel","NAME_ZH":"以色列","NAME_ZHT":"以色列","FCLASS_ISO":"Admin-0 country","TLC_DIFF":null,"FCLASS_TLC":"Admin-0 country","FCLASS_US":null,"FCLASS_FR":null,"FCLASS_RU":null,"FCLASS_ES":null,"FCLASS_CN":null,"FCLASS_TW":null,"FCLASS_IN":null,"FCLASS_NP":null,"FCLASS_PK":"Unrecognized","FCLASS_DE":null,"FCLASS_GB":null,"FCLASS_BR":null,"FCLASS_IL":null,"FCLASS_PS":null,"FCLASS_SA":"Unrecognized","FCLASS_EG":null,"FCLASS_MA":null,"FCLASS_PT":null,"FCLASS_AR":null,"FCLASS_JP":null,"FCLASS_KO":null,"FCLASS_VN":null,"FCLASS_TR":null,"FCLASS_ID":null,"FCLASS_PL":null,"FCLASS_GR":null,"FCLASS_IT":null,"FCLASS_NL":null,"FCLASS_SE":null,"FCLASS_BD":"Unrecognized","FCLASS_UA":null,"iso_id":"IL","iso_name":"Israel","name":"Israel","source":"iso-3166-1-countries"},"geometry":{"type":"Polygon","coordinates":[[[34.248351,31.211449],[34.329511,30.994492],[34.480407,30.651205],[34.502214,30.571675],[34.504384,30.530334],[34.536217,30.482172],[34.526915,30.409618],[34.599469,30.344506],[34.733208,30.012588],[34.741373,29.940241],[34.824365,29.7417],[34.8501,29.63876],[34.848239,29.569643],[34.855267,29.545717],[34.886729,29.490058],[34.910818,29.489936],[34.951345,29.54564],[34.966992,29.608116],[34.989833,29.651964],[35.002545,29.733096],[35.048951,29.842314],[35.054118,29.923394],[35.086261,30.034034],[35.129049,30.089741],[35.145276,30.123382],[35.145276,30.154905],[35.124812,30.21609],[35.125225,30.244667],[35.141762,30.313965],[35.162122,30.361404],[35.140005,30.406155],[35.140005,30.430185],[35.205324,30.617099],[35.263821,30.71978],[35.279531,30.780241],[35.316635,30.822823],[35.322216,30.88995],[35.334928,30.912585],[35.385261,30.963279],[35.391565,31.023947],[35.438488,31.103736],[35.443242,31.132209],[35.436214,31.159546],[35.410686,31.204608],[35.3957,31.25768],[35.422261,31.303],[35.423915,31.324601],[35.416473,31.331835],[35.452854,31.400823],[35.458538,31.491619],[35.390118,31.487071],[35.332344,31.458804],[35.223307,31.381031],[35.164913,31.362273],[35.040166,31.363203],[34.927408,31.34491],[34.900949,31.348475],[34.878832,31.362841],[34.867153,31.396431],[34.926788,31.494409],[34.93733,31.582001],[34.973606,31.63037],[35.059226,31.676797],[35.125742,31.733103],[35.148952,31.737349],[35.179423,31.720103],[35.205255,31.723187],[35.23797,31.709332],[35.262811,31.748625],[35.252699,31.76965],[35.262896,31.789684],[35.255871,31.812216],[35.264935,31.826272],[35.251566,31.831277],[35.257231,31.838593],[35.24998,31.844368],[35.233353,31.842611],[35.222023,31.879178],[35.205255,31.877254],[35.215764,31.82011],[35.183587,31.825116],[35.186167,31.80874],[35.112472,31.823963],[35.07632,31.854158],[35.056018,31.853317],[35.012939,31.82934],[34.977433,31.833366],[34.99854,31.853835],[35.034323,31.861114],[35.039006,31.908637],[35.029902,31.92443],[35.005424,31.933769],[35.007734,31.944922],[34.986695,31.967228],[34.997837,31.978779],[34.996775,32.011102],[35.007245,32.020772],[34.984217,32.089584],[34.986943,32.123991],[34.958223,32.186454],[34.961411,32.201576],[35.007609,32.24439],[35.009366,32.267644],[34.989936,32.27847],[34.996551,32.323041],[35.000685,32.335728],[35.021562,32.34459],[35.044713,32.43412],[35.06435,32.463136],[35.151683,32.507914],[35.190751,32.54171],[35.208631,32.54264],[35.270436,32.510471],[35.363143,32.51011],[35.392909,32.494478],[35.406862,32.414793],[35.560961,32.384717],[35.545148,32.409573],[35.5591,32.413966],[35.551969,32.429443],[35.55941,32.429443],[35.551969,32.436212],[35.572536,32.456728],[35.572536,32.464195],[35.55941,32.470396],[35.579978,32.497733],[35.551969,32.525587],[35.565612,32.525587],[35.55941,32.55295],[35.565612,32.546102],[35.572536,32.560391],[35.574397,32.554396],[35.579978,32.560391],[35.565612,32.607546],[35.572536,32.62124],[35.564061,32.625477],[35.560547,32.640903],[35.611758,32.6819],[35.635995,32.679143],[35.685191,32.711234],[35.75759,32.744347],[35.834226,32.827946],[35.849729,32.895823],[35.888073,32.944941],[35.85903,32.99021],[35.848902,33.098678],[35.811488,33.111908],[35.811488,33.126765],[35.833399,33.161129],[35.830195,33.189991],[35.807664,33.201721],[35.803633,33.248463],[35.768597,33.272699],[35.802083,33.31249],[35.763842,33.334401],[35.809938,33.360032],[35.8211,33.406722],[35.769423,33.342643],[35.698523,33.32267],[35.652143,33.27666],[35.620065,33.269536],[35.603852,33.240091],[35.561167,33.28213],[35.549489,33.281019],[35.520033,33.222185],[35.512282,33.147409],[35.480139,33.087387],[35.34516,33.05558],[35.331931,33.057156],[35.305783,33.089377],[35.283665,33.101185],[35.234469,33.090927],[35.207184,33.094803],[35.185273,33.083977],[35.09962,33.087592],[35.106456,33.080756],[35.092133,33.067694],[35.096202,33.05036],[35.078461,32.998847],[35.06544,32.923082],[35.07781,32.917873],[35.0796,32.905829],[35.062755,32.858344],[35.02768,32.826606],[35.003429,32.827541],[34.97047,32.841376],[34.955577,32.834377],[34.94752,32.814154],[34.942068,32.724514],[34.837657,32.280707],[34.757009,32.066596],[34.743337,32.06037],[34.743337,32.039862],[34.711925,31.951606],[34.60963,31.76553],[34.481204,31.583141],[34.556032,31.539825],[34.367339,31.392814],[34.345841,31.357725],[34.350905,31.289254],[34.248351,31.211449]]]}}
