{"type":"Feature","properties":{"featurecla":"Admin-1 states provinces","scalerank":2,"adm1_code":"IND-2427","diss_me":2427,"iso_3166_2":"IN-CH","wikipedia":null,"iso_a2":"IN","adm0_sr":1,"name":"Chandigarh","name_alt":null,"name_local":null,"type":"Union Territor","type_en":"Union Territory","code_local":null,"code_hasc":"IN.CH","note":null,"hasc_maybe":null,"region":"North","region_cod":null,"provnum_ne":20057,"gadm_level":1,"check_me":20,"datarank":1,"abbrev":null,"postal":"CH","area_sqkm":0,"sameascity":9,"labelrank":9,"name_len":10,"mapcolor9":2,"mapcolor13":2,"fips":"IN05","fips_alt":null,"woe_id":20070456,"woe_label":"Chandigarh, IN, India","woe_name":"Chandigarh","latitude":30.7452,"longitude":76.7605,"sov_a3":"IND","adm0_a3":"IND","adm0_label":2,"admin":"India","geonunit":"India","gu_a3":"IND","gn_id":1274744,"gn_name":"Union Territory of Chandigarh","gns_id":-2092772,"gns_name":"Chandigarh, Union Territory of","gn_level":1,"gn_region":null,"gn_a1_code":"IN.05","region_sub":null,"sub_code":null,"gns_level":1,"gns_lang":"nld","gns_adm1":"IN05","gns_region":null,"min_label":4.6,"max_label":10.1,"min_zoom":4.6,"wikidataid":"Q43433","name_ar":"شانديغار","name_bn":"চণ্ডীগড়","name_de":"Chandigarh","name_en":"Chandigarh","name_es":"Chandigarh","name_fr":"Chandigarh","name_el":"Τσαντιγκάρ","name_hi":"चण्डीगढ़","name_hu":"Csandígarh","name_id":"Chandigarh","name_it":"Chandigarh","name_ja":"チャンディーガル","name_ko":"찬디가르","name_nl":"Chandigarh","name_pl":"Czandigarh","name_pt":"Chandigarh","name_ru":"Чандигарх","name_sv":"Chandigarh","name_tr":"Çhandigarh","name_vi":"Chandigarh","name_zh":"昌迪加尔","ne_id":1159311873,"name_he":"צ'אנדיגאר","name_uk":"Чандігарх","name_ur":"چندی گڑھ","name_fa":"چندیگر","name_zht":"昌迪加爾","FCLASS_ISO":null,"FCLASS_US":null,"FCLASS_FR":null,"FCLASS_RU":null,"FCLASS_ES":null,"FCLASS_CN":null,"FCLASS_TW":null,"FCLASS_IN":null,"FCLASS_NP":null,"FCLASS_PK":null,"FCLASS_DE":null,"FCLASS_GB":null,"FCLASS_BR":null,"FCLASS_IL":null,"FCLASS_PS":null,"FCLASS_SA":null,"FCLASS_EG":null,"FCLASS_MA":null,"FCLASS_PT":null,"FCLASS_AR":null,"FCLASS_JP":null,"FCLASS_KO":null,"FCLASS_VN":null,"FCLASS_TR":null,"FCLASS_ID":null,"FCLASS_PL":null,"FCLASS_GR":null,"FCLASS_IT":null,"FCLASS_NL":null,"FCLASS_SE":null,"FCLASS_BD":null,"FCLASS_UA":null,"FCLASS_TLC":null,"iso_id":"IN-CH","iso_name":"Chandigarh","source":"iso-3166-2-subdivisions"},"geometry":{"type":"Polygon","coordinates":[[[76.77395,30.799025],[76.741497,30.796493],[76.703773,30.781403],[76.694368,30.771507],[76.698089,30.74926],[76.780564,30.673451],[76.800305,30.682675],[76.82728,30.680712],[76.818805,30.703191],[76.826246,30.742956],[76.813327,30.770267],[76.814567,30.789129],[76.77395,30.799025]]]}}
