{"type":"Feature","properties":{"featurecla":"Admin-1 states provinces","scalerank":2,"adm1_code":"IND-2479","diss_me":2479,"iso_3166_2":"IN-NL","wikipedia":null,"iso_a2":"IN","adm0_sr":1,"name":"Nagaland","name_alt":null,"name_local":null,"type":"State","type_en":"State","code_local":null,"code_hasc":"IN.NL","note":null,"hasc_maybe":null,"region":"Northeast","region_cod":null,"provnum_ne":20046,"gadm_level":1,"check_me":20,"datarank":1,"abbrev":null,"postal":"NL","area_sqkm":0,"sameascity":-99,"labelrank":2,"name_len":8,"mapcolor9":2,"mapcolor13":2,"fips":"IN20","fips_alt":null,"woe_id":2345754,"woe_label":"Nagaland, IN, India","woe_name":"Nagaland","latitude":26.1094,"longitude":94.5664,"sov_a3":"IND","adm0_a3":"IND","adm0_label":2,"admin":"India","geonunit":"India","gu_a3":"IND","gn_id":1262271,"gn_name":"State of Nagaland","gns_id":-2105305,"gns_name":"Nagaland, State of","gn_level":1,"gn_region":null,"gn_a1_code":"IN.20","region_sub":null,"sub_code":null,"gns_level":1,"gns_lang":"nld","gns_adm1":"IN20","gns_region":null,"min_label":4.6,"max_label":10.1,"min_zoom":4.6,"wikidataid":"Q1599","name_ar":"ناجالاند","name_bn":"নাগাল্যান্ড","name_de":"Nagaland","name_en":"Nagaland","name_es":"Nagaland","name_fr":"Nagaland","name_el":"Ναγκαλάντ","name_hi":"नागालैण्ड","name_hu":"Nágaföld","name_id":"Nagaland","name_it":"Nagaland","name_ja":"ナガランド州","name_ko":"나갈랜드","name_nl":"Nagaland","name_pl":"Nagaland","name_pt":"Nagaland","name_ru":"Нагаленд","name_sv":"Nagaland","name_tr":"Nagaland","name_vi":"Nagaland","name_zh":"那加兰邦","ne_id":1159311869,"name_he":"נאגאלנד","name_uk":"Нагаленд","name_ur":"ناگالینڈ","name_fa":"ناگالند","name_zht":"那加蘭邦","FCLASS_ISO":null,"FCLASS_US":null,"FCLASS_FR":null,"FCLASS_RU":null,"FCLASS_ES":null,"FCLASS_CN":null,"FCLASS_TW":null,"FCLASS_IN":null,"FCLASS_NP":null,"FCLASS_PK":null,"FCLASS_DE":null,"FCLASS_GB":null,"FCLASS_BR":null,"FCLASS_IL":null,"FCLASS_PS":null,"FCLASS_SA":null,"FCLASS_EG":null,"FCLASS_MA":null,"FCLASS_PT":null,"FCLASS_AR":null,"FCLASS_JP":null,"FCLASS_KO":null,"FCLASS_VN":null,"FCLASS_TR":null,"FCLASS_ID":null,"FCLASS_PL":null,"FCLASS_GR":null,"FCLASS_IT":null,"FCLASS_NL":null,"FCLASS_SE":null,"FCLASS_BD":null,"FCLASS_UA":null,"FCLASS_TLC":null,"iso_id":"IN-NL","iso_name":"Nagaland"},"geometry":{"type":"Polygon","coordinates":[[[95.246933,26.648904],[95.246311,26.679715],[95.2275,26.723847],[95.224813,26.742141],[95.22719,26.759917],[95.235252,26.790613],[95.233081,26.798055],[95.225743,26.806323],[95.20621,26.820585],[95.200215,26.830146],[95.197425,26.841773],[95.198768,26.859136],[95.202179,26.866732],[95.220472,26.882132],[95.229051,26.898255],[95.231635,26.908074],[95.234322,26.945746],[95.231531,26.960319],[95.225433,26.974219],[95.209207,26.988224],[95.189673,26.996027],[95.179855,27.003727],[95.176444,27.033182],[95.165902,27.023984],[95.158564,27.010238],[95.149779,27.000471],[95.031233,26.933498],[95.017901,26.928176],[94.99847,26.923318],[94.980797,26.924248],[94.966224,26.927142],[94.954546,26.932517],[94.930981,26.948433],[94.92478,26.950913],[94.917132,26.951172],[94.873207,26.91505],[94.861011,26.901924],[94.832589,26.857276],[94.798896,26.814384],[94.76541,26.788029],[94.690479,26.741004],[94.668982,26.732115],[94.587229,26.699921],[94.549196,26.701936],[94.540514,26.696975],[94.520567,26.679922],[94.510438,26.677132],[94.486564,26.676667],[94.479122,26.671447],[94.459589,26.647728],[94.428686,26.616877],[94.421968,26.603958],[94.420625,26.567474],[94.396543,26.534401],[94.370809,26.51187],[94.358199,26.498383],[94.345487,26.489701],[94.327917,26.481898],[94.316962,26.481485],[94.30828,26.485412],[94.298772,26.499468],[94.29226,26.52975],[94.29102,26.542876],[94.269626,26.55471],[94.247405,26.523291],[94.207201,26.483707],[94.195419,26.465465],[94.189218,26.447482],[94.183947,26.395598],[94.177435,26.372447],[94.170407,26.360769],[94.160485,26.351208],[94.134647,26.333742],[94.102918,26.303563],[94.00773,26.184397],[94.002666,26.172666],[94.001735,26.164915],[94.00897,26.142642],[94.01021,26.131274],[94.002666,26.076755],[93.998842,26.068073],[93.99264,26.060373],[93.983339,26.053087],[93.973417,26.040375],[93.969696,26.027042],[93.969076,25.999654],[93.97166,25.984874],[93.98923,25.94622],[93.981892,25.930924],[93.974037,25.923173],[93.947785,25.886172],[93.934763,25.87408],[93.90417,25.85682],[93.884947,25.851859],[93.835854,25.845141],[93.805778,25.834082],[93.779113,25.831033],[93.774876,25.834289],[93.773636,25.841007],[93.774773,25.846278],[93.778803,25.854495],[93.802885,25.880953],[93.807639,25.891547],[93.810119,25.903639],[93.810016,25.918108],[93.807949,25.931389],[93.804125,25.942706],[93.796373,25.951595],[93.786762,25.9564],[93.768881,25.96069],[93.75865,25.960638],[93.752138,25.959088],[93.724956,25.943326],[93.697361,25.933404],[93.685062,25.926997],[93.677931,25.9194],[93.677621,25.911442],[93.680928,25.902812],[93.686923,25.894957],[93.702632,25.881418],[93.706973,25.87532],[93.708937,25.870101],[93.705836,25.864365],[93.696741,25.855476],[93.599693,25.780546],[93.580779,25.763079],[93.524349,25.689285],[93.477323,25.653111],[93.419135,25.617041],[93.379034,25.580868],[93.345858,25.556993],[93.338313,25.548467],[93.335936,25.538028],[93.340587,25.529295],[93.355677,25.514825],[93.367872,25.496584],[93.378311,25.488212],[93.384616,25.480874],[93.396294,25.461392],[93.405906,25.454157],[93.427817,25.442478],[93.437842,25.431885],[93.443733,25.421704],[93.454482,25.395039],[93.458513,25.380725],[93.45872,25.36362],[93.454999,25.338092],[93.455722,25.322589],[93.449211,25.302125],[93.466471,25.285899],[93.480734,25.278974],[93.49851,25.274995],[93.515047,25.259647],[93.524039,25.255823],[93.546363,25.251689],[93.557835,25.247503],[93.566723,25.24125],[93.58636,25.212622],[93.596179,25.206575],[93.605481,25.2058],[93.611475,25.211381],[93.615299,25.218719],[93.649199,25.261921],[93.679378,25.314321],[93.679068,25.328273],[93.698705,25.347084],[93.723716,25.364034],[93.808569,25.446096],[93.813427,25.457154],[93.811359,25.471417],[93.807535,25.47953],[93.801438,25.48599],[93.792756,25.490434],[93.759373,25.499994],[93.765884,25.516479],[93.769605,25.532085],[93.781284,25.53746],[93.803195,25.543557],[93.929905,25.554409],[93.976001,25.548312],[94.026747,25.553841],[94.051552,25.541749],[94.071499,25.525471],[94.084004,25.519528],[94.096303,25.515704],[94.109946,25.515135],[94.126069,25.516169],[94.15077,25.52144],[94.163586,25.518649],[94.171854,25.514412],[94.183533,25.500666],[94.195109,25.496584],[94.209371,25.495498],[94.251746,25.500149],[94.325333,25.512035],[94.365848,25.527951],[94.386725,25.541439],[94.401401,25.553893],[94.422485,25.583762],[94.435301,25.594407],[94.476332,25.615078],[94.490284,25.623708],[94.570383,25.687631],[94.573897,25.685564],[94.574827,25.676211],[94.570383,25.654662],[94.570693,25.621486],[94.537413,25.524902],[94.535863,25.513688],[94.541031,25.502526],[94.552813,25.490331],[94.599528,25.460772],[94.615962,25.4524],[94.65036,25.44665],[94.659472,25.455502],[94.692028,25.476327],[94.711149,25.482787],[94.745772,25.486611],[94.764375,25.491675],[94.782359,25.504594],[94.80799,25.542628],[94.822356,25.559113],[94.831038,25.562472],[94.850778,25.562782],[94.860287,25.567174],[94.86101,25.571412],[94.852949,25.580765],[94.853466,25.586036],[94.871656,25.598025],[94.961469,25.717966],[94.969014,25.725614],[94.978626,25.729077],[94.999917,25.731557],[95.008805,25.737138],[95.015316,25.755122],[95.013456,25.777704],[94.993199,25.880954],[94.994026,25.900436],[95.00064,25.922036],[95.012009,25.931442],[95.049423,25.943741],[95.065856,25.953817],[95.10823,25.995107],[95.139546,26.029937],[95.151225,26.049936],[95.150088,26.070968],[95.137479,26.082957],[95.101719,26.093395],[95.08818,26.104093],[95.078361,26.171324],[95.082392,26.179798],[95.094484,26.195043],[95.090764,26.202691],[95.082806,26.206619],[95.066373,26.211011],[95.058724,26.217677],[95.046322,26.24796],[95.041775,26.287596],[95.043635,26.327696],[95.050456,26.359064],[95.064202,26.392602],[95.066062,26.407433],[95.061722,26.426605],[95.042601,26.459678],[95.040638,26.475594],[95.054384,26.49487],[95.069887,26.506239],[95.099239,26.536107],[95.109574,26.5513],[95.114948,26.562566],[95.116189,26.569335],[95.119082,26.604217],[95.122803,26.611607],[95.132622,26.620805],[95.141407,26.624991],[95.163421,26.629745],[95.173239,26.633828],[95.181611,26.641682],[95.195564,26.660751],[95.204865,26.667572],[95.223262,26.670363],[95.239075,26.649641],[95.246933,26.648904]]]}}
