{"type":"Feature","properties":{"iso_id":"IN-OD","iso_name":"Odisha","name":"Odisha","source":"iso-3166-2-placeholder-circle"},"geometry":{"type":"Polygon","coordinates":[[[86.0,20.15],[85.990393,20.247545],[85.96194,20.341342],[85.915735,20.427785],[85.853553,20.503553],[85.777785,20.565735],[85.691342,20.61194],[85.597545,20.640393],[85.5,20.65],[85.402455,20.640393],[85.308658,20.61194],[85.222215,20.565735],[85.146447,20.503553],[85.084265,20.427785],[85.03806,20.341342],[85.009607,20.247545],[85.0,20.15],[85.009607,20.052455],[85.03806,19.958658],[85.084265,19.872215],[85.146447,19.796447],[85.222215,19.734265],[85.308658,19.68806],[85.402455,19.659607],[85.5,19.65],[85.597545,19.659607],[85.691342,19.68806],[85.777785,19.734265],[85.853553,19.796447],[85.915735,19.872215],[85.96194,19.958658],[85.990393,20.052455],[86.0,20.15]]]}}
