{"type":"Feature","properties":{"featurecla":"Admin-1 states provinces","scalerank":5,"adm1_code":"IRQ-3063","diss_me":3063,"iso_3166_2":"IQ-BG","wikipedia":null,"iso_a2":"IQ","adm0_sr":1,"name":"Baghdad","name_alt":"Bagd |Bagdad","name_local":null,"type":"Muhafazah","type_en":"Province","code_local":null,"code_hasc":"IQ.BG","note":null,"hasc_maybe":null,"region":"Iraq","region_cod":null,"provnum_ne":20003,"gadm_level":1,"check_me":20,"datarank":5,"abbrev":null,"postal":"BG","area_sqkm":0,"sameascity":9,"labelrank":9,"name_len":7,"mapcolor9":3,"mapcolor13":1,"fips":"IZ07","fips_alt":null,"woe_id":2345839,"woe_label":"Baghdad, IQ, Iraq","woe_name":"Baghdad","latitude":33.306,"longitude":44.3827,"sov_a3":"IRQ","adm0_a3":"IRQ","adm0_label":2,"admin":"Iraq","geonunit":"Iraq","gu_a3":"IRR","gn_id":98180,"gn_name":"Muhafazat Baghdad","gns_id":-3103583,"gns_name":"Baghdad","gn_level":1,"gn_region":null,"gn_a1_code":"IQ.07","region_sub":null,"sub_code":null,"gns_level":1,"gns_lang":"ara","gns_adm1":"IZ07","gns_region":null,"min_label":6.7,"max_label":11.0,"min_zoom":6.7,"wikidataid":"Q191075","name_ar":"محافظة بغداد","name_bn":"বাগদাদ প্রদেশ","name_de":"Bagdad","name_en":"Baghdad","name_es":"Bagdad","name_fr":"Bagdad","name_el":"Βαγδάτη","name_hi":"बग़दाद प्रान्त","name_hu":"Bagdad","name_id":"Bagdad","name_it":"Baghdad","name_ja":"バグダード県","name_ko":"바그다드","name_nl":"Bagdad","name_pl":"Bagdad","name_pt":"Bagdad","name_ru":"Багдад","name_sv":"Bagdad","name_tr":"Bağdat ili","name_vi":"Baghdad","name_zh":"巴格达省","ne_id":1159314231,"name_he":"מחוז בגדאד","name_uk":"Багдад","name_ur":"محافظہ بغداد","name_fa":"استان بغداد","name_zht":"巴格達省","FCLASS_ISO":null,"FCLASS_US":null,"FCLASS_FR":null,"FCLASS_RU":null,"FCLASS_ES":null,"FCLASS_CN":null,"FCLASS_TW":null,"FCLASS_IN":null,"FCLASS_NP":null,"FCLASS_PK":null,"FCLASS_DE":null,"FCLASS_GB":null,"FCLASS_BR":null,"FCLASS_IL":null,"FCLASS_PS":null,"FCLASS_SA":null,"FCLASS_EG":null,"FCLASS_MA":null,"FCLASS_PT":null,"FCLASS_AR":null,"FCLASS_JP":null,"FCLASS_KO":null,"FCLASS_VN":null,"FCLASS_TR":null,"FCLASS_ID":null,"FCLASS_PL":null,"FCLASS_GR":null,"FCLASS_IT":null,"FCLASS_NL":null,"FCLASS_SE":null,"FCLASS_BD":null,"FCLASS_UA":null,"FCLASS_TLC":null,"iso_id":"IQ-BG","iso_name":"Baghdad"},"geometry":{"type":"Polygon","coordinates":[[[44.504808,33.176011],[44.506359,33.219239],[44.525272,33.239884],[44.526512,33.243759],[44.519898,33.263422],[44.526823,33.279416],[44.526823,33.270373],[44.524342,33.267272],[44.524652,33.264507],[44.528269,33.264275],[44.533024,33.266755],[44.538501,33.280811],[44.536021,33.340678],[44.541085,33.350394],[44.543256,33.366258],[44.534781,33.392251],[44.533334,33.403569],[44.525789,33.410881],[44.49437,33.390753],[44.457059,33.418374],[44.437112,33.427495],[44.42719,33.429148],[44.349779,33.432507],[44.342958,33.425634],[44.329832,33.390443],[44.277849,33.378571],[44.279292,33.369023],[44.269784,33.349541],[44.238158,33.321067],[44.226272,33.30143],[44.222242,33.282181],[44.222448,33.261174],[44.227203,33.24084],[44.237124,33.223605],[44.248803,33.21389],[44.275572,33.199783],[44.287251,33.189163],[44.300376,33.190817],[44.338824,33.183091],[44.504808,33.176011]]]}}
