{"type":"Feature","properties":{"featurecla":"Admin-1 states provinces","scalerank":5,"adm1_code":"IRQ-3226","diss_me":3226,"iso_3166_2":"IQ-MA","wikipedia":null,"iso_a2":"IQ","adm0_sr":1,"name":"Maysan","name_alt":"`Amara","name_local":null,"type":"Muhafazah","type_en":"Province","code_local":null,"code_hasc":"IQ.MA","note":null,"hasc_maybe":null,"region":"Iraq","region_cod":null,"provnum_ne":20018,"gadm_level":1,"check_me":20,"datarank":5,"abbrev":null,"postal":"MA","area_sqkm":0,"sameascity":-99,"labelrank":5,"name_len":6,"mapcolor9":3,"mapcolor13":1,"fips":"IZ14","fips_alt":null,"woe_id":2345846,"woe_label":"Maysan, IQ, Iraq","woe_name":"Maysan","latitude":31.8089,"longitude":47.0739,"sov_a3":"IRQ","adm0_a3":"IRQ","adm0_label":2,"admin":"Iraq","geonunit":"Iraq","gu_a3":"IRR","gn_id":93540,"gn_name":"Muhafazat Maysan","gns_id":-3108411,"gns_name":"Maysan, Muhafazat","gn_level":1,"gn_region":null,"gn_a1_code":"IQ.14","region_sub":null,"sub_code":null,"gns_level":1,"gns_lang":"ara","gns_adm1":"IZ14","gns_region":null,"min_label":6.7,"max_label":11.0,"min_zoom":6.7,"wikidataid":"Q213170","name_ar":"محافظة ميسان","name_bn":"মায়সান প্রদেশ","name_de":"Maisan","name_en":"Maysan","name_es":"Mesena","name_fr":"Maysan","name_el":"Μέισαν","name_hi":"मयसान प्रान्त","name_hu":"Mejszán","name_id":"Maysan","name_it":"Maysan","name_ja":"マイサーン県","name_ko":"마이산","name_nl":"Maysan","name_pl":"Majsan","name_pt":"Maysan","name_ru":"Майсан","name_sv":"Maysan","name_tr":"Maysan ili","name_vi":"Tỉnh Maysan","name_zh":"米桑省","ne_id":1159314243,"name_he":"מיסאן","name_uk":"Майсан","name_ur":"محافظہ میسان","name_fa":"استان میسان","name_zht":"米桑省","FCLASS_ISO":null,"FCLASS_US":null,"FCLASS_FR":null,"FCLASS_RU":null,"FCLASS_ES":null,"FCLASS_CN":null,"FCLASS_TW":null,"FCLASS_IN":null,"FCLASS_NP":null,"FCLASS_PK":null,"FCLASS_DE":null,"FCLASS_GB":null,"FCLASS_BR":null,"FCLASS_IL":null,"FCLASS_PS":null,"FCLASS_SA":null,"FCLASS_EG":null,"FCLASS_MA":null,"FCLASS_PT":null,"FCLASS_AR":null,"FCLASS_JP":null,"FCLASS_KO":null,"FCLASS_VN":null,"FCLASS_TR":null,"FCLASS_ID":null,"FCLASS_PL":null,"FCLASS_GR":null,"FCLASS_IT":null,"FCLASS_NL":null,"FCLASS_SE":null,"FCLASS_BD":null,"FCLASS_UA":null,"FCLASS_TLC":null,"iso_id":"IQ-MA","iso_name":"Maysan","source":"iso-3166-2-subdivisions"},"geometry":{"type":"Polygon","coordinates":[[[46.600598,32.822519],[46.575793,32.78973],[46.546131,32.766967],[46.481122,32.60062],[46.474921,32.481118],[46.444018,32.411614],[46.477711,32.378489],[46.428619,32.249505],[46.431719,32.234519],[46.450219,32.221909],[46.572176,32.177158],[46.603698,32.133724],[46.576827,31.983578],[46.555743,31.981407],[46.482052,32.005334],[46.442158,32.009416],[46.317411,32.005437],[46.353688,31.964328],[46.320615,31.95221],[46.3109,31.935415],[46.414356,31.77881],[46.409602,31.74181],[46.432649,31.691218],[46.47182,31.653546],[46.502826,31.638224],[46.53993,31.589829],[46.599151,31.541615],[46.609073,31.510299],[46.588299,31.446634],[46.605042,31.396043],[46.717593,31.330749],[46.739504,31.297005],[46.735577,31.230911],[46.742605,31.205925],[46.806683,31.156652],[46.845854,31.139107],[47.126147,31.129806],[47.137206,31.191249],[47.176273,31.230936],[47.349699,31.275947],[47.394761,31.27915],[47.537491,31.266981],[47.676443,31.236517],[47.678929,31.407851],[47.831323,31.761835],[47.834475,31.805708],[47.76528,31.864103],[47.750966,31.898209],[47.71841,31.922342],[47.668077,32.012414],[47.633144,32.026935],[47.617796,32.04187],[47.578057,32.106155],[47.54364,32.114578],[47.52669,32.133389],[47.491344,32.148633],[47.492481,32.170492],[47.507673,32.199844],[47.504004,32.226742],[47.40246,32.323506],[47.395949,32.34198],[47.417963,32.376423],[47.416413,32.387973],[47.343342,32.458692],[47.265311,32.484685],[47.251255,32.48546],[47.187796,32.458382],[47.152553,32.455178],[47.090593,32.474556],[46.757332,32.716195],[46.715887,32.756012],[46.600598,32.822519]]]}}
