{"type":"Feature","properties":{"featurecla":"Admin-1 states provinces","scalerank":4,"adm1_code":"IRN-3218","diss_me":3218,"iso_3166_2":"IR-08","wikipedia":null,"iso_a2":"IR","adm0_sr":1,"name":"Chaharmahal and Bakhtiari","name_alt":"Bakhtiari|Chaharmahal va Bakhtiyari|Charmahal-Bakhtiyari","name_local":null,"type":"Ostan","type_en":"Province","code_local":null,"code_hasc":"IR.CM","note":null,"hasc_maybe":null,"region":null,"region_cod":null,"provnum_ne":20028,"gadm_level":1,"check_me":20,"datarank":5,"abbrev":null,"postal":"CM","area_sqkm":0,"sameascity":-99,"labelrank":4,"name_len":27,"mapcolor9":4,"mapcolor13":13,"fips":"IR03","fips_alt":null,"woe_id":2345769,"woe_label":"Chahar Mahall va Bakhtiari, IR, Iran","woe_name":"Chahar Mahall and Bakhtiari","latitude":31.9975,"longitude":50.5298,"sov_a3":"IRN","adm0_a3":"IRN","adm0_label":2,"admin":"Iran","geonunit":"Iran","gu_a3":"IRN","gn_id":139677,"gn_name":"Ostan-e Chahar Mahal va Bakhtiari","gns_id":-3057331,"gns_name":"Chahar Mahal va Bakhtiari, Ostan-e","gn_level":1,"gn_region":null,"gn_a1_code":"IR.03","region_sub":null,"sub_code":null,"gns_level":1,"gns_lang":"fas","gns_adm1":"IR03","gns_region":null,"min_label":6.6,"max_label":11.0,"min_zoom":6.6,"wikidataid":"Q171702","name_ar":"تشهارمحال وبختياري","name_bn":"চাহর-মাহাল ও বাখতেয়রি প্রদেশ","name_de":"Tschahār Mahāl und Bachtiyāri","name_en":"Chaharmahal and Bakhtiari","name_es":"Chahar y Bajtiari","name_fr":"Tchaharmahal et Bakhtiari","name_el":"Τσαχαρμαχάλ και Μπαχτιαρί","name_hi":"चहार्महाल और बाख़्तियारी प्रांत","name_hu":"Csahármahál és Bahtijári","name_id":"Chaharmahal dan Bakhtiari","name_it":"Chahar Mahal e Bakhtiari","name_ja":"チャハール＝マハール・バフティヤーリー州","name_ko":"차하르마할에바흐티아리","name_nl":"Chahar Mahaal en Bakhtiari","name_pl":"Czahar Mahal wa Bachtijari","name_pt":"Chahar Mahaal e Bakhtiari","name_ru":"Чехармехаль и Бахтиария","name_sv":"Chahar Mahal och Bakhtiari","name_tr":"Çaharmahal ve Bahtiyari Eyaleti","name_vi":"Chaharmahal và Bakhtiari","name_zh":"恰哈马哈勒－巴赫蒂亚里省","ne_id":1159314283,"name_he":"צ'הארמחאל ובח'תיארי","name_uk":"Чехармехаль і Бахтиарія","name_ur":"صوبہ چہارمحال و بختیاری","name_fa":"استان چهارمحال و بختیاری","name_zht":"恰哈馬哈勒－巴赫蒂亞里省","FCLASS_ISO":null,"FCLASS_US":null,"FCLASS_FR":null,"FCLASS_RU":null,"FCLASS_ES":null,"FCLASS_CN":null,"FCLASS_TW":null,"FCLASS_IN":null,"FCLASS_NP":null,"FCLASS_PK":null,"FCLASS_DE":null,"FCLASS_GB":null,"FCLASS_BR":null,"FCLASS_IL":null,"FCLASS_PS":null,"FCLASS_SA":null,"FCLASS_EG":null,"FCLASS_MA":null,"FCLASS_PT":null,"FCLASS_AR":null,"FCLASS_JP":null,"FCLASS_KO":null,"FCLASS_VN":null,"FCLASS_TR":null,"FCLASS_ID":null,"FCLASS_PL":null,"FCLASS_GR":null,"FCLASS_IT":null,"FCLASS_NL":null,"FCLASS_SE":null,"FCLASS_BD":null,"FCLASS_UA":null,"FCLASS_TLC":null,"iso_id":"IR-08","iso_name":"Chaharmahal and Bakhtiari"},"geometry":{"type":"Polygon","coordinates":[[[50.814294,32.655113],[50.771196,32.648757],[50.749078,32.628551],[50.707841,32.616666],[50.576376,32.613255],[50.537205,32.607261],[50.425687,32.545972],[50.380212,32.537601],[50.349516,32.546489],[50.30032,32.537213],[50.235208,32.543931],[50.174333,32.586745],[50.113045,32.61509],[50.0685,32.607183],[50.037287,32.593799],[50.00132,32.588605],[49.933108,32.596047],[49.736117,32.506337],[49.739941,32.476881],[49.756271,32.41642],[49.906959,32.214468],[49.938379,32.147185],[49.962666,32.120262],[49.987574,32.104992],[50.002044,32.090858],[50.049276,32.077887],[50.065813,32.063831],[50.079248,32.037347],[50.106327,31.953864],[50.136403,31.893816],[50.167098,31.852371],[50.216811,31.813872],[50.236241,31.784882],[50.321198,31.706825],[50.350343,31.65135],[50.347553,31.604893],[50.293086,31.546654],[50.257532,31.487897],[50.328329,31.450794],[50.503719,31.390487],[50.556325,31.393071],[50.587124,31.389661],[50.959091,31.106396],[50.993198,31.106887],[51.108023,31.093839],[51.16218,31.118075],[51.211789,31.155566],[51.276591,31.166108],[51.310801,31.164015],[51.320826,31.198406],[51.323514,31.276205],[51.232253,31.534716],[51.209929,31.648482],[51.21582,31.702148],[51.249926,31.722767],[51.292198,31.738528],[51.289924,31.768991],[51.259745,31.801677],[51.240005,31.832424],[51.244242,31.863275],[51.28424,31.886814],[51.315866,31.939704],[51.297365,32.043677],[51.245276,32.124319],[51.129107,32.198758],[51.076397,32.243924],[50.949273,32.327433],[50.939248,32.405774],[50.945035,32.47838],[50.923228,32.507422],[50.91465,32.53649],[50.899457,32.550907],[50.873205,32.556618],[50.863283,32.581009],[50.853465,32.626484],[50.814294,32.655113]]]}}
