{"type":"Feature","properties":{"iso_id":"IS-BFJ","iso_name":"Borgarfjarðarhreppur","name":"Borgarfjarðarhreppur","source":"iso-3166-2-placeholder-circle"},"geometry":{"type":"Polygon","coordinates":[[[-13.3122,65.5261],[-13.321807,65.623645],[-13.35026,65.717442],[-13.396465,65.803885],[-13.458647,65.879653],[-13.534415,65.941835],[-13.620858,65.98804],[-13.714655,66.016493],[-13.8122,66.0261],[-13.909745,66.016493],[-14.003542,65.98804],[-14.089985,65.941835],[-14.165753,65.879653],[-14.227935,65.803885],[-14.27414,65.717442],[-14.302593,65.623645],[-14.3122,65.5261],[-14.302593,65.428555],[-14.27414,65.334758],[-14.227935,65.248315],[-14.165753,65.172547],[-14.089985,65.110365],[-14.003542,65.06416],[-13.909745,65.035707],[-13.8122,65.0261],[-13.714655,65.035707],[-13.620858,65.06416],[-13.534415,65.110365],[-13.458647,65.172547],[-13.396465,65.248315],[-13.35026,65.334758],[-13.321807,65.428555],[-13.3122,65.5261]]]}}
