{"type":"Feature","properties":{"iso_id":"IT-23","iso_name":"Aosta Valley","name":"Aosta Valley","source":"osm-overpass-it"},"geometry":{"type":"Polygon","coordinates":[[[6.8045604,45.791295],[6.8055763,45.7477057],[6.8170193,45.7400517],[6.8086319,45.7250688],[6.8463548,45.6902789],[6.8931825,45.6755106],[6.9032333,45.6806164],[6.9021874,45.6638355],[6.9305476,45.6457208],[6.9628009,45.6548786],[7.0010111,45.6397203],[6.9845734,45.6201645],[6.977992,45.5882144],[6.9952577,45.5757034],[6.9908762,45.532009],[7.0051982,45.5173667],[6.9998427,45.5049956],[7.0527296,45.4956899],[7.0574268,45.490428],[7.0455846,45.4782896],[7.0603253,45.4707828],[7.1103888,45.4701376],[7.1214333,45.5066665],[7.1375271,45.5162643],[7.1444017,45.5084373],[7.136936,45.4917896],[7.1435822,45.4778314],[7.1603299,45.4865882],[7.2234229,45.47062],[7.2475534,45.4940719],[7.2637298,45.4990266],[7.2694973,45.514677],[7.3211041,45.5140342],[7.3593015,45.5258678],[7.3772392,45.516898],[7.4165114,45.5374227],[7.4167689,45.5464993],[7.4478877,45.5554325],[7.4650016,45.5774283],[7.4893174,45.5831081],[7.5317706,45.5767894],[7.5664735,45.5916229],[7.5996945,45.5780925],[7.6090659,45.5628768],[7.6340451,45.5707871],[7.6754996,45.5523447],[7.7164694,45.5591988],[7.7326993,45.5503309],[7.7865987,45.5750825],[7.7950368,45.586243],[7.8488728,45.6022634],[7.9001431,45.5914259],[7.8965774,45.6117876],[7.915039,45.6327386],[7.9361076,45.635694],[7.939504,45.6436974],[7.927195,45.6501759],[7.9047946,45.6847287],[7.9375525,45.7245298],[7.9270585,45.7347671],[7.9312185,45.7416193],[7.8921925,45.7545161],[7.8618882,45.7917769],[7.8615209,45.8197974],[7.8740544,45.8271265],[7.8635565,45.8413969],[7.8759229,45.8615817],[7.8656097,45.8790398],[7.8635632,45.9167004],[7.8219436,45.9270147],[7.7995537,45.9173285],[7.769385,45.9369682],[7.7476801,45.9410548],[7.7348895,45.9237966],[7.7201307,45.9235819],[7.7074882,45.9345421],[7.709709,45.9482818],[7.6810552,45.9569556],[7.6642849,45.9756658],[7.586981,45.9709264],[7.5742503,45.9875389],[7.5459435,45.9838182],[7.5463532,45.9624086],[7.5384457,45.9549047],[7.4992733,45.9624165],[7.472023,45.9480351],[7.4720149,45.9343621],[7.4447481,45.9315152],[7.3857012,45.8970051],[7.3442886,45.9152832],[7.3236407,45.9102444],[7.2944371,45.9218133],[7.2567925,45.8882336],[7.2164189,45.8887288],[7.1906176,45.8586781],[7.1536499,45.8792714],[7.1181316,45.8591789],[7.1015494,45.8591755],[7.0953676,45.875906],[7.0641899,45.9002288],[7.060788,45.9133509],[7.0452884,45.9223722],[7.0309258,45.9205951],[7.0037821,45.899499],[6.9990711,45.8735189],[6.9518096,45.8616766],[6.9416143,45.847641],[6.9132016,45.8406008],[6.8817492,45.849821],[6.8651706,45.8327057],[6.8434727,45.8425807],[6.8182446,45.8359381],[6.8066925,45.8181146],[6.816054,45.8106451],[6.8144942,45.7948683],[6.8045604,45.791295]]]}}
