{"type":"Feature","properties":{"featurecla":"Admin-1 states provinces","scalerank":3,"adm1_code":"ITA-5422","diss_me":5422,"iso_3166_2":"IT-RM","wikipedia":null,"iso_a2":"IT","adm0_sr":1,"name":"Rome","name_alt":"Lacio|Latium","name_local":null,"type":"Province","type_en":"Province","code_local":"00","code_hasc":"IT.RM","note":"ITE","hasc_maybe":null,"region":"Lazio","region_cod":"IT-62","provnum_ne":6,"gadm_level":1,"check_me":20,"datarank":3,"abbrev":null,"postal":"RM","area_sqkm":0,"sameascity":-99,"labelrank":3,"name_len":4,"mapcolor9":8,"mapcolor13":7,"fips":"IT07","fips_alt":null,"woe_id":12591802,"woe_label":null,"woe_name":"Roma","latitude":41.965,"longitude":12.7308,"sov_a3":"ITA","adm0_a3":"ITA","adm0_label":2,"admin":"Italy","geonunit":"Italy","gu_a3":"ITA","gn_id":3169069,"gn_name":"Provincia di Roma","gns_id":-126694,"gns_name":"Rome","gn_level":2,"gn_region":null,"gn_a1_code":"IT.RM","region_sub":null,"sub_code":null,"gns_level":2,"gns_lang":null,"gns_adm1":null,"gns_region":"IT07","min_label":9.0,"max_label":11.0,"min_zoom":9.0,"wikidataid":"Q15119","name_ar":"مقاطعة روما","name_bn":"রোমা","name_de":"Rom","name_en":"Rome","name_es":"Roma","name_fr":"Rome","name_el":"επαρχία της Ρώμης","name_hi":"रोम प्रांत","name_hu":"Róma","name_id":"Roma","name_it":"Roma","name_ja":"ローマ県","name_ko":"로마도","name_nl":"Rome","name_pl":"Prowincja Rzym","name_pt":"Roma","name_ru":"Рим","name_sv":"Rom","name_tr":"Roma ili","name_vi":"Roma","name_zh":"罗马省","ne_id":1159309565,"name_he":"רומא","name_uk":"Провінція Рим","name_ur":"صوبہ روما","name_fa":"استان رم","name_zht":"羅馬省","FCLASS_ISO":null,"FCLASS_US":null,"FCLASS_FR":null,"FCLASS_RU":null,"FCLASS_ES":null,"FCLASS_CN":null,"FCLASS_TW":null,"FCLASS_IN":null,"FCLASS_NP":null,"FCLASS_PK":null,"FCLASS_DE":null,"FCLASS_GB":null,"FCLASS_BR":null,"FCLASS_IL":null,"FCLASS_PS":null,"FCLASS_SA":null,"FCLASS_EG":null,"FCLASS_MA":null,"FCLASS_PT":null,"FCLASS_AR":null,"FCLASS_JP":null,"FCLASS_KO":null,"FCLASS_VN":null,"FCLASS_TR":null,"FCLASS_ID":null,"FCLASS_PL":null,"FCLASS_GR":null,"FCLASS_IT":null,"FCLASS_NL":null,"FCLASS_SE":null,"FCLASS_BD":null,"FCLASS_UA":null,"FCLASS_TLC":null,"iso_id":"IT-RM","iso_name":"Rome","source":"iso-3166-2-subdivisions"},"geometry":{"type":"Polygon","coordinates":[[[12.774405,41.42094],[12.768384,41.443159],[12.740413,41.480809],[12.682471,41.509055],[12.652588,41.536027],[12.602842,41.555648],[12.576057,41.58251],[12.560017,41.616293],[12.566213,41.635409],[12.598469,41.65937],[12.638152,41.664127],[12.649797,41.656184],[12.659883,41.603637],[12.699214,41.605955],[12.746982,41.573754],[12.763967,41.58229],[12.790203,41.617479],[12.823293,41.623544],[12.847573,41.640683],[12.853528,41.701294],[12.924653,41.71272],[12.94199,41.702755],[12.957678,41.661996],[13.003623,41.627048],[13.020081,41.577786],[13.07554,41.568491],[13.103731,41.545431],[13.175208,41.583598],[13.156882,41.588574],[13.157564,41.635409],[13.147148,41.653251],[13.09481,41.684606],[13.093074,41.708303],[13.079011,41.720883],[13.000964,41.769409],[12.997625,41.784658],[13.007468,41.814871],[13.061433,41.83335],[13.082637,41.858014],[13.138184,41.845479],[13.184436,41.848247],[13.1974,41.867638],[13.23928,41.891852],[13.297857,41.947046],[13.280149,41.946817],[13.097051,42.023666],[13.072046,42.019041],[13.02843,42.031928],[13.01696,42.054647],[13.011995,42.102284],[13.029582,42.115643],[12.986462,42.125575],[12.952515,42.098296],[12.920457,42.113479],[12.873523,42.099867],[12.843376,42.139517],[12.797827,42.159402],[12.77592,42.186626],[12.764956,42.187263],[12.695347,42.14646],[12.67032,42.152492],[12.606094,42.191768],[12.61207,42.194943],[12.60572,42.226144],[12.611082,42.237735],[12.629385,42.222233],[12.62978,42.241404],[12.602205,42.277538],[12.584626,42.272232],[12.581682,42.291128],[12.574211,42.291128],[12.560544,42.270628],[12.546877,42.293523],[12.520399,42.295772],[12.480278,42.258543],[12.482366,42.22098],[12.423391,42.18177],[12.415833,42.189142],[12.415986,42.231099],[12.400298,42.238526],[12.382917,42.233801],[12.372854,42.216267],[12.369756,42.172904],[12.350771,42.156546],[12.325986,42.149009],[12.303113,42.152975],[12.296235,42.17074],[12.271516,42.179397],[12.222979,42.181726],[12.173013,42.175761],[12.129397,42.150086],[12.076377,42.16038],[12.032476,42.153931],[12.012568,42.159347],[11.975544,42.200996],[11.946101,42.221409],[11.914109,42.233362],[11.886819,42.230473],[11.825889,42.147438],[11.797456,42.158677],[11.739819,42.159937],[11.750173,42.127916],[11.809418,42.066352],[11.827485,42.034166],[11.91684,42.037909],[11.934581,42.03148],[11.982188,41.999742],[12.020356,41.993069],[12.038829,41.965155],[12.147472,41.903469],[12.206228,41.827338],[12.223481,41.750678],[12.239024,41.736274],[12.327159,41.711371],[12.448009,41.630764],[12.545584,41.544135],[12.635265,41.447496],[12.653982,41.465644],[12.748546,41.423733],[12.774405,41.42094]],[[12.453031,41.903915],[12.453983,41.903862],[12.454035,41.902752],[12.453031,41.903915]]]}}
