{"type":"Feature","properties":{"featurecla":"Admin-1 states provinces","scalerank":3,"adm1_code":"ITA-5408","diss_me":5408,"iso_3166_2":"IT-TA","wikipedia":null,"iso_a2":"IT","adm0_sr":1,"name":"Taranto","name_alt":"Apulien|Pouilles|Pouille|Puglia|Puglie","name_local":null,"type":"Province","type_en":"Province","code_local":"74","code_hasc":"IT.TA","note":"ITF","hasc_maybe":null,"region":"Apulia","region_cod":"IT-75","provnum_ne":9,"gadm_level":1,"check_me":20,"datarank":3,"abbrev":null,"postal":"TA","area_sqkm":0,"sameascity":-99,"labelrank":3,"name_len":7,"mapcolor9":8,"mapcolor13":7,"fips":"IT13","fips_alt":null,"woe_id":12591895,"woe_label":null,"woe_name":"Taranto","latitude":40.6081,"longitude":17.1095,"sov_a3":"ITA","adm0_a3":"ITA","adm0_label":2,"admin":"Italy","geonunit":"Italy","gu_a3":"ITA","gn_id":3165924,"gn_name":"Provincia di Taranto","gns_id":-130478,"gns_name":"Taranto, Provincia di","gn_level":2,"gn_region":null,"gn_a1_code":"IT.TA","region_sub":null,"sub_code":null,"gns_level":2,"gns_lang":null,"gns_adm1":null,"gns_region":"IT13","min_label":9.0,"max_label":11.0,"min_zoom":9.0,"wikidataid":"Q16283","name_ar":"مقاطعة تارانتو","name_bn":"টারান্টো প্রদেশ","name_de":"Tarent","name_en":"Taranto","name_es":"Tarento","name_fr":"Tarente","name_el":"Τάραντας","name_hi":"टारंटो प्रांत","name_hu":"Taranto","name_id":"Taranto","name_it":"Taranto","name_ja":"ターラント県","name_ko":"타란토도","name_nl":"Tarente","name_pl":"Prowincja Tarent","name_pt":"Taranto","name_ru":"Таранто","name_sv":"Taranto","name_tr":"Taranto ili","name_vi":"Taranto","name_zh":"塔兰托省","ne_id":1159317057,"name_he":"טאראנטו","name_uk":"Провінція Таранто","name_ur":"صوبہ تارانتو","name_fa":"استان تارانتو","name_zht":"塔蘭托省","FCLASS_ISO":null,"FCLASS_US":null,"FCLASS_FR":null,"FCLASS_RU":null,"FCLASS_ES":null,"FCLASS_CN":null,"FCLASS_TW":null,"FCLASS_IN":null,"FCLASS_NP":null,"FCLASS_PK":null,"FCLASS_DE":null,"FCLASS_GB":null,"FCLASS_BR":null,"FCLASS_IL":null,"FCLASS_PS":null,"FCLASS_SA":null,"FCLASS_EG":null,"FCLASS_MA":null,"FCLASS_PT":null,"FCLASS_AR":null,"FCLASS_JP":null,"FCLASS_KO":null,"FCLASS_VN":null,"FCLASS_TR":null,"FCLASS_ID":null,"FCLASS_PL":null,"FCLASS_GR":null,"FCLASS_IT":null,"FCLASS_NL":null,"FCLASS_SE":null,"FCLASS_BD":null,"FCLASS_UA":null,"FCLASS_TLC":null,"iso_id":"IT-TA","iso_name":"Taranto","source":"iso-3166-2-subdivisions"},"geometry":{"type":"Polygon","coordinates":[[[17.764022,40.293433],[17.798496,40.379584],[17.78094,40.393789],[17.714231,40.40627],[17.634053,40.459718],[17.601467,40.464091],[17.567827,40.434867],[17.552337,40.436921],[17.517708,40.473912],[17.49044,40.482647],[17.448406,40.554904],[17.465017,40.593037],[17.462073,40.614658],[17.431575,40.631369],[17.403889,40.697155],[17.361482,40.729224],[17.353682,40.74856],[17.325095,40.742539],[17.257551,40.76494],[17.208508,40.763391],[17.165003,40.746956],[17.144568,40.709448],[17.124903,40.709448],[17.063665,40.720896],[17.024619,40.716139],[17.016489,40.725928],[17.013677,40.755415],[16.996912,40.763908],[16.946419,40.743704],[16.923084,40.700879],[16.862132,40.721467],[16.812232,40.693463],[16.78615,40.732223],[16.715662,40.715392],[16.715025,40.706043],[16.69659,40.69721],[16.71999,40.673952],[16.710696,40.636697],[16.711311,40.551531],[16.730889,40.477527],[16.745633,40.466991],[16.786304,40.473451],[16.812803,40.436339],[16.863277,40.39092],[16.91212,40.445217],[16.976085,40.492621],[17.049571,40.51911],[17.156016,40.512397],[17.189952,40.481879],[17.247406,40.502834],[17.268565,40.496161],[17.261729,40.488715],[17.323253,40.498481],[17.316254,40.481879],[17.295746,40.473212],[17.247406,40.480292],[17.22755,40.474433],[17.247895,40.457343],[17.243012,40.441392],[17.200206,40.420396],[17.212901,40.406195],[17.368175,40.351508],[17.399425,40.331],[17.44044,40.331],[17.493907,40.30744],[17.764022,40.293433]]]}}
