{"type":"Feature","properties":{"featurecla":"Admin-1 states provinces","scalerank":7,"adm1_code":"JOR-857","diss_me":857,"iso_3166_2":"JO-BA","wikipedia":null,"iso_a2":"JO","adm0_sr":1,"name":"Balqa","name_alt":"Al Balqa'|Balka|Belga","name_local":null,"type":"Muhafazah","type_en":"Province","code_local":null,"code_hasc":"JO.BA","note":null,"hasc_maybe":null,"region":null,"region_cod":null,"provnum_ne":11,"gadm_level":1,"check_me":0,"datarank":8,"abbrev":null,"postal":"BA","area_sqkm":0,"sameascity":-99,"labelrank":7,"name_len":5,"mapcolor9":4,"mapcolor13":4,"fips":"JO02","fips_alt":null,"woe_id":2345927,"woe_label":"Al Balqa', JO, Jordan","woe_name":"Balqa","latitude":31.8345,"longitude":35.7216,"sov_a3":"JOR","adm0_a3":"JOR","adm0_label":2,"admin":"Jordan","geonunit":"Jordan","gu_a3":"JOR","gn_id":250751,"gn_name":"Muhafazat al Balqa'","gns_id":-970049,"gns_name":"Al Balqa'","gn_level":1,"gn_region":null,"gn_a1_code":"JO.02","region_sub":null,"sub_code":null,"gns_level":1,"gns_lang":"ara","gns_adm1":"JO02","gns_region":null,"min_label":8.7,"max_label":11.0,"min_zoom":8.7,"wikidataid":"Q721431","name_ar":"البلقاء","name_bn":"বাল্কা গভর্নোরেট","name_de":"Gouvernement al-Balqa","name_en":"Balqa","name_es":"Balqa'","name_fr":"Balqa","name_el":"Μπάλγκα","name_hi":"बालका गवर्नरेट","name_hu":"Balká","name_id":"Balqa","name_it":"Balqa","name_ja":"バルカ県","name_ko":"발카","name_nl":"Balka","name_pl":"Al-Balka","name_pt":"Balqa","name_ru":"Эль-Балка","name_sv":"Balqa","name_tr":"Balqa Yönetimi","name_vi":"Tỉnh Balqa","name_zh":"拜勒加省","ne_id":1159309331,"name_he":"בלקא","name_uk":"Провінція Ель-Балка","name_ur":"محافظہ بلقاء","name_fa":"بلقاء","name_zht":"拜勒加省","FCLASS_ISO":null,"FCLASS_US":null,"FCLASS_FR":null,"FCLASS_RU":null,"FCLASS_ES":null,"FCLASS_CN":null,"FCLASS_TW":null,"FCLASS_IN":null,"FCLASS_NP":null,"FCLASS_PK":null,"FCLASS_DE":null,"FCLASS_GB":null,"FCLASS_BR":null,"FCLASS_IL":null,"FCLASS_PS":null,"FCLASS_SA":null,"FCLASS_EG":null,"FCLASS_MA":null,"FCLASS_PT":null,"FCLASS_AR":null,"FCLASS_JP":null,"FCLASS_KO":null,"FCLASS_VN":null,"FCLASS_TR":null,"FCLASS_ID":null,"FCLASS_PL":null,"FCLASS_GR":null,"FCLASS_IT":null,"FCLASS_NL":null,"FCLASS_SE":null,"FCLASS_BD":null,"FCLASS_UA":null,"FCLASS_TLC":null,"iso_id":"JO-BA","iso_name":"Balqa","source":"iso-3166-2-subdivisions"},"geometry":{"type":"Polygon","coordinates":[[[35.502479,31.68536],[35.583544,31.680806],[35.597497,31.686464],[35.644212,31.755969],[35.708291,31.77465],[35.723484,31.842191],[35.670877,31.858779],[35.661731,31.874928],[35.683745,31.897433],[35.766944,31.938335],[35.826837,31.994197],[35.864871,32.004093],[35.911741,32.037631],[35.941197,32.045848],[35.901613,32.069852],[35.895876,32.095664],[35.826372,32.142199],[35.706431,32.144602],[35.694804,32.156177],[35.651809,32.166564],[35.635531,32.183824],[35.559562,32.190371],[35.55941,32.155093],[35.546698,32.147031],[35.551969,32.135197],[35.535226,32.110806],[35.545148,32.086828],[35.528301,32.075098],[35.522824,32.057838],[35.524684,32.011691],[35.545871,31.944563],[35.524684,31.919241],[35.549075,31.839195],[35.538326,31.819299],[35.55941,31.765349],[35.527578,31.735067],[35.502479,31.68536]]]}}
