{"type":"Feature","properties":{"iso_id":"KE-34","iso_name":"Nyamira county","name":"Nyamira county","source":"osm-overpass-ke"},"geometry":{"type":"Polygon","coordinates":[[[34.7787554,-0.6767179],[34.7897345,-0.6782117],[34.7959908,-0.6903163],[34.8213359,-0.6944714],[34.8252495,-0.7050185],[34.8668754,-0.7341587],[34.94407,-0.7736046],[35.0139884,-0.8902457],[35.0147133,-0.8784263],[35.0262854,-0.8692598],[35.0223253,-0.8486497],[35.0456514,-0.8547852],[35.0921084,-0.8030625],[35.0484978,-0.7079742],[35.0726042,-0.6927167],[35.0557863,-0.6572824],[35.0648842,-0.6310508],[35.0493217,-0.5708748],[35.0487113,-0.5254646],[35.0571898,-0.508196],[35.0512517,-0.4995084],[35.0337225,-0.4990847],[35.0467746,-0.4548634],[35.0278983,-0.4155403],[35.020302,-0.4135454],[34.9919555,-0.4376417],[34.9696768,-0.442931],[34.9354398,-0.4698591],[34.8638801,-0.4973732],[34.8797665,-0.5599827],[34.8732561,-0.5764595],[34.8911748,-0.6127321],[34.8431864,-0.5976654],[34.814675,-0.6359814],[34.811852,-0.6666267],[34.7929645,-0.6670107],[34.7787554,-0.6767179]]]}}
