{"type":"Feature","properties":{"iso_id":"KE-35","iso_name":"Nyandarua County","name":"Nyandarua County","source":"iso-3166-2-placeholder-circle"},"geometry":{"type":"Polygon","coordinates":[[[37.116667,-0.55],[37.107059,-0.452455],[37.078606,-0.358658],[37.032401,-0.272215],[36.97022,-0.196447],[36.894452,-0.134265],[36.808008,-0.08806],[36.714212,-0.059607],[36.616667,-0.05],[36.519122,-0.059607],[36.425325,-0.08806],[36.338882,-0.134265],[36.263113,-0.196447],[36.200932,-0.272215],[36.154727,-0.358658],[36.126274,-0.452455],[36.116667,-0.55],[36.126274,-0.647545],[36.154727,-0.741342],[36.200932,-0.827785],[36.263113,-0.903553],[36.338882,-0.965735],[36.425325,-1.01194],[36.519122,-1.040393],[36.616667,-1.05],[36.714212,-1.040393],[36.808008,-1.01194],[36.894452,-0.965735],[36.97022,-0.903553],[37.032401,-0.827785],[37.078606,-0.741342],[37.107059,-0.647545],[37.116667,-0.55]]]}}
