{"type":"Feature","properties":{"iso_id":"KZ-11","iso_name":"Akmola Region","name":"Akmola Region","source":"iso-3166-2-placeholder-circle"},"geometry":{"type":"Polygon","coordinates":[[[69.5,52.0],[69.490393,52.097545],[69.46194,52.191342],[69.415735,52.277785],[69.353553,52.353553],[69.277785,52.415735],[69.191342,52.46194],[69.097545,52.490393],[69.0,52.5],[68.902455,52.490393],[68.808658,52.46194],[68.722215,52.415735],[68.646447,52.353553],[68.584265,52.277785],[68.53806,52.191342],[68.509607,52.097545],[68.5,52.0],[68.509607,51.902455],[68.53806,51.808658],[68.584265,51.722215],[68.646447,51.646447],[68.722215,51.584265],[68.808658,51.53806],[68.902455,51.509607],[69.0,51.5],[69.097545,51.509607],[69.191342,51.53806],[69.277785,51.584265],[69.353553,51.646447],[69.415735,51.722215],[69.46194,51.808658],[69.490393,51.902455],[69.5,52.0]]]}}
