{"type":"Feature","properties":{"iso_id":"KZ-31","iso_name":"Jambyl Region","name":"Jambyl Region","source":"osm-overpass-kz"},"geometry":{"type":"Polygon","coordinates":[[[69.0671103,45.9998871],[69.2499637,45.7691513],[69.2665926,45.7693648],[69.3586385,45.4974416],[69.4643563,45.3384052],[69.538832,45.1548863],[69.5925074,44.9559329],[69.6526666,44.8879803],[69.716991,44.6539121],[69.824794,44.1605552],[69.7681796,44.1247948],[69.7642303,44.0987894],[69.706785,44.0272817],[69.7336549,43.9874852],[69.701683,43.9260755],[69.6797653,43.8200512],[69.680387,43.7634841],[69.644635,43.7248878],[69.6158612,43.6764816],[69.5572584,43.5558766],[69.5157659,43.5090166],[69.4504879,43.4637579],[69.4339444,43.4313126],[69.5424254,43.4119832],[69.5269248,43.3696234],[69.535351,43.3306116],[69.5294436,43.3094227],[69.5612888,43.2922323],[69.6266579,43.3032761],[69.6373597,43.2838283],[69.6345091,43.2502893],[69.6729386,43.2608411],[69.7310709,43.2593744],[69.7590938,43.2430672],[69.7892713,43.242667],[69.8212039,43.2267092],[69.8483792,43.2678994],[69.8859404,43.2584099],[69.9047167,43.2295389],[69.9134283,43.2329948],[69.9090869,43.2232371],[69.916942,43.2112931],[69.9896419,43.2125541],[70.0089985,43.1819738],[70.0043516,43.170464],[70.0478329,43.1489121],[70.0732537,43.1495581],[70.0638968,43.1169329],[70.1244905,43.0737649],[70.1499799,43.0925572],[70.1772763,43.0540998],[70.1445716,43.0282436],[70.1742042,43.0191257],[70.1859385,42.9981952],[70.1982335,43.006532],[70.1954233,42.9979201],[70.2038215,42.9912189],[70.1905972,42.9843913],[70.207183,42.9665823],[70.1987667,42.9536206],[70.2246022,42.942854],[70.2287906,42.9236437],[70.2212799,42.9040046],[70.2359747,42.8842644],[70.2512943,42.8779716],[70.2208931,42.8719821],[70.201937,42.85642],[70.2159469,42.8277459],[70.1938663,42.8111945],[70.2344307,42.793725],[70.2065763,42.747031],[70.2365057,42.7302327],[70.2380085,42.720595],[70.2945318,42.7190959],[70.3231947,42.6930651],[70.3460155,42.6962187],[70.3798067,42.6852446],[70.4097411,42.6547685],[70.4459678,42.6480023],[70.5165411,42.6037432],[70.5025796,42.5974158],[70.5246562,42.5845016],[70.5413409,42.5865956],[70.5568439,42.5558784],[70.6198641,42.5315884],[70.6439346,42.501415],[70.6669005,42.452186],[70.7218996,42.4588021],[70.7714135,42.450322],[70.7870647,42.4387437],[70.7934449,42.414204],[70.7788714,42.3926207],[70.8431254,42.3262516],[70.8655832,42.3201236],[70.881324,42.327548],[70.882408,42.348281],[70.894027,42.363689],[70.920791,42.371528],[70.932868,42.391559],[70.954711,42.398777],[70.932899,42.41798],[70.95346,42.43288],[70.9801217,42.4975601],[71.080863,42.475654],[71.0889746,42.4843773],[71.0439775,42.5340403],[71.0003748,42.5583251],[71.002555,42.587646],[71.052207,42.599552],[71.156677,42.605194],[71.159889,42.589805],[71.18206,42.617549],[71.178065,42.6730981],[71.2195376,42.6848658],[71.2667164,42.7270182],[71.265312,42.7380521],[71.2757174,42.7430352],[71.2700166,42.7719512],[71.3024468,42.7558912],[71.3061253,42.7637403],[71.3332542,42.7557643],[71.3450856,42.7665287],[71.3694639,42.7620134],[71.3817987,42.7983227],[71.4700091,42.7848405],[71.4987319,42.7951835],[71.5088089,42.7919366],[71.5422254,42.8085227],[71.565051,42.7807811],[71.5800572,42.7854242],[71.5987752,42.7723591],[71.6502992,42.7928448],[71.6818774,42.8171873],[71.712257,42.8100691],[71.7724972,42.8166258],[71.8117326,42.8358559],[71.836092,42.8385754],[71.9389642,42.8141413],[71.9846791,42.7840658],[72.05693,42.7688936],[72.0886145,42.7443473],[72.1203697,42.7365025],[72.1450573,42.7396819],[72.1660755,42.7544325],[72.2820197,42.7592688],[72.4156112,42.7101626],[72.4580175,42.7041213],[72.508126,42.670469],[72.5209321,42.6836989],[72.5430451,42.6785987],[72.5777991,42.6874497],[72.651874,42.673457],[72.6718904,42.6584211],[72.7158781,42.6437768],[72.7366904,42.6466239],[72.7574674,42.6350928],[72.7684221,42.6131852],[72.8254379,42.5586055],[72.8698294,42.5590782],[72.9103061,42.5359126],[72.9804712,42.5300327],[73.0220032,42.5391329],[73.0506492,42.5333461],[73.1086476,42.5419799],[73.2245405,42.5153824],[73.233617,42.5232269],[73.2793178,42.5109713],[73.3079557,42.5117328],[73.3158991,42.5029672],[73.3096335,42.4889021],[73.3132598,42.4627253],[73.3057711,42.4512477],[73.3121869,42.4413516],[73.3254263,42.4429351],[73.3437941,42.4292366],[73.3829114,42.4213328],[73.3954856,42.4289356],[73.443186,42.4250393],[73.4663603,42.4095942],[73.5022014,42.4176812],[73.5065017,42.4247173],[73.5134667,42.4181089],[73.5207623,42.4218156],[73.5166899,42.4353743],[73.5021655,42.4554524],[73.4769956,42.4632251],[73.4336297,42.5176235],[73.4283725,42.5535467],[73.4174291,42.5698254],[73.4270422,42.5892754],[73.4234002,42.6412546],[73.4427336,42.6642641],[73.4664565,42.7311586],[73.5011946,42.7671216],[73.5139041,42.8511631],[73.5051216,42.8855213],[73.4939095,42.8941889],[73.4993737,42.9076191],[73.4923141,42.9153041],[73.534415,42.9441542],[73.5486232,42.9668165],[73.5377741,42.9785137],[73.5416017,43.0213538],[73.8282206,43.1291422],[73.8381161,43.1177241],[73.9055494,43.1097093],[73.9489347,43.1655298],[73.9594641,43.2006176],[73.954944,43.2102253],[73.9702352,43.222788],[74.042598,43.1720428],[74.074877,43.1869858],[74.1701262,43.1987932],[74.2108486,43.1958926],[74.2220379,43.2052475],[74.1926925,43.255533],[74.2038849,43.2669041],[74.2305205,43.2519456],[74.2510985,43.2542273],[74.2615913,43.2434273],[74.2819665,43.249636],[74.3084266,43.2163244],[74.3327139,43.2195423],[74.3308471,43.2130995],[74.3533347,43.1986477],[74.3727325,43.2006968],[74.4037173,43.1896997],[74.3998979,43.1824714],[74.4151916,43.1704979],[74.4244455,43.1739905],[74.4300552,43.1654479],[74.4749004,43.1529918],[74.4961931,43.1573932],[74.5360669,43.1365953],[74.5489529,43.1420178],[74.5634369,43.1392778],[74.565655,43.1301578],[74.5774809,43.1328657],[74.6153644,43.0851336],[74.6348232,43.0794775],[74.6439118,43.0597658],[74.6718128,43.041484],[74.6966934,43.0364445],[74.7494021,42.9899145],[74.7848085,43.0016725],[74.8533039,42.9998518],[74.9229226,42.9691513],[74.9230533,42.9626721],[74.936918,42.963913],[75.0369054,42.9206397],[75.0822968,42.9143998],[75.1368603,42.8853543],[75.190927,42.8750516],[75.1971818,42.8651783],[75.2312996,42.853552],[75.2973913,42.8611858],[75.4551014,42.8360683],[75.4840633,42.843361],[75.7168122,42.7973436],[75.7614334,42.8334914],[75.7863114,42.8991614],[75.8240818,42.9393823],[75.7727828,42.9406887],[75.7737867,42.9727615],[75.7538133,42.9602881],[75.7235991,42.9566417],[75.6560804,42.9807081],[75.5467723,42.9815959],[75.546231,42.988467],[75.5776484,42.9889548],[75.6012223,42.9991675],[75.6561106,43.0436523],[75.5625376,43.0829236],[75.532556,43.0825732],[75.4621591,43.1219326],[75.4231829,43.120532],[75.349428,43.1459999],[75.338035,43.1606981],[75.3305551,43.1952937],[75.2945437,43.2132659],[75.3306277,43.2528796],[75.2811185,43.2631137],[75.2777119,43.3153834],[75.2941419,43.3757163],[75.3497878,43.4048243],[75.4189577,43.4710496],[75.3886932,43.5348596],[75.3054403,43.5289547],[75.2423824,43.5367482],[75.2387306,43.5905139],[75.1809276,43.5907167],[75.1840697,43.5433182],[75.1329504,43.5663129],[75.0853939,43.5691048],[74.9971857,43.6102913],[74.9973067,43.6509741],[75.1983371,43.7734554],[75.2681262,43.8245876],[75.2694874,43.8437252],[75.2852523,43.861271],[75.2730198,43.9487139],[75.3068391,43.9872965],[75.3157939,44.0184053],[75.3070797,44.1480388],[75.2137557,44.1942355],[75.1267483,44.2599766],[75.1128342,44.2604301],[75.0364971,44.3084838],[75.0042343,44.3170144],[74.9976383,44.3266238],[74.9414563,44.34361],[74.750995,44.3578143],[74.519729,44.4858191],[74.5107376,44.5228027],[74.4937948,44.526135],[74.5200573,44.5831297],[74.512234,44.666919],[74.5226355,44.6987269],[74.4025796,44.8012112],[74.3893195,44.7952632],[74.3056678,44.8489762],[74.13349,44.9133189],[74.1393865,44.9533922],[74.1181591,44.9679953],[74.0874973,45.1271361],[73.8930139,45.1251569],[73.7550358,45.1043514],[73.7220153,45.2207644],[73.7526772,45.2888387],[74.030992,45.288009],[73.98423,45.3816176],[73.9015215,45.7465296],[74.0147343,45.890361],[74.0605728,46.0010499],[71.3260421,46.0072627],[69.0671103,45.9998871]]]}}
