{"type":"Feature","properties":{"iso_id":"LK-8","iso_name":"Uva Province","name":"Uva Province","source":"osm-overpass-lk"},"geometry":{"type":"Polygon","coordinates":[[[80.8084052,6.7919089],[80.811476,6.755712],[80.826958,6.76172],[80.834656,6.745541],[80.857905,6.74148],[80.850288,6.730145],[80.85488,6.719406],[80.811836,6.703634],[80.825547,6.689622],[80.829704,6.669645],[80.857385,6.657538],[80.863634,6.665633],[80.880752,6.663782],[80.890741,6.675648],[80.907859,6.678507],[80.915042,6.694751],[80.928018,6.687573],[80.912687,6.671845],[80.903615,6.638993],[80.875597,6.610631],[80.863602,6.54967],[80.827843,6.490114],[80.843073,6.456077],[80.836206,6.440456],[80.842756,6.433949],[80.838792,6.401741],[80.865394,6.35698],[80.902972,6.343853],[80.921388,6.296472],[80.967951,6.325389],[81.018172,6.344696],[81.02255,6.358917],[81.0179447,6.3684004],[81.00746,6.369184],[81.00827,6.387777],[81.013232,6.395996],[81.037018,6.391296],[81.049436,6.4068],[81.049066,6.421777],[81.061608,6.411316],[81.07091,6.423799],[81.136866,6.421058],[81.144617,6.39753],[81.156891,6.392573],[81.184266,6.40548],[81.224365,6.357763],[81.2251712,6.3440542],[81.235313,6.341407],[81.263074,6.346107],[81.277285,6.368439],[81.289086,6.373041],[81.3684795,6.3885217],[81.3939592,6.4153688],[81.4026734,6.4069148],[81.4443169,6.4201731],[81.4751634,6.407935],[81.4806175,6.4188864],[81.4761758,6.4492177],[81.4868045,6.4630676],[81.4795583,6.4713965],[81.4811569,6.4954886],[81.56523,6.554509],[81.581093,6.550759],[81.588721,6.560839],[81.599724,6.561268],[81.6115482,6.5775182],[81.628745,6.913002],[81.637151,6.960048],[81.617753,6.97907],[81.620216,7.000088],[81.607169,7.025886],[81.619239,7.049183],[81.614159,7.068452],[81.521108,7.097474],[81.511329,7.117859],[81.513405,7.136301],[81.500342,7.148913],[81.522422,7.197617],[81.555983,7.2191874],[81.5212708,7.2429452],[81.527418,7.2534877],[81.518823,7.290308],[81.479014,7.324716],[81.4914426,7.3369931],[81.472405,7.392983],[81.477098,7.421672],[81.4624889,7.4285991],[81.478842,7.454701],[81.456365,7.458435],[81.407522,7.433141],[81.405709,7.416657],[81.388832,7.407886],[81.374987,7.410402],[81.385984,7.369916],[81.365148,7.357487],[81.363276,7.341051],[81.320661,7.337515],[81.322984,7.263073],[81.285487,7.240559],[81.267425,7.280567],[81.271561,7.291296],[81.245543,7.325993],[81.246729,7.334409],[81.237223,7.341807],[81.2210267,7.3320674],[81.193723,7.377641],[81.200976,7.396293],[81.182694,7.445297],[81.199216,7.471519],[81.205187,7.55648],[81.189491,7.573711],[81.163597,7.56987],[81.113182,7.544861],[81.076307,7.512073],[81.064827,7.515158],[81.041771,7.505325],[81.015517,7.552945],[81.013296,7.595882],[80.985557,7.611187],[80.977913,7.624962],[80.971148,7.533987],[80.97522,7.426972],[80.969458,7.413288],[80.982612,7.394775],[80.976271,7.362927],[81.016279,7.231262],[81.008157,7.216473],[80.983282,7.212626],[80.97294,7.196259],[80.9424534,7.19715],[80.9613154,7.157072],[80.9607304,7.142149],[80.9526404,7.145609],[80.9490464,7.13864],[80.9503614,7.129],[80.9646514,7.121791],[80.9512724,7.101368],[80.9651074,7.077733],[80.9292254,7.038181],[80.9191184,6.990244],[80.8984874,6.977305],[80.8622184,6.978169],[80.8354064,6.955816],[80.8304124,6.929911],[80.8161804,6.919203],[80.7778354,6.918855],[80.7778894,6.910374],[80.8099684,6.90171],[80.8118034,6.879807],[80.8239804,6.876476],[80.8205154,6.862056],[80.8375414,6.845099],[80.8315714,6.833668],[80.815017,6.8293038],[80.8217053,6.8163931],[80.8373983,6.8119202],[80.8341582,6.7997904],[80.8084052,6.7919089]]]}}
