{"type":"Feature","properties":{"featurecla":"Admin-1 states provinces","scalerank":7,"adm1_code":"LTU-1073","diss_me":1073,"iso_3166_2":"LT-TA","wikipedia":null,"iso_a2":"LT","adm0_sr":1,"name":"Tauragė","name_alt":"Tauragė|Tauroggen","name_local":null,"type":"Apskritis","type_en":"County","code_local":null,"code_hasc":"LT.TG","note":"NUTS code LT007","hasc_maybe":null,"region":null,"region_cod":null,"provnum_ne":6,"gadm_level":1,"check_me":20,"datarank":8,"abbrev":null,"postal":"TG","area_sqkm":0,"sameascity":-99,"labelrank":7,"name_len":8,"mapcolor9":3,"mapcolor13":9,"fips":"LH62","fips_alt":null,"woe_id":55848087,"woe_label":"Taurage County, LT, Lithuania","woe_name":"Taurages","latitude":55.2657,"longitude":22.6458,"sov_a3":"LTU","adm0_a3":"LTU","adm0_label":5,"admin":"Lithuania","geonunit":"Lithuania","gu_a3":"LTU","gn_id":864482,"gn_name":"Taurages Apskritis","gns_id":9084750,"gns_name":"Taurages Apskritis","gn_level":1,"gn_region":null,"gn_a1_code":"LT.62","region_sub":null,"sub_code":null,"gns_level":1,"gns_lang":"fas","gns_adm1":"LH62","gns_region":null,"min_label":7.0,"max_label":11.0,"min_zoom":7.0,"wikidataid":"Q188960","name_ar":"مقاطعة توراج","name_bn":"তাউরাগি কাউন্টি","name_de":"Bezirk Tauragė","name_en":"Tauragė","name_es":"Tauragė","name_fr":"Tauragė","name_el":"Επαρχία Ταουραγκέ","name_hi":"टॉरेज काउंटी","name_hu":"Tauragė","name_id":"Tauragė","name_it":"Tauragė","name_ja":"タウラゲ県","name_ko":"타우라게","name_nl":"Tauragė","name_pl":"Okręg tauroski","name_pt":"Tauragė","name_ru":"Таурагский уезд","name_sv":"Tauragė","name_tr":"Taurage","name_vi":"Hạt Taurage","name_zh":"陶拉盖县","ne_id":1159311041,"name_he":"מחוז טאורגה","name_uk":"Таурагський повіт","name_ur":"توراگئیے کاؤنٹی","name_fa":"شهرستان تاوراگه","name_zht":"陶拉格縣","FCLASS_ISO":null,"FCLASS_US":null,"FCLASS_FR":null,"FCLASS_RU":null,"FCLASS_ES":null,"FCLASS_CN":null,"FCLASS_TW":null,"FCLASS_IN":null,"FCLASS_NP":null,"FCLASS_PK":null,"FCLASS_DE":null,"FCLASS_GB":null,"FCLASS_BR":null,"FCLASS_IL":null,"FCLASS_PS":null,"FCLASS_SA":null,"FCLASS_EG":null,"FCLASS_MA":null,"FCLASS_PT":null,"FCLASS_AR":null,"FCLASS_JP":null,"FCLASS_KO":null,"FCLASS_VN":null,"FCLASS_TR":null,"FCLASS_ID":null,"FCLASS_PL":null,"FCLASS_GR":null,"FCLASS_IT":null,"FCLASS_NL":null,"FCLASS_SE":null,"FCLASS_BD":null,"FCLASS_UA":null,"FCLASS_TLC":null,"iso_id":"LT-TA","iso_name":"Tauragė","source":"iso-3166-2-subdivisions"},"geometry":{"type":"Polygon","coordinates":[[[22.571165,55.06399],[22.599324,55.071471],[22.644179,55.057105],[22.871038,55.092348],[22.92535,55.083511],[23.001676,55.105371],[23.319797,55.071212],[23.412297,55.078706],[23.423304,55.109686],[23.456016,55.145523],[23.454775,55.193892],[23.477461,55.215028],[23.457721,55.229187],[23.366822,55.225053],[23.326153,55.245491],[23.22311,55.241383],[23.204817,55.245104],[23.189624,55.268255],[23.162907,55.278047],[23.008808,55.26102],[22.996095,55.271045],[23.015164,55.285644],[23.0132,55.293757],[22.926436,55.334814],[22.902406,55.309441],[22.862047,55.294765],[22.85383,55.310862],[22.806185,55.338948],[22.800448,55.35365],[22.804944,55.376775],[22.797038,55.391813],[22.747842,55.391193],[22.726551,55.402174],[22.725776,55.427366],[22.679267,55.441087],[22.645729,55.474263],[22.62139,55.481213],[22.615602,55.504778],[22.634877,55.52767],[22.569196,55.574541],[22.509148,55.598415],[22.49225,55.623323],[22.500312,55.640713],[22.463415,55.657172],[22.457059,55.677945],[22.380836,55.670917],[22.279343,55.686885],[22.172011,55.679754],[22.107416,55.662184],[22.073929,55.663528],[22.05853,55.644614],[22.05822,55.628336],[22.028299,55.609888],[21.877611,55.601774],[21.882262,55.592964],[21.873425,55.581414],[21.814152,55.564671],[21.834047,55.542553],[21.840559,55.509584],[21.860713,55.492944],[21.886137,55.436358],[21.906808,55.430002],[21.933318,55.439665],[22.045662,55.405637],[22.046283,55.397187],[22.030625,55.392097],[22.015587,55.355975],[21.910374,55.290321],[21.900452,55.27704],[21.903087,55.269004],[22.050778,55.233373],[22.084471,55.185262],[22.084161,55.153249],[22.156147,55.171155],[22.205343,55.153895],[22.297533,55.146402],[22.298929,55.134619],[22.271592,55.097852],[22.269884,55.069537],[22.436284,55.057777],[22.541084,55.075761],[22.571165,55.06399]]]}}
