{"type":"Feature","properties":{"featurecla":"Admin-1 states provinces","scalerank":5,"adm1_code":"MAR-1448","diss_me":1448,"iso_3166_2":"MA-02","wikipedia":null,"iso_a2":"MA","adm0_sr":1,"name":"Gharb-Chrarda-Béni Hssen","name_alt":null,"name_local":null,"type":"Region","type_en":"Region","code_local":"05","code_hasc":"MA.GB","note":null,"hasc_maybe":null,"region":null,"region_cod":null,"provnum_ne":14,"gadm_level":1,"check_me":10,"datarank":5,"abbrev":null,"postal":"GB","area_sqkm":0,"sameascity":-99,"labelrank":5,"name_len":28,"mapcolor9":3,"mapcolor13":9,"fips":"MO05","fips_alt":"MO52","woe_id":-56120053,"woe_label":null,"woe_name":null,"latitude":34.5356,"longitude":-5.9502,"sov_a3":"MAR","adm0_a3":"MAR","adm0_label":2,"admin":"Morocco","geonunit":"Morocco","gu_a3":"MAR","gn_id":2597550,"gn_name":"Gharb-Chrarda-Beni Hssen","gns_id":9199118,"gns_name":"Gharb-Chrarda-Beni Hssen","gn_level":1,"gn_region":null,"gn_a1_code":"MA.52","region_sub":null,"sub_code":null,"gns_level":1,"gns_lang":"ind","gns_adm1":"MO52","gns_region":"7","min_label":7.7,"max_label":11.0,"min_zoom":7.7,"wikidataid":"Q477968","name_ar":"جهة الغرب شراردة بني حسن","name_bn":"ঘাারব-ছারদা-বেনি হসেন","name_de":"Gharb-Chrarda-Béni Hsen","name_en":"Gharb-Chrarda-Béni Hssen","name_es":"Garb-Chrarda-Beni Hsen","name_fr":"Gharb-Chrarda-Beni Hssen","name_el":"Γκαρμπ-Κχράρντα-Μπένι Χσεν","name_hi":"गर्ब-श्रार्दा-बिने-हसेन","name_hu":"Gharb-Chrarda-Béni Hssen","name_id":"Gharb-Chrarda-Béni Hssen","name_it":"Gharb-Chrarda-Béni Hssen","name_ja":"ガルブ＝チャラルダ＝ベニ・ハッセン地方","name_ko":"가르브슈라르다베니흐센 지방","name_nl":"Gharb-Chrarda-Béni Hsen","name_pl":"Al-Gharb-Szararda-Bani Ahsin","name_pt":"Gharb-Chrarda-Beni Hssen","name_ru":"Гарб-Шрарда-Бени-Хсен","name_sv":"Gharb-Chrarda-Béni Hssen","name_tr":"Gharb-Chrarda-Béni Hssen","name_vi":"Gharb-Chrarda-Béni Hssen","name_zh":"西部-舍拉拉德-贝尼赫森大区","ne_id":1159310517,"name_he":"גארב - צ'ראדה - בני חסן","name_uk":"Гарб — Шрарда — Бені-Хсен","name_ur":"غرب شراردہ بنی حسین","name_fa":"غرب شرارده بنی حسین","name_zht":"西部-舍拉拉德-貝尼赫森大區","FCLASS_ISO":null,"FCLASS_US":null,"FCLASS_FR":null,"FCLASS_RU":null,"FCLASS_ES":null,"FCLASS_CN":null,"FCLASS_TW":null,"FCLASS_IN":null,"FCLASS_NP":null,"FCLASS_PK":null,"FCLASS_DE":null,"FCLASS_GB":null,"FCLASS_BR":null,"FCLASS_IL":null,"FCLASS_PS":null,"FCLASS_SA":null,"FCLASS_EG":null,"FCLASS_MA":null,"FCLASS_PT":null,"FCLASS_AR":null,"FCLASS_JP":null,"FCLASS_KO":null,"FCLASS_VN":null,"FCLASS_TR":null,"FCLASS_ID":null,"FCLASS_PL":null,"FCLASS_GR":null,"FCLASS_IT":null,"FCLASS_NL":null,"FCLASS_SE":null,"FCLASS_BD":null,"FCLASS_UA":null,"FCLASS_TLC":null,"iso_id":"MA-02","iso_name":"Gharb-Chrarda-Béni Hssen","source":"iso-3166-2-subdivisions"},"geometry":{"type":"Polygon","coordinates":[[[-6.722646,34.182442],[-6.687855,34.157244],[-6.663825,34.155848],[-6.627652,34.136289],[-6.555098,34.120295],[-6.482932,34.137245],[-6.436811,34.159827],[-6.397899,34.15851],[-6.362836,34.168561],[-6.202226,34.157605],[-6.017121,34.107195],[-5.917127,34.105154],[-5.885062,34.116729],[-5.862246,34.148252],[-5.830207,34.167114],[-5.818218,34.189826],[-5.788814,34.211866],[-5.742073,34.19197],[-5.710034,34.164607],[-5.702773,34.142464],[-5.648203,34.129752],[-5.571231,34.129442],[-5.468653,34.165357],[-5.450514,34.178302],[-5.454468,34.212822],[-5.420516,34.280647],[-5.479014,34.344726],[-5.490693,34.370047],[-5.34972,34.458259],[-5.322925,34.496138],[-5.249597,34.548925],[-5.197067,34.576133],[-5.17787,34.631401],[-5.17911,34.683465],[-5.190169,34.716434],[-5.239235,34.725943],[-5.349513,34.714677],[-5.420103,34.737725],[-5.513043,34.81989],[-5.538959,34.82728],[-5.585106,34.817462],[-5.63301,34.822965],[-5.69776,34.881127],[-5.781709,34.930685],[-5.915473,34.955515],[-5.995055,34.982723],[-6.061795,34.989389],[-6.113084,35.010163],[-6.184862,34.998071],[-6.249209,35.001397],[-6.292104,34.880805],[-6.54776,34.434719],[-6.667795,34.280504],[-6.722646,34.182442]]]}}
