{"type":"Feature","properties":{"featurecla":"Admin-1 states provinces","scalerank":5,"adm1_code":"MAR-1457","diss_me":1457,"iso_3166_2":"MA-10","wikipedia":null,"iso_a2":"MA","adm0_sr":1,"name":"Doukkala Abda","name_alt":null,"name_local":null,"type":"Region","type_en":"Region","code_local":"11","code_hasc":"MA.DA","note":null,"hasc_maybe":null,"region":null,"region_cod":null,"provnum_ne":8,"gadm_level":1,"check_me":10,"datarank":5,"abbrev":null,"postal":"DA","area_sqkm":0,"sameascity":-99,"labelrank":5,"name_len":15,"mapcolor9":3,"mapcolor13":9,"fips":"MO11","fips_alt":"MO51","woe_id":-56120051,"woe_label":null,"woe_name":null,"latitude":32.4059,"longitude":-8.7136,"sov_a3":"MAR","adm0_a3":"MAR","adm0_label":2,"admin":"Morocco","geonunit":"Morocco","gu_a3":"MAR","gn_id":2597549,"gn_name":"Doukkala-Abda","gns_id":9199116,"gns_name":"Doukkala-Abda","gn_level":1,"gn_region":null,"gn_a1_code":"MA.51","region_sub":null,"sub_code":null,"gns_level":1,"gns_lang":"ind","gns_adm1":"MO51","gns_region":"7","min_label":7.7,"max_label":11.0,"min_zoom":7.7,"wikidataid":"Q390366","name_ar":"جهة دكالة عبدة","name_bn":"দৌক্কালা-আব্দা","name_de":"Doukkala-Abda","name_en":"Doukkala Abda","name_es":"Dukala-Abda","name_fr":"Région Doukkala Abda","name_el":"Ντουκάλα-Άμπντα","name_hi":"डुकाला-एब्डा","name_hu":"Doukkala-Abda","name_id":"Doukkala-Abda","name_it":"Doukkala-Abda","name_ja":"ドゥカラ＝アブダ地方","name_ko":"두칼라압다 지방","name_nl":"Doukala-Abda","name_pl":"Dukkala-Abda","name_pt":"Doukkala-Abda","name_ru":"Дуккала-Абда","name_sv":"Doukala-Abda","name_tr":"Doukkala-Abda","name_vi":"Doukkala-Abda","name_zh":"杜卡拉-阿卜达大区","ne_id":1159310537,"name_he":"דוקאלה - אבדה","name_uk":"Дукала-Абда","name_ur":"دکالہ عبدہ","name_fa":"دکاله عبده","name_zht":"杜卡拉-阿卜達大區","FCLASS_ISO":null,"FCLASS_US":null,"FCLASS_FR":null,"FCLASS_RU":null,"FCLASS_ES":null,"FCLASS_CN":null,"FCLASS_TW":null,"FCLASS_IN":null,"FCLASS_NP":null,"FCLASS_PK":null,"FCLASS_DE":null,"FCLASS_GB":null,"FCLASS_BR":null,"FCLASS_IL":null,"FCLASS_PS":null,"FCLASS_SA":null,"FCLASS_EG":null,"FCLASS_MA":null,"FCLASS_PT":null,"FCLASS_AR":null,"FCLASS_JP":null,"FCLASS_KO":null,"FCLASS_VN":null,"FCLASS_TR":null,"FCLASS_ID":null,"FCLASS_PL":null,"FCLASS_GR":null,"FCLASS_IT":null,"FCLASS_NL":null,"FCLASS_SE":null,"FCLASS_BD":null,"FCLASS_UA":null,"FCLASS_TLC":null,"iso_id":"MA-10","iso_name":"Doukkala Abda"},"geometry":{"type":"Polygon","coordinates":[[[-9.458767,31.944621],[-9.417172,31.92185],[-9.383427,31.911308],[-9.333766,31.902885],[-9.184421,31.930248],[-9.055617,31.908931],[-9.022105,31.874179],[-9.008049,31.838677],[-8.969034,31.798266],[-8.857154,31.765012],[-8.800362,31.767312],[-8.681222,31.761498],[-8.566939,31.744859],[-8.502731,31.75044],[-8.44953,31.773591],[-8.33362,31.989624],[-8.274967,32.05608],[-8.263702,32.111761],[-8.278042,32.142948],[-8.391549,32.200903],[-8.424312,32.243536],[-8.44953,32.28883],[-8.450461,32.335003],[-8.410256,32.369187],[-8.374057,32.388618],[-8.332509,32.419624],[-8.292279,32.435333],[-8.245693,32.467708],[-8.199236,32.490885],[-8.143528,32.530599],[-8.091464,32.582611],[-8.072809,32.639894],[-8.07516,32.691674],[-8.051079,32.787379],[-8.031597,32.812623],[-7.990204,32.834043],[-8.001599,32.867762],[-8.014725,32.875616],[-8.034439,32.880241],[-8.045627,32.897088],[-8.053741,32.913754],[-8.053973,32.935845],[-8.064179,32.957472],[-8.064153,32.994576],[-8.075677,33.083407],[-8.117923,33.167769],[-8.105107,33.192109],[-8.090405,33.21296],[-8.063533,33.224536],[-8.037773,33.23221],[-8.019918,33.246033],[-8.014415,33.260141],[-8.003511,33.276858],[-7.983822,33.292025],[-7.968474,33.335097],[-7.969069,33.381529],[-7.978345,33.415067],[-8.011572,33.466433],[-8.106557,33.430854],[-8.243153,33.404527],[-8.284657,33.389838],[-8.320221,33.365383],[-8.378774,33.304674],[-8.415028,33.280015],[-8.45165,33.264228],[-8.469797,33.260647],[-8.49413,33.259508],[-8.502797,33.261542],[-8.512522,33.270494],[-8.521148,33.272528],[-8.529164,33.268704],[-8.611887,33.186265],[-8.621002,33.173529],[-8.62149,33.13935],[-8.62914,33.127631],[-8.754709,33.010647],[-8.867787,32.881903],[-8.901682,32.854804],[-8.998525,32.797105],[-9.112172,32.682847],[-9.259918,32.57689],[-9.278961,32.546332],[-9.27831,32.529527],[-9.272369,32.512926],[-9.263661,32.498481],[-9.254791,32.488267],[-9.246938,32.472317],[-9.24885,32.452541],[-9.256256,32.432563],[-9.283355,32.387763],[-9.289662,32.372463],[-9.291982,32.350816],[-9.28775,32.343492],[-9.268951,32.335517],[-9.26476,32.330634],[-9.270009,32.227484],[-9.27774,32.196601],[-9.291982,32.168931],[-9.328114,32.130439],[-9.333079,32.118069],[-9.334828,32.10163],[-9.346425,32.06151],[-9.366119,32.026313],[-9.458767,31.944621]]]}}
