{"type":"Feature","properties":{"iso_id":"MA-MOH","iso_name":"Mohammedia Prefecture","name":"Mohammedia Prefecture","source":"iso-3166-2-placeholder-circle"},"geometry":{"type":"Polygon","coordinates":[[[-6.883333,33.683333],[-6.89294,33.780878],[-6.921393,33.874675],[-6.967598,33.961118],[-7.02978,34.036886],[-7.105548,34.099068],[-7.191991,34.145273],[-7.285788,34.173726],[-7.383333,34.183333],[-7.480878,34.173726],[-7.574675,34.145273],[-7.661118,34.099068],[-7.736886,34.036886],[-7.799068,33.961118],[-7.845273,33.874675],[-7.873726,33.780878],[-7.883333,33.683333],[-7.873726,33.585788],[-7.845273,33.491991],[-7.799068,33.405548],[-7.736886,33.32978],[-7.661118,33.267598],[-7.574675,33.221393],[-7.480878,33.19294],[-7.383333,33.183333],[-7.285788,33.19294],[-7.191991,33.221393],[-7.105548,33.267598],[-7.02978,33.32978],[-6.967598,33.405548],[-6.921393,33.491991],[-6.89294,33.585788],[-6.883333,33.683333]]]}}
