{"type":"Feature","properties":{"iso_id":"MA-TAT","iso_name":"Tata Province","name":"Tata Province","source":"iso-3166-2-placeholder-circle"},"geometry":{"type":"Polygon","coordinates":[[[-7.4725,29.742778],[-7.482107,29.840323],[-7.51056,29.934119],[-7.556765,30.020563],[-7.618947,30.096331],[-7.694715,30.158513],[-7.781158,30.204718],[-7.874955,30.23317],[-7.9725,30.242778],[-8.070045,30.23317],[-8.163842,30.204718],[-8.250285,30.158513],[-8.326053,30.096331],[-8.388235,30.020563],[-8.43444,29.934119],[-8.462893,29.840323],[-8.4725,29.742778],[-8.462893,29.645233],[-8.43444,29.551436],[-8.388235,29.464993],[-8.326053,29.389224],[-8.250285,29.327043],[-8.163842,29.280838],[-8.070045,29.252385],[-7.9725,29.242778],[-7.874955,29.252385],[-7.781158,29.280838],[-7.694715,29.327043],[-7.618947,29.389224],[-7.556765,29.464993],[-7.51056,29.551436],[-7.482107,29.645233],[-7.4725,29.742778]]]}}
