{"type":"Feature","properties":{"iso_id":"MC-MU","iso_name":"Moulins","name":"Moulins","source":"iso-3166-2-placeholder-circle"},"geometry":{"type":"Polygon","coordinates":[[[7.926294,43.743039],[7.916686,43.840584],[7.888233,43.934381],[7.842028,44.020824],[7.779847,44.096593],[7.704079,44.158774],[7.617635,44.204979],[7.523839,44.233432],[7.426294,44.243039],[7.328748,44.233432],[7.234952,44.204979],[7.148508,44.158774],[7.07274,44.096593],[7.010559,44.020824],[6.964354,43.934381],[6.935901,43.840584],[6.926294,43.743039],[6.935901,43.645494],[6.964354,43.551697],[7.010559,43.465254],[7.07274,43.389486],[7.148508,43.327304],[7.234952,43.281099],[7.328748,43.252647],[7.426294,43.243039],[7.523839,43.252647],[7.617635,43.281099],[7.704079,43.327304],[7.779847,43.389486],[7.842028,43.465254],[7.888233,43.551697],[7.916686,43.645494],[7.926294,43.743039]]]}}
