{"type":"Feature","properties":{"iso_id":"MC-SR","iso_name":"Saint Roman","name":"Saint Roman","source":"iso-3166-2-placeholder-country-centroid"},"geometry":{"type":"Polygon","coordinates":[[[7.8994,43.738894],[7.889792,43.836439],[7.861339,43.930236],[7.815135,44.016679],[7.752953,44.092448],[7.677185,44.154629],[7.590741,44.200834],[7.496945,44.229287],[7.3994,44.238894],[7.301855,44.229287],[7.208058,44.200834],[7.121615,44.154629],[7.045846,44.092448],[6.983665,44.016679],[6.93746,43.930236],[6.909007,43.836439],[6.8994,43.738894],[6.909007,43.641349],[6.93746,43.547553],[6.983665,43.461109],[7.045846,43.385341],[7.121615,43.323159],[7.208058,43.276954],[7.301855,43.248502],[7.3994,43.238894],[7.496945,43.248502],[7.590741,43.276954],[7.677185,43.323159],[7.752953,43.385341],[7.815135,43.461109],[7.861339,43.547553],[7.889792,43.641349],[7.8994,43.738894]]]}}
