{"type":"Feature","properties":{"featurecla":"Admin-1 states provinces","scalerank":10,"adm1_code":"MKD-2998","diss_me":2998,"iso_3166_2":"MK-18","wikipedia":null,"iso_a2":"MK","adm0_sr":1,"name":"Gevgelija","name_alt":"Southeastern","name_local":null,"type":"Statistical Region","type_en":"Statistical Region","code_local":null,"code_hasc":"MK.GV","note":null,"hasc_maybe":null,"region":null,"region_cod":null,"provnum_ne":20022,"gadm_level":1,"check_me":0,"datarank":8,"abbrev":null,"postal":"GV","area_sqkm":0,"sameascity":-99,"labelrank":10,"name_len":12,"mapcolor9":7,"mapcolor13":3,"fips":"MK33","fips_alt":null,"woe_id":24550840,"woe_label":"Gevgelija Municipality, MK, Macedonia","woe_name":"Southeastern","latitude":41.243,"longitude":22.3973,"sov_a3":"MKD","adm0_a3":"MKD","adm0_label":5,"admin":"Macedonia","geonunit":"Macedonia","gu_a3":"MKD","gn_id":863854,"gn_name":"Opstina Gevgelija","gns_id":9075619,"gns_name":"Gevgelija, Opstina","gn_level":1,"gn_region":null,"gn_a1_code":"MK.33","region_sub":null,"sub_code":null,"gns_level":1,"gns_lang":"mkd","gns_adm1":"MK33","gns_region":null,"min_label":10.0,"max_label":11.0,"min_zoom":10.0,"wikidataid":"Q2018974","name_ar":"غيفغليا","name_bn":"গেভগেলিজা","name_de":"Opština Gevgelija","name_en":"Gevgelija","name_es":"Municipalidad de Gevgelija","name_fr":"Gevgelija","name_el":"Γευγελής","name_hi":"गेवगेलिजा","name_hu":"Gevgelija","name_id":"Gevgelija","name_it":"Gevgelija","name_ja":"ゲヴゲリヤ","name_ko":"게브겔리야 시","name_nl":"Gevgelija","name_pl":"Gmina Gewgelija","name_pt":"Gevgelija","name_ru":"Гевгелия","name_sv":"Gevgelija","name_tr":"Gevgeli Belediyesi","name_vi":"Gevgelija","name_zh":"杰夫格里雅区","ne_id":1159314559,"name_he":"גבליחה","name_uk":"Гевгелія","name_ur":"گیوگیلیا بلدیہ","name_fa":"شهرداری گویگلیجا","name_zht":"傑夫格里雅區","FCLASS_ISO":null,"FCLASS_US":null,"FCLASS_FR":null,"FCLASS_RU":null,"FCLASS_ES":null,"FCLASS_CN":null,"FCLASS_TW":null,"FCLASS_IN":null,"FCLASS_NP":null,"FCLASS_PK":null,"FCLASS_DE":null,"FCLASS_GB":null,"FCLASS_BR":null,"FCLASS_IL":null,"FCLASS_PS":null,"FCLASS_SA":null,"FCLASS_EG":null,"FCLASS_MA":null,"FCLASS_PT":null,"FCLASS_AR":null,"FCLASS_JP":null,"FCLASS_KO":null,"FCLASS_VN":null,"FCLASS_TR":null,"FCLASS_ID":null,"FCLASS_PL":null,"FCLASS_GR":null,"FCLASS_IT":null,"FCLASS_NL":null,"FCLASS_SE":null,"FCLASS_BD":null,"FCLASS_UA":null,"FCLASS_TLC":null,"iso_id":"MK-18","iso_name":"Gevgelija","source":"iso-3166-2-subdivisions"},"geometry":{"type":"Polygon","coordinates":[[[22.586634,41.124085],[22.542635,41.147437],[22.51752,41.150718],[22.524445,41.191259],[22.481346,41.236269],[22.468221,41.313448],[22.446723,41.31815],[22.400111,41.361481],[22.35939,41.376389],[22.335619,41.375588],[22.348228,41.346831],[22.347401,41.326599],[22.300479,41.325333],[22.282392,41.309288],[22.289524,41.266629],[22.300066,41.26451],[22.302236,41.256061],[22.250249,41.236217],[22.261618,41.193972],[22.214799,41.188494],[22.208185,41.172164],[22.213637,41.160684],[22.302649,41.1455],[22.308746,41.124984],[22.380163,41.131702],[22.421814,41.114649],[22.451477,41.113667],[22.586634,41.124085]]]}}
