{"type":"Feature","properties":{"iso_id":"MK-608","iso_name":"Tearce Municipality","name":"Tearce Municipality","source":"osm-overpass-mk"},"geometry":{"type":"Polygon","coordinates":[[[20.927939,42.1273263],[20.954078,42.1169075],[20.9733939,42.0827906],[20.9990358,42.0789863],[21.0108805,42.060509],[21.0045558,42.046058],[21.0265017,42.0261765],[21.0308468,42.0385045],[21.0437526,42.044807],[21.0734778,42.03587],[21.0770506,42.0437634],[21.0891205,42.0450426],[21.1107158,42.0802966],[21.1337042,42.0885573],[21.1373681,42.0974681],[21.1170959,42.1191558],[21.1079979,42.1144125],[21.0690737,42.1615584],[21.0524145,42.1604112],[21.0495344,42.1665452],[21.0264377,42.1522535],[20.9693941,42.1365665],[20.9448235,42.1380905],[20.927939,42.1273263]]]}}
