{"type":"Feature","properties":{"featurecla":"Admin-1 states provinces","scalerank":10,"adm1_code":"MKD-2958","diss_me":2958,"iso_3166_2":"MK-76","wikipedia":null,"iso_a2":"MK","adm0_sr":1,"name":"Tetovo","name_alt":null,"name_local":null,"type":"Statistical Region","type_en":"Statistical Region","code_local":null,"code_hasc":"MK.ET","note":null,"hasc_maybe":null,"region":null,"region_cod":null,"provnum_ne":20009,"gadm_level":1,"check_me":0,"datarank":8,"abbrev":null,"postal":"ET","area_sqkm":0,"sameascity":-99,"labelrank":10,"name_len":6,"mapcolor9":7,"mapcolor13":3,"fips":"MKA6","fips_alt":null,"woe_id":24550862,"woe_label":"Tetovo Municipality, MK, Macedonia","woe_name":"Tetovo","latitude":42.0484,"longitude":20.8947,"sov_a3":"MKD","adm0_a3":"MKD","adm0_label":5,"admin":"Macedonia","geonunit":"Macedonia","gu_a3":"MKD","gn_id":863907,"gn_name":"Opstina Tetovo","gns_id":9075776,"gns_name":"Tetovo, Opstina","gn_level":1,"gn_region":null,"gn_a1_code":"MK.E8","region_sub":null,"sub_code":null,"gns_level":1,"gns_lang":"mkd","gns_adm1":"MK98","gns_region":null,"min_label":10.0,"max_label":11.0,"min_zoom":10.0,"wikidataid":"Q3245456","name_ar":"بلدية تيتوفو","name_bn":"তেতোভো পৌরসভা","name_de":"Opština Tetovo","name_en":"Tetovo","name_es":"Municipalidad de Tetovo","name_fr":"Tetovo","name_el":"Τέτοβο","name_hi":"टेटवो नगरपालिका","name_hu":"Tetovo","name_id":"Tetovo","name_it":"Municipio di Tetovo","name_ja":"テトヴォ","name_ko":"테토보 시","name_nl":"Tetovo","name_pl":"Gmina Tetowo","name_pt":"Município Tetovo","name_ru":"Тетово","name_sv":"Tetovo","name_tr":"Kalkandelen Belediyesi","name_vi":"Đô thị tự trị Tetovo","name_zh":"特托沃区","ne_id":1159314535,"name_he":"טטובו","name_uk":"Тетово","name_ur":"تیتوو بلدیہ","name_fa":"شهرداری تتوو","name_zht":"特托沃區","FCLASS_ISO":null,"FCLASS_US":null,"FCLASS_FR":null,"FCLASS_RU":null,"FCLASS_ES":null,"FCLASS_CN":null,"FCLASS_TW":null,"FCLASS_IN":null,"FCLASS_NP":null,"FCLASS_PK":null,"FCLASS_DE":null,"FCLASS_GB":null,"FCLASS_BR":null,"FCLASS_IL":null,"FCLASS_PS":null,"FCLASS_SA":null,"FCLASS_EG":null,"FCLASS_MA":null,"FCLASS_PT":null,"FCLASS_AR":null,"FCLASS_JP":null,"FCLASS_KO":null,"FCLASS_VN":null,"FCLASS_TR":null,"FCLASS_ID":null,"FCLASS_PL":null,"FCLASS_GR":null,"FCLASS_IT":null,"FCLASS_NL":null,"FCLASS_SE":null,"FCLASS_BD":null,"FCLASS_UA":null,"FCLASS_TLC":null,"iso_id":"MK-76","iso_name":"Tetovo","source":"iso-3166-2-subdivisions"},"geometry":{"type":"Polygon","coordinates":[[[20.784912,42.082032],[20.765378,42.064333],[20.743054,41.993484],[20.751439,41.940338],[20.847441,41.987618],[20.920305,41.978265],[20.953791,41.95284],[20.975185,41.966896],[21.02004,41.952685],[21.047429,41.964881],[21.048049,41.972245],[21.014666,41.992295],[21.031409,42.007436],[21.007948,42.023714],[21.006604,42.050457],[20.975805,42.062497],[20.959165,42.092573],[20.928366,42.109962],[20.90417,42.116668],[20.784912,42.082032]]]}}
