{"type":"Feature","properties":{"iso_id":"MK-804","iso_name":"Gazi Baba Municipality","name":"Gazi Baba Municipality","source":"iso-3166-2-placeholder-circle"},"geometry":{"type":"Polygon","coordinates":[[[21.95,42.016667],[21.940393,42.114212],[21.91194,42.208008],[21.865735,42.294452],[21.803553,42.37022],[21.727785,42.432401],[21.641342,42.478606],[21.547545,42.507059],[21.45,42.516667],[21.352455,42.507059],[21.258658,42.478606],[21.172215,42.432401],[21.096447,42.37022],[21.034265,42.294452],[20.98806,42.208008],[20.959607,42.114212],[20.95,42.016667],[20.959607,41.919122],[20.98806,41.825325],[21.034265,41.738882],[21.096447,41.663113],[21.172215,41.600932],[21.258658,41.554727],[21.352455,41.526274],[21.45,41.516667],[21.547545,41.526274],[21.641342,41.554727],[21.727785,41.600932],[21.803553,41.663113],[21.865735,41.738882],[21.91194,41.825325],[21.940393,41.919122],[21.95,42.016667]]]}}
