{"type":"Feature","properties":{"iso_id":"ML-14","iso_name":"Nara Region","name":"Nara Region","source":"iso-3166-2-placeholder-circle"},"geometry":{"type":"Polygon","coordinates":[[[-6.7875,15.168056],[-6.797107,15.265601],[-6.82556,15.359397],[-6.871765,15.445841],[-6.933947,15.521609],[-7.009715,15.58379],[-7.096158,15.629995],[-7.189955,15.658448],[-7.2875,15.668056],[-7.385045,15.658448],[-7.478842,15.629995],[-7.565285,15.58379],[-7.641053,15.521609],[-7.703235,15.445841],[-7.74944,15.359397],[-7.777893,15.265601],[-7.7875,15.168056],[-7.777893,15.07051],[-7.74944,14.976714],[-7.703235,14.89027],[-7.641053,14.814502],[-7.565285,14.752321],[-7.478842,14.706116],[-7.385045,14.677663],[-7.2875,14.668056],[-7.189955,14.677663],[-7.096158,14.706116],[-7.009715,14.752321],[-6.933947,14.814502],[-6.871765,14.89027],[-6.82556,14.976714],[-6.797107,15.07051],[-6.7875,15.168056]]]}}
