{"type":"Feature","properties":{"featurecla":"Admin-1 states provinces","scalerank":6,"adm1_code":"MMR-3296","diss_me":3296,"iso_3166_2":"MM-11","wikipedia":null,"iso_a2":"MM","adm0_sr":1,"name":"Kachin State","name_alt":"Jingphaw Mungdaw","name_local":null,"type":"Pyine","type_en":"State","code_local":null,"code_hasc":"MM.KC","note":null,"hasc_maybe":null,"region":null,"region_cod":null,"provnum_ne":20018,"gadm_level":1,"check_me":0,"datarank":5,"abbrev":null,"postal":"KC","area_sqkm":0,"sameascity":-99,"labelrank":7,"name_len":6,"mapcolor9":5,"mapcolor13":13,"fips":"BM04","fips_alt":null,"woe_id":2344813,"woe_label":"Kachin State, MM, Myanmar","woe_name":"Kachin","latitude":25.7926,"longitude":97.2978,"sov_a3":"MMR","adm0_a3":"MMR","adm0_label":2,"admin":"Myanmar","geonunit":"Myanmar","gu_a3":"MMR","gn_id":1321702,"gn_name":"Kachin State","gns_id":-417566,"gns_name":"Kachin State","gn_level":1,"gn_region":null,"gn_a1_code":"MM.04","region_sub":null,"sub_code":null,"gns_level":1,"gns_lang":"fra","gns_adm1":"BM04","gns_region":null,"min_label":7.0,"max_label":11.0,"min_zoom":7.0,"wikidataid":"Q140646","name_ar":"ولاية كاشين","name_bn":"কাচিন রাজ্য","name_de":"Kachin-Staat","name_en":"Kachin State","name_es":"Estado Kachin","name_fr":"Kachin","name_el":"Κατσίν","name_hi":"काचीन राज्य","name_hu":"Kachin","name_id":"Negara Bagian Kachin","name_it":"Stato Kachin","name_ja":"カチン州","name_ko":"카친","name_nl":"Kachin","name_pl":"Kaczin","name_pt":"Kachin","name_ru":"Качин","name_sv":"Kachin","name_tr":"Kachin Eyaleti","name_vi":"Kachin","name_zh":"克钦邦","ne_id":1159315217,"name_he":"קאצ'ין","name_uk":"Качин","name_ur":"کاچین ریاست","name_fa":"ایالت کاچین","name_zht":"克欽邦","FCLASS_ISO":null,"FCLASS_US":null,"FCLASS_FR":null,"FCLASS_RU":null,"FCLASS_ES":null,"FCLASS_CN":null,"FCLASS_TW":null,"FCLASS_IN":null,"FCLASS_NP":null,"FCLASS_PK":null,"FCLASS_DE":null,"FCLASS_GB":null,"FCLASS_BR":null,"FCLASS_IL":null,"FCLASS_PS":null,"FCLASS_SA":null,"FCLASS_EG":null,"FCLASS_MA":null,"FCLASS_PT":null,"FCLASS_AR":null,"FCLASS_JP":null,"FCLASS_KO":null,"FCLASS_VN":null,"FCLASS_TR":null,"FCLASS_ID":null,"FCLASS_PL":null,"FCLASS_GR":null,"FCLASS_IT":null,"FCLASS_NL":null,"FCLASS_SE":null,"FCLASS_BD":null,"FCLASS_UA":null,"FCLASS_TLC":null,"iso_id":"MM-11","iso_name":"Kachin State","source":"iso-3166-2-subdivisions"},"geometry":{"type":"Polygon","coordinates":[[[97.292903,27.87755],[97.276367,27.910339],[97.222933,27.899719],[97.131776,27.816856],[97.06532,27.773991],[97.056742,27.746783],[96.990906,27.726629],[96.957006,27.688079],[96.883523,27.636325],[96.862129,27.599298],[96.862025,27.578369],[96.877321,27.553074],[96.888484,27.507185],[96.890241,27.492483],[96.877011,27.463079],[96.881352,27.444114],[97.101287,27.183303],[97.104388,27.156018],[97.134773,27.127338],[97.119167,27.087288],[97.106041,27.082586],[97.077206,27.096487],[97.058827,27.092076],[96.990287,27.002797],[96.965172,26.991324],[96.764564,26.98843],[96.677644,26.965202],[96.623798,26.964944],[96.449441,26.942361],[96.342161,26.963238],[96.239015,26.959001],[96.239222,26.951869],[96.292862,26.915903],[96.279323,26.890142],[96.274568,26.857973],[96.205115,26.824229],[96.198294,26.766196],[96.051843,26.679199],[96.047192,26.666073],[96.054633,26.651759],[96.132045,26.578791],[96.151682,26.499158],[96.127911,26.470013],[96.102176,26.457558],[96.019907,26.435518],[96.006884,26.408879],[96.014119,26.388157],[96.078198,26.303046],[96.084089,26.262247],[96.154886,26.142203],[96.169355,26.065438],[96.163774,26.031073],[96.130081,25.99999],[96.077681,25.872866],[96.117575,25.760495],[96.171009,25.701403],[96.181861,25.671663],[96.166358,25.632079],[96.08843,25.571411],[96.060835,25.538829],[96.043161,25.533713],[96.004507,25.566476],[95.989624,25.567148],[95.978772,25.555805],[95.96854,25.515652],[95.963683,25.428603],[95.977222,25.241354],[95.987971,25.199702],[96.03882,25.141308],[96.073134,25.07803],[96.077681,25.045112],[96.068276,24.985943],[96.039234,24.957159],[96.015876,24.963438],[96.013809,24.983152],[96.033859,25.040255],[96.031172,25.051934],[96.021561,25.056171],[95.998513,25.02886],[95.969574,25.011419],[95.897124,24.991214],[95.840383,24.964988],[95.885962,24.862695],[95.94787,24.690044],[95.988074,24.667177],[96.081609,24.648031],[96.103829,24.636972],[96.139796,24.548166],[96.235088,24.458714],[96.279323,24.479824],[96.394148,24.502122],[96.42474,24.501063],[96.570571,24.44781],[96.622454,24.436545],[96.65625,24.417192],[96.647569,24.396909],[96.618837,24.375799],[96.607675,24.355335],[96.609845,24.2271],[96.696248,24.117831],[96.699349,24.070081],[96.729838,24.028094],[96.833294,23.965488],[96.886107,23.989828],[96.89882,23.973602],[96.916803,23.904381],[96.916286,23.873013],[96.892929,23.823404],[96.869777,23.805782],[96.786785,23.776404],[96.777587,23.768084],[96.778724,23.757439],[96.784098,23.749713],[96.878252,23.721627],[96.912255,23.726769],[96.994524,23.707752],[97.003516,23.699949],[97.006617,23.657445],[97.033178,23.644836],[97.097567,23.645405],[97.173428,23.675945],[97.226965,23.679744],[97.259831,23.70336],[97.309544,23.705194],[97.325047,23.723746],[97.343444,23.720516],[97.377447,23.749817],[97.420338,23.750153],[97.471291,23.785267],[97.586943,23.806351],[97.6411,23.833171],[97.649782,23.851645],[97.647345,23.868524],[97.624666,23.846711],[97.609887,23.883143],[97.532992,23.923709],[97.516456,23.942829],[97.707658,24.125299],[97.723058,24.171265],[97.701561,24.210926],[97.724091,24.241519],[97.718407,24.277667],[97.64451,24.302394],[97.638205,24.328103],[97.689572,24.346474],[97.688331,24.367713],[97.662596,24.390063],[97.6473,24.432334],[97.624356,24.442282],[97.519556,24.430784],[97.513252,24.438587],[97.538573,24.597259],[97.536093,24.745028],[97.66394,24.829778],[97.748483,24.82647],[97.765226,24.834661],[97.772977,24.854686],[97.724091,24.897215],[97.708278,24.927291],[97.703628,25.073923],[97.737527,25.090511],[97.754064,25.113559],[97.777008,25.158621],[97.800986,25.237634],[97.82362,25.261612],[97.860311,25.244093],[97.888939,25.205646],[97.90992,25.207558],[97.930797,25.218513],[97.976272,25.272257],[98.03353,25.301299],[98.075698,25.376075],[98.108357,25.388891],[98.111975,25.448474],[98.099779,25.500047],[98.134196,25.534618],[98.140087,25.611461],[98.232381,25.586553],[98.276616,25.552447],[98.312066,25.557459],[98.347102,25.57782],[98.375214,25.649288],[98.413248,25.692076],[98.418726,25.724219],[98.439293,25.743598],[98.461307,25.794654],[98.498101,25.830724],[98.526833,25.838786],[98.562387,25.816358],[98.610032,25.800597],[98.68486,25.8531],[98.689821,25.891599],[98.66729,25.905758],[98.616233,25.979397],[98.582437,25.982291],[98.572618,26.03557],[98.54554,26.105643],[98.563007,26.131223],[98.619334,26.145744],[98.625742,26.144348],[98.624295,26.108485],[98.630806,26.096909],[98.644449,26.097891],[98.680829,26.12497],[98.686513,26.154115],[98.70553,26.174941],[98.677005,26.23933],[98.66822,26.248218],[98.648169,26.244807],[98.642175,26.254523],[98.657781,26.311625],[98.697675,26.354051],[98.713488,26.38945],[98.721137,26.538898],[98.727958,26.572591],[98.755553,26.625043],[98.746458,26.68106],[98.731989,26.713513],[98.750385,26.792009],[98.718139,26.842497],[98.714522,26.862031],[98.736329,26.898256],[98.712662,26.995149],[98.737776,27.048686],[98.731368,27.068788],[98.691371,27.092404],[98.672561,27.175603],[98.673594,27.207901],[98.704187,27.304174],[98.707701,27.337247],[98.697365,27.368925],[98.677315,27.376108],[98.674421,27.386598],[98.668323,27.475249],[98.679279,27.577336],[98.647239,27.611727],[98.604554,27.592735],[98.578406,27.591728],[98.54337,27.642526],[98.522182,27.656298],[98.492313,27.64343],[98.410251,27.684254],[98.400019,27.675728],[98.398159,27.619814],[98.383276,27.555787],[98.363949,27.532171],[98.328602,27.522869],[98.294703,27.536615],[98.275686,27.570101],[98.254395,27.648133],[98.204372,27.727301],[98.211504,27.760322],[98.197861,27.780631],[98.196621,27.823187],[98.162411,27.842849],[98.140087,27.878558],[98.176674,27.898117],[98.177294,27.912923],[98.148975,27.944549],[98.113525,27.961705],[98.107117,27.973074],[98.122517,28.015449],[98.126961,28.124279],[98.118693,28.14079],[98.048619,28.199624],[97.991052,28.214015],[97.984851,28.224221],[97.992912,28.268922],[97.94475,28.298842],[97.897518,28.355325],[97.85907,28.37013],[97.797265,28.34393],[97.765329,28.352431],[97.740008,28.38261],[97.699597,28.48803],[97.670451,28.511284],[97.613607,28.481984],[97.589939,28.494696],[97.567512,28.525495],[97.546221,28.538466],[97.527721,28.529526],[97.488137,28.441934],[97.445349,28.382971],[97.452377,28.35548],[97.447829,28.297602],[97.436667,28.286414],[97.384371,28.284838],[97.369591,28.25347],[97.333831,28.235254],[97.323496,28.217478],[97.328663,28.190012],[97.298898,28.12924],[97.292903,28.095082],[97.306546,28.069657],[97.355122,28.023045],[97.362253,27.994881],[97.335691,27.935609],[97.338172,27.901554],[97.292903,27.87755]]]}}
