{"type":"Feature","properties":{"featurecla":"Admin-1 states provinces","scalerank":4,"adm1_code":"MNG-3331","diss_me":3331,"iso_3166_2":"MN-1","wikipedia":null,"iso_a2":"MN","adm0_sr":1,"name":"Ulaanbaatar","name_alt":"Oulan-Bator|Ulan Bator|Ulan Bator Choto","name_local":null,"type":"Hot","type_en":"Municipality","code_local":null,"code_hasc":"MN.UB","note":null,"hasc_maybe":null,"region":null,"region_cod":null,"provnum_ne":20001,"gadm_level":1,"check_me":0,"datarank":7,"abbrev":null,"postal":"UB","area_sqkm":0,"sameascity":9,"labelrank":9,"name_len":11,"mapcolor9":5,"mapcolor13":6,"fips":"MG20","fips_alt":null,"woe_id":20070016,"woe_label":"Ulaanbaatar, MN, Mongolia","woe_name":"Ulaanbaatar","latitude":47.9597,"longitude":106.967,"sov_a3":"MNG","adm0_a3":"MNG","adm0_label":2,"admin":"Mongolia","geonunit":"Mongolia","gu_a3":"MNG","gn_id":2028461,"gn_name":"Ulaanbaatar Hot","gns_id":-2353540,"gns_name":"Ulaanbaatar Hot","gn_level":1,"gn_region":null,"gn_a1_code":"MN.20","region_sub":null,"sub_code":null,"gns_level":1,"gns_lang":"mon","gns_adm1":"MG20","gns_region":null,"min_label":6.0,"max_label":11.0,"min_zoom":6.0,"wikidataid":"Q23430","name_ar":"أولان باتور","name_bn":"উলানবাটর","name_de":"Ulaanbaatar","name_en":"Ulaanbaatar","name_es":"Ulán Bator","name_fr":"Oulan-Bator","name_el":"Ουλάν Μπατόρ","name_hi":"उलान बतोर","name_hu":"Ulánbátor","name_id":"Ulan Bator","name_it":"Ulan Bator","name_ja":"ウランバートル","name_ko":"울란바토르","name_nl":"Ulaanbaatar","name_pl":"Ułan Bator","name_pt":"Ulan Bator","name_ru":"Улан-Батор","name_sv":"Ulan Bator","name_tr":"Ulan Batur","name_vi":"Ulaanbaatar","name_zh":"乌兰巴托","ne_id":1159315433,"name_he":"אולן בטור","name_uk":"Улан-Батор","name_ur":"اولان باتور","name_fa":"اولانباتور","name_zht":"烏蘭巴托","FCLASS_ISO":null,"FCLASS_US":null,"FCLASS_FR":null,"FCLASS_RU":null,"FCLASS_ES":null,"FCLASS_CN":null,"FCLASS_TW":null,"FCLASS_IN":null,"FCLASS_NP":null,"FCLASS_PK":null,"FCLASS_DE":null,"FCLASS_GB":null,"FCLASS_BR":null,"FCLASS_IL":null,"FCLASS_PS":null,"FCLASS_SA":null,"FCLASS_EG":null,"FCLASS_MA":null,"FCLASS_PT":null,"FCLASS_AR":null,"FCLASS_JP":null,"FCLASS_KO":null,"FCLASS_VN":null,"FCLASS_TR":null,"FCLASS_ID":null,"FCLASS_PL":null,"FCLASS_GR":null,"FCLASS_IT":null,"FCLASS_NL":null,"FCLASS_SE":null,"FCLASS_BD":null,"FCLASS_UA":null,"FCLASS_TLC":null,"iso_id":"MN-1","iso_name":"Ulaanbaatar"},"geometry":{"type":"Polygon","coordinates":[[[106.356689,48.256297],[106.376381,48.21189],[106.39209,48.164916],[106.422373,48.097788],[106.430538,47.966892],[106.455136,47.945084],[106.468985,47.92953],[106.486141,47.899092],[106.499474,47.865012],[106.499474,47.786593],[106.504021,47.768635],[106.514047,47.752434],[106.522108,47.745458],[106.546189,47.735123],[106.629182,47.722049],[106.664115,47.710887],[106.813563,47.720808],[106.930559,47.734864],[106.955363,47.735562],[107.032775,47.732384],[107.072462,47.72825],[107.110909,47.718121],[107.145946,47.700655],[107.222944,47.655179],[107.248265,47.645361],[107.276584,47.639418],[107.336322,47.635232],[107.412493,47.636834],[107.459209,47.64164],[107.510782,47.65182],[107.514606,47.675281],[107.541994,47.769333],[107.553053,47.81734],[107.577031,47.882917],[107.578168,47.89855],[107.572173,47.913562],[107.55729,47.926739],[107.528662,47.93847],[107.464996,47.954386],[107.399884,47.96299],[107.374563,47.968545],[107.351722,47.977563],[107.331981,47.989061],[107.315445,48.002109],[107.2894,48.027379],[107.259531,48.048747],[107.197623,48.115771],[107.146876,48.157138],[107.125482,48.182537],[107.099334,48.218814],[107.000529,48.191374],[106.91795,48.173907],[106.881776,48.171892],[106.858108,48.175561],[106.801161,48.192924],[106.774599,48.19804],[106.69078,48.208582],[106.586304,48.226331],[106.591355,48.226566],[106.356689,48.256297]]]}}
