{"type":"Feature","properties":{"featurecla":"Admin-1 states provinces","scalerank":10,"adm1_code":"MLT-5938","diss_me":5938,"iso_3166_2":"MT-12","wikipedia":null,"iso_a2":"MT","adm0_sr":3,"name":"Gżira","name_alt":"Gzira","name_local":null,"type":null,"type_en":null,"code_local":null,"code_hasc":"MT.CE.GZ","note":null,"hasc_maybe":null,"region":"Malta Majjistral","region_cod":null,"provnum_ne":0,"gadm_level":0,"check_me":0,"datarank":10,"abbrev":null,"postal":null,"area_sqkm":0,"sameascity":-99,"labelrank":20,"name_len":5,"mapcolor9":1,"mapcolor13":8,"fips":null,"fips_alt":null,"woe_id":24551388,"woe_label":null,"woe_name":"Malta","latitude":35.9025,"longitude":14.4908,"sov_a3":"MLT","adm0_a3":"MLT","adm0_label":5,"admin":"Malta","geonunit":"Malta","gu_a3":"MLT","gn_id":8299716,"gn_name":"Il-Gzira","gns_id":11534058,"gns_name":"Il-Gzira","gn_level":1,"gn_region":null,"gn_a1_code":"MT.17","region_sub":"Northern Harbour","sub_code":null,"gns_level":1,"gns_lang":"mlt","gns_adm1":"MT17","gns_region":null,"min_label":11.0,"max_label":11.0,"min_zoom":11.0,"wikidataid":"Q632097","name_ar":"غزيرا","name_bn":"জিরা","name_de":"Gżira","name_en":"Gżira","name_es":"Gżira","name_fr":"Gżira","name_el":"Γκζίρα","name_hi":"ज़िरा","name_hu":"Gżira","name_id":"Gżira","name_it":"Gżira","name_ja":"グジラ","name_ko":"그지라","name_nl":"Gżira","name_pl":"Gżira","name_pt":"Gżira","name_ru":"Гзира","name_sv":"Il-Gżira","name_tr":"Gzira","name_vi":"Gzira","name_zh":"格齐拉","ne_id":1159318019,"name_he":"גזירה","name_uk":"Гзіра","name_ur":"گزیرہ","name_fa":"گزیرا","name_zht":"格齊拉","FCLASS_ISO":null,"FCLASS_US":null,"FCLASS_FR":null,"FCLASS_RU":null,"FCLASS_ES":null,"FCLASS_CN":null,"FCLASS_TW":null,"FCLASS_IN":null,"FCLASS_NP":null,"FCLASS_PK":null,"FCLASS_DE":null,"FCLASS_GB":null,"FCLASS_BR":null,"FCLASS_IL":null,"FCLASS_PS":null,"FCLASS_SA":null,"FCLASS_EG":null,"FCLASS_MA":null,"FCLASS_PT":null,"FCLASS_AR":null,"FCLASS_JP":null,"FCLASS_KO":null,"FCLASS_VN":null,"FCLASS_TR":null,"FCLASS_ID":null,"FCLASS_PL":null,"FCLASS_GR":null,"FCLASS_IT":null,"FCLASS_NL":null,"FCLASS_SE":null,"FCLASS_BD":null,"FCLASS_UA":null,"FCLASS_TLC":null,"iso_id":"MT-12","iso_name":"Gżira","source":"iso-3166-2-subdivisions"},"geometry":{"type":"Polygon","coordinates":[[[14.507178,35.898723],[14.492884,35.906616],[14.485885,35.900361],[14.501557,35.895173],[14.507178,35.898723]]]}}
