{"type":"Feature","properties":{"featurecla":"Admin-1 states provinces","scalerank":10,"adm1_code":"MLT-5922","diss_me":5922,"iso_3166_2":"MT-35","wikipedia":null,"iso_a2":"MT","adm0_sr":3,"name":"Mtarfa","name_alt":"Imtarfa","name_local":null,"type":null,"type_en":null,"code_local":null,"code_hasc":"MT.NO.MT","note":null,"hasc_maybe":null,"region":"Malta Majjistral","region_cod":null,"provnum_ne":0,"gadm_level":0,"check_me":0,"datarank":10,"abbrev":null,"postal":null,"area_sqkm":0,"sameascity":-99,"labelrank":20,"name_len":7,"mapcolor9":1,"mapcolor13":8,"fips":null,"fips_alt":null,"woe_id":56043489,"woe_label":null,"woe_name":"Malta","latitude":35.8869,"longitude":14.4049,"sov_a3":"MLT","adm0_a3":"MLT","adm0_label":5,"admin":"Malta","geonunit":"Malta","gu_a3":"MLT","gn_id":8299723,"gn_name":"L-Imtarfa","gns_id":11534630,"gns_name":"L-Imtarfa","gn_level":1,"gn_region":null,"gn_a1_code":"MT.24","region_sub":"Western","sub_code":null,"gns_level":1,"gns_lang":"mlt","gns_adm1":"MT24","gns_region":null,"min_label":11.0,"max_label":11.0,"min_zoom":11.0,"wikidataid":"Q656837","name_ar":"المطرفة","name_bn":"মতারফা","name_de":"Mtarfa","name_en":"Mtarfa","name_es":"Mtarfa","name_fr":"Mtarfa","name_el":"Ιμτάρφα","name_hi":"तारफ़ा","name_hu":"Mtarfa","name_id":"Mtarfa","name_it":"Mtarfa","name_ja":"イムタルファ","name_ko":"므타르파","name_nl":"Mtarfa","name_pl":"Mtarfa","name_pt":"Mtarfa","name_ru":"Мтарфа","name_sv":"L-Imtarfa","name_tr":"Mtarfa","name_vi":"Mtarfa","name_zh":"玛塔法","ne_id":1159317983,"name_he":"מטורווי","name_uk":"Мтарфа","name_ur":"متارفا","name_fa":"معمرفا","name_zht":"玛塔法","FCLASS_ISO":null,"FCLASS_US":null,"FCLASS_FR":null,"FCLASS_RU":null,"FCLASS_ES":null,"FCLASS_CN":null,"FCLASS_TW":null,"FCLASS_IN":null,"FCLASS_NP":null,"FCLASS_PK":null,"FCLASS_DE":null,"FCLASS_GB":null,"FCLASS_BR":null,"FCLASS_IL":null,"FCLASS_PS":null,"FCLASS_SA":null,"FCLASS_EG":null,"FCLASS_MA":null,"FCLASS_PT":null,"FCLASS_AR":null,"FCLASS_JP":null,"FCLASS_KO":null,"FCLASS_VN":null,"FCLASS_TR":null,"FCLASS_ID":null,"FCLASS_PL":null,"FCLASS_GR":null,"FCLASS_IT":null,"FCLASS_NL":null,"FCLASS_SE":null,"FCLASS_BD":null,"FCLASS_UA":null,"FCLASS_TLC":null,"iso_id":"MT-35","iso_name":"Mtarfa","source":"iso-3166-2-subdivisions"},"geometry":{"type":"Polygon","coordinates":[[[14.411025,35.884226],[14.411617,35.891327],[14.39564,35.887481],[14.411025,35.884226]]]}}
