{"type":"Feature","properties":{"featurecla":"Admin-1 states provinces","scalerank":10,"adm1_code":"MLT-5972","diss_me":5972,"iso_3166_2":"MT-44","wikipedia":null,"iso_a2":"MT","adm0_sr":3,"name":"Qrendi","name_alt":null,"name_local":null,"type":null,"type_en":null,"code_local":null,"code_hasc":"MT.SO.QR","note":null,"hasc_maybe":null,"region":"Malta Xlokk","region_cod":null,"provnum_ne":0,"gadm_level":0,"check_me":0,"datarank":10,"abbrev":null,"postal":null,"area_sqkm":0,"sameascity":-99,"labelrank":20,"name_len":6,"mapcolor9":1,"mapcolor13":8,"fips":null,"fips_alt":null,"woe_id":24551377,"woe_label":null,"woe_name":"Malta","latitude":35.8312,"longitude":14.4531,"sov_a3":"MLT","adm0_a3":"MLT","adm0_label":5,"admin":"Malta","geonunit":"Malta","gu_a3":"MLT","gn_id":8299743,"gn_name":"Il-Qrendi","gns_id":11535786,"gns_name":"Il-Qrendi","gn_level":1,"gn_region":null,"gn_a1_code":"MT.44","region_sub":"South Eastern","sub_code":null,"gns_level":1,"gns_lang":"mlt","gns_adm1":"MT44","gns_region":null,"min_label":11.0,"max_label":11.0,"min_zoom":11.0,"wikidataid":"Q282203","name_ar":"كريندي","name_bn":"কুরেন্ডি","name_de":"Qrendi","name_en":"Qrendi","name_es":"Qrendi","name_fr":"Qrendi","name_el":"Κρέντι","name_hi":"कुरेन्दी","name_hu":"Qrendi","name_id":"Qrendi","name_it":"Qrendi","name_ja":"レンディ","name_ko":"렌디","name_nl":"Qrendi","name_pl":"Qrendi","name_pt":"Qrendi","name_ru":"Куренди","name_sv":"Il-Qrendi","name_tr":"Qrendi","name_vi":"Qrendi","name_zh":"奎伦迪","ne_id":1159318095,"name_he":"קרנדי","name_uk":"Кренді","name_ur":"آریندی","name_fa":"قرندی","name_zht":"奎倫迪","FCLASS_ISO":null,"FCLASS_US":null,"FCLASS_FR":null,"FCLASS_RU":null,"FCLASS_ES":null,"FCLASS_CN":null,"FCLASS_TW":null,"FCLASS_IN":null,"FCLASS_NP":null,"FCLASS_PK":null,"FCLASS_DE":null,"FCLASS_GB":null,"FCLASS_BR":null,"FCLASS_IL":null,"FCLASS_PS":null,"FCLASS_SA":null,"FCLASS_EG":null,"FCLASS_MA":null,"FCLASS_PT":null,"FCLASS_AR":null,"FCLASS_JP":null,"FCLASS_KO":null,"FCLASS_VN":null,"FCLASS_TR":null,"FCLASS_ID":null,"FCLASS_PL":null,"FCLASS_GR":null,"FCLASS_IT":null,"FCLASS_NL":null,"FCLASS_SE":null,"FCLASS_BD":null,"FCLASS_UA":null,"FCLASS_TLC":null,"iso_id":"MT-44","iso_name":"Qrendi"},"geometry":{"type":"Polygon","coordinates":[[[14.453583,35.81628],[14.455699,35.820617],[14.466942,35.830084],[14.464871,35.831564],[14.465166,35.833635],[14.468125,35.834818],[14.466942,35.837777],[14.461024,35.836889],[14.45067,35.839256],[14.444161,35.837777],[14.44061,35.835114],[14.44061,35.83038],[14.436173,35.83038],[14.432326,35.828309],[14.428818,35.822576],[14.453583,35.81628]]]}}
