{"type":"Feature","properties":{"featurecla":"Admin-1 states provinces","scalerank":10,"adm1_code":"MUS-5192","diss_me":5192,"iso_3166_2":"MU-RR","wikipedia":"http://en.wikipedia.org/wiki/Rivi%C3%A8re_du_Rempart_District","iso_a2":"MU","adm0_sr":5,"name":"Rivière du Rempart","name_alt":null,"name_local":null,"type":"District","type_en":"District","code_local":null,"code_hasc":"MU.RR","note":null,"hasc_maybe":null,"region":null,"region_cod":null,"provnum_ne":0,"gadm_level":0,"check_me":0,"datarank":10,"abbrev":null,"postal":null,"area_sqkm":0,"sameascity":-99,"labelrank":20,"name_len":18,"mapcolor9":5,"mapcolor13":7,"fips":null,"fips_alt":null,"woe_id":2346235,"woe_label":"Riviere du Rempart, MU, Mauritius","woe_name":"Riviere du Rempart","latitude":-20.0651,"longitude":57.6557,"sov_a3":"MUS","adm0_a3":"MUS","adm0_label":5,"admin":"Mauritius","geonunit":"Mauritius","gu_a3":"MUS","gn_id":934090,"gn_name":"Riviere du Rempart District","gns_id":-1355486,"gns_name":"Riviere du Rempart","gn_level":1,"gn_region":null,"gn_a1_code":"MU.19","region_sub":"Rivière du Rempart","sub_code":null,"gns_level":1,"gns_lang":"eng","gns_adm1":"MP19","gns_region":null,"min_label":11.0,"max_label":11.0,"min_zoom":11.0,"wikidataid":"Q1053565","name_ar":"مقاطعة ريفير دو ريمبارت","name_bn":"রিভেরি ডো রেম্প জেলা","name_de":"Rivière du Rempart","name_en":"Rivière du Rempart","name_es":"Rivière du Rempart","name_fr":"Rivière du Rempart","name_el":"Ριβιέρ ντου Ρεμπάρτ","name_hi":"रिवेयर डू रेम्पार्ट जिला","name_hu":"Rivière du Rempart","name_id":"Rivière du Rempart","name_it":"Rivière du Rempart","name_ja":"リヴィエール・デュ・ランパール県","name_ko":"리비에르뒤랑파르 구","name_nl":"Rivière du Rempart","name_pl":"Rivière du Rempart","name_pt":"Rivière du Rempart","name_ru":"Ривьер-дю-Рампар","name_sv":"Rivière du Rempart","name_tr":"Riviere du Rempart Bölgesi","name_vi":"Quận Rivière du Rempart","name_zh":"朗帕河区","ne_id":1159316571,"name_he":"מחוז ריבייר דו רמפאר","name_uk":"Район Рів'ер-дю-Рампар","name_ur":"ریویر دو ریمپار ضلع","name_fa":"ناحیه ریویر دو رمپار","name_zht":"朗帕河區","FCLASS_ISO":null,"FCLASS_US":null,"FCLASS_FR":null,"FCLASS_RU":null,"FCLASS_ES":null,"FCLASS_CN":null,"FCLASS_TW":null,"FCLASS_IN":null,"FCLASS_NP":null,"FCLASS_PK":null,"FCLASS_DE":null,"FCLASS_GB":null,"FCLASS_BR":null,"FCLASS_IL":null,"FCLASS_PS":null,"FCLASS_SA":null,"FCLASS_EG":null,"FCLASS_MA":null,"FCLASS_PT":null,"FCLASS_AR":null,"FCLASS_JP":null,"FCLASS_KO":null,"FCLASS_VN":null,"FCLASS_TR":null,"FCLASS_ID":null,"FCLASS_PL":null,"FCLASS_GR":null,"FCLASS_IT":null,"FCLASS_NL":null,"FCLASS_SE":null,"FCLASS_BD":null,"FCLASS_UA":null,"FCLASS_TLC":null,"iso_id":"MU-RR","iso_name":"Rivière du Rempart"},"geometry":{"type":"Polygon","coordinates":[[[57.580333,-19.999933],[57.610445,-20.034157],[57.612593,-20.047043],[57.60615,-20.061003],[57.635144,-20.088924],[57.619036,-20.10718],[57.630849,-20.155504],[57.733653,-20.096124],[57.713878,-20.096124],[57.708832,-20.089939],[57.706228,-20.078383],[57.690196,-20.047296],[57.683116,-20.037774],[57.67921,-20.028253],[57.684825,-20.011],[57.679698,-19.999933],[57.667735,-19.994073],[57.622895,-19.981703],[57.607107,-19.979425],[57.596528,-19.982599],[57.586111,-19.996759],[57.580333,-19.999933]]]}}
