{"type":"Feature","properties":{"featurecla":"Admin-1 states provinces","scalerank":10,"adm1_code":"MDV-5224","diss_me":5224,"iso_3166_2":"MV-23","wikipedia":null,"iso_a2":"MV","adm0_sr":5,"name":"Haa Dhaalu Atoll","name_alt":"Thiladhunmathi Dhekunuburi","name_local":null,"type":"Atoll","type_en":"Atoll","code_local":"B","code_hasc":"MV.HD","note":null,"hasc_maybe":null,"region":"Upper North","region_cod":"MV-UN","provnum_ne":0,"gadm_level":0,"check_me":0,"datarank":10,"abbrev":"HDh","postal":"HDh","area_sqkm":0,"sameascity":-99,"labelrank":20,"name_len":10,"mapcolor9":1,"mapcolor13":7,"fips":null,"fips_alt":null,"woe_id":20070318,"woe_label":"Haa Dhaalu, MV, Maldives","woe_name":"Haa Dhaalu","latitude":6.62205,"longitude":73.0473,"sov_a3":"MDV","adm0_a3":"MDV","adm0_label":5,"admin":"Maldives","geonunit":"Maldives","gu_a3":"MDV","gn_id":1282293,"gn_name":"Haa Dhaalu Atholhu","gns_id":0,"gns_name":null,"gn_level":1,"gn_region":null,"gn_a1_code":"MV.37","region_sub":null,"sub_code":null,"gns_level":0,"gns_lang":null,"gns_adm1":null,"gns_region":null,"min_label":10.0,"max_label":11.0,"min_zoom":10.0,"wikidataid":"Q2360368","name_ar":"آتول ها دال","name_bn":"হা ধালু প্রবাল দ্বীপপুঞ্জ","name_de":"Haa Dhaalu","name_en":"Haa Dhaalu Atoll","name_es":"Atolón Haa Dhaalu","name_fr":"Haa Dhaalu","name_el":"Χαά Νταάλου Ατόλ","name_hi":"हा धालू एटोल","name_hu":"Déli-Tiladummati-atoll","name_id":"Atol Haa Dhaalu","name_it":"atollo Haa Dhaalu","name_ja":"南ティラドゥンマティー環礁区","name_ko":"하달루 환초","name_nl":"Haa Dhaalu-atol","name_pl":"Haa Dhaalu","name_pt":"Haa Dhaalu Atoll","name_ru":"Хаа-Дхаалу","name_sv":"Haa Dhaalu-atollen","name_tr":"Haa Dhaalu Atoll","name_vi":"Haa Dhaalu Atoll","name_zh":"阿鲁环礁","ne_id":1159316659,"name_he":"אטול הא דאלו","name_uk":"Атол Хаа-Дхаалу","name_ur":"ہاں دحاالو اتول","name_fa":"هاا دهالو","name_zht":"達魯環礁","FCLASS_ISO":null,"FCLASS_US":null,"FCLASS_FR":null,"FCLASS_RU":null,"FCLASS_ES":null,"FCLASS_CN":null,"FCLASS_TW":null,"FCLASS_IN":null,"FCLASS_NP":null,"FCLASS_PK":null,"FCLASS_DE":null,"FCLASS_GB":null,"FCLASS_BR":null,"FCLASS_IL":null,"FCLASS_PS":null,"FCLASS_SA":null,"FCLASS_EG":null,"FCLASS_MA":null,"FCLASS_PT":null,"FCLASS_AR":null,"FCLASS_JP":null,"FCLASS_KO":null,"FCLASS_VN":null,"FCLASS_TR":null,"FCLASS_ID":null,"FCLASS_PL":null,"FCLASS_GR":null,"FCLASS_IT":null,"FCLASS_NL":null,"FCLASS_SE":null,"FCLASS_BD":null,"FCLASS_UA":null,"FCLASS_TLC":null,"iso_id":"MV-23","iso_name":"Haa Dhaalu Atoll","source":"iso-3166-2-subdivisions"},"geometry":{"type":"MultiPolygon","coordinates":[[[[72.685883,6.411607],[72.685883,6.40648],[72.687185,6.407416],[72.685883,6.411607]]],[[[72.956798,6.560004],[72.955821,6.555325],[72.958018,6.554348],[72.956798,6.560004]]],[[[72.924001,6.565253],[72.923106,6.559882],[72.927745,6.558905],[72.928722,6.561103],[72.924001,6.565253]]],[[[73.025564,6.57925],[73.028168,6.575181],[73.030447,6.576077],[73.025564,6.57925]]],[[[73.04477,6.621894],[73.039399,6.62287],[73.038422,6.61815],[73.040701,6.617174],[73.04477,6.621894]]],[[[73.069509,6.667955],[73.062266,6.666897],[73.061778,6.660956],[73.069509,6.667955]]],[[[73.105968,6.709906],[73.09669,6.706122],[73.095876,6.698432],[73.100434,6.699774],[73.105968,6.709906]]],[[[73.036632,6.759711],[73.031993,6.756578],[73.034679,6.75259],[73.036876,6.753485],[73.036632,6.759711]]],[[[72.913259,6.764879],[72.912283,6.760159],[72.914317,6.759223],[72.913259,6.764879]]],[[[73.159516,6.786526],[73.131684,6.725043],[73.152843,6.749213],[73.166515,6.780341],[73.159516,6.786526]]]]}}
