{"type":"Feature","properties":{"iso_id":"MW-KR","iso_name":"Karonga District","name":"Karonga District","source":"iso-3166-2-placeholder-circle"},"geometry":{"type":"Polygon","coordinates":[[[34.25,-10.0],[34.240393,-9.902455],[34.21194,-9.808658],[34.165735,-9.722215],[34.103553,-9.646447],[34.027785,-9.584265],[33.941342,-9.53806],[33.847545,-9.509607],[33.75,-9.5],[33.652455,-9.509607],[33.558658,-9.53806],[33.472215,-9.584265],[33.396447,-9.646447],[33.334265,-9.722215],[33.28806,-9.808658],[33.259607,-9.902455],[33.25,-10.0],[33.259607,-10.097545],[33.28806,-10.191342],[33.334265,-10.277785],[33.396447,-10.353553],[33.472215,-10.415735],[33.558658,-10.46194],[33.652455,-10.490393],[33.75,-10.5],[33.847545,-10.490393],[33.941342,-10.46194],[34.027785,-10.415735],[34.103553,-10.353553],[34.165735,-10.277785],[34.21194,-10.191342],[34.240393,-10.097545],[34.25,-10.0]]]}}
