{"type":"Feature","properties":{"featurecla":"Admin-1 states provinces","scalerank":8,"adm1_code":"MWI-1920","diss_me":1920,"iso_3166_2":"MW-ZO","wikipedia":null,"iso_a2":"MW","adm0_sr":1,"name":"Zomba","name_alt":null,"name_local":null,"type":"District","type_en":"District","code_local":null,"code_hasc":"MW.ZO","note":null,"hasc_maybe":null,"region":"Southern","region_cod":"MWI-STH","provnum_ne":19,"gadm_level":1,"check_me":0,"datarank":8,"abbrev":null,"postal":"ZO","area_sqkm":0,"sameascity":-99,"labelrank":8,"name_len":5,"mapcolor9":4,"mapcolor13":5,"fips":"MI23","fips_alt":null,"woe_id":20070140,"woe_label":"Zomba, MW, Malawi","woe_name":"Zomba","latitude":-15.4526,"longitude":35.4256,"sov_a3":"MWI","adm0_a3":"MWI","adm0_label":2,"admin":"Malawi","geonunit":"Malawi","gu_a3":"MWI","gn_id":923292,"gn_name":"Zomba District","gns_id":-1487599,"gns_name":"Zomba","gn_level":2,"gn_region":null,"gn_a1_code":"MW.23","region_sub":null,"sub_code":null,"gns_level":1,"gns_lang":"eng","gns_adm1":"MI23","gns_region":null,"min_label":8.7,"max_label":11.0,"min_zoom":8.7,"wikidataid":"Q1058442","name_ar":"زومبا","name_bn":"জম্বা","name_de":"Zomba","name_en":"Zomba","name_es":"Zomba","name_fr":"Zomba","name_el":"Ζόμπα","name_hi":"ज़ोंबा","name_hu":"Zomba","name_id":"Zomba","name_it":"Zomba","name_ja":"ゾンバ県","name_ko":"좀바 현","name_nl":"Zomba","name_pl":"Zomba","name_pt":"Zomba","name_ru":"Зомба","name_sv":"Zomba","name_tr":"Zomba","name_vi":"Zomba","name_zh":"松巴县","ne_id":1159311235,"name_he":"זומבה","name_uk":"Зомба","name_ur":"زومبا","name_fa":"بخش زومبا","name_zht":"松巴縣","FCLASS_ISO":null,"FCLASS_US":null,"FCLASS_FR":null,"FCLASS_RU":null,"FCLASS_ES":null,"FCLASS_CN":null,"FCLASS_TW":null,"FCLASS_IN":null,"FCLASS_NP":null,"FCLASS_PK":null,"FCLASS_DE":null,"FCLASS_GB":null,"FCLASS_BR":null,"FCLASS_IL":null,"FCLASS_PS":null,"FCLASS_SA":null,"FCLASS_EG":null,"FCLASS_MA":null,"FCLASS_PT":null,"FCLASS_AR":null,"FCLASS_JP":null,"FCLASS_KO":null,"FCLASS_VN":null,"FCLASS_TR":null,"FCLASS_ID":null,"FCLASS_PL":null,"FCLASS_GR":null,"FCLASS_IT":null,"FCLASS_NL":null,"FCLASS_SE":null,"FCLASS_BD":null,"FCLASS_UA":null,"FCLASS_TLC":null,"iso_id":"MW-ZO","iso_name":"Zomba","source":"iso-3166-2-subdivisions"},"geometry":{"type":"Polygon","coordinates":[[[35.788583,-15.211428],[35.530627,-15.207082],[35.501585,-15.228166],[35.454405,-15.241963],[35.342215,-15.212249],[35.295655,-15.245167],[35.240774,-15.234625],[35.202275,-15.258345],[35.185067,-15.253281],[35.172613,-15.230181],[35.12719,-15.271471],[35.094892,-15.314517],[35.054636,-15.324594],[35.011073,-15.351001],[35.031898,-15.388363],[35.054688,-15.407225],[35.097372,-15.465567],[35.139282,-15.475799],[35.11396,-15.515383],[35.113185,-15.529336],[35.123779,-15.537036],[35.163156,-15.536984],[35.193129,-15.524995],[35.20119,-15.565768],[35.236434,-15.585922],[35.258138,-15.630777],[35.284338,-15.661421],[35.340665,-15.683435],[35.457505,-15.665969],[35.526597,-15.606696],[35.547681,-15.5683],[35.623077,-15.521998],[35.660955,-15.485463],[35.723174,-15.4635],[35.837558,-15.459199],[35.84053,-15.417197],[35.788583,-15.211428]]]}}
