{"type":"Feature","properties":{"featurecla":"Admin-1 states provinces","scalerank":4,"adm1_code":"MEX-2725","diss_me":2725,"iso_3166_2":"MX-TAB","wikipedia":null,"iso_a2":"MX","adm0_sr":1,"name":"Tabasco","name_alt":null,"name_local":null,"type":"Estado","type_en":"State","code_local":null,"code_hasc":"MX.TB","note":null,"hasc_maybe":null,"region":null,"region_cod":null,"provnum_ne":20018,"gadm_level":1,"check_me":20,"datarank":2,"abbrev":null,"postal":"TB","area_sqkm":0,"sameascity":-99,"labelrank":4,"name_len":7,"mapcolor9":7,"mapcolor13":3,"fips":"MX27","fips_alt":"MX27","woe_id":2346290,"woe_label":"Tabasco, MX, Mexico","woe_name":"Tabasco","latitude":18.1252,"longitude":-92.8274,"sov_a3":"MEX","adm0_a3":"MEX","adm0_label":2,"admin":"Mexico","geonunit":"Mexico","gu_a3":"MEX","gn_id":3516458,"gn_name":"Estado de Tabasco","gns_id":-1703728,"gns_name":"Tabasco, Estado de","gn_level":1,"gn_region":null,"gn_a1_code":"MX.27","region_sub":null,"sub_code":null,"gns_level":1,"gns_lang":"zho","gns_adm1":"MX27","gns_region":null,"min_label":6.6,"max_label":11.0,"min_zoom":6.6,"wikidataid":"Q80914","name_ar":"تاباسكو","name_bn":"তাবাসকো","name_de":"Tabasco","name_en":"Tabasco","name_es":"Tabasco","name_fr":"Tabasco","name_el":"Ταμπάσκο","name_hi":"टबैस्को","name_hu":"Tabasco","name_id":"Tabasco","name_it":"Tabasco","name_ja":"タバスコ州","name_ko":"타바스코","name_nl":"Tabasco","name_pl":"Tabasco","name_pt":"Tabasco","name_ru":"Табаско","name_sv":"Tabasco","name_tr":"Tabasco","name_vi":"Tabasco","name_zh":"塔巴斯科州","ne_id":1159314083,"name_he":"טבסקו","name_uk":"Табаско","name_ur":"تاباسکو","name_fa":"ایالت تاباسکو","name_zht":"塔巴斯科州","FCLASS_ISO":null,"FCLASS_US":null,"FCLASS_FR":null,"FCLASS_RU":null,"FCLASS_ES":null,"FCLASS_CN":null,"FCLASS_TW":null,"FCLASS_IN":null,"FCLASS_NP":null,"FCLASS_PK":null,"FCLASS_DE":null,"FCLASS_GB":null,"FCLASS_BR":null,"FCLASS_IL":null,"FCLASS_PS":null,"FCLASS_SA":null,"FCLASS_EG":null,"FCLASS_MA":null,"FCLASS_PT":null,"FCLASS_AR":null,"FCLASS_JP":null,"FCLASS_KO":null,"FCLASS_VN":null,"FCLASS_TR":null,"FCLASS_ID":null,"FCLASS_PL":null,"FCLASS_GR":null,"FCLASS_IT":null,"FCLASS_NL":null,"FCLASS_SE":null,"FCLASS_BD":null,"FCLASS_UA":null,"FCLASS_TLC":null,"iso_id":"MX-TAB","iso_name":"Tabasco"},"geometry":{"type":"Polygon","coordinates":[[[-90.991676,17.968206],[-91.109446,17.972805],[-91.123709,17.975802],[-91.150271,18.00009],[-91.167996,18.006808],[-91.187633,18.008462],[-91.227372,18.006446],[-91.245665,18.010632],[-91.264631,18.021278],[-91.315997,18.058433],[-91.331965,18.066856],[-91.349328,18.07192],[-91.390411,18.0759],[-91.476556,18.102203],[-91.540841,18.10458],[-91.568746,18.10365],[-91.5889,18.097862],[-91.603059,18.067166],[-91.604093,18.056314],[-91.599856,18.026342],[-91.604713,18.008772],[-91.624764,17.961488],[-91.633083,17.950894],[-91.827645,17.951669],[-91.859323,17.953581],[-91.890949,17.966656],[-91.965415,18.010839],[-91.97513,18.041638],[-91.994043,18.052593],[-92.022259,18.063239],[-92.047942,18.078328],[-92.071093,18.094503],[-92.115896,18.130418],[-92.141218,18.146076],[-92.155636,18.168814],[-92.158064,18.207726],[-92.151967,18.278626],[-92.149073,18.461871],[-92.242349,18.457737],[-92.289943,18.457633],[-92.334178,18.463731],[-92.343428,18.463214],[-92.357587,18.457013],[-92.368077,18.460786],[-92.400323,18.485229],[-92.416498,18.503315],[-92.424508,18.527138],[-92.429676,18.552821],[-92.437272,18.576334],[-92.463885,18.612198],[-92.486144,18.648483],[-92.588979,18.624905],[-92.610829,18.621812],[-92.656321,18.624254],[-92.68102,18.62287],[-92.695872,18.615627],[-92.692983,18.602525],[-92.668365,18.556545],[-92.662262,18.535834],[-92.669423,18.494208],[-92.670277,18.472846],[-92.662262,18.457343],[-92.669097,18.429389],[-92.6822,18.455959],[-92.690256,18.552924],[-92.703277,18.584296],[-92.707509,18.590888],[-92.716908,18.59219],[-92.726308,18.587633],[-92.73058,18.577135],[-92.738393,18.564195],[-92.759307,18.536672],[-92.806789,18.494094],[-92.855731,18.466047],[-92.93977,18.445741],[-93.101145,18.443061],[-93.121938,18.437934],[-93.137603,18.42886],[-93.139394,18.420233],[-93.118235,18.416327],[-93.095937,18.408881],[-93.088368,18.392768],[-93.094797,18.378119],[-93.114817,18.374823],[-93.10733,18.368598],[-93.114125,18.36164],[-93.128489,18.340644],[-93.135325,18.340644],[-93.13386,18.354885],[-93.122548,18.373969],[-93.121653,18.389065],[-93.13036,18.382229],[-93.145253,18.374457],[-93.160471,18.368964],[-93.170033,18.368598],[-93.176422,18.377672],[-93.178375,18.400377],[-93.183095,18.408922],[-93.173085,18.413642],[-93.165679,18.421536],[-93.155751,18.436835],[-93.155751,18.443061],[-93.305531,18.437934],[-93.444692,18.441799],[-93.552358,18.429389],[-93.596669,18.419908],[-93.781972,18.352973],[-93.793202,18.344062],[-93.801869,18.333686],[-93.82079,18.327541],[-93.839589,18.318549],[-93.847808,18.299709],[-93.836822,18.309312],[-93.814117,18.312079],[-93.803456,18.317084],[-93.769032,18.340644],[-93.724924,18.34748],[-93.718739,18.351874],[-93.710072,18.363349],[-93.703847,18.368598],[-93.63268,18.390448],[-93.615549,18.404975],[-93.60261,18.411038],[-93.580312,18.416327],[-93.576405,18.411851],[-93.56664,18.389065],[-93.581207,18.356269],[-93.592844,18.344957],[-93.657216,18.333319],[-93.677561,18.336412],[-93.683949,18.354926],[-93.696401,18.346177],[-93.710601,18.339586],[-93.725209,18.337104],[-93.738596,18.340644],[-93.762522,18.32392],[-93.766754,18.314846],[-93.75886,18.3015],[-93.759104,18.292222],[-93.767445,18.281195],[-93.781117,18.272773],[-93.798207,18.267483],[-93.878285,18.256903],[-93.888783,18.262152],[-93.885406,18.276068],[-93.868316,18.295803],[-93.86148,18.306545],[-93.972564,18.272121],[-93.991811,18.262152],[-94.007802,18.24844],[-94.084584,18.232245],[-94.111643,18.220852],[-94.137073,18.207436],[-94.133551,18.198114],[-94.130605,18.176514],[-94.125593,18.16747],[-94.115568,18.162768],[-94.104561,18.161941],[-94.096034,18.15822],[-94.093502,18.145198],[-94.095827,18.119463],[-94.093708,18.10613],[-94.077792,18.089594],[-94.080531,18.083341],[-94.086835,18.07776],[-94.089781,18.072747],[-94.086835,18.066494],[-94.072004,18.047219],[-94.067819,18.016213],[-94.050765,17.993682],[-94.057793,17.98004],[-94.069214,17.966087],[-94.0734,17.951204],[-94.079084,17.905367],[-94.076707,17.88201],[-94.062289,17.868729],[-94.039242,17.867954],[-94.032834,17.865783],[-94.029371,17.861494],[-94.023377,17.84718],[-94.010613,17.841805],[-93.97046,17.832297],[-93.949686,17.810748],[-93.946224,17.782998],[-93.93687,17.758555],[-93.898372,17.746772],[-93.877236,17.746462],[-93.862146,17.744499],[-93.853051,17.736127],[-93.849847,17.716903],[-93.846023,17.710289],[-93.813984,17.707343],[-93.787422,17.699592],[-93.758587,17.68812],[-93.733782,17.67148],[-93.708564,17.631431],[-93.687893,17.607814],[-93.666189,17.586472],[-93.65203,17.576085],[-93.622678,17.563011],[-93.614823,17.546526],[-93.625623,17.501413],[-93.634873,17.452165],[-93.642263,17.429066],[-93.6434,17.420797],[-93.637044,17.401367],[-93.624435,17.389275],[-93.607847,17.381627],[-93.589502,17.375529],[-93.535241,17.490251],[-93.52227,17.528749],[-93.517465,17.534537],[-93.511418,17.546371],[-93.505837,17.552986],[-93.479224,17.570762],[-93.475142,17.570659],[-93.472609,17.572829],[-93.470542,17.590089],[-93.467493,17.595981],[-93.457417,17.607556],[-93.414422,17.637683],[-93.401141,17.67117],[-93.393441,17.70631],[-93.358094,17.825527],[-93.338664,17.884542],[-93.31572,17.942213],[-93.313446,17.963865],[-93.301664,17.967431],[-93.294842,17.972082],[-93.282388,17.98805],[-93.27102,17.993682],[-93.256499,17.992287],[-93.231487,17.984329],[-93.195882,17.978955],[-93.186477,17.974407],[-93.166168,17.960816],[-93.142087,17.949551],[-93.120435,17.922111],[-93.087568,17.900303],[-93.054547,17.89467],[-93.032223,17.915444],[-93.010777,17.912447],[-92.99791,17.932911],[-92.994602,17.90945],[-92.989848,17.827388],[-92.990882,17.809714],[-92.994757,17.794108],[-93.006643,17.765324],[-93.011139,17.748839],[-93.010725,17.708273],[-92.991967,17.627813],[-92.991864,17.586214],[-92.989745,17.561254],[-92.98313,17.542134],[-92.968713,17.531488],[-92.943184,17.531592],[-92.910215,17.525804],[-92.89373,17.506064],[-92.882258,17.478262],[-92.864274,17.448083],[-92.842157,17.416612],[-92.829341,17.401832],[-92.815285,17.389792],[-92.787277,17.374134],[-92.755237,17.364263],[-92.723198,17.365607],[-92.695448,17.383539],[-92.579331,17.486116],[-92.493186,17.558257],[-92.459286,17.592983],[-92.439494,17.607349],[-92.383012,17.623317],[-92.375209,17.640732],[-92.376242,17.665227],[-92.368077,17.696853],[-92.343479,17.712976],[-92.309011,17.723931],[-92.241677,17.739279],[-92.216459,17.748426],[-92.191654,17.760157],[-92.168451,17.773541],[-92.148142,17.787803],[-92.116827,17.783359],[-92.080756,17.787287],[-92.060809,17.802635],[-92.077811,17.832762],[-92.025359,17.886299],[-91.995594,17.904747],[-91.966862,17.909243],[-91.953529,17.902318],[-91.953942,17.867799],[-91.942935,17.854001],[-91.935959,17.863458],[-91.926244,17.882268],[-91.914978,17.888159],[-91.899941,17.889296],[-91.886195,17.886092],[-91.860408,17.874465],[-91.840358,17.889089],[-91.818757,17.88542],[-91.799223,17.869349],[-91.785271,17.84656],[-91.78403,17.840203],[-91.785271,17.820463],[-91.779379,17.80496],[-91.775555,17.774316],[-91.791265,17.745946],[-91.794262,17.728841],[-91.78155,17.720882],[-91.739279,17.721606],[-91.718815,17.719901],[-91.698144,17.713596],[-91.679747,17.685277],[-91.666725,17.651016],[-91.65086,17.582183],[-91.64962,17.570917],[-91.651739,17.541927],[-91.644711,17.524925],[-91.627864,17.513557],[-91.516553,17.473714],[-91.509835,17.467823],[-91.500688,17.463586],[-91.49273,17.457074],[-91.492369,17.441985],[-91.497278,17.412374],[-91.492317,17.40147],[-91.480328,17.394029],[-91.465652,17.389792],[-91.452578,17.388448],[-91.431442,17.389378],[-91.423742,17.385657],[-91.414751,17.374805],[-91.391083,17.336565],[-91.387414,17.333258],[-91.390979,17.318892],[-91.401935,17.316308],[-91.416094,17.317031],[-91.429013,17.312742],[-91.434749,17.303027],[-91.438832,17.287627],[-91.439762,17.271091],[-91.435835,17.25812],[-91.433267,17.254538],[-90.991986,17.25192],[-90.991676,17.968206]]]}}
