{"type":"Feature","properties":{"featurecla":"Admin-1 states provinces","scalerank":6,"adm1_code":"MYS-4833","diss_me":4833,"iso_3166_2":"MY-15","wikipedia":"http://en.wikipedia.org/wiki/Labuan","iso_a2":"MY","adm0_sr":5,"name":"Labuan","name_alt":"North Borneo","name_local":null,"type":"Federal Territory","type_en":"Federal Territory","code_local":null,"code_hasc":"MY.LA","note":null,"hasc_maybe":null,"region":null,"region_cod":null,"provnum_ne":0,"gadm_level":1,"check_me":20,"datarank":6,"abbrev":null,"postal":"LA","area_sqkm":0,"sameascity":-99,"labelrank":6,"name_len":6,"mapcolor9":3,"mapcolor13":6,"fips":"MY15","fips_alt":null,"woe_id":2346309,"woe_label":"Labuan, MY, Malaysia","woe_name":"Labuan","latitude":5.32524,"longitude":115.222,"sov_a3":"MYS","adm0_a3":"MYS","adm0_label":2,"admin":"Malaysia","geonunit":"Malaysia","gu_a3":"MYS","gn_id":1734240,"gn_name":"Labuan","gns_id":-2403942,"gns_name":"Labuan,Wilayah Persekutuan","gn_level":1,"gn_region":null,"gn_a1_code":"MY.15","region_sub":null,"sub_code":null,"gns_level":1,"gns_lang":"mly","gns_adm1":"MY15","gns_region":null,"min_label":7.0,"max_label":11.0,"min_zoom":7.0,"wikidataid":"Q214504","name_ar":"لابوان","name_bn":"লাবুয়ান","name_de":"Labuan","name_en":"Labuan","name_es":"Labuan","name_fr":"Labuan","name_el":"Λαμπουάν","name_hi":"लबूअन","name_hu":"Labuan","name_id":"Labuan","name_it":"Labuan","name_ja":"ラブアン","name_ko":"라부안","name_nl":"Labuan","name_pl":"Labuan","name_pt":"Labuan","name_ru":"Лабуан","name_sv":"Labuan","name_tr":"Labuan","name_vi":"Labuan","name_zh":"纳闽","ne_id":1159315889,"name_he":"לבואן","name_uk":"Лабуан","name_ur":"لابوان","name_fa":"لابوآن","name_zht":"納閩","FCLASS_ISO":null,"FCLASS_US":null,"FCLASS_FR":null,"FCLASS_RU":null,"FCLASS_ES":null,"FCLASS_CN":null,"FCLASS_TW":null,"FCLASS_IN":null,"FCLASS_NP":null,"FCLASS_PK":null,"FCLASS_DE":null,"FCLASS_GB":null,"FCLASS_BR":null,"FCLASS_IL":null,"FCLASS_PS":null,"FCLASS_SA":null,"FCLASS_EG":null,"FCLASS_MA":null,"FCLASS_PT":null,"FCLASS_AR":null,"FCLASS_JP":null,"FCLASS_KO":null,"FCLASS_VN":null,"FCLASS_TR":null,"FCLASS_ID":null,"FCLASS_PL":null,"FCLASS_GR":null,"FCLASS_IT":null,"FCLASS_NL":null,"FCLASS_SE":null,"FCLASS_BD":null,"FCLASS_UA":null,"FCLASS_TLC":null,"iso_id":"MY-15","iso_name":"Labuan"},"geometry":{"type":"Polygon","coordinates":[[[115.248546,5.365465],[115.24171,5.387397],[115.226085,5.381049],[115.197276,5.354641],[115.189138,5.344794],[115.160899,5.266995],[115.15919,5.252183],[115.184255,5.267035],[115.204112,5.283596],[115.21225,5.28498],[115.231944,5.273139],[115.24171,5.272691],[115.259288,5.291205],[115.259776,5.315375],[115.248546,5.365465]]]}}
