{"type":"Feature","properties":{"featurecla":"Admin-1 states provinces","scalerank":6,"adm1_code":"MYS-1148","diss_me":1148,"iso_3166_2":"MY-10","wikipedia":null,"iso_a2":"MY","adm0_sr":5,"name":"Selangor","name_alt":"Selangor Darul Ehsan","name_local":null,"type":"State","type_en":"State","code_local":null,"code_hasc":"MY.SL","note":null,"hasc_maybe":null,"region":null,"region_cod":null,"provnum_ne":4,"gadm_level":1,"check_me":20,"datarank":6,"abbrev":null,"postal":"SL","area_sqkm":0,"sameascity":-99,"labelrank":6,"name_len":8,"mapcolor9":3,"mapcolor13":6,"fips":"MY12","fips_alt":null,"woe_id":2346306,"woe_label":"Selangor, MY, Malaysia","woe_name":"Selangor","latitude":3.3078,"longitude":101.428,"sov_a3":"MYS","adm0_a3":"MYS","adm0_label":2,"admin":"Malaysia","geonunit":"Malaysia","gu_a3":"MYS","gn_id":1733037,"gn_name":"Selangor","gns_id":-2405168,"gns_name":"Selangor, Negeri","gn_level":1,"gn_region":null,"gn_a1_code":"MY.12","region_sub":null,"sub_code":null,"gns_level":1,"gns_lang":"fil","gns_adm1":"MY12","gns_region":null,"min_label":7.0,"max_label":11.0,"min_zoom":7.0,"wikidataid":"Q189710","name_ar":"سلاغور","name_bn":"সেলাঙ্গর","name_de":"Selangor","name_en":"Selangor","name_es":"Selangor","name_fr":"Selangor","name_el":"Σελάνγκορ","name_hi":"सेलांगोर","name_hu":"Selangor","name_id":"Selangor","name_it":"Selangor","name_ja":"セランゴール州","name_ko":"슬랑오르","name_nl":"Selangor","name_pl":"Selangor","name_pt":"Selangor","name_ru":"Селангор","name_sv":"Selangor","name_tr":"Selangor","name_vi":"Selangor","name_zh":"雪兰莪","ne_id":1159310027,"name_he":"סלנגור","name_uk":"Селангор","name_ur":"سلنگور","name_fa":"سلانگور","name_zht":"雪蘭莪","FCLASS_ISO":null,"FCLASS_US":null,"FCLASS_FR":null,"FCLASS_RU":null,"FCLASS_ES":null,"FCLASS_CN":null,"FCLASS_TW":null,"FCLASS_IN":null,"FCLASS_NP":null,"FCLASS_PK":null,"FCLASS_DE":null,"FCLASS_GB":null,"FCLASS_BR":null,"FCLASS_IL":null,"FCLASS_PS":null,"FCLASS_SA":null,"FCLASS_EG":null,"FCLASS_MA":null,"FCLASS_PT":null,"FCLASS_AR":null,"FCLASS_JP":null,"FCLASS_KO":null,"FCLASS_VN":null,"FCLASS_TR":null,"FCLASS_ID":null,"FCLASS_PL":null,"FCLASS_GR":null,"FCLASS_IT":null,"FCLASS_NL":null,"FCLASS_SE":null,"FCLASS_BD":null,"FCLASS_UA":null,"FCLASS_TLC":null,"iso_id":"MY-10","iso_name":"Selangor","source":"iso-3166-2-subdivisions"},"geometry":{"type":"MultiPolygon","coordinates":[[[[101.721201,2.59585],[101.739971,2.670793],[101.772579,2.738154],[101.759505,2.862823],[101.855106,2.856777],[101.879963,2.87104],[101.888489,2.880832],[101.902545,2.939407],[101.931329,2.965943],[101.942026,3.01762],[101.964505,3.037076],[101.955979,3.08945],[101.961715,3.142522],[101.945437,3.179444],[101.945747,3.221277],[101.933499,3.249053],[101.922182,3.259905],[101.883993,3.265279],[101.830302,3.289154],[101.764983,3.373257],[101.785911,3.425786],[101.765603,3.499502],[101.786222,3.541154],[101.805497,3.553194],[101.813972,3.588489],[101.771649,3.668949],[101.7316,3.693858],[101.668141,3.715742],[101.626851,3.77176],[101.606078,3.763982],[101.543239,3.688819],[101.510631,3.675926],[101.46159,3.715639],[101.442005,3.746852],[101.410586,3.756851],[101.380303,3.788968],[101.3617,3.794472],[101.334053,3.787728],[101.325061,3.76623],[101.34506,3.720548],[101.347075,3.703314],[101.337463,3.689517],[101.306303,3.673678],[101.265633,3.668252],[101.252456,3.677864],[101.249458,3.711066],[101.240467,3.716673],[101.215197,3.70936],[101.196852,3.722796],[101.174941,3.715174],[101.15887,3.735974],[101.145537,3.73016],[101.132773,3.752588],[101.109364,3.733493],[101.094171,3.737137],[101.080683,3.730315],[101.081717,3.747937],[101.104351,3.750572],[101.092465,3.776333],[101.061718,3.75313],[101.058462,3.785712],[101.035053,3.78424],[101.019808,3.800233],[100.993763,3.792766],[100.983325,3.773155],[100.968442,3.773155],[100.965341,3.786333],[100.976245,3.80628],[100.943327,3.833281],[100.939452,3.861057],[100.840569,3.842808],[100.823741,3.827094],[100.812266,3.786566],[100.822927,3.776068],[100.86964,3.768012],[100.886485,3.756334],[100.933604,3.689276],[101.040538,3.621975],[101.05714,3.600531],[101.074229,3.53441],[101.108409,3.473944],[101.139659,3.442857],[101.197602,3.35932],[101.235688,3.344143],[101.248871,3.319973],[101.297618,3.274604],[101.323416,3.124457],[101.365001,3.076361],[101.372813,3.002346],[101.332774,2.972357],[101.283051,2.9112],[101.281016,2.897854],[101.303477,2.894843],[101.286388,2.849677],[101.310557,2.833564],[101.399181,2.819078],[101.430186,2.792467],[101.502778,2.689399],[101.542328,2.661282],[101.673513,2.627265],[101.721201,2.59585]],[[101.716407,3.206135],[101.746172,3.214688],[101.763122,3.175956],[101.741831,3.126321],[101.75196,3.052217],[101.727879,3.026921],[101.716872,3.037929],[101.662095,3.040745],[101.656049,3.061829],[101.66535,3.085884],[101.653878,3.11397],[101.626076,3.140506],[101.621735,3.178824],[101.640649,3.215385],[101.665144,3.231741],[101.716407,3.206135]],[[101.681473,2.874243],[101.666901,2.893932],[101.677908,2.91884],[101.671552,2.960362],[101.712996,2.981214],[101.715942,2.96354],[101.731134,2.946306],[101.730359,2.928865],[101.702867,2.888584],[101.681473,2.874243]]],[[[101.271169,3.046454],[101.262869,3.056342],[101.244395,3.049018],[101.23699,3.035061],[101.243826,3.02619],[101.259613,3.030219],[101.271169,3.046454]]],[[[101.336192,3.065009],[101.323497,3.071112],[101.305919,3.063951],[101.268077,2.982123],[101.268077,2.965155],[101.335297,3.009019],[101.336192,3.065009]]]]}}
