{"type":"Feature","properties":{"featurecla":"Admin-1 states provinces","scalerank":4,"adm1_code":"NAM-3347","diss_me":3347,"iso_3166_2":"NA-KU","wikipedia":null,"iso_a2":"NA","adm0_sr":1,"name":"Kunene","name_alt":null,"name_local":null,"type":"Region","type_en":"Region","code_local":null,"code_hasc":"NA.KU","note":"Was reorganized from 26 districts into 13 regions.","hasc_maybe":null,"region":null,"region_cod":"NAM-DMR","provnum_ne":20001,"gadm_level":1,"check_me":10,"datarank":6,"abbrev":null,"postal":"KU","area_sqkm":0,"sameascity":-99,"labelrank":4,"name_len":6,"mapcolor9":1,"mapcolor13":7,"fips":"WA32","fips_alt":"WA32","woe_id":20069839,"woe_label":"Kunene, NA, Namibia","woe_name":"Kunene","latitude":-19.8757,"longitude":13.9847,"sov_a3":"NAM","adm0_a3":"NAM","adm0_label":2,"admin":"Namibia","geonunit":"Namibia","gu_a3":"NAM","gn_id":3371202,"gn_name":"Kunene","gns_id":311106,"gns_name":"Kunene","gn_level":1,"gn_region":null,"gn_a1_code":"NA.32","region_sub":null,"sub_code":"WA22","gns_level":1,"gns_lang":"slv","gns_adm1":"WA32","gns_region":null,"min_label":6.0,"max_label":11.0,"min_zoom":6.0,"wikidataid":"Q834513","name_ar":"اقليم كونيني","name_bn":"কুনেনে অঞ্চল","name_de":"Kunene","name_en":"Kunene","name_es":"Kunene","name_fr":"Kunene","name_el":"Κουνένε","name_hi":"कुनेने प्रदेश","name_hu":"Kunene","name_id":"Wilayah Kunene","name_it":"Kunene","name_ja":"クネネ州","name_ko":"쿠네네","name_nl":"Kunene","name_pl":"Kunene","name_pt":"Kunene","name_ru":"Кунене","name_sv":"Kunene","name_tr":"Kunene","name_vi":"Khu vực Kunene","name_zh":"库内内区","ne_id":1159314947,"name_he":"קוננה","name_uk":"Кунене","name_ur":"کونینے علاقہ","name_fa":"منطقه کوننه","name_zht":"庫內內區","FCLASS_ISO":null,"FCLASS_US":null,"FCLASS_FR":null,"FCLASS_RU":null,"FCLASS_ES":null,"FCLASS_CN":null,"FCLASS_TW":null,"FCLASS_IN":null,"FCLASS_NP":null,"FCLASS_PK":null,"FCLASS_DE":null,"FCLASS_GB":null,"FCLASS_BR":null,"FCLASS_IL":null,"FCLASS_PS":null,"FCLASS_SA":null,"FCLASS_EG":null,"FCLASS_MA":null,"FCLASS_PT":null,"FCLASS_AR":null,"FCLASS_JP":null,"FCLASS_KO":null,"FCLASS_VN":null,"FCLASS_TR":null,"FCLASS_ID":null,"FCLASS_PL":null,"FCLASS_GR":null,"FCLASS_IT":null,"FCLASS_NL":null,"FCLASS_SE":null,"FCLASS_BD":null,"FCLASS_UA":null,"FCLASS_TLC":null,"iso_id":"NA-KU","iso_name":"Kunene","source":"iso-3166-2-subdivisions"},"geometry":{"type":"Polygon","coordinates":[[[13.166307,-16.951057],[13.014275,-16.977929],[12.961668,-17.007385],[12.887151,-17.029812],[12.876402,-17.059784],[12.842296,-17.074047],[12.818318,-17.104846],[12.739873,-17.135542],[12.685923,-17.173576],[12.63621,-17.185151],[12.56717,-17.234554],[12.46051,-17.223082],[12.417929,-17.203445],[12.379482,-17.220395],[12.242642,-17.224839],[12.23179,-17.201895],[12.190656,-17.182568],[12.177117,-17.154766],[12.16151,-17.146291],[12.13991,-17.156006],[12.08813,-17.139159],[11.98302,-17.161897],[11.853932,-17.233417],[11.82241,-17.264423],[11.766124,-17.252699],[11.755138,-17.266697],[11.72169,-17.467869],[11.717621,-17.546319],[11.760941,-17.786424],[11.784037,-17.859645],[11.796911,-17.956089],[11.826524,-18.03922],[11.83364,-18.098045],[11.849082,-18.143183],[11.937348,-18.23211],[11.976085,-18.329767],[11.999522,-18.361912],[11.999522,-18.403497],[12.031889,-18.50535],[12.102061,-18.545994],[12.174731,-18.627939],[12.286876,-18.697686],[12.450043,-18.904555],[12.470388,-18.997654],[12.516449,-19.03753],[12.567393,-19.102309],[12.615733,-19.217543],[12.679698,-19.31406],[12.686046,-19.359796],[12.7046,-19.410821],[12.875987,-19.712009],[12.918468,-19.765558],[12.927745,-19.794692],[13.005382,-19.935479],[13.037345,-20.059465],[13.07088,-20.114229],[13.114425,-20.142573],[13.154633,-20.154229],[13.177745,-20.189223],[13.213064,-20.27337],[13.262706,-20.485121],[13.349457,-20.644464],[13.37672,-20.733575],[13.397634,-20.849298],[13.417735,-20.883884],[13.459158,-20.918064],[13.471934,-20.955011],[13.628103,-21.187595],[13.692116,-21.14982],[13.73542,-21.134059],[13.760328,-21.107187],[13.830505,-21.089979],[13.841357,-21.071272],[13.870709,-21.06476],[13.904402,-21.036545],[13.980057,-21.010862],[14.03101,-21.008898],[14.079275,-20.987711],[14.136326,-20.979288],[14.173326,-20.961511],[14.208053,-20.959341],[14.28288,-20.988486],[14.371867,-20.966317],[14.414759,-20.969934],[14.458374,-20.992465],[14.540746,-20.98399],[14.590872,-21.001508],[14.678205,-21.004247],[14.728951,-20.999338],[14.788999,-20.979288],[14.871682,-20.922495],[14.912713,-20.916346],[14.961599,-20.865858],[14.988264,-20.853197],[15.050792,-20.802296],[15.120349,-20.764107],[15.141123,-20.733773],[15.288711,-20.60484],[15.384415,-20.487225],[15.456142,-20.494563],[15.493349,-20.530581],[15.555981,-20.553836],[15.766924,-20.583343],[15.857668,-20.545722],[15.935596,-20.463764],[15.968772,-20.442369],[16.039052,-20.415394],[16.120288,-20.412035],[16.191808,-20.385267],[16.253716,-20.404129],[16.309113,-20.378497],[16.316555,-20.352918],[16.307977,-20.226465],[16.313144,-20.219179],[16.502073,-20.124094],[16.547755,-20.121769],[16.530185,-20.069782],[16.533182,-20.000226],[16.627234,-19.99728],[16.654829,-19.990201],[16.710639,-19.954957],[16.701958,-19.917182],[16.71281,-19.551209],[16.702991,-19.491265],[16.631368,-19.451732],[16.567909,-19.436023],[16.507551,-19.435092],[16.322239,-19.409254],[16.18788,-19.370859],[15.94004,-19.330654],[15.860872,-19.289468],[15.825629,-19.282285],[15.704396,-19.27474],[15.536861,-19.239342],[15.314239,-19.24606],[15.317029,-19.191335],[15.210783,-19.222806],[15.089136,-19.206218],[14.858763,-19.235776],[14.583224,-19.237844],[14.536198,-19.24668],[14.538369,-19.329104],[14.594386,-19.326675],[14.592629,-19.380367],[14.574232,-19.417626],[14.448969,-19.414525],[14.457857,-19.372512],[14.481111,-19.342333],[14.477081,-19.298047],[14.405974,-19.214848],[14.363909,-19.098214],[14.37104,-18.995326],[14.388921,-18.892697],[14.303551,-18.66222],[14.298073,-18.593387],[14.307375,-18.452207],[14.290322,-18.079206],[14.261486,-17.957353],[14.164438,-17.768011],[14.150899,-17.720882],[14.179321,-17.684863],[14.186452,-17.63975],[14.181388,-17.617012],[14.13953,-17.592983],[14.136636,-17.566679],[14.188416,-17.498001],[14.216011,-17.443018],[14.219112,-17.388137],[14.207432,-17.388033],[14.197097,-17.412941],[14.174979,-17.416248],[14.130744,-17.40922],[14.085372,-17.423587],[14.017883,-17.40922],[13.980573,-17.423587],[13.957318,-17.419142],[13.884351,-17.338527],[13.69413,-17.236621],[13.606487,-17.167375],[13.521324,-17.1219],[13.530936,-17.093271],[13.507785,-17.063505],[13.494659,-17.024024],[13.479776,-17.010278],[13.417248,-16.993742],[13.363711,-16.964183],[13.321543,-16.974932],[13.308417,-16.970178],[13.267489,-16.98537],[13.267489,-16.977929],[13.222841,-16.977929],[13.19814,-16.957362],[13.184911,-16.964183],[13.166307,-16.951057]]]}}
