{"type":"Feature","properties":{"featurecla":"Admin-1 states provinces","scalerank":3,"adm1_code":"NGA-3470","diss_me":3470,"iso_3166_2":"NG-FC","wikipedia":null,"iso_a2":"NG","adm0_sr":1,"name":"Federal Capital Territory","name_alt":"Abuja","name_local":null,"type":"State","type_en":"State","code_local":null,"code_hasc":"NG.FC","note":null,"hasc_maybe":null,"region":null,"region_cod":null,"provnum_ne":0,"gadm_level":1,"check_me":20,"datarank":2,"abbrev":null,"postal":"FC","area_sqkm":0,"sameascity":-99,"labelrank":3,"name_len":25,"mapcolor9":5,"mapcolor13":2,"fips":"NI11","fips_alt":null,"woe_id":2346345,"woe_label":"Abuja Capital Territory, NG, Nigeria","woe_name":"Federal Capital Territory","latitude":8.78852,"longitude":7.18889,"sov_a3":"NGA","adm0_a3":"NGA","adm0_label":2,"admin":"Nigeria","geonunit":"Nigeria","gu_a3":"NGA","gn_id":2352776,"gn_name":"Federal Capital Territory","gns_id":-1997015,"gns_name":"Abuja Federal Capital Territory","gn_level":1,"gn_region":null,"gn_a1_code":"NG.11","region_sub":null,"sub_code":null,"gns_level":1,"gns_lang":"fra","gns_adm1":"NI11","gns_region":null,"min_label":6.6,"max_label":11.0,"min_zoom":6.6,"wikidataid":"Q509300","name_ar":"منطقة العاصمة الإتحادية لنيجيريا","name_bn":"ফেডারেল ক্যাপিটাল টেরিটরি","name_de":"Hauptstadtterritorium","name_en":"Federal Capital Territory","name_es":"Territorio de la Capital Federal","name_fr":"Territoire de la capitale fédérale du Nigeria","name_el":"Ομοσπονδιακή Επικράτεια Πρωτεύουσας","name_hi":"संघीय राजधानी क्षेत्र","name_hu":"Federal Capital Territory","name_id":"Wilayah Ibu Kota Federal","name_it":"Territorio della Capitale Federale","name_ja":"連邦首都地区","name_ko":"연방 수도 지구","name_nl":"Federal Capital Territory","name_pl":"Federalne Terytorium Stołeczne","name_pt":"Território da Capital Federal","name_ru":"Федеральная столичная территория","name_sv":"Federal Capital Territory","name_tr":"Federal Başkent Bölgesi","name_vi":"Lãnh thổ Thủ đô liên bang","name_zh":"联邦首都特区","ne_id":1159315159,"name_he":"שטח בירה הפדרלית","name_uk":"Федеральна столична територія","name_ur":"وفاقی دارالحکومت علاقہ، نائجیریا","name_fa":"حوزه فدرال مرکزی","name_zht":"聯邦首都特區","FCLASS_ISO":null,"FCLASS_US":null,"FCLASS_FR":null,"FCLASS_RU":null,"FCLASS_ES":null,"FCLASS_CN":null,"FCLASS_TW":null,"FCLASS_IN":null,"FCLASS_NP":null,"FCLASS_PK":null,"FCLASS_DE":null,"FCLASS_GB":null,"FCLASS_BR":null,"FCLASS_IL":null,"FCLASS_PS":null,"FCLASS_SA":null,"FCLASS_EG":null,"FCLASS_MA":null,"FCLASS_PT":null,"FCLASS_AR":null,"FCLASS_JP":null,"FCLASS_KO":null,"FCLASS_VN":null,"FCLASS_TR":null,"FCLASS_ID":null,"FCLASS_PL":null,"FCLASS_GR":null,"FCLASS_IT":null,"FCLASS_NL":null,"FCLASS_SE":null,"FCLASS_BD":null,"FCLASS_UA":null,"FCLASS_TLC":null,"iso_id":"NG-FC","iso_name":"Federal Capital Territory"},"geometry":{"type":"Polygon","coordinates":[[[7.122284,8.433775],[7.263464,8.471447],[7.392138,8.534777],[7.435857,8.583197],[7.4711,8.639163],[7.514301,8.758897],[7.56112,8.960745],[7.5574,9.058414],[7.55988,9.120606],[7.582928,9.227732],[7.601221,9.260546],[7.612797,9.263983],[7.624786,9.271631],[7.628196,9.290803],[7.625819,9.310698],[7.594193,9.304187],[7.575796,9.338061],[7.540036,9.351419],[7.508204,9.308063],[7.486499,9.291991],[7.461385,9.30243],[7.43379,9.306745],[7.405781,9.307649],[7.3108,9.297443],[7.17024,9.099187],[7.163935,9.097585],[7.116806,9.123681],[7.023375,9.213753],[6.963121,9.232357],[6.778326,9.225174],[6.754038,9.213908],[6.749594,9.185641],[6.758999,8.472248],[6.765096,8.454368],[6.789384,8.412097],[6.834963,8.406774],[6.896251,8.408738],[6.933458,8.404707],[7.122284,8.433775]]]}}
