{"type":"Feature","properties":{"featurecla":"Admin-1 states provinces","scalerank":8,"adm1_code":"NIC-655","diss_me":655,"iso_3166_2":"NI-GR","wikipedia":null,"iso_a2":"NI","adm0_sr":1,"name":"Granada","name_alt":null,"name_local":null,"type":"Departamento","type_en":"Department","code_local":null,"code_hasc":"NI.GR","note":null,"hasc_maybe":null,"region":null,"region_cod":null,"provnum_ne":9,"gadm_level":1,"check_me":0,"datarank":8,"abbrev":null,"postal":"GR","area_sqkm":0,"sameascity":9,"labelrank":9,"name_len":7,"mapcolor9":1,"mapcolor13":9,"fips":"NU06","fips_alt":null,"woe_id":2346422,"woe_label":"Granada, NI, Nicaragua","woe_name":"Granada","latitude":11.8736,"longitude":-85.9698,"sov_a3":"NIC","adm0_a3":"NIC","adm0_label":2,"admin":"Nicaragua","geonunit":"Nicaragua","gu_a3":"NIC","gn_id":3619135,"gn_name":"Departamento de Granada","gns_id":-1111887,"gns_name":"Granada","gn_level":1,"gn_region":null,"gn_a1_code":"NI.06","region_sub":null,"sub_code":null,"gns_level":1,"gns_lang":"fra","gns_adm1":"7","gns_region":null,"min_label":7.7,"max_label":11.0,"min_zoom":7.7,"wikidataid":"Q258405","name_ar":"إدارة غرناطة","name_bn":"গ্র্যানাডা","name_de":"Granada","name_en":"Granada","name_es":"Granada","name_fr":"Granada","name_el":"Γρανάδα","name_hi":"ग्रेनेडा","name_hu":"Granada","name_id":"Departemen Granada","name_it":"dipartimento di Granada","name_ja":"グラナダ県","name_ko":"그라나다","name_nl":"Granada","name_pl":"Granada","name_pt":"Granada","name_ru":"Гранада","name_sv":"Granada","name_tr":"Granada","name_vi":"Granada","name_zh":"格拉納達省","ne_id":1159309065,"name_he":"גרנדה","name_uk":"Гранада","name_ur":"گرینادا محکمہ","name_fa":"بخش گرانادا","name_zht":"格拉納達省","FCLASS_ISO":null,"FCLASS_US":null,"FCLASS_FR":null,"FCLASS_RU":null,"FCLASS_ES":null,"FCLASS_CN":null,"FCLASS_TW":null,"FCLASS_IN":null,"FCLASS_NP":null,"FCLASS_PK":null,"FCLASS_DE":null,"FCLASS_GB":null,"FCLASS_BR":null,"FCLASS_IL":null,"FCLASS_PS":null,"FCLASS_SA":null,"FCLASS_EG":null,"FCLASS_MA":null,"FCLASS_PT":null,"FCLASS_AR":null,"FCLASS_JP":null,"FCLASS_KO":null,"FCLASS_VN":null,"FCLASS_TR":null,"FCLASS_ID":null,"FCLASS_PL":null,"FCLASS_GR":null,"FCLASS_IT":null,"FCLASS_NL":null,"FCLASS_SE":null,"FCLASS_BD":null,"FCLASS_UA":null,"FCLASS_TLC":null,"iso_id":"NI-GR","iso_name":"Granada","source":"iso-3166-2-subdivisions"},"geometry":{"type":"Polygon","coordinates":[[[-85.851498,12.198765],[-85.885062,12.203157],[-85.916481,12.180833],[-86.000507,12.143807],[-85.967305,12.106703],[-85.96405,12.091381],[-86.097814,11.809021],[-86.103473,11.783906],[-86.095514,11.73068],[-86.119105,11.687194],[-86.123213,11.656291],[-86.119441,11.632804],[-86.10169,11.610816],[-86.070581,11.605778],[-86.03557,11.625751],[-86.003375,11.680838],[-85.971336,11.661485],[-85.894364,11.682052],[-85.522914,11.680528],[-85.656652,12.046474],[-85.73148,12.041333],[-85.785094,12.114971],[-85.842119,12.156726],[-85.851498,12.198765]]]}}
