{"type":"Feature","properties":{"featurecla":"Admin-1 states provinces","scalerank":7,"adm1_code":"NOR-918","diss_me":918,"iso_3166_2":"NO-06","wikipedia":null,"iso_a2":"NO","adm0_sr":1,"name":"Buskerud","name_alt":"Buskerud fylke","name_local":null,"type":"Fylke","type_en":"County","code_local":null,"code_hasc":"NO.BU","note":null,"hasc_maybe":null,"region":null,"region_cod":null,"provnum_ne":30001,"gadm_level":1,"check_me":20,"datarank":7,"abbrev":null,"postal":"BU","area_sqkm":0,"sameascity":-99,"labelrank":7,"name_len":8,"mapcolor9":8,"mapcolor13":12,"fips":"NO04","fips_alt":null,"woe_id":2346387,"woe_label":"Buskerud Fylke, NO, Norway","woe_name":"Buskerud","latitude":60.4253,"longitude":9.04573,"sov_a3":"NOR","adm0_a3":"NOR","adm0_label":2,"admin":"Norway","geonunit":"Norway","gu_a3":"NOW","gn_id":3159665,"gn_name":"Buskerud fylke","gns_id":-255125,"gns_name":"Buskerud","gn_level":1,"gn_region":null,"gn_a1_code":"NO.04","region_sub":null,"sub_code":null,"gns_level":1,"gns_lang":"ara","gns_adm1":"NO04","gns_region":null,"min_label":6.7,"max_label":11.0,"min_zoom":6.7,"wikidataid":"Q50618","name_ar":"بوسكرود","name_bn":"বুস্কেরুদ","name_de":"Buskerud","name_en":"Buskerud","name_es":"Buskerud","name_fr":"Buskerud","name_el":"Μπούσκερουντ","name_hi":"बस्केरूद","name_hu":"Buskerud","name_id":"Buskerud","name_it":"Buskerud","name_ja":"ブスケルー県","name_ko":"부스케루","name_nl":"Buskerud","name_pl":"Buskerud","name_pt":"Buskerud","name_ru":"Бускеруд","name_sv":"Buskerud","name_tr":"Buskerud","name_vi":"Buskerud","name_zh":"布斯克吕","ne_id":1159309673,"name_he":"בוסקרוד","name_uk":"Бускерюд","name_ur":"بوسکرود","name_fa":"بوسکرود","name_zht":"布斯克吕","FCLASS_ISO":null,"FCLASS_US":null,"FCLASS_FR":null,"FCLASS_RU":null,"FCLASS_ES":null,"FCLASS_CN":null,"FCLASS_TW":null,"FCLASS_IN":null,"FCLASS_NP":null,"FCLASS_PK":null,"FCLASS_DE":null,"FCLASS_GB":null,"FCLASS_BR":null,"FCLASS_IL":null,"FCLASS_PS":null,"FCLASS_SA":null,"FCLASS_EG":null,"FCLASS_MA":null,"FCLASS_PT":null,"FCLASS_AR":null,"FCLASS_JP":null,"FCLASS_KO":null,"FCLASS_VN":null,"FCLASS_TR":null,"FCLASS_ID":null,"FCLASS_PL":null,"FCLASS_GR":null,"FCLASS_IT":null,"FCLASS_NL":null,"FCLASS_SE":null,"FCLASS_BD":null,"FCLASS_UA":null,"FCLASS_TLC":null,"iso_id":"NO-06","iso_name":"Buskerud","source":"iso-3166-2-subdivisions"},"geometry":{"type":"Polygon","coordinates":[[[10.486664,59.803166],[10.398776,59.808288],[10.360588,59.824824],[10.349891,59.838467],[10.350976,59.88079],[10.378881,59.938538],[10.37454,59.975461],[10.439394,60.033623],[10.552669,60.067032],[10.623621,60.154726],[10.398311,60.236324],[10.331545,60.280042],[10.225247,60.396314],[10.16799,60.532274],[10.093214,60.618032],[10.043708,60.655394],[9.94299,60.658572],[9.931983,60.649218],[9.947486,60.634103],[9.935394,60.616197],[9.820879,60.591392],[9.803516,60.565554],[9.831421,60.484991],[9.749204,60.492949],[9.657633,60.514704],[9.606422,60.561213],[9.476559,60.568603],[9.410155,60.584726],[9.407829,60.629219],[9.319514,60.714692],[9.326025,60.752933],[9.321995,60.76518],[9.300601,60.781458],[8.971163,60.880677],[8.893132,60.913388],[8.741513,60.931527],[8.663327,60.94951],[8.632269,60.964341],[8.604829,61.003925],[8.386651,61.059943],[8.279733,61.117665],[8.198084,61.072448],[8.193743,61.023046],[8.036853,60.932715],[7.984919,60.922845],[7.873969,60.930441],[7.773407,60.885535],[7.737544,60.860032],[7.689588,60.802594],[7.679511,60.77965],[7.58484,60.757377],[7.477921,60.702342],[7.589026,60.66038],[7.668659,60.547364],[7.678891,60.511087],[7.662613,60.412902],[7.666488,60.331357],[7.612642,60.274177],[7.554299,60.18935],[7.467844,60.113695],[7.624269,60.145683],[7.710103,60.147647],[7.823378,60.127751],[8.171419,60.197515],[8.276167,60.196068],[8.408975,60.179324],[8.806522,60.16979],[8.842851,60.161496],[8.919952,60.133798],[8.959226,60.104574],[8.997415,60.016983],[9.020514,60.000059],[9.117201,59.976184],[9.180195,59.941613],[9.178954,59.925309],[9.200968,59.915361],[9.20748,59.878671],[9.203139,59.850042],[9.306957,59.827279],[9.359873,59.807693],[9.349642,59.772683],[9.351657,59.735941],[9.405349,59.703901],[9.446018,59.650468],[9.477799,59.57502],[9.5025,59.562618],[9.504516,59.556778],[9.477179,59.530217],[9.480435,59.517944],[9.559448,59.511407],[9.634844,59.456216],[9.682334,59.439783],[9.782742,59.432187],[9.773853,59.477093],[9.784912,59.491976],[10.018593,59.492545],[10.065774,59.499831],[10.025724,59.549337],[9.932448,59.607525],[9.929503,59.62835],[10.033011,59.684626],[10.05332,59.683024],[10.071355,59.665247],[10.128457,59.690724],[10.166129,59.695581],[10.278629,59.690414],[10.28301,59.69584],[10.257091,59.701077],[10.224376,59.723822],[10.238943,59.738756],[10.266856,59.739732],[10.332286,59.711493],[10.360525,59.711005],[10.403005,59.682847],[10.42921,59.597846],[10.423595,59.53384],[10.436697,59.518378],[10.483735,59.514472],[10.542735,59.535549],[10.59311,59.57038],[10.614594,59.607733],[10.599132,59.643988],[10.582693,59.662055],[10.539806,59.675035],[10.502208,59.708726],[10.485688,59.75788],[10.486664,59.803166]]]}}
