{"type":"Feature","properties":{"iso_id":"NP-5","iso_name":"Far-Western Development Region","name":"Far-Western Development Region","source":"iso-3166-2-placeholder-circle"},"geometry":{"type":"Polygon","coordinates":[[[81.433333,29.266667],[81.423726,29.364212],[81.395273,29.458008],[81.349068,29.544452],[81.286887,29.62022],[81.211118,29.682401],[81.124675,29.728606],[81.030878,29.757059],[80.933333,29.766667],[80.835788,29.757059],[80.741992,29.728606],[80.655548,29.682401],[80.57978,29.62022],[80.517599,29.544452],[80.471394,29.458008],[80.442941,29.364212],[80.433333,29.266667],[80.442941,29.169122],[80.471394,29.075325],[80.517599,28.988882],[80.57978,28.913113],[80.655548,28.850932],[80.741992,28.804727],[80.835788,28.776274],[80.933333,28.766667],[81.030878,28.776274],[81.124675,28.804727],[81.211118,28.850932],[81.286887,28.913113],[81.349068,28.988882],[81.395273,29.075325],[81.423726,29.169122],[81.433333,29.266667]]]}}
