{"type":"Feature","properties":{"iso_id":"OM-SJ","iso_name":"Ash Sharqiyah South Governorate","name":"Ash Sharqiyah South Governorate","source":"iso-3166-2-placeholder-circle"},"geometry":{"type":"Polygon","coordinates":[[[60.028889,22.566667],[60.019282,22.664212],[59.990829,22.758009],[59.944624,22.844452],[59.882442,22.92022],[59.806674,22.982402],[59.720231,23.028607],[59.626434,23.05706],[59.528889,23.066667],[59.431344,23.05706],[59.337547,23.028607],[59.251104,22.982402],[59.175336,22.92022],[59.113154,22.844452],[59.066949,22.758009],[59.038496,22.664212],[59.028889,22.566667],[59.038496,22.469122],[59.066949,22.375325],[59.113154,22.288882],[59.175336,22.213114],[59.251104,22.150932],[59.337547,22.104727],[59.431344,22.076274],[59.528889,22.066667],[59.626434,22.076274],[59.720231,22.104727],[59.806674,22.150932],[59.882442,22.213114],[59.944624,22.288882],[59.990829,22.375325],[60.019282,22.469122],[60.028889,22.566667]]]}}
