{"type":"Feature","properties":{"featurecla":"Admin-1 states provinces","scalerank":7,"adm1_code":"PHL-5530","diss_me":5530,"iso_3166_2":"PH-LAN","wikipedia":null,"iso_a2":"PH","adm0_sr":1,"name":"Iligan","name_alt":null,"name_local":null,"type":"Highly Urbanized City","type_en":"Highly Urbanized City","code_local":null,"code_hasc":"PH.LN","note":null,"hasc_maybe":null,"region":"Northern Mindanao (Region X)","region_cod":"PH-10","provnum_ne":20074,"gadm_level":1,"check_me":20,"datarank":5,"abbrev":null,"postal":"LN","area_sqkm":0,"sameascity":-99,"labelrank":7,"name_len":6,"mapcolor9":2,"mapcolor13":8,"fips":"RP34","fips_alt":null,"woe_id":-23424730,"woe_label":null,"woe_name":null,"latitude":8.26296,"longitude":124.396,"sov_a3":"PHL","adm0_a3":"PHL","adm0_label":2,"admin":"Philippines","geonunit":"Philippines","gu_a3":"PHL","gn_id":-99,"gn_name":null,"gns_id":-2428378,"gns_name":"Iligan City","gn_level":2,"gn_region":null,"gn_a1_code":"PH.","region_sub":"Misamis Oriental","sub_code":null,"gns_level":1,"gns_lang":"fil","gns_adm1":"RP28","gns_region":null,"min_label":8.0,"max_label":11.0,"min_zoom":8.0,"wikidataid":null,"name_ar":"إليجان","name_bn":"ইলিগান","name_de":"Iligan City","name_en":"Iligan","name_es":"Iligan","name_fr":"Iligan","name_el":"Ίλιγκαν","name_hi":"इलिगन","name_hu":"Iligan","name_id":"Iligan","name_it":"Iligan","name_ja":"イリガン","name_ko":"일리간","name_nl":"Iligan","name_pl":"Iligan","name_pt":"Iligan","name_ru":"Илиган","name_sv":"Iligan City","name_tr":"Iligan","name_vi":"Iligan","name_zh":"伊利甘","ne_id":1159317215,"name_he":"איליגן","name_uk":"Іліган","name_ur":"آئیگان","name_fa":"ایلیگان","name_zht":"伊利甘","FCLASS_ISO":null,"FCLASS_US":null,"FCLASS_FR":null,"FCLASS_RU":null,"FCLASS_ES":null,"FCLASS_CN":null,"FCLASS_TW":null,"FCLASS_IN":null,"FCLASS_NP":null,"FCLASS_PK":null,"FCLASS_DE":null,"FCLASS_GB":null,"FCLASS_BR":null,"FCLASS_IL":null,"FCLASS_PS":null,"FCLASS_SA":null,"FCLASS_EG":null,"FCLASS_MA":null,"FCLASS_PT":null,"FCLASS_AR":null,"FCLASS_JP":null,"FCLASS_KO":null,"FCLASS_VN":null,"FCLASS_TR":null,"FCLASS_ID":null,"FCLASS_PL":null,"FCLASS_GR":null,"FCLASS_IT":null,"FCLASS_NL":null,"FCLASS_SE":null,"FCLASS_BD":null,"FCLASS_UA":null,"FCLASS_TLC":null,"iso_id":"PH-LAN","iso_name":"Iligan","source":"iso-3166-2-subdivisions"},"geometry":{"type":"MultiPolygon","coordinates":[[[[124.23227,8.212877],[124.263713,8.197795],[124.310428,8.223788],[124.358125,8.225131],[124.375902,8.186684],[124.396521,8.169424],[124.477395,8.128186],[124.587724,8.028141],[124.629737,8.00747],[124.615887,8.036822],[124.572066,8.088499],[124.559767,8.118885],[124.574236,8.185547],[124.567622,8.222237],[124.572479,8.237224],[124.547261,8.244252],[124.52163,8.29014],[124.407528,8.369877],[124.377142,8.375613],[124.352338,8.370549],[124.274513,8.32497],[124.261693,8.324176],[124.274669,8.281073],[124.23227,8.212877]]],[[[123.688967,7.968299],[123.704212,7.909698],[123.69367,7.890836],[123.614682,7.83349],[123.703949,7.809394],[123.723806,7.7956],[123.7942,7.710517],[123.861819,7.703472],[123.869266,7.739735],[123.955256,7.704646],[123.993393,7.701856],[124.005951,7.767278],[124.04879,7.818334],[124.05835,7.844793],[124.058816,7.904014],[124.107873,7.909171],[124.127959,7.932488],[124.162582,8.016824],[124.199789,8.031551],[124.254463,8.034187],[124.25808,8.048088],[124.288879,8.083331],[124.297767,8.111185],[124.290739,8.183997],[124.29911,8.215566],[124.263713,8.197795],[124.23227,8.212877],[124.198497,8.196479],[124.155772,8.190253],[124.036306,8.189846],[124.000255,8.181342],[123.968923,8.167792],[123.907481,8.113227],[123.873709,8.10517],[123.740977,8.000434],[123.688967,7.968299]]]]}}
