{"type":"Feature","properties":{"featurecla":"Admin-1 states provinces","scalerank":7,"adm1_code":"PHL-2541","diss_me":2541,"iso_3166_2":"PH-SOR","wikipedia":"http://en.wikipedia.org/wiki/Sorsogon","iso_a2":"PH","adm0_sr":1,"name":"Sorsogon","name_alt":null,"name_local":null,"type":"Lalawigan|Probinsya","type_en":"Province","code_local":null,"code_hasc":"PH.SR","note":null,"hasc_maybe":null,"region":"Bicol (Region V)","region_cod":"PH-05","provnum_ne":20090,"gadm_level":1,"check_me":20,"datarank":5,"abbrev":null,"postal":"SR","area_sqkm":0,"sameascity":-99,"labelrank":7,"name_len":8,"mapcolor9":2,"mapcolor13":8,"fips":"RP58","fips_alt":null,"woe_id":2346711,"woe_label":null,"woe_name":"Sorsogon","latitude":12.7377,"longitude":124.001,"sov_a3":"PHL","adm0_a3":"PHL","adm0_label":2,"admin":"Philippines","geonunit":"Philippines","gu_a3":"PHL","gn_id":1685754,"gn_name":"Province of Sorsogon","gns_id":-2453941,"gns_name":"Sorsogon, Province of","gn_level":2,"gn_region":null,"gn_a1_code":"PH.58","region_sub":"Sorsogon","sub_code":null,"gns_level":1,"gns_lang":"fil","gns_adm1":"RP58","gns_region":null,"min_label":8.0,"max_label":11.0,"min_zoom":8.0,"wikidataid":"Q13881","name_ar":"سوروسوغون","name_bn":"সরসোগন","name_de":"Sorsogon","name_en":"Sorsogon","name_es":"Sorsogón","name_fr":"Sorsogon","name_el":"Σορσογκόν","name_hi":"सोरसोगोन प्रान्त","name_hu":"Sorsogon","name_id":"Sorsogon","name_it":"Sorsogon","name_ja":"ソルソゴン","name_ko":"소르소곤","name_nl":"Sorsogon","name_pl":"Sorsogon","name_pt":"Sorsogon","name_ru":"Сорсогон","name_sv":"Sorsogon","name_tr":"Sorsogon","name_vi":"Sorsogon","name_zh":"索索贡省","ne_id":1159313465,"name_he":"סורסוגון","name_uk":"Сорсогон","name_ur":"سورسوگون","name_fa":"سوروسوگون","name_zht":"索索貢省","FCLASS_ISO":null,"FCLASS_US":null,"FCLASS_FR":null,"FCLASS_RU":null,"FCLASS_ES":null,"FCLASS_CN":null,"FCLASS_TW":null,"FCLASS_IN":null,"FCLASS_NP":null,"FCLASS_PK":null,"FCLASS_DE":null,"FCLASS_GB":null,"FCLASS_BR":null,"FCLASS_IL":null,"FCLASS_PS":null,"FCLASS_SA":null,"FCLASS_EG":null,"FCLASS_MA":null,"FCLASS_PT":null,"FCLASS_AR":null,"FCLASS_JP":null,"FCLASS_KO":null,"FCLASS_VN":null,"FCLASS_TR":null,"FCLASS_ID":null,"FCLASS_PL":null,"FCLASS_GR":null,"FCLASS_IT":null,"FCLASS_NL":null,"FCLASS_SE":null,"FCLASS_BD":null,"FCLASS_UA":null,"FCLASS_TLC":null,"iso_id":"PH-SOR","iso_name":"Sorsogon","source":"iso-3166-2-subdivisions"},"geometry":{"type":"Polygon","coordinates":[[[123.935381,13.118511],[123.908024,13.054139],[123.788651,13.030781],[123.656876,13.044682],[123.552283,13.017655],[123.519934,13.001946],[123.49616,12.9744],[123.513031,12.956692],[123.559093,12.937893],[123.598399,12.896552],[123.615733,12.889472],[123.648936,12.886298],[123.668468,12.92414],[123.698253,12.930894],[123.703298,12.927191],[123.677257,12.884182],[123.698009,12.864936],[123.690115,12.888739],[123.732677,12.889879],[123.711681,12.872382],[123.725352,12.84512],[123.747569,12.857489],[123.763194,12.878607],[123.783946,12.864936],[123.839366,12.88817],[123.863048,12.913316],[123.881602,12.966498],[123.893403,12.974799],[123.958669,12.954291],[124.004893,12.96133],[124.025157,12.955308],[124.033865,12.930406],[124.029307,12.91177],[124.002452,12.879706],[123.986013,12.872382],[123.958832,12.880032],[123.948497,12.875474],[123.94044,12.848293],[123.906749,12.84162],[123.863048,12.872382],[123.838715,12.839301],[123.79363,12.831448],[123.842052,12.801215],[123.848806,12.77619],[123.84254,12.716213],[123.878591,12.645209],[123.914317,12.619127],[123.93336,12.622219],[123.931407,12.611721],[123.983165,12.54678],[124.010102,12.537258],[124.054942,12.537258],[124.095225,12.557074],[124.081554,12.583726],[124.095063,12.593655],[124.08839,12.628811],[124.129405,12.677191],[124.142833,12.814399],[124.133637,12.878485],[124.116222,12.916449],[124.153005,13.001288],[124.164806,13.016343],[124.177501,13.009996],[124.188243,13.039537],[124.184581,13.057318],[124.12672,13.078681],[124.116222,13.074408],[124.081554,13.009508],[124.027029,13.054267],[124.008149,13.080024],[123.979177,13.098334],[123.937511,13.108588],[123.935381,13.118511]]]}}
