{"type":"Feature","properties":{"iso_id":"PL-18","iso_name":"Podkarpackie Voivodeship","name":"Podkarpackie Voivodeship","source":"osm-overpass-pl"},"geometry":{"type":"Polygon","coordinates":[[[21.1421116,50.2376794],[21.1709836,50.2082563],[21.1650428,50.1806736],[21.1710581,50.1766197],[21.1523921,50.147641],[21.1757591,50.1426466],[21.1461552,50.1300381],[21.1950191,50.1198444],[21.176904,50.1118631],[21.1990053,50.0949579],[21.1600886,50.0895013],[21.1797214,50.0761166],[21.1653334,50.0671214],[21.1663512,50.0597023],[21.1450327,50.0530123],[21.1929048,50.0292592],[21.1787856,50.0118035],[21.1544412,50.0034056],[21.1504352,49.9764832],[21.1797066,49.9283287],[21.2485165,49.9309595],[21.2847187,49.9240646],[21.2881766,49.9094323],[21.2796546,49.8920526],[21.26112,49.8848341],[21.2263978,49.8858592],[21.2249575,49.8525994],[21.2521295,49.8408931],[21.2971493,49.8428642],[21.3489532,49.8149635],[21.3083977,49.7961386],[21.2803983,49.8057797],[21.2705885,49.7941295],[21.2514687,49.7921578],[21.2417725,49.7761044],[21.2578189,49.7521313],[21.31254,49.7477686],[21.3190203,49.7394867],[21.3157595,49.7282526],[21.3314019,49.7187971],[21.3203964,49.6984492],[21.3486775,49.6926739],[21.3417217,49.659324],[21.3576986,49.6497033],[21.3627979,49.6341425],[21.3268166,49.59219],[21.3802884,49.5697632],[21.3586406,49.5447462],[21.3804695,49.539067],[21.3917302,49.5275103],[21.3825818,49.5252668],[21.3927887,49.5116651],[21.4075598,49.5096257],[21.4217125,49.4924317],[21.3888416,49.4854531],[21.4113723,49.4678098],[21.3921359,49.4557948],[21.4065337,49.4266209],[21.4340831,49.412284],[21.4736964,49.4135854],[21.4888535,49.4290792],[21.5170484,49.4178027],[21.5302734,49.4350836],[21.5520786,49.4331148],[21.5639837,49.4412621],[21.5905587,49.4338166],[21.6309446,49.4473085],[21.6589052,49.4168007],[21.7217713,49.4122839],[21.7268958,49.3981061],[21.763385,49.383467],[21.766244,49.367195],[21.78752,49.355137],[21.796949,49.378462],[21.8402411,49.3915102],[21.8589987,49.3685554],[21.8873284,49.3689768],[21.9037674,49.3499643],[21.96278,49.347908],[21.9831803,49.310366],[22.03402,49.278546],[22.030318,49.262671],[22.041885,49.257161],[22.030419,49.22517],[22.0621528,49.2116131],[22.1438057,49.2005139],[22.143104,49.1927444],[22.1899038,49.1740178],[22.222462,49.1844599],[22.235799,49.170076],[22.225713,49.152541],[22.31765,49.135551],[22.334605,49.146472],[22.3661956,49.1469214],[22.39023,49.127393],[22.3918239,49.1180547],[22.422654,49.09949],[22.4560556,49.10375],[22.498712,49.0857944],[22.5394246,49.0946935],[22.5597599,49.0873231],[22.5824777,49.0973238],[22.5998128,49.0934979],[22.6050313,49.0845121],[22.6279086,49.0786642],[22.6515706,49.0508224],[22.6817961,49.0389835],[22.7178584,49.0527767],[22.7520197,49.0427928],[22.7730502,49.0518137],[22.8095073,49.034644],[22.8131892,49.0251418],[22.8337495,49.0260768],[22.8439762,49.0049276],[22.8596669,49.0020468],[22.8915926,49.0078454],[22.8937471,49.018263],[22.8739217,49.030988],[22.8813388,49.0383696],[22.8666349,49.0399881],[22.8757807,49.0513508],[22.8645314,49.0667861],[22.8718653,49.0718553],[22.8680131,49.0774093],[22.8835487,49.0811937],[22.8927565,49.094556],[22.862702,49.100061],[22.8548274,49.1059847],[22.8601621,49.1123145],[22.8507123,49.1148727],[22.8312715,49.1109784],[22.8303823,49.1184437],[22.8121302,49.125044],[22.8164015,49.1297679],[22.7931002,49.1382901],[22.7891975,49.1577275],[22.7728915,49.1523865],[22.7391328,49.1579778],[22.7561721,49.1826257],[22.7327165,49.1822679],[22.7190041,49.164986],[22.7072649,49.1749798],[22.7309111,49.1985824],[22.7339598,49.2114432],[22.7476795,49.2156221],[22.7148875,49.2264901],[22.7213127,49.2413378],[22.7396304,49.2473455],[22.750946,49.3165998],[22.7431727,49.3358525],[22.7468489,49.3598976],[22.6966855,49.495128],[22.6704141,49.497519],[22.6512378,49.5083715],[22.6408214,49.5299899],[22.6746896,49.549156],[22.69484,49.58198],[22.7833142,49.6572404],[22.787224,49.6764621],[22.8055619,49.693402],[22.8477875,49.7100826],[22.8734299,49.7406314],[22.8967765,49.7517557],[22.9016035,49.7682569],[22.932817,49.7932905],[22.9619287,49.8047019],[22.9566696,49.8111286],[22.9706985,49.8386462],[22.9954723,49.8421548],[23.107489,49.9419599],[23.1149238,49.9565395],[23.1426354,49.9712214],[23.2130058,50.0311008],[23.2159873,50.0474664],[23.2393204,50.054451],[23.2793285,50.0862897],[23.2800844,50.1005448],[23.3139516,50.1119628],[23.4294452,50.1842048],[23.4701465,50.2178925],[23.5479126,50.2518154],[23.53137,50.2620019],[23.5087972,50.2613043],[23.5139455,50.2787882],[23.5011379,50.285156],[23.5199464,50.2954639],[23.4938292,50.2997204],[23.4700315,50.2936345],[23.457049,50.3031568],[23.4128718,50.307652],[23.4032639,50.3012991],[23.435795,50.346991],[23.4124744,50.3515229],[23.4053021,50.3647693],[23.3782135,50.3688817],[23.3738958,50.3770023],[23.3827607,50.3832697],[23.3663244,50.39373],[23.3875744,50.405393],[23.3581464,50.4105416],[23.3535283,50.4018658],[23.3175735,50.3926689],[23.3052808,50.3800142],[23.2790988,50.3761568],[23.250233,50.3588831],[23.2531255,50.364712],[23.2186625,50.3882983],[23.1787117,50.3954049],[23.0171889,50.2869167],[22.8884834,50.3015582],[22.8552864,50.2944617],[22.7513994,50.3033142],[22.7073046,50.2911585],[22.6069084,50.311073],[22.6103457,50.3299958],[22.6867423,50.3450816],[22.6879673,50.3569178],[22.6245546,50.3574835],[22.5955077,50.3487418],[22.5651772,50.3590554],[22.508415,50.3436195],[22.5011484,50.3462087],[22.5038453,50.3528679],[22.4803781,50.3531212],[22.4513814,50.3708861],[22.4529194,50.3885936],[22.4351871,50.3924757],[22.4371927,50.3997179],[22.4029451,50.3952465],[22.4119401,50.4234058],[22.4462154,50.4189535],[22.4500902,50.4329683],[22.4594909,50.4341868],[22.4563328,50.4457892],[22.4470054,50.4466755],[22.4563507,50.4521759],[22.4444625,50.4621252],[22.4633307,50.4656963],[22.5012383,50.4550393],[22.5099276,50.4564729],[22.5072816,50.4675429],[22.5207156,50.464095],[22.5303378,50.4470635],[22.5510811,50.4621514],[22.5557127,50.4602799],[22.5659728,50.4594784],[22.5537984,50.4655016],[22.5861223,50.4773314],[22.5859703,50.4831457],[22.5672289,50.4832259],[22.5254541,50.4751412],[22.526997,50.4801119],[22.5056396,50.4837157],[22.5460408,50.4857352],[22.5718164,50.4949348],[22.5670624,50.4983986],[22.5769879,50.5042993],[22.5709907,50.5099213],[22.5412218,50.5056629],[22.5288244,50.512672],[22.536691,50.5167003],[22.5276029,50.521996],[22.5353687,50.5241086],[22.5344658,50.5375776],[22.5117153,50.5390621],[22.5236479,50.5423048],[22.5201711,50.5488185],[22.5384939,50.5498511],[22.5362415,50.5720641],[22.5197346,50.5832345],[22.5057773,50.5756159],[22.5064691,50.584232],[22.4917145,50.5828017],[22.4908484,50.5764561],[22.4836174,50.5757368],[22.4888258,50.5801458],[22.465347,50.5844118],[22.4652817,50.5919377],[22.4201187,50.5806295],[22.3483495,50.6145003],[22.2492237,50.6206841],[22.2463035,50.635024],[22.2230395,50.6600446],[22.1417937,50.6696898],[22.1690328,50.6884792],[22.1771441,50.7009667],[22.1703723,50.7061864],[22.2055815,50.7540106],[22.1861216,50.7662687],[22.1523122,50.7717882],[22.1629731,50.7972987],[22.0519558,50.8205481],[21.9952836,50.783227],[21.9734497,50.7876822],[21.9493443,50.7713966],[21.8757488,50.7799156],[21.8802395,50.7898527],[21.8636062,50.8018675],[21.8584778,50.7809463],[21.8402188,50.7589963],[21.8431723,50.73721],[21.8278444,50.7165817],[21.8254362,50.6980352],[21.7862794,50.6800484],[21.7938202,50.6756895],[21.7788428,50.6588199],[21.7801173,50.6450651],[21.7501923,50.6552489],[21.7333838,50.6415903],[21.7225964,50.6453528],[21.7104926,50.6297917],[21.6700603,50.6057407],[21.6565123,50.5718099],[21.6023176,50.5202124],[21.5559122,50.5206801],[21.4515216,50.4934945],[21.4424644,50.4857474],[21.4515174,50.4663515],[21.4435135,50.4564195],[21.4013044,50.4392287],[21.3620375,50.4395789],[21.2810517,50.4083819],[21.2797164,50.392555],[21.2566927,50.3908725],[21.249781,50.3775997],[21.229995,50.3735308],[21.2214654,50.3588234],[21.2088306,50.3548959],[21.2188813,50.341335],[21.2132799,50.330402],[21.2226395,50.3108625],[21.1838233,50.29799],[21.1775412,50.2797587],[21.1457267,50.2571205],[21.1642286,50.2460137],[21.1815036,50.2411868],[21.1821019,50.2392247],[21.1421116,50.2376794]]]}}
