{"type":"Feature","properties":{"featurecla":"Admin-1 states provinces","scalerank":5,"adm1_code":"POL-3141","diss_me":3141,"iso_3166_2":"PL-DS","wikipedia":null,"iso_a2":"PL","adm0_sr":1,"name":"Lower Silesian Voivodeship","name_alt":"Dolnoslaskie","name_local":null,"type":"Województwo","type_en":"Voivodeship|Province","code_local":null,"code_hasc":"PL.DS","note":null,"hasc_maybe":null,"region":null,"region_cod":null,"provnum_ne":20009,"gadm_level":1,"check_me":20,"datarank":5,"abbrev":null,"postal":"DS","area_sqkm":0,"sameascity":-99,"labelrank":5,"name_len":14,"mapcolor9":1,"mapcolor13":2,"fips":"PL72","fips_alt":"PL72","woe_id":12577935,"woe_label":"Lower Silesia, PL, Poland","woe_name":"Lower Silesian","latitude":51.0127,"longitude":16.4623,"sov_a3":"POL","adm0_a3":"POL","adm0_label":2,"admin":"Poland","geonunit":"Poland","gu_a3":"POL","gn_id":3337492,"gn_name":"Wojewodztwo Dolnoslaskie","gns_id":9007865,"gns_name":"Dolnoslaskie, Wojewodztwo","gn_level":1,"gn_region":null,"gn_a1_code":"PL.72","region_sub":null,"sub_code":null,"gns_level":1,"gns_lang":"fil","gns_adm1":"PL72","gns_region":null,"min_label":6.7,"max_label":11.0,"min_zoom":6.7,"wikidataid":"Q54150","name_ar":"محافظة سيليزيا السفلى","name_bn":"লোয়ার সিলেসিয়ান ভৈভেডেশিপ","name_de":"Woiwodschaft Niederschlesien","name_en":"Lower Silesian Voivodeship","name_es":"Voivodato de Baja Silesia","name_fr":"voïvodie de Basse-Silésie","name_el":"Βοεβοδάτο Κάτω Σιλεσίας","name_hi":"निचला सिलेसियन वोइवोडीशिप","name_hu":"Alsó-sziléziai vajdaság","name_id":"Dolnośląskie","name_it":"voivodato della Bassa Slesia","name_ja":"ドルヌィ・シロンスク県","name_ko":"돌니실롱스크","name_nl":"Woiwodschap Neder-Silezië","name_pl":"województwo dolnośląskie","name_pt":"Baixa Silésia","name_ru":"Нижнесилезское воеводство","name_sv":"Nedre Schlesiens vojvodskap","name_tr":"Aşağı Silezya Voyvodalığı","name_vi":"Dolnośląskie","name_zh":"下西里西亚省","ne_id":1159314679,"name_he":"שלזיה תחתית","name_uk":"Нижньосілезьке воєводство","name_ur":"زیریں سیلیزیا صوبہ","name_fa":"استان سیلزی سفلی","name_zht":"下西里西亚省","FCLASS_ISO":null,"FCLASS_US":null,"FCLASS_FR":null,"FCLASS_RU":null,"FCLASS_ES":null,"FCLASS_CN":null,"FCLASS_TW":null,"FCLASS_IN":null,"FCLASS_NP":null,"FCLASS_PK":null,"FCLASS_DE":null,"FCLASS_GB":null,"FCLASS_BR":null,"FCLASS_IL":null,"FCLASS_PS":null,"FCLASS_SA":null,"FCLASS_EG":null,"FCLASS_MA":null,"FCLASS_PT":null,"FCLASS_AR":null,"FCLASS_JP":null,"FCLASS_KO":null,"FCLASS_VN":null,"FCLASS_TR":null,"FCLASS_ID":null,"FCLASS_PL":null,"FCLASS_GR":null,"FCLASS_IT":null,"FCLASS_NL":null,"FCLASS_SE":null,"FCLASS_BD":null,"FCLASS_UA":null,"FCLASS_TLC":null,"iso_id":"PL-DS","iso_name":"Lower Silesian Voivodeship","source":"iso-3166-2-subdivisions"},"geometry":{"type":"Polygon","coordinates":[[[15.107946,50.981024],[15.119211,50.982471],[15.13151,51.005828],[15.144429,51.011564],[15.156108,51.007844],[15.170164,50.977975],[15.227111,50.977406],[15.253776,50.969035],[15.269796,50.952653],[15.253053,50.914103],[15.265352,50.88227],[15.28778,50.854881],[15.341006,50.83173],[15.352995,50.812972],[15.349688,50.783723],[15.356096,50.775455],[15.370255,50.772613],[15.400124,50.797986],[15.441775,50.800208],[15.641866,50.755766],[15.684345,50.731426],[15.792245,50.742692],[15.848159,50.675151],[15.882265,50.674221],[15.941486,50.68838],[15.971459,50.678613],[15.998641,50.635567],[15.996367,50.623681],[15.980037,50.612984],[15.982001,50.603631],[16.024479,50.608592],[16.086491,50.64678],[16.128658,50.644042],[16.175477,50.624095],[16.192324,50.626575],[16.219092,50.659131],[16.232011,50.660888],[16.300948,50.6551],[16.331644,50.644042],[16.416806,50.586629],[16.425901,50.567561],[16.394482,50.559344],[16.391175,50.521827],[16.352624,50.492785],[16.287719,50.492785],[16.264981,50.471649],[16.211237,50.451289],[16.217955,50.437129],[16.198008,50.440023],[16.190153,50.424158],[16.199559,50.406278],[16.232011,50.402609],[16.24493,50.376823],[16.2625,50.36442],[16.288649,50.371862],[16.343736,50.36995],[16.353244,50.333518],[16.371021,50.318377],[16.437787,50.297965],[16.50476,50.227995],[16.535042,50.207738],[16.557263,50.154718],[16.584238,50.127432],[16.660616,50.093016],[16.701233,50.094928],[16.817712,50.186757],[16.880964,50.191563],[16.918998,50.217091],[16.955275,50.213474],[16.960339,50.231974],[16.98101,50.229183],[17.008398,50.20996],[17.012842,50.231664],[16.99982,50.242722],[16.998373,50.26701],[16.987831,50.284942],[16.926543,50.319255],[16.897914,50.378218],[16.865874,50.408449],[16.865771,50.422401],[16.892953,50.432943],[16.944005,50.420267],[17.020388,50.546812],[17.072788,50.572417],[17.133352,50.578722],[17.169319,50.618048],[17.192367,50.67422],[17.264197,50.761062],[17.3475,50.839249],[17.38326,50.891726],[17.430802,50.930638],[17.462531,50.944023],[17.495604,51.024793],[17.553792,51.109077],[17.579734,51.12675],[17.681433,51.137447],[17.714609,51.15016],[17.690218,51.302554],[17.718433,51.34467],[17.682363,51.362808],[17.644329,51.369423],[17.583041,51.361697],[17.523923,51.370327],[17.500669,51.406992],[17.495191,51.450271],[17.508523,51.471587],[17.532811,51.481587],[17.556582,51.535046],[17.45726,51.575147],[17.346776,51.594009],[17.229264,51.594319],[17.187406,51.588944],[17.149579,51.535382],[16.942977,51.51267],[16.827738,51.538301],[16.773064,51.575896],[16.676119,51.609512],[16.632815,51.657131],[16.629507,51.689662],[16.611834,51.71488],[16.499076,51.752914],[16.458458,51.759632],[16.371125,51.749193],[16.322136,51.699945],[16.261158,51.666769],[16.181989,51.655788],[16.126489,51.699894],[16.123182,51.734517],[16.096517,51.752345],[15.944795,51.769889],[15.910481,51.727231],[15.880406,51.708265],[15.823768,51.691186],[15.725376,51.571581],[15.614686,51.480424],[15.543889,51.469468],[15.403329,51.517838],[15.330052,51.501921],[15.246233,51.42265],[15.217087,51.424097],[15.158279,51.455955],[15.129444,51.455619],[14.950648,51.396539],[14.963768,51.328393],[15.019476,51.271678],[15.014308,51.242661],[15.022059,51.23677],[14.991364,51.18897],[14.979995,51.122798],[14.960254,51.104582],[14.955293,51.064042],[14.860209,50.916842],[14.810496,50.877051],[14.810393,50.858447],[14.867857,50.86439],[14.982062,50.859067],[14.981132,50.90909],[14.997771,50.930174],[14.996635,50.959216],[14.965215,50.981334],[14.960978,50.992651],[14.996531,51.007844],[15.003973,51.020685],[15.02299,51.009652],[15.073632,51.002624],[15.107946,50.981024]]]}}
