{"type":"Feature","properties":{"featurecla":"Admin-1 states provinces","scalerank":5,"adm1_code":"POL-3167","diss_me":3167,"iso_3166_2":"PL-OP","wikipedia":null,"iso_a2":"PL","adm0_sr":1,"name":"Opole Voivodeship","name_alt":"Opolskie","name_local":null,"type":"Województwo","type_en":"Voivodeship|Province","code_local":null,"code_hasc":"PL.OP","note":null,"hasc_maybe":null,"region":null,"region_cod":null,"provnum_ne":20001,"gadm_level":1,"check_me":20,"datarank":5,"abbrev":null,"postal":"OP","area_sqkm":0,"sameascity":7,"labelrank":7,"name_len":5,"mapcolor9":1,"mapcolor13":2,"fips":"PL79","fips_alt":"PL79","woe_id":12577942,"woe_label":"Opole, PL, Poland","woe_name":"Opole","latitude":50.5498,"longitude":17.7998,"sov_a3":"POL","adm0_a3":"POL","adm0_label":2,"admin":"Poland","geonunit":"Poland","gu_a3":"POL","gn_id":3337495,"gn_name":"Wojewodztwo Opolskie","gns_id":9007885,"gns_name":"Opolskie, Wojewodztwo","gn_level":1,"gn_region":null,"gn_a1_code":"PL.79","region_sub":null,"sub_code":null,"gns_level":1,"gns_lang":"fil","gns_adm1":"PL79","gns_region":null,"min_label":6.7,"max_label":11.0,"min_zoom":6.7,"wikidataid":"Q54171","name_ar":"محافظة أوبولي","name_bn":"ওপোল ভয়ভোডেশিপ","name_de":"Woiwodschaft Opole","name_en":"Opole Voivodeship","name_es":"Opole","name_fr":"voïvodie d'Opole","name_el":"Βοεβοδάτο Οπόλε","name_hi":"ऑपोल","name_hu":"Opolei vajdaság","name_id":"Opole","name_it":"voivodato di Opole","name_ja":"オポーレ県","name_ko":"오폴레","name_nl":"Opole","name_pl":"województwo opolskie","name_pt":"Voivodia de Opole","name_ru":"Опольское воеводство","name_sv":"Opole vojvodskap","name_tr":"Opole Voyvodalığı","name_vi":"Opolskie","name_zh":"奥波莱省","ne_id":1159314707,"name_he":"אופולסקי","name_uk":"Опольське воєводство","name_ur":"اوپولے صوبہ","name_fa":"استان اوپوله","name_zht":"奧波萊省","FCLASS_ISO":null,"FCLASS_US":null,"FCLASS_FR":null,"FCLASS_RU":null,"FCLASS_ES":null,"FCLASS_CN":null,"FCLASS_TW":null,"FCLASS_IN":null,"FCLASS_NP":null,"FCLASS_PK":null,"FCLASS_DE":null,"FCLASS_GB":null,"FCLASS_BR":null,"FCLASS_IL":null,"FCLASS_PS":null,"FCLASS_SA":null,"FCLASS_EG":null,"FCLASS_MA":null,"FCLASS_PT":null,"FCLASS_AR":null,"FCLASS_JP":null,"FCLASS_KO":null,"FCLASS_VN":null,"FCLASS_TR":null,"FCLASS_ID":null,"FCLASS_PL":null,"FCLASS_GR":null,"FCLASS_IT":null,"FCLASS_NL":null,"FCLASS_SE":null,"FCLASS_BD":null,"FCLASS_UA":null,"FCLASS_TLC":null,"iso_id":"PL-OP","iso_name":"Opole Voivodeship","source":"iso-3166-2-subdivisions"},"geometry":{"type":"Polygon","coordinates":[[[17.084672,50.397958],[17.131698,50.376823],[17.187612,50.378476],[17.195053,50.351915],[17.210866,50.336412],[17.24611,50.322149],[17.337474,50.313002],[17.319077,50.308248],[17.334063,50.295691],[17.341711,50.259724],[17.355044,50.253264],[17.365896,50.271558],[17.388013,50.272643],[17.429561,50.239777],[17.469352,50.265563],[17.629549,50.262101],[17.676368,50.297396],[17.684533,50.312382],[17.707994,50.311039],[17.734452,50.28949],[17.719156,50.252799],[17.747578,50.217504],[17.738173,50.202363],[17.675334,50.174716],[17.589448,50.163244],[17.584177,50.145881],[17.632753,50.106348],[17.648359,50.101801],[17.677608,50.107744],[17.731971,50.094876],[17.719466,50.080872],[17.74303,50.060563],[17.763287,50.025216],[17.839355,49.973643],[17.875735,49.968682],[17.912116,49.975814],[17.941571,49.992764],[18.032418,50.00284],[18.035726,50.017207],[18.028698,50.024131],[18.00689,50.024131],[18.002446,50.046765],[18.019074,50.044087],[18.020533,50.060872],[18.079961,50.1357],[18.206052,50.152598],[18.2661,50.181795],[18.362838,50.210915],[18.373587,50.239983],[18.374414,50.291194],[18.357464,50.419455],[18.366559,50.439919],[18.41007,50.449221],[18.412034,50.467178],[18.400872,50.484774],[18.414101,50.507383],[18.588664,50.510974],[18.577399,50.546941],[18.486448,50.607583],[18.467018,50.645617],[18.490892,50.68639],[18.508669,50.749099],[18.535437,50.784807],[18.613572,50.816743],[18.620807,50.852168],[18.60117,50.893431],[18.621117,50.918339],[18.655637,50.995234],[18.580603,51.033423],[18.530477,51.082619],[18.49637,51.060837],[18.425677,51.059623],[18.202021,51.0959],[18.172566,51.110757],[18.150138,51.13613],[18.03583,51.093212],[17.917387,51.065824],[17.853722,51.068046],[17.801219,51.094789],[17.782202,51.140703],[17.749232,51.1514],[17.579734,51.12675],[17.553792,51.109077],[17.495604,51.024793],[17.462531,50.944023],[17.430802,50.930638],[17.38326,50.891726],[17.3475,50.839249],[17.264197,50.761062],[17.192367,50.67422],[17.169319,50.618048],[17.133352,50.578722],[17.072788,50.572417],[17.020388,50.546812],[16.948248,50.432167],[16.944005,50.420267],[17.084672,50.397958]]]}}
