{"type":"Feature","properties":{"iso_id":"PS-GZA","iso_name":"Gaza Governorate","name":"Gaza Governorate","source":"iso-3166-2-placeholder-circle"},"geometry":{"type":"Polygon","coordinates":[[[34.95,31.52],[34.940393,31.617545],[34.91194,31.711342],[34.865735,31.797785],[34.803553,31.873553],[34.727785,31.935735],[34.641342,31.98194],[34.547545,32.010393],[34.45,32.02],[34.352455,32.010393],[34.258658,31.98194],[34.172215,31.935735],[34.096447,31.873553],[34.034265,31.797785],[33.98806,31.711342],[33.959607,31.617545],[33.95,31.52],[33.959607,31.422455],[33.98806,31.328658],[34.034265,31.242215],[34.096447,31.166447],[34.172215,31.104265],[34.258658,31.05806],[34.352455,31.029607],[34.45,31.02],[34.547545,31.029607],[34.641342,31.05806],[34.727785,31.104265],[34.803553,31.166447],[34.865735,31.242215],[34.91194,31.328658],[34.940393,31.422455],[34.95,31.52]]]}}
