{"type":"Feature","properties":{"featurecla":"Admin-1 states provinces","scalerank":7,"adm1_code":"PRT-753","diss_me":753,"iso_3166_2":"PT-09","wikipedia":null,"iso_a2":"PT","adm0_sr":1,"name":"Guarda","name_alt":null,"name_local":null,"type":"Distrito","type_en":"District","code_local":null,"code_hasc":"PT.GU","note":null,"hasc_maybe":null,"region":"Centro","region_cod":null,"provnum_ne":12,"gadm_level":1,"check_me":20,"datarank":6,"abbrev":null,"postal":"GU","area_sqkm":0,"sameascity":7,"labelrank":7,"name_len":6,"mapcolor9":1,"mapcolor13":4,"fips":"PO11","fips_alt":null,"woe_id":2346571,"woe_label":"Guarda, PT, Portugal","woe_name":"Guarda","latitude":40.2918,"longitude":-7.31624,"sov_a3":"PRT","adm0_a3":"PRT","adm0_label":2,"admin":"Portugal","geonunit":"Portugal","gu_a3":"PRX","gn_id":2738782,"gn_name":"Distrito da Guarda","gns_id":-2166968,"gns_name":"Guarda, Distrito da","gn_level":1,"gn_region":null,"gn_a1_code":"PT.11","region_sub":null,"sub_code":null,"gns_level":1,"gns_lang":"fra","gns_adm1":"PO11","gns_region":null,"min_label":8.0,"max_label":11.0,"min_zoom":7.7,"wikidataid":"Q273533","name_ar":"محافظة غواردا","name_bn":"গুয়ার্দা","name_de":"Guarda","name_en":"Guarda","name_es":"Guarda","name_fr":"Guarda","name_el":"Γκουάρντα","name_hi":"गुआर्डा","name_hu":"Guarda","name_id":"Guarda","name_it":"Guarda","name_ja":"グアルダ県","name_ko":"구아르다현","name_nl":"Guarda","name_pl":"Guarda","name_pt":"Guarda","name_ru":"Гуарда","name_sv":"Guarda","name_tr":"Guarda","name_vi":"Guarda","name_zh":"瓜达区","ne_id":1159310585,"name_he":"מחוז גווארדה","name_uk":"Гуарда","name_ur":"گواردا ضلع","name_fa":"منطقه گاردا","name_zht":"瓜達區","FCLASS_ISO":null,"FCLASS_US":null,"FCLASS_FR":null,"FCLASS_RU":null,"FCLASS_ES":null,"FCLASS_CN":null,"FCLASS_TW":null,"FCLASS_IN":null,"FCLASS_NP":null,"FCLASS_PK":null,"FCLASS_DE":null,"FCLASS_GB":null,"FCLASS_BR":null,"FCLASS_IL":null,"FCLASS_PS":null,"FCLASS_SA":null,"FCLASS_EG":null,"FCLASS_MA":null,"FCLASS_PT":null,"FCLASS_AR":null,"FCLASS_JP":null,"FCLASS_KO":null,"FCLASS_VN":null,"FCLASS_TR":null,"FCLASS_ID":null,"FCLASS_PL":null,"FCLASS_GR":null,"FCLASS_IT":null,"FCLASS_NL":null,"FCLASS_SE":null,"FCLASS_BD":null,"FCLASS_UA":null,"FCLASS_TLC":null,"iso_id":"PT-09","iso_name":"Guarda","source":"iso-3166-2-subdivisions"},"geometry":{"type":"Polygon","coordinates":[[[-6.870196,40.295526],[-6.811957,40.33232],[-6.794438,40.356401],[-6.82808,40.380585],[-6.851283,40.409524],[-6.857122,40.442132],[-6.812525,40.514634],[-6.818055,40.531894],[-6.848389,40.56476],[-6.850456,40.582227],[-6.814282,40.647184],[-6.839139,40.757513],[-6.836658,40.840247],[-6.820328,40.844226],[-6.821155,40.870065],[-6.855262,40.887221],[-6.885182,40.948923],[-6.940424,41.00339],[-6.942491,41.015999],[-6.927448,41.048098],[-6.987139,41.05274],[-7.075325,41.086691],[-7.086125,41.097285],[-7.098967,41.12395],[-7.092688,41.149065],[-7.126278,41.164309],[-7.112635,41.192241],[-7.170125,41.157591],[-7.222499,41.164309],[-7.30066,41.159348],[-7.334999,41.065349],[-7.333526,41.019822],[-7.37355,41.009564],[-7.365566,40.992459],[-7.334069,40.973442],[-7.332596,40.955072],[-7.341484,40.93776],[-7.372981,40.915642],[-7.411041,40.922309],[-7.423391,40.917296],[-7.412514,40.870581],[-7.445509,40.81955],[-7.461606,40.820041],[-7.522972,40.86717],[-7.557905,40.871562],[-7.581676,40.856835],[-7.618599,40.795443],[-7.575656,40.752345],[-7.58948,40.728832],[-7.579248,40.714104],[-7.539896,40.685372],[-7.544547,40.660568],[-7.558293,40.648114],[-7.581728,40.592768],[-7.577697,40.572304],[-7.686683,40.55153],[-7.774429,40.511481],[-7.824633,40.497838],[-7.800965,40.456962],[-7.810836,40.441149],[-7.837604,40.423786],[-7.830602,40.413761],[-7.799027,40.402108],[-7.791741,40.356943],[-7.767298,40.334102],[-7.801353,40.307049],[-7.824633,40.26147],[-7.797426,40.249533],[-7.782129,40.232041],[-7.733941,40.244159],[-7.643249,40.28674],[-7.601856,40.326764],[-7.576922,40.319245],[-7.543307,40.324567],[-7.526719,40.337642],[-7.503903,40.37658],[-7.453519,40.413425],[-7.414219,40.388491],[-7.390939,40.382755],[-7.347686,40.39061],[-7.326136,40.409782],[-7.271153,40.409782],[-7.279757,40.350457],[-7.321227,40.291184],[-7.316731,40.282348],[-7.292986,40.275113],[-7.246555,40.267258],[-7.201596,40.280022],[-7.153796,40.279971],[-7.133797,40.289272],[-7.110258,40.319296],[-7.075402,40.286275],[-6.9975,40.285552],[-6.942101,40.254978],[-6.896448,40.255477],[-6.878051,40.265244],[-6.870196,40.295526]]]}}
