{"type":"Feature","properties":{"featurecla":"Admin-1 states provinces","scalerank":6,"adm1_code":"ROU-276","diss_me":276,"iso_3166_2":"RO-AR","wikipedia":null,"iso_a2":"RO","adm0_sr":1,"name":"Arad","name_alt":null,"name_local":null,"type":"Judet","type_en":"County","code_local":null,"code_hasc":"RO.AR","note":null,"hasc_maybe":null,"region":null,"region_cod":null,"provnum_ne":17,"gadm_level":1,"check_me":20,"datarank":6,"abbrev":null,"postal":"AR","area_sqkm":0,"sameascity":7,"labelrank":7,"name_len":4,"mapcolor9":3,"mapcolor13":13,"fips":"RO02","fips_alt":null,"woe_id":2346616,"woe_label":"Arad, RO, Romania","woe_name":"Arad","latitude":46.3019,"longitude":21.7296,"sov_a3":"ROU","adm0_a3":"ROU","adm0_label":2,"admin":"Romania","geonunit":"Romania","gu_a3":"ROU","gn_id":686253,"gn_name":"Judetul Arad","gns_id":-1151196,"gns_name":"Arad, Judetul","gn_level":1,"gn_region":null,"gn_a1_code":"RO.02","region_sub":null,"sub_code":null,"gns_level":1,"gns_lang":"fra","gns_adm1":"RO02","gns_region":null,"min_label":8.0,"max_label":11.0,"min_zoom":8.0,"wikidataid":"Q179559","name_ar":"مقاطعة أراد","name_bn":"আরাদ কাউন্টি","name_de":"Kreis Arad","name_en":"Arad","name_es":"Arad","name_fr":"Arad","name_el":"Τζουντέτς του Αράντ","name_hi":"अराद काउंटी","name_hu":"Arad","name_id":"Arad","name_it":"Arad","name_ja":"アラド県","name_ko":"아라드","name_nl":"Arad","name_pl":"Okręg Arad","name_pt":"Arad","name_ru":"Арад","name_sv":"Arad","name_tr":"Arad ili","name_vi":"Arad","name_zh":"阿拉德县","ne_id":1159308787,"name_he":"מחוז ארד","name_uk":"Арад","name_ur":"آراد کاؤنٹی","name_fa":"شهرستان آراد","name_zht":"阿拉德縣","FCLASS_ISO":null,"FCLASS_US":null,"FCLASS_FR":null,"FCLASS_RU":null,"FCLASS_ES":null,"FCLASS_CN":null,"FCLASS_TW":null,"FCLASS_IN":null,"FCLASS_NP":null,"FCLASS_PK":null,"FCLASS_DE":null,"FCLASS_GB":null,"FCLASS_BR":null,"FCLASS_IL":null,"FCLASS_PS":null,"FCLASS_SA":null,"FCLASS_EG":null,"FCLASS_MA":null,"FCLASS_PT":null,"FCLASS_AR":null,"FCLASS_JP":null,"FCLASS_KO":null,"FCLASS_VN":null,"FCLASS_TR":null,"FCLASS_ID":null,"FCLASS_PL":null,"FCLASS_GR":null,"FCLASS_IT":null,"FCLASS_NL":null,"FCLASS_SE":null,"FCLASS_BD":null,"FCLASS_UA":null,"FCLASS_TLC":null,"iso_id":"RO-AR","iso_name":"Arad","source":"iso-3166-2-subdivisions"},"geometry":{"type":"Polygon","coordinates":[[[21.374436,46.618448],[21.316249,46.616639],[21.300953,46.603926],[21.291341,46.546721],[21.247623,46.497473],[21.245142,46.47688],[21.274391,46.438355],[21.280695,46.416393],[21.257544,46.404171],[21.195636,46.398099],[21.17879,46.384457],[21.168661,46.362753],[21.164527,46.318259],[21.144476,46.283739],[21.099208,46.27635],[21.051459,46.236094],[21.033475,46.231339],[20.999162,46.251597],[20.961748,46.248341],[20.906558,46.26219],[20.875139,46.254387],[20.839689,46.271079],[20.798658,46.267616],[20.739333,46.237489],[20.735509,46.222503],[20.744707,46.192272],[20.710291,46.188086],[20.704368,46.168526],[20.860463,46.09574],[20.896017,46.070677],[20.906094,46.051014],[20.931519,46.031402],[21.008206,46.01993],[21.069495,46.019853],[21.083912,46.010525],[21.083912,45.992077],[21.109957,45.975334],[21.14241,45.976832],[21.154812,46.009647],[21.188816,46.020473],[21.207109,45.993472],[21.250724,45.968926],[21.313562,45.987581],[21.330616,45.987426],[21.361828,45.970734],[21.423892,46.008329],[21.431023,46.034038],[21.458515,46.039102],[21.507246,46.032849],[21.525539,45.997451],[21.584192,45.992025],[21.635713,45.955929],[21.634163,45.928876],[21.670337,45.901746],[21.722633,45.94934],[21.780924,45.933812],[21.816012,45.90495],[21.827175,45.946446],[21.858542,45.934664],[21.888618,45.935491],[21.911769,45.977659],[21.955229,45.982155],[22.001427,45.95859],[22.068658,45.949134],[22.081371,45.93177],[22.131342,45.905157],[22.181933,45.904485],[22.228959,45.892755],[22.257174,45.908904],[22.317842,45.918386],[22.33288,45.940685],[22.354946,45.949857],[22.401506,45.991663],[22.419645,46.025331],[22.407242,46.071348],[22.434528,46.129329],[22.433597,46.176148],[22.447085,46.197258],[22.484189,46.217334],[22.576534,46.208549],[22.619323,46.218239],[22.663092,46.257539],[22.689654,46.300249],[22.755283,46.333813],[22.706707,46.368746],[22.617617,46.369263],[22.541291,46.38058],[22.450651,46.381872],[22.420265,46.390218],[22.392928,46.426908],[22.317997,46.446623],[22.270507,46.47489],[22.209373,46.494914],[22.182243,46.524034],[22.153046,46.57602],[22.093773,46.606949],[21.978638,46.613202],[21.924636,46.635087],[21.879936,46.638213],[21.851721,46.654827],[21.825779,46.658083],[21.492001,46.645215],[21.423539,46.658231],[21.396037,46.626354],[21.374436,46.618448]]]}}
