{"type":"Feature","properties":{"featurecla":"Admin-1 states provinces","scalerank":6,"adm1_code":"ROU-298","diss_me":298,"iso_3166_2":"RO-MM","wikipedia":null,"iso_a2":"RO","adm0_sr":1,"name":"Maramureș","name_alt":"Maramureș","name_local":null,"type":"Judet","type_en":"County","code_local":null,"code_hasc":"RO.MM","note":null,"hasc_maybe":null,"region":null,"region_cod":null,"provnum_ne":2,"gadm_level":1,"check_me":20,"datarank":6,"abbrev":null,"postal":"MM","area_sqkm":0,"sameascity":-99,"labelrank":6,"name_len":9,"mapcolor9":3,"mapcolor13":13,"fips":"RO25","fips_alt":null,"woe_id":2346638,"woe_label":"Maramures, RO, Romania","woe_name":"Maramures","latitude":47.6435,"longitude":23.9992,"sov_a3":"ROU","adm0_a3":"ROU","adm0_label":2,"admin":"Romania","geonunit":"Romania","gu_a3":"ROU","gn_id":673887,"gn_name":"Judetul Maramures","gns_id":-1163589,"gns_name":"Maramures, Judetul","gn_level":1,"gn_region":null,"gn_a1_code":"RO.25","region_sub":null,"sub_code":null,"gns_level":1,"gns_lang":"fra","gns_adm1":"RO25","gns_region":null,"min_label":8.0,"max_label":11.0,"min_zoom":8.0,"wikidataid":"Q188813","name_ar":"ماراموريش","name_bn":"মারামুরেস","name_de":"Kreis Maramureș","name_en":"Maramureș","name_es":"Maramureș","name_fr":"Maramureș","name_el":"Τζουντέτς του Μαραμούρες","name_hi":"मारमुरेस काउंटी","name_hu":"Máramaros","name_id":"Maramureș","name_it":"Maramureș","name_ja":"マラムレシュ県","name_ko":"마라무레슈","name_nl":"Maramureș","name_pl":"Okręg Marmarosz","name_pt":"Maramureș","name_ru":"Марамуреш","name_sv":"Maramureș","name_tr":"Maramureș ili","name_vi":"Maramures","name_zh":"马拉穆列什县","ne_id":1159308807,"name_he":"מחוז מרמורש","name_uk":"Мармарош","name_ur":"ماراموریش کاؤنٹی","name_fa":"شهرستان مارامورش","name_zht":"馬拉穆列什縣","FCLASS_ISO":null,"FCLASS_US":null,"FCLASS_FR":null,"FCLASS_RU":null,"FCLASS_ES":null,"FCLASS_CN":null,"FCLASS_TW":null,"FCLASS_IN":null,"FCLASS_NP":null,"FCLASS_PK":null,"FCLASS_DE":null,"FCLASS_GB":null,"FCLASS_BR":null,"FCLASS_IL":null,"FCLASS_PS":null,"FCLASS_SA":null,"FCLASS_EG":null,"FCLASS_MA":null,"FCLASS_PT":null,"FCLASS_AR":null,"FCLASS_JP":null,"FCLASS_KO":null,"FCLASS_VN":null,"FCLASS_TR":null,"FCLASS_ID":null,"FCLASS_PL":null,"FCLASS_GR":null,"FCLASS_IT":null,"FCLASS_NL":null,"FCLASS_SE":null,"FCLASS_BD":null,"FCLASS_UA":null,"FCLASS_TLC":null,"iso_id":"RO-MM","iso_name":"Maramureș","source":"iso-3166-2-subdivisions"},"geometry":{"type":"Polygon","coordinates":[[[23.563243,48.005753],[23.514461,47.998983],[23.485476,47.974234],[23.501956,47.934232],[23.549447,47.889015],[23.620347,47.850465],[23.63001,47.838088],[23.620657,47.816203],[23.454465,47.735071],[23.414468,47.732591],[23.342896,47.74892],[23.255563,47.744528],[23.239543,47.722255],[23.247346,47.706752],[23.326773,47.689182],[23.360931,47.66784],[23.359536,47.64257],[23.323672,47.585261],[23.249672,47.530768],[23.217219,47.535342],[23.135312,47.580739],[23.116812,47.576476],[23.057849,47.526143],[23.030874,47.479531],[22.96881,47.444495],[22.96757,47.43049],[22.998421,47.416253],[23.090457,47.40429],[23.140583,47.416951],[23.271841,47.413153],[23.479942,47.362639],[23.656985,47.364577],[23.670008,47.359228],[23.687061,47.335561],[23.762043,47.304865],[23.812945,47.316518],[23.84147,47.333235],[24.007507,47.324605],[24.046005,47.35003],[24.107139,47.410905],[24.125897,47.456716],[24.245063,47.481702],[24.282322,47.529916],[24.365676,47.559087],[24.383349,47.56211],[24.570935,47.532164],[24.759192,47.536504],[24.780121,47.540716],[24.837068,47.574667],[24.870761,47.582832],[24.956234,47.58229],[25.015817,47.596475],[25.032302,47.61234],[25.021863,47.632235],[24.954839,47.688459],[24.94238,47.715563],[24.896599,47.710061],[24.877789,47.718742],[24.808232,47.79574],[24.679144,47.84013],[24.661471,47.853876],[24.649275,47.895217],[24.561632,47.940537],[24.409187,47.952061],[24.347175,47.920875],[24.297876,47.919789],[24.231006,47.897026],[24.209302,47.897594],[24.131167,47.914544],[24.094787,47.937928],[24.008798,47.961208],[23.977275,47.962293],[23.855215,47.934233],[23.848394,47.949658],[23.780078,47.987511],[23.710521,47.985083],[23.563243,48.005753]]]}}
