{"type":"Feature","properties":{"featurecla":"Admin-1 states provinces","scalerank":6,"adm1_code":"ROU-310","diss_me":310,"iso_3166_2":"RO-PH","wikipedia":null,"iso_a2":"RO","adm0_sr":1,"name":"Prahova","name_alt":null,"name_local":null,"type":"Judet","type_en":"County","code_local":null,"code_hasc":"RO.PH","note":null,"hasc_maybe":null,"region":null,"region_cod":null,"provnum_ne":30,"gadm_level":1,"check_me":20,"datarank":6,"abbrev":null,"postal":"PH","area_sqkm":0,"sameascity":-99,"labelrank":6,"name_len":7,"mapcolor9":3,"mapcolor13":13,"fips":"RO30","fips_alt":null,"woe_id":2346643,"woe_label":"Prahova, RO, Romania","woe_name":"Prahova","latitude":45.1133,"longitude":26.0168,"sov_a3":"ROU","adm0_a3":"ROU","adm0_label":2,"admin":"Romania","geonunit":"Romania","gu_a3":"ROU","gn_id":669737,"gn_name":"Judetul Prahova","gns_id":-1167746,"gns_name":"Prahova, Judetul","gn_level":1,"gn_region":null,"gn_a1_code":"RO.30","region_sub":null,"sub_code":null,"gns_level":1,"gns_lang":"fra","gns_adm1":"RO30","gns_region":null,"min_label":8.0,"max_label":11.0,"min_zoom":8.0,"wikidataid":"Q188665","name_ar":"مقاطعة يراهوفا","name_bn":"প্রাহোভা কাউন্টি","name_de":"Kreis Prahova","name_en":"Prahova","name_es":"Prahova","name_fr":"Prahova","name_el":"Τζουντέτς της Πράχοβα","name_hi":"प्रहोवा काउंटी","name_hu":"Prahova","name_id":"Prahova","name_it":"Prahova","name_ja":"プラホヴァ県","name_ko":"프라호바","name_nl":"Prahova","name_pl":"Okręg Prahova","name_pt":"Prahova","name_ru":"Прахова","name_sv":"Prahova","name_tr":"Prahova ili","name_vi":"Hạt Prahova","name_zh":"普拉霍瓦县","ne_id":1159308833,"name_he":"פראחובה","name_uk":"Прахова","name_ur":"پراہوا کاؤنٹی","name_fa":"شهرستان پراهووا","name_zht":"普拉霍瓦縣","FCLASS_ISO":null,"FCLASS_US":null,"FCLASS_FR":null,"FCLASS_RU":null,"FCLASS_ES":null,"FCLASS_CN":null,"FCLASS_TW":null,"FCLASS_IN":null,"FCLASS_NP":null,"FCLASS_PK":null,"FCLASS_DE":null,"FCLASS_GB":null,"FCLASS_BR":null,"FCLASS_IL":null,"FCLASS_PS":null,"FCLASS_SA":null,"FCLASS_EG":null,"FCLASS_MA":null,"FCLASS_PT":null,"FCLASS_AR":null,"FCLASS_JP":null,"FCLASS_KO":null,"FCLASS_VN":null,"FCLASS_TR":null,"FCLASS_ID":null,"FCLASS_PL":null,"FCLASS_GR":null,"FCLASS_IT":null,"FCLASS_NL":null,"FCLASS_SE":null,"FCLASS_BD":null,"FCLASS_UA":null,"FCLASS_TLC":null,"iso_id":"RO-PH","iso_name":"Prahova","source":"iso-3166-2-subdivisions"},"geometry":{"type":"Polygon","coordinates":[[[26.269642,44.759801],[26.305454,44.78352],[26.339612,44.794992],[26.410822,44.783107],[26.452732,44.808273],[26.534794,44.810185],[26.565542,44.826205],[26.603886,44.865065],[26.543011,44.926095],[26.543631,44.935139],[26.575929,44.963871],[26.577944,44.97741],[26.542546,45.009398],[26.489474,45.024746],[26.478157,45.0503],[26.469165,45.117608],[26.453662,45.137142],[26.415938,45.161481],[26.416093,45.19843],[26.378886,45.183857],[26.359921,45.191971],[26.345348,45.210212],[26.289796,45.210522],[26.262149,45.218222],[26.247732,45.252303],[26.208664,45.283334],[26.204117,45.294031],[26.213625,45.318552],[26.208354,45.333926],[26.160708,45.400873],[26.106086,45.431594],[26.045987,45.482263],[25.998858,45.488619],[25.945786,45.510194],[25.910853,45.50885],[25.882172,45.453324],[25.845534,45.43826],[25.823055,45.445495],[25.790447,45.473349],[25.750243,45.465907],[25.650972,45.485338],[25.458839,45.463582],[25.429797,45.452316],[25.459304,45.332944],[25.518267,45.286745],[25.527104,45.265093],[25.525708,45.223752],[25.572269,45.177553],[25.626891,45.102364],[25.677017,45.0588],[25.695155,44.980588],[25.711485,44.956739],[25.743576,44.943562],[25.790292,44.946301],[25.813856,44.92178],[25.819127,44.893617],[25.813701,44.865272],[25.825225,44.837444],[25.915814,44.815637],[25.985009,44.755563],[26.017151,44.740344],[26.028934,44.738148],[26.042266,44.753263],[26.103296,44.753858],[26.163809,44.768017],[26.269642,44.759801]]]}}
