{"type":"Feature","properties":{"featurecla":"Admin-1 states provinces","scalerank":8,"adm1_code":"SRB-1505","diss_me":1505,"iso_3166_2":"RS-16","wikipedia":null,"iso_a2":"RS","adm0_sr":1,"name":"Zlatibor","name_alt":"Zlatibor","name_local":"Златиборски","type":"Okrug","type_en":"District","code_local":null,"code_hasc":"RS.ZL","note":null,"hasc_maybe":null,"region":null,"region_cod":null,"provnum_ne":3,"gadm_level":1,"check_me":20,"datarank":8,"abbrev":null,"postal":"ZL","area_sqkm":0,"sameascity":-99,"labelrank":9,"name_len":11,"mapcolor9":2,"mapcolor13":10,"fips":"BK00","fips_alt":null,"woe_id":29389216,"woe_label":"Zlatibor, RS, Serbia","woe_name":"Zlatiborski","latitude":43.6263,"longitude":19.7284,"sov_a3":"SRB","adm0_a3":"SRB","adm0_label":5,"admin":"Republic of Serbia","geonunit":"Serbia","gu_a3":"SRS","gn_id":7581912,"gn_name":"Zlatiborski Okrug","gns_id":0,"gns_name":null,"gn_level":2,"gn_region":null,"gn_a1_code":"RS.16","region_sub":null,"sub_code":null,"gns_level":-99,"gns_lang":null,"gns_adm1":null,"gns_region":null,"min_label":9.0,"max_label":11.0,"min_zoom":9.0,"wikidataid":"Q478278","name_ar":"مقاطعة زلاتيبور","name_bn":"জাতিবোর জেলা","name_de":"Okrug Zlatibor","name_en":"Zlatibor","name_es":"Zlatibor","name_fr":"Zlatibor","name_el":"Ζλάτιμπορ","name_hi":"ज़लातिबोर जिला","name_hu":"Zlatibor","name_id":"Zlatibor","name_it":"Zlatibor","name_ja":"ズラティボル郡","name_ko":"즐라티보르구","name_nl":"Zlatibor","name_pl":"Okręg zlatiborski","name_pt":"Zlatibor","name_ru":"Златиборский округ","name_sv":"Zlatibor","name_tr":"Zlatibor","name_vi":"Quận Zlatibor","name_zh":"茲拉蒂博爾州","ne_id":1159310647,"name_he":"מחוז זלאטיבור","name_uk":"Район Златибор","name_ur":"زلاتیبور ضلع","name_fa":"ناحیه زلاتیبور","name_zht":"茲拉蒂博爾州","FCLASS_ISO":null,"FCLASS_US":null,"FCLASS_FR":null,"FCLASS_RU":null,"FCLASS_ES":null,"FCLASS_CN":null,"FCLASS_TW":null,"FCLASS_IN":null,"FCLASS_NP":null,"FCLASS_PK":null,"FCLASS_DE":null,"FCLASS_GB":null,"FCLASS_BR":null,"FCLASS_IL":null,"FCLASS_PS":null,"FCLASS_SA":null,"FCLASS_EG":null,"FCLASS_MA":null,"FCLASS_PT":null,"FCLASS_AR":null,"FCLASS_JP":null,"FCLASS_KO":null,"FCLASS_VN":null,"FCLASS_TR":null,"FCLASS_ID":null,"FCLASS_PL":null,"FCLASS_GR":null,"FCLASS_IT":null,"FCLASS_NL":null,"FCLASS_SE":null,"FCLASS_BD":null,"FCLASS_UA":null,"FCLASS_TLC":null,"iso_id":"RS-16","iso_name":"Zlatibor","source":"iso-3166-2-subdivisions"},"geometry":{"type":"Polygon","coordinates":[[[19.580851,43.187804],[19.618678,43.168245],[19.684617,43.156721],[19.713556,43.165609],[19.761202,43.108739],[19.805127,43.089955],[19.872203,43.090368],[19.907136,43.113261],[19.92915,43.113907],[19.959742,43.07856],[20.054388,43.022221],[20.090485,43.080523],[20.11715,43.094734],[20.141903,43.097421],[20.139939,43.116774],[20.165622,43.139228],[20.214508,43.140313],[20.282101,43.156901],[20.267166,43.173076],[20.207635,43.204702],[20.201176,43.218499],[20.232853,43.239273],[20.241897,43.268315],[20.267425,43.298546],[20.264428,43.306659],[20.240656,43.317821],[20.118958,43.297409],[20.091932,43.316323],[20.097203,43.334823],[20.018344,43.432285],[19.999534,43.484013],[19.961449,43.490214],[19.950958,43.502823],[19.914785,43.511556],[19.893701,43.534759],[19.911322,43.5499],[19.908842,43.575842],[19.949615,43.554189],[19.973644,43.558479],[20.038395,43.604083],[20.082475,43.607054],[20.082682,43.644804],[20.155855,43.631911],[20.174872,43.656095],[20.153582,43.676895],[20.168929,43.701467],[20.165415,43.719296],[20.124074,43.740018],[20.119113,43.774693],[20.13012,43.791565],[20.105161,43.813993],[20.105367,43.829237],[20.087694,43.842079],[20.109553,43.872051],[20.155597,43.877038],[20.116323,43.8905],[20.089141,43.911739],[20.087436,43.919232],[20.103042,43.937525],[20.096221,43.949876],[20.065887,43.96202],[20.068987,43.974758],[20.055758,43.981192],[20.074723,44.007702],[20.055293,44.026719],[20.071054,44.067388],[20.062011,44.08532],[20.009508,44.104182],[19.984445,44.09072],[19.977778,44.075605],[19.953956,44.078395],[19.911684,44.097412],[19.903933,44.107282],[19.910392,44.118703],[19.893752,44.127694],[19.862695,44.129606],[19.853858,44.116506],[19.82895,44.104957],[19.786731,44.121287],[19.773915,44.112398],[19.799288,44.0955],[19.811225,44.062892],[19.804301,44.053074],[19.785025,44.052867],[19.739705,44.105629],[19.626947,44.144799],[19.618162,44.143662],[19.604985,44.119943],[19.547985,44.114724],[19.516189,44.091194],[19.580231,44.051524],[19.598938,44.062583],[19.611443,44.054521],[19.618885,44.035711],[19.593357,44.005584],[19.552222,43.983415],[19.50406,43.975663],[19.447112,43.979797],[19.364637,43.973286],[19.287329,44.013025],[19.243507,44.002018],[19.240717,43.965741],[19.229348,43.95768],[19.275443,43.933263],[19.359469,43.842209],[19.461685,43.762136],[19.505713,43.67364],[19.507367,43.647182],[19.481735,43.628914],[19.477498,43.616977],[19.476878,43.588684],[19.48959,43.564448],[19.431816,43.57114],[19.410732,43.540754],[19.38045,43.585584],[19.34655,43.608838],[19.300868,43.588297],[19.252706,43.588633],[19.217462,43.532796],[19.195345,43.532796],[19.175191,43.509619],[19.175914,43.480887],[19.192244,43.454532],[19.218392,43.438202],[19.372285,43.384226],[19.414039,43.338389],[19.473054,43.293276],[19.512431,43.240643],[19.580851,43.187804]]]}}
