{"type":"Feature","properties":{"featurecla":"Admin-1 states provinces","scalerank":2,"adm1_code":"RUS-2370","diss_me":2370,"iso_3166_2":"RU-BEL","wikipedia":null,"iso_a2":"RU","adm0_sr":1,"name":"Belgorod","name_alt":"Belgorodskaya Oblast","name_local":"Белгородская область","type":"Oblast","type_en":"Region","code_local":null,"code_hasc":"RU.BL","note":null,"hasc_maybe":null,"region":"Central","region_cod":null,"provnum_ne":20049,"gadm_level":1,"check_me":20,"datarank":2,"abbrev":null,"postal":"BL","area_sqkm":0,"sameascity":7,"labelrank":7,"name_len":8,"mapcolor9":7,"mapcolor13":7,"fips":"RS09","fips_alt":null,"woe_id":2346891,"woe_label":"Belgorodskaya Oblast, RU, Russia","woe_name":"Belgorod","latitude":50.8757,"longitude":37.277,"sov_a3":"RUS","adm0_a3":"RUS","adm0_label":2,"admin":"Russia","geonunit":"Russia","gu_a3":"RUS","gn_id":578071,"gn_name":"Belgorodskaya Oblast'","gns_id":-2883931,"gns_name":"Belgorodskaya Oblast'","gn_level":1,"gn_region":null,"gn_a1_code":"RU.09","region_sub":"Central Black Earth","sub_code":null,"gns_level":1,"gns_lang":"rus","gns_adm1":"RS09","gns_region":null,"min_label":5.0,"max_label":10.2,"min_zoom":4.7,"wikidataid":"Q3329","name_ar":"أوبلاست بيلغورود","name_bn":"বেল্গ্রোদ ওব্লাস্ট","name_de":"Belgorod","name_en":"Belgorod","name_es":"Bélgorod","name_fr":"Belgorod","name_el":"Όμπλαστ του Μπέλγκοροντ","name_hi":"बेल्गोरोद ओब्लास्त","name_hu":"Belgorodi terület","name_id":"Belgorod","name_it":"Belgorod","name_ja":"ベルゴロド州","name_ko":"벨고로드","name_nl":"Belgorod","name_pl":"biełgorodzki","name_pt":"Belgorod","name_ru":"Белгородская область","name_sv":"Belgorod","name_tr":"Belgorod Oblastı","name_vi":"Belgorod","name_zh":"别尔哥罗德州","ne_id":1159313177,"name_he":"מחוז בלגורוד","name_uk":"Бєлгородська область","name_ur":"بلگورود اوبلاست","name_fa":"استان بلگورود","name_zht":"别尔哥罗德州","FCLASS_ISO":null,"FCLASS_US":null,"FCLASS_FR":null,"FCLASS_RU":null,"FCLASS_ES":null,"FCLASS_CN":null,"FCLASS_TW":null,"FCLASS_IN":null,"FCLASS_NP":null,"FCLASS_PK":null,"FCLASS_DE":null,"FCLASS_GB":null,"FCLASS_BR":null,"FCLASS_IL":null,"FCLASS_PS":null,"FCLASS_SA":null,"FCLASS_EG":null,"FCLASS_MA":null,"FCLASS_PT":null,"FCLASS_AR":null,"FCLASS_JP":null,"FCLASS_KO":null,"FCLASS_VN":null,"FCLASS_TR":null,"FCLASS_ID":null,"FCLASS_PL":null,"FCLASS_GR":null,"FCLASS_IT":null,"FCLASS_NL":null,"FCLASS_SE":null,"FCLASS_BD":null,"FCLASS_UA":null,"FCLASS_TLC":null,"iso_id":"RU-BEL","iso_name":"Belgorod"},"geometry":{"type":"Polygon","coordinates":[[[35.673202,50.340184],[35.69687,50.345145],[35.710306,50.355635],[35.721261,50.36871],[35.737694,50.381577],[35.746169,50.383954],[35.765393,50.384523],[35.774384,50.3869],[35.785547,50.394496],[35.80539,50.412169],[35.819343,50.419042],[35.83743,50.423228],[35.931894,50.430153],[36.105837,50.42111],[36.133226,50.411601],[36.14077,50.392946],[36.169296,50.383696],[36.269031,50.281376],[36.291976,50.274038],[36.31585,50.274865],[36.339518,50.28148],[36.361429,50.29166],[36.380962,50.304062],[36.38799,50.30644],[36.400186,50.306646],[36.410005,50.304579],[36.430572,50.296879],[36.452689,50.293572],[36.480181,50.28086],[36.512117,50.276416],[36.536405,50.267527],[36.538886,50.265047],[36.536095,50.260913],[36.531651,50.228822],[36.534648,50.219933],[36.549531,50.212182],[36.571028,50.206911],[36.594386,50.20443],[36.616917,50.206394],[36.635831,50.214042],[36.644409,50.222259],[36.660429,50.243859],[36.669834,50.253006],[36.682649,50.260654],[36.848634,50.323699],[36.914056,50.339099],[36.980099,50.342148],[37.051722,50.335327],[37.197037,50.362405],[37.226699,50.377081],[37.285197,50.41527],[37.314755,50.42297],[37.415214,50.431858],[37.435265,50.424934],[37.450251,50.398992],[37.46379,50.366539],[37.480017,50.340029],[37.568177,50.312537],[37.599183,50.290885],[37.60156,50.249027],[37.591534,50.225308],[37.588641,50.21461],[37.590294,50.20381],[37.597116,50.196937],[37.631842,50.174096],[37.72765,50.078701],[37.76341,50.062578],[37.842785,50.039117],[37.881749,50.023046],[37.915856,50.003306],[37.946552,49.978191],[37.979004,49.941449],[37.995334,49.921347],[37.995851,49.905895],[38.000398,49.899798],[38.066544,49.927238],[38.079153,49.929925],[38.090315,49.928426],[38.108402,49.920675],[38.119047,49.919176],[38.166176,49.94057],[38.171344,49.984082],[38.164109,50.030384],[38.173928,50.06015],[38.189844,50.062785],[38.25382,50.059064],[38.281208,50.062423],[38.299915,50.060511],[38.314074,50.049504],[38.34415,49.992092],[38.356036,49.980568],[38.376293,49.974935],[38.420114,49.971783],[38.437788,49.967287],[38.461145,49.9569],[38.497526,49.948167],[38.570183,49.956642],[38.619482,49.950751],[38.637776,49.95721],[38.662167,49.962585],[38.664647,49.965168],[38.664337,49.962688],[38.672812,49.942999],[38.675603,49.927031],[38.680977,49.918298],[38.687282,49.913802],[38.747846,49.885432],[38.852233,49.865795],[38.886339,49.845176],[38.910524,49.820578],[38.937395,49.803473],[39.032273,49.807349],[39.04912,49.810552],[39.068344,49.821094],[39.099866,49.851635],[39.117126,49.864399],[39.15578,49.873598],[39.181006,49.859487],[39.18379,49.880496],[39.1841,49.913284],[39.187614,49.925945],[39.20384,49.937107],[39.20477,49.940363],[39.200223,49.949251],[39.207561,49.969017],[39.213865,49.979327],[39.219653,49.984805],[39.231125,49.991006],[39.23836,49.997827],[39.265128,50.038703],[39.270813,50.051571],[39.272363,50.05958],[39.268229,50.060717],[39.263888,50.059839],[39.242597,50.051726],[39.235776,50.053534],[39.219033,50.079192],[39.214795,50.097459],[39.18813,50.10472],[39.153197,50.129628],[39.135627,50.148671],[39.130873,50.1519],[39.103381,50.16097],[39.09904,50.164742],[39.097697,50.168876],[39.101727,50.176162],[39.11847,50.183165],[39.121881,50.185878],[39.124362,50.193267],[39.120434,50.213886],[39.104518,50.253264],[39.107929,50.274761],[39.106482,50.279205],[39.098937,50.284425],[39.087981,50.285251],[39.073305,50.283546],[39.058836,50.292176],[39.055735,50.311555],[39.060593,50.318944],[39.074959,50.329486],[39.084157,50.339357],[39.085811,50.344679],[39.084777,50.34871],[39.069068,50.358012],[39.050671,50.366177],[39.04447,50.371603],[39.037442,50.379768],[39.016151,50.413357],[39.003025,50.421212],[38.990416,50.432736],[38.990106,50.437077],[38.994344,50.448135],[38.997238,50.465964],[39.001268,50.47139],[39.036718,50.489115],[39.087258,50.49852],[39.097697,50.506065],[39.077956,50.540223],[39.077026,50.545546],[39.077336,50.552393],[39.084261,50.562961],[39.086741,50.571074],[39.086121,50.576035],[39.072478,50.590349],[39.067414,50.598152],[39.068448,50.601873],[39.072065,50.603449],[39.094906,50.599444],[39.106482,50.600633],[39.110512,50.602183],[39.118781,50.610503],[39.097387,50.626626],[39.072375,50.636109],[39.017598,50.643886],[38.966232,50.646521],[38.960444,50.649208],[38.95848,50.652903],[38.966232,50.682591],[38.964991,50.687475],[38.960754,50.68993],[38.918069,50.697474],[38.913108,50.696622],[38.896365,50.68608],[38.88789,50.684452],[38.879519,50.68701],[38.869907,50.697371],[38.864326,50.700316],[38.81823,50.711582],[38.808309,50.721866],[38.791772,50.732924],[38.784641,50.741709],[38.785881,50.749073],[38.788051,50.752174],[38.795493,50.756127],[38.79911,50.762483],[38.798283,50.77411],[38.793942,50.783619],[38.786811,50.786306],[38.762006,50.782017],[38.746917,50.781862],[38.733481,50.783929],[38.724489,50.790078],[38.720562,50.813074],[38.721492,50.816485],[38.740922,50.827053],[38.745057,50.834313],[38.745057,50.838525],[38.741026,50.844313],[38.718288,50.856431],[38.712811,50.860823],[38.711157,50.864286],[38.741646,50.867903],[38.743403,50.871572],[38.741853,50.877463],[38.734411,50.888677],[38.732241,50.894878],[38.732861,50.899529],[38.736685,50.901389],[38.803141,50.912913],[38.814303,50.910019],[38.819264,50.903302],[38.829186,50.897565],[38.863706,50.89772],[38.871871,50.900924],[38.873628,50.911311],[38.869287,50.948157],[38.858951,50.969266],[38.855748,50.990066],[38.855437,51.014458],[38.84903,51.03164],[38.845826,51.036472],[38.835077,51.041898],[38.81358,51.043913],[38.803451,51.047169],[38.761696,51.06939],[38.737615,51.073679],[38.734205,51.072593],[38.72883,51.067374],[38.714051,51.061328],[38.69493,51.059313],[38.678497,51.054817],[38.673536,51.047789],[38.666405,51.031614],[38.652349,51.014354],[38.643047,51.006577],[38.633332,51.001177],[38.618449,50.998386],[38.580932,51.003037],[38.550857,51.010944],[38.545586,51.016421],[38.520988,51.056083],[38.516233,51.061845],[38.509102,51.06541],[38.473135,51.074299],[38.449984,51.074299],[38.422802,51.070216],[38.403372,51.071353],[38.398928,51.073472],[38.396861,51.076521],[38.395207,51.087011],[38.394897,51.109387],[38.39066,51.119722],[38.368232,51.132538],[38.365855,51.136982],[38.369472,51.146026],[38.381255,51.153209],[38.395621,51.156826],[38.459286,51.158583],[38.475719,51.162097],[38.489982,51.167781],[38.495769,51.172381],[38.498663,51.176618],[38.50104,51.185558],[38.50104,51.188865],[38.498973,51.191811],[38.478199,51.202973],[38.457426,51.22491],[38.451845,51.234651],[38.445953,51.257388],[38.439856,51.263486],[38.420322,51.274855],[38.407093,51.279041],[38.353763,51.266638],[38.335779,51.266897],[38.316556,51.270308],[38.300639,51.275966],[38.293715,51.284725],[38.291544,51.292451],[38.20111,51.306688],[38.176823,51.313251],[38.166487,51.323534],[38.155118,51.329296],[38.125456,51.334903],[38.078327,51.352525],[38.066545,51.354824],[38.048975,51.353093],[38.044014,51.35392],[38.039673,51.355755],[38.027271,51.366167],[38.028511,51.372885],[38.031198,51.375676],[38.046701,51.384357],[38.051766,51.39092],[38.052592,51.398465],[38.050422,51.414407],[38.046495,51.419652],[38.04174,51.421203],[38.015489,51.418205],[37.931876,51.419704],[37.920817,51.416862],[37.912343,51.406785],[37.907175,51.403219],[37.900044,51.400687],[37.884334,51.400325],[37.877719,51.400894],[37.869761,51.403865],[37.846197,51.416164],[37.836688,51.419187],[37.828627,51.420479],[37.818085,51.419032],[37.80868,51.416345],[37.756797,51.387536],[37.718143,51.379603],[37.694165,51.369216],[37.666673,51.365651],[37.580993,51.370767],[37.560633,51.376503],[37.554638,51.388026],[37.54637,51.393091],[37.538619,51.394279],[37.520015,51.393142],[37.494074,51.385133],[37.468029,51.382394],[37.462758,51.380998],[37.452836,51.372575],[37.447048,51.372317],[37.379145,51.385443],[37.368603,51.385779],[37.361575,51.384357],[37.352894,51.370844],[37.341731,51.364359],[37.249127,51.330976],[37.220705,51.326376],[37.189389,51.328831],[37.178744,51.331958],[37.166238,51.339554],[37.144224,51.342913],[37.136886,51.341104],[37.129445,51.334438],[37.123243,51.321674],[37.119833,51.309427],[37.118903,51.284622],[37.130375,51.242764],[37.12469,51.232997],[37.10371,51.229948],[37.093478,51.231188],[37.086036,51.235814],[37.084486,51.239043],[37.0849,51.250412],[37.082316,51.252479],[37.075598,51.252479],[37.053997,51.246898],[37.034153,51.234754],[36.989608,51.200441],[36.94806,51.184111],[36.93018,51.181011],[36.872509,51.187522],[36.855766,51.185765],[36.793548,51.162666],[36.688748,51.127422],[36.672005,51.120007],[36.652574,51.108922],[36.617538,51.079751],[36.611027,51.078045],[36.599554,51.079466],[36.594387,51.084789],[36.585292,51.088406],[36.560074,51.09391],[36.527414,51.107914],[36.505607,51.123081],[36.499922,51.121996],[36.48628,51.093135],[36.484213,51.090448],[36.476151,51.086339],[36.428092,51.104142],[36.403701,51.117914],[36.393262,51.121841],[36.376209,51.125252],[36.359052,51.12582],[36.354505,51.124218],[36.340242,51.107914],[36.329804,51.105253],[36.313577,51.103341],[36.256423,51.104168],[36.244331,51.106287],[36.213325,51.124528],[36.129816,51.126182],[36.098603,51.129593],[36.040622,51.160288],[36.030184,51.161684],[35.983985,51.159668],[35.976337,51.157524],[35.945021,51.126905],[35.93975,51.116105],[35.94347,51.103031],[35.949568,51.094866],[35.999591,51.057659],[35.998868,51.053318],[35.967242,51.050941],[35.95825,51.047685],[35.914945,51.011047],[35.892724,51.016628],[35.876911,51.012365],[35.86947,51.004897],[35.855621,50.979369],[35.835984,50.969912],[35.832366,50.961593],[35.816967,50.944694],[35.804151,50.938235],[35.792059,50.939113],[35.76684,50.948157],[35.756195,50.955391],[35.745653,50.967122],[35.740692,50.969551],[35.73108,50.971049],[35.721158,50.967225],[35.71103,50.953376],[35.709893,50.949914],[35.711133,50.946865],[35.717644,50.937615],[35.715681,50.933015],[35.710823,50.930897],[35.69563,50.929605],[35.677234,50.919295],[35.663488,50.918184],[35.637133,50.921853],[35.633102,50.923998],[35.630208,50.93423],[35.627211,50.937201],[35.612948,50.939268],[35.592277,50.92113],[35.569023,50.910691],[35.546389,50.90573],[35.520964,50.909684],[35.509905,50.913017],[35.504221,50.918236],[35.506081,50.925522],[35.518173,50.937408],[35.520137,50.941077],[35.518173,50.944436],[35.512386,50.947123],[35.48107,50.95056],[35.455128,50.962859],[35.449444,50.963039],[35.400971,50.953273],[35.387535,50.952084],[35.37782,50.952497],[35.367175,50.955908],[35.349295,50.958544],[35.282218,50.961107],[35.282218,50.954255],[35.284802,50.944333],[35.293587,50.937615],[35.317151,50.934205],[35.32914,50.929089],[35.341749,50.91586],[35.34299,50.904129],[35.340406,50.89183],[35.341439,50.876482],[35.348571,50.86377],[35.369034,50.846045],[35.377716,50.833746],[35.37968,50.819586],[35.377406,50.807546],[35.37906,50.797211],[35.393116,50.788374],[35.41823,50.778917],[35.429393,50.772148],[35.438488,50.762381],[35.447066,50.73432],[35.443759,50.709464],[35.445412,50.687502],[35.468873,50.668536],[35.391565,50.646367],[35.376166,50.634585],[35.377716,50.621821],[35.425258,50.500485],[35.446446,50.476042],[35.480139,50.466895],[35.501946,50.464311],[35.52272,50.459505],[35.540807,50.450048],[35.554656,50.433253],[35.562304,50.409637],[35.563855,50.391809],[35.570159,50.376461],[35.592173,50.360493],[35.611397,50.351708],[35.631551,50.34499],[35.652118,50.341114],[35.673202,50.340184]]]}}
