{"type":"Feature","properties":{"featurecla":"Admin-1 states provinces","scalerank":2,"adm1_code":"RUS-2390","diss_me":2390,"iso_3166_2":"RU-KL","wikipedia":null,"iso_a2":"RU","adm0_sr":1,"name":"Republic of Kalmykia","name_alt":"Kalmykiya|Khalmg Tangch|Republic of Kalmykia|Kalmytskaya A.S.S.R.|Respublika Kalmykiya","name_local":"Республика Калмыкия","type":"Respublika","type_en":"Republic","code_local":null,"code_hasc":"RU.KL","note":null,"hasc_maybe":null,"region":"Volga","region_cod":null,"provnum_ne":20041,"gadm_level":1,"check_me":20,"datarank":2,"abbrev":null,"postal":"KL","area_sqkm":0,"sameascity":-99,"labelrank":2,"name_len":6,"mapcolor9":7,"mapcolor13":7,"fips":"RS24","fips_alt":null,"woe_id":2346872,"woe_label":"Kalmykiya, RU, Russia","woe_name":"Kalmyk","latitude":46.5191,"longitude":45.4681,"sov_a3":"RUS","adm0_a3":"RUS","adm0_label":2,"admin":"Russia","geonunit":"Russia","gu_a3":"RUS","gn_id":553972,"gn_name":"Respublika Kalmykiya","gns_id":-2919206,"gns_name":"Kalmykiya, Respublika","gn_level":1,"gn_region":null,"gn_a1_code":"RU.24","region_sub":"Volga","sub_code":null,"gns_level":1,"gns_lang":"rus","gns_adm1":"RS24","gns_region":null,"min_label":5.0,"max_label":10.2,"min_zoom":4.7,"wikidataid":"Q3953","name_ar":"قلميقيا","name_bn":"কালমিকিয়া","name_de":"Kalmückien","name_en":"Republic of Kalmykia","name_es":"Kalmukia","name_fr":"Kalmoukie","name_el":"Δημοκρατία της Καλμίκια","name_hi":"कालमिकिया","name_hu":"Kalmükföld","name_id":"Kalmykia","name_it":"Calmucchia","name_ja":"カルムイク共和国","name_ko":"칼미크 공화국","name_nl":"Kalmukkië","name_pl":"Kałmucja","name_pt":"Calmúquia","name_ru":"Калмыкия","name_sv":"Kalmuckien","name_tr":"Kalmukya","name_vi":"Kalmykia","name_zh":"卡尔梅克共和国","ne_id":1159313207,"name_he":"קלמיקיה","name_uk":"Калмикія","name_ur":"کلمیکیا","name_fa":"قالموقستان","name_zht":"卡尔梅克共和国","FCLASS_ISO":null,"FCLASS_US":null,"FCLASS_FR":null,"FCLASS_RU":null,"FCLASS_ES":null,"FCLASS_CN":null,"FCLASS_TW":null,"FCLASS_IN":null,"FCLASS_NP":null,"FCLASS_PK":null,"FCLASS_DE":null,"FCLASS_GB":null,"FCLASS_BR":null,"FCLASS_IL":null,"FCLASS_PS":null,"FCLASS_SA":null,"FCLASS_EG":null,"FCLASS_MA":null,"FCLASS_PT":null,"FCLASS_AR":null,"FCLASS_JP":null,"FCLASS_KO":null,"FCLASS_VN":null,"FCLASS_TR":null,"FCLASS_ID":null,"FCLASS_PL":null,"FCLASS_GR":null,"FCLASS_IT":null,"FCLASS_NL":null,"FCLASS_SE":null,"FCLASS_BD":null,"FCLASS_UA":null,"FCLASS_TLC":null,"iso_id":"RU-KL","iso_name":"Republic of Kalmykia"},"geometry":{"type":"Polygon","coordinates":[[[47.49643,45.565253],[47.485918,45.571327],[47.478787,45.581507],[47.472483,45.613237],[47.471656,45.629877],[47.470002,45.634838],[47.466281,45.639023],[47.460804,45.642641],[47.416465,45.65711],[47.398792,45.666567],[47.379775,45.681424],[47.373574,45.68424],[47.364582,45.685429],[47.35404,45.684499],[47.3374,45.677574],[47.328925,45.671579],[47.315283,45.656025],[47.30195,45.647137],[47.254098,45.647447],[47.153122,45.615666],[46.922232,45.577658],[46.888952,45.578278],[46.906212,45.63675],[47.040158,45.965722],[47.047289,45.976135],[47.05597,45.983421],[47.090284,45.993084],[47.098655,45.998097],[47.108577,46.007993],[47.173173,46.083131],[47.176067,46.094086],[47.175963,46.09977],[47.173793,46.104835],[47.161597,46.11548],[47.144854,46.118374],[47.089043,46.118167],[46.84017,46.075534],[46.835829,46.07755],[46.834692,46.086154],[46.836242,46.093595],[46.863424,46.162402],[46.87562,46.233922],[46.869625,46.239297],[46.856293,46.244154],[46.504376,46.273817],[46.500139,46.280276],[46.493007,46.285702],[46.531145,46.337689],[46.598634,46.395618],[46.615274,46.406005],[46.663643,46.429001],[46.703124,46.437373],[46.734956,46.440783],[46.939699,46.431585],[46.954065,46.434065],[46.957889,46.443677],[46.958199,46.455976],[46.951377,46.513569],[46.942076,46.540338],[46.930087,46.555557],[46.938665,46.571266],[46.950757,46.584909],[46.98135,46.610385],[47.021967,46.63519],[47.149505,46.668263],[47.168005,46.705444],[47.184438,46.716038],[47.201801,46.730223],[47.21348,46.742315],[47.206659,46.756371],[47.19312,46.771151],[47.175756,46.786343],[47.146921,46.818796],[47.140203,46.83647],[47.12594,46.850681],[47.111161,46.855616],[47.091937,46.856546],[47.014423,46.852334],[47.000263,46.855435],[46.987861,46.86329],[46.934014,46.962663],[46.924816,46.973981],[46.912,46.979613],[46.835932,46.991706],[46.817329,46.996822],[46.800896,47.003643],[46.778985,47.038757],[46.748392,47.064518],[46.725758,47.089452],[46.673978,47.162264],[46.657132,47.193115],[46.602975,47.270862],[46.570936,47.303573],[46.551298,47.329385],[46.52577,47.377884],[46.515642,47.392611],[46.511301,47.406435],[46.511818,47.417881],[46.514712,47.425581],[46.526494,47.434754],[46.788183,47.556632],[46.805857,47.578181],[46.73568,47.611978],[46.71563,47.619781],[46.68452,47.627998],[46.672531,47.626292],[46.641939,47.612701],[46.449393,47.478136],[46.388001,47.444805],[46.346246,47.433281],[46.328056,47.432118],[46.29705,47.437001],[46.116286,47.502424],[45.954849,47.618205],[45.925394,47.645051],[45.907203,47.710163],[45.891907,47.714866],[45.843331,47.719258],[45.835063,47.722204],[45.828862,47.728198],[45.815323,47.760548],[45.793929,47.797935],[45.782043,47.81119],[45.766644,47.821009],[45.74742,47.829975],[45.734087,47.843488],[45.712693,47.886328],[45.707009,47.908394],[45.708146,47.938521],[45.712693,47.950458],[45.741012,48.00012],[45.738842,48.007303],[45.722098,48.029136],[45.716517,48.032934],[45.708869,48.035311],[45.67683,48.032314],[45.564485,47.995236],[45.546915,47.997071],[45.404908,48.09169],[45.380931,48.096961],[45.300625,48.097685],[45.136915,48.111844],[45.129163,48.113911],[45.096193,48.137837],[44.962558,48.208686],[44.9546,48.208479],[44.946228,48.204396],[44.935273,48.192692],[44.933413,48.185328],[44.934033,48.179023],[44.945608,48.160213],[44.945918,48.154632],[44.941474,48.144193],[44.933206,48.13546],[44.867267,48.090295],[44.82975,48.071691],[44.796367,48.061253],[44.779004,48.05885],[44.765981,48.058824],[44.662318,48.089261],[44.653947,48.09045],[44.643611,48.088073],[44.633896,48.08213],[44.610435,48.059909],[44.598963,48.055413],[44.568991,48.056524],[44.551834,48.05947],[44.546666,48.063061],[44.545013,48.068487],[44.549353,48.114247],[44.543772,48.136339],[44.540052,48.160058],[44.540155,48.196903],[44.534781,48.205482],[44.521965,48.209512],[44.473699,48.214163],[44.461814,48.220209],[44.454062,48.228452],[44.44228,48.233904],[44.401145,48.231165],[44.393394,48.232844],[44.388123,48.235816],[44.375824,48.24796],[44.363525,48.25367],[44.318773,48.25907],[44.311125,48.258192],[44.305854,48.255065],[44.299033,48.245428],[44.296036,48.233284],[44.295726,48.213233],[44.314122,48.094119],[44.318773,48.078487],[44.328075,48.063837],[44.33717,48.057842],[44.347092,48.054897],[44.456233,48.048179],[44.461917,48.044458],[44.465224,48.038774],[44.466878,47.990249],[44.465328,47.983531],[44.461917,47.976193],[44.445484,47.960432],[44.413341,47.938883],[44.394117,47.923277],[44.388123,47.908187],[44.389053,47.868267],[44.082509,47.909014],[44.071553,47.906559],[44.058841,47.900487],[44.01874,47.865037],[44.01812,47.86173],[44.020807,47.856252],[44.03848,47.833515],[44.037447,47.825867],[44.032279,47.8161],[44.004064,47.789383],[43.974298,47.766826],[43.963549,47.760444],[43.951457,47.756052],[43.934817,47.755432],[43.891512,47.761969],[43.864227,47.761788],[43.841593,47.75693],[43.822059,47.749747],[43.78909,47.730937],[43.729042,47.703497],[43.718706,47.69652],[43.705167,47.683136],[43.653491,47.606759],[43.636334,47.575727],[43.633647,47.570378],[43.647496,47.547382],[43.731522,47.476611],[43.75674,47.447983],[43.784026,47.404084],[43.799218,47.370649],[43.801182,47.362949],[43.801492,47.343725],[43.792707,47.289724],[43.795911,47.285228],[43.802319,47.282541],[43.927273,47.266831],[43.934714,47.266883],[43.939158,47.268898],[43.942259,47.29949],[43.953317,47.364861],[43.957762,47.37623],[43.96479,47.38548],[43.973678,47.393387],[43.9836,47.400466],[44.003444,47.408838],[44.109587,47.413695],[44.116408,47.41845],[44.119509,47.428837],[44.116822,47.533481],[44.117649,47.538132],[44.120852,47.542215],[44.12633,47.544643],[44.228443,47.574642],[44.238778,47.573376],[44.244566,47.569319],[44.245496,47.51865],[44.24684,47.513121],[44.25056,47.508883],[44.256658,47.505938],[44.318877,47.4909],[44.330245,47.485009],[44.332726,47.48072],[44.33438,47.450076],[44.330969,47.403257],[44.327558,47.110768],[44.262446,46.900135],[44.190202,46.844479],[44.162194,46.832878],[44.102869,46.83678],[44.087263,46.834919],[44.072587,46.827736],[44.05295,46.798953],[44.027318,46.780349],[43.930373,46.72273],[43.915697,46.706968],[43.912596,46.692189],[43.912596,46.682396],[43.908256,46.672785],[43.874356,46.629454],[43.861954,46.618938],[43.835392,46.604546],[43.82299,46.595916],[43.817098,46.588733],[43.814308,46.580051],[43.815858,46.574263],[43.820509,46.570284],[43.902675,46.549045],[43.914974,46.542327],[43.920761,46.537108],[43.926446,46.528323],[43.927686,46.521037],[43.917351,46.428458],[43.918384,46.415979],[43.936574,46.394869],[43.960139,46.375309],[43.96572,46.368798],[43.970164,46.356602],[43.969854,46.346112],[43.966443,46.339756],[43.960759,46.336138],[43.922415,46.322496],[43.901124,46.309783],[43.882107,46.295417],[43.872186,46.29056],[43.861747,46.291826],[43.861954,46.321927],[43.85937,46.336397],[43.843247,46.364044],[43.828261,46.381924],[43.819889,46.389572],[43.785886,46.407452],[43.779375,46.408899],[43.772967,46.407917],[43.768523,46.404661],[43.765422,46.3997],[43.75736,46.369263],[43.747025,46.355207],[43.730179,46.339136],[43.675815,46.271905],[43.663103,46.252474],[43.646049,46.215732],[43.619384,46.197284],[43.55944,46.168862],[43.544557,46.164159],[43.510554,46.162402],[43.355628,46.17235],[43.339918,46.177182],[43.318834,46.190049],[43.243077,46.2471],[43.180341,46.284979],[43.080192,46.359755],[42.957719,46.424247],[42.928367,46.435616],[42.911831,46.435047],[42.787187,46.389417],[42.776645,46.388435],[42.767447,46.388952],[42.740058,46.397943],[42.609937,46.407555],[42.596811,46.410863],[42.57304,46.435771],[42.555987,46.445692],[42.522294,46.456157],[42.499143,46.466776],[42.451394,46.47998],[42.445813,46.482899],[42.442712,46.486724],[42.441575,46.491039],[42.442815,46.494733],[42.441265,46.498299],[42.409329,46.524938],[42.180919,46.577881],[42.168517,46.578708],[42.072812,46.558347],[42.049764,46.55752],[42.040049,46.554316],[42.035192,46.550957],[42.034262,46.543258],[42.050074,46.485122],[42.057413,46.465846],[42.074466,46.435357],[42.087695,46.417891],[42.099581,46.407142],[42.105368,46.4043],[42.150327,46.398098],[42.160145,46.394016],[42.172651,46.385541],[42.179369,46.376989],[42.205931,46.322651],[42.206344,46.317018],[42.2019,46.314486],[42.152187,46.312367],[41.994987,46.301308],[41.963051,46.289113],[41.962431,46.262499],[41.952096,46.245446],[41.934629,46.232527],[41.927395,46.224181],[41.923364,46.216404],[41.920367,46.194545],[41.914992,46.184649],[41.908274,46.180231],[41.899799,46.177595],[41.880679,46.174029],[41.856908,46.155013],[41.848123,46.15279],[41.840061,46.152945],[41.79624,46.164418],[41.783527,46.169559],[41.77836,46.185967],[41.770815,46.194312],[41.744253,46.210616],[41.736812,46.212838],[41.72596,46.213562],[41.711801,46.209118],[41.692887,46.194855],[41.676661,46.185579],[41.659194,46.178319],[41.651132,46.172427],[41.647102,46.167079],[41.648032,46.156149],[41.670046,46.131293],[41.667255,46.120803],[41.65816,46.112147],[41.655783,46.105274],[41.658264,46.098065],[41.661571,46.092639],[41.703739,46.052797],[41.713868,46.040291],[41.717898,46.031816],[41.720172,46.018018],[41.717692,46.006494],[41.712627,45.996004],[42.036329,45.965102],[42.070642,45.956523],[42.090485,45.944328],[42.096067,45.933191],[42.099787,45.929316],[42.104852,45.927895],[42.116634,45.930788],[42.139475,45.94239],[42.149707,45.948979],[42.157148,45.960399],[42.157768,45.971871],[42.151567,46.016416],[42.152394,46.022643],[42.154978,46.028457],[42.174201,46.044942],[42.179679,46.05582],[42.178439,46.071038],[42.173891,46.088324],[42.177405,46.099099],[42.203554,46.108659],[42.317655,46.125505],[42.332538,46.124782],[42.337912,46.119898],[42.339669,46.107108],[42.332021,46.062718],[42.325096,46.039206],[42.317448,45.980811],[42.319515,45.975514],[42.32551,45.971949],[42.339979,45.971871],[42.480436,45.988821],[42.516609,45.9897],[42.533456,45.997658],[42.646317,46.071038],[42.655309,46.079203],[42.671225,46.088402],[42.702644,46.094086],[42.725382,46.094965],[42.739128,46.099202],[42.834626,46.155788],[42.847959,46.167053],[42.852403,46.17465],[42.851886,46.177233],[42.838037,46.192995],[42.835763,46.197387],[42.835866,46.202245],[42.839587,46.205862],[42.905423,46.240279],[42.915551,46.241416],[42.923406,46.238883],[42.932708,46.232372],[42.975289,46.190359],[42.991412,46.179559],[43.174347,46.125195],[43.237289,46.112431],[43.262507,46.102949],[43.286692,46.090107],[43.305502,46.076671],[43.356661,46.030576],[43.36679,46.024116],[43.392525,46.016003],[43.568328,45.981018],[43.742271,45.978899],[43.80914,45.968151],[43.87756,45.94549],[43.895233,45.934871],[43.921175,45.906552],[43.927583,45.90185],[43.969854,45.885365],[43.991455,45.867976],[44.039307,45.820614],[44.080028,45.79581],[44.096978,45.773899],[44.111137,45.73819],[44.116098,45.712921],[44.136562,45.667755],[44.142453,45.658557],[44.148241,45.652511],[44.187618,45.622022],[44.207152,45.610007],[44.277122,45.580216],[44.420989,45.52673],[44.549664,45.509264],[44.706346,45.506008],[44.737662,45.496603],[44.827063,45.455675],[45.352509,45.243389],[45.586189,45.158303],[45.596111,45.147322],[45.614922,45.117453],[45.711866,45.013687],[45.717344,44.999941],[45.704528,44.977152],[45.705975,44.975782],[45.853667,45.000509],[45.916505,44.984386],[45.938416,44.982423],[46.004252,44.986324],[46.070294,44.969814],[46.097269,44.966403],[46.179848,44.965886],[46.433683,44.93656],[46.603492,44.885323],[46.771957,44.81065],[46.776298,44.806361],[46.781362,44.796853],[46.783016,44.77706],[46.786736,44.768896],[46.792937,44.765072],[46.800276,44.763392],[46.813608,44.766338],[46.824253,44.772229],[46.84327,44.786362],[46.851125,44.788119],[46.860427,44.789049],[46.87562,44.787344],[46.883991,44.784554],[46.889882,44.780729],[46.892776,44.776259],[46.8935,44.770833],[46.88814,44.751868],[46.923839,44.77204],[46.94337,44.77497],[46.961599,44.765204],[46.971446,44.783759],[47.003184,44.817613],[47.01002,44.830064],[47.003917,44.84809],[46.991954,44.870063],[46.983897,44.893378],[46.988943,44.915432],[47.003184,44.921576],[47.011485,44.902289],[47.016287,44.857978],[47.023611,44.842963],[47.059093,44.802924],[47.071462,44.785102],[47.078298,44.785102],[47.079112,44.800116],[47.084483,44.817532],[47.111664,44.869574],[47.098155,44.946519],[47.098806,44.956366],[47.111501,44.958482],[47.12672,44.950263],[47.139659,44.938218],[47.146007,44.929104],[47.154959,44.948635],[47.165782,44.966986],[47.180675,44.976711],[47.201182,44.970038],[47.211681,44.990302],[47.227875,45.033393],[47.250499,45.065253],[47.261241,45.085028],[47.275645,45.120836],[47.286469,45.165961],[47.29713,45.187445],[47.314464,45.196601],[47.338145,45.192206],[47.356456,45.185248],[47.370128,45.185614],[47.379405,45.202826],[47.379405,45.282213],[47.384044,45.299465],[47.395193,45.320014],[47.423188,45.357856],[47.424978,45.363918],[47.427745,45.367336],[47.448253,45.374742],[47.460134,45.390815],[47.459158,45.398749],[47.444835,45.402045],[47.395356,45.404934],[47.381358,45.411038],[47.393565,45.422553],[47.419119,45.426663],[47.477387,45.422431],[47.496755,45.429999],[47.49879,45.438137],[47.496267,45.461575],[47.496755,45.470893],[47.501475,45.480455],[47.534434,45.50609],[47.538259,45.506496],[47.526134,45.524848],[47.500173,45.557685],[47.49643,45.565253]]]}}
