{"type":"Feature","properties":{"featurecla":"Admin-1 states provinces","scalerank":8,"adm1_code":"RWA-3491","diss_me":3491,"iso_3166_2":"RW-05","wikipedia":null,"iso_a2":"RW","adm0_sr":1,"name":"Southern","name_alt":"Province du Sud","name_local":"Sud","type":"Province","type_en":"Province","code_local":null,"code_hasc":"RW.SU","note":null,"hasc_maybe":null,"region":null,"region_cod":null,"provnum_ne":0,"gadm_level":0,"check_me":0,"datarank":9,"abbrev":"South","postal":"S","area_sqkm":0,"sameascity":-99,"labelrank":9,"name_len":8,"mapcolor9":3,"mapcolor13":10,"fips":null,"fips_alt":null,"woe_id":55864752,"woe_label":"Province du Sud, RW, Rwanda","woe_name":"Southern","latitude":-2.38388,"longitude":29.6424,"sov_a3":"RWA","adm0_a3":"RWA","adm0_label":2,"admin":"Rwanda","geonunit":"Rwanda","gu_a3":"RWA","gn_id":6413341,"gn_name":"Southern Province","gns_id":9244464,"gns_name":"Sud, Province du","gn_level":1,"gn_region":null,"gn_a1_code":"RW.15","region_sub":null,"sub_code":null,"gns_level":1,"gns_lang":"fra","gns_adm1":"RW15","gns_region":null,"min_label":8.7,"max_label":11.0,"min_zoom":8.7,"wikidataid":"Q853162","name_ar":"المحافظة الجنوبية، رواندا","name_bn":"সাউদার্ন প্রদেশ","name_de":"Südprovinz","name_en":"Southern","name_es":"Sur","name_fr":"Sud","name_el":"Νότια Ρουάντα","name_hi":"दक्षिणी प्रांत","name_hu":"Déli","name_id":"Selatan","name_it":"Meridionale","name_ja":"南部州","name_ko":"남부","name_nl":"Sud","name_pl":"Prowincja Południowa","name_pt":"Sul","name_ru":"Южная провинция","name_sv":"Sydprovinsen","name_tr":"Güney Eyaleti","name_vi":"Tỉnh Miền Nam","name_zh":"南部省","ne_id":1159314991,"name_he":"מחוז הדרום","name_uk":"Південна провінція","name_ur":"جنوبی صوبہ، روانڈا","name_fa":"استان جنوبی","name_zht":"南部省","FCLASS_ISO":null,"FCLASS_US":null,"FCLASS_FR":null,"FCLASS_RU":null,"FCLASS_ES":null,"FCLASS_CN":null,"FCLASS_TW":null,"FCLASS_IN":null,"FCLASS_NP":null,"FCLASS_PK":null,"FCLASS_DE":null,"FCLASS_GB":null,"FCLASS_BR":null,"FCLASS_IL":null,"FCLASS_PS":null,"FCLASS_SA":null,"FCLASS_EG":null,"FCLASS_MA":null,"FCLASS_PT":null,"FCLASS_AR":null,"FCLASS_JP":null,"FCLASS_KO":null,"FCLASS_VN":null,"FCLASS_TR":null,"FCLASS_ID":null,"FCLASS_PL":null,"FCLASS_GR":null,"FCLASS_IT":null,"FCLASS_NL":null,"FCLASS_SE":null,"FCLASS_BD":null,"FCLASS_UA":null,"FCLASS_TLC":null,"iso_id":"RW-05","iso_name":"Southern","source":"iso-3166-2-subdivisions"},"geometry":{"type":"Polygon","coordinates":[[[29.956781,-2.327038],[29.980382,-2.242926],[29.984257,-2.160658],[30.016503,-2.111462],[30.017847,-2.072136],[29.990562,-2.06056],[29.984464,-2.048416],[30.009889,-2.016584],[29.993921,-1.986301],[30.002137,-1.958396],[29.981105,-1.909407],[29.914494,-1.860934],[29.845816,-1.860728],[29.818479,-1.851426],[29.799514,-1.839333],[29.741585,-1.748435],[29.721379,-1.74952],[29.675026,-1.729676],[29.657662,-1.733087],[29.670323,-1.798561],[29.663967,-1.850082],[29.671512,-1.901242],[29.662468,-1.921809],[29.670995,-1.952246],[29.659523,-1.970953],[29.622729,-1.973951],[29.636268,-2.045109],[29.632703,-2.071464],[29.599836,-2.138385],[29.605779,-2.182258],[29.564541,-2.202205],[29.552863,-2.197865],[29.466511,-2.269436],[29.411062,-2.272795],[29.379746,-2.292536],[29.35365,-2.291399],[29.338509,-2.29915],[29.325693,-2.324782],[29.339129,-2.355168],[29.319853,-2.393718],[29.325796,-2.414389],[29.321714,-2.423484],[29.280114,-2.446015],[29.266885,-2.471853],[29.267815,-2.478571],[29.311947,-2.497123],[29.320215,-2.508233],[29.34502,-2.561925],[29.343263,-2.58797],[29.359954,-2.61262],[29.356647,-2.64869],[29.342539,-2.673856],[29.309481,-2.690127],[29.337516,-2.723812],[29.318086,-2.762569],[29.339687,-2.826441],[29.425366,-2.803394],[29.480867,-2.813729],[29.504121,-2.826855],[29.541845,-2.808561],[29.574091,-2.806081],[29.619256,-2.787684],[29.678684,-2.805357],[29.719922,-2.805461],[29.729637,-2.79957],[29.744727,-2.759985],[29.803379,-2.767324],[29.842395,-2.752441],[29.876191,-2.71358],[29.897896,-2.671102],[29.907921,-2.5354],[29.929573,-2.459849],[29.92239,-2.382954],[29.928798,-2.322493],[29.941924,-2.316602],[29.956781,-2.327038]]]}}
