{"type":"Feature","properties":{"featurecla":"Admin-1 states provinces","scalerank":6,"adm1_code":"SLB-5130","diss_me":5130,"iso_3166_2":"SB-CT","wikipedia":null,"iso_a2":"SB","adm0_sr":1,"name":"Honiara","name_alt":null,"name_local":null,"type":"Province","type_en":"Province","code_local":null,"code_hasc":"SB.CT","note":null,"hasc_maybe":null,"region":null,"region_cod":null,"provnum_ne":8,"gadm_level":1,"check_me":0,"datarank":8,"abbrev":null,"postal":"GC","area_sqkm":0,"sameascity":-99,"labelrank":6,"name_len":27,"mapcolor9":1,"mapcolor13":6,"fips":"BP06","fips_alt":null,"woe_id":-2344839,"woe_label":null,"woe_name":null,"latitude":-9.44658,"longitude":160.019,"sov_a3":"SLB","adm0_a3":"SLB","adm0_label":5,"admin":"Solomon Islands","geonunit":"Solomon Islands","gu_a3":"SLB","gn_id":-99,"gn_name":null,"gns_id":0,"gns_name":null,"gn_level":0,"gn_region":null,"gn_a1_code":"SB.","region_sub":null,"sub_code":null,"gns_level":0,"gns_lang":null,"gns_adm1":null,"gns_region":null,"min_label":7.0,"max_label":11.0,"min_zoom":7.0,"wikidataid":"Q40921","name_ar":"هونيارا","name_bn":"হোনিয়ারা","name_de":"Honiara","name_en":"Honiara","name_es":"Honiara","name_fr":"Honiara","name_el":"Ονιάρα","name_hi":"होनिअरा","name_hu":"Honiara","name_id":"Honiara","name_it":"Honiara","name_ja":"ホニアラ","name_ko":"호니아라","name_nl":"Honiara","name_pl":"Honiara","name_pt":"Honiara","name_ru":"Хониара","name_sv":"Honiara","name_tr":"Honiara","name_vi":"Honiara","name_zh":"霍尼亚拉","ne_id":1159316483,"name_he":"הוניארה","name_uk":"Хоніара","name_ur":"ہونیارا","name_fa":"هونیارا","name_zht":"荷尼阿拉","FCLASS_ISO":null,"FCLASS_US":null,"FCLASS_FR":null,"FCLASS_RU":null,"FCLASS_ES":null,"FCLASS_CN":null,"FCLASS_TW":null,"FCLASS_IN":null,"FCLASS_NP":null,"FCLASS_PK":null,"FCLASS_DE":null,"FCLASS_GB":null,"FCLASS_BR":null,"FCLASS_IL":null,"FCLASS_PS":null,"FCLASS_SA":null,"FCLASS_EG":null,"FCLASS_MA":null,"FCLASS_PT":null,"FCLASS_AR":null,"FCLASS_JP":null,"FCLASS_KO":null,"FCLASS_VN":null,"FCLASS_TR":null,"FCLASS_ID":null,"FCLASS_PL":null,"FCLASS_GR":null,"FCLASS_IT":null,"FCLASS_NL":null,"FCLASS_SE":null,"FCLASS_BD":null,"FCLASS_UA":null,"FCLASS_TLC":null,"iso_id":"SB-CT","iso_name":"Honiara"},"geometry":{"type":"Polygon","coordinates":[[[159.939708,-9.432875],[159.953824,-9.450312],[159.982147,-9.461159],[160.012817,-9.457908],[160.022046,-9.467445],[160.037121,-9.4616],[160.036506,-9.450525],[160.042043,-9.431143],[160.028005,-9.422133],[160.010265,-9.431817],[159.999848,-9.433282],[159.960948,-9.434666],[159.939708,-9.432875]]]}}
