{"type":"Feature","properties":{"featurecla":"Admin-1 states provinces","scalerank":6,"adm1_code":"SLB-3509","diss_me":3509,"iso_3166_2":"SB-MK","wikipedia":null,"iso_a2":"SB","adm0_sr":4,"name":"Makira-Ulawa","name_alt":"Makira and Ulawa","name_local":null,"type":"Province","type_en":"Province","code_local":null,"code_hasc":"SB.MK","note":null,"hasc_maybe":null,"region":null,"region_cod":null,"provnum_ne":6,"gadm_level":1,"check_me":0,"datarank":8,"abbrev":null,"postal":"MK","area_sqkm":0,"sameascity":-99,"labelrank":6,"name_len":6,"mapcolor9":1,"mapcolor13":6,"fips":"BP08","fips_alt":null,"woe_id":2344841,"woe_label":"Makira, SB, Solomon Islands","woe_name":"Makira","latitude":-10.2782,"longitude":161.744,"sov_a3":"SLB","adm0_a3":"SLB","adm0_label":5,"admin":"Solomon Islands","geonunit":"Solomon Islands","gu_a3":"SLB","gn_id":2178730,"gn_name":"Makira-Ulawa Province","gns_id":-1548192,"gns_name":"Makira Province","gn_level":1,"gn_region":null,"gn_a1_code":"SB.08","region_sub":null,"sub_code":null,"gns_level":1,"gns_lang":"fra","gns_adm1":"BP08","gns_region":null,"min_label":7.0,"max_label":11.0,"min_zoom":7.0,"wikidataid":"Q1116700","name_ar":"ماكيرا","name_bn":"মাকিরা","name_de":"Makira und Ulawa","name_en":"Makira-Ulawa","name_es":"Makira","name_fr":"Makira-Ulawa","name_el":"Μακίρα","name_hi":"मकीरा","name_hu":"Makira","name_id":"Makira-Ulawa","name_it":"Makira-Ulawa","name_ja":"マキラ・ウラワ州","name_ko":"마키라울라와","name_nl":"Makira","name_pl":"Prowincja Makira-Ulawa","name_pt":"Makira-Ulawa","name_ru":"Макира-Улава","name_sv":"Makira","name_tr":"Makira","name_vi":"Makira-Ulawa","name_zh":"馬基拉-烏拉瓦省","ne_id":1159314973,"name_he":"מלאבון","name_uk":"Макіра-Улава","name_ur":"ماکیرا-اولاوا صوبہ","name_fa":"استان ماکیرا-اولاوا","name_zht":"馬基拉-烏拉瓦省","FCLASS_ISO":null,"FCLASS_US":null,"FCLASS_FR":null,"FCLASS_RU":null,"FCLASS_ES":null,"FCLASS_CN":null,"FCLASS_TW":null,"FCLASS_IN":null,"FCLASS_NP":null,"FCLASS_PK":null,"FCLASS_DE":null,"FCLASS_GB":null,"FCLASS_BR":null,"FCLASS_IL":null,"FCLASS_PS":null,"FCLASS_SA":null,"FCLASS_EG":null,"FCLASS_MA":null,"FCLASS_PT":null,"FCLASS_AR":null,"FCLASS_JP":null,"FCLASS_KO":null,"FCLASS_VN":null,"FCLASS_TR":null,"FCLASS_ID":null,"FCLASS_PL":null,"FCLASS_GR":null,"FCLASS_IT":null,"FCLASS_NL":null,"FCLASS_SE":null,"FCLASS_BD":null,"FCLASS_UA":null,"FCLASS_TLC":null,"iso_id":"SB-MK","iso_name":"Makira-Ulawa","source":"iso-3166-2-subdivisions"},"geometry":{"type":"MultiPolygon","coordinates":[[[[161.740733,-10.288507],[161.770518,-10.278416],[161.768809,-10.252211],[161.752452,-10.224216],[161.730642,-10.20672],[161.717052,-10.218194],[161.717296,-10.231378],[161.730642,-10.255629],[161.74586,-10.263279],[161.740733,-10.288507]]],[[[162.374848,-10.823663],[162.271739,-10.814386],[162.264985,-10.789483],[162.292003,-10.764744],[162.287771,-10.69199],[162.228852,-10.644627],[162.215343,-10.596775],[162.191742,-10.577895],[162.163097,-10.508722],[162.140391,-10.493748],[162.113617,-10.456476],[162.084239,-10.447686],[162.068533,-10.454767],[162.058849,-10.478285],[162.009288,-10.478448],[161.987071,-10.467218],[161.963552,-10.440606],[161.932465,-10.445977],[161.895193,-10.43377],[161.880544,-10.442804],[161.835704,-10.446954],[161.820567,-10.429783],[161.778494,-10.406508],[161.735118,-10.405369],[161.700206,-10.365492],[161.687266,-10.357599],[161.66863,-10.364923],[161.609548,-10.316827],[161.502208,-10.250746],[161.396007,-10.204034],[161.340831,-10.214044],[161.319102,-10.200453],[161.300059,-10.207127],[161.29184,-10.225763],[161.299327,-10.263116],[161.284923,-10.276137],[161.284923,-10.323907],[161.344005,-10.344496],[161.367524,-10.330824],[161.402843,-10.330011],[161.413748,-10.341567],[161.465994,-10.346938],[161.483653,-10.364923],[161.510997,-10.364923],[161.52003,-10.376397],[161.507498,-10.383477],[161.490408,-10.42018],[161.506684,-10.425714],[161.507498,-10.440037],[161.490408,-10.46795],[161.528331,-10.464532],[161.53419,-10.495212],[161.545177,-10.50213],[161.524669,-10.564223],[161.552745,-10.570001],[161.573009,-10.556817],[161.586681,-10.570001],[161.586681,-10.584649],[161.603038,-10.591241],[161.625824,-10.624444],[161.636567,-10.631036],[161.647472,-10.618585],[161.679454,-10.646173],[161.694835,-10.649998],[161.710216,-10.680271],[161.748709,-10.682794],[161.760997,-10.712335],[161.769216,-10.718845],[161.778494,-10.71502],[161.792166,-10.734959],[161.818614,-10.733168],[161.840505,-10.7492],[161.846853,-10.728123],[161.861501,-10.752618],[161.891775,-10.769627],[161.908865,-10.76214],[161.969412,-10.781345],[162.011241,-10.769627],[162.11085,-10.823663],[162.161957,-10.83115],[162.18393,-10.810968],[162.207042,-10.808038],[162.278656,-10.835545],[162.327159,-10.844822],[162.341156,-10.838149],[162.378266,-10.844822],[162.391612,-10.8388],[162.385509,-10.81878],[162.374848,-10.823663]]]]}}
