{"type":"Feature","properties":{"iso_id":"SB-WE","iso_name":"Western Province","name":"Western Province","source":"iso-3166-2-placeholder-circle"},"geometry":{"type":"Polygon","coordinates":[[[157.5,-8.0],[157.490393,-7.902455],[157.46194,-7.808658],[157.415735,-7.722215],[157.353553,-7.646447],[157.277785,-7.584265],[157.191342,-7.53806],[157.097545,-7.509607],[157.0,-7.5],[156.902455,-7.509607],[156.808658,-7.53806],[156.722215,-7.584265],[156.646447,-7.646447],[156.584265,-7.722215],[156.53806,-7.808658],[156.509607,-7.902455],[156.5,-8.0],[156.509607,-8.097545],[156.53806,-8.191342],[156.584265,-8.277785],[156.646447,-8.353553],[156.722215,-8.415735],[156.808658,-8.46194],[156.902455,-8.490393],[157.0,-8.5],[157.097545,-8.490393],[157.191342,-8.46194],[157.277785,-8.415735],[157.353553,-8.353553],[157.415735,-8.277785],[157.46194,-8.191342],[157.490393,-8.097545],[157.5,-8.0]]]}}
