{"type":"Feature","properties":{"featurecla":"Admin-1 states provinces","scalerank":10,"adm1_code":"SVN-264","diss_me":264,"iso_3166_2":"SI-059","wikipedia":null,"iso_a2":"SI","adm0_sr":1,"name":"Lendava","name_alt":"Lendva","name_local":null,"type":"Opcine","type_en":"Commune|Municipality","code_local":null,"code_hasc":"SI.PM.LE","note":null,"hasc_maybe":null,"region":"Pomurska","region_cod":null,"provnum_ne":66,"gadm_level":2,"check_me":10,"datarank":8,"abbrev":null,"postal":"LE","area_sqkm":0,"sameascity":-99,"labelrank":10,"name_len":7,"mapcolor9":2,"mapcolor13":12,"fips":"SI59","fips_alt":"SII4","woe_id":55848362,"woe_label":"Lendava, SI, Slovenia","woe_name":"Lendava","latitude":46.5693,"longitude":16.4217,"sov_a3":"SVN","adm0_a3":"SVN","adm0_label":2,"admin":"Slovenia","geonunit":"Slovenia","gu_a3":"SVN","gn_id":3344935,"gn_name":"Obcina Lendava","gns_id":9123461,"gns_name":"Obcina Lendava","gn_level":1,"gn_region":null,"gn_a1_code":"SI.I4","region_sub":null,"sub_code":null,"gns_level":1,"gns_lang":"slv","gns_adm1":"SI72","gns_region":null,"min_label":11.0,"max_label":11.0,"min_zoom":11.0,"wikidataid":"Q15890","name_ar":"ليندافا","name_bn":"লেন্ডাভা","name_de":"Lendava","name_en":"Lendava","name_es":"Lendava","name_fr":"Lendava","name_el":"Λεντάβα","name_hi":"लेंडवा","name_hu":"Lendva","name_id":"Lendava","name_it":"Lendava","name_ja":"レンダヴァ","name_ko":"렌다바","name_nl":"Lendava","name_pl":"Lendava","name_pt":"Lendava","name_ru":"Лендава","name_sv":"Lendava","name_tr":"Lendava","name_vi":"Lendava","name_zh":"伦达瓦","ne_id":1159308687,"name_he":"לנדאווה","name_uk":"Лендава","name_ur":"لینداوا","name_fa":"لنداوا","name_zht":"倫達瓦","FCLASS_ISO":null,"FCLASS_US":null,"FCLASS_FR":null,"FCLASS_RU":null,"FCLASS_ES":null,"FCLASS_CN":null,"FCLASS_TW":null,"FCLASS_IN":null,"FCLASS_NP":null,"FCLASS_PK":null,"FCLASS_DE":null,"FCLASS_GB":null,"FCLASS_BR":null,"FCLASS_IL":null,"FCLASS_PS":null,"FCLASS_SA":null,"FCLASS_EG":null,"FCLASS_MA":null,"FCLASS_PT":null,"FCLASS_AR":null,"FCLASS_JP":null,"FCLASS_KO":null,"FCLASS_VN":null,"FCLASS_TR":null,"FCLASS_ID":null,"FCLASS_PL":null,"FCLASS_GR":null,"FCLASS_IT":null,"FCLASS_NL":null,"FCLASS_SE":null,"FCLASS_BD":null,"FCLASS_UA":null,"FCLASS_TLC":null,"iso_id":"SI-059","iso_name":"Lendava","source":"iso-3166-2-subdivisions"},"geometry":{"type":"Polygon","coordinates":[[[16.372246,46.636341],[16.347871,46.615346],[16.378463,46.599792],[16.397532,46.578191],[16.328647,46.548735],[16.351694,46.539486],[16.357895,46.546979],[16.406264,46.539486],[16.440371,46.519022],[16.481298,46.519022],[16.515302,46.501711],[16.500832,46.544809],[16.467139,46.564704],[16.430242,46.604392],[16.372246,46.636341]]]}}
