{"type":"Feature","properties":{"featurecla":"Admin-1 states provinces","scalerank":10,"adm1_code":"SVN-1008","diss_me":1008,"iso_3166_2":"SI-003","wikipedia":null,"iso_a2":"SI","adm0_sr":1,"name":"Bled","name_alt":null,"name_local":null,"type":"Opcine","type_en":"Commune|Municipality","code_local":null,"code_hasc":"SI.GO.BL","note":null,"hasc_maybe":null,"region":"Gorenjska","region_cod":null,"provnum_ne":168,"gadm_level":2,"check_me":0,"datarank":8,"abbrev":null,"postal":"BL","area_sqkm":0,"sameascity":-99,"labelrank":10,"name_len":4,"mapcolor9":2,"mapcolor13":12,"fips":"SI03","fips_alt":null,"woe_id":55848379,"woe_label":"Radovljica, SI, Slovenia","woe_name":"Bled","latitude":46.3898,"longitude":14.0001,"sov_a3":"SVN","adm0_a3":"SVN","adm0_label":2,"admin":"Slovenia","geonunit":"Slovenia","gu_a3":"SVN","gn_id":3239103,"gn_name":"Obcina Bled","gns_id":243508,"gns_name":"Bled, Obcina","gn_level":1,"gn_region":null,"gn_a1_code":"SI.03","region_sub":null,"sub_code":null,"gns_level":1,"gns_lang":"div","gns_adm1":"SI03","gns_region":null,"min_label":11.0,"max_label":11.0,"min_zoom":11.0,"wikidataid":"Q647572","name_ar":"بلدية بليد","name_bn":"ব্লেড পৌরসভা","name_de":"Gemeinde Bled","name_en":"Bled","name_es":"Municipalidad del Bled","name_fr":"Bled","name_el":"Μπλέντ","name_hi":"ब्लेड नगरपालिका","name_hu":"Bled község","name_id":"Bled","name_it":"Bled","name_ja":"ブレッド","name_ko":"블레드 지방 자치제","name_nl":"Bled","name_pl":"Gmina Bled","name_pt":"Bled","name_ru":"Блед","name_sv":"Bled","name_tr":"Bled Belediyesi","name_vi":"Đô thị tự trị Bled","name_zh":"布萊德鎮","ne_id":1159310821,"name_he":"בלד","name_uk":"Блед","name_ur":"بلدیہ بلیت","name_fa":"شهرداری بلد","name_zht":"布萊德鎮","FCLASS_ISO":null,"FCLASS_US":null,"FCLASS_FR":null,"FCLASS_RU":null,"FCLASS_ES":null,"FCLASS_CN":null,"FCLASS_TW":null,"FCLASS_IN":null,"FCLASS_NP":null,"FCLASS_PK":null,"FCLASS_DE":null,"FCLASS_GB":null,"FCLASS_BR":null,"FCLASS_IL":null,"FCLASS_PS":null,"FCLASS_SA":null,"FCLASS_EG":null,"FCLASS_MA":null,"FCLASS_PT":null,"FCLASS_AR":null,"FCLASS_JP":null,"FCLASS_KO":null,"FCLASS_VN":null,"FCLASS_TR":null,"FCLASS_ID":null,"FCLASS_PL":null,"FCLASS_GR":null,"FCLASS_IT":null,"FCLASS_NL":null,"FCLASS_SE":null,"FCLASS_BD":null,"FCLASS_UA":null,"FCLASS_TLC":null,"iso_id":"SI-003","iso_name":"Bled","source":"iso-3166-2-subdivisions"},"geometry":{"type":"Polygon","coordinates":[[[13.878926,46.366472],[13.947087,46.359806],[14.043567,46.315235],[14.086717,46.31601],[14.1016,46.298931],[14.152191,46.351848],[14.120875,46.392724],[14.127851,46.406832],[14.096639,46.40461],[13.992356,46.444814],[13.84792,46.381226],[13.878926,46.366472]]]}}
