{"type":"Feature","properties":{"featurecla":"Admin-1 states provinces","scalerank":10,"adm1_code":"SVN-205","diss_me":205,"iso_3166_2":"SI-023","wikipedia":null,"iso_a2":"SI","adm0_sr":1,"name":"Domžale","name_alt":null,"name_local":null,"type":"Opcine","type_en":"Commune|Municipality","code_local":null,"code_hasc":"SI.LJ.DM","note":null,"hasc_maybe":null,"region":"Osrednjeslovenska","region_cod":null,"provnum_ne":112,"gadm_level":2,"check_me":0,"datarank":8,"abbrev":null,"postal":"DM","area_sqkm":0,"sameascity":-99,"labelrank":10,"name_len":7,"mapcolor9":2,"mapcolor13":12,"fips":"SIG7","fips_alt":null,"woe_id":55848346,"woe_label":"Domzale, SI, Slovenia","woe_name":"Domžale","latitude":46.1493,"longitude":14.6294,"sov_a3":"SVN","adm0_a3":"SVN","adm0_label":2,"admin":"Slovenia","geonunit":"Slovenia","gu_a3":"SVN","gn_id":3201729,"gn_name":"Obcina Domzale","gns_id":-78932,"gns_name":"Domzale, Obcina","gn_level":1,"gn_region":null,"gn_a1_code":"SI.G7","region_sub":null,"sub_code":null,"gns_level":1,"gns_lang":"srp","gns_adm1":"SI02","gns_region":null,"min_label":11.0,"max_label":11.0,"min_zoom":11.0,"wikidataid":"Q13377763","name_ar":"دومزالي","name_bn":"দমজালে","name_de":"Gemeinde Domžale","name_en":"Domžale","name_es":"Municipio de Domžale","name_fr":"Domžale","name_el":"Ντομζάλε","name_hi":"डोमज़ेल","name_hu":"Domžale","name_id":"Domžale","name_it":"Domžale","name_ja":"ドムジャレ","name_ko":"돔잘레","name_nl":"Domžale","name_pl":"Gmina Domžale","name_pt":"Domžale","name_ru":"Домжале","name_sv":"Domžale","name_tr":"Domžale","name_vi":"Domžale","name_zh":"多姆扎萊鎮","ne_id":1159308559,"name_he":"דומז'אלה","name_uk":"Домжале","name_ur":"ڈومزالے","name_fa":"دومزالا","name_zht":"多姆扎萊鎮","FCLASS_ISO":null,"FCLASS_US":null,"FCLASS_FR":null,"FCLASS_RU":null,"FCLASS_ES":null,"FCLASS_CN":null,"FCLASS_TW":null,"FCLASS_IN":null,"FCLASS_NP":null,"FCLASS_PK":null,"FCLASS_DE":null,"FCLASS_GB":null,"FCLASS_BR":null,"FCLASS_IL":null,"FCLASS_PS":null,"FCLASS_SA":null,"FCLASS_EG":null,"FCLASS_MA":null,"FCLASS_PT":null,"FCLASS_AR":null,"FCLASS_JP":null,"FCLASS_KO":null,"FCLASS_VN":null,"FCLASS_TR":null,"FCLASS_ID":null,"FCLASS_PL":null,"FCLASS_GR":null,"FCLASS_IT":null,"FCLASS_NL":null,"FCLASS_SE":null,"FCLASS_BD":null,"FCLASS_UA":null,"FCLASS_TLC":null,"iso_id":"SI-023","iso_name":"Domžale","source":"iso-3166-2-subdivisions"},"geometry":{"type":"Polygon","coordinates":[[[14.589787,46.147674],[14.575834,46.134445],[14.569323,46.10778],[14.592267,46.105455],[14.594283,46.096618],[14.687249,46.117289],[14.689419,46.12566],[14.675156,46.13274],[14.683838,46.143954],[14.650455,46.164573],[14.663477,46.185708],[14.683063,46.19917],[14.65185,46.206121],[14.609476,46.188499],[14.590097,46.189119],[14.583741,46.176458],[14.589787,46.147674]]]}}
