{"type":"Feature","properties":{"featurecla":"Admin-1 states provinces","scalerank":10,"adm1_code":"SVN-981","diss_me":981,"iso_3166_2":"SI-101","wikipedia":null,"iso_a2":"SI","adm0_sr":1,"name":"Radlje ob Dravi","name_alt":null,"name_local":null,"type":"Opcine","type_en":"Commune|Municipality","code_local":null,"code_hasc":"SI.KO.RD","note":null,"hasc_maybe":null,"region":"Koroška","region_cod":null,"provnum_ne":15,"gadm_level":2,"check_me":0,"datarank":8,"abbrev":null,"postal":"RD","area_sqkm":0,"sameascity":-99,"labelrank":10,"name_len":15,"mapcolor9":2,"mapcolor13":12,"fips":"SIA2","fips_alt":null,"woe_id":55848378,"woe_label":"Radlje Ob Dravi, SI, Slovenia","woe_name":"Radlje ob Dravi","latitude":46.6029,"longitude":15.2526,"sov_a3":"SVN","adm0_a3":"SVN","adm0_label":2,"admin":"Slovenia","geonunit":"Slovenia","gu_a3":"SVN","gn_id":3192120,"gn_name":"Obcina Radlje ob Dravi","gns_id":-93627,"gns_name":"Radlje ob Dravi, Obcina","gn_level":1,"gn_region":null,"gn_a1_code":"SI.A2","region_sub":null,"sub_code":null,"gns_level":1,"gns_lang":"mkd","gns_adm1":"SI86","gns_region":null,"min_label":11.0,"max_label":11.0,"min_zoom":11.0,"wikidataid":"Q1005364","name_ar":"بلدية رادلي أوب درافي","name_bn":"রাদলেজে অব দ্রাভি পৌরসভা","name_de":"Radlje ob Dravi","name_en":"Radlje ob Dravi","name_es":"Municipalidad de Radjle del Dravi","name_fr":"Radlje ob Dravi","name_el":"Ράντλτζε ομπ Ντραβί","name_hi":"राडिये ऑब ड्रावी नगर पालिका","name_hu":"Radlje ob Dravi","name_id":"Radlje ob Dravi","name_it":"Radlje ob Dravi","name_ja":"ラドリェ・オブ・ドラヴィ","name_ko":"라들레오브드라비","name_nl":"Radlje ob Dravi","name_pl":"Gmina Radlje ob Dravi","name_pt":"Radlje ob Dravi","name_ru":"Радле-об-Драви","name_sv":"Radlje ob Dravi","name_tr":"Radje ob Dravi Belediyesi","name_vi":"Radlje ob Dravi","name_zh":"德拉瓦河畔拉德列","ne_id":1159310761,"name_he":"ראדייה אוב דראבי","name_uk":"Радлє-об-Драві","name_ur":"رادلجی اوب دراوی میونسپلٹی","name_fa":"رادیج اُب دراوی","name_zht":"德拉瓦河畔拉德列","FCLASS_ISO":null,"FCLASS_US":null,"FCLASS_FR":null,"FCLASS_RU":null,"FCLASS_ES":null,"FCLASS_CN":null,"FCLASS_TW":null,"FCLASS_IN":null,"FCLASS_NP":null,"FCLASS_PK":null,"FCLASS_DE":null,"FCLASS_GB":null,"FCLASS_BR":null,"FCLASS_IL":null,"FCLASS_PS":null,"FCLASS_SA":null,"FCLASS_EG":null,"FCLASS_MA":null,"FCLASS_PT":null,"FCLASS_AR":null,"FCLASS_JP":null,"FCLASS_KO":null,"FCLASS_VN":null,"FCLASS_TR":null,"FCLASS_ID":null,"FCLASS_PL":null,"FCLASS_GR":null,"FCLASS_IT":null,"FCLASS_NL":null,"FCLASS_SE":null,"FCLASS_BD":null,"FCLASS_UA":null,"FCLASS_TLC":null,"iso_id":"SI-101","iso_name":"Radlje ob Dravi","source":"iso-3166-2-subdivisions"},"geometry":{"type":"Polygon","coordinates":[[[15.172557,46.64136],[15.183497,46.619454],[15.211558,46.601652],[15.201636,46.581963],[15.183807,46.577261],[15.187373,46.568837],[15.176056,46.547495],[15.180552,46.533956],[15.19931,46.529202],[15.214813,46.547547],[15.270365,46.572584],[15.284473,46.598577],[15.329173,46.619222],[15.332784,46.64358],[15.204891,46.638963],[15.172557,46.64136]]]}}
