{"type":"Feature","properties":{"featurecla":"Admin-1 states provinces","scalerank":10,"adm1_code":"SVN-223","diss_me":223,"iso_3166_2":"SI-139","wikipedia":null,"iso_a2":"SI","adm0_sr":1,"name":"Vojnik","name_alt":null,"name_local":null,"type":"Opcine","type_en":"Commune|Municipality","code_local":null,"code_hasc":"SI.SA.VO","note":null,"hasc_maybe":null,"region":"Savinjska","region_cod":null,"provnum_ne":190,"gadm_level":2,"check_me":0,"datarank":8,"abbrev":null,"postal":"VO","area_sqkm":0,"sameascity":-99,"labelrank":10,"name_len":6,"mapcolor9":2,"mapcolor13":12,"fips":"SIN3","fips_alt":null,"woe_id":-55848389,"woe_label":null,"woe_name":null,"latitude":46.3188,"longitude":15.31,"sov_a3":"SVN","adm0_a3":"SVN","adm0_label":2,"admin":"Slovenia","geonunit":"Slovenia","gu_a3":"SVN","gn_id":3239202,"gn_name":"Obcina Vojnik","gns_id":243890,"gns_name":"Vojnik, Obcina","gn_level":1,"gn_region":null,"gn_a1_code":"SI.N3","region_sub":null,"sub_code":null,"gns_level":1,"gns_lang":"slv","gns_adm1":"SI20","gns_region":null,"min_label":11.0,"max_label":11.0,"min_zoom":11.0,"wikidataid":"Q2134561","name_ar":"بلدية فوينيك","name_bn":"ভোজনিক পৌরসভা","name_de":"Gemeinde Vojnik","name_en":"Vojnik","name_es":"Municipalidad del Vojnik","name_fr":"Municipalité deVojnik","name_el":"Βόζνικ","name_hi":"वोयनिक नगरपालिका","name_hu":"Vojnik község","name_id":"Vojnik","name_it":"Vojnik","name_ja":"ヴォイニク","name_ko":"보이니크 지방 자치제","name_nl":"Vojnik","name_pl":"Gmina Vojnik","name_pt":"Vojnik kommune","name_ru":"Войник","name_sv":"Vojnik","name_tr":"Vojnik Belediyesi","name_vi":"Đô thị tự trị Vojnik","name_zh":"沃伊尼克","ne_id":1159308599,"name_he":"וויניק","name_uk":"Войник","name_ur":"ووجنیک میونسپلٹی","name_fa":"ووجنیک","name_zht":"沃伊尼克","FCLASS_ISO":null,"FCLASS_US":null,"FCLASS_FR":null,"FCLASS_RU":null,"FCLASS_ES":null,"FCLASS_CN":null,"FCLASS_TW":null,"FCLASS_IN":null,"FCLASS_NP":null,"FCLASS_PK":null,"FCLASS_DE":null,"FCLASS_GB":null,"FCLASS_BR":null,"FCLASS_IL":null,"FCLASS_PS":null,"FCLASS_SA":null,"FCLASS_EG":null,"FCLASS_MA":null,"FCLASS_PT":null,"FCLASS_AR":null,"FCLASS_JP":null,"FCLASS_KO":null,"FCLASS_VN":null,"FCLASS_TR":null,"FCLASS_ID":null,"FCLASS_PL":null,"FCLASS_GR":null,"FCLASS_IT":null,"FCLASS_NL":null,"FCLASS_SE":null,"FCLASS_BD":null,"FCLASS_UA":null,"FCLASS_TLC":null,"iso_id":"SI-139","iso_name":"Vojnik","source":"iso-3166-2-subdivisions"},"geometry":{"type":"Polygon","coordinates":[[[15.26773,46.365026],[15.259203,46.33557],[15.240135,46.320532],[15.270055,46.307303],[15.301578,46.273868],[15.358525,46.260536],[15.363796,46.280095],[15.379919,46.294642],[15.364417,46.324201],[15.368757,46.333968],[15.338785,46.349368],[15.331189,46.365206],[15.26773,46.365026]]]}}
