{"type":"Feature","properties":{"iso_id":"SI-211","iso_name":"Municipality of Šentrupert","name":"Municipality of Šentrupert","source":"osm-overpass-si"},"geometry":{"type":"Polygon","coordinates":[[[15.0340929,45.9862817],[15.0380984,45.9685814],[15.0574446,45.9700144],[15.074523,45.9531091],[15.1107361,45.9478273],[15.1302651,45.9653623],[15.1373373,45.9599879],[15.1445557,45.9797638],[15.159958,45.9852088],[15.1661732,45.9983864],[15.1501366,45.9976894],[15.1308302,45.9827802],[15.1284427,45.999769],[15.0825508,46.0220671],[15.0824717,46.0125386],[15.0621101,46.0154131],[15.0548023,46.0044037],[15.0225475,46.0019768],[15.0340929,45.9862817]]]}}
