{"type":"Feature","properties":{"featurecla":"Admin-1 states provinces","scalerank":6,"adm1_code":"SEN-5517","diss_me":5517,"iso_3166_2":"SN-SL","wikipedia":null,"iso_a2":"SN","adm0_sr":1,"name":"Saint-Louis","name_alt":null,"name_local":null,"type":"Région","type_en":"Region","code_local":null,"code_hasc":"SN.ST","note":null,"hasc_maybe":null,"region":null,"region_cod":"SEN-STL","provnum_ne":7,"gadm_level":1,"check_me":10,"datarank":8,"abbrev":null,"postal":"SL","area_sqkm":0,"sameascity":-99,"labelrank":6,"name_len":11,"mapcolor9":5,"mapcolor13":5,"fips":"SG14","fips_alt":"SG15","woe_id":2346990,"woe_label":"St.-Louis, SN, Senegal","woe_name":"Matam","latitude":16.3051,"longitude":-14.9945,"sov_a3":"SEN","adm0_a3":"SEN","adm0_label":2,"admin":"Senegal","geonunit":"Senegal","gu_a3":"SEN","gn_id":2246451,"gn_name":"Saint-Louis","gns_id":-2273406,"gns_name":"Saint-Louis","gn_level":1,"gn_region":null,"gn_a1_code":"SN.14","region_sub":null,"sub_code":"SG04","gns_level":1,"gns_lang":"fra","gns_adm1":"SG14","gns_region":null,"min_label":7.7,"max_label":11.0,"min_zoom":7.7,"wikidataid":"Q178872","name_ar":"إقليم سانت لويس","name_bn":"সেন্ট লুইস","name_de":"Saint-Louis","name_en":"Saint-Louis","name_es":"Saint-Louis","name_fr":"Saint-Louis","name_el":"Περιοχή του Σαιν-Λουί","name_hi":"सेंट-लुइ प्रदेश","name_hu":"Saint-Louis","name_id":"Saint-Louis","name_it":"Saint-Louis","name_ja":"サンルイ州","name_ko":"생루이","name_nl":"Saint-Louis","name_pl":"Saint-Louis","name_pt":"Saint-Louis","name_ru":"Сен-Луи","name_sv":"Saint-Louis","name_tr":"Saint-Louis","name_vi":"Saint-Louis","name_zh":"圣路易区","ne_id":1159317179,"name_he":"סן-לואי","name_uk":"Сент-Луїс","name_ur":"سینٹ-لوئیس ریجن","name_fa":"ناحیه سن لوئیس","name_zht":"聖路易區","FCLASS_ISO":null,"FCLASS_US":null,"FCLASS_FR":null,"FCLASS_RU":null,"FCLASS_ES":null,"FCLASS_CN":null,"FCLASS_TW":null,"FCLASS_IN":null,"FCLASS_NP":null,"FCLASS_PK":null,"FCLASS_DE":null,"FCLASS_GB":null,"FCLASS_BR":null,"FCLASS_IL":null,"FCLASS_PS":null,"FCLASS_SA":null,"FCLASS_EG":null,"FCLASS_MA":null,"FCLASS_PT":null,"FCLASS_AR":null,"FCLASS_JP":null,"FCLASS_KO":null,"FCLASS_VN":null,"FCLASS_TR":null,"FCLASS_ID":null,"FCLASS_PL":null,"FCLASS_GR":null,"FCLASS_IT":null,"FCLASS_NL":null,"FCLASS_SE":null,"FCLASS_BD":null,"FCLASS_UA":null,"FCLASS_TLC":null,"iso_id":"SN-SL","iso_name":"Saint-Louis"},"geometry":{"type":"Polygon","coordinates":[[[-14.948934,16.670553],[-14.962932,16.685804],[-14.974301,16.691385],[-14.996625,16.682445],[-15.006909,16.675831],[-15.013368,16.666581],[-15.018743,16.646117],[-15.023652,16.639967],[-15.036933,16.632578],[-15.044374,16.631906],[-15.051557,16.63418],[-15.061996,16.643791],[-15.069851,16.655264],[-15.078894,16.664979],[-15.093312,16.669165],[-15.107574,16.665392],[-15.116256,16.655522],[-15.118271,16.642603],[-15.112329,16.629219],[-15.096154,16.613974],[-15.092847,16.607618],[-15.093208,16.600176],[-15.097498,16.594492],[-15.104009,16.590358],[-15.125093,16.58271],[-15.232476,16.56638],[-15.248599,16.565812],[-15.295935,16.573046],[-15.328026,16.571961],[-15.343632,16.568706],[-15.385749,16.551756],[-15.399805,16.548345],[-15.414532,16.548035],[-15.426883,16.553151],[-15.43944,16.572685],[-15.448846,16.580178],[-15.463987,16.58147],[-15.478508,16.575165],[-15.49091,16.56452],[-15.515198,16.53093],[-15.52481,16.522197],[-15.536696,16.516512],[-15.551475,16.515117],[-15.594418,16.523644],[-15.609663,16.521318],[-15.621497,16.514239],[-15.643614,16.494653],[-15.657412,16.486178],[-15.672191,16.481372],[-15.687539,16.480546],[-15.703197,16.484421],[-15.735288,16.497702],[-15.767741,16.499459],[-15.812958,16.513773],[-15.828926,16.514549],[-15.853575,16.51026],[-15.861999,16.51026],[-15.896932,16.518424],[-15.91104,16.516874],[-15.950675,16.499821],[-15.958065,16.498426],[-15.96437,16.498994],[-15.985609,16.505867],[-15.993102,16.504627],[-16.007313,16.496152],[-16.031187,16.492896],[-16.05377,16.495428],[-16.074027,16.504885],[-16.090977,16.522197],[-16.103069,16.53956],[-16.110459,16.54695],[-16.119657,16.552376],[-16.132266,16.554753],[-16.144307,16.552686],[-16.155779,16.547518],[-16.185183,16.527313],[-16.195363,16.522714],[-16.206732,16.52075],[-16.217946,16.521525],[-16.251019,16.527623],[-16.273808,16.523179],[-16.295099,16.510621],[-16.313547,16.49331],[-16.327397,16.474551],[-16.334941,16.455793],[-16.340161,16.415898],[-16.381088,16.246658],[-16.385378,16.234927],[-16.391682,16.224747],[-16.407288,16.214825],[-16.444185,16.206299],[-16.458758,16.194155],[-16.465993,16.174053],[-16.470437,16.106357],[-16.4878,16.066049],[-16.501598,16.021866],[-16.507541,16.010393],[-16.509918,15.901511],[-16.519736,15.846372],[-16.542348,15.808824],[-16.540925,15.805651],[-16.377677,15.809113],[-16.35866,15.812472],[-16.339798,15.818466],[-16.318146,15.833659],[-16.30409,15.838878],[-16.257478,15.844511],[-16.249829,15.852418],[-16.245592,15.859291],[-16.233035,15.892415],[-16.226472,15.904508],[-16.216446,15.912569],[-16.168077,15.938149],[-16.160326,15.957889],[-16.150817,15.96931],[-16.116039,15.997267],[-15.921891,16.103358],[-15.908558,16.115864],[-15.891092,16.146818],[-15.867682,16.159117],[-15.850991,16.1709],[-15.841069,16.181803],[-15.82846,16.174104],[-15.807583,16.155345],[-15.602014,15.927917],[-15.591162,15.921199],[-15.43399,15.931731],[-15.426715,15.998545],[-14.854462,15.99737],[-14.837513,15.991582],[-14.757166,15.950043],[-14.704705,15.953501],[-14.592229,15.877307],[-14.541433,15.804741],[-14.497893,15.746689],[-14.414443,15.70315],[-14.338249,15.666867],[-14.298338,15.63784],[-14.149579,15.750317],[-13.989934,15.877307],[-13.877458,15.975271],[-13.862944,16.011553],[-13.761353,16.051464],[-13.719571,16.135605],[-13.722775,16.146096],[-13.712621,16.176068],[-13.71058,16.188884],[-13.729416,16.189504],[-13.738226,16.187127],[-13.746701,16.182373],[-13.754246,16.175345],[-13.771997,16.150437],[-13.778818,16.143202],[-13.794941,16.131213],[-13.811323,16.122066],[-13.819203,16.119276],[-13.827317,16.1185],[-13.835766,16.120568],[-13.844835,16.126045],[-13.852767,16.133487],[-13.859072,16.142272],[-13.863826,16.151832],[-13.872275,16.178755],[-13.877236,16.186868],[-13.883825,16.193741],[-13.907829,16.210019],[-13.947051,16.22113],[-13.964078,16.23007],[-13.967799,16.246038],[-13.962683,16.26397],[-13.963045,16.272393],[-13.967437,16.281385],[-13.977282,16.293839],[-13.979323,16.30035],[-13.971158,16.324224],[-13.971856,16.331201],[-13.97785,16.33797],[-14.006711,16.350269],[-14.0156,16.35585],[-14.039836,16.382102],[-14.073038,16.400654],[-14.13244,16.45264],[-14.166392,16.490881],[-14.197191,16.513463],[-14.214166,16.534961],[-14.22228,16.539612],[-14.257652,16.543177],[-14.268065,16.54788],[-14.273258,16.555631],[-14.274576,16.573511],[-14.277961,16.581263],[-14.28765,16.585707],[-14.325968,16.5824],[-14.335322,16.586482],[-14.337027,16.59413],[-14.331756,16.613147],[-14.331343,16.624103],[-14.335529,16.631544],[-14.343254,16.63666],[-14.406635,16.660793],[-14.426247,16.659604],[-14.435832,16.655987],[-14.471954,16.636402],[-14.49309,16.632474],[-14.503916,16.632681],[-14.544456,16.640846],[-14.555128,16.640587],[-14.597011,16.629167],[-14.60807,16.628805],[-14.619077,16.630666],[-14.647189,16.643533],[-14.655974,16.64591],[-14.665896,16.645652],[-14.699692,16.637125],[-14.711216,16.635782],[-14.882007,16.647667],[-14.912496,16.640639],[-14.930944,16.643378],[-14.941331,16.656039],[-14.948934,16.670553]]]}}
