{"type":"Feature","properties":{"featurecla":"Admin-1 states provinces","scalerank":3,"adm1_code":"SDS-872","diss_me":872,"iso_3166_2":"SS-WR","wikipedia":null,"iso_a2":"SS","adm0_sr":1,"name":"Warrap","name_alt":"Warab|Warrab","name_local":null,"type":"Wilayat","type_en":"State","code_local":null,"code_hasc":"SS.WR","note":null,"hasc_maybe":null,"region":"Bahr al Ghazal","region_cod":"SDN-BAG","provnum_ne":14,"gadm_level":1,"check_me":10,"datarank":5,"abbrev":"War.","postal":"WR","area_sqkm":0,"sameascity":-99,"labelrank":3,"name_len":5,"mapcolor9":3,"mapcolor13":5,"fips":"OD08","fips_alt":"SU06","woe_id":20069898,"woe_label":"Warab, SD, Sudan","woe_name":"Warap","latitude":7.85589,"longitude":28.6994,"sov_a3":"SDS","adm0_a3":"SDS","adm0_label":2,"admin":"S. Sudan","geonunit":"South Sudan","gu_a3":"SDS","gn_id":408670,"gn_name":"Warrap State","gns_id":315448,"gns_name":"Warrap State","gn_level":1,"gn_region":null,"gn_a1_code":"SS.08","region_sub":null,"sub_code":"SU32","gns_level":1,"gns_lang":"eng","gns_adm1":"OD08","gns_region":null,"min_label":6.6,"max_label":11.0,"min_zoom":6.6,"wikidataid":"Q491138","name_ar":"واراب","name_bn":"ওয়ারর্যাপ","name_de":"Warrap","name_en":"Warrap","name_es":"Warab","name_fr":"Warab","name_el":"Γουαράπ","name_hi":"वार्रप","name_hu":"Warrap","name_id":"Warab","name_it":"Warrap","name_ja":"ワラブ州","name_ko":"와랍","name_nl":"Warrap","name_pl":"Warrap","name_pt":"Warab","name_ru":"Вараб","name_sv":"Warrap","name_tr":"Warrap","name_vi":"Warrap","name_zh":"瓦拉布省","ne_id":1159309005,"name_he":"ואראפ","name_uk":"Вараб","name_ur":"واراب","name_fa":"واراب","name_zht":"瓦拉布省","FCLASS_ISO":null,"FCLASS_US":null,"FCLASS_FR":null,"FCLASS_RU":null,"FCLASS_ES":null,"FCLASS_CN":null,"FCLASS_TW":null,"FCLASS_IN":null,"FCLASS_NP":null,"FCLASS_PK":null,"FCLASS_DE":null,"FCLASS_GB":null,"FCLASS_BR":null,"FCLASS_IL":null,"FCLASS_PS":null,"FCLASS_SA":null,"FCLASS_EG":null,"FCLASS_MA":null,"FCLASS_PT":null,"FCLASS_AR":null,"FCLASS_JP":null,"FCLASS_KO":null,"FCLASS_VN":null,"FCLASS_TR":null,"FCLASS_ID":null,"FCLASS_PL":null,"FCLASS_GR":null,"FCLASS_IT":null,"FCLASS_NL":null,"FCLASS_SE":null,"FCLASS_BD":null,"FCLASS_UA":null,"FCLASS_TLC":null,"iso_id":"SS-WR","iso_name":"Warrap"},"geometry":{"type":"Polygon","coordinates":[[[28.374527,8.990563],[28.288744,9.00064],[28.118005,9.007461],[28.0038,8.996919],[27.961012,8.987049],[27.932435,8.974104],[27.911971,8.958523],[27.891456,8.930721],[27.870992,8.872224],[27.857814,8.719856],[27.844637,8.676396],[27.81637,8.622626],[27.786449,8.58175],[27.765158,8.537929],[27.700149,8.251073],[27.744074,8.204616],[27.873627,7.992949],[27.936156,7.914814],[27.959462,7.892387],[27.974034,7.881767],[27.993413,7.873938],[28.144722,7.8481],[28.193763,7.827223],[28.265438,7.783014],[28.348792,7.719064],[28.475244,7.650257],[28.516999,7.635348],[28.549555,7.61721],[28.563663,7.594395],[28.561957,7.568091],[28.551105,7.542718],[28.546919,7.522461],[28.554826,7.503237],[28.594255,7.472257],[28.605727,7.447995],[28.610533,7.408256],[28.608208,7.246483],[28.590224,7.089309],[28.599371,6.965002],[28.639575,6.735972],[28.721482,6.672823],[28.801736,6.639853],[28.836152,6.634582],[28.86938,6.63559],[28.905037,6.640939],[28.938885,6.64931],[28.972733,6.662979],[29.003119,6.681272],[29.023479,6.708273],[29.034642,6.730546],[29.157683,7.131503],[29.175667,7.168452],[29.241141,7.26333],[29.569183,7.624806],[29.698632,7.821177],[29.662304,8.404319],[29.653002,8.424706],[29.636414,8.446358],[29.350695,8.641721],[29.095155,9.029501],[29.038827,9.04813],[28.833982,9.031671],[28.400778,9.000329],[28.384449,8.992423],[28.374527,8.990563]]]}}
