{"type":"Feature","properties":{"featurecla":"Admin-1 states provinces","scalerank":9,"adm1_code":"SLV-1348","diss_me":1348,"iso_3166_2":"SV-SO","wikipedia":null,"iso_a2":"SV","adm0_sr":1,"name":"Sonsonate","name_alt":null,"name_local":null,"type":"Departamento","type_en":"Department","code_local":null,"code_hasc":"SV.SO","note":null,"hasc_maybe":null,"region":null,"region_cod":null,"provnum_ne":3,"gadm_level":1,"check_me":0,"datarank":8,"abbrev":null,"postal":"SO","area_sqkm":0,"sameascity":9,"labelrank":9,"name_len":9,"mapcolor9":6,"mapcolor13":8,"fips":"ES13","fips_alt":null,"woe_id":2345304,"woe_label":"Sonsonate, SV, El Salvador","woe_name":"Sonsonate","latitude":13.7165,"longitude":-89.6937,"sov_a3":"SLV","adm0_a3":"SLV","adm0_label":2,"admin":"El Salvador","geonunit":"El Salvador","gu_a3":"SLV","gn_id":3583101,"gn_name":"Departamento de Sonsonate","gns_id":-1148342,"gns_name":"Sonsonate","gn_level":1,"gn_region":null,"gn_a1_code":"SV.13","region_sub":null,"sub_code":null,"gns_level":1,"gns_lang":"fra","gns_adm1":"ES13","gns_region":null,"min_label":10.0,"max_label":11.0,"min_zoom":10.0,"wikidataid":"Q212540","name_ar":"إدارة سونسونات","name_bn":"সোন্সোনাটে বিভাগ","name_de":"Sonsonate","name_en":"Sonsonate","name_es":"Sonsonate","name_fr":"Sonsonate","name_el":"Διαμέρισμα Σονσονάτε","name_hi":"सोनसोनाते प्रदेश","name_hu":"Sonsonate","name_id":"Departemen Sonsonate","name_it":"dipartimento di Sonsonate","name_ja":"ソンソナーテ県","name_ko":"손소나테","name_nl":"Sonsonate","name_pl":"Sonsonate","name_pt":"Sonsonate","name_ru":"Сонсонате","name_sv":"Sonsonate","name_tr":"Sonsonate Departmanı","name_vi":"Khu vực hành chính Sonsonate","name_zh":"松索纳特省","ne_id":1159309047,"name_he":"סונסונאטה","name_uk":"Регіон Сонсонате","name_ur":"سونسوناتے محکمہ","name_fa":"بخش سونسوناتی","name_zht":"松索纳特省","FCLASS_ISO":null,"FCLASS_US":null,"FCLASS_FR":null,"FCLASS_RU":null,"FCLASS_ES":null,"FCLASS_CN":null,"FCLASS_TW":null,"FCLASS_IN":null,"FCLASS_NP":null,"FCLASS_PK":null,"FCLASS_DE":null,"FCLASS_GB":null,"FCLASS_BR":null,"FCLASS_IL":null,"FCLASS_PS":null,"FCLASS_SA":null,"FCLASS_EG":null,"FCLASS_MA":null,"FCLASS_PT":null,"FCLASS_AR":null,"FCLASS_JP":null,"FCLASS_KO":null,"FCLASS_VN":null,"FCLASS_TR":null,"FCLASS_ID":null,"FCLASS_PL":null,"FCLASS_GR":null,"FCLASS_IT":null,"FCLASS_NL":null,"FCLASS_SE":null,"FCLASS_BD":null,"FCLASS_UA":null,"FCLASS_TLC":null,"iso_id":"SV-SO","iso_name":"Sonsonate"},"geometry":{"type":"Polygon","coordinates":[[[-89.609425,13.513063],[-89.596076,13.542946],[-89.590728,13.551395],[-89.565432,13.57297],[-89.558301,13.581962],[-89.556983,13.594003],[-89.552745,13.607258],[-89.524633,13.635008],[-89.516985,13.646402],[-89.518019,13.67175],[-89.516443,13.683299],[-89.513497,13.695211],[-89.509079,13.704332],[-89.502981,13.70844],[-89.489829,13.71136],[-89.468539,13.733529],[-89.44748,13.746267],[-89.437584,13.756396],[-89.436163,13.760065],[-89.437662,13.76531],[-89.442778,13.770426],[-89.456627,13.775077],[-89.504273,13.783939],[-89.517037,13.788151],[-89.526054,13.80678],[-89.539335,13.818873],[-89.560471,13.834195],[-89.57693,13.842747],[-89.583312,13.83882],[-89.589177,13.827528],[-89.591115,13.81063],[-89.59698,13.806574],[-89.604163,13.80492],[-89.612122,13.807116],[-89.625377,13.823963],[-89.631604,13.8251],[-89.636125,13.829208],[-89.634523,13.833936],[-89.627418,13.84068],[-89.625325,13.845693],[-89.626178,13.853677],[-89.630622,13.860705],[-89.639872,13.869593],[-89.648218,13.883597],[-89.664444,13.899023],[-89.674908,13.905379],[-89.695553,13.903286],[-89.718833,13.90897],[-89.736584,13.90171],[-89.770717,13.893984],[-89.775626,13.889282],[-89.776866,13.878662],[-89.774489,13.859955],[-89.767745,13.84267],[-89.768339,13.839207],[-89.7887,13.809028],[-89.791103,13.799597],[-89.781594,13.768049],[-89.785935,13.759341],[-89.796451,13.745208],[-89.799449,13.729188],[-89.812264,13.706761],[-89.819757,13.679682],[-89.833064,13.676659],[-89.869419,13.679605],[-89.893758,13.704048],[-89.902982,13.708853],[-89.910553,13.709241],[-89.919622,13.707148],[-89.927839,13.701851],[-89.935332,13.693144],[-89.953483,13.665073],[-89.870263,13.619276],[-89.849662,13.606876],[-89.837148,13.596829],[-89.833377,13.573888],[-89.823297,13.53714],[-89.808048,13.526858],[-89.713128,13.527997],[-89.679766,13.534732],[-89.609425,13.513063]]]}}
