{"type":"Feature","properties":{"featurecla":"Admin-1 states provinces","scalerank":8,"adm1_code":"SWZ-534","diss_me":534,"iso_3166_2":"SZ-HH","wikipedia":null,"iso_a2":"SZ","adm0_sr":1,"name":"Hhohho","name_alt":null,"name_local":null,"type":"District","type_en":"District","code_local":null,"code_hasc":"SZ.HH","note":null,"hasc_maybe":null,"region":null,"region_cod":null,"provnum_ne":4,"gadm_level":1,"check_me":0,"datarank":8,"abbrev":null,"postal":"HH","area_sqkm":0,"sameascity":-99,"labelrank":8,"name_len":6,"mapcolor9":2,"mapcolor13":5,"fips":"WZ01","fips_alt":null,"woe_id":20069889,"woe_label":"Hhohho, SZ, Swaziland","woe_name":"Hhohho","latitude":-26.0265,"longitude":31.322,"sov_a3":"SWZ","adm0_a3":"SWZ","adm0_label":2,"admin":"Swaziland","geonunit":"Swaziland","gu_a3":"SWZ","gn_id":935085,"gn_name":"Hhohho District","gns_id":-1331555,"gns_name":"Hhohho","gn_level":1,"gn_region":null,"gn_a1_code":"SZ.01","region_sub":null,"sub_code":null,"gns_level":1,"gns_lang":"eng","gns_adm1":"WZ01","gns_region":null,"min_label":8.7,"max_label":11.0,"min_zoom":8.7,"wikidataid":"Q735570","name_ar":"إقليم هوهو","name_bn":"হোহো জেলা","name_de":"Hhohho","name_en":"Hhohho","name_es":"Hhohho","name_fr":"Hhohho","name_el":"Χνόχο","name_hi":"होहो जिला","name_hu":"Hhohho","name_id":"Hhohho","name_it":"Hhohho","name_ja":"ホホ","name_ko":"호호 구","name_nl":"Hhohho","name_pl":"Hhohho","name_pt":"Hhohho","name_ru":"Хохо","name_sv":"Hhohho","name_tr":"Hhohho","name_vi":"Quận Hhohho","name_zh":"霍霍","ne_id":1159307767,"name_he":"מחוז האהוהאהו","name_uk":"Хохо","name_ur":"ہوہو علاقہ","name_fa":"ناحیه هووهو","name_zht":"霍霍","FCLASS_ISO":null,"FCLASS_US":null,"FCLASS_FR":null,"FCLASS_RU":null,"FCLASS_ES":null,"FCLASS_CN":null,"FCLASS_TW":null,"FCLASS_IN":null,"FCLASS_NP":null,"FCLASS_PK":null,"FCLASS_DE":null,"FCLASS_GB":null,"FCLASS_BR":null,"FCLASS_IL":null,"FCLASS_PS":null,"FCLASS_SA":null,"FCLASS_EG":null,"FCLASS_MA":null,"FCLASS_PT":null,"FCLASS_AR":null,"FCLASS_JP":null,"FCLASS_KO":null,"FCLASS_VN":null,"FCLASS_TR":null,"FCLASS_ID":null,"FCLASS_PL":null,"FCLASS_GR":null,"FCLASS_IT":null,"FCLASS_NL":null,"FCLASS_SE":null,"FCLASS_BD":null,"FCLASS_UA":null,"FCLASS_TLC":null,"iso_id":"SZ-HH","iso_name":"Hhohho","source":"iso-3166-2-subdivisions"},"geometry":{"type":"Polygon","coordinates":[[[31.372017,-25.736412],[31.309282,-25.757393],[31.119836,-25.910045],[31.037774,-26.100111],[30.969871,-26.209148],[30.897318,-26.291727],[31.056844,-26.380715],[31.083044,-26.416889],[31.139836,-26.429291],[31.192133,-26.425467],[31.229856,-26.452855],[31.261069,-26.454251],[31.268665,-26.446189],[31.268045,-26.375031],[31.286184,-26.354463],[31.284633,-26.322682],[31.291145,-26.314001],[31.347317,-26.293434],[31.360339,-26.278861],[31.40876,-26.281238],[31.490099,-26.251162],[31.501571,-26.241964],[31.508702,-26.216384],[31.538158,-26.200623],[31.562084,-26.171219],[31.63686,-26.164553],[31.669778,-26.151892],[31.676909,-26.142073],[31.668848,-25.952214],[31.671948,-25.943584],[31.699699,-25.950199],[31.740058,-25.939863],[31.746966,-25.93079],[31.426898,-25.743647],[31.372017,-25.736412]]]}}
