{"type":"Feature","properties":{"featurecla":"Admin-0 country","scalerank":0,"LABELRANK":6,"SOVEREIGNT":"Togo","SOV_A3":"TGO","ADM0_DIF":0,"LEVEL":2,"TYPE":"Sovereign country","TLC":"1","ADMIN":"Togo","ADM0_A3":"TGO","GEOU_DIF":0,"GEOUNIT":"Togo","GU_A3":"TGO","SU_DIF":0,"SUBUNIT":"Togo","SU_A3":"TGO","BRK_DIFF":0,"NAME":"Togo","NAME_LONG":"Togo","BRK_A3":"TGO","BRK_NAME":"Togo","BRK_GROUP":null,"ABBREV":"Togo","POSTAL":"TG","FORMAL_EN":"Togolese Republic","FORMAL_FR":"République Togolaise","NAME_CIAWF":"Togo","NOTE_ADM0":null,"NOTE_BRK":null,"NAME_SORT":"Togo","NAME_ALT":null,"MAPCOLOR7":3,"MAPCOLOR8":1,"MAPCOLOR9":3,"MAPCOLOR13":5,"POP_EST":8082366.0,"POP_RANK":13,"POP_YEAR":2019,"GDP_MD":5490,"GDP_YEAR":2019,"ECONOMY":"7. Least developed region","INCOME_GRP":"5. Low income","FIPS_10":"TO","ISO_A2":"TG","ISO_A2_EH":"TG","ISO_A3":"TGO","ISO_A3_EH":"TGO","ISO_N3":"768","ISO_N3_EH":"768","UN_A3":"768","WB_A2":"TG","WB_A3":"TGO","WOE_ID":23424965,"WOE_ID_EH":23424965,"WOE_NOTE":"Exact WOE match as country","ADM0_ISO":"TGO","ADM0_DIFF":null,"ADM0_TLC":"TGO","ADM0_A3_US":"TGO","ADM0_A3_FR":"TGO","ADM0_A3_RU":"TGO","ADM0_A3_ES":"TGO","ADM0_A3_CN":"TGO","ADM0_A3_TW":"TGO","ADM0_A3_IN":"TGO","ADM0_A3_NP":"TGO","ADM0_A3_PK":"TGO","ADM0_A3_DE":"TGO","ADM0_A3_GB":"TGO","ADM0_A3_BR":"TGO","ADM0_A3_IL":"TGO","ADM0_A3_PS":"TGO","ADM0_A3_SA":"TGO","ADM0_A3_EG":"TGO","ADM0_A3_MA":"TGO","ADM0_A3_PT":"TGO","ADM0_A3_AR":"TGO","ADM0_A3_JP":"TGO","ADM0_A3_KO":"TGO","ADM0_A3_VN":"TGO","ADM0_A3_TR":"TGO","ADM0_A3_ID":"TGO","ADM0_A3_PL":"TGO","ADM0_A3_GR":"TGO","ADM0_A3_IT":"TGO","ADM0_A3_NL":"TGO","ADM0_A3_SE":"TGO","ADM0_A3_BD":"TGO","ADM0_A3_UA":"TGO","ADM0_A3_UN":-99,"ADM0_A3_WB":-99,"CONTINENT":"Africa","REGION_UN":"Africa","SUBREGION":"Western Africa","REGION_WB":"Sub-Saharan Africa","NAME_LEN":4,"LONG_LEN":4,"ABBREV_LEN":4,"TINY":-99,"HOMEPART":1,"MIN_ZOOM":0.0,"MIN_LABEL":5.0,"MAX_LABEL":10.0,"LABEL_X":1.058113,"LABEL_Y":8.80722,"NE_ID":1159321303,"WIKIDATAID":"Q945","NAME_AR":"توغو","NAME_BN":"টোগো","NAME_DE":"Togo","NAME_EN":"Togo","NAME_ES":"Togo","NAME_FA":"توگو","NAME_FR":"Togo","NAME_EL":"Τόγκο","NAME_HE":"טוגו","NAME_HI":"टोगो","NAME_HU":"Togo","NAME_ID":"Togo","NAME_IT":"Togo","NAME_JA":"トーゴ","NAME_KO":"토고","NAME_NL":"Togo","NAME_PL":"Togo","NAME_PT":"Togo","NAME_RU":"Того","NAME_SV":"Togo","NAME_TR":"Togo","NAME_UK":"Того","NAME_UR":"ٹوگو","NAME_VI":"Togo","NAME_ZH":"多哥","NAME_ZHT":"多哥","FCLASS_ISO":"Admin-0 country","TLC_DIFF":null,"FCLASS_TLC":"Admin-0 country","FCLASS_US":null,"FCLASS_FR":null,"FCLASS_RU":null,"FCLASS_ES":null,"FCLASS_CN":null,"FCLASS_TW":null,"FCLASS_IN":null,"FCLASS_NP":null,"FCLASS_PK":null,"FCLASS_DE":null,"FCLASS_GB":null,"FCLASS_BR":null,"FCLASS_IL":null,"FCLASS_PS":null,"FCLASS_SA":null,"FCLASS_EG":null,"FCLASS_MA":null,"FCLASS_PT":null,"FCLASS_AR":null,"FCLASS_JP":null,"FCLASS_KO":null,"FCLASS_VN":null,"FCLASS_TR":null,"FCLASS_ID":null,"FCLASS_PL":null,"FCLASS_GR":null,"FCLASS_IT":null,"FCLASS_NL":null,"FCLASS_SE":null,"FCLASS_BD":null,"FCLASS_UA":null,"iso_id":"TG","iso_name":"Togo","name":"Togo","source":"iso-3166-1-countries"},"geometry":{"type":"Polygon","coordinates":[[[-0.166109,11.13498],[-0.158668,11.118444],[-0.121745,11.092192],[-0.103348,11.087541],[-0.032267,11.098574],[0.001116,11.085991],[0.016205,11.062582],[0.01419,10.983672],[-0.014439,10.953596],[-0.036091,10.853137],[-0.032061,10.813165],[-0.061103,10.791358],[-0.082807,10.756218],[-0.09769,10.675008],[-0.098336,10.654157],[-0.088129,10.633486],[0.029434,10.582533],[0.057262,10.541115],[0.126018,10.491609],[0.179865,10.394173],[0.197073,10.41027],[0.23322,10.398617],[0.273244,10.406601],[0.283114,10.396808],[0.278825,10.366629],[0.317582,10.31733],[0.308797,10.297099],[0.366597,10.304488],[0.396596,10.283224],[0.372049,10.265137],[0.357192,10.219997],[0.353601,10.115508],[0.363393,10.089669],[0.395149,10.072358],[0.398146,10.052127],[0.393908,10.03249],[0.349777,10.02882],[0.355719,10.018976],[0.349777,9.997169],[0.369569,9.938826],[0.341715,9.903789],[0.343886,9.838393],[0.32244,9.760671],[0.323887,9.742068],[0.347606,9.698841],[0.347089,9.663158],[0.336651,9.650833],[0.318719,9.648611],[0.275285,9.685586],[0.260971,9.657164],[0.261694,9.627941],[0.277636,9.606986],[0.308797,9.603678],[0.349363,9.61391],[0.369155,9.610138],[0.377734,9.589416],[0.370809,9.575644],[0.354608,9.571096],[0.32244,9.583137],[0.30456,9.571562],[0.230197,9.575747],[0.225908,9.531926],[0.253503,9.514252],[0.293139,9.518283],[0.301924,9.507457],[0.28531,9.488363],[0.228053,9.473971],[0.234977,9.443766],[0.226813,9.432345],[0.23136,9.418961],[0.26849,9.420641],[0.32182,9.442836],[0.333783,9.479474],[0.411659,9.492238],[0.483515,9.470017],[0.49168,9.451285],[0.482792,9.427875],[0.513281,9.416791],[0.531368,9.401107],[0.537569,9.377646],[0.526613,9.297651],[0.522479,9.285067],[0.49292,9.258609],[0.504703,9.187166],[0.463646,9.137092],[0.458478,9.08924],[0.43127,9.02759],[0.493127,8.915219],[0.505633,8.866333],[0.483515,8.834811],[0.47349,8.793547],[0.419592,8.791247],[0.424966,8.78732],[0.407809,8.759053],[0.397112,8.781532],[0.385278,8.78608],[0.365874,8.774272],[0.374426,8.724766],[0.403727,8.662082],[0.443518,8.606866],[0.550798,8.519326],[0.616324,8.488759],[0.646709,8.414165],[0.685053,8.382564],[0.689187,8.331301],[0.708825,8.322568],[0.712752,8.29797],[0.705207,8.282751],[0.645056,8.253425],[0.573846,8.203945],[0.572709,8.191],[0.593276,8.150666],[0.574983,8.124621],[0.593173,8.015739],[0.612293,7.699428],[0.583354,7.704285],[0.570538,7.683925],[0.562063,7.612301],[0.50925,7.585378],[0.499432,7.562382],[0.495608,7.504298],[0.500568,7.45505],[0.516692,7.411022],[0.548214,7.383271],[0.566404,7.380791],[0.623042,7.397896],[0.645676,7.323585],[0.621801,7.218837],[0.59772,7.158892],[0.59803,7.0312],[0.57891,6.996783],[0.494574,6.973116],[0.534468,6.935909],[0.54625,6.914773],[0.522789,6.862838],[0.519275,6.832246],[0.541083,6.817182],[0.576636,6.754731],[0.593793,6.751114],[0.625832,6.727756],[0.635341,6.695381],[0.626659,6.644893],[0.63224,6.62399],[0.668207,6.585827],[0.714612,6.583914],[0.727428,6.571435],[0.713475,6.53999],[0.711718,6.513376],[0.745721,6.4409],[0.766805,6.419351],[0.841323,6.379224],[0.886798,6.33039],[0.983536,6.324602],[1.009685,6.244452],[1.025188,6.222334],[1.048132,6.20939],[1.079655,6.167919],[1.093401,6.160917],[1.176186,6.151512],[1.187968,6.135647],[1.185395,6.100491],[1.429535,6.181952],[1.61964,6.213894],[1.612439,6.234763],[1.633109,6.245692],[1.782351,6.277267],[1.74411,6.425733],[1.718375,6.466997],[1.681685,6.489838],[1.680755,6.530068],[1.657811,6.552263],[1.653883,6.570659],[1.627425,6.573347],[1.597349,6.600813],[1.596316,6.636418],[1.566033,6.678146],[1.60107,6.746437],[1.58319,6.808268],[1.590114,6.867334],[1.588047,6.881235],[1.551357,6.920871],[1.531927,6.991926],[1.625668,6.996783],[1.625564,8.270478],[1.614919,8.356261],[1.60107,8.371635],[1.607581,8.421864],[1.644168,8.493488],[1.614092,8.535785],[1.607581,8.558755],[1.595799,9.076811],[1.567273,9.13673],[1.425267,9.284499],[1.401185,9.321267],[1.386716,9.361135],[1.379895,9.462473],[1.368422,9.490843],[1.351266,9.482549],[1.326358,9.521952],[1.323154,9.542313],[1.351266,9.595074],[1.35602,9.647474],[1.348165,9.694164],[1.343825,9.962442],[1.331009,9.996471],[0.768769,10.367094],[0.760708,10.382158],[0.773833,10.508145],[0.78851,10.563852],[0.781275,10.693044],[0.795641,10.726478],[0.862924,10.796086],[0.869538,10.839908],[0.885144,10.869389],[0.872949,10.911299],[0.875843,10.931169],[0.901474,10.992741],[0.675338,10.988529],[0.612603,10.976566],[0.487649,10.933236],[0.499742,10.975688],[0.483619,10.979693],[0.486616,11.003205],[-0.166109,11.13498]]]}}
