{"type":"Feature","properties":{"featurecla":"Admin-1 states provinces","scalerank":8,"adm1_code":"TLS-541","diss_me":541,"iso_3166_2":"TL-DI","wikipedia":null,"iso_a2":"TL","adm0_sr":1,"name":"Dili","name_alt":"Dilli","name_local":null,"type":"Distrik|Kabupaten","type_en":"District|Regencies","code_local":null,"code_hasc":"TL.DL","note":null,"hasc_maybe":null,"region":null,"region_cod":null,"provnum_ne":1,"gadm_level":1,"check_me":10,"datarank":8,"abbrev":null,"postal":"DL","area_sqkm":0,"sameascity":9,"labelrank":9,"name_len":4,"mapcolor9":4,"mapcolor13":3,"fips":"TT06","fips_alt":"CG02","woe_id":24549898,"woe_label":"Dili, TL, East Timor","woe_name":"Dili","latitude":-8.55429,"longitude":125.668,"sov_a3":"TLS","adm0_a3":"TLS","adm0_label":5,"admin":"East Timor","geonunit":"East Timor","gu_a3":"TLS","gn_id":1645456,"gn_name":"Distrito Dili","gns_id":-2676853,"gns_name":"Dili, Distrito","gn_level":1,"gn_region":null,"gn_a1_code":"TL.DI","region_sub":null,"sub_code":null,"gns_level":1,"gns_lang":"por","gns_adm1":"TT06","gns_region":null,"min_label":9.0,"max_label":11.0,"min_zoom":9.0,"wikidataid":"Q860901","name_ar":"بلدية ديلي","name_bn":"দিলি পৌরসভা","name_de":"Gemeinde Dili","name_en":"Dili","name_es":"Dili","name_fr":"Dili","name_el":"Ντίλι","name_hi":"डिली नगरपालिका","name_hu":"Dili","name_id":"Díli","name_it":"Dili","name_ja":"ディリ県","name_ko":"딜리 현","name_nl":"Dili","name_pl":"Dili","name_pt":"Díli","name_ru":"Дили","name_sv":"Dili","name_tr":"Dili","name_vi":"Dili","name_zh":"帝力县","ne_id":1159307849,"name_he":"מחוז דילי","name_uk":"Ділі","name_ur":"دیلی ضلع","name_fa":"شهرداری دیلی","name_zht":"帝力縣","FCLASS_ISO":null,"FCLASS_US":null,"FCLASS_FR":null,"FCLASS_RU":null,"FCLASS_ES":null,"FCLASS_CN":null,"FCLASS_TW":null,"FCLASS_IN":null,"FCLASS_NP":null,"FCLASS_PK":null,"FCLASS_DE":null,"FCLASS_GB":null,"FCLASS_BR":null,"FCLASS_IL":null,"FCLASS_PS":null,"FCLASS_SA":null,"FCLASS_EG":null,"FCLASS_MA":null,"FCLASS_PT":null,"FCLASS_AR":null,"FCLASS_JP":null,"FCLASS_KO":null,"FCLASS_VN":null,"FCLASS_TR":null,"FCLASS_ID":null,"FCLASS_PL":null,"FCLASS_GR":null,"FCLASS_IT":null,"FCLASS_NL":null,"FCLASS_SE":null,"FCLASS_BD":null,"FCLASS_UA":null,"FCLASS_TLC":null,"iso_id":"TL-DI","iso_name":"Dili"},"geometry":{"type":"MultiPolygon","coordinates":[[[[125.489831,-8.568212],[125.497487,-8.609655],[125.521052,-8.627018],[125.560326,-8.621231],[125.592159,-8.610482],[125.616137,-8.605728],[125.695925,-8.565007],[125.734372,-8.567487],[125.761657,-8.583403],[125.788942,-8.575755],[125.810853,-8.548884],[125.830284,-8.534414],[125.845993,-8.513537],[125.828544,-8.49091],[125.733165,-8.52158],[125.678884,-8.530369],[125.649262,-8.529555],[125.63087,-8.52158],[125.603526,-8.548923],[125.591807,-8.549574],[125.565929,-8.542087],[125.541515,-8.545017],[125.489831,-8.568212]]],[[[125.562022,-8.209161],[125.526622,-8.235772],[125.514171,-8.247735],[125.506358,-8.261],[125.503673,-8.270766],[125.507091,-8.280369],[125.517589,-8.292169],[125.530528,-8.299493],[125.562755,-8.309177],[125.573578,-8.317315],[125.583018,-8.314386],[125.592296,-8.307306],[125.59669,-8.299249],[125.603526,-8.268813],[125.6421,-8.174737],[125.650645,-8.142836],[125.632498,-8.135024],[125.605154,-8.153009],[125.580251,-8.178969],[125.562022,-8.209161]]]]}}
