{"type":"Feature","properties":{"featurecla":"Admin-1 states provinces","scalerank":6,"adm1_code":"TUR-2298","diss_me":2298,"iso_3166_2":"TR-08","wikipedia":null,"iso_a2":"TR","adm0_sr":1,"name":"Artvin","name_alt":"Çoruh","name_local":null,"type":"Il","type_en":"Province","code_local":null,"code_hasc":"TR.AV","note":null,"hasc_maybe":null,"region":null,"region_cod":null,"provnum_ne":20019,"gadm_level":1,"check_me":20,"datarank":5,"abbrev":null,"postal":"AV","area_sqkm":0,"sameascity":-99,"labelrank":6,"name_len":6,"mapcolor9":8,"mapcolor13":4,"fips":"TU08","fips_alt":null,"woe_id":2347265,"woe_label":"Artvin, TR, Turkey","woe_name":"Artvin","latitude":41.0175,"longitude":41.8331,"sov_a3":"TUR","adm0_a3":"TUR","adm0_label":2,"admin":"Turkey","geonunit":"Turkey","gu_a3":"TUR","gn_id":751816,"gn_name":"Artvin","gns_id":-735804,"gns_name":"Artvin Ili","gn_level":1,"gn_region":null,"gn_a1_code":"TR.08","region_sub":null,"sub_code":null,"gns_level":1,"gns_lang":"tur","gns_adm1":"TU08","gns_region":null,"min_label":7.0,"max_label":11.0,"min_zoom":7.0,"wikidataid":"Q43745","name_ar":"أرتوين","name_bn":"আর্টভিন প্রদেশ","name_de":"Artvin","name_en":"Artvin","name_es":"Artvin","name_fr":"Artvin","name_el":"Επαρχία Αρτβίν","name_hi":"आर्टविन प्रांत","name_hu":"Artvin","name_id":"Artvin","name_it":"Artvin","name_ja":"アルトヴィン県","name_ko":"아르트빈","name_nl":"Artvin","name_pl":"Artvin","name_pt":"Artvin","name_ru":"Артвин","name_sv":"Artvin","name_tr":"Artvin","name_vi":"Artvin","name_zh":"阿尔特温省","ne_id":1159312345,"name_he":"ארטווין","name_uk":"Артвін","name_ur":"آرتوین صوبہ","name_fa":"استان آرتوین","name_zht":"阿尔特温省","FCLASS_ISO":null,"FCLASS_US":null,"FCLASS_FR":null,"FCLASS_RU":null,"FCLASS_ES":null,"FCLASS_CN":null,"FCLASS_TW":null,"FCLASS_IN":null,"FCLASS_NP":null,"FCLASS_PK":null,"FCLASS_DE":null,"FCLASS_GB":null,"FCLASS_BR":null,"FCLASS_IL":null,"FCLASS_PS":null,"FCLASS_SA":null,"FCLASS_EG":null,"FCLASS_MA":null,"FCLASS_PT":null,"FCLASS_AR":null,"FCLASS_JP":null,"FCLASS_KO":null,"FCLASS_VN":null,"FCLASS_TR":null,"FCLASS_ID":null,"FCLASS_PL":null,"FCLASS_GR":null,"FCLASS_IT":null,"FCLASS_NL":null,"FCLASS_SE":null,"FCLASS_BD":null,"FCLASS_UA":null,"FCLASS_TLC":null,"iso_id":"TR-08","iso_name":"Artvin"},"geometry":{"type":"Polygon","coordinates":[[[42.437854,41.430857],[42.262464,41.482327],[42.213268,41.480208],[42.18929,41.481707],[42.17265,41.493489],[42.158387,41.499897],[42.143195,41.500259],[42.111775,41.493489],[42.097513,41.498347],[42.083457,41.500104],[42.069401,41.498605],[42.054931,41.493489],[42.019585,41.485066],[41.947961,41.505581],[41.907757,41.493489],[41.894011,41.485531],[41.862695,41.451786],[41.822594,41.426],[41.812982,41.421814],[41.800787,41.42569],[41.760996,41.453543],[41.747767,41.45685],[41.718518,41.459589],[41.706839,41.463155],[41.702601,41.46946],[41.703945,41.485117],[41.702601,41.489045],[41.694953,41.489097],[41.669839,41.480467],[41.63997,41.47871],[41.627257,41.480518],[41.520763,41.514228],[41.507091,41.495429],[41.448578,41.456244],[41.438162,41.451361],[41.434337,41.429145],[41.424164,41.407864],[41.408946,41.390326],[41.390391,41.37934],[41.377452,41.376044],[41.34254,41.372504],[41.331798,41.369696],[41.310313,41.360785],[41.285004,41.353827],[41.199747,41.301259],[41.228419,41.246527],[41.235861,41.207201],[41.255291,41.172733],[41.273998,41.159555],[41.294462,41.148755],[41.306554,41.13258],[41.316166,41.114597],[41.35575,41.100024],[41.385826,41.075348],[41.358747,41.028555],[41.304384,41.002278],[41.289811,40.981401],[41.280302,40.960859],[41.260459,40.946287],[41.237308,40.936623],[41.141706,40.852804],[41.127443,40.81291],[41.205475,40.779191],[41.329292,40.764541],[41.365258,40.754696],[41.3727,40.722088],[41.346965,40.686406],[41.333426,40.601036],[41.401329,40.555561],[41.493519,40.581813],[41.578785,40.624291],[41.65661,40.641241],[41.734745,40.623593],[41.820838,40.587626],[41.866416,40.639716],[41.867967,40.6847],[41.887397,40.724388],[41.927188,40.755084],[41.952613,40.795624],[41.945998,40.838541],[41.958917,40.877479],[41.989613,40.898305],[42.024443,40.911896],[42.092346,40.916676],[42.161179,40.910888],[42.220813,40.920758],[42.279208,40.924918],[42.34153,41.019719],[42.429173,41.091911],[42.512062,41.123511],[42.538727,41.191181],[42.510305,41.261048],[42.492321,41.296084],[42.48364,41.307143],[42.471961,41.331612],[42.46545,41.373625],[42.451033,41.43137],[42.437854,41.430857]]]}}
