{"type":"Feature","properties":{"featurecla":"Admin-1 states provinces","scalerank":6,"adm1_code":"TUR-4840","diss_me":4840,"iso_3166_2":"TR-76","wikipedia":"http://en.wikipedia.org/wiki/I%C4%9Fd%C4%B1r_Province","iso_a2":"TR","adm0_sr":1,"name":"Iğdır","name_alt":null,"name_local":null,"type":"Il","type_en":"Province","code_local":null,"code_hasc":"TR.IG","note":null,"hasc_maybe":null,"region":null,"region_cod":null,"provnum_ne":0,"gadm_level":1,"check_me":20,"datarank":5,"abbrev":null,"postal":"IG","area_sqkm":0,"sameascity":7,"labelrank":7,"name_len":5,"mapcolor9":8,"mapcolor13":4,"fips":"TU88","fips_alt":null,"woe_id":20070183,"woe_label":"IÄŸdÄ±r, TR, Turkey","woe_name":"IÄŸdÄ±r","latitude":39.811,"longitude":44.0317,"sov_a3":"TUR","adm0_a3":"TUR","adm0_label":2,"admin":"Turkey","geonunit":"Turkey","gu_a3":"TUR","gn_id":443184,"gn_name":"Igdir","gns_id":9034900,"gns_name":"Igdir Ili","gn_level":1,"gn_region":null,"gn_a1_code":"TR.88","region_sub":null,"sub_code":null,"gns_level":1,"gns_lang":"tur","gns_adm1":"TU88","gns_region":null,"min_label":7.0,"max_label":11.0,"min_zoom":7.0,"wikidataid":"Q125506","name_ar":"اغدير","name_bn":"ইগদির","name_de":"Iğdır","name_en":"Iğdır","name_es":"Iğdır","name_fr":"Iğdır","name_el":"Ιντιρ","name_hi":"इग्दीर","name_hu":"Iğdır","name_id":"Iğdır","name_it":"Iğdır","name_ja":"ウードゥル県","name_ko":"이디르","name_nl":"Iğdır","name_pl":"Iğdır","name_pt":"Iğdır","name_ru":"Ыгдыр","name_sv":"Iğdır","name_tr":"Iğdır","name_vi":"Iğdır","name_zh":"厄德尔省","ne_id":1159315907,"name_he":"איגדיר","name_uk":"Игдир","name_ur":"اغدیر صوبہ","name_fa":"استان ایغدیر","name_zht":"厄德爾省","FCLASS_ISO":null,"FCLASS_US":null,"FCLASS_FR":null,"FCLASS_RU":null,"FCLASS_ES":null,"FCLASS_CN":null,"FCLASS_TW":null,"FCLASS_IN":null,"FCLASS_NP":null,"FCLASS_PK":null,"FCLASS_DE":null,"FCLASS_GB":null,"FCLASS_BR":null,"FCLASS_IL":null,"FCLASS_PS":null,"FCLASS_SA":null,"FCLASS_EG":null,"FCLASS_MA":null,"FCLASS_PT":null,"FCLASS_AR":null,"FCLASS_JP":null,"FCLASS_KO":null,"FCLASS_VN":null,"FCLASS_TR":null,"FCLASS_ID":null,"FCLASS_PL":null,"FCLASS_GR":null,"FCLASS_IT":null,"FCLASS_NL":null,"FCLASS_SE":null,"FCLASS_BD":null,"FCLASS_UA":null,"FCLASS_TLC":null,"iso_id":"TR-76","iso_name":"Iğdır"},"geometry":{"type":"Polygon","coordinates":[[[44.806993,39.639902],[44.795746,39.652361],[44.784325,39.69024],[44.759107,39.723106],[44.697767,39.785273],[44.692031,39.793024],[44.687174,39.796383],[44.682419,39.79721],[44.666193,39.796383],[44.647693,39.805117],[44.611519,39.837311],[44.598187,39.831007],[44.594466,39.836794],[44.594156,39.84806],[44.591056,39.857827],[44.575966,39.866353],[44.567491,39.87302],[44.55912,39.896894],[44.547854,39.911467],[44.522171,39.933533],[44.464345,39.97229],[44.325645,40.034663],[44.289058,40.043397],[44.255262,40.043397],[44.195007,40.030788],[44.166379,40.028049],[44.135476,40.022313],[44.127001,40.024483],[44.114289,40.03394],[44.10447,40.035955],[44.083128,40.031614],[44.04835,40.012856],[44.032433,40.008618],[43.912131,40.024328],[43.802783,40.070734],[43.711213,40.090732],[43.665427,40.110163],[43.533522,40.07444],[43.408981,40.06007],[43.35629,40.04091],[43.35629,40.002589],[43.318421,39.969318],[43.340952,39.912603],[43.335681,39.865216],[43.335371,39.841496],[43.350047,39.803824],[43.365756,39.79323],[43.40038,39.783102],[43.464045,39.817467],[43.531638,39.838499],[43.563367,39.833176],[43.577113,39.825011],[43.610599,39.813462],[43.63065,39.81341],[43.663516,39.795556],[43.685634,39.758194],[43.715503,39.728247],[43.805006,39.695588],[43.868155,39.684064],[43.880867,39.654892],[43.973265,39.643162],[44.072587,39.653239],[44.147414,39.635023],[44.224515,39.627969],[44.402799,39.659492],[44.442177,39.652154],[44.45825,39.64252],[44.460211,39.65448],[44.455043,39.687139],[44.459487,39.698457],[44.565734,39.765894],[44.590435,39.771527],[44.605835,39.763155],[44.63281,39.731633],[44.646504,39.719541],[44.706294,39.698043],[44.725724,39.685331],[44.806993,39.639902]]]}}
