{"type":"Feature","properties":{"featurecla":"Admin-1 states provinces","scalerank":9,"adm1_code":"TTO-58","diss_me":58,"iso_3166_2":"TT-CTT","wikipedia":null,"iso_a2":"TT","adm0_sr":1,"name":"Couva-Tabaquite-Talparo","name_alt":"Couva","name_local":null,"type":"Region","type_en":"Region","code_local":null,"code_hasc":"TT.CT","note":null,"hasc_maybe":null,"region":null,"region_cod":null,"provnum_ne":9,"gadm_level":1,"check_me":0,"datarank":8,"abbrev":null,"postal":"CT","area_sqkm":0,"sameascity":-99,"labelrank":9,"name_len":23,"mapcolor9":2,"mapcolor13":5,"fips":"TD14","fips_alt":null,"woe_id":56189827,"woe_label":null,"woe_name":null,"latitude":10.4519,"longitude":-61.3425,"sov_a3":"TTO","adm0_a3":"TTO","adm0_label":6,"admin":"Trinidad and Tobago","geonunit":"Trinidad and Tobago","gu_a3":"TTO","gn_id":7521938,"gn_name":"Couva-Tabaquite-Talparo","gns_id":11402776,"gns_name":"Couva/Tabaquite/Talparo, Region of","gn_level":1,"gn_region":null,"gn_a1_code":"TT.CTT","region_sub":null,"sub_code":null,"gns_level":1,"gns_lang":"eng","gns_adm1":"TD14","gns_region":null,"min_label":10.0,"max_label":11.0,"min_zoom":10.0,"wikidataid":"Q2679127","name_ar":"شركة كوفا تاباكويت تالبارو الإقليمية","name_bn":"কুভা তাবাকুইত অঞ্চল","name_de":"Couva-Tabaquite-Talparo","name_en":"Couva-Tabaquite-Talparo","name_es":"Couva-Tabaquite-Talparo","name_fr":"Couva-Tabaquite-Talparo","name_el":"Κούβα-Ταμπακουίτε-Ταλπάρο","name_hi":"कूवा-ताबाक्वाइट-तालपारो क्षेत्रीय निगम","name_hu":"Couva-Tabaquite-Talparo","name_id":"Korporasi Wilayah Couva-Tabaquite-Talparo","name_it":"Couva-Tabaquite-Talparo","name_ja":"クーバ＝タバキテ＝タルパロ地域自治体","name_ko":"쿠바타바키테탈파로 지역","name_nl":"Couva - Tabaquite - Talparo","name_pl":"Couva-Tabaquite-Talparo","name_pt":"Couva Tabaquite Talparo","name_ru":"Кува-Табаките-Тальпаро","name_sv":"Couva Tabaquite Talparo","name_tr":"Couva-Tabaquite-Talparo Regional Corporation","name_vi":"Khu liên kết chung Couva-Tabaquite-Talparo","name_zh":"库瓦-塔瓦基特-塔尔帕罗地区","ne_id":1159308055,"name_he":"קובה - טבקיטו - טאלפרו","name_uk":"Регіон Кува-Табакіте-Тальпаро","name_ur":"کؤوا-تاباکیوٹ-ٹالپارو علاقائی کارپوریشن","name_fa":"استان کووا-تاپاکیته-تالپبارو","name_zht":"库瓦-塔瓦基特-塔尔帕罗地区","FCLASS_ISO":null,"FCLASS_US":null,"FCLASS_FR":null,"FCLASS_RU":null,"FCLASS_ES":null,"FCLASS_CN":null,"FCLASS_TW":null,"FCLASS_IN":null,"FCLASS_NP":null,"FCLASS_PK":null,"FCLASS_DE":null,"FCLASS_GB":null,"FCLASS_BR":null,"FCLASS_IL":null,"FCLASS_PS":null,"FCLASS_SA":null,"FCLASS_EG":null,"FCLASS_MA":null,"FCLASS_PT":null,"FCLASS_AR":null,"FCLASS_JP":null,"FCLASS_KO":null,"FCLASS_VN":null,"FCLASS_TR":null,"FCLASS_ID":null,"FCLASS_PL":null,"FCLASS_GR":null,"FCLASS_IT":null,"FCLASS_NL":null,"FCLASS_SE":null,"FCLASS_BD":null,"FCLASS_UA":null,"FCLASS_TLC":null,"iso_id":"TT-CTT","iso_name":"Couva-Tabaquite-Talparo"},"geometry":{"type":"Polygon","coordinates":[[[-61.459648,10.309705],[-61.454383,10.308312],[-61.407822,10.312084],[-61.373638,10.326243],[-61.340126,10.332548],[-61.311498,10.333065],[-61.281293,10.326864],[-61.252457,10.315391],[-61.243569,10.307123],[-61.229229,10.32769],[-61.221141,10.354975],[-61.215147,10.412233],[-61.210522,10.432077],[-61.197138,10.456365],[-61.216568,10.461791],[-61.218041,10.466183],[-61.218635,10.474813],[-61.210393,10.497292],[-61.210186,10.513157],[-61.217937,10.521219],[-61.221064,10.529332],[-61.223984,10.5715],[-61.228092,10.582197],[-61.239151,10.591447],[-61.267779,10.582507],[-61.310955,10.580698],[-61.325037,10.577546],[-61.337413,10.572017],[-61.349971,10.571345],[-61.364595,10.57336],[-61.368962,10.565505],[-61.364492,10.544266],[-61.371313,10.521167],[-61.372527,10.511193],[-61.379504,10.50494],[-61.405058,10.503132],[-61.417202,10.506853],[-61.424772,10.513054],[-61.434281,10.514862],[-61.441696,10.519513],[-61.462295,10.522614],[-61.468984,10.480862],[-61.482249,10.449856],[-61.487945,10.430121],[-61.485748,10.415717],[-61.482004,10.408881],[-61.475209,10.381537],[-61.476918,10.378607],[-61.483062,10.376451],[-61.482655,10.370998],[-61.470815,10.359361],[-61.459648,10.309705]]]}}
