{"type":"Feature","properties":{"featurecla":"Admin-1 states provinces","scalerank":9,"adm1_code":"TTO-62","diss_me":62,"iso_3166_2":"TT-SFO","wikipedia":null,"iso_a2":"TT","adm0_sr":1,"name":"San Fernando","name_alt":null,"name_local":null,"type":"City","type_en":"City","code_local":null,"code_hasc":"TT.SF","note":null,"hasc_maybe":null,"region":null,"region_cod":null,"provnum_ne":6,"gadm_level":1,"check_me":10,"datarank":8,"abbrev":null,"postal":"SF","area_sqkm":0,"sameascity":-99,"labelrank":9,"name_len":12,"mapcolor9":2,"mapcolor13":5,"fips":"TD10","fips_alt":null,"woe_id":20069924,"woe_label":null,"woe_name":"San Fernando","latitude":10.2772,"longitude":-61.4589,"sov_a3":"TTO","adm0_a3":"TTO","adm0_label":6,"admin":"Trinidad and Tobago","geonunit":"Trinidad and Tobago","gu_a3":"TTO","gn_id":3573739,"gn_name":"San Fernando","gns_id":-1360763,"gns_name":"San Fernando, City of","gn_level":1,"gn_region":null,"gn_a1_code":"TT.10","region_sub":null,"sub_code":null,"gns_level":1,"gns_lang":"eng","gns_adm1":"TD10","gns_region":null,"min_label":10.0,"max_label":11.0,"min_zoom":10.0,"wikidataid":"Q1023712","name_ar":"سان فرناندو، ترينيداد وتوباغو","name_bn":"সান ফারনান্দু","name_de":"San Fernando","name_en":"San Fernando","name_es":"San Fernando","name_fr":"San Fernando","name_el":"Σαν Φερνάντο","name_hi":"सैन फर्नान्डो","name_hu":"San Fernando","name_id":"San Fernando","name_it":"San Fernando","name_ja":"サンフェルナンド","name_ko":"샌퍼넌도","name_nl":"San Fernando","name_pl":"San Fernando","name_pt":"San Fernando","name_ru":"Сан-Фернандо","name_sv":"San Fernando","name_tr":"San Fernando","name_vi":"San Fernando","name_zh":"圣费尔南多","ne_id":1159308065,"name_he":"סן פרננדו","name_uk":"Сан-Фернандо","name_ur":"سان فرنانڈو، ٹرینیڈاڈ و ٹوباگو","name_fa":"سان فرناندو","name_zht":"聖費爾南多","FCLASS_ISO":null,"FCLASS_US":null,"FCLASS_FR":null,"FCLASS_RU":null,"FCLASS_ES":null,"FCLASS_CN":null,"FCLASS_TW":null,"FCLASS_IN":null,"FCLASS_NP":null,"FCLASS_PK":null,"FCLASS_DE":null,"FCLASS_GB":null,"FCLASS_BR":null,"FCLASS_IL":null,"FCLASS_PS":null,"FCLASS_SA":null,"FCLASS_EG":null,"FCLASS_MA":null,"FCLASS_PT":null,"FCLASS_AR":null,"FCLASS_JP":null,"FCLASS_KO":null,"FCLASS_VN":null,"FCLASS_TR":null,"FCLASS_ID":null,"FCLASS_PL":null,"FCLASS_GR":null,"FCLASS_IT":null,"FCLASS_NL":null,"FCLASS_SE":null,"FCLASS_BD":null,"FCLASS_UA":null,"FCLASS_TLC":null,"iso_id":"TT-SFO","iso_name":"San Fernando","source":"iso-3166-2-subdivisions"},"geometry":{"type":"Polygon","coordinates":[[[-61.489913,10.2493],[-61.44149,10.259064],[-61.427847,10.310017],[-61.459648,10.309705],[-61.462148,10.282213],[-61.489913,10.2493]]]}}
