{"type":"Feature","properties":{"featurecla":"Admin-1 states provinces","scalerank":5,"adm1_code":"TZA-3392","diss_me":3392,"iso_3166_2":"TZ-26","wikipedia":null,"iso_a2":"TZ","adm0_sr":1,"name":"Manyara","name_alt":null,"name_local":null,"type":"Mkoa","type_en":"Region","code_local":null,"code_hasc":"TZ.MY","note":null,"hasc_maybe":null,"region":null,"region_cod":null,"provnum_ne":20023,"gadm_level":1,"check_me":10,"datarank":5,"abbrev":null,"postal":"MY","area_sqkm":0,"sameascity":-99,"labelrank":5,"name_len":7,"mapcolor9":2,"mapcolor13":2,"fips":"TZ27","fips_alt":null,"woe_id":56025085,"woe_label":"Manyara, TZ, Tanzania","woe_name":"Manyara","latitude":-4.88783,"longitude":36.4591,"sov_a3":"TZA","adm0_a3":"TZA","adm0_label":2,"admin":"United Republic of Tanzania","geonunit":"Tanzania","gu_a3":"TZA","gn_id":435764,"gn_name":"Manyara Region","gns_id":6261203,"gns_name":"Manyara, Mkoa wa","gn_level":1,"gn_region":null,"gn_a1_code":"TZ.27","region_sub":null,"sub_code":null,"gns_level":1,"gns_lang":"swa","gns_adm1":"TZ27","gns_region":null,"min_label":6.7,"max_label":11.0,"min_zoom":6.7,"wikidataid":"Q331117","name_ar":"إقليم مانيارا","name_bn":"ম্যানিয়ারা অঞ্চল","name_de":"Manyara","name_en":"Manyara","name_es":"Manyara","name_fr":"Manyara","name_el":"Περιφέρεια Μανυάρα","name_hi":"मन्यारा प्रदेश","name_hu":"Manyara","name_id":"Wilayah Manyara","name_it":"Manyara","name_ja":"マニャラ州","name_ko":"마냐라","name_nl":"Manyara","name_pl":"Manyara","name_pt":"Manyara","name_ru":"Маньяра","name_sv":"Manyara","name_tr":"Manyara Bölgesi","name_vi":"Manyara","name_zh":"曼亚拉区","ne_id":1159315039,"name_he":"מניארה","name_uk":"Регіон Маньяра","name_ur":"مانیارا علاقہ","name_fa":"استان مانیارا","name_zht":"曼亞拉區","FCLASS_ISO":null,"FCLASS_US":null,"FCLASS_FR":null,"FCLASS_RU":null,"FCLASS_ES":null,"FCLASS_CN":null,"FCLASS_TW":null,"FCLASS_IN":null,"FCLASS_NP":null,"FCLASS_PK":null,"FCLASS_DE":null,"FCLASS_GB":null,"FCLASS_BR":null,"FCLASS_IL":null,"FCLASS_PS":null,"FCLASS_SA":null,"FCLASS_EG":null,"FCLASS_MA":null,"FCLASS_PT":null,"FCLASS_AR":null,"FCLASS_JP":null,"FCLASS_KO":null,"FCLASS_VN":null,"FCLASS_TR":null,"FCLASS_ID":null,"FCLASS_PL":null,"FCLASS_GR":null,"FCLASS_IT":null,"FCLASS_NL":null,"FCLASS_SE":null,"FCLASS_BD":null,"FCLASS_UA":null,"FCLASS_TLC":null,"iso_id":"TZ-26","iso_name":"Manyara","source":"iso-3166-2-subdivisions"},"geometry":{"type":"Polygon","coordinates":[[[37.060715,-5.86791],[37.179571,-5.787088],[37.211197,-5.73567],[37.232694,-5.61852],[37.251711,-5.564725],[37.343592,-5.446386],[37.366019,-5.379981],[37.388137,-5.28345],[37.380902,-5.228776],[37.389274,-5.205522],[37.536552,-5.027806],[37.591742,-4.978249],[37.641558,-4.978352],[37.749562,-5.008635],[37.946862,-4.962229],[38.000916,-4.997007],[38.049078,-4.998868],[38.040397,-4.961041],[37.97146,-4.805598],[37.979935,-4.691238],[38.029855,-4.63858],[38.003396,-4.607419],[37.981589,-4.58835],[37.927432,-4.56799],[37.84475,-4.56892],[37.807956,-4.591967],[37.785115,-4.595636],[37.761034,-4.586851],[37.691684,-4.533935],[37.604558,-4.485462],[37.581407,-4.48231],[37.529937,-4.440142],[37.496761,-4.383453],[37.498931,-4.166205],[37.513917,-4.129722],[37.512884,-4.101972],[37.484875,-3.999135],[37.472783,-3.978723],[37.463894,-3.928132],[37.467408,-3.817028],[37.449735,-3.772534],[37.383176,-3.657658],[37.329432,-3.599315],[37.29853,-3.526193],[37.302561,-3.507176],[37.287988,-3.494567],[37.23104,-3.483921],[37.205926,-3.450693],[37.186185,-3.452554],[37.166238,-3.458342],[37.139677,-3.485007],[37.086967,-3.484645],[37.027539,-3.504127],[36.995809,-3.525469],[36.954365,-3.572185],[36.879227,-3.573012],[36.828378,-3.634972],[36.797785,-3.642103],[36.778872,-3.608617],[36.742388,-3.591253],[36.669421,-3.594974],[36.655055,-3.629546],[36.614541,-3.654402],[36.577127,-3.665357],[36.517389,-3.743699],[36.500956,-3.784213],[36.509637,-3.898521],[36.532065,-4.02487],[36.530721,-4.082128],[36.516459,-4.089466],[36.471707,-4.081663],[36.352438,-4.10316],[36.342723,-4.123521],[36.296254,-4.129454],[36.246595,-4.10856],[36.020675,-3.781164],[35.940163,-3.644842],[35.882492,-3.664272],[35.771801,-3.79305],[35.768804,-3.823022],[35.748444,-3.828707],[35.726636,-3.759925],[35.733664,-3.687113],[35.758366,-3.615283],[35.745136,-3.567844],[35.718678,-3.564227],[35.712787,-3.633835],[35.695424,-3.669646],[35.576671,-3.701324],[35.579772,-3.73972],[35.562305,-3.766075],[35.51714,-3.759925],[35.486858,-3.728713],[35.531919,-3.665977],[35.460399,-3.644893],[35.421642,-3.623913],[35.379371,-3.624275],[35.313018,-3.691196],[35.273227,-3.705717],[35.238397,-3.729695],[35.179589,-3.73848],[35.084401,-3.796822],[35.057943,-3.838628],[34.999239,-3.856612],[34.892165,-3.909477],[34.928959,-3.985028],[35.014432,-4.077787],[35.017015,-4.107553],[34.959758,-4.183569],[34.906428,-4.280049],[34.869221,-4.381128],[34.914386,-4.431202],[34.982496,-4.47151],[35.032312,-4.528664],[35.069002,-4.609537],[35.135665,-4.641887],[35.145173,-4.681471],[35.14476,-4.723536],[35.184964,-4.751079],[35.243565,-4.761363],[35.281289,-4.831643],[35.366555,-4.861925],[35.458125,-4.870348],[35.510319,-4.861563],[35.601062,-4.686639],[35.651809,-4.60654],[35.661317,-4.568403],[35.638063,-4.517088],[35.640853,-4.482672],[35.649845,-4.477401],[35.671859,-4.485876],[35.750511,-4.431977],[35.820377,-4.362421],[35.854587,-4.379061],[35.903266,-4.350328],[35.952876,-4.351465],[35.983468,-4.300667],[36.049097,-4.255347],[36.299211,-4.184809],[36.306239,-4.481432],[36.315954,-4.537604],[36.360706,-4.67589],[36.349027,-4.879185],[36.31213,-5.119687],[36.290736,-5.189864],[36.259007,-5.239111],[36.237199,-5.2927],[36.248051,-5.355745],[36.230895,-5.411969],[36.244227,-5.457754],[36.38117,-5.585809],[36.444939,-5.681307],[36.570099,-5.748848],[36.6102,-5.797475],[36.675312,-5.911939],[36.725128,-5.955812],[36.861657,-6.002114],[36.915091,-5.984647],[37.060715,-5.86791]]]}}
