{"type":"Feature","properties":{"featurecla":"Admin-1 states provinces","scalerank":9,"adm1_code":"UGA-5620","diss_me":5620,"iso_3166_2":"UG-122","wikipedia":null,"iso_a2":"UG","adm0_sr":1,"name":"Kalungu","name_alt":null,"name_local":null,"type":"District","type_en":"District","code_local":null,"code_hasc":"UG.QA","note":null,"hasc_maybe":null,"region":"Central","region_cod":"UGA-STB","provnum_ne":20060,"gadm_level":1,"check_me":0,"datarank":5,"abbrev":null,"postal":"MA","area_sqkm":0,"sameascity":7,"labelrank":7,"name_len":7,"mapcolor9":6,"mapcolor13":4,"fips":"UGF5","fips_alt":null,"woe_id":-20070451,"woe_label":"Masaka, UG, Uganda","woe_name":"Masaka","latitude":-0.15779,"longitude":31.8386,"sov_a3":"UGA","adm0_a3":"UGA","adm0_label":2,"admin":"Uganda","geonunit":"Uganda","gu_a3":"UGA","gn_id":7910134,"gn_name":"Kalungu District","gns_id":11074811,"gns_name":"Kalungu District","gn_level":2,"gn_region":null,"gn_a1_code":"UG.F5","region_sub":null,"sub_code":"UG12","gns_level":1,"gns_lang":"fra","gns_adm1":"UG24","gns_region":null,"min_label":10.0,"max_label":11.0,"min_zoom":10.0,"wikidataid":"Q3321614","name_ar":"مقاطعة كالونغو","name_bn":"কালোঙ্গো জেলা","name_de":"Kalungu","name_en":"Kalungu","name_es":"Kalungu","name_fr":"Kalungu","name_el":"Καλουνγκού","name_hi":"कलुंगू जिला","name_hu":"Kalungu","name_id":"Kalungu","name_it":"Kalungu","name_ja":"カルング県","name_ko":"칼룽구 구","name_nl":"Kalungu","name_pl":"Kalungu","name_pt":"Kalungu","name_ru":"Калунгу","name_sv":"Kalungudistriktet","name_tr":"Kalungu","name_vi":"Quận Kalungu","name_zh":"卡伦古区","ne_id":1159317379,"name_he":"קלונגו","name_uk":"Район Калунгу","name_ur":"کالونگو ضلع","name_fa":"ناحیه کالونگو","name_zht":"卡倫古區","FCLASS_ISO":null,"FCLASS_US":null,"FCLASS_FR":null,"FCLASS_RU":null,"FCLASS_ES":null,"FCLASS_CN":null,"FCLASS_TW":null,"FCLASS_IN":null,"FCLASS_NP":null,"FCLASS_PK":null,"FCLASS_DE":null,"FCLASS_GB":null,"FCLASS_BR":null,"FCLASS_IL":null,"FCLASS_PS":null,"FCLASS_SA":null,"FCLASS_EG":null,"FCLASS_MA":null,"FCLASS_PT":null,"FCLASS_AR":null,"FCLASS_JP":null,"FCLASS_KO":null,"FCLASS_VN":null,"FCLASS_TR":null,"FCLASS_ID":null,"FCLASS_PL":null,"FCLASS_GR":null,"FCLASS_IT":null,"FCLASS_NL":null,"FCLASS_SE":null,"FCLASS_BD":null,"FCLASS_UA":null,"FCLASS_TLC":null,"iso_id":"UG-122","iso_name":"Kalungu"},"geometry":{"type":"Polygon","coordinates":[[[31.81287,0.041548],[31.756439,0.066456],[31.697115,0.0755],[31.67169,0.062477],[31.648849,0.047129],[31.672701,0.011072],[31.726782,-0.11986],[31.735321,-0.165402],[31.755246,-0.205251],[31.749553,-0.228022],[31.721089,-0.262178],[31.891871,-0.265025],[31.934566,-0.242254],[31.974514,-0.230425],[31.980095,-0.204897],[31.980508,-0.189445],[31.971413,-0.182624],[31.961388,-0.183606],[31.926661,-0.195647],[31.935446,-0.155236],[31.940304,-0.140405],[31.91984,-0.134203],[31.935653,-0.126762],[31.879946,-0.034881],[31.81287,0.041548]]]}}
