{"type":"Feature","properties":{"featurecla":"Admin-1 states provinces","scalerank":9,"adm1_code":"UGA-3089","diss_me":3089,"iso_3166_2":"UG-103","wikipedia":null,"iso_a2":"UG","adm0_sr":1,"name":"Kiboga","name_alt":null,"name_local":null,"type":"District","type_en":"District","code_local":null,"code_hasc":"UG.QO","note":null,"hasc_maybe":null,"region":"Central","region_cod":"UGA-NRB","provnum_ne":20071,"gadm_level":1,"check_me":0,"datarank":5,"abbrev":null,"postal":"KG","area_sqkm":0,"sameascity":7,"labelrank":7,"name_len":6,"mapcolor9":6,"mapcolor13":4,"fips":"UG42","fips_alt":null,"woe_id":-20070426,"woe_label":"Kiboga, UG, Uganda","woe_name":"Kiboga","latitude":0.841246,"longitude":31.9587,"sov_a3":"UGA","adm0_a3":"UGA","adm0_label":2,"admin":"Uganda","geonunit":"Uganda","gu_a3":"UGA","gn_id":443344,"gn_name":"Kiboga District","gns_id":9050426,"gns_name":"Kiboga District","gn_level":2,"gn_region":null,"gn_a1_code":"UG.42","region_sub":null,"sub_code":"UG22","gns_level":1,"gns_lang":"kir","gns_adm1":"UG42","gns_region":null,"min_label":10.0,"max_label":11.0,"min_zoom":10.0,"wikidataid":"Q892064","name_ar":"مقاطعة كيبوغا","name_bn":"কিবোগা জেলা","name_de":"Kiboga","name_en":"Kiboga","name_es":"Kiboga","name_fr":"Kiboga","name_el":"Κιμπόγκα","name_hi":"किबोगा जिला","name_hu":"Kiboga","name_id":"Kiboga","name_it":"Kiboga","name_ja":"キボガ県","name_ko":"키보가 구","name_nl":"Kiboga","name_pl":"Kiboga","name_pt":"Kiboga","name_ru":"Кибога","name_sv":"Kibogadistriktet","name_tr":"Kiboga","name_vi":"Quận Kiboga","name_zh":"基博加区","ne_id":1159313681,"name_he":"קיבוגה","name_uk":"Район Кібога","name_ur":"کیبوگا ضلع","name_fa":"ناحیه کیبوگا","name_zht":"基博加區","FCLASS_ISO":null,"FCLASS_US":null,"FCLASS_FR":null,"FCLASS_RU":null,"FCLASS_ES":null,"FCLASS_CN":null,"FCLASS_TW":null,"FCLASS_IN":null,"FCLASS_NP":null,"FCLASS_PK":null,"FCLASS_DE":null,"FCLASS_GB":null,"FCLASS_BR":null,"FCLASS_IL":null,"FCLASS_PS":null,"FCLASS_SA":null,"FCLASS_EG":null,"FCLASS_MA":null,"FCLASS_PT":null,"FCLASS_AR":null,"FCLASS_JP":null,"FCLASS_KO":null,"FCLASS_VN":null,"FCLASS_TR":null,"FCLASS_ID":null,"FCLASS_PL":null,"FCLASS_GR":null,"FCLASS_IT":null,"FCLASS_NL":null,"FCLASS_SE":null,"FCLASS_BD":null,"FCLASS_UA":null,"FCLASS_TLC":null,"iso_id":"UG-103","iso_name":"Kiboga"},"geometry":{"type":"Polygon","coordinates":[[[32.1837,0.702438],[32.210663,0.731201],[32.222049,0.759665],[32.219202,0.808053],[32.16644,0.854625],[32.10736,0.865657],[32.043243,0.909557],[32.000559,0.981697],[32.001489,1.002678],[31.999525,1.020972],[31.952989,1.103925],[31.874719,1.085728],[31.843338,1.054347],[31.83157,1.007276],[31.800189,0.979817],[31.75704,0.956282],[31.717814,0.920978],[31.674665,0.866061],[31.74135,0.81899],[31.796137,0.818658],[31.835493,0.803299],[31.91736,0.687814],[31.91922,0.674016],[31.928212,0.663474],[31.941854,0.656808],[31.95343,0.648488],[31.978648,0.642493],[32.031343,0.634425],[32.071872,0.635775],[32.139504,0.682813],[32.1837,0.702438]]]}}
