{"type":"Feature","properties":{"featurecla":"Admin-1 states provinces","scalerank":9,"adm1_code":"UGA-3125","diss_me":3125,"iso_3166_2":"UG-315","wikipedia":null,"iso_a2":"UG","adm0_sr":1,"name":"Kaabong","name_alt":null,"name_local":null,"type":"District","type_en":"District","code_local":null,"code_hasc":"UG.AB","note":null,"hasc_maybe":null,"region":"Northern","region_cod":"UGA-KRM","provnum_ne":20016,"gadm_level":1,"check_me":0,"datarank":5,"abbrev":null,"postal":"AB","area_sqkm":0,"sameascity":-99,"labelrank":9,"name_len":7,"mapcolor9":6,"mapcolor13":4,"fips":"UGD1","fips_alt":null,"woe_id":20070429,"woe_label":"Kotido, UG, Uganda","woe_name":"Kaabong","latitude":3.70606,"longitude":34.0364,"sov_a3":"UGA","adm0_a3":"UGA","adm0_label":2,"admin":"Uganda","geonunit":"Uganda","gu_a3":"UGA","gn_id":7056286,"gn_name":"Kaabong District","gns_id":10540248,"gns_name":"Kaabong District","gn_level":2,"gn_region":null,"gn_a1_code":"UG.D1","region_sub":null,"sub_code":"UG08","gns_level":1,"gns_lang":"mkd","gns_adm1":"UG51","gns_region":null,"min_label":10.0,"max_label":11.0,"min_zoom":10.0,"wikidataid":"Q1229881","name_ar":"مقاطعة كابونغ","name_bn":"কাবং জেলা","name_de":"Kaabong","name_en":"Kaabong","name_es":"Kaabong","name_fr":"Kaabong","name_el":"Κααμπόνγκ","name_hi":"काबोंग जिला","name_hu":"Kaabong","name_id":"Kaabong","name_it":"Kaabong","name_ja":"カボング県","name_ko":"카봉 구","name_nl":"Kaabong","name_pl":"Kaabong","name_pt":"Kaabong","name_ru":"Каабонг","name_sv":"Kaabongdistriktet","name_tr":"Kaabong Distrisct","name_vi":"Quận Kaabong","name_zh":"卡邦区","ne_id":1159313755,"name_he":"קאבונג","name_uk":"Район Каабонг","name_ur":"کآبونگ ضلع","name_fa":"ناحیه کابونگ","name_zht":"卡邦區","FCLASS_ISO":null,"FCLASS_US":null,"FCLASS_FR":null,"FCLASS_RU":null,"FCLASS_ES":null,"FCLASS_CN":null,"FCLASS_TW":null,"FCLASS_IN":null,"FCLASS_NP":null,"FCLASS_PK":null,"FCLASS_DE":null,"FCLASS_GB":null,"FCLASS_BR":null,"FCLASS_IL":null,"FCLASS_PS":null,"FCLASS_SA":null,"FCLASS_EG":null,"FCLASS_MA":null,"FCLASS_PT":null,"FCLASS_AR":null,"FCLASS_JP":null,"FCLASS_KO":null,"FCLASS_VN":null,"FCLASS_TR":null,"FCLASS_ID":null,"FCLASS_PL":null,"FCLASS_GR":null,"FCLASS_IT":null,"FCLASS_NL":null,"FCLASS_SE":null,"FCLASS_BD":null,"FCLASS_UA":null,"FCLASS_TLC":null,"iso_id":"UG-315","iso_name":"Kaabong"},"geometry":{"type":"Polygon","coordinates":[[[33.527716,3.771431],[33.564701,3.655359],[33.629917,3.563168],[33.655445,3.512344],[33.674565,3.457515],[33.715286,3.409611],[33.743398,3.353129],[33.795074,3.315405],[33.845821,3.290187],[33.874966,3.302693],[33.903492,3.296517],[33.91331,3.273651],[33.906179,3.243678],[34.036197,3.239363],[34.157636,3.197066],[34.277319,3.110379],[34.328479,3.082913],[34.386253,3.081673],[34.42563,3.076169],[34.463354,3.084928],[34.485368,3.087099],[34.508106,3.078727],[34.526813,3.085109],[34.545556,3.097501],[34.53384,3.118467],[34.512859,3.132368],[34.46573,3.145856],[34.444853,3.159136],[34.434001,3.182029],[34.424079,3.304812],[34.41116,3.344707],[34.386562,3.376384],[34.383978,3.388347],[34.386976,3.399664],[34.397001,3.424159],[34.398551,3.433642],[34.394417,3.444623],[34.382118,3.466043],[34.381291,3.476869],[34.386872,3.485628],[34.415501,3.497023],[34.434518,3.52622],[34.443923,3.566295],[34.446403,3.646704],[34.439686,3.667736],[34.425009,3.677193],[34.406303,3.682929],[34.387492,3.692747],[34.35504,3.727371],[34.337056,3.734579],[34.309874,3.726699],[34.299436,3.716932],[34.295095,3.707346],[34.290444,3.70316],[34.278868,3.709723],[34.263779,3.750056],[34.241558,3.778737],[34.240938,3.78362],[34.230396,3.782742],[34.210552,3.777135],[34.190915,3.775843],[34.173655,3.771399],[34.16518,3.77083],[34.152468,3.775636],[34.159082,3.783362],[34.17903,3.7961],[34.166524,3.811319],[34.150814,3.81721],[34.148954,3.822688],[34.196703,3.847389],[34.207555,3.860877],[34.204971,3.874545],[34.182854,3.886095],[34.163423,3.886198],[34.123736,3.872039],[34.108026,3.868938],[34.084772,3.877336],[34.086219,3.894673],[34.098931,3.917721],[34.109576,3.943352],[34.107096,3.959501],[34.09552,3.970999],[34.080844,3.980792],[34.068959,3.991876],[34.061104,4.007767],[34.061517,4.017921],[34.069786,4.041357],[34.072679,4.064663],[34.072369,4.076419],[34.069269,4.08802],[34.060897,4.09926],[34.049735,4.109466],[34.04095,4.120421],[34.03971,4.134038],[34.041054,4.164812],[34.028548,4.188014],[34.006017,4.205713],[33.977078,4.219692],[33.532609,3.774293],[33.527716,3.771431]]]}}
