{"type":"Feature","properties":{"featurecla":"Admin-1 states provinces","scalerank":9,"adm1_code":"UGA-3375","diss_me":3375,"iso_3166_2":"UG-404","wikipedia":null,"iso_a2":"UG","adm0_sr":1,"name":"Kabale","name_alt":null,"name_local":null,"type":"District","type_en":"District","code_local":null,"code_hasc":"UG.KA","note":null,"hasc_maybe":null,"region":"Western","region_cod":null,"provnum_ne":20030,"gadm_level":1,"check_me":0,"datarank":5,"abbrev":null,"postal":"KA","area_sqkm":0,"sameascity":7,"labelrank":7,"name_len":6,"mapcolor9":6,"mapcolor13":4,"fips":"UG34","fips_alt":null,"woe_id":20070418,"woe_label":"Kabale, UG, Uganda","woe_name":"Kabale","latitude":-1.23122,"longitude":30.0088,"sov_a3":"UGA","adm0_a3":"UGA","adm0_label":2,"admin":"Uganda","geonunit":"Uganda","gu_a3":"UGA","gn_id":443336,"gn_name":"Kabale District","gns_id":9050378,"gns_name":"Kabale District","gn_level":2,"gn_region":null,"gn_a1_code":"UG.34","region_sub":null,"sub_code":null,"gns_level":1,"gns_lang":"kir","gns_adm1":"UG34","gns_region":null,"min_label":10.0,"max_label":11.0,"min_zoom":10.0,"wikidataid":"Q3526470","name_ar":"مقاطعة كابالي","name_bn":"কাবালে জেলা","name_de":"Kabale","name_en":"Kabale","name_es":"Kabale","name_fr":"Kabale","name_el":"Καμπάλε","name_hi":"कबाले जिला","name_hu":"Kabale","name_id":"Kabale","name_it":"Kabale","name_ja":"カバレ県","name_ko":"카발레 구","name_nl":"Kabale","name_pl":"Kabale","name_pt":"Kabale","name_ru":"Кабале","name_sv":"Kabale dirstriktet","name_tr":"Kabale","name_vi":"Quận Kabale","name_zh":"卡巴莱区","ne_id":1159315087,"name_he":"קבאלה","name_uk":"Район Кабале","name_ur":"کابالے ضلع","name_fa":"ناحیه کاباله","name_zht":"卡巴萊區","FCLASS_ISO":null,"FCLASS_US":null,"FCLASS_FR":null,"FCLASS_RU":null,"FCLASS_ES":null,"FCLASS_CN":null,"FCLASS_TW":null,"FCLASS_IN":null,"FCLASS_NP":null,"FCLASS_PK":null,"FCLASS_DE":null,"FCLASS_GB":null,"FCLASS_BR":null,"FCLASS_IL":null,"FCLASS_PS":null,"FCLASS_SA":null,"FCLASS_EG":null,"FCLASS_MA":null,"FCLASS_PT":null,"FCLASS_AR":null,"FCLASS_JP":null,"FCLASS_KO":null,"FCLASS_VN":null,"FCLASS_TR":null,"FCLASS_ID":null,"FCLASS_PL":null,"FCLASS_GR":null,"FCLASS_IT":null,"FCLASS_NL":null,"FCLASS_SE":null,"FCLASS_BD":null,"FCLASS_UA":null,"FCLASS_TLC":null,"iso_id":"UG-404","iso_name":"Kabale"},"geometry":{"type":"Polygon","coordinates":[[[30.095506,-1.37113],[30.136331,-1.355213],[30.147183,-1.345085],[30.15235,-1.329892],[30.158448,-1.291135],[30.165579,-1.277492],[30.173434,-1.272841],[30.19674,-1.268707],[30.212192,-1.259509],[30.256685,-1.217237],[30.269759,-1.200494],[30.280508,-1.182407],[30.284642,-1.161427],[30.287536,-1.155432],[30.29095,-1.152621],[30.264747,-1.151454],[30.234362,-1.160807],[30.209557,-1.184889],[30.177414,-1.193519],[30.179275,-1.164321],[30.159327,-1.153728],[30.122844,-1.151041],[30.088737,-1.140188],[30.076232,-1.115694],[30.068377,-1.086703],[29.931744,-1.049961],[29.900118,-1.044122],[29.882548,-1.046758],[29.869733,-1.063966],[29.847202,-1.050168],[29.826014,-1.028257],[29.771858,-1.025002],[29.766897,-1.054509],[29.756045,-1.062829],[29.754598,-1.075645],[29.742815,-1.093266],[29.727416,-1.107839],[29.730413,-1.118794],[29.76607,-1.159257],[29.796869,-1.183183],[29.770307,-1.203285],[29.825024,-1.323881],[29.836091,-1.329478],[29.864203,-1.370303],[29.868647,-1.391283],[29.871024,-1.432418],[29.880739,-1.453605],[29.897896,-1.469625],[29.917429,-1.475206],[29.938462,-1.472932],[29.960424,-1.464767],[30.028327,-1.427147],[30.038662,-1.424977],[30.047757,-1.403169],[30.06078,-1.389733],[30.095506,-1.37113]]]}}
