{"type":"Feature","properties":{"iso_id":"UG-E","iso_name":"Eastern Region","name":"Eastern Region","source":"osm-overpass-ug"},"geometry":{"type":"Polygon","coordinates":[[[32.8195278,1.4777323],[32.8323421,1.3752826],[32.8413318,1.3648337],[32.8356157,1.354049],[32.8479658,1.3394747],[32.8420497,1.3226284],[32.8582023,1.2977133],[32.8805429,1.2962579],[32.8875216,1.2785618],[32.8986993,1.2823802],[32.9432759,1.1994272],[32.9541934,1.1403939],[32.9338727,1.0872589],[32.9317509,1.0082942],[32.9412501,0.9966505],[32.9462798,0.9456873],[32.9609662,0.9379792],[32.9661561,0.9147549],[33.0007937,0.8799139],[33.0084445,0.8485831],[33.0272613,0.8326598],[33.0477216,0.7675462],[33.0508456,0.7403138],[33.0449843,0.7349036],[33.0567035,0.6949778],[33.0425488,0.6504833],[33.0537515,0.6266436],[33.0499345,0.5980451],[33.0714295,0.5835149],[33.0819359,0.5493431],[33.159013,0.483215],[33.1817137,0.4539466],[33.1991876,0.4128263],[33.2718198,0.3972811],[33.28963,0.3817464],[33.2887007,0.3553468],[33.2977264,0.3394325],[33.3436025,0.3345274],[33.3873562,0.3109761],[33.3957802,0.2811385],[33.4213102,0.2531912],[33.4168567,0.2326545],[33.4254849,0.2127417],[33.520435,0.1177459],[33.5193889,-1.0],[33.9333611,-1.0],[33.9290116,-0.4576707],[33.9842508,-0.1337435],[33.9105966,0.1041388],[34.022724,0.2530147],[34.0239175,0.2669251],[34.0426386,0.275791],[34.0394099,0.2846337],[34.0610434,0.3106406],[34.0567529,0.3212501],[34.0725658,0.322747],[34.0996474,0.3471083],[34.1086026,0.3808924],[34.0899991,0.4269192],[34.088839,0.4540603],[34.1194773,0.4833773],[34.1229992,0.5172252],[34.1160567,0.523088],[34.1382271,0.5828732],[34.1539379,0.5845464],[34.1752911,0.605303],[34.1864811,0.603913],[34.2003253,0.6259704],[34.2361553,0.6255604],[34.2413034,0.6329048],[34.2517934,0.6286748],[34.2777595,0.64056],[34.278717,0.6793986],[34.3142191,0.6980175],[34.3076691,0.7215775],[34.3148396,0.7616033],[34.3615778,0.7741339],[34.3770899,0.7939114],[34.3841345,0.7900795],[34.3856365,0.8010057],[34.4142091,0.8077417],[34.4064612,0.8259048],[34.4147692,0.8397685],[34.4472583,0.8611603],[34.4527373,0.8973803],[34.4801702,0.9357753],[34.4989894,1.0617695],[34.5223036,1.1023207],[34.5749838,1.0986178],[34.5789587,1.1496987],[34.6488193,1.1790955],[34.6695659,1.2080672],[34.7951834,1.2231243],[34.8313678,1.2707252],[34.8290732,1.3097457],[34.7834701,1.3685674],[34.7780851,1.3932315],[34.7189677,1.4423116],[34.7202549,1.4668539],[34.7261814,1.4696888],[34.7116566,1.4783725],[34.7117733,1.4986201],[34.7021493,1.5011417],[34.6991964,1.5269232],[34.6584943,1.5263945],[34.6546264,1.536707],[34.6299695,1.5487993],[34.6170733,1.5793586],[34.606619,1.5770244],[34.5849126,1.5884996],[34.5679191,1.5831587],[34.5445374,1.6009115],[34.4986303,1.5976357],[34.4943333,1.6046299],[34.4855276,1.5889447],[34.4710661,1.5905921],[34.4531443,1.5734659],[34.4358763,1.573279],[34.418406,1.5555548],[34.39316,1.567384],[34.3616975,1.5610825],[34.3468117,1.5705259],[34.3273221,1.5536879],[34.2985511,1.5575229],[34.2765592,1.549215],[34.2593942,1.5644029],[34.2288256,1.5642674],[34.2282595,1.6428068],[34.2214706,1.6429105],[34.2242756,1.9540981],[34.21028,2.1218962],[33.732825,2.4189388],[33.6769047,2.3733283],[33.672036,2.3575806],[33.6311186,2.3604224],[33.6108986,2.3364398],[33.5818647,2.3296491],[33.5660079,2.3371372],[33.5597801,2.3548532],[33.535264,2.3594949],[33.545557,2.2833353],[33.5001402,2.2496344],[33.4904801,2.2322587],[33.4505193,2.2469637],[33.4404576,2.2437913],[33.441648,2.232039],[33.4740717,2.210054],[33.4779301,2.1989251],[33.454394,2.1303299],[33.4367891,2.1137792],[33.4151885,2.1455942],[33.4010186,2.1259299],[33.3675666,2.1104769],[33.3467997,2.0662418],[33.3627221,2.044833],[33.3627262,2.027073],[33.3477791,2.0310393],[33.3260239,2.0550188],[33.2936654,2.0455166],[33.2821977,2.0280397],[33.270713,1.9598537],[33.2480116,1.9540309],[33.2413942,1.9265829],[33.2264792,1.9223599],[33.2208854,1.9102268],[33.2011943,1.9081998],[33.1644204,1.8767602],[33.1471032,1.8745995],[33.141035,1.8597445],[33.1131653,1.8565348],[33.1144609,1.8254214],[33.1008922,1.7943269],[33.1032398,1.7799779],[33.0832087,1.7507926],[33.083081,1.7345981],[33.0460603,1.710778],[32.9992007,1.7150036],[32.9957129,1.6742006],[32.9444869,1.6447058],[32.9654331,1.6182251],[32.9737676,1.5602595],[32.9729423,1.4799109],[32.893836,1.4839526],[32.8195278,1.4777323]]]}}
