{"type":"Feature","properties":{"featurecla":"Admin-1 states provinces","scalerank":10,"adm1_code":"UMI-5176","diss_me":5176,"iso_3166_2":"UM-71","wikipedia":null,"iso_a2":"UM","adm0_sr":8,"name":"Midway Atoll","name_alt":null,"name_local":null,"type":null,"type_en":null,"code_local":null,"code_hasc":"UM.MQ","note":null,"hasc_maybe":null,"region":null,"region_cod":null,"provnum_ne":0,"gadm_level":0,"check_me":0,"datarank":11,"abbrev":null,"postal":null,"area_sqkm":0,"sameascity":-99,"labelrank":20,"name_len":14,"mapcolor9":1,"mapcolor13":1,"fips":"MQ300","fips_alt":null,"woe_id":23424895,"woe_label":null,"woe_name":"Midway Islands","latitude":28.206,"longitude":-177.376,"sov_a3":"US1","adm0_a3":"UMI","adm0_label":6,"admin":"United States Minor Outlying Islands","geonunit":"Midway Islands","gu_a3":"MQI","gn_id":5854943,"gn_name":"Midway Islands","gns_id":0,"gns_name":null,"gn_level":1,"gn_region":null,"gn_a1_code":"UM.300","region_sub":null,"sub_code":null,"gns_level":0,"gns_lang":null,"gns_adm1":null,"gns_region":null,"min_label":11.0,"max_label":11.0,"min_zoom":11.0,"wikidataid":"Q47863","name_ar":"جزر الميدواي","name_bn":"মিডওয়ে","name_de":"Midwayinseln","name_en":"Midway Atoll","name_es":"Islas Midway","name_fr":"îles Midway","name_el":"Ατόλλη Μίντγουαιη","name_hi":"मिडवे","name_hu":"Midway-atoll","name_id":"Atol Midway","name_it":"Atollo di Midway","name_ja":"ミッドウェー島","name_ko":"미드웨이 환초","name_nl":"Midway","name_pl":"Midway","name_pt":"Atol Midway","name_ru":"Мидуэй","name_sv":"Midwayöarna","name_tr":"Midway Adası","name_vi":"Đảo san hô vòng Midway","name_zh":"中途岛","ne_id":1159316567,"name_he":"אטול מידוויי","name_uk":"Мідвей","name_ur":"جزیرہ مڈوے","name_fa":"جزیره مرجانی میدوی","name_zht":"中途島","FCLASS_ISO":null,"FCLASS_US":null,"FCLASS_FR":null,"FCLASS_RU":null,"FCLASS_ES":null,"FCLASS_CN":null,"FCLASS_TW":null,"FCLASS_IN":null,"FCLASS_NP":null,"FCLASS_PK":null,"FCLASS_DE":null,"FCLASS_GB":null,"FCLASS_BR":null,"FCLASS_IL":null,"FCLASS_PS":null,"FCLASS_SA":null,"FCLASS_EG":null,"FCLASS_MA":null,"FCLASS_PT":null,"FCLASS_AR":null,"FCLASS_JP":null,"FCLASS_KO":null,"FCLASS_VN":null,"FCLASS_TR":null,"FCLASS_ID":null,"FCLASS_PL":null,"FCLASS_GR":null,"FCLASS_IT":null,"FCLASS_NL":null,"FCLASS_SE":null,"FCLASS_BD":null,"FCLASS_UA":null,"FCLASS_TLC":null,"iso_id":"UM-71","iso_name":"Midway Atoll"},"geometry":{"type":"MultiPolygon","coordinates":[[[[-177.328928,28.211086],[-177.335276,28.204291],[-177.321156,28.205878],[-177.322865,28.207668],[-177.328928,28.211086]]],[[[-177.357655,28.214423],[-177.368642,28.215318],[-177.378,28.212836],[-177.385243,28.206977],[-177.389597,28.197659],[-177.380727,28.19892],[-177.372182,28.202338],[-177.357655,28.214423]]]]}}
