{"type":"Feature","properties":{"featurecla":"Admin-1 states provinces","scalerank":5,"adm1_code":"VEN-43","diss_me":43,"iso_3166_2":"VE-A","wikipedia":null,"iso_a2":"VE","adm0_sr":1,"name":"Capital","name_alt":null,"name_local":null,"type":"Distrito Capital","type_en":"Capital District","code_local":null,"code_hasc":"VE.DF","note":null,"hasc_maybe":null,"region":null,"region_cod":null,"provnum_ne":21,"gadm_level":1,"check_me":12,"datarank":6,"abbrev":null,"postal":"DF","area_sqkm":0,"sameascity":9,"labelrank":9,"name_len":16,"mapcolor9":1,"mapcolor13":4,"fips":"VE25","fips_alt":"VE10|VE25","woe_id":2347686,"woe_label":"Distrito Federal, VE, Venezuela","woe_name":"Distrito Capital","latitude":10.4857,"longitude":-66.964,"sov_a3":"VEN","adm0_a3":"VEN","adm0_label":3,"admin":"Venezuela","geonunit":"Venezuela","gu_a3":"VEN","gn_id":3640847,"gn_name":"Distrito Capital","gns_id":-944462,"gns_name":"Capital, Distrito","gn_level":1,"gn_region":null,"gn_a1_code":"VE.25","region_sub":null,"sub_code":null,"gns_level":1,"gns_lang":"ara","gns_adm1":"VE25","gns_region":null,"min_label":6.7,"max_label":11.0,"min_zoom":6.7,"wikidataid":"Q492791","name_ar":"مقاطعة العاصمة","name_bn":"কেপিটাল জেলা","name_de":"Capital","name_en":"Capital","name_es":"Capital","name_fr":"la capitale","name_el":"Κάπιταλ Ντίστρικτ","name_hi":"कैपिटल जिला","name_hu":"Distrito Capital","name_id":"Capital","name_it":"Capitale","name_ja":"首都地区","name_ko":"수도 지구","name_nl":"Hoofdstedelijk","name_pl":"Stołeczny","name_pt":"Capital","name_ru":"Столичный округ","name_sv":"Huvudstadsdistrikt","name_tr":"Başkent Bölgesi","name_vi":"Quận Capital","name_zh":"联邦区","ne_id":1159308119,"name_he":"מחוז הבירה","name_uk":"Столичний район","name_ur":"دارالحکومت ضلع","name_fa":"بخش کاپیتال","name_zht":"聯邦區","FCLASS_ISO":null,"FCLASS_US":null,"FCLASS_FR":null,"FCLASS_RU":null,"FCLASS_ES":null,"FCLASS_CN":null,"FCLASS_TW":null,"FCLASS_IN":null,"FCLASS_NP":null,"FCLASS_PK":null,"FCLASS_DE":null,"FCLASS_GB":null,"FCLASS_BR":null,"FCLASS_IL":null,"FCLASS_PS":null,"FCLASS_SA":null,"FCLASS_EG":null,"FCLASS_MA":null,"FCLASS_PT":null,"FCLASS_AR":null,"FCLASS_JP":null,"FCLASS_KO":null,"FCLASS_VN":null,"FCLASS_TR":null,"FCLASS_ID":null,"FCLASS_PL":null,"FCLASS_GR":null,"FCLASS_IT":null,"FCLASS_NL":null,"FCLASS_SE":null,"FCLASS_BD":null,"FCLASS_UA":null,"FCLASS_TLC":null,"iso_id":"VE-A","iso_name":"Capital","source":"iso-3166-2-subdivisions"},"geometry":{"type":"Polygon","coordinates":[[[-67.005362,10.575195],[-67.021743,10.553697],[-67.015801,10.544318],[-67.05324,10.525456],[-67.053343,10.478766],[-67.081042,10.47347],[-67.094555,10.461377],[-67.126931,10.458819],[-67.153182,10.440733],[-67.151115,10.430501],[-67.074531,10.401097],[-67.029727,10.393035],[-66.943686,10.421431],[-66.897436,10.416212],[-66.881028,10.481402],[-66.85364,10.514604],[-66.873768,10.547031],[-66.912499,10.556979],[-66.951489,10.549511],[-67.005362,10.575195]]]}}
