{"type":"Feature","properties":{"featurecla":"Admin-1 states provinces","scalerank":7,"adm1_code":"VNM-508","diss_me":508,"iso_3166_2":"VN-52","wikipedia":null,"iso_a2":"VN","adm0_sr":5,"name":"Sóc Trăng","name_alt":"Soc Trang","name_local":null,"type":"Tỉnh","type_en":"Province","code_local":null,"code_hasc":"VN.ST","note":null,"hasc_maybe":null,"region":"đồng bằng sông Cửu Long","region_cod":"VNM-STR","provnum_ne":10,"gadm_level":2,"check_me":20,"datarank":5,"abbrev":null,"postal":"ST","area_sqkm":0,"sameascity":-99,"labelrank":7,"name_len":9,"mapcolor9":5,"mapcolor13":4,"fips":"VM65","fips_alt":null,"woe_id":2347748,"woe_label":"Soc Trang, VN, Vietnam","woe_name":"Sóc Trăng","latitude":9.5614,"longitude":105.9,"sov_a3":"VNM","adm0_a3":"VNM","adm0_label":2,"admin":"Vietnam","geonunit":"Vietnam","gu_a3":"VNM","gn_id":1559972,"gn_name":"Tinh Soc Trang","gns_id":-3736199,"gns_name":"Soc Trang, Tinh","gn_level":1,"gn_region":null,"gn_a1_code":"VN.65","region_sub":null,"sub_code":"VM73","gns_level":1,"gns_lang":"eng","gns_adm1":"VM65","gns_region":null,"min_label":8.7,"max_label":11.0,"min_zoom":8.0,"wikidataid":"Q33272","name_ar":"محافظة سوك تشانغ","name_bn":"সখ তাং","name_de":"Sóc Trăng","name_en":"Sóc Trăng","name_es":"Sóc Trăng","name_fr":"Sóc Trăng","name_el":"Σοκ Τρανγκ","name_hi":"सोक ट्रांग","name_hu":"Sóc Trăng","name_id":"Soc Trang","name_it":"Soc Trang","name_ja":"ソクチャン省","name_ko":"속짱성","name_nl":"Sóc Trăng","name_pl":"Prowincja Sóc Trăng","name_pt":"Soc Trang","name_ru":"Шокчанг","name_sv":"Soc Trang","name_tr":"Soc Trang","name_vi":"Sóc Trăng","name_zh":"朔庄省","ne_id":1159308017,"name_he":"שאוקפ צ'אנג","name_uk":"Шокчанг","name_ur":"سوک ترانگ صوبہ","name_fa":"استان سوک ترانگ","name_zht":"朔莊省","FCLASS_ISO":null,"FCLASS_US":null,"FCLASS_FR":null,"FCLASS_RU":null,"FCLASS_ES":null,"FCLASS_CN":null,"FCLASS_TW":null,"FCLASS_IN":null,"FCLASS_NP":null,"FCLASS_PK":null,"FCLASS_DE":null,"FCLASS_GB":null,"FCLASS_BR":null,"FCLASS_IL":null,"FCLASS_PS":null,"FCLASS_SA":null,"FCLASS_EG":null,"FCLASS_MA":null,"FCLASS_PT":null,"FCLASS_AR":null,"FCLASS_JP":null,"FCLASS_KO":null,"FCLASS_VN":null,"FCLASS_TR":null,"FCLASS_ID":null,"FCLASS_PL":null,"FCLASS_GR":null,"FCLASS_IT":null,"FCLASS_NL":null,"FCLASS_SE":null,"FCLASS_BD":null,"FCLASS_UA":null,"FCLASS_TLC":null,"iso_id":"VN-52","iso_name":"Sóc Trăng","source":"iso-3166-2-subdivisions"},"geometry":{"type":"MultiPolygon","coordinates":[[[[106.155447,9.678941],[106.093435,9.760891],[106.087169,9.754625],[106.117686,9.710924],[106.125987,9.672431],[106.196625,9.571682],[106.207042,9.562893],[106.226573,9.565172],[106.189626,9.603827],[106.197032,9.610053],[106.249197,9.560126],[106.244151,9.53498],[106.27003,9.534491],[106.284434,9.543687],[106.292003,9.586412],[106.223399,9.608466],[106.155447,9.678941]]],[[[105.902105,9.916699],[105.832176,9.754805],[105.826285,9.723696],[105.792954,9.712353],[105.674098,9.640911],[105.569298,9.610421],[105.577566,9.459268],[105.599736,9.418004],[105.635289,9.411028],[105.692391,9.383949],[105.736006,9.379893],[105.785926,9.394104],[105.823029,9.378033],[105.868256,9.254706],[106.01824,9.315253],[106.18393,9.362209],[106.19337,9.36933],[106.194591,9.398993],[106.1692,9.418199],[106.210704,9.470038],[106.197032,9.541164],[106.092947,9.692939],[106.073497,9.747952],[105.902105,9.916699]]],[[[106.662608,8.739814],[106.655772,8.753485],[106.668712,8.753485],[106.668224,8.759711],[106.658376,8.766669],[106.597992,8.732327],[106.570974,8.705959],[106.559581,8.68183],[106.57838,8.655463],[106.603038,8.655707],[106.602306,8.694729],[106.632579,8.703274],[106.655772,8.698879],[106.639171,8.737454],[106.662608,8.739814]]]]}}
