{"type":"Feature","properties":{"featurecla":"Admin-1 states provinces","scalerank":6,"adm1_code":"YEM-154","diss_me":154,"iso_3166_2":"YE-HJ","wikipedia":null,"iso_a2":"YE","adm0_sr":1,"name":"Hajjah","name_alt":"Hajja","name_local":"حجه","type":"Muhafazah","type_en":"Governorate","code_local":null,"code_hasc":"YE.HJ","note":null,"hasc_maybe":null,"region":null,"region_cod":null,"provnum_ne":16,"gadm_level":1,"check_me":10,"datarank":6,"abbrev":null,"postal":"HJ","area_sqkm":0,"sameascity":7,"labelrank":7,"name_len":6,"mapcolor9":3,"mapcolor13":11,"fips":"YM22","fips_alt":"YM12","woe_id":20070048,"woe_label":"Hajjah, YE, Yemen","woe_name":"Hajjah","latitude":16.1813,"longitude":43.1804,"sov_a3":"YEM","adm0_a3":"YEM","adm0_label":2,"admin":"Yemen","geonunit":"Yemen","gu_a3":"YEM","gn_id":6201195,"gn_name":"Muhafazat Hajjah","gns_id":9236594,"gns_name":"Hajjah, Muhafazat","gn_level":1,"gn_region":null,"gn_a1_code":"YE.22","region_sub":null,"sub_code":null,"gns_level":1,"gns_lang":"ara","gns_adm1":"YM22","gns_region":null,"min_label":8.7,"max_label":11.0,"min_zoom":8.7,"wikidataid":"Q328158","name_ar":"محافظة حجة","name_bn":"হাজ্জা গভর্নোরেট","name_de":"Gouvernement Haddscha","name_en":"Hajjah","name_es":"Hajjah","name_fr":"Hajjah","name_el":"Χάτζα","name_hi":"हज्जाह प्रान्त","name_hu":"Haddzsa","name_id":"Hajjah","name_it":"Hajja","name_ja":"ハッジャ県","name_ko":"하자","name_nl":"Hajjah","name_pl":"Hadżdża","name_pt":"Hajjah","name_ru":"Хадджа","name_sv":"Hajjah","name_tr":"Hacca ili","name_vi":"Tỉnh Hajjah","name_zh":"哈杰省","ne_id":1159308145,"name_he":"חג'ה","name_uk":"Хадджа","name_ur":"محافظہ حجہ","name_fa":"استان حجه","name_zht":"哈傑省","FCLASS_ISO":null,"FCLASS_US":null,"FCLASS_FR":null,"FCLASS_RU":null,"FCLASS_ES":null,"FCLASS_CN":null,"FCLASS_TW":null,"FCLASS_IN":null,"FCLASS_NP":null,"FCLASS_PK":null,"FCLASS_DE":null,"FCLASS_GB":null,"FCLASS_BR":null,"FCLASS_IL":null,"FCLASS_PS":null,"FCLASS_SA":null,"FCLASS_EG":null,"FCLASS_MA":null,"FCLASS_PT":null,"FCLASS_AR":null,"FCLASS_JP":null,"FCLASS_KO":null,"FCLASS_VN":null,"FCLASS_TR":null,"FCLASS_ID":null,"FCLASS_PL":null,"FCLASS_GR":null,"FCLASS_IT":null,"FCLASS_NL":null,"FCLASS_SE":null,"FCLASS_BD":null,"FCLASS_UA":null,"FCLASS_TLC":null,"iso_id":"YE-HJ","iso_name":"Hajjah"},"geometry":{"type":"Polygon","coordinates":[[[43.162926,16.661516],[43.122773,16.673299],[43.097762,16.677794],[43.084946,16.672575],[43.079985,16.658829],[43.078641,16.637694],[43.074611,16.61878],[43.048772,16.553461],[43.036267,16.536304],[43.014666,16.520698],[42.970948,16.49579],[42.956272,16.490726],[42.917411,16.483801],[42.906766,16.479357],[42.902942,16.466283],[42.906766,16.434915],[42.898187,16.418896],[42.872452,16.401636],[42.837312,16.387218],[42.78948,16.370958],[42.798839,16.358466],[42.802989,16.347357],[42.802582,16.339423],[42.801768,16.340155],[42.808849,16.312649],[42.812755,16.238267],[42.840099,16.097805],[42.843272,16.052191],[42.834556,15.914064],[42.9972,15.820172],[43.06469,15.828802],[43.107219,15.826192],[43.129078,15.836734],[43.143961,15.846992],[43.182615,15.85588],[43.285348,15.863554],[43.311393,15.84446],[43.323072,15.816968],[43.321676,15.785264],[43.31532,15.759917],[43.308602,15.743174],[43.300541,15.729324],[43.300386,15.71085],[43.312013,15.678346],[43.305037,15.620236],[43.300696,15.610236],[43.299301,15.596852],[43.313873,15.509674],[43.370097,15.528923],[43.54528,15.545563],[43.566364,15.543031],[43.587603,15.544659],[43.678864,15.534427],[43.705271,15.526288],[43.725269,15.563753],[43.726975,15.577215],[43.713177,15.601064],[43.713487,15.614344],[43.716588,15.628142],[43.721859,15.638245],[43.73023,15.647391],[43.743563,15.654988],[43.759686,15.656073],[43.778341,15.652042],[43.793534,15.65504],[43.804076,15.667261],[43.811207,15.694184],[43.816685,15.730513],[43.809502,15.739686],[43.792139,15.754388],[43.790433,15.773611],[43.784542,15.797977],[43.787488,15.834021],[43.791674,15.853374],[43.785162,15.892958],[43.775241,15.930733],[43.750229,15.970085],[43.737827,15.980317],[43.727595,15.985562],[43.718293,15.981557],[43.679949,15.938795],[43.668167,15.936624],[43.65654,15.94758],[43.665531,15.968586],[43.689096,15.986673],[43.698398,15.99768],[43.699018,16.011891],[43.65995,16.089173],[43.65871,16.111601],[43.654834,16.136483],[43.65623,16.166094],[43.644861,16.183586],[43.61463,16.203482],[43.608584,16.214153],[43.609359,16.229139],[43.605949,16.243453],[43.605793,16.261101],[43.607344,16.282934],[43.610444,16.299264],[43.59551,16.436103],[43.599902,16.608521],[43.488643,16.617849],[43.412885,16.613302],[43.392266,16.616402],[43.374231,16.625833],[43.20618,16.672316],[43.185679,16.684847],[43.179979,16.664617],[43.162926,16.661516]]]}}
