{"type":"Feature","properties":{"featurecla":"Admin-1 states provinces","scalerank":4,"adm1_code":"ZMB-521","diss_me":521,"iso_3166_2":"ZM-06","wikipedia":null,"iso_a2":"ZM","adm0_sr":1,"name":"Northwestern","name_alt":null,"name_local":null,"type":"Province","type_en":"Province","code_local":null,"code_hasc":"ZM.NW","note":null,"hasc_maybe":null,"region":null,"region_cod":null,"provnum_ne":7,"gadm_level":1,"check_me":0,"datarank":6,"abbrev":null,"postal":"NW","area_sqkm":0,"sameascity":-99,"labelrank":4,"name_len":13,"mapcolor9":5,"mapcolor13":13,"fips":"ZA06","fips_alt":null,"woe_id":2347801,"woe_label":"North-Western, ZM, Zambia","woe_name":"North-Western","latitude":-12.7303,"longitude":24.7847,"sov_a3":"ZMB","adm0_a3":"ZMB","adm0_label":2,"admin":"Zambia","geonunit":"Zambia","gu_a3":"ZMB","gn_id":900594,"gn_name":"North-Western Province","gns_id":-2301348,"gns_name":"North-Western","gn_level":1,"gn_region":null,"gn_a1_code":"ZM.06","region_sub":null,"sub_code":null,"gns_level":1,"gns_lang":"eng","gns_adm1":"ZA06","gns_region":null,"min_label":6.6,"max_label":11.0,"min_zoom":6.6,"wikidataid":"Q846320","name_ar":"المحافظة الشمالية الغربية، زامبيا","name_bn":"নর্থ-ওয়েস্টার্ন প্রদেশ","name_de":"Nordwestprovinz","name_en":"Northwestern","name_es":"Noroeste","name_fr":"Nord-Occidentale","name_el":"Βορειοδυτική Επαρχία","name_hi":"उत्तर पश्चिमी प्रांत","name_hu":"Észak-nyugati","name_id":"Barat Laut","name_it":"Nord-Occidentale","name_ja":"北西州","name_ko":"북서부","name_nl":"North-Western","name_pl":"Prowincja Północno-Zachodnia","name_pt":"Noroeste","name_ru":"Северо-Западная провинция","name_sv":"North-Western","name_tr":"Kuzeybatı Bölgesi","name_vi":"Tỉnh Tây Bắc","name_zh":"西北省","ne_id":1159307891,"name_he":"צפון מערב","name_uk":"Північно-Західна провінція","name_ur":"شمال مغربی صوبہ، زیمبیا","name_fa":"استان شمال غربی","name_zht":"西北省","FCLASS_ISO":null,"FCLASS_US":null,"FCLASS_FR":null,"FCLASS_RU":null,"FCLASS_ES":null,"FCLASS_CN":null,"FCLASS_TW":null,"FCLASS_IN":null,"FCLASS_NP":null,"FCLASS_PK":null,"FCLASS_DE":null,"FCLASS_GB":null,"FCLASS_BR":null,"FCLASS_IL":null,"FCLASS_PS":null,"FCLASS_SA":null,"FCLASS_EG":null,"FCLASS_MA":null,"FCLASS_PT":null,"FCLASS_AR":null,"FCLASS_JP":null,"FCLASS_KO":null,"FCLASS_VN":null,"FCLASS_TR":null,"FCLASS_ID":null,"FCLASS_PL":null,"FCLASS_GR":null,"FCLASS_IT":null,"FCLASS_NL":null,"FCLASS_SE":null,"FCLASS_BD":null,"FCLASS_UA":null,"FCLASS_TLC":null,"iso_id":"ZM-06","iso_name":"Northwestern","source":"iso-3166-2-subdivisions"},"geometry":{"type":"Polygon","coordinates":[[[21.980353,-13.694822],[22.028454,-13.712289],[22.085712,-13.75854],[22.119198,-13.76164],[22.168549,-13.742572],[22.221621,-13.683351],[22.250818,-13.686554],[22.285596,-13.70552],[22.431117,-13.825254],[22.499382,-13.86613],[22.516331,-13.893622],[22.541136,-13.909332],[22.583976,-13.915429],[22.610021,-13.927677],[22.632293,-13.960956],[22.710273,-13.99036],[22.728722,-13.977699],[22.747997,-13.905301],[22.805409,-13.899668],[22.838121,-13.869851],[22.8529,-13.869541],[22.964779,-13.935583],[23.000746,-13.992841],[23.059709,-13.977958],[23.08224,-13.980283],[23.099913,-13.992686],[23.106425,-14.03599],[23.125235,-14.059038],[23.226986,-14.07635],[23.187143,-14.134899],[23.182596,-14.154846],[23.223575,-14.140584],[23.223575,-14.168489],[23.264554,-14.168489],[23.323207,-14.133711],[23.367597,-14.133711],[23.43674,-14.085652],[23.539525,-14.059245],[23.592183,-14.023175],[23.632904,-14.01346],[23.667682,-13.994804],[23.683495,-13.99036],[23.73326,-14.012323],[23.799612,-13.983539],[23.833719,-13.956202],[23.833099,-13.975684],[23.855681,-13.990877],[23.910717,-14.000282],[23.947769,-13.987156],[23.992314,-14.001522],[24.016188,-13.995011],[24.048021,-13.966331],[24.071585,-13.976459],[24.087915,-13.946229],[24.126672,-13.955582],[24.144707,-13.9469],[24.156645,-13.930209],[24.183155,-13.928659],[24.222429,-13.905869],[24.27488,-13.936927],[24.299995,-13.938167],[24.290538,-13.912691],[24.30108,-13.892433],[24.322061,-13.905146],[24.334928,-13.942249],[24.381489,-13.958217],[24.404123,-13.946384],[24.416422,-13.963333],[24.43363,-13.952895],[24.470682,-13.952481],[24.465411,-13.932379],[24.488562,-13.91791],[24.553881,-13.982919],[24.586954,-13.9885],[24.590985,-13.963437],[24.61579,-13.965556],[24.61734,-13.999765],[24.626952,-13.998525],[24.635634,-13.969793],[24.664676,-13.960181],[24.713407,-14.012788],[24.725654,-14.046532],[24.726584,-14.088442],[24.745808,-14.120326],[24.804926,-14.141824],[24.878203,-14.156242],[25.008221,-14.217685],[25.063773,-14.214274],[25.081756,-14.232051],[25.087492,-14.290394],[25.059122,-14.350183],[25.05106,-14.421807],[25.030442,-14.444079],[24.973287,-14.469091],[24.963521,-14.48325],[24.966931,-14.573942],[25.001864,-14.617402],[25.025739,-14.632285],[25.151623,-14.628512],[25.315282,-14.577353],[25.39383,-14.58283],[25.442251,-14.602571],[25.483024,-14.601331],[25.522918,-14.584122],[25.548394,-14.585208],[25.585601,-14.559369],[25.621,-14.555442],[26.173731,-14.621071],[26.197915,-14.654506],[26.249437,-14.668148],[26.294137,-14.688612],[26.314549,-14.71321],[26.334961,-14.713985],[26.369843,-14.699206],[26.376044,-14.647684],[26.387413,-14.626962],[26.428341,-14.579937],[26.492161,-14.531619],[26.533709,-14.470124],[26.555465,-14.450694],[26.588331,-14.442839],[26.62931,-14.456482],[26.653495,-14.442839],[26.736074,-14.44904],[26.804648,-14.414934],[26.92769,-14.409921],[26.955957,-14.373954],[26.952236,-14.253083],[26.978901,-14.209468],[26.979056,-14.169057],[26.913427,-14.076091],[26.85772,-14.037747],[26.907536,-14.009584],[26.912187,-13.910003],[26.954562,-13.82174],[26.906296,-13.790269],[26.868572,-13.72619],[26.799067,-13.676064],[26.788991,-13.643715],[26.793331,-13.578757],[26.809454,-13.536331],[26.838186,-13.508943],[26.859115,-13.439283],[26.906141,-13.416752],[26.921954,-13.384506],[26.952081,-13.366574],[26.97363,-13.334845],[26.980607,-13.309627],[26.961383,-13.244308],[26.965104,-13.211028],[26.981537,-13.191908],[27.044996,-13.151548],[27.061015,-13.130258],[27.094192,-13.000808],[27.04391,-12.996932],[27.009649,-12.955695],[26.974871,-12.948512],[26.930326,-12.926653],[26.883145,-12.892339],[26.88082,-12.875596],[26.906916,-12.819682],[26.845008,-12.738757],[26.867487,-12.663103],[26.886246,-12.637575],[26.946655,-12.618093],[27.009184,-12.538046],[27.076828,-12.51598],[27.054917,-12.462702],[27.066131,-12.387409],[27.051507,-12.334182],[27.110521,-12.339402],[27.150829,-12.333562],[27.276506,-12.345706],[27.413397,-12.247831],[27.42766,-12.243903],[27.466003,-12.270414],[27.467399,-12.288914],[27.510549,-12.300696],[27.524501,-12.282247],[27.58982,-12.242973],[27.52047,-12.179617],[27.47179,-12.041641],[27.467553,-12.001644],[27.420734,-11.921959],[27.234182,-11.809097],[27.209998,-11.721971],[27.20762,-11.639392],[27.197182,-11.59371],[27.180129,-11.569629],[27.064373,-11.59712],[27.023756,-11.59557],[27.010268,-11.609833],[27.023239,-11.671121],[27.021482,-11.69789],[26.981071,-11.749049],[26.971356,-11.78853],[26.967325,-11.870385],[26.947688,-11.909143],[26.912755,-11.942526],[26.874204,-11.964333],[26.831726,-11.973325],[26.759379,-11.968674],[26.717418,-12.013012],[26.697057,-12.017457],[26.643521,-11.985521],[26.524871,-11.972291],[26.489111,-11.960819],[26.438365,-11.919065],[26.414594,-11.91183],[26.339146,-11.918961],[26.298012,-11.941182],[26.265559,-11.930847],[26.229592,-11.933121],[26.16665,-11.902425],[25.981132,-11.903045],[25.963562,-11.895087],[25.949816,-11.863978],[25.914159,-11.845581],[25.850701,-11.793801],[25.801608,-11.80424],[25.725644,-11.800519],[25.621464,-11.728895],[25.575679,-11.727345],[25.561003,-11.753287],[25.537645,-11.758351],[25.515217,-11.775818],[25.49558,-11.776541],[25.480439,-11.769823],[25.474135,-11.756181],[25.481163,-11.715253],[25.406335,-11.673085],[25.386388,-11.64983],[25.344943,-11.642182],[25.327373,-11.616654],[25.300398,-11.535005],[25.297711,-11.507927],[25.316728,-11.472994],[25.279004,-11.396306],[25.277971,-11.371811],[25.306496,-11.333054],[25.284689,-11.307319],[25.324893,-11.283651],[25.322516,-11.205413],[25.31032,-11.194768],[25.278798,-11.199935],[25.184023,-11.246651],[25.124285,-11.259157],[24.981245,-11.271869],[24.942901,-11.268562],[24.826732,-11.317551],[24.787975,-11.325819],[24.712527,-11.326026],[24.67408,-11.341632],[24.635219,-11.385867],[24.593258,-11.399613],[24.564733,-11.444675],[24.532693,-11.446122],[24.469648,-11.465552],[24.446497,-11.463589],[24.370223,-11.410155],[24.310071,-11.406641],[24.293948,-11.3992],[24.285473,-11.381216],[24.33994,-11.358065],[24.392237,-11.279104],[24.396578,-11.217402],[24.391307,-11.199832],[24.361748,-11.164692],[24.362471,-11.150533],[24.381798,-11.12056],[24.370533,-11.1002],[24.293845,-11.05028],[24.238034,-11.048007],[24.181294,-11.034467],[24.124243,-11.043252],[24.108016,-10.954989],[24.114218,-10.919229],[24.09148,-10.897835],[24.048382,-10.882332],[23.967457,-10.872307],[23.974278,-10.921399],[24.003733,-10.982481],[23.993708,-11.019585],[23.990091,-11.113532],[23.995775,-11.127382],[24.015309,-11.130482],[24.011175,-11.272903],[24.061714,-11.406951],[24.009935,-11.459454],[24.009728,-11.52343],[23.977688,-11.577277],[23.954641,-11.636911],[23.954641,-11.662233],[23.981306,-11.724761],[23.990194,-11.824083],[23.967043,-11.882891],[23.954331,-12.151919],[23.959602,-12.19667],[24.006627,-12.253721],[24.016859,-12.278939],[24.030812,-12.385083],[24.019856,-12.419189],[23.940791,-12.532774],[23.928699,-12.561609],[23.865654,-12.789709],[23.874749,-12.821749],[23.895109,-12.849757],[23.971797,-12.93337],[24.000633,-13.001479],[21.979878,-13.001479],[21.980353,-13.694822]]]}}
