{"type":"Feature","properties":{"featurecla":"Admin-1 states provinces","scalerank":5,"adm1_code":"ZWE-528","diss_me":528,"iso_3166_2":"ZW-ME","wikipedia":null,"iso_a2":"ZW","adm0_sr":1,"name":"Mashonaland East","name_alt":null,"name_local":null,"type":"Province","type_en":"Province","code_local":null,"code_hasc":"ZW.ME","note":null,"hasc_maybe":null,"region":null,"region_cod":null,"provnum_ne":9,"gadm_level":1,"check_me":0,"datarank":6,"abbrev":null,"postal":"ME","area_sqkm":0,"sameascity":-99,"labelrank":5,"name_len":16,"mapcolor9":3,"mapcolor13":9,"fips":"ZI04","fips_alt":null,"woe_id":2347813,"woe_label":"Mashonaland East, ZW, Zimbabwe","woe_name":"Mashonaland East","latitude":-18.2141,"longitude":31.666,"sov_a3":"ZWE","adm0_a3":"ZWE","adm0_label":2,"admin":"Zimbabwe","geonunit":"Zimbabwe","gu_a3":"ZWE","gn_id":886842,"gn_name":"Mashonaland East Province","gns_id":-2315776,"gns_name":"Mashonaland East Province","gn_level":1,"gn_region":null,"gn_a1_code":"ZW.04","region_sub":null,"sub_code":null,"gns_level":1,"gns_lang":"eng","gns_adm1":"ZI04","gns_region":null,"min_label":6.7,"max_label":11.0,"min_zoom":6.7,"wikidataid":"Q465853","name_ar":"إقليم ماشونالاند الشرقية","name_bn":"ম্যাশনাল্যান্ড পূর্ব প্রদেশ","name_de":"Mashonaland East","name_en":"Mashonaland East","name_es":"Mashonalandia Oriental","name_fr":"Mashonaland oriental","name_el":"Ανατολική Μασοναλάνδη","name_hi":"माशोनालैंड पूर्व प्रांत","name_hu":"Kelet-Mashonaland","name_id":"Mashonaland Timur","name_it":"Mashonaland Orientale","name_ja":"東マショナランド州","name_ko":"동마쇼날랜드","name_nl":"Mashonaland East","name_pl":"Maszona Wschodnia","name_pt":"Mashonaland Este","name_ru":"Восточный Машоналенд","name_sv":"Mashonaland East","name_tr":"Doğu Mashonaland","name_vi":"Tỉnh Mashonaland East","name_zh":"东马绍纳兰省","ne_id":1159307825,"name_he":"משונאלנד מזרח פרובינציה","name_uk":"Східний Машоналенд","name_ur":"ماشونالینڈ مشرقی صوبہ","name_fa":"استان ماشونالند شرقی","name_zht":"東馬紹納蘭省","FCLASS_ISO":null,"FCLASS_US":null,"FCLASS_FR":null,"FCLASS_RU":null,"FCLASS_ES":null,"FCLASS_CN":null,"FCLASS_TW":null,"FCLASS_IN":null,"FCLASS_NP":null,"FCLASS_PK":null,"FCLASS_DE":null,"FCLASS_GB":null,"FCLASS_BR":null,"FCLASS_IL":null,"FCLASS_PS":null,"FCLASS_SA":null,"FCLASS_EG":null,"FCLASS_MA":null,"FCLASS_PT":null,"FCLASS_AR":null,"FCLASS_JP":null,"FCLASS_KO":null,"FCLASS_VN":null,"FCLASS_TR":null,"FCLASS_ID":null,"FCLASS_PL":null,"FCLASS_GR":null,"FCLASS_IT":null,"FCLASS_NL":null,"FCLASS_SE":null,"FCLASS_BD":null,"FCLASS_UA":null,"FCLASS_TLC":null,"iso_id":"ZW-ME","iso_name":"Mashonaland East","source":"iso-3166-2-subdivisions"},"geometry":{"type":"Polygon","coordinates":[[[32.73095,-16.708656],[32.700774,-16.735361],[32.665118,-16.745231],[32.607653,-16.740425],[32.573134,-16.725645],[32.412988,-16.712261],[32.31346,-16.758098],[32.247675,-16.760114],[32.203595,-16.785745],[32.15719,-16.799233],[32.086187,-16.792463],[32.041952,-16.815201],[32.015442,-16.8568],[31.99875,-16.914213],[31.957409,-16.937932],[31.929865,-16.964959],[31.907748,-17.033275],[31.880514,-17.079474],[31.826151,-17.124794],[31.806669,-17.153785],[31.75861,-17.186444],[31.748171,-17.219052],[31.754682,-17.281425],[31.729309,-17.324627],[31.643733,-17.405656],[31.607146,-17.455885],[31.51604,-17.502756],[31.477231,-17.562028],[31.458886,-17.557688],[31.384576,-17.62187],[31.373879,-17.626469],[31.339255,-17.612878],[31.296312,-17.62988],[31.284323,-17.612568],[31.281843,-17.580529],[31.316621,-17.483687],[31.15105,-17.468339],[31.137717,-17.47516],[31.086196,-17.548799],[31.092087,-17.561563],[31.10573,-17.566214],[31.10852,-17.582389],[31.088676,-17.666105],[31.112086,-17.668947],[31.131206,-17.697421],[31.182262,-17.699539],[31.196525,-17.706671],[31.195905,-17.763308],[31.222105,-17.85183],[31.19358,-17.902473],[31.148414,-17.923608],[31.147639,-17.979212],[31.120302,-18.003914],[31.133221,-18.021845],[31.112861,-18.03833],[31.057154,-18.05249],[30.976332,-17.998849],[30.905897,-17.972546],[30.860267,-17.93813],[30.818357,-17.92521],[30.812311,-17.946191],[30.819442,-17.981331],[30.789211,-18.001123],[30.781305,-18.023757],[30.798203,-18.076054],[30.772417,-18.104838],[30.758464,-18.174032],[30.731799,-18.210413],[30.702602,-18.233099],[30.706633,-18.285395],[30.784819,-18.362496],[30.796343,-18.384924],[30.766836,-18.425955],[30.755518,-18.584498],[30.701982,-18.641032],[30.65139,-18.720717],[30.641779,-18.710692],[30.609016,-18.706041],[30.612633,-18.737874],[30.606845,-18.744385],[30.589172,-18.745057],[30.544007,-18.725782],[30.539666,-18.755392],[30.498687,-18.76702],[30.462565,-18.686663],[30.449852,-18.681392],[30.398486,-18.775081],[30.380761,-18.845103],[30.363088,-18.861536],[30.433833,-18.88169],[30.474812,-18.913574],[30.552533,-18.941893],[30.58018,-18.96308],[30.659917,-18.971917],[30.689114,-18.983751],[30.675782,-19.015376],[30.733349,-19.112476],[30.716399,-19.141725],[30.71888,-19.171956],[30.805024,-19.251848],[30.859336,-19.272363],[30.902641,-19.234485],[30.901246,-19.192575],[30.930391,-19.184772],[30.94729,-19.162034],[30.964395,-19.155678],[31.006304,-19.160949],[30.993695,-19.21154],[30.998346,-19.24637],[31.041806,-19.252261],[31.198696,-19.248437],[31.296157,-19.23805],[31.30825,-19.232624],[31.30825,-19.183738],[31.318326,-19.159605],[31.319257,-19.119918],[31.328713,-19.104002],[31.378219,-19.097852],[31.413463,-19.109583],[31.443228,-19.092374],[31.476301,-19.116662],[31.483123,-19.142087],[31.534954,-19.156608],[31.566477,-19.129065],[31.588801,-19.087258],[31.604614,-19.047209],[31.596242,-19.023593],[31.660941,-19.043333],[31.746311,-19.035634],[31.776851,-19.049225],[31.830026,-19.097697],[31.906663,-19.125344],[31.92692,-19.129581],[31.961078,-19.12276],[31.985159,-19.132217],[31.991309,-19.114854],[31.990999,-18.987471],[31.964799,-18.938327],[31.942113,-18.918276],[31.922114,-18.826447],[31.900048,-18.773686],[31.888421,-18.763712],[31.843721,-18.75317],[31.826823,-18.707902],[31.77065,-18.631472],[31.761814,-18.598916],[31.770495,-18.567549],[31.74352,-18.509051],[31.761969,-18.493289],[31.772511,-18.447401],[31.851317,-18.420942],[31.849664,-18.391539],[31.867647,-18.353091],[31.859275,-18.312009],[31.862221,-18.273148],[31.908885,-18.206382],[31.911727,-18.166281],[32.146183,-17.938595],[32.160911,-17.851365],[32.246539,-17.810334],[32.279456,-17.764393],[32.376763,-17.689153],[32.41459,-17.676543],[32.445338,-17.680368],[32.487557,-17.637631],[32.59122,-17.598667],[32.632975,-17.555827],[32.645997,-17.509887],[32.721548,-17.475057],[32.72992,-17.441881],[32.767334,-17.375011],[32.867431,-17.300442],[32.96909,-17.266115],[32.954143,-17.167168],[32.828776,-16.935141],[32.916213,-16.847911],[32.933369,-16.815768],[32.968509,-16.681616],[32.893372,-16.712415],[32.769348,-16.695466],[32.73095,-16.708656]]]}}
