{"type":"Feature","properties":{"mrgid":14640,"name":"Veerse Meer","placeType":"Lake","source":"Europe:europemajorwater"},"geometry":{"type":"Polygon","coordinates":[[[3.6721,51.547],[3.6844,51.5273],[3.7067,51.5085],[3.7205,51.5137],[3.7058,51.5163],[3.7284,51.5234],[3.7326,51.5395],[3.7438,51.544],[3.7459,51.5398],[3.7946,51.5413],[3.8306,51.5486],[3.8635,51.5394],[3.8337,51.5562],[3.8045,51.5477],[3.7635,51.5552],[3.7358,51.5462],[3.7032,51.5259],[3.6986,51.5355],[3.7076,51.5341],[3.6889,51.5559],[3.7009,51.5657],[3.6857,51.5567],[3.6528,51.5701],[3.6467,51.5878],[3.6275,51.5828],[3.6459,51.5587],[3.6721,51.547]],[[3.6817,51.5493],[3.6887,51.5505],[3.695,51.5415],[3.6885,51.537],[3.6817,51.5493]],[[3.7743,51.5441],[3.7666,51.543],[3.7505,51.5432],[3.7539,51.5472],[3.7743,51.5441]],[[3.7591,51.5482],[3.7671,51.5517],[3.7706,51.5479],[3.7674,51.5475],[3.7591,51.5482]],[[3.7768,51.5478],[3.7712,51.5502],[3.7729,51.5512],[3.7768,51.5478]],[[3.7173,51.5306],[3.7201,51.5331],[3.7188,51.5274],[3.7173,51.5306]],[[3.7223,51.5354],[3.7252,51.5358],[3.7233,51.5314],[3.7223,51.5354]],[[3.6717,51.5613],[3.6726,51.5597],[3.666,51.5601],[3.6717,51.5613]],[[3.674,51.5541],[3.6716,51.5577],[3.6732,51.5581],[3.674,51.5541]],[[3.6924,51.5357],[3.6896,51.5355],[3.6944,51.5395],[3.6924,51.5357]],[[3.7039,51.5153],[3.7066,51.5133],[3.7029,51.5139],[3.7039,51.5153]],[[3.6908,51.5276],[3.6899,51.5296],[3.6911,51.5305],[3.6908,51.5276]],[[3.6928,51.5248],[3.6942,51.5243],[3.6937,51.5239],[3.6928,51.5248]]]}}
