{"type":"Feature","properties":{"mrgid":15289,"name":"South Japan","placeType":"General Region","source":"World:world_quadrants_20150805"},"geometry":{"type":"MultiPolygon","coordinates":[[[[141.470241,24.22809],[141.473627,24.241899],[141.45484,24.242575],[141.454498,24.226942],[141.470241,24.22809]]],[[[153.986732,24.283755],[153.98361,24.297712],[153.971066,24.284971],[153.986732,24.283755]]],[[[141.288272,24.787213],[141.287191,24.789966],[141.285455,24.786292],[141.288272,24.787213]]],[[[141.288056,24.803333],[141.287778,24.8075],[141.284506,24.799402],[141.288056,24.803333]]],[[[141.323265,24.812991],[141.292705,24.785622],[141.285006,24.743936],[141.346667,24.778333],[141.339722,24.802222],[141.323265,24.812991]]],[[[141.282883,25.417877],[141.294015,25.430403],[141.282879,25.449796],[141.270372,25.429618],[141.282883,25.417877]]],[[[142.154975,26.541577],[142.154173,26.540391],[142.154975,26.539468],[142.154975,26.541577]]],[[[142.208818,26.550679],[142.208089,26.552986],[142.206955,26.551911],[142.208818,26.550679]]],[[[142.15709,26.543225],[142.161235,26.560403],[142.15467,26.564358],[142.150556,26.548494],[142.15709,26.543225]]],[[[142.215793,26.563938],[142.202778,26.5625],[142.201007,26.552274],[142.215278,26.556111],[142.215793,26.563938]]],[[[142.23614,26.567347],[142.231052,26.575146],[142.226326,26.571353],[142.22768,26.562997],[142.23614,26.567347]]],[[[142.162403,26.588142],[142.149029,26.585913],[142.146667,26.581944],[142.158889,26.581944],[142.162403,26.588142]]],[[[142.165336,26.592674],[142.163698,26.593056],[142.165,26.589167],[142.165336,26.592674]]],[[[142.169209,26.595673],[142.166754,26.594298],[142.166945,26.593333],[142.169209,26.595673]]],[[[142.176798,26.600565],[142.174756,26.599906],[142.174683,26.598917],[142.176798,26.600565]]],[[[142.176591,26.604925],[142.176142,26.601949],[142.176944,26.601817],[142.176591,26.604925]]],[[[142.134167,26.5975],[142.134444,26.608055],[142.126667,26.6125],[142.125382,26.595886],[142.134167,26.5975]]],[[[142.122233,26.713238],[142.130831,26.689067],[142.14449,26.676686],[142.141912,26.666052],[142.14898,26.665851],[142.145227,26.652959],[142.154201,26.635792],[142.161389,26.639444],[142.161944,26.63],[142.171667,26.63],[142.178889,26.607222],[142.180901,26.62925],[142.171562,26.642994],[142.174706,26.653738],[142.189167,26.659444],[142.174914,26.656062],[142.164309,26.663013],[142.168611,26.689722],[142.146436,26.685579],[142.146884,26.693937],[142.165,26.7025],[142.154444,26.709444],[142.140586,26.708457],[142.141755,26.699222],[142.122233,26.713238]]],[[[142.178318,27.036461],[142.171429,27.045773],[142.175038,27.032235],[142.178318,27.036461]]],[[[142.246824,27.095533],[142.240356,27.095536],[142.245033,27.09072],[142.246824,27.095533]]],[[[142.182827,27.103705],[142.181721,27.093497],[142.187413,27.087634],[142.201589,27.098062],[142.207904,27.083916],[142.203396,27.073609],[142.180694,27.07417],[142.194924,27.060679],[142.186102,27.06041],[142.185469,27.040013],[142.199282,27.045997],[142.229105,27.036051],[142.22274,27.053127],[142.241763,27.046248],[142.230534,27.058927],[142.232587,27.077591],[142.2189,27.100829],[142.182827,27.103705]]],[[[142.186427,27.118009],[142.184433,27.118086],[142.185531,27.11599],[142.186427,27.118009]]],[[[142.163611,27.121667],[142.161111,27.113055],[142.174167,27.116111],[142.163611,27.121667]]],[[[142.1775,27.125556],[142.182778,27.126944],[142.1825,27.128055],[142.1775,27.125556]]],[[[142.200418,27.133997],[142.19,27.143333],[142.187889,27.121364],[142.200909,27.122215],[142.206111,27.116667],[142.200278,27.109722],[142.235344,27.109389],[142.219247,27.133004],[142.200418,27.133997]]],[[[142.197292,27.182599],[142.185167,27.186878],[142.184722,27.144444],[142.199145,27.158],[142.197292,27.182599]]],[[[142.194172,27.193189],[142.198365,27.194536],[142.198276,27.196286],[142.194172,27.193189]]],[[[140.879959,27.246608],[140.874998,27.250532],[140.872222,27.246094],[140.879959,27.246608]]],[[[142.208626,27.484832],[142.206389,27.484444],[142.207673,27.483969],[142.208626,27.484832]]],[[[142.207217,27.489483],[142.205034,27.487291],[142.208444,27.48613],[142.207217,27.489483]]],[[[142.220556,27.492778],[142.218506,27.495892],[142.218221,27.492815],[142.220556,27.492778]]],[[[142.203307,27.498986],[142.215556,27.488611],[142.216944,27.493611],[142.203307,27.498986]]],[[[142.184167,27.628889],[142.17361,27.634921],[142.171111,27.623611],[142.185555,27.618333],[142.184167,27.628889]]],[[[142.159793,27.662803],[142.158136,27.663893],[142.15901,27.654407],[142.159793,27.662803]]],[[[142.123889,27.687222],[142.123611,27.678611],[142.134835,27.681224],[142.136667,27.670278],[142.147222,27.67],[142.1475,27.684722],[142.123889,27.687222]]],[[[142.110697,27.717631],[142.106742,27.717485],[142.108207,27.715123],[142.110697,27.717631]]],[[[142.100833,27.719444],[142.09675,27.719964],[142.101215,27.714867],[142.100833,27.719444]]],[[[140.865452,29.34845],[140.862644,29.349165],[140.862349,29.347996],[140.865452,29.34845]]],[[[140.30918,30.47436],[140.312564,30.489852],[140.305218,30.495829],[140.291754,30.491888],[140.290167,30.478538],[140.30918,30.47436]]],[[[140.051626,31.440032],[140.049944,31.440854],[140.050036,31.437364],[140.051626,31.440032]]],[[[139.919444,31.8875],[139.918333,31.889167],[139.916111,31.888055],[139.919444,31.8875]]],[[[139.775761,32.445189],[139.779869,32.459703],[139.755974,32.472608],[139.755963,32.44966],[139.775761,32.445189]]],[[[139.676401,33.136495],[139.675255,33.129698],[139.684937,33.117025],[139.699433,33.115371],[139.697785,33.127651],[139.676401,33.136495]]],[[[139.747181,33.157063],[139.738398,33.145756],[139.753127,33.105442],[139.77747,33.097139],[139.782402,33.070225],[139.834283,33.04551],[139.8339,33.066845],[139.858604,33.078301],[139.858343,33.099125],[139.84681,33.117403],[139.818593,33.120255],[139.77402,33.158646],[139.747181,33.157063]]],[[[139.621365,33.850001],[139.632673,33.86901],[139.625311,33.884391],[139.605765,33.901147],[139.591341,33.898299],[139.576359,33.879259],[139.5784,33.860351],[139.621365,33.850001]]],[[[138.818853,33.943267],[138.81727,33.944283],[138.817346,33.941997],[138.818853,33.943267]]],[[[138.816746,33.94779],[138.815391,33.946684],[138.815578,33.946311],[138.816746,33.94779]]],[[[139.492335,34.119453],[139.493834,34.103715],[139.4725,34.0775],[139.482222,34.050833],[139.531389,34.046389],[139.563611,34.068889],[139.566111,34.102222],[139.56,34.111389],[139.539833,34.124429],[139.492335,34.119453]]],[[[139.193146,34.207188],[139.193123,34.208986],[139.189698,34.208641],[139.193146,34.207188]]],[[[139.143333,34.243611],[139.127778,34.223333],[139.131944,34.2025],[139.119722,34.196111],[139.129167,34.185278],[139.145245,34.187531],[139.157782,34.205318],[139.176266,34.206033],[139.168588,34.233516],[139.143333,34.243611]]],[[[139.280387,34.325236],[139.276035,34.327904],[139.276145,34.323848],[139.280387,34.325236]]],[[[139.227778,34.328333],[139.209562,34.338308],[139.19366,34.319281],[139.216389,34.316111],[139.227778,34.328333]]],[[[139.229315,34.372589],[139.224013,34.375641],[139.227152,34.370837],[139.229315,34.372589]]],[[[139.29156,34.418693],[139.27929,34.431057],[139.279815,34.418457],[139.255857,34.401269],[139.252023,34.376403],[139.241166,34.370459],[139.244222,34.34864],[139.260144,34.334393],[139.269243,34.331846],[139.275782,34.343634],[139.276852,34.387424],[139.289564,34.402114],[139.29156,34.418693]]],[[[139.296944,34.473333],[139.288002,34.476704],[139.292424,34.469999],[139.296944,34.473333]]],[[[139.280556,34.532778],[139.2675,34.525556],[139.274444,34.510833],[139.293333,34.522778],[139.280556,34.532778]]],[[[138.941647,34.575899],[138.940578,34.576053],[138.940862,34.574358],[138.941647,34.575899]]],[[[138.824227,34.606702],[138.822864,34.607144],[138.823015,34.605503],[138.824227,34.606702]]],[[[138.947378,34.665132],[138.944616,34.664105],[138.945446,34.662957],[138.947378,34.665132]]],[[[137.595448,34.680037],[137.578383,34.690484],[137.583558,34.69505],[137.575617,34.695161],[137.575617,34.679913],[137.595448,34.680037]]],[[[137.607646,34.694257],[137.603157,34.696678],[137.600046,34.690124],[137.607646,34.694257]]],[[[137.597,34.699254],[137.589322,34.692914],[137.597341,34.690943],[137.597,34.699254]]],[[[137.605996,34.700642],[137.604182,34.697343],[137.608299,34.695699],[137.605996,34.700642]]],[[[139.36345,34.798561],[139.348611,34.778611],[139.358438,34.703432],[139.401063,34.681816],[139.439722,34.678889],[139.437122,34.688887],[139.445278,34.684722],[139.45,34.695833],[139.443449,34.70399],[139.449436,34.740703],[139.436546,34.768134],[139.412148,34.787048],[139.36345,34.798561]]],[[[138.754934,34.805464],[138.753736,34.804688],[138.755365,34.803637],[138.754934,34.805464]]],[[[139.826073,34.99121],[139.822956,34.991466],[139.823252,34.990082],[139.826073,34.99121]]],[[[138.890237,35.033564],[138.8861,35.036299],[138.885614,35.032172],[138.890237,35.033564]]],[[[139.177222,35.039167],[139.164444,35.043889],[139.166978,35.037293],[139.177222,35.039167]]],[[[140.108889,35.075555],[140.1025,35.078611],[140.102778,35.075833],[140.108889,35.075555]]],[[[139.815984,35.110345],[139.813611,35.111111],[139.813056,35.109444],[139.815984,35.110345]]],[[[139.615883,35.137185],[139.608481,35.134324],[139.629277,35.129943],[139.615883,35.137185]]],[[[139.695694,35.28671],[139.695395,35.287323],[139.69283,35.286006],[139.695694,35.28671]]],[[[139.482222,35.303056],[139.474167,35.298611],[139.483611,35.296667],[139.482222,35.303056]]],[[[139.649301,35.29439],[139.656667,35.301944],[139.651739,35.307937],[139.644136,35.299546],[139.649301,35.29439]]],[[[139.743889,35.312222],[139.74,35.311944],[139.742222,35.310555],[139.743889,35.312222]]],[[[139.769197,35.315753],[139.767323,35.315659],[139.767346,35.314225],[139.769197,35.315753]]],[[[139.637495,35.327333],[139.633425,35.331103],[139.629421,35.329113],[139.637495,35.327333]]],[[[139.646997,35.338938],[139.641709,35.338163],[139.642795,35.334354],[139.646997,35.338938]]],[[[139.911667,35.385833],[139.909722,35.385833],[139.912222,35.384167],[139.911667,35.385833]]],[[[139.691723,35.410309],[139.67958,35.410309],[139.670843,35.402021],[139.676717,35.40021],[139.691723,35.410309]]],[[[139.683772,35.45891],[139.694309,35.463953],[139.69207,35.471946],[139.672511,35.460627],[139.694257,35.450166],[139.701883,35.455316],[139.697668,35.461646],[139.683772,35.45891]]],[[[139.777462,35.504884],[139.761317,35.506064],[139.699601,35.47892],[139.7127,35.464382],[139.741416,35.477203],[139.734897,35.487288],[139.74536,35.485196],[139.777462,35.504884]]],[[[139.767455,35.536426],[139.760733,35.530472],[139.775785,35.509765],[139.795136,35.517597],[139.767455,35.536426]]],[[[139.773179,35.574889],[139.757416,35.574621],[139.757218,35.570758],[139.765413,35.564868],[139.773179,35.574889]]],[[[139.755794,35.568817],[139.751995,35.575619],[139.745294,35.573602],[139.750017,35.567422],[139.755794,35.568817]]],[[[139.81986,35.607816],[139.793167,35.593058],[139.805405,35.585698],[139.829488,35.592951],[139.81986,35.607816]]],[[[139.818151,35.60898],[139.810116,35.613336],[139.789841,35.5958],[139.818151,35.60898]]],[[[139.768722,35.583129],[139.77632,35.590553],[139.752535,35.617719],[139.748117,35.592157],[139.754063,35.577966],[139.786781,35.580382],[139.77822,35.586948],[139.768722,35.583129]]],[[[139.766353,35.627568],[139.767838,35.629633],[139.765858,35.627782],[139.766353,35.627568]]],[[[139.839701,35.632074],[139.825495,35.629896],[139.834988,35.612791],[139.83836,35.614489],[139.839701,35.632074]]],[[[139.769722,35.6325],[139.76787,35.630196],[139.768105,35.630082],[139.769722,35.6325]]],[[[139.759381,35.619532],[139.758833,35.633935],[139.754768,35.633965],[139.752545,35.619419],[139.759381,35.619532]]],[[[139.765824,35.634434],[139.765428,35.633308],[139.766944,35.633055],[139.765824,35.634434]]],[[[139.776516,35.636392],[139.767217,35.62216],[139.786613,35.602194],[139.792089,35.609731],[139.776516,35.636392]]],[[[139.789691,35.643107],[139.789861,35.643291],[139.781924,35.639461],[139.789691,35.643107]]],[[[139.791734,35.644182],[139.79642,35.647073],[139.79046,35.643967],[139.791734,35.644182]]],[[[139.816223,35.653872],[139.805559,35.65149],[139.807692,35.64096],[139.821238,35.64287],[139.816223,35.653872]]],[[[139.825218,35.654604],[139.820815,35.633171],[139.839979,35.633772],[139.841016,35.648288],[139.825218,35.654604]]],[[[139.788005,35.6588],[139.785746,35.671674],[139.76637,35.651567],[139.77925,35.656878],[139.772226,35.646107],[139.788005,35.6588]]],[[[139.9775,35.679167],[139.962965,35.680552],[139.958098,35.672114],[139.978727,35.670108],[139.971391,35.674474],[139.9775,35.679167]]],[[[140.843041,35.737787],[140.832726,35.736401],[140.838092,35.736058],[140.843041,35.737787]]],[[[140.695,35.931667],[140.693333,35.931389],[140.694444,35.929722],[140.695,35.931667]]],[[[140.585773,36.300385],[140.584741,36.302004],[140.584656,36.296549],[140.585773,36.300385]]],[[[140.578777,36.306537],[140.578002,36.30678],[140.577834,36.303455],[140.578777,36.306537]]],[[[140.62697,36.441564],[140.625,36.441564],[140.625,36.431329],[140.62697,36.441564]]],[[[140.871944,36.917778],[140.866389,36.915555],[140.864722,36.912227],[140.871944,36.917778]]],[[[140.880626,36.919974],[140.880885,36.920492],[140.873268,36.918015],[140.880626,36.919974]]],[[[140.998166,37.104319],[140.998201,37.104849],[140.997144,37.104344],[140.998166,37.104319]]],[[[138.811105,37.372436],[138.810763,37.372382],[138.810906,37.370626],[138.811105,37.372436]]],[[[141.025766,37.32489],[141.039221,37.363289],[141.034872,37.398804],[138.810226,37.398804],[138.82758,37.343889],[138.803022,37.309999],[138.812762,37.292186],[138.802009,37.302478],[138.801458,37.310665],[138.824075,37.341099],[138.808054,37.376265],[138.808419,37.398804],[138.57163,37.398804],[138.54352,37.367759],[138.48868,37.353138],[138.446781,37.324403],[138.435938,37.324437],[138.339893,37.24202],[138.276475,37.198216],[138.251094,37.18987],[138.246135,37.139137],[138.267651,37.109791],[138.244445,37.137844],[138.245891,37.18146],[138.211661,37.168257],[138.153393,37.161272],[138.100651,37.17364],[138.048022,37.127241],[138.020422,37.114146],[138.005451,37.115507],[137.913193,37.061131],[137.835844,37.040601],[137.8459,37.050334],[137.811303,37.028601],[137.654174,36.981486],[137.58609,36.974558],[137.575617,36.966024],[137.575617,34.78118],[137.598335,34.788448],[137.613676,34.78074],[137.620401,34.800312],[137.640806,34.794131],[137.658544,34.807571],[137.641869,34.783501],[137.616423,34.775635],[137.628569,34.765802],[137.617658,34.762742],[137.611674,34.769165],[137.582535,34.711572],[137.604956,34.712723],[137.607335,34.733701],[137.621933,34.732375],[137.631642,34.751615],[137.650442,34.760972],[137.635073,34.742134],[137.640959,34.733888],[137.626132,34.725634],[137.613205,34.701769],[137.64818,34.691611],[137.633757,34.689805],[137.612125,34.696874],[137.59992,34.6759],[137.747882,34.657093],[137.750298,34.665104],[137.7521,34.663986],[137.749497,34.655983],[137.781896,34.648386],[137.789657,34.649948],[137.788669,34.658616],[137.803852,34.645999],[137.897426,34.664585],[137.893536,34.69501],[137.903702,34.705176],[137.894968,34.693113],[137.904205,34.665057],[138.001682,34.662223],[138.227844,34.595453],[138.233295,34.605013],[138.209995,34.619778],[138.221127,34.623132],[138.206856,34.620445],[138.195189,34.635162],[138.194847,34.664783],[138.222196,34.722552],[138.298054,34.769567],[138.302259,34.7764],[138.289607,34.781938],[138.300705,34.778895],[138.333979,34.822116],[138.337127,34.841681],[138.323801,34.849958],[138.329342,34.849377],[138.325014,34.863986],[138.334252,34.871673],[138.325794,34.877571],[138.332686,34.875034],[138.355533,34.912833],[138.371405,34.922936],[138.471941,34.960039],[138.521435,34.988874],[138.532992,35.014165],[138.515625,35.020926],[138.518169,35.008607],[138.501859,35.011926],[138.506417,35.003979],[138.500503,35.002635],[138.511028,34.993894],[138.504356,34.984662],[138.491092,35.021132],[138.497418,35.020367],[138.496682,35.033961],[138.508807,35.033446],[138.504918,35.041746],[138.508426,35.043541],[138.512161,35.035532],[138.510957,35.042819],[138.515625,35.037946],[138.539341,35.062194],[138.558112,35.100699],[138.576309,35.110732],[138.644033,35.11628],[138.697498,35.134954],[138.685264,35.145157],[138.699855,35.143165],[138.694834,35.139912],[138.700648,35.135224],[138.756632,35.13083],[138.814553,35.113342],[138.840939,35.098561],[138.853148,35.080202],[138.86104,35.08259],[138.858311,35.092849],[138.862638,35.083354],[138.855471,35.078449],[138.872291,35.070095],[138.886477,35.045888],[138.892172,35.051247],[138.904984,35.046874],[138.892266,35.032257],[138.897707,35.024278],[138.891455,35.017655],[138.875918,35.025318],[138.845266,35.014143],[138.828376,35.023676],[138.787274,35.024352],[138.787652,35.03062],[138.779782,35.017918],[138.769166,34.982416],[138.777093,34.971958],[138.765863,34.977342],[138.76334,34.975936],[138.761982,34.969829],[138.790005,34.908835],[138.756356,34.885154],[138.754159,34.866268],[138.776077,34.854178],[138.759563,34.842646],[138.768814,34.822916],[138.760009,34.829103],[138.751409,34.820818],[138.764706,34.811343],[138.75226,34.799805],[138.776579,34.755602],[138.754922,34.746188],[138.761468,34.739116],[138.739833,34.725407],[138.744482,34.700534],[138.738898,34.690149],[138.757408,34.690745],[138.777209,34.667161],[138.789015,34.669304],[138.790198,34.660036],[138.772689,34.65389],[138.775373,34.641986],[138.792033,34.63549],[138.793636,34.623163],[138.809002,34.628006],[138.814526,34.614301],[138.824073,34.615591],[138.826345,34.60559],[138.842566,34.600517],[138.849016,34.612738],[138.89009,34.625357],[138.890318,34.634535],[138.908741,34.631657],[138.919195,34.65308],[138.940464,34.662118],[138.936197,34.667037],[138.947778,34.666032],[138.94943,34.673793],[138.963265,34.672789],[138.955967,34.654011],[138.987071,34.657743],[138.985615,34.668542],[138.972466,34.673643],[138.980204,34.681121],[138.972368,34.689742],[139.001257,34.734705],[138.996604,34.742254],[139.004439,34.751962],[139.021741,34.754897],[139.029047,34.767714],[139.047856,34.767541],[139.042312,34.773932],[139.058974,34.78543],[139.078168,34.819784],[139.083117,34.85294],[139.098479,34.857618],[139.10371,34.869746],[139.130436,34.877802],[139.140213,34.890482],[139.132227,34.898155],[139.148228,34.930798],[139.146667,34.954288],[139.13327,34.95221],[139.128248,34.969384],[139.094898,34.976457],[139.09414,34.989533],[139.082869,35.000308],[139.087419,35.008099],[139.09968,35.008311],[139.100944,35.044818],[139.073592,35.047512],[139.068913,35.05459],[139.082426,35.085879],[139.076578,35.097492],[139.115792,35.146333],[139.134433,35.150293],[139.160795,35.140762],[139.14029,35.161976],[139.145554,35.168125],[139.136157,35.18343],[139.14204,35.224805],[139.180335,35.263124],[139.251002,35.293048],[139.317106,35.305284],[139.331414,35.315672],[139.366298,35.313329],[139.368033,35.361073],[139.371153,35.358841],[139.371924,35.341934],[139.367602,35.330775],[139.374041,35.3155],[139.441218,35.319389],[139.474116,35.313969],[139.482788,35.30478],[139.525881,35.301433],[139.541548,35.309244],[139.552961,35.302124],[139.552197,35.294358],[139.570313,35.293527],[139.567604,35.266829],[139.599545,35.238629],[139.602127,35.221225],[139.626764,35.216046],[139.598523,35.195208],[139.615725,35.19],[139.617089,35.1665],[139.627509,35.163218],[139.626461,35.161562],[139.610982,35.162796],[139.616955,35.15581],[139.606916,35.154451],[139.616679,35.147506],[139.607268,35.142984],[139.65686,35.136961],[139.666188,35.146408],[139.676848,35.139337],[139.679247,35.156951],[139.662159,35.160343],[139.656057,35.185474],[139.688539,35.208197],[139.724767,35.211659],[139.713762,35.224437],[139.727937,35.223889],[139.729568,35.232866],[139.716252,35.245848],[139.73273,35.24061],[139.746296,35.256512],[139.73169,35.265777],[139.691811,35.266109],[139.671689,35.287307],[139.680292,35.290326],[139.672534,35.301019],[139.66151,35.300686],[139.660803,35.283252],[139.643527,35.298239],[139.633564,35.295398],[139.631421,35.301227],[139.64199,35.30399],[139.636632,35.311898],[139.644226,35.308841],[139.660796,35.328072],[139.640513,35.330577],[139.633103,35.322204],[139.622295,35.332171],[139.634606,35.332031],[139.63978,35.344016],[139.656556,35.342073],[139.650488,35.366656],[139.655913,35.373013],[139.642836,35.379048],[139.652701,35.387585],[139.627984,35.383787],[139.63596,35.390289],[139.621272,35.395567],[139.644571,35.403228],[139.629916,35.410683],[139.651996,35.413334],[139.669216,35.403099],[139.689997,35.439341],[139.683992,35.44153],[139.677592,35.430779],[139.674827,35.445907],[139.665052,35.433738],[139.67372,35.449898],[139.659893,35.441787],[139.663766,35.450284],[139.651121,35.445457],[139.6482,35.453447],[139.644496,35.448474],[139.633412,35.452264],[139.637561,35.452916],[139.644555,35.450984],[139.637845,35.463931],[139.624173,35.463674],[139.640827,35.47212],[139.652567,35.463685],[139.655497,35.470309],[139.640998,35.472608],[139.651221,35.4812],[139.668777,35.477514],[139.663626,35.486805],[139.670614,35.489646],[139.668144,35.467864],[139.681294,35.473394],[139.676553,35.491204],[139.670633,35.489653],[139.679978,35.505624],[139.679673,35.488629],[139.689002,35.478802],[139.688219,35.49141],[139.697428,35.490732],[139.695906,35.484048],[139.717442,35.493682],[139.710711,35.504165],[139.721622,35.508499],[139.713505,35.503085],[139.719382,35.494573],[139.730795,35.499165],[139.729576,35.511417],[139.723203,35.510177],[139.729926,35.515471],[139.737116,35.514207],[139.73351,35.500871],[139.748083,35.506911],[139.746131,35.51558],[139.73795,35.515003],[139.751087,35.524077],[139.751253,35.509722],[139.764702,35.51167],[139.750925,35.531845],[139.766587,35.537038],[139.713839,35.537294],[139.723006,35.544018],[139.754464,35.546136],[139.794565,35.532167],[139.808803,35.538476],[139.785053,35.57049],[139.763424,35.56062],[139.756719,35.563817],[139.752662,35.553174],[139.741966,35.574927],[139.751433,35.577125],[139.747084,35.589638],[139.736718,35.587977],[139.745986,35.590489],[139.75245,35.634778],[139.759983,35.636843],[139.762559,35.657103],[139.785914,35.675201],[139.788027,35.695485],[139.810267,35.733074],[139.808433,35.719397],[139.789093,35.694356],[139.793723,35.683594],[139.78772,35.67272],[139.792194,35.653054],[139.77558,35.642395],[139.79782,35.648127],[139.796084,35.643342],[139.778404,35.637398],[139.794091,35.614074],[139.788891,35.628389],[139.801813,35.626288],[139.803759,35.653129],[139.837794,35.656214],[139.841407,35.649642],[139.854456,35.694258],[139.853889,35.703487],[139.810081,35.754761],[139.765067,35.758288],[139.742431,35.779627],[139.758795,35.770004],[139.768075,35.759125],[139.799956,35.760798],[139.810022,35.757537],[139.853979,35.709407],[139.85822,35.69355],[139.849102,35.675526],[139.848181,35.66035],[139.850291,35.676706],[139.858304,35.689861],[139.859604,35.698857],[139.856976,35.707194],[139.843004,35.721681],[139.842058,35.726058],[139.854687,35.73171],[139.851667,35.73646],[139.86229,35.749032],[139.860565,35.736615],[139.853411,35.737112],[139.856156,35.730642],[139.843261,35.724369],[139.857018,35.709072],[139.86096,35.698968],[139.849252,35.642937],[139.870336,35.639034],[139.882336,35.64618],[139.886706,35.663122],[139.884666,35.644477],[139.872117,35.625781],[139.892313,35.62554],[139.897066,35.617043],[139.906213,35.623222],[139.894511,35.634472],[139.909421,35.624671],[139.939121,35.64041],[139.917795,35.655377],[139.947147,35.669716],[139.928844,35.670585],[139.942386,35.678127],[139.925483,35.702269],[139.93248,35.699882],[139.952299,35.671846],[139.957605,35.677047],[139.952795,35.688813],[139.959115,35.679608],[139.976185,35.688046],[139.982795,35.681909],[139.985288,35.690248],[139.986331,35.684066],[139.983443,35.677333],[139.991076,35.673884],[139.985758,35.664271],[140.001681,35.665505],[140.002408,35.660076],[139.986457,35.660237],[139.986952,35.65454],[140.013394,35.657531],[140.083005,35.596703],[140.082029,35.613363],[140.099738,35.604694],[140.088809,35.594759],[140.101611,35.594115],[140.105834,35.602527],[140.106397,35.592441],[140.11667,35.596387],[140.11224,35.57267],[140.10302,35.587268],[140.082088,35.588744],[140.085819,35.569712],[140.126346,35.568519],[140.090544,35.564922],[140.114913,35.551855],[140.116019,35.539726],[140.109574,35.544191],[140.111305,35.550623],[140.087947,35.552113],[140.099405,35.539501],[140.097941,35.529994],[140.07383,35.550234],[140.067922,35.547638],[140.079587,35.530844],[140.080118,35.520922],[140.076359,35.532986],[140.059958,35.543658],[140.052587,35.535321],[140.058742,35.529126],[140.0493,35.531223],[140.036876,35.516578],[140.044888,35.510463],[140.03377,35.512586],[140.025512,35.502369],[140.033708,35.493726],[140.021529,35.497674],[140.019816,35.487138],[140.010711,35.484231],[140.021585,35.467709],[140.007256,35.47931],[139.997943,35.474565],[140.000986,35.466894],[139.988648,35.470219],[139.997317,35.457546],[139.991553,35.450295],[139.98881,35.45449],[139.991787,35.457258],[139.982162,35.475197],[139.964878,35.468899],[139.971975,35.447294],[139.954849,35.443875],[139.953112,35.45299],[139.956969,35.447902],[139.964827,35.452955],[139.953094,35.457016],[139.949548,35.442043],[139.903717,35.431613],[139.896043,35.41036],[139.90697,35.415333],[139.900866,35.401337],[139.90556,35.389809],[139.918143,35.385793],[139.913875,35.37705],[139.898646,35.375843],[139.905327,35.369182],[139.889081,35.371627],[139.895728,35.358304],[139.845835,35.374985],[139.839854,35.366027],[139.858395,35.348051],[139.830885,35.35239],[139.823437,35.343124],[139.839317,35.334282],[139.81658,35.324153],[139.818621,35.316156],[139.784273,35.31321],[139.846388,35.290851],[139.853223,35.284467],[139.847466,35.271345],[139.869582,35.24022],[139.870423,35.214658],[139.860998,35.217297],[139.830752,35.203775],[139.816133,35.172029],[139.822173,35.165355],[139.818497,35.15463],[139.830576,35.148306],[139.839416,35.130409],[139.824478,35.101259],[139.836463,35.098746],[139.842585,35.084172],[139.819223,35.065821],[139.832174,35.043249],[139.810578,35.038254],[139.852861,35.023401],[139.858751,35.000895],[139.849415,34.985461],[139.830916,34.991045],[139.819981,34.978244],[139.788846,34.97274],[139.754707,34.977763],[139.753704,34.963458],[139.813722,34.941866],[139.827225,34.927835],[139.823298,34.910559],[139.843175,34.902222],[139.866534,34.907336],[139.888417,34.898996],[139.893155,34.906015],[139.926404,34.909167],[139.963623,34.94207],[139.959455,34.966471],[139.985371,35.016917],[140.034516,35.050476],[140.055231,35.059343],[140.073154,35.05627],[140.085523,35.073761],[140.098439,35.074322],[140.099336,35.089548],[140.108241,35.090811],[140.111238,35.094487],[140.105386,35.092056],[140.105453,35.102556],[140.126396,35.119228],[140.150437,35.116515],[140.16835,35.123479],[140.182055,35.117411],[140.19083,35.127473],[140.201396,35.108856],[140.237148,35.116652],[140.234939,35.121588],[140.257932,35.137933],[140.273438,35.137835],[140.274528,35.130424],[140.285628,35.133926],[140.298515,35.151039],[140.312233,35.147152],[140.311011,35.134854],[140.326097,35.139093],[140.333345,35.164141],[140.350262,35.181444],[140.371707,35.178658],[140.384994,35.187807],[140.406143,35.237867],[140.399144,35.270262],[140.407981,35.295388],[140.389639,35.304801],[140.40894,35.296614],[140.415338,35.30561],[140.395972,35.332031],[140.391356,35.391732],[140.3867,35.383246],[140.414042,35.471293],[140.445484,35.522225],[140.461787,35.535187],[140.458061,35.541054],[140.465228,35.536171],[140.463397,35.543821],[140.530888,35.611453],[140.65607,35.688868],[140.70445,35.701722],[140.750002,35.692875],[140.824494,35.713449],[140.865497,35.692281],[140.866149,35.733814],[140.872052,35.739149],[140.881587,35.730004],[140.861486,35.752755],[140.860785,35.74859],[140.863867,35.744045],[140.87042,35.739323],[140.861614,35.744357],[140.839816,35.733586],[140.811136,35.737951],[140.730536,35.788429],[140.715097,35.822138],[140.698102,35.83912],[140.621557,35.859375],[140.55668,35.902159],[140.513671,35.897909],[140.458584,35.916521],[140.420859,35.905047],[140.390328,35.906748],[140.36228,35.89679],[140.320338,35.863067],[140.27853,35.872399],[140.249064,35.860705],[140.275965,35.873215],[140.283066,35.873756],[140.307707,35.866101],[140.320345,35.866598],[140.356994,35.89784],[140.399632,35.911243],[140.423367,35.908232],[140.462482,35.919951],[140.509531,35.903747],[140.557642,35.906778],[140.625,35.861886],[140.679049,35.851427],[140.713388,35.836523],[140.733629,35.794863],[140.808403,35.74948],[140.838629,35.741101],[140.849026,35.743754],[140.845994,35.743296],[140.848871,35.747139],[140.849753,35.750419],[140.846304,35.754695],[140.845969,35.752936],[140.848753,35.747626],[140.84269,35.746853],[140.827207,35.756807],[140.742356,35.863146],[140.739283,35.879897],[140.706815,35.924379],[140.711053,35.926394],[140.712509,35.955043],[140.710402,35.927004],[140.676342,35.910297],[140.689861,35.8828],[140.675132,35.897811],[140.662226,35.926521],[140.677622,35.918937],[140.700927,35.937853],[140.681444,35.971245],[140.673089,35.966066],[140.608491,36.087247],[140.563465,36.221947],[140.559359,36.291156],[140.568527,36.308413],[140.586923,36.311587],[140.595644,36.334784],[140.583464,36.336579],[140.5519,36.35935],[140.51928,36.369439],[140.54942,36.362408],[140.588876,36.337054],[140.605208,36.342312],[140.621719,36.362314],[140.626998,36.381434],[140.615986,36.386719],[140.607648,36.427052],[140.624873,36.431308],[140.624803,36.44154],[140.607843,36.440639],[140.614287,36.468303],[140.613405,36.480546],[140.605735,36.482275],[140.618643,36.482761],[140.611562,36.486219],[140.628211,36.495606],[140.653219,36.573258],[140.688018,36.620368],[140.696435,36.648638],[140.716831,36.66257],[140.716784,36.694234],[140.748102,36.784507],[140.772734,36.82301],[140.805228,36.830436],[140.789333,36.870029],[140.810967,36.904247],[140.79359,36.911966],[140.804052,36.912859],[140.812348,36.906136],[140.826713,36.912917],[140.841738,36.909212],[140.851832,36.91926],[140.872728,36.922582],[140.871518,36.934986],[140.881415,36.928181],[140.883702,36.937301],[140.903074,36.944762],[140.925503,36.935523],[140.937176,36.952672],[140.951601,36.955078],[140.949768,36.96111],[140.969682,36.973322],[140.96857,36.984748],[140.981072,36.994872],[140.984081,37.010751],[140.973155,37.016802],[140.973492,37.050899],[140.984426,37.093668],[140.999421,37.110605],[140.997998,37.135812],[141.00556,37.144589],[141.000347,37.149559],[141.005559,37.14787],[141.004982,37.20719],[141.013021,37.228139],[141.022948,37.229179],[141.02816,37.236918],[141.017742,37.230431],[141.021268,37.239867],[141.013173,37.241482],[141.025634,37.312919],[141.039431,37.318593],[141.028429,37.314258],[141.02809,37.321609],[141.036423,37.319158],[141.025766,37.32489]]]]}}
