{"type":"Feature","properties":{"mrgid":17706,"name":"Loch Fyne","placeType":"Inlet","source":"MarineRegions:world_bay_gulf"},"geometry":{"type":"Polygon","coordinates":[[[-5.206654,55.825342],[-5.226622,55.83773],[-5.249349,55.840424],[-5.257689,55.851936],[-5.272321,55.846707],[-5.289388,55.8494],[-5.291479,55.856379],[-5.312907,55.852211],[-5.30452,55.855054],[-5.317734,55.857248],[-5.310145,55.869708],[-5.321019,55.875372],[-5.314624,55.877372],[-5.353106,55.89313],[-5.352581,55.900716],[-5.344806,55.902539],[-5.351995,55.907835],[-5.343735,55.917403],[-5.34879,55.926869],[-5.330337,55.956677],[-5.346887,55.966392],[-5.342164,55.995673],[-5.302326,56.022764],[-5.291297,56.046999],[-5.264955,56.07091],[-5.205003,56.10734],[-5.211408,56.116538],[-5.202913,56.128417],[-5.100454,56.156451],[-5.080297,56.167429],[-5.084672,56.175354],[-5.061049,56.207564],[-4.978134,56.237752],[-4.926425,56.266923],[-5.041024,56.233574],[-5.054379,56.246472],[-5.104749,56.201669],[-5.106462,56.182678],[-5.120237,56.168012],[-5.19376,56.149034],[-5.236846,56.128294],[-5.25476,56.112532],[-5.257095,56.096949],[-5.282887,56.088824],[-5.307397,56.060169],[-5.320408,56.058724],[-5.323259,56.067894],[-5.333389,56.067814],[-5.33603,56.062885],[-5.325742,56.057477],[-5.340068,56.0505],[-5.337309,56.032724],[-5.344149,56.022338],[-5.365222,56.021893],[-5.380619,56.004395],[-5.394166,56.007063],[-5.407296,56.000793],[-5.428263,56.0113],[-5.430568,56.034568],[-5.441485,56.034261],[-5.450103,56.006382],[-5.443077,55.973529],[-5.449667,55.971892],[-5.428357,55.947075],[-5.417408,55.893677],[-5.40288,55.888693],[-5.410963,55.888029],[-5.394842,55.86945],[-5.412249,55.864718],[-5.384677,55.862587],[-5.332198,55.819186],[-5.314169,55.785117],[-5.326304,55.763868],[-5.206654,55.825342]],[[-5.289489,55.846581],[-5.289373,55.848809],[-5.28687,55.847446],[-5.289489,55.846581]],[[-5.307509,55.846683],[-5.310922,55.848642],[-5.309832,55.849051],[-5.307509,55.846683]],[[-5.330266,55.870944],[-5.332636,55.870737],[-5.332342,55.872252],[-5.330266,55.870944]],[[-5.336396,55.880114],[-5.339754,55.881509],[-5.337742,55.882403],[-5.336396,55.880114]],[[-5.387598,55.997107],[-5.389848,55.997104],[-5.387917,56.000702],[-5.387598,55.997107]],[[-5.397635,55.997697],[-5.400725,55.997873],[-5.397499,56.003865],[-5.397635,55.997697]],[[-5.240746,56.099847],[-5.244468,56.099664],[-5.241174,56.102784],[-5.240746,56.099847]]]}}
