{"type":"Feature","properties":{"mrgid":18884,"name":"Gulf of Tehuantepec","placeType":"Gulf","source":"MarineRegions:world_bay_gulf"},"geometry":{"type":"Polygon","coordinates":[[[-91.35948,13.972215],[-91.535522,14.043661],[-91.532655,14.051825],[-91.553025,14.0521],[-91.611376,14.088309],[-91.597662,14.089765],[-91.609787,14.095351],[-91.59937,14.101974],[-91.605251,14.101071],[-91.606505,14.118135],[-91.610942,14.090212],[-91.718186,14.159647],[-91.783269,14.189215],[-91.777818,14.194942],[-91.794024,14.196138],[-91.807196,14.214257],[-91.856032,14.249899],[-91.848508,14.254486],[-91.861276,14.253445],[-91.957361,14.325789],[-91.945724,14.33869],[-91.959447,14.327203],[-91.974151,14.340567],[-91.962706,14.350439],[-91.968012,14.350701],[-91.975945,14.341308],[-91.987391,14.351483],[-91.981799,14.368109],[-91.96743,14.369377],[-91.981375,14.370516],[-91.992346,14.355094],[-92.045041,14.403743],[-92.08419,14.426397],[-92.094201,14.441873],[-92.109807,14.450614],[-92.098807,14.438512],[-92.105126,14.442392],[-92.175854,14.493799],[-92.174641,14.501979],[-92.18241,14.500666],[-92.176559,14.496717],[-92.187286,14.500751],[-92.183539,14.508575],[-92.19204,14.504877],[-92.22454,14.529419],[-92.220028,14.539118],[-92.226145,14.53062],[-92.321868,14.623575],[-92.404757,14.697465],[-92.410161,14.695329],[-92.401928,14.703905],[-92.394762,14.702913],[-92.403649,14.705181],[-92.401955,14.712602],[-92.411156,14.699233],[-92.430816,14.725424],[-92.520636,14.810831],[-92.515543,14.803637],[-92.633775,14.926944],[-92.635774,14.932255],[-92.630527,14.924626],[-92.617855,14.917465],[-92.622071,14.923516],[-92.6114,14.924668],[-92.598619,14.912542],[-92.596857,14.920243],[-92.607298,14.929372],[-92.627467,14.924281],[-92.630946,14.930385],[-92.64306,14.940415],[-92.637911,14.931916],[-92.854254,15.157011],[-92.84122,15.145272],[-92.851156,15.165499],[-92.840966,15.177837],[-92.832288,15.168836],[-92.821489,15.163826],[-92.81844,15.164017],[-92.816436,15.167407],[-92.813692,15.167326],[-92.773281,15.153502],[-92.803952,15.178927],[-92.804538,15.166495],[-92.815964,15.168077],[-92.819299,15.164385],[-92.824446,15.170439],[-92.831197,15.169298],[-92.844514,15.194381],[-92.853956,15.201601],[-92.843046,15.196453],[-92.849058,15.208653],[-92.864974,15.208901],[-92.842021,15.186638],[-92.84762,15.175135],[-92.870571,15.179137],[-92.889302,15.194814],[-92.870983,15.176986],[-92.863182,15.173846],[-92.86434,15.167159],[-92.95345,15.2523],[-92.955879,15.262812],[-92.957037,15.256115],[-93.040302,15.333726],[-93.044351,15.345028],[-93.063552,15.354174],[-93.229209,15.501831],[-93.162709,15.454635],[-93.223188,15.501376],[-93.221541,15.508911],[-93.234225,15.507267],[-93.31762,15.580397],[-93.277749,15.547763],[-93.310742,15.580886],[-93.400604,15.651026],[-93.42317,15.666155],[-93.39815,15.644139],[-93.68193,15.854074],[-93.517949,15.744309],[-93.52153,15.750715],[-93.533129,15.759285],[-93.544771,15.76389],[-93.550399,15.771161],[-93.565557,15.77792],[-93.572748,15.787824],[-93.67959,15.859362],[-93.714356,15.878856],[-93.6922,15.860521],[-93.831636,15.945331],[-93.938078,15.988593],[-93.927303,16.005333],[-93.91611,16.00877],[-93.909136,16.000618],[-93.896528,16.008202],[-93.893568,15.989369],[-93.883461,15.984383],[-93.859773,15.995668],[-93.85404,16.012664],[-93.869378,16.030216],[-93.874049,16.056892],[-93.899557,16.084821],[-93.937338,16.094252],[-93.984702,16.094514],[-94.008697,16.108427],[-94.037045,16.107068],[-94.085393,16.124323],[-94.115056,16.160368],[-94.110697,16.172776],[-94.123424,16.210699],[-94.117664,16.21979],[-94.123909,16.222816],[-94.139882,16.221881],[-94.168103,16.199249],[-94.21303,16.187062],[-94.242134,16.207574],[-94.283175,16.208591],[-94.301243,16.237592],[-94.319539,16.243789],[-94.336229,16.238021],[-94.352369,16.277028],[-94.379277,16.296596],[-94.41571,16.281309],[-94.410224,16.234844],[-94.428602,16.24638],[-94.441582,16.240091],[-94.440679,16.227565],[-94.409705,16.223146],[-94.386056,16.21222],[-94.422243,16.224001],[-94.443033,16.215847],[-94.398932,16.186818],[-94.396057,16.17731],[-94.335477,16.165303],[-94.291615,16.147056],[-94.29734,16.15763],[-94.351246,16.179273],[-94.25338,16.161302],[-94.234699,16.16617],[-94.222333,16.160118],[-94.22172,16.166628],[-94.219869,16.160661],[-94.187119,16.147356],[-94.156897,16.123207],[-94.171026,16.133416],[-94.16224,16.126131],[-94.163855,16.116953],[-94.206092,16.128483],[-94.069051,16.059267],[-94.093883,16.087583],[-94.138172,16.100659],[-94.131546,16.103101],[-94.093719,16.093704],[-94.093766,16.09776],[-94.066941,16.078212],[-94.056737,16.049001],[-94.033183,16.019434],[-93.978811,16.003144],[-93.969137,15.992839],[-94.057161,16.028467],[-94.238803,16.114645],[-94.361212,16.15305],[-94.526217,16.191213],[-94.725278,16.210997],[-94.719979,16.215548],[-94.730559,16.22974],[-94.62537,16.264682],[-94.61884,16.263396],[-94.619841,16.253599],[-94.6094,16.243721],[-94.621915,16.232534],[-94.632077,16.228335],[-94.653508,16.240872],[-94.677784,16.230036],[-94.668111,16.219475],[-94.635871,16.228457],[-94.628153,16.219973],[-94.612882,16.224999],[-94.613851,16.21364],[-94.567648,16.22191],[-94.571789,16.2391],[-94.591413,16.230388],[-94.558645,16.259159],[-94.561355,16.299868],[-94.571276,16.304658],[-94.585279,16.294434],[-94.609223,16.246594],[-94.61763,16.253243],[-94.617603,16.263592],[-94.623123,16.267215],[-94.594898,16.296329],[-94.58041,16.336336],[-94.59225,16.334155],[-94.617096,16.353638],[-94.614728,16.365646],[-94.620501,16.354361],[-94.675744,16.364874],[-94.725082,16.332168],[-94.733921,16.304636],[-94.776569,16.30073],[-94.791222,16.276401],[-94.801418,16.272603],[-94.816155,16.29561],[-94.787637,16.309985],[-94.771859,16.330802],[-94.798687,16.346624],[-94.805589,16.364021],[-94.816481,16.368637],[-94.82176,16.378284],[-94.812508,16.380215],[-94.806309,16.394202],[-94.823281,16.400697],[-94.824051,16.407828],[-94.838622,16.408237],[-94.841908,16.42899],[-94.861827,16.43192],[-94.881601,16.424662],[-94.880162,16.435593],[-94.88333,16.429467],[-94.883963,16.422066],[-94.928443,16.415605],[-94.954881,16.383788],[-94.972576,16.333705],[-95.030796,16.329885],[-95.053915,16.300859],[-95.065951,16.300051],[-95.065874,16.280722],[-95.027915,16.257321],[-94.952237,16.243304],[-94.864491,16.256639],[-94.845142,16.268829],[-94.866305,16.280415],[-94.861345,16.282822],[-94.832995,16.283348],[-94.816463,16.273602],[-94.83016,16.262847],[-94.841569,16.27023],[-94.839251,16.26269],[-94.848675,16.256459],[-94.927748,16.240853],[-94.989067,16.24417],[-95.073686,16.265904],[-95.104773,16.235601],[-95.078943,16.225793],[-95.042783,16.224918],[-94.871136,16.23603],[-94.819171,16.223137],[-94.766894,16.223742],[-94.770766,16.218289],[-94.760813,16.220123],[-94.763712,16.214182],[-94.747629,16.209127],[-94.8796,16.213449],[-95.071507,16.183902],[-95.139064,16.18995],[-95.154629,16.183637],[-95.167574,16.196575],[-95.169525,16.19114],[-95.15172,16.166826],[-95.193626,16.166042],[-95.194128,16.172991],[-95.203321,16.170781],[-95.198089,16.168796],[-95.198438,16.150484],[-95.198658,16.160009],[-95.212599,16.160009],[-95.213106,16.152692],[-95.215724,16.161453],[-95.224692,16.161763],[-95.251902,16.142591],[-95.273873,16.145647],[-95.274788,16.131377],[-95.270701,16.144125],[-95.246529,16.134544],[-95.274951,16.126113],[-95.282699,16.108423],[-95.275755,16.107873],[-95.285565,16.101912],[-95.354399,16.079033],[-95.378454,16.04474],[-95.367893,16.020293],[-95.423041,16.001523],[-95.435314,15.97589],[-95.471115,15.978564],[-95.44845,15.982248],[-95.454643,15.99323],[-95.458029,15.984097],[-95.471186,15.981036],[-95.492283,15.98725],[-95.496619,15.980591],[-95.472829,15.97896],[-95.492665,15.974531],[-95.497054,15.965223],[-95.533999,15.966249],[-95.52846,15.961734],[-95.575358,15.955671],[-95.554764,15.963823],[-95.575633,15.965125],[-95.58023,15.946715],[-95.606029,15.942798],[-95.61982,15.927371],[-95.636671,15.927493],[-95.661888,15.91232],[-95.772269,15.894503],[-95.781285,15.879714],[-95.776299,15.871024],[-95.782915,15.870366],[-95.790511,15.885182],[-95.803182,15.873876],[-95.784955,15.870599],[-95.830183,15.866174],[-95.880043,15.851773],[-95.890195,15.842264],[-95.96348,15.827356],[-95.968083,15.817437],[-96.004828,15.809102],[-96.0294,15.792068],[-96.054121,15.786795],[-96.063375,15.775732],[-96.072709,15.778515],[-96.075773,15.765831],[-96.094629,15.772994],[-96.099625,15.757498],[-96.121998,15.76016],[-96.123009,15.749564],[-96.130591,15.752925],[-96.126973,15.737385],[-96.145069,15.737492],[-96.151868,15.732531],[-96.145414,15.726291],[-96.15899,15.726458],[-96.19227,15.704263],[-96.202739,15.712422],[-96.207439,15.698995],[-96.238382,15.691271],[-96.238413,15.681679],[-96.34873,15.689627],[-96.36464,15.68145],[-96.374267,15.690101],[-96.426034,15.695272],[-96.453341,15.680569],[-96.465459,15.682595],[-96.481915,15.662943],[-96.495235,15.664844],[-96.494925,15.657671],[-96.523551,15.661372],[-91.35948,13.972215]],[[-95.193626,16.166042],[-95.193715,16.165159],[-95.195725,16.161597],[-95.193626,16.166042]],[[-92.852593,15.170167],[-92.853238,15.162753],[-92.860964,15.172779],[-92.852593,15.170167]],[[-92.856579,15.163709],[-92.860934,15.163879],[-92.863039,15.167014],[-92.856579,15.163709]],[[-92.85722,15.174242],[-92.853927,15.173651],[-92.853602,15.1724],[-92.85722,15.174242]],[[-93.321589,15.584067],[-93.327322,15.585366],[-93.393595,15.640384],[-93.321589,15.584067]],[[-96.228014,15.684978],[-96.231268,15.684578],[-96.231439,15.687542],[-96.228014,15.684978]],[[-96.160059,15.717935],[-96.161837,15.716634],[-96.163972,15.71844],[-96.160059,15.717935]],[[-96.11723,15.747316],[-96.1203,15.746972],[-96.118976,15.748365],[-96.11723,15.747316]],[[-96.0824,15.763825],[-96.083743,15.762056],[-96.085052,15.762748],[-96.0824,15.763825]],[[-95.574165,15.940698],[-95.576731,15.938352],[-95.577683,15.939718],[-95.574165,15.940698]],[[-94.111601,16.11727],[-94.117051,16.12441],[-94.127463,16.127639],[-94.113552,16.126069],[-94.111601,16.11727]],[[-94.15243,16.117651],[-94.156202,16.121416],[-94.15457,16.122088],[-94.15243,16.117651]],[[-94.134125,16.121652],[-94.129636,16.120463],[-94.129713,16.12019],[-94.134125,16.121652]],[[-94.210855,16.172275],[-94.205573,16.165271],[-94.246593,16.187509],[-94.210855,16.172275]],[[-94.263924,16.167102],[-94.267849,16.16899],[-94.266974,16.170388],[-94.263924,16.167102]],[[-94.353489,16.182939],[-94.358417,16.176412],[-94.36876,16.183774],[-94.361923,16.185517],[-94.353489,16.182939]],[[-94.35939,16.192368],[-94.365043,16.189474],[-94.368948,16.197495],[-94.35939,16.192368]],[[-94.368109,16.206488],[-94.371524,16.217055],[-94.378076,16.213488],[-94.373722,16.217834],[-94.357632,16.223565],[-94.341103,16.216185],[-94.362433,16.22079],[-94.346409,16.212361],[-94.368109,16.206488]],[[-94.731386,16.207705],[-94.742493,16.211507],[-94.734378,16.212805],[-94.731386,16.207705]],[[-94.753446,16.213282],[-94.754666,16.213964],[-94.753402,16.218723],[-94.753446,16.213282]],[[-94.745138,16.214954],[-94.744938,16.217964],[-94.740454,16.215858],[-94.745138,16.214954]],[[-94.731707,16.22339],[-94.731441,16.219077],[-94.737633,16.223127],[-94.731707,16.22339]],[[-94.598833,16.227861],[-94.597866,16.223535],[-94.601106,16.227167],[-94.598833,16.227861]],[[-94.851295,16.327687],[-94.851429,16.327569],[-94.854759,16.329939],[-94.851295,16.327687]],[[-94.906235,16.339543],[-94.897905,16.346261],[-94.895271,16.342107],[-94.906235,16.339543]],[[-94.916464,16.340164],[-94.919481,16.341447],[-94.917957,16.342548],[-94.916464,16.340164]],[[-94.909043,16.343739],[-94.908317,16.344756],[-94.906945,16.342803],[-94.909043,16.343739]],[[-94.878821,16.353173],[-94.853031,16.34528],[-94.872756,16.348797],[-94.873775,16.33777],[-94.878821,16.353173]],[[-94.846695,16.35388],[-94.845653,16.352234],[-94.846895,16.350962],[-94.846695,16.35388]],[[-94.832718,16.352417],[-94.82245,16.356181],[-94.815588,16.342454],[-94.828712,16.342526],[-94.832718,16.352417]],[[-94.847349,16.35893],[-94.849105,16.357805],[-94.849167,16.359492],[-94.847349,16.35893]],[[-94.821971,16.363684],[-94.826751,16.365699],[-94.824233,16.365631],[-94.821971,16.363684]],[[-94.868037,16.378627],[-94.865898,16.384208],[-94.863491,16.382056],[-94.868037,16.378627]]]}}
