{"type":"Feature","properties":{"mrgid":19209,"name":"Georgia","placeType":"State","source":"World:usa_states"},"geometry":{"type":"MultiPolygon","coordinates":[[[[-81.494875,30.735671],[-81.49499,30.73754],[-81.49641,30.733944],[-81.494875,30.735671]]],[[[-81.493523,30.741266],[-81.493757,30.741111],[-81.494415,30.738658],[-81.493523,30.741266]]],[[[-81.482259,30.760013],[-81.481559,30.75681],[-81.481407,30.75899],[-81.482259,30.760013]]],[[[-81.47248,30.77403],[-81.473805,30.775262],[-81.473395,30.773175],[-81.47248,30.77403]]],[[[-81.48241,30.761243],[-81.484734,30.776927],[-81.485118,30.775834],[-81.483987,30.771721],[-81.48362,30.766574],[-81.48241,30.761243]]],[[[-81.472887,30.780162],[-81.475914,30.782288],[-81.474686,30.777539],[-81.472887,30.780162]]],[[[-81.478279,30.78037],[-81.479762,30.782898],[-81.479646,30.782496],[-81.478279,30.78037]]],[[[-81.524538,30.814367],[-81.525339,30.81298],[-81.524678,30.812278],[-81.524538,30.814367]]],[[[-81.484172,30.819895],[-81.489308,30.811352],[-81.482298,30.796071],[-81.475744,30.813671],[-81.484172,30.819895]]],[[[-81.506832,30.828217],[-81.507089,30.823567],[-81.518308,30.817015],[-81.518654,30.806172],[-81.500197,30.794715],[-81.495502,30.799994],[-81.506832,30.828217]]],[[[-81.480969,30.836708],[-81.481996,30.838326],[-81.483092,30.834398],[-81.480969,30.836708]]],[[[-81.526914,30.839203],[-81.533616,30.836488],[-81.532121,30.835891],[-81.526914,30.839203]]],[[[-81.515026,30.839],[-81.509342,30.836749],[-81.509621,30.837299],[-81.515026,30.839]]],[[[-81.501406,30.84044],[-81.498397,30.839282],[-81.499306,30.840119],[-81.501406,30.84044]]],[[[-81.48901,30.840133],[-81.492219,30.841027],[-81.491713,30.840172],[-81.48901,30.840133]]],[[[-81.49814,30.841091],[-81.497377,30.839612],[-81.495862,30.839059],[-81.49814,30.841091]]],[[[-81.516177,30.841955],[-81.517077,30.841759],[-81.515176,30.839272],[-81.516177,30.841955]]],[[[-81.50646,30.842389],[-81.517197,30.842076],[-81.515364,30.841991],[-81.513441,30.841143],[-81.509284,30.838315],[-81.495903,30.822844],[-81.493001,30.835],[-81.50646,30.842389]]],[[[-81.507848,30.843387],[-81.502277,30.841783],[-81.502904,30.842962],[-81.507848,30.843387]]],[[[-81.4749,30.842971],[-81.478057,30.844642],[-81.481303,30.839112],[-81.4749,30.842971]]],[[[-81.537146,30.844951],[-81.53741,30.845726],[-81.537504,30.844596],[-81.537146,30.844951]]],[[[-81.505233,30.846144],[-81.500481,30.845994],[-81.50115,30.84641],[-81.505233,30.846144]]],[[[-81.537857,30.847275],[-81.539168,30.847823],[-81.539193,30.841215],[-81.537857,30.847275]]],[[[-81.539237,30.849056],[-81.539272,30.848214],[-81.53822,30.848553],[-81.539237,30.849056]]],[[[-81.481575,30.847146],[-81.484554,30.851979],[-81.484208,30.849499],[-81.484705,30.847673],[-81.481575,30.847146]]],[[[-81.537211,30.850144],[-81.534133,30.837169],[-81.52267,30.843645],[-81.537211,30.850144]]],[[[-81.471521,30.908115],[-81.495139,30.903344],[-81.496861,30.892758],[-81.511355,30.882295],[-81.4784,30.850541],[-81.469047,30.860215],[-81.481345,30.869577],[-81.481755,30.861987],[-81.495062,30.867186],[-81.497894,30.871438],[-81.497467,30.876661],[-81.486868,30.883329],[-81.447416,30.894208],[-81.471521,30.908115]]],[[[-81.492331,30.9674],[-81.493158,30.966472],[-81.489128,30.966635],[-81.492331,30.9674]]],[[[-81.466196,30.970839],[-81.487942,30.956513],[-81.507505,30.961579],[-81.497009,30.943261],[-81.506916,30.934467],[-81.50018,30.92359],[-81.491307,30.930306],[-81.483102,30.93241],[-81.466522,30.925115],[-81.444271,30.94632],[-81.449559,30.965774],[-81.466196,30.970839]]],[[[-81.409202,30.975603],[-81.417697,30.975593],[-81.431761,30.935971],[-81.462737,30.911767],[-81.44648,30.9003],[-81.447421,30.8878],[-81.497122,30.874591],[-81.493962,30.86759],[-81.480431,30.871075],[-81.466447,30.859056],[-81.477272,30.845184],[-81.473625,30.84188],[-81.473146,30.836685],[-81.479016,30.821989],[-81.469102,30.812353],[-81.479912,30.794456],[-81.468339,30.775863],[-81.482302,30.73578],[-81.470552,30.719583],[-81.455218,30.714027],[-81.447769,30.71756],[-81.458734,30.747732],[-81.457179,30.780595],[-81.404724,30.90281],[-81.409202,30.975603]]],[[[-81.456841,31.016711],[-81.451735,31.013876],[-81.451657,31.016982],[-81.456841,31.016711]]],[[[-81.4734,31.033306],[-81.473535,31.03312],[-81.473024,31.033164],[-81.4734,31.033306]]],[[[-81.475316,31.034519],[-81.475296,31.034608],[-81.47625,31.033866],[-81.475316,31.034519]]],[[[-81.473982,31.034308],[-81.473659,31.035034],[-81.475976,31.033665],[-81.473982,31.034308]]],[[[-81.475325,31.035069],[-81.474626,31.036272],[-81.478011,31.034533],[-81.475325,31.035069]]],[[[-81.48049,31.036086],[-81.476299,31.036815],[-81.476386,31.036926],[-81.48049,31.036086]]],[[[-81.422854,31.040567],[-81.422995,31.040678],[-81.423781,31.039524],[-81.422854,31.040567]]],[[[-81.454995,31.053631],[-81.458724,31.054336],[-81.458748,31.052305],[-81.45847,31.05218],[-81.457629,31.053045],[-81.456997,31.053202],[-81.455294,31.052043],[-81.454995,31.053631]]],[[[-81.4461,31.083994],[-81.446861,31.083749],[-81.446701,31.083234],[-81.4461,31.083994]]],[[[-81.409958,31.12049],[-81.418209,31.116248],[-81.420522,31.101421],[-81.440084,31.091086],[-81.429523,31.088335],[-81.419536,31.035951],[-81.433523,31.031166],[-81.432879,31.012711],[-81.419845,31.019748],[-81.403747,31.066749],[-81.409958,31.12049]]],[[[-81.420232,31.181894],[-81.429842,31.162444],[-81.428354,31.159802],[-81.409973,31.171892],[-81.420232,31.181894]]],[[[-81.297848,31.211875],[-81.302217,31.209504],[-81.301486,31.209535],[-81.297848,31.211875]]],[[[-81.277518,31.212931],[-81.279571,31.213756],[-81.278452,31.212129],[-81.277518,31.212931]]],[[[-81.429256,31.212079],[-81.440808,31.210124],[-81.443675,31.204652],[-81.435928,31.202388],[-81.429256,31.212079]]],[[[-81.271836,31.217948],[-81.272262,31.218155],[-81.272236,31.217834],[-81.271836,31.217948]]],[[[-81.281992,31.226151],[-81.282566,31.22597],[-81.282474,31.22569],[-81.281992,31.226151]]],[[[-81.26152,31.239946],[-81.262363,31.239929],[-81.262441,31.239391],[-81.26152,31.239946]]],[[[-81.38518,31.24553],[-81.394055,31.25878],[-81.395521,31.249686],[-81.399094,31.246147],[-81.420094,31.246494],[-81.422559,31.233978],[-81.433182,31.224522],[-81.424222,31.211176],[-81.42815,31.194668],[-81.422498,31.190565],[-81.413397,31.203976],[-81.397076,31.204733],[-81.403371,31.214918],[-81.394464,31.222104],[-81.399906,31.224339],[-81.399668,31.239204],[-81.395991,31.241937],[-81.39119,31.239478],[-81.389703,31.242874],[-81.38518,31.24553]]],[[[-81.395466,31.259244],[-81.392054,31.268234],[-81.394656,31.272004],[-81.402966,31.260009],[-81.395466,31.259244]]],[[[-81.382494,31.283274],[-81.381516,31.283711],[-81.382539,31.284387],[-81.382871,31.285221],[-81.382753,31.290212],[-81.386557,31.291576],[-81.386876,31.29049],[-81.382494,31.283274]]],[[[-81.284667,31.299861],[-81.286028,31.29977],[-81.285841,31.298945],[-81.284667,31.299861]]],[[[-81.274656,31.303365],[-81.273054,31.304007],[-81.277513,31.303802],[-81.274656,31.303365]]],[[[-81.269916,31.303701],[-81.271384,31.304527],[-81.271198,31.30361],[-81.269916,31.303701]]],[[[-81.391892,31.3063],[-81.391534,31.307098],[-81.393312,31.30589],[-81.391892,31.3063]]],[[[-81.283437,31.307195],[-81.287147,31.307746],[-81.284558,31.306049],[-81.283437,31.307195]]],[[[-81.272502,31.310225],[-81.276069,31.30851],[-81.269247,31.305359],[-81.272502,31.310225]]],[[[-81.318338,31.310754],[-81.318916,31.311074],[-81.318792,31.310708],[-81.318338,31.310754]]],[[[-81.267152,31.312485],[-81.268833,31.312187],[-81.268406,31.31182],[-81.267152,31.312485]]],[[[-81.320748,31.312494],[-81.321585,31.312677],[-81.321512,31.310777],[-81.320748,31.312494]]],[[[-81.333429,31.310103],[-81.333297,31.307674],[-81.321436,31.309573],[-81.333429,31.310103]]],[[[-81.314072,31.313674],[-81.314484,31.31399],[-81.314364,31.313491],[-81.314072,31.313674]]],[[[-81.384398,31.314058],[-81.394383,31.300652],[-81.39417,31.292667],[-81.384965,31.285831],[-81.387357,31.290971],[-81.386859,31.29178],[-81.385693,31.292178],[-81.383819,31.291721],[-81.382571,31.290485],[-81.381863,31.288505],[-81.382548,31.285018],[-81.38062,31.282796],[-81.393586,31.261215],[-81.384014,31.245948],[-81.390445,31.239025],[-81.398846,31.238572],[-81.392776,31.222485],[-81.40146,31.21536],[-81.395237,31.204604],[-81.41215,31.202656],[-81.417808,31.189672],[-81.407706,31.174348],[-81.418092,31.158131],[-81.414843,31.143226],[-81.394874,31.133706],[-81.368083,31.145872],[-81.32075,31.206212],[-81.291472,31.217294],[-81.269688,31.260976],[-81.279815,31.27087],[-81.282993,31.290383],[-81.299323,31.291304],[-81.317749,31.307706],[-81.331954,31.30543],[-81.384398,31.314058]],[[-81.379656,31.270453],[-81.379789,31.270705],[-81.378978,31.270336],[-81.379656,31.270453]]],[[[-81.318692,31.312487],[-81.311404,31.307942],[-81.312501,31.311053],[-81.318692,31.312487]]],[[[-81.314992,31.314226],[-81.315523,31.314256],[-81.315279,31.313687],[-81.314992,31.314226]]],[[[-81.314225,31.314836],[-81.295507,31.292556],[-81.292855,31.305065],[-81.314225,31.314836]]],[[[-81.30018,31.315063],[-81.29851,31.314483],[-81.299358,31.314918],[-81.30018,31.315063]]],[[[-81.300375,31.315771],[-81.295773,31.314118],[-81.296237,31.31459],[-81.300375,31.315771]]],[[[-81.376178,31.314628],[-81.38006,31.315427],[-81.379696,31.314785],[-81.376178,31.314628]]],[[[-81.32446,31.317435],[-81.33069,31.316839],[-81.33383,31.313728],[-81.329975,31.312359],[-81.32446,31.317435]]],[[[-81.369524,31.315061],[-81.368442,31.315236],[-81.370222,31.317711],[-81.369524,31.315061]]],[[[-81.356601,31.322002],[-81.361645,31.320687],[-81.358047,31.31928],[-81.356601,31.322002]]],[[[-81.337601,31.31858],[-81.347817,31.323428],[-81.359935,31.318509],[-81.346874,31.314841],[-81.337601,31.31858]]],[[[-81.36888,31.329971],[-81.366862,31.324258],[-81.330316,31.32338],[-81.353531,31.325797],[-81.36888,31.329971]]],[[[-81.351219,31.330064],[-81.350765,31.330591],[-81.352767,31.329605],[-81.351219,31.330064]]],[[[-81.360384,31.330733],[-81.371957,31.330351],[-81.359882,31.328962],[-81.351095,31.326457],[-81.360384,31.330733]]],[[[-81.33867,31.332084],[-81.339178,31.331786],[-81.339017,31.331694],[-81.33867,31.332084]]],[[[-81.346188,31.332202],[-81.347942,31.331918],[-81.334912,31.330922],[-81.346188,31.332202]]],[[[-81.341848,31.332427],[-81.342622,31.33222],[-81.342301,31.33206],[-81.341848,31.332427]]],[[[-81.358028,31.332834],[-81.358696,31.332902],[-81.358642,31.332627],[-81.358028,31.332834]]],[[[-81.391799,31.335355],[-81.392333,31.335126],[-81.391986,31.334965],[-81.391799,31.335355]]],[[[-81.371829,31.335532],[-81.373738,31.334876],[-81.367116,31.333538],[-81.371829,31.335532]]],[[[-81.428552,31.336231],[-81.428824,31.336483],[-81.428846,31.336121],[-81.428552,31.336231]]],[[[-81.431984,31.336254],[-81.432756,31.336621],[-81.432099,31.335827],[-81.431984,31.336254]]],[[[-81.429071,31.336513],[-81.429391,31.336842],[-81.429382,31.336557],[-81.429071,31.336513]]],[[[-81.430163,31.337176],[-81.431121,31.337744],[-81.430557,31.336731],[-81.430163,31.337176]]],[[[-81.431892,31.337495],[-81.432868,31.337783],[-81.432318,31.33717],[-81.431892,31.337495]]],[[[-81.423667,31.33777],[-81.397901,31.336609],[-81.404622,31.338367],[-81.423667,31.33777]]],[[[-81.439079,31.341474],[-81.441321,31.344904],[-81.442732,31.341942],[-81.439079,31.341474]]],[[[-81.29075,31.353235],[-81.28791,31.351115],[-81.285112,31.352592],[-81.29075,31.353235]]],[[[-81.274073,31.361462],[-81.275248,31.362104],[-81.275435,31.361485],[-81.274073,31.361462]]],[[[-81.290411,31.361436],[-81.288298,31.360364],[-81.288023,31.363347],[-81.290411,31.361436]]],[[[-81.283694,31.36536],[-81.284958,31.36586],[-81.284612,31.364721],[-81.283694,31.36536]]],[[[-81.319033,31.36887],[-81.336663,31.360256],[-81.327257,31.34802],[-81.324921,31.33253],[-81.285991,31.324153],[-81.284841,31.345927],[-81.294288,31.354336],[-81.292148,31.365265],[-81.310603,31.365436],[-81.319033,31.36887]]],[[[-81.253162,31.372089],[-81.253208,31.372033],[-81.251512,31.371127],[-81.253162,31.372089]]],[[[-81.297956,31.37545],[-81.29799,31.372816],[-81.300653,31.368314],[-81.295327,31.368978],[-81.297956,31.37545]]],[[[-81.325574,31.46054],[-81.325634,31.455057],[-81.338074,31.446911],[-81.316784,31.430412],[-81.305901,31.443216],[-81.325574,31.46054]]],[[[-81.292979,31.482055],[-81.328044,31.476784],[-81.312251,31.45126],[-81.304348,31.449919],[-81.306424,31.457108],[-81.298584,31.462003],[-81.30082,31.46721],[-81.299825,31.473515],[-81.292979,31.482055]]],[[[-81.305034,31.485632],[-81.303647,31.487411],[-81.304313,31.487256],[-81.305034,31.485632]]],[[[-81.287004,31.535185],[-81.290441,31.534667],[-81.290229,31.534482],[-81.287004,31.535185]]],[[[-81.304038,31.5332],[-81.309049,31.535382],[-81.307654,31.534152],[-81.304038,31.5332]]],[[[-81.199805,31.536662],[-81.217985,31.527274],[-81.235315,31.530467],[-81.259979,31.497356],[-81.294605,31.487381],[-81.291162,31.480977],[-81.297596,31.461069],[-81.305136,31.456569],[-81.302536,31.440806],[-81.307569,31.423635],[-81.28179,31.380066],[-81.26838,31.384115],[-81.252743,31.422697],[-81.176084,31.516131],[-81.199805,31.536662]]],[[[-81.320977,31.541682],[-81.323011,31.542252],[-81.32251,31.541573],[-81.320977,31.541682]]],[[[-81.325708,31.545495],[-81.328606,31.54636],[-81.328516,31.545691],[-81.325708,31.545495]]],[[[-81.179467,31.569136],[-81.178844,31.570277],[-81.180167,31.568949],[-81.179467,31.569136]]],[[[-81.178866,31.570537],[-81.178975,31.571584],[-81.179797,31.569786],[-81.178866,31.570537]]],[[[-81.130535,31.630593],[-81.135689,31.632125],[-81.13391,31.630045],[-81.136019,31.625],[-81.135275,31.625117],[-81.130535,31.630593]]],[[[-81.217981,31.727372],[-81.224453,31.722762],[-81.189496,31.707154],[-81.217981,31.727372]]],[[[-81.223757,31.74119],[-81.223575,31.734871],[-81.217206,31.733184],[-81.216747,31.737989],[-81.223757,31.74119]]],[[[-81.226147,31.73953],[-81.229121,31.741405],[-81.228261,31.739279],[-81.226147,31.73953]]],[[[-81.254007,31.742032],[-81.244867,31.742005],[-81.22199,31.730946],[-81.235406,31.743413],[-81.254007,31.742032]]],[[[-81.264753,31.741388],[-81.259508,31.746314],[-81.255048,31.74772],[-81.27146,31.756098],[-81.276179,31.749463],[-81.264753,31.741388]]],[[[-81.2593,31.761411],[-81.266916,31.765677],[-81.261126,31.756278],[-81.2593,31.761411]]],[[[-81.265761,31.767624],[-81.267156,31.767877],[-81.266459,31.766685],[-81.265761,31.767624]]],[[[-81.266832,31.772689],[-81.267207,31.772804],[-81.267826,31.769091],[-81.266832,31.772689]]],[[[-81.275113,31.763107],[-81.269486,31.780596],[-81.27072,31.784045],[-81.275422,31.775515],[-81.275113,31.763107]]],[[[-81.311015,31.797998],[-81.313175,31.800647],[-81.313786,31.798559],[-81.311015,31.797998]]],[[[-81.313839,31.800242],[-81.314321,31.800958],[-81.314572,31.800551],[-81.313839,31.800242]]],[[[-81.080508,31.836932],[-81.077016,31.83574],[-81.076427,31.839336],[-81.080508,31.836932]]],[[[-81.081019,31.837425],[-81.081397,31.841619],[-81.089232,31.844171],[-81.081913,31.836275],[-81.081019,31.837425]]],[[[-81.121115,31.849633],[-81.136679,31.850499],[-81.145113,31.844868],[-81.140781,31.836735],[-81.154627,31.83752],[-81.158162,31.822149],[-81.139906,31.815248],[-81.17609,31.81593],[-81.180274,31.793069],[-81.161831,31.790092],[-81.158005,31.782036],[-81.171085,31.757124],[-81.150194,31.746557],[-81.13813,31.720258],[-81.081691,31.760581],[-81.036704,31.811357],[-81.042168,31.823852],[-81.063354,31.822312],[-81.081776,31.831649],[-81.092139,31.845296],[-81.121115,31.849633]]],[[[-81.13182,31.851915],[-81.135375,31.850707],[-81.127502,31.850609],[-81.13182,31.851915]]],[[[-81.128343,31.852297],[-81.122277,31.850842],[-81.123543,31.851276],[-81.128343,31.852297]]],[[[-81.122243,31.852563],[-81.124097,31.852261],[-81.122823,31.851356],[-81.122243,31.852563]]],[[[-81.119728,31.851569],[-81.117853,31.851766],[-81.119649,31.85276],[-81.119728,31.851569]]],[[[-81.16887,31.890958],[-81.163415,31.877359],[-81.161024,31.88584],[-81.16887,31.890958]]],[[[-81.177161,31.900109],[-81.179977,31.899785],[-81.17885,31.899307],[-81.177161,31.900109]]],[[[-80.965661,31.913673],[-80.965586,31.913417],[-80.96402,31.913068],[-80.965534,31.913645],[-80.965661,31.913673]]],[[[-80.877215,31.963293],[-80.876369,31.964277],[-80.878128,31.964064],[-80.877215,31.963293]]],[[[-83.108379,35.00056],[-83.620186,34.992092],[-83.619986,34.986592],[-85.605166,34.984679],[-85.42947,34.125097],[-85.184772,32.86219],[-85.154987,32.848271],[-85.168481,32.82839],[-85.16836,32.812327],[-85.122657,32.774425],[-85.136753,32.77104],[-85.142901,32.759718],[-85.133139,32.744632],[-85.11333,32.735752],[-85.122738,32.716033],[-85.117038,32.692034],[-85.087865,32.656554],[-85.104274,32.643398],[-85.082669,32.636904],[-85.09059,32.624405],[-85.067535,32.579546],[-85.007101,32.523869],[-84.996849,32.502399],[-84.996355,32.454739],[-84.972132,32.442258],[-84.964219,32.426707],[-84.980921,32.407383],[-84.968713,32.391784],[-84.983056,32.391877],[-84.988547,32.384516],[-84.972184,32.376875],[-84.985071,32.372981],[-84.98387,32.363013],[-85.004603,32.345335],[-85.005621,32.325314],[-84.934649,32.298917],[-84.888247,32.259671],[-84.901191,32.258375],[-84.907227,32.249051],[-84.924428,32.250151],[-84.912728,32.243351],[-84.928228,32.219852],[-84.973329,32.217651],[-84.980229,32.207752],[-84.964629,32.203552],[-84.963729,32.195852],[-85.011268,32.180493],[-85.061637,32.133345],[-85.044761,32.085838],[-85.055813,32.074439],[-85.05883,32.046956],[-85.048826,32.021702],[-85.06733,31.995558],[-85.06783,31.967358],[-85.08673,31.959159],[-85.07893,31.940159],[-85.113131,31.91186],[-85.112031,31.89476],[-85.134294,31.89151],[-85.128431,31.877561],[-85.141832,31.839262],[-85.131931,31.827062],[-85.132231,31.795163],[-85.141931,31.781963],[-85.125231,31.767064],[-85.129231,31.758664],[-85.118931,31.732664],[-85.125931,31.696265],[-85.079129,31.654767],[-85.086229,31.638567],[-85.05817,31.620228],[-85.057961,31.57084],[-85.041361,31.542496],[-85.044986,31.518231],[-85.071622,31.468385],[-85.065876,31.430587],[-85.075894,31.424928],[-85.077626,31.398881],[-85.092327,31.36405],[-85.083697,31.323847],[-85.089774,31.295026],[-85.114602,31.277334],[-85.096764,31.225651],[-85.107517,31.186451],[-85.098508,31.180154],[-85.100208,31.165491],[-85.076628,31.156928],[-85.054677,31.120819],[-85.035616,31.108192],[-85.028574,31.074583],[-85.011393,31.053547],[-84.999429,31.013844],[-85.005658,30.975618],[-84.982527,30.965586],[-84.983127,30.934787],[-84.934425,30.883588],[-84.939825,30.872589],[-84.925624,30.842689],[-84.937424,30.82089],[-84.918023,30.778091],[-84.920123,30.765991],[-84.913523,30.752291],[-84.896122,30.750591],[-84.864694,30.711543],[-83.499876,30.645672],[-82.214839,30.568591],[-82.23429,30.557856],[-82.240368,30.537663],[-82.226933,30.510282],[-82.201417,30.485164],[-82.210979,30.425003],[-82.19294,30.37878],[-82.161864,30.357118],[-82.105155,30.368881],[-82.065818,30.355644],[-82.036968,30.371993],[-82.043869,30.414651],[-82.034013,30.420273],[-82.039926,30.436793],[-82.016764,30.47546],[-82.019152,30.532885],[-82.005171,30.563723],[-82.012002,30.593937],[-82.027256,30.606633],[-82.028142,30.622151],[-82.049665,30.65915],[-82.044002,30.697978],[-82.035938,30.706428],[-82.045575,30.727698],[-82.038825,30.750965],[-82.011152,30.763074],[-82.022762,30.787831],[-82.007438,30.793167],[-81.977809,30.776694],[-81.962124,30.797098],[-81.964558,30.816962],[-81.958701,30.822287],[-81.938674,30.830121],[-81.928962,30.8177],[-81.909504,30.815788],[-81.9014,30.829769],[-81.891715,30.824252],[-81.882444,30.800152],[-81.868509,30.792894],[-81.806849,30.790118],[-81.796699,30.781632],[-81.792941,30.787262],[-81.78334,30.761965],[-81.771476,30.76426],[-81.77112,30.776533],[-81.762928,30.775929],[-81.719928,30.744634],[-81.694707,30.748483],[-81.672009,30.739126],[-81.670572,30.747241],[-81.683272,30.748277],[-81.662089,30.753705],[-81.663324,30.743335],[-81.652565,30.743105],[-81.650024,30.727535],[-81.637223,30.733835],[-81.630123,30.728235],[-81.624622,30.736335],[-81.622922,30.723236],[-81.611222,30.716136],[-81.601221,30.729536],[-81.595221,30.718136],[-81.57372,30.722336],[-81.562819,30.711936],[-81.548719,30.717936],[-81.539818,30.708736],[-81.531818,30.724036],[-81.499816,30.724463],[-81.490139,30.766268],[-81.496908,30.785499],[-81.517437,30.800291],[-81.528076,30.81628],[-81.508381,30.83027],[-81.519535,30.837559],[-81.540121,30.832354],[-81.541671,30.849232],[-81.558742,30.844923],[-81.567943,30.854164],[-81.560557,30.872198],[-81.577006,30.871775],[-81.564373,30.876047],[-81.557116,30.872488],[-81.558444,30.84845],[-81.530598,30.857756],[-81.519379,30.846956],[-81.505509,30.848594],[-81.485235,30.843627],[-81.487676,30.856644],[-81.516467,30.886774],[-81.496659,30.908571],[-81.469224,30.9225],[-81.481819,30.931122],[-81.496518,30.922324],[-81.502851,30.924078],[-81.507751,30.935059],[-81.499609,30.943896],[-81.533935,30.985825],[-81.569978,30.966359],[-81.589356,30.978734],[-81.607576,30.977202],[-81.616197,30.993179],[-81.64328,30.994835],[-81.648032,30.973691],[-81.648647,30.99506],[-81.614421,30.998627],[-81.604414,30.981133],[-81.582394,30.984831],[-81.568228,30.975008],[-81.555359,30.989005],[-81.527329,30.994993],[-81.5,30.973488],[-81.461023,30.99925],[-81.45526,31.026245],[-81.479795,31.027035],[-81.483401,31.038208],[-81.457643,31.048087],[-81.42896,31.038876],[-81.427871,31.044815],[-81.449912,31.047732],[-81.450294,31.051433],[-81.458864,31.052041],[-81.461345,31.056399],[-81.455981,31.064983],[-81.450683,31.06092],[-81.460329,31.054996],[-81.451213,31.055114],[-81.450188,31.053897],[-81.451472,31.052437],[-81.449226,31.051791],[-81.449271,31.049045],[-81.438566,31.050642],[-81.42765,31.045916],[-81.43299,31.080476],[-81.441205,31.089081],[-81.444927,31.078537],[-81.43723,31.079175],[-81.446579,31.071911],[-81.446889,31.072157],[-81.447101,31.075037],[-81.445111,31.081582],[-81.446235,31.082307],[-81.447656,31.078978],[-81.456282,31.073238],[-81.46354,31.072901],[-81.462428,31.073165],[-81.462813,31.074068],[-81.460654,31.075158],[-81.45752,31.074983],[-81.456517,31.073475],[-81.456176,31.075731],[-81.451204,31.078842],[-81.447924,31.079276],[-81.447645,31.083261],[-81.498076,31.113541],[-81.499872,31.129142],[-81.485291,31.129537],[-81.487283,31.124413],[-81.456788,31.109695],[-81.44571,31.115426],[-81.435565,31.13407],[-81.434277,31.164119],[-81.424609,31.177187],[-81.445534,31.206902],[-81.441745,31.212727],[-81.445963,31.21375],[-81.433326,31.213417],[-81.436058,31.227134],[-81.421815,31.248031],[-81.398224,31.248463],[-81.396318,31.256422],[-81.404648,31.258188],[-81.40776,31.265819],[-81.386884,31.276806],[-81.403115,31.28794],[-81.40218,31.305061],[-81.371495,31.323557],[-81.387299,31.331919],[-81.427483,31.333205],[-81.442096,31.338727],[-81.443494,31.345338],[-81.331473,31.332811],[-81.328382,31.3454],[-81.338125,31.359239],[-81.336358,31.370694],[-81.302416,31.368875],[-81.297853,31.377173],[-81.306074,31.375161],[-81.305973,31.39553],[-81.320164,31.402912],[-81.319157,31.416277],[-81.343927,31.440775],[-81.341436,31.449824],[-81.326077,31.456265],[-81.330116,31.479005],[-81.29165,31.495829],[-81.263302,31.516195],[-81.258562,31.528524],[-81.270967,31.53167],[-81.294804,31.522419],[-81.33236,31.547534],[-81.357049,31.530354],[-81.3679,31.551196],[-81.363648,31.550843],[-81.359989,31.547984],[-81.35408,31.532697],[-81.33513,31.550268],[-81.294556,31.535376],[-81.274344,31.551832],[-81.216688,31.557802],[-81.192719,31.577922],[-81.184999,31.569165],[-81.181591,31.573286],[-81.178601,31.572206],[-81.178733,31.566338],[-81.180824,31.56789],[-81.1803,31.572157],[-81.184458,31.565873],[-81.175641,31.55764],[-81.162185,31.569465],[-81.135119,31.621478],[-81.136915,31.625923],[-81.134381,31.657446],[-81.13879,31.661155],[-81.131105,31.696097],[-81.144103,31.699385],[-81.163995,31.69068],[-81.224564,31.718876],[-81.2252,31.722807],[-81.221726,31.728372],[-81.254001,31.74129],[-81.256072,31.746328],[-81.263118,31.737034],[-81.270055,31.739604],[-81.277047,31.749328],[-81.278325,31.763622],[-81.27349,31.789052],[-81.310174,31.787407],[-81.316226,31.802868],[-81.325374,31.800943],[-81.321161,31.808982],[-81.307874,31.801043],[-81.309511,31.789974],[-81.275682,31.797267],[-81.267173,31.790724],[-81.265271,31.783688],[-81.264661,31.768128],[-81.266029,31.766066],[-81.261926,31.76517],[-81.255065,31.757124],[-81.201964,31.735493],[-81.160566,31.728169],[-81.161009,31.740442],[-81.176505,31.758267],[-81.162333,31.784883],[-81.180253,31.789764],[-81.18357,31.797508],[-81.17857,31.816382],[-81.162743,31.822873],[-81.159689,31.836124],[-81.143992,31.853323],[-81.161061,31.863029],[-81.172373,31.896006],[-81.199532,31.89054],[-81.203315,31.895483],[-81.173899,31.904344],[-81.15703,31.890278],[-81.150307,31.866014],[-81.137707,31.859772],[-81.11021,31.867056],[-81.096184,31.858967],[-81.08613,31.862586],[-81.063069,31.846652],[-81.058909,31.856793],[-81.081548,31.861735],[-81.099644,31.894599],[-81.092116,31.898466],[-81.070406,31.876408],[-81.005695,31.869088],[-80.993897,31.857203],[-80.933322,31.907874],[-80.944665,31.913117],[-80.958465,31.90749],[-80.95857,31.909111],[-80.955209,31.910078],[-80.958276,31.910453],[-80.963192,31.913521],[-80.963904,31.913035],[-80.961082,31.911797],[-80.961437,31.909261],[-80.968041,31.9135],[-80.967432,31.908013],[-80.970125,31.908258],[-80.967814,31.908112],[-80.969216,31.909271],[-80.97013,31.91167],[-80.968404,31.913724],[-80.961417,31.911576],[-80.96615,31.913229],[-80.970034,31.916424],[-80.97708,31.925471],[-80.985124,31.926952],[-80.984522,31.937097],[-80.973109,31.937708],[-80.948828,31.957275],[-80.949358,31.964361],[-80.940138,31.965457],[-80.928127,31.948781],[-80.917449,31.95893],[-80.926308,31.941506],[-80.90931,31.950343],[-80.915944,31.944624],[-80.925983,31.940365],[-80.928441,31.941845],[-80.926361,31.938597],[-80.922948,31.939071],[-80.909274,31.946304],[-80.900247,31.957383],[-80.906439,31.957989],[-80.892768,31.963405],[-80.896371,31.971459],[-80.88717,31.969899],[-80.890693,31.977544],[-80.886516,31.969691],[-80.891141,31.967257],[-80.895563,31.971139],[-80.891696,31.96382],[-80.89861,31.957575],[-80.885311,31.965814],[-80.884751,31.965812],[-80.884231,31.964659],[-80.888927,31.960124],[-80.890675,31.959674],[-80.893311,31.960533],[-80.898778,31.954864],[-80.874787,31.965889],[-80.874756,31.985344],[-80.873452,31.98429],[-80.873741,31.982458],[-80.871233,31.981693],[-80.872757,31.966238],[-80.876814,31.961757],[-80.897853,31.95121],[-80.881779,31.958023],[-80.863715,31.9709],[-80.847723,31.989571],[-80.842291,32.022363],[-80.852463,32.028445],[-80.88098,32.016515],[-80.879149,32.030655],[-80.89259,32.044022],[-80.942777,32.057571],[-80.983134,32.07961],[-81.002298,32.100048],[-81.033923,32.085816],[-81.053226,32.085744],[-81.086191,32.101005],[-81.091175,32.110902],[-81.117234,32.117605],[-81.119344,32.142314],[-81.112234,32.150804],[-81.129635,32.165603],[-81.121134,32.174903],[-81.111134,32.172703],[-81.120328,32.177847],[-81.122058,32.191047],[-81.113695,32.194732],[-81.122018,32.195394],[-81.138893,32.219463],[-81.152059,32.22204],[-81.143675,32.229799],[-81.156587,32.243911],[-81.146261,32.250199],[-81.145835,32.263398],[-81.137235,32.265498],[-81.141755,32.272049],[-81.123034,32.275597],[-81.122533,32.306196],[-81.133235,32.308263],[-81.131372,32.321675],[-81.138097,32.327524],[-81.128446,32.340028],[-81.143926,32.351415],[-81.160312,32.340564],[-81.154715,32.349953],[-81.173856,32.362473],[-81.167429,32.368074],[-81.181832,32.379292],[-81.17786,32.392219],[-81.205281,32.42328],[-81.208531,32.436988],[-81.19923,32.443787],[-81.20563,32.451493],[-81.19246,32.452533],[-81.186165,32.463659],[-81.233585,32.498488],[-81.238729,32.508896],[-81.23286,32.516067],[-81.252883,32.51833],[-81.279694,32.536386],[-81.280065,32.555636],[-81.289529,32.551318],[-81.291697,32.56293],[-81.296042,32.553341],[-81.297955,32.563026],[-81.328754,32.561228],[-81.355619,32.571408],[-81.358523,32.582322],[-81.366205,32.576645],[-81.369283,32.590763],[-81.388927,32.595101],[-81.41866,32.629393],[-81.414761,32.637441],[-81.407272,32.631738],[-81.402736,32.637033],[-81.412554,32.641523],[-81.393034,32.651544],[-81.407194,32.660519],[-81.397155,32.661379],[-81.409013,32.696551],[-81.412404,32.692095],[-81.427518,32.701897],[-81.415121,32.713669],[-81.420339,32.721052],[-81.409989,32.721863],[-81.418542,32.732586],[-81.404932,32.74556],[-81.419698,32.749168],[-81.408159,32.755803],[-81.414039,32.755424],[-81.412094,32.763868],[-81.431941,32.768911],[-81.414457,32.778149],[-81.431235,32.784142],[-81.422241,32.783987],[-81.427668,32.787615],[-81.419881,32.794756],[-81.428292,32.800832],[-81.417984,32.818196],[-81.428235,32.818584],[-81.421952,32.821466],[-81.429943,32.828248],[-81.420621,32.831223],[-81.426476,32.840773],[-81.438653,32.840076],[-81.444867,32.850968],[-81.460723,32.846039],[-81.452883,32.872964],[-81.479445,32.881082],[-81.464433,32.898604],[-81.480813,32.898614],[-81.483199,32.921802],[-81.502391,32.935167],[-81.499447,32.944988],[-81.511347,32.966722],[-81.49983,32.963816],[-81.491197,32.997825],[-81.50063,33.002456],[-81.491954,33.009094],[-81.504053,33.016253],[-81.51069,33.010315],[-81.510283,33.021234],[-81.519075,33.023197],[-81.511245,33.027787],[-81.529125,33.040811],[-81.53879,33.039185],[-81.54544,33.048993],[-81.561949,33.045844],[-81.563372,33.060158],[-81.572881,33.054181],[-81.577188,33.06594],[-81.602212,33.073473],[-81.596501,33.079894],[-81.60132,33.08705],[-81.612072,33.08002],[-81.611658,33.094259],[-81.642333,33.093152],[-81.704634,33.116452],[-81.752135,33.14855],[-81.772436,33.180449],[-81.765436,33.178349],[-81.756835,33.197948],[-81.768936,33.217448],[-81.780136,33.221148],[-81.777536,33.211348],[-81.784536,33.208148],[-81.805236,33.211447],[-81.809637,33.222647],[-81.853201,33.248811],[-81.839301,33.25489],[-81.847912,33.265865],[-81.834938,33.258038],[-81.828124,33.263211],[-81.836257,33.262683],[-81.845059,33.283966],[-81.863292,33.288261],[-81.861333,33.298356],[-81.849267,33.296077],[-81.846853,33.306196],[-81.854584,33.31057],[-81.864043,33.301969],[-81.868483,33.313618],[-81.880985,33.302258],[-81.882226,33.316449],[-81.89251,33.315172],[-81.889266,33.321584],[-81.899317,33.322344],[-81.901416,33.335787],[-81.906019,33.321293],[-81.9134,33.31942],[-81.907966,33.326687],[-81.918922,33.334234],[-81.909416,33.346602],[-81.919017,33.339819],[-81.940149,33.344691],[-81.934767,33.355975],[-81.945858,33.371365],[-81.924737,33.372941],[-81.945182,33.407531],[-81.909694,33.411981],[-81.932429,33.425707],[-81.913335,33.439476],[-81.926337,33.462937],[-81.985938,33.486536],[-82.001338,33.520135],[-82.046335,33.563831],[-82.094129,33.582742],[-82.107841,33.596278],[-82.135055,33.591082],[-82.186155,33.62088],[-82.196894,33.63144],[-82.200727,33.664648],[-82.234576,33.700217],[-82.247473,33.752591],[-82.298286,33.783519],[-82.300214,33.800627],[-82.324481,33.820033],[-82.403882,33.865477],[-82.424885,33.864131],[-82.455106,33.88165],[-82.524516,33.94336],[-82.556836,33.945354],[-82.579576,33.979762],[-82.57554,33.992049],[-82.589246,34.000119],[-82.594452,34.028683],[-82.643505,34.071505],[-82.641553,34.092213],[-82.659078,34.103544],[-82.677321,34.131658],[-82.717508,34.150504],[-82.74192,34.210063],[-82.746656,34.266407],[-82.780308,34.296702],[-82.794582,34.340499],[-82.835005,34.366069],[-82.860708,34.457428],[-82.875764,34.463803],[-82.876865,34.475303],[-82.902666,34.485903],[-82.939067,34.486203],[-82.954668,34.477302],[-82.98137,34.482402],[-83.002925,34.472132],[-83.034712,34.483495],[-83.054464,34.502891],[-83.069451,34.502132],[-83.087189,34.515939],[-83.077811,34.523965],[-83.084856,34.530968],[-83.10218,34.53218],[-83.122901,34.56013],[-83.139877,34.5618],[-83.143177,34.573399],[-83.158678,34.578999],[-83.154578,34.588199],[-83.170978,34.598098],[-83.159678,34.603298],[-83.232581,34.611598],[-83.253882,34.636697],[-83.293183,34.654296],[-83.304642,34.669562],[-83.341991,34.681814],[-83.34088,34.692215],[-83.353955,34.698686],[-83.346751,34.704116],[-83.353239,34.728648],[-83.318637,34.757707],[-83.324014,34.789305],[-83.300744,34.804645],[-83.306019,34.816379],[-83.294961,34.813493],[-83.289441,34.824669],[-83.271215,34.81844],[-83.267453,34.84804],[-83.248193,34.845787],[-83.253451,34.855704],[-83.234769,34.871067],[-83.242962,34.877749],[-83.219878,34.878193],[-83.214214,34.888588],[-83.205627,34.880142],[-83.203352,34.893718],[-83.197128,34.890811],[-83.16828,34.919656],[-83.157136,34.915282],[-83.157158,34.930644],[-83.141677,34.924641],[-83.12738,34.938601],[-83.111773,34.935008],[-83.127511,34.949727],[-83.124873,34.955231],[-83.113813,34.950575],[-83.120388,34.968406],[-83.098261,34.990715],[-83.108379,35.00056]]]]}}
