{"type":"Feature","properties":{"mrgid":20991,"name":"Isle of Man","placeType":"Watsonian vice-county","source":"Europe:uk_counties"},"geometry":{"type":"MultiPolygon","coordinates":[[[[-4.370255,54.319058],[-4.363878,54.320393],[-4.381061,54.32231],[-4.37835,54.323597],[-4.374065,54.324298],[-4.379918,54.352424],[-4.359054,54.387673],[-4.364817,54.418302],[-4.468233,54.397755],[-4.537086,54.368092],[-4.620299,54.263381],[-4.660274,54.236427],[-4.6985,54.227201],[-4.718823,54.210966],[-4.716618,54.191927],[-4.746582,54.160835],[-4.731464,54.154625],[-4.735673,54.126856],[-4.750121,54.107533],[-4.765308,54.107813],[-4.778096,54.096017],[-4.761087,54.086741],[-4.770776,54.086506],[-4.793487,54.062401],[-4.770089,54.055817],[-4.7466,54.069344],[-4.733089,54.066766],[-4.728594,54.07049],[-4.735276,54.076873],[-4.724593,54.082701],[-4.696348,54.083083],[-4.679208,54.064785],[-4.664456,54.060852],[-4.650443,54.073826],[-4.625291,54.072255],[-4.63321,54.054008],[-4.623085,54.052666],[-4.601373,54.07493],[-4.61732,54.075892],[-4.594344,54.094624],[-4.549422,54.10072],[-4.523398,54.125229],[-4.500294,54.125332],[-4.46905,54.139466],[-4.464947,54.146226],[-4.475123,54.146757],[-4.466665,54.147157],[-4.473296,54.152565],[-4.46767,54.161067],[-4.422593,54.170297],[-4.390587,54.190054],[-4.385555,54.197142],[-4.399108,54.204361],[-4.398015,54.216751],[-4.368735,54.2322],[-4.365282,54.24672],[-4.321284,54.281528],[-4.322732,54.289955],[-4.306219,54.295184],[-4.314136,54.303778],[-4.370255,54.319058]]],[[[-4.799147,54.055934],[-4.807237,54.061464],[-4.82948,54.053476],[-4.812264,54.042967],[-4.799147,54.055934]]],[[[-4.794552,54.06368],[-4.796767,54.062256],[-4.794694,54.060673],[-4.794552,54.06368]]],[[[-4.708764,54.072185],[-4.711306,54.071999],[-4.710518,54.070811],[-4.708764,54.072185]]]]}}
