{"type":"Feature","properties":{"mrgid":21023,"name":"Mid Ebudes","placeType":"Watsonian vice-county","source":"Europe:uk_counties"},"geometry":{"type":"MultiPolygon","coordinates":[[[[-5.97417,56.531646],[-5.960302,56.537915],[-5.985416,56.566455],[-5.987748,56.579775],[-6.012125,56.589531],[-6.031147,56.611023],[-6.067181,56.620592],[-6.057501,56.627147],[-6.060171,56.635658],[-6.112089,56.644523],[-6.116069,56.654213],[-6.127711,56.657119],[-6.165745,56.642152],[-6.196979,56.643646],[-6.199154,56.632676],[-6.20885,56.637007],[-6.193572,56.623931],[-6.227794,56.634768],[-6.226047,56.611518],[-6.214153,56.604101],[-6.224521,56.605966],[-6.188558,56.585939],[-6.2571,56.615319],[-6.270077,56.603716],[-6.310335,56.601997],[-6.323114,56.606572],[-6.31409,56.576172],[-6.281951,56.578659],[-6.304201,56.558629],[-6.337559,56.553235],[-6.34029,56.536719],[-6.332435,56.53309],[-6.285796,56.522994],[-6.228926,56.529003],[-6.149191,56.500237],[-6.140318,56.490786],[-6.152001,56.486908],[-6.148365,56.483531],[-6.149204,56.48178],[-6.135403,56.481101],[-6.128862,56.472134],[-6.040874,56.4857],[-6.012891,56.497882],[-5.996464,56.48936],[-6.017425,56.468344],[-6.041559,56.463432],[-6.055504,56.451918],[-6.128952,56.448823],[-6.145579,56.438442],[-6.138553,56.431913],[-6.147388,56.428114],[-6.144767,56.424734],[-6.151119,56.413257],[-6.206817,56.385837],[-6.210746,56.373705],[-6.201194,56.362633],[-6.17299,56.357179],[-6.143527,56.367716],[-6.110317,56.365662],[-6.071837,56.378904],[-6.055322,56.376515],[-6.023587,56.394189],[-5.998658,56.388783],[-6.016324,56.386866],[-6.007432,56.377886],[-6.017109,56.366933],[-6.064946,56.361503],[-6.104596,56.343527],[-6.129571,56.34706],[-6.128482,56.341861],[-6.156526,56.337194],[-6.178841,56.341934],[-6.190181,56.33289],[-6.250347,56.342538],[-6.240622,56.318906],[-6.267527,56.318677],[-6.296415,56.32478],[-6.295138,56.325045],[-6.288211,56.324352],[-6.286722,56.323426],[-6.28602,56.324611],[-6.281391,56.324384],[-6.283577,56.324908],[-6.26618,56.324372],[-6.270315,56.337173],[-6.286993,56.336502],[-6.293472,56.344363],[-6.304909,56.342374],[-6.353802,56.346996],[-6.353783,56.344435],[-6.368415,56.332648],[-6.367466,56.327165],[-6.373107,56.319558],[-6.369864,56.313852],[-6.377547,56.309146],[-6.354077,56.300763],[-6.349596,56.307416],[-6.345084,56.305104],[-6.349413,56.30506],[-6.351677,56.301248],[-6.353565,56.300572],[-6.374234,56.301271],[-6.374742,56.29532],[-6.384631,56.287823],[-6.361273,56.28453],[-6.35386,56.292572],[-6.348421,56.281803],[-6.331547,56.285089],[-6.32526,56.2832],[-6.330297,56.273192],[-6.322832,56.269441],[-6.270868,56.273785],[-6.266506,56.264095],[-6.244374,56.288696],[-6.226391,56.285007],[-6.22535,56.283006],[-6.213931,56.289807],[-6.202197,56.291128],[-6.166123,56.289511],[-6.154178,56.283689],[-6.144627,56.288291],[-6.1415,56.284137],[-6.125664,56.2963],[-6.077354,56.302265],[-6.047877,56.291789],[-5.986552,56.3219],[-5.931306,56.321127],[-5.90072,56.346588],[-5.873219,56.355202],[-5.852529,56.353199],[-5.848195,56.344141],[-5.888379,56.321782],[-5.831928,56.310805],[-5.744633,56.341837],[-5.704643,56.361146],[-5.687771,56.378403],[-5.726093,56.382961],[-5.790896,56.366659],[-5.756074,56.381584],[-5.752659,56.392577],[-5.730529,56.396129],[-5.731012,56.404733],[-5.742448,56.410278],[-5.709603,56.414295],[-5.709437,56.414094],[-5.709391,56.413786],[-5.709599,56.413006],[-5.709279,56.412139],[-5.712378,56.408489],[-5.711248,56.406293],[-5.716825,56.404107],[-5.717093,56.390813],[-5.6784,56.383403],[-5.665511,56.390657],[-5.651147,56.415573],[-5.664874,56.419485],[-5.680054,56.436823],[-5.672631,56.435034],[-5.663394,56.42121],[-5.651194,56.422492],[-5.644729,56.447233],[-5.651124,56.456925],[-5.671734,56.452564],[-5.723577,56.48847],[-5.739245,56.482449],[-5.762952,56.489282],[-5.793169,56.515043],[-5.823574,56.517577],[-5.831397,56.508728],[-5.8628,56.522257],[-5.917866,56.517623],[-5.93813,56.525657],[-5.949414,56.520343],[-5.97417,56.531646]]],[[[-6.722159,56.529543],[-6.724801,56.542695],[-6.740594,56.544183],[-6.754685,56.557401],[-6.763404,56.548667],[-6.775873,56.54746],[-6.779547,56.537618],[-6.787624,56.545905],[-6.794716,56.536386],[-6.817797,56.543602],[-6.875892,56.519494],[-6.885112,56.520622],[-6.88793,56.529152],[-6.901741,56.525023],[-6.900037,56.527116],[-6.89716,56.527187],[-6.913938,56.532276],[-6.950162,56.529607],[-6.979363,56.516591],[-6.983726,56.507076],[-7.007123,56.502304],[-7.00242,56.500262],[-6.986784,56.504159],[-6.979558,56.494119],[-6.986872,56.489061],[-6.974619,56.487965],[-6.981104,56.475543],[-6.97216,56.467966],[-6.979282,56.45187],[-6.947838,56.457145],[-6.941129,56.455652],[-6.932454,56.442627],[-6.918022,56.443012],[-6.912133,56.439624],[-6.886912,56.448467],[-6.893833,56.472817],[-6.875223,56.486735],[-6.837559,56.491282],[-6.810083,56.487371],[-6.793615,56.505626],[-6.807515,56.513772],[-6.800487,56.52173],[-6.774082,56.525259],[-6.765895,56.519574],[-6.769977,56.515148],[-6.761174,56.511145],[-6.762801,56.516004],[-6.75159,56.515562],[-6.761214,56.519435],[-6.761748,56.520764],[-6.760657,56.523285],[-6.758342,56.524467],[-6.740416,56.527662],[-6.722159,56.529543]]],[[[-6.451144,56.68436],[-6.459965,56.690708],[-6.462741,56.689785],[-6.470942,56.692148],[-6.474362,56.68818],[-6.485109,56.688036],[-6.493885,56.690899],[-6.495286,56.685037],[-6.502232,56.687214],[-6.50679,56.681395],[-6.520747,56.676759],[-6.525279,56.678771],[-6.527378,56.675497],[-6.530702,56.677117],[-6.550366,56.660916],[-6.571462,56.657137],[-6.5706,56.651371],[-6.611107,56.639524],[-6.618212,56.622477],[-6.635494,56.619089],[-6.645078,56.602353],[-6.658246,56.601077],[-6.656315,56.594541],[-6.677002,56.598631],[-6.695141,56.582966],[-6.700278,56.58324],[-6.702795,56.588075],[-6.710237,56.577275],[-6.699985,56.573539],[-6.695713,56.559944],[-6.680816,56.564974],[-6.682668,56.569074],[-6.677196,56.58063],[-6.65194,56.582515],[-6.645138,56.580228],[-6.647792,56.572441],[-6.63829,56.572109],[-6.627324,56.590232],[-6.62436,56.592412],[-6.621084,56.59294],[-6.62137,56.592118],[-6.622141,56.591868],[-6.624262,56.592368],[-6.626009,56.590555],[-6.627158,56.590213],[-6.626635,56.588157],[-6.618757,56.585787],[-6.619621,56.578117],[-6.61123,56.579216],[-6.609633,56.575007],[-6.60168,56.585657],[-6.565553,56.586607],[-6.561284,56.594331],[-6.54921,56.594477],[-6.529981,56.610352],[-6.523424,56.603489],[-6.522124,56.624446],[-6.505683,56.616539],[-6.498102,56.621353],[-6.498468,56.626687],[-6.492234,56.627102],[-6.486199,56.639001],[-6.466086,56.654164],[-6.451144,56.68436]]],[[[-6.306582,56.498599],[-6.305942,56.479867],[-6.281084,56.482644],[-6.276777,56.472048],[-6.257129,56.489145],[-6.263869,56.480733],[-6.268892,56.477443],[-6.24605,56.472448],[-6.245054,56.468552],[-6.248898,56.468123],[-6.23881,56.465244],[-6.238428,56.456217],[-6.231204,56.460192],[-6.235438,56.466983],[-6.221036,56.471247],[-6.207151,56.47229],[-6.20546,56.468831],[-6.210642,56.465224],[-6.202807,56.460144],[-6.187396,56.466375],[-6.159667,56.463253],[-6.13986,56.472096],[-6.153256,56.482922],[-6.16039,56.481553],[-6.172239,56.488657],[-6.176539,56.483049],[-6.190909,56.48717],[-6.197526,56.493785],[-6.221082,56.500896],[-6.270982,56.490674],[-6.279569,56.498325],[-6.299878,56.497438],[-6.300219,56.491193],[-6.306582,56.498599]]],[[[-6.383632,56.3358],[-6.380816,56.351336],[-6.428734,56.338111],[-6.43539,56.333577],[-6.428548,56.333156],[-6.428052,56.331672],[-6.43388,56.330964],[-6.424813,56.329714],[-6.428198,56.328128],[-6.421854,56.327933],[-6.424245,56.322954],[-6.444142,56.314097],[-6.42116,56.306834],[-6.383632,56.3358]]],[[[-6.731297,56.559227],[-6.703518,56.565911],[-6.71191,56.571728],[-6.731297,56.559227]]],[[[-6.144252,56.448461],[-6.164734,56.444394],[-6.163558,56.435226],[-6.144252,56.448461]]],[[[-6.100664,56.464499],[-6.083414,56.462047],[-6.073903,56.465912],[-6.089409,56.470666],[-6.100664,56.464499]]],[[[-6.426815,56.496623],[-6.421294,56.498372],[-6.421043,56.495237],[-6.435279,56.480551],[-6.422607,56.483059],[-6.41586,56.492138],[-6.417949,56.502049],[-6.426815,56.496623]]],[[[-6.044915,56.625489],[-6.04275,56.620159],[-6.050882,56.621724],[-6.028854,56.611025],[-6.044915,56.625489]]],[[[-6.266288,56.456656],[-6.259955,56.446165],[-6.247824,56.451331],[-6.258955,56.456813],[-6.266288,56.456656]]],[[[-6.468637,56.46487],[-6.479322,56.461085],[-6.483164,56.448414],[-6.468637,56.46487]]],[[[-6.340396,56.431172],[-6.335,56.438736],[-6.340701,56.440318],[-6.340396,56.431172]]],[[[-6.397091,56.509856],[-6.398001,56.50578],[-6.387639,56.50796],[-6.397091,56.509856]]],[[[-6.165952,56.490699],[-6.150475,56.483281],[-6.15162,56.486094],[-6.165952,56.490699]]],[[[-6.356311,56.274477],[-6.350804,56.270551],[-6.350208,56.272065],[-6.342274,56.273882],[-6.348651,56.275858],[-6.356311,56.274477]]],[[[-6.626459,56.568389],[-6.631777,56.573027],[-6.63372,56.56654],[-6.626459,56.568389]]],[[[-6.363095,56.341214],[-6.371124,56.337731],[-6.371011,56.33335],[-6.363095,56.341214]]],[[[-6.444754,56.694513],[-6.440682,56.697293],[-6.444159,56.699578],[-6.444754,56.694513]]],[[[-6.449903,56.285049],[-6.454913,56.288692],[-6.454788,56.286025],[-6.449903,56.285049]]],[[[-6.374313,56.355447],[-6.380245,56.352219],[-6.372752,56.352291],[-6.374313,56.355447]]],[[[-6.290939,56.267009],[-6.290032,56.269329],[-6.293822,56.271163],[-6.290939,56.267009]]],[[[-6.353768,56.283742],[-6.357026,56.280542],[-6.354629,56.279942],[-6.353768,56.283742]]],[[[-6.446656,56.702172],[-6.453313,56.704288],[-6.453263,56.700587],[-6.446656,56.702172]]],[[[-6.379193,56.297812],[-6.382624,56.301212],[-6.386259,56.300263],[-6.379193,56.297812]]],[[[-6.303403,56.47647],[-6.309833,56.470975],[-6.308627,56.470514],[-6.304312,56.47374],[-6.303034,56.47293],[-6.303403,56.47647]]],[[[-6.381144,56.520594],[-6.383496,56.519193],[-6.380764,56.516605],[-6.381144,56.520594]]],[[[-6.254055,56.324637],[-6.248149,56.323046],[-6.249774,56.325453],[-6.254055,56.324637]]],[[[-6.390955,56.289294],[-6.394682,56.288865],[-6.393941,56.287555],[-6.391616,56.288578],[-6.390955,56.289294]]],[[[-6.386557,56.289167],[-6.382168,56.293775],[-6.386259,56.293266],[-6.386557,56.289167]]],[[[-6.403018,56.351465],[-6.40747,56.349264],[-6.402011,56.348352],[-6.403018,56.351465]]],[[[-6.13467,56.450476],[-6.131895,56.452215],[-6.133303,56.453283],[-6.13467,56.450476]]],[[[-6.515687,56.616734],[-6.511454,56.616537],[-6.512638,56.618936],[-6.515687,56.616734]]],[[[-5.97277,56.314424],[-5.973128,56.313428],[-5.96606,56.3137],[-5.97277,56.314424]]],[[[-6.164969,56.487598],[-6.158328,56.485073],[-6.158883,56.486134],[-6.164969,56.487598]]],[[[-6.374999,56.521],[-6.378552,56.520555],[-6.377365,56.518587],[-6.374999,56.521]]],[[[-6.413901,56.501649],[-6.411031,56.50543],[-6.411317,56.505788],[-6.413901,56.501649]]],[[[-6.627671,56.564309],[-6.630495,56.565876],[-6.631648,56.56412],[-6.627671,56.564309]]],[[[-6.344391,56.271183],[-6.340474,56.271326],[-6.343762,56.273149],[-6.344391,56.271183]]],[[[-6.451825,56.693312],[-6.44905,56.696006],[-6.450428,56.697404],[-6.451825,56.693312]]],[[[-6.461556,56.346916],[-6.458166,56.349162],[-6.463265,56.349194],[-6.461556,56.346916]]],[[[-6.222301,56.464647],[-6.226153,56.462402],[-6.223541,56.461412],[-6.222301,56.464647]]],[[[-6.866871,56.531442],[-6.865454,56.534166],[-6.867607,56.534441],[-6.866871,56.531442]]],[[[-6.432318,56.300704],[-6.428428,56.301271],[-6.430616,56.303324],[-6.432318,56.300704]]],[[[-6.167399,56.456643],[-6.16444,56.457071],[-6.168832,56.458753],[-6.167399,56.456643]]],[[[-5.83665,56.309899],[-5.83857,56.308072],[-5.837509,56.307732],[-5.83665,56.309899]]],[[[-5.647131,56.428162],[-5.646428,56.424741],[-5.645563,56.425877],[-5.647131,56.428162]]],[[[-6.247942,56.411691],[-6.248227,56.41134],[-6.244172,56.410404],[-6.247942,56.411691]]],[[[-6.301888,56.470847],[-6.304072,56.472408],[-6.304895,56.47099],[-6.301888,56.470847]]],[[[-6.216559,56.462621],[-6.218833,56.462539],[-6.218086,56.460491],[-6.216559,56.462621]]],[[[-6.4517,56.698304],[-6.456074,56.696983],[-6.45456,56.695968],[-6.4517,56.698304]]],[[[-6.418549,56.504885],[-6.41716,56.503407],[-6.416208,56.505052],[-6.418549,56.504885]]],[[[-6.436009,56.308173],[-6.436152,56.306477],[-6.434909,56.306157],[-6.436009,56.308173]]],[[[-6.441117,56.703165],[-6.440159,56.703972],[-6.444422,56.70527],[-6.441117,56.703165]]],[[[-6.241746,56.462724],[-6.240838,56.463762],[-6.243906,56.463666],[-6.241746,56.462724]]],[[[-6.196545,56.338789],[-6.198965,56.338707],[-6.196912,56.337068],[-6.196545,56.338789]]],[[[-6.39695,56.239169],[-6.394789,56.23899],[-6.395016,56.240538],[-6.39695,56.239169]]],[[[-6.465734,56.346554],[-6.464811,56.347591],[-6.466308,56.348274],[-6.465734,56.346554]]],[[[-6.40831,56.501825],[-6.406483,56.503882],[-6.407698,56.504118],[-6.40831,56.501825]]],[[[-7.004702,56.525181],[-7.00587,56.524045],[-7.001231,56.523499],[-7.004702,56.525181]]],[[[-6.721028,56.530396],[-6.721832,56.528489],[-6.718891,56.528273],[-6.721028,56.530396]]],[[[-6.359513,56.28264],[-6.359807,56.28132],[-6.357777,56.2811],[-6.359513,56.28264]]],[[[-6.412314,56.238833],[-6.412459,56.238621],[-6.40851,56.239391],[-6.412314,56.238833]]],[[[-6.209792,56.46027],[-6.211666,56.459882],[-6.209387,56.45933],[-6.209792,56.46027]]],[[[-6.356931,56.345433],[-6.359203,56.345529],[-6.356744,56.344402],[-6.356931,56.345433]]],[[[-5.972103,56.31966],[-5.977955,56.320772],[-5.974713,56.319409],[-5.972103,56.31966]]],[[[-6.233991,56.609777],[-6.234865,56.608982],[-6.232198,56.607531],[-6.233991,56.609777]]],[[[-6.170481,56.489976],[-6.168488,56.489364],[-6.16831,56.490413],[-6.170481,56.489976]]],[[[-6.275229,56.345328],[-6.278034,56.344925],[-6.275084,56.343889],[-6.275229,56.345328]]],[[[-6.213434,56.6383],[-6.211104,56.637313],[-6.210358,56.638161],[-6.213434,56.6383]]],[[[-6.410076,56.239664],[-6.409906,56.240084],[-6.413727,56.240159],[-6.410076,56.239664]]],[[[-6.93652,56.443436],[-6.934805,56.442593],[-6.934475,56.44354],[-6.93652,56.443436]]],[[[-6.355234,56.272657],[-6.35669,56.274171],[-6.357545,56.271867],[-6.355234,56.272657]]],[[[-6.213872,56.286657],[-6.215623,56.288671],[-6.215063,56.28724],[-6.215317,56.285363],[-6.213872,56.286657]]],[[[-6.445526,56.31667],[-6.445759,56.316373],[-6.44337,56.31574],[-6.445526,56.31667]]],[[[-6.710698,56.575356],[-6.712124,56.574828],[-6.709269,56.573702],[-6.710698,56.575356]]],[[[-6.301838,56.265676],[-6.304137,56.265925],[-6.304012,56.265389],[-6.301838,56.265676]]],[[[-6.443061,56.311415],[-6.444536,56.312266],[-6.44509,56.310694],[-6.443061,56.311415]]],[[[-6.459876,56.284303],[-6.457786,56.284756],[-6.458445,56.285556],[-6.459876,56.284303]]],[[[-6.40812,56.497181],[-6.406559,56.497111],[-6.405441,56.49939],[-6.40812,56.497181]]],[[[-6.695894,56.559762],[-6.69735,56.559617],[-6.697589,56.558654],[-6.695894,56.559762]]],[[[-6.150062,56.423609],[-6.152111,56.422573],[-6.149214,56.422634],[-6.150062,56.423609]]],[[[-6.448183,56.698295],[-6.450133,56.698459],[-6.44898,56.696517],[-6.448183,56.698295]]],[[[-6.271851,56.344167],[-6.273151,56.34312],[-6.271539,56.342465],[-6.271851,56.344167]]],[[[-6.362156,56.343626],[-6.362067,56.344509],[-6.364152,56.344781],[-6.362156,56.343626]]],[[[-6.672251,56.578275],[-6.671284,56.576854],[-6.670191,56.578226],[-6.672251,56.578275]]],[[[-6.933906,56.536117],[-6.932389,56.535539],[-6.930467,56.537289],[-6.933906,56.536117]]],[[[-7.013894,56.52427],[-7.01438,56.523089],[-7.011478,56.522874],[-7.013894,56.52427]]],[[[-6.174064,56.457574],[-6.171642,56.457633],[-6.173434,56.458864],[-6.174064,56.457574]]],[[[-6.219906,56.463132],[-6.219029,56.462546],[-6.218159,56.463781],[-6.219906,56.463132]]],[[[-6.431645,56.329018],[-6.433052,56.328241],[-6.432024,56.327637],[-6.431645,56.329018]]],[[[-6.474724,56.644659],[-6.473711,56.645276],[-6.476753,56.645112],[-6.474724,56.644659]]],[[[-6.369978,56.256192],[-6.371039,56.255579],[-6.367783,56.254867],[-6.369978,56.256192]]],[[[-6.457904,56.695666],[-6.458568,56.695543],[-6.456729,56.693959],[-6.457904,56.695666]]],[[[-5.721222,56.491266],[-5.725636,56.492176],[-5.722941,56.491462],[-5.721222,56.491266]]],[[[-6.982123,56.517592],[-6.984552,56.516941],[-6.982152,56.5167],[-6.982123,56.517592]]],[[[-5.910993,56.535247],[-5.910188,56.535875],[-5.912609,56.536751],[-5.910993,56.535247]]],[[[-6.40637,56.509347],[-6.406532,56.508639],[-6.404905,56.508148],[-6.40637,56.509347]]],[[[-6.190815,56.46246],[-6.189761,56.461452],[-6.188867,56.461887],[-6.190815,56.46246]]],[[[-6.73972,56.548076],[-6.738549,56.548376],[-6.7391,56.549279],[-6.73972,56.548076]]],[[[-6.741839,56.547027],[-6.739817,56.547849],[-6.740712,56.548538],[-6.741839,56.547027]]],[[[-6.181539,56.284732],[-6.181379,56.285857],[-6.183283,56.285599],[-6.181539,56.284732]]],[[[-6.649033,56.603878],[-6.650016,56.603841],[-6.647731,56.602114],[-6.649033,56.603878]]],[[[-6.392215,56.22992],[-6.390902,56.229669],[-6.390059,56.230837],[-6.392215,56.22992]]],[[[-6.937431,56.534178],[-6.933084,56.534424],[-6.934648,56.534465],[-6.937431,56.534178]]],[[[-6.212289,56.466746],[-6.21225,56.467422],[-6.212997,56.467712],[-6.212289,56.466746]]],[[[-7.007744,56.522269],[-7.006795,56.521497],[-7.004214,56.522659],[-7.004962,56.52284],[-7.007744,56.522269]]],[[[-6.356419,56.432271],[-6.355938,56.431271],[-6.354394,56.432727],[-6.356419,56.432271]]],[[[-6.413084,56.241657],[-6.413467,56.241337],[-6.409652,56.240965],[-6.413084,56.241657]]],[[[-6.936631,56.533631],[-6.935554,56.532901],[-6.932785,56.533292],[-6.936631,56.533631]]],[[[-6.211618,56.28591],[-6.210439,56.286589],[-6.211305,56.287621],[-6.211618,56.28591]]],[[[-6.429524,56.329914],[-6.430574,56.3294],[-6.429878,56.328973],[-6.429524,56.329914]]],[[[-6.433259,56.332507],[-6.433693,56.332066],[-6.42912,56.332743],[-6.433259,56.332507]]],[[[-6.381302,56.21607],[-6.379824,56.216144],[-6.381056,56.217525],[-6.381302,56.21607]]],[[[-6.364464,56.341677],[-6.363015,56.342612],[-6.363381,56.342868],[-6.364464,56.341677]]],[[[-5.724788,56.49147],[-5.725807,56.491548],[-5.720977,56.489801],[-5.724788,56.49147]]],[[[-6.433863,56.301611],[-6.433474,56.302925],[-6.435958,56.302089],[-6.433863,56.301611]]],[[[-6.3723,56.33753],[-6.373334,56.337581],[-6.372304,56.335661],[-6.3723,56.33753]]],[[[-6.168268,56.492991],[-6.169253,56.491888],[-6.167588,56.491539],[-6.168268,56.492991]]],[[[-6.457638,56.287799],[-6.45883,56.287625],[-6.456395,56.286361],[-6.457638,56.287799]]],[[[-6.357838,56.343687],[-6.359306,56.344625],[-6.3594,56.344259],[-6.358228,56.343823],[-6.357838,56.343687]]],[[[-6.393425,56.292215],[-6.391673,56.291742],[-6.391822,56.292479],[-6.393425,56.292215]]],[[[-6.70064,56.590612],[-6.700873,56.589533],[-6.699034,56.59061],[-6.70064,56.590612]]],[[[-6.302955,56.478135],[-6.30099,56.477619],[-6.301033,56.478371],[-6.302955,56.478135]]],[[[-7.003736,56.522984],[-7.004078,56.522129],[-7.001642,56.521431],[-7.003736,56.522984]]],[[[-6.531589,56.599899],[-6.532443,56.59913],[-6.530285,56.59902],[-6.531589,56.599899]]],[[[-6.266907,56.26342],[-6.264007,56.263358],[-6.264853,56.26399],[-6.266907,56.26342]]],[[[-6.381294,56.295821],[-6.38327,56.295275],[-6.382396,56.294703],[-6.381294,56.295821]]],[[[-6.349316,56.250278],[-6.350293,56.250204],[-6.346953,56.249602],[-6.349316,56.250278]]],[[[-6.359876,56.271428],[-6.359175,56.270805],[-6.358392,56.271098],[-6.359876,56.271428]]],[[[-6.170542,56.287914],[-6.170699,56.287131],[-6.169418,56.287169],[-6.170542,56.287914]]],[[[-5.71562,56.405222],[-5.71521,56.405927],[-5.717363,56.406294],[-5.71562,56.405222]]],[[[-6.213001,56.464167],[-6.210964,56.465154],[-6.211248,56.465406],[-6.213001,56.464167]]],[[[-6.373955,56.275576],[-6.372117,56.275623],[-6.372571,56.276552],[-6.373955,56.275576]]],[[[-6.24979,56.497078],[-6.249389,56.496615],[-6.248129,56.497202],[-6.24979,56.497078]]],[[[-6.382583,56.225413],[-6.38274,56.225232],[-6.380568,56.224383],[-6.382583,56.225413]]],[[[-6.727796,56.521765],[-6.728251,56.521447],[-6.725366,56.520968],[-6.727796,56.521765]]],[[[-6.221051,56.460088],[-6.221029,56.459769],[-6.21917,56.460845],[-6.221051,56.460088]]],[[[-6.899027,56.443145],[-6.898948,56.442293],[-6.897972,56.442202],[-6.899027,56.443145]]],[[[-6.677491,56.600137],[-6.676286,56.600349],[-6.67879,56.600682],[-6.677491,56.600137]]],[[[-6.453992,56.700052],[-6.455929,56.701013],[-6.45585,56.70048],[-6.453992,56.700052]]],[[[-6.453737,56.690496],[-6.454975,56.690476],[-6.452845,56.689892],[-6.453737,56.690496]]],[[[-6.39354,56.229571],[-6.394007,56.228574],[-6.392565,56.228463],[-6.39354,56.229571]]],[[[-6.729473,56.522048],[-6.728329,56.522594],[-6.729704,56.523143],[-6.729473,56.522048]]],[[[-6.228384,56.464678],[-6.228736,56.464311],[-6.225817,56.464721],[-6.228384,56.464678]]],[[[-6.302005,56.479883],[-6.302696,56.479066],[-6.30108,56.479009],[-6.302005,56.479883]]],[[[-6.200901,56.287282],[-6.200366,56.288375],[-6.201036,56.288433],[-6.200901,56.287282]]],[[[-6.447255,56.689805],[-6.445291,56.689852],[-6.446018,56.690128],[-6.447255,56.689805]]],[[[-6.55025,56.665567],[-6.550958,56.665213],[-6.550178,56.664094],[-6.55025,56.665567]]],[[[-6.542859,56.672697],[-6.543205,56.671231],[-6.542183,56.671628],[-6.542859,56.672697]]],[[[-6.906181,56.530847],[-6.903649,56.529462],[-6.902539,56.529812],[-6.906181,56.530847]]],[[[-6.388907,56.294072],[-6.38829,56.293064],[-6.387565,56.293867],[-6.388907,56.294072]]],[[[-6.694628,56.558616],[-6.694756,56.557316],[-6.69368,56.557708],[-6.694628,56.558616]]],[[[-6.391442,56.294805],[-6.389946,56.295299],[-6.390452,56.295407],[-6.391442,56.294805]]],[[[-6.330518,56.277002],[-6.329434,56.276213],[-6.329386,56.277361],[-6.330518,56.277002]]],[[[-6.352616,56.347588],[-6.351711,56.347182],[-6.351387,56.348583],[-6.352616,56.347588]]],[[[-6.402576,56.316162],[-6.401405,56.316421],[-6.401353,56.317248],[-6.402576,56.316162]]],[[[-6.446842,56.314904],[-6.445269,56.314461],[-6.445255,56.315177],[-6.446842,56.314904]]],[[[-6.270267,56.263762],[-6.270084,56.263211],[-6.268284,56.263741],[-6.270267,56.263762]]],[[[-6.752025,56.513104],[-6.752395,56.512757],[-6.750318,56.512718],[-6.752025,56.513104]]],[[[-6.752887,56.523882],[-6.751248,56.523233],[-6.751497,56.524088],[-6.752887,56.523882]]],[[[-6.233116,56.283378],[-6.233228,56.282317],[-6.2324,56.282375],[-6.233116,56.283378]]],[[[-7.011644,56.522588],[-7.013789,56.52139],[-7.013281,56.521429],[-7.011644,56.522588]]],[[[-6.754227,56.513741],[-6.754481,56.512687],[-6.753659,56.512437],[-6.754227,56.513741]]],[[[-6.230704,56.460728],[-6.228886,56.461769],[-6.229259,56.461865],[-6.230704,56.460728]]],[[[-6.256315,56.328458],[-6.255848,56.327678],[-6.255028,56.328089],[-6.256315,56.328458]]],[[[-6.546482,56.668125],[-6.547233,56.667647],[-6.545899,56.666675],[-6.546482,56.668125]]],[[[-6.773055,56.523558],[-6.773688,56.52265],[-6.772472,56.522188],[-6.773055,56.523558]]],[[[-6.428006,56.306562],[-6.428438,56.305894],[-6.426442,56.306123],[-6.428006,56.306562]]],[[[-6.623356,56.583731],[-6.623026,56.58203],[-6.622899,56.582129],[-6.623356,56.583731]]],[[[-6.674561,56.577913],[-6.672803,56.577467],[-6.67279,56.578484],[-6.674561,56.577913]]],[[[-6.184633,56.400037],[-6.182298,56.400482],[-6.182697,56.400881],[-6.184633,56.400037]]],[[[-6.246639,56.464376],[-6.246824,56.463593],[-6.245336,56.463348],[-6.246639,56.464376]]],[[[-6.402083,56.504582],[-6.402431,56.503348],[-6.400876,56.503621],[-6.402083,56.504582]]],[[[-6.213234,56.637824],[-6.213386,56.637495],[-6.212183,56.636598],[-6.213234,56.637824]]],[[[-6.509921,56.616066],[-6.511116,56.616576],[-6.510758,56.615492],[-6.509921,56.616066]]],[[[-6.299235,56.267254],[-6.300413,56.267269],[-6.300475,56.266691],[-6.298928,56.266834],[-6.299235,56.267254]]],[[[-6.293341,56.266509],[-6.294286,56.265675],[-6.292546,56.265524],[-6.293341,56.266509]]],[[[-6.193324,56.288825],[-6.193534,56.288238],[-6.192462,56.28849],[-6.193324,56.288825]]],[[[-5.716483,56.413369],[-5.716657,56.413287],[-5.714637,56.412956],[-5.716483,56.413369]]],[[[-6.706901,56.585201],[-6.707489,56.584428],[-6.705521,56.585084],[-6.706901,56.585201]]],[[[-6.382117,56.283344],[-6.381631,56.283898],[-6.382699,56.284588],[-6.382117,56.283344]]],[[[-5.712648,56.496538],[-5.713552,56.496444],[-5.712486,56.495816],[-5.712648,56.496538]]],[[[-6.227811,56.28397],[-6.228497,56.28317],[-6.226705,56.283045],[-6.227811,56.28397]]],[[[-6.344045,56.43895],[-6.342151,56.440178],[-6.342678,56.440178],[-6.344045,56.43895]]],[[[-6.238144,56.612144],[-6.238656,56.611627],[-6.236886,56.61118],[-6.238144,56.612144]]],[[[-6.53629,56.674871],[-6.536708,56.674675],[-6.535544,56.674034],[-6.53629,56.674871]]],[[[-6.250296,56.52463],[-6.248149,56.525011],[-6.249151,56.525038],[-6.250296,56.52463]]],[[[-6.198629,56.62731],[-6.19913,56.627143],[-6.197106,56.625834],[-6.198629,56.62731]]],[[[-6.149633,56.422354],[-6.149686,56.421819],[-6.147643,56.422645],[-6.149633,56.422354]]],[[[-6.429806,56.303347],[-6.42848,56.302929],[-6.428262,56.303558],[-6.429806,56.303347]]],[[[-6.429994,56.299234],[-6.431485,56.298968],[-6.431174,56.298658],[-6.429994,56.299234]]],[[[-6.402502,56.226419],[-6.403434,56.226334],[-6.403141,56.225457],[-6.402502,56.226419]]],[[[-6.236557,56.283842],[-6.237216,56.282626],[-6.23606,56.283163],[-6.236557,56.283842]]],[[[-6.50685,56.686737],[-6.507051,56.686644],[-6.505889,56.685746],[-6.50685,56.686737]]],[[[-6.378637,56.294908],[-6.378447,56.295123],[-6.380204,56.295783],[-6.378637,56.294908]]],[[[-6.358221,56.346405],[-6.358175,56.345853],[-6.356637,56.346024],[-6.358221,56.346405]]],[[[-6.518143,56.68141],[-6.518317,56.681022],[-6.516908,56.680511],[-6.518143,56.68141]]],[[[-6.393775,56.51356],[-6.394913,56.512639],[-6.39348,56.512754],[-6.393775,56.51356]]],[[[-6.219591,56.285211],[-6.219871,56.284629],[-6.21885,56.28459],[-6.219591,56.285211]]],[[[-6.424537,56.306093],[-6.426513,56.306556],[-6.425137,56.306157],[-6.424537,56.306093]]],[[[-6.377136,56.310988],[-6.377434,56.310115],[-6.375934,56.310772],[-6.377136,56.310988]]],[[[-6.461851,56.288019],[-6.462755,56.287929],[-6.462276,56.287207],[-6.461851,56.288019]]],[[[-6.221231,56.603068],[-6.221634,56.602909],[-6.219364,56.601775],[-6.221231,56.603068]]],[[[-6.330099,56.270102],[-6.330609,56.270663],[-6.330908,56.269253],[-6.330099,56.270102]]],[[[-6.463067,56.69598],[-6.461922,56.695702],[-6.462733,56.696787],[-6.463067,56.69598]]],[[[-6.387541,56.225296],[-6.387649,56.224412],[-6.386742,56.224322],[-6.387541,56.225296]]],[[[-6.721463,56.559994],[-6.722017,56.559789],[-6.720142,56.5591],[-6.721463,56.559994]]],[[[-7.013798,56.529938],[-7.014356,56.529484],[-7.013516,56.528735],[-7.013798,56.529938]]],[[[-6.346729,56.271802],[-6.347147,56.272052],[-6.347358,56.270886],[-6.346729,56.271802]]],[[[-6.4493,56.67931],[-6.44828,56.679805],[-6.448306,56.68002],[-6.4493,56.67931]]],[[[-5.715178,56.497203],[-5.715331,56.497205],[-5.715439,56.49632],[-5.715178,56.497203]]],[[[-6.229026,56.28269],[-6.227346,56.282478],[-6.227437,56.282675],[-6.229026,56.28269]]],[[[-6.364765,56.283823],[-6.36711,56.283785],[-6.366891,56.283391],[-6.364765,56.283823]]],[[[-6.310776,56.26661],[-6.312031,56.266397],[-6.310677,56.265845],[-6.310776,56.26661]]],[[[-6.369932,56.283238],[-6.37149,56.282979],[-6.371103,56.282707],[-6.369932,56.283238]]],[[[-6.228602,56.606556],[-6.229413,56.606965],[-6.229197,56.605607],[-6.228602,56.606556]]],[[[-7.010641,56.529526],[-7.012649,56.529076],[-7.011606,56.5287],[-7.010641,56.529526]]],[[[-6.447791,56.690561],[-6.449377,56.6904],[-6.449376,56.690304],[-6.447791,56.690561]]],[[[-6.720832,56.560248],[-6.72119,56.559961],[-6.719466,56.559884],[-6.720832,56.560248]]],[[[-6.442735,56.703082],[-6.443505,56.703196],[-6.442395,56.702317],[-6.442735,56.703082]]],[[[-6.406794,56.508129],[-6.407553,56.507539],[-6.405773,56.507559],[-6.406794,56.508129]]],[[[-6.695516,56.583995],[-6.696213,56.583586],[-6.695691,56.583048],[-6.695516,56.583995]]],[[[-6.887134,56.528414],[-6.885505,56.527239],[-6.885605,56.527663],[-6.887134,56.528414]]],[[[-6.42643,56.302899],[-6.425468,56.303053],[-6.425695,56.303686],[-6.42643,56.302899]]],[[[-6.210757,56.285268],[-6.210086,56.285881],[-6.211901,56.285586],[-6.210757,56.285268]]],[[[-6.183026,56.414842],[-6.183832,56.414449],[-6.18181,56.41464],[-6.183026,56.414842]]],[[[-6.643246,56.567235],[-6.64405,56.566871],[-6.643965,56.566647],[-6.643246,56.567235]]],[[[-6.724152,56.558548],[-6.724599,56.557946],[-6.723305,56.557992],[-6.724152,56.558548]]],[[[-7.013081,56.530489],[-7.013657,56.530043],[-7.012693,56.529592],[-7.013081,56.530489]]],[[[-5.650782,56.422816],[-5.650666,56.421698],[-5.64965,56.422191],[-5.650782,56.422816]]],[[[-6.44927,56.699584],[-6.450191,56.699399],[-6.449629,56.698733],[-6.44927,56.699584]]],[[[-6.334044,56.283037],[-6.333996,56.282433],[-6.333287,56.282911],[-6.334044,56.283037]]],[[[-6.396301,56.28429],[-6.397988,56.284344],[-6.39607,56.283751],[-6.396301,56.28429]]],[[[-6.369153,56.329143],[-6.369708,56.328831],[-6.368867,56.328483],[-6.369153,56.329143]]],[[[-6.705246,56.564968],[-6.706072,56.564031],[-6.705268,56.564067],[-6.705246,56.564968]]],[[[-6.462354,56.695691],[-6.462773,56.695635],[-6.461876,56.694831],[-6.462354,56.695691]]],[[[-6.363651,56.341851],[-6.363814,56.341546],[-6.362823,56.341403],[-6.363651,56.341851]]],[[[-6.454559,56.698388],[-6.452989,56.698428],[-6.453127,56.698623],[-6.454559,56.698388]]],[[[-6.203403,56.637088],[-6.203823,56.636611],[-6.202715,56.636176],[-6.203403,56.637088]]],[[[-6.427988,56.305043],[-6.428091,56.304835],[-6.426634,56.304669],[-6.427988,56.305043]]],[[[-6.50893,56.684655],[-6.509331,56.684393],[-6.50781,56.684111],[-6.50893,56.684655]]],[[[-6.387477,56.296492],[-6.387578,56.296093],[-6.386278,56.296338],[-6.387477,56.296492]]],[[[-6.300428,56.268042],[-6.301252,56.267736],[-6.300798,56.267183],[-6.300428,56.268042]]],[[[-6.733894,56.559702],[-6.734293,56.559447],[-6.733476,56.559056],[-6.733894,56.559702]]],[[[-6.812519,56.483612],[-6.813069,56.483361],[-6.811455,56.483063],[-6.812519,56.483612]]],[[[-6.215325,56.286278],[-6.215646,56.286484],[-6.216198,56.285374],[-6.215325,56.286278]]],[[[-6.42925,56.328655],[-6.429733,56.328381],[-6.429397,56.32799],[-6.42925,56.328655]]],[[[-6.22506,56.282715],[-6.226446,56.282495],[-6.226344,56.282066],[-6.22506,56.282715]]],[[[-6.316034,56.344985],[-6.316851,56.344865],[-6.315619,56.344154],[-6.316034,56.344985]]],[[[-6.1104,56.349415],[-6.109172,56.349623],[-6.10931,56.349747],[-6.1104,56.349415]]],[[[-6.541304,56.670925],[-6.541568,56.670622],[-6.540089,56.670486],[-6.541304,56.670925]]],[[[-6.423013,56.497125],[-6.423244,56.496622],[-6.421606,56.497655],[-6.423013,56.497125]]],[[[-6.378269,56.309289],[-6.378795,56.309123],[-6.378257,56.308518],[-6.378269,56.309289]]],[[[-6.890878,56.444996],[-6.889697,56.445446],[-6.889777,56.445519],[-6.890878,56.444996]]],[[[-6.231713,56.2843],[-6.23203,56.283765],[-6.231216,56.283675],[-6.231713,56.2843]]],[[[-6.377741,56.296694],[-6.378348,56.296275],[-6.377824,56.295935],[-6.377741,56.296694]]],[[[-6.388379,56.295322],[-6.387761,56.295564],[-6.388101,56.296074],[-6.388379,56.295322]]],[[[-6.389379,56.294451],[-6.389306,56.295006],[-6.389781,56.295129],[-6.389379,56.294451]]],[[[-6.440444,56.311344],[-6.441466,56.31122],[-6.44068,56.310674],[-6.440444,56.311344]]],[[[-6.374039,56.306125],[-6.374167,56.305834],[-6.372686,56.306399],[-6.374039,56.306125]]],[[[-6.651006,56.603355],[-6.651379,56.60318],[-6.6502,56.602756],[-6.651006,56.603355]]],[[[-6.382892,56.283392],[-6.383329,56.283188],[-6.382994,56.282752],[-6.382892,56.283392]]],[[[-6.531374,56.598243],[-6.530584,56.598487],[-6.530697,56.598728],[-6.531374,56.598243]]],[[[-6.519127,56.610475],[-6.518903,56.609786],[-6.518206,56.610364],[-6.519127,56.610475]]],[[[-6.330284,56.284695],[-6.33072,56.284619],[-6.330017,56.28384],[-6.330284,56.284695]]],[[[-6.375617,56.313495],[-6.375759,56.313041],[-6.374551,56.313449],[-6.375617,56.313495]]],[[[-6.460864,56.691413],[-6.461562,56.691369],[-6.460034,56.690906],[-6.460864,56.691413]]],[[[-6.232864,56.28464],[-6.233362,56.28427],[-6.23261,56.283977],[-6.232864,56.28464]]],[[[-6.185179,56.48693],[-6.185764,56.486661],[-6.184694,56.486495],[-6.185179,56.48693]]],[[[-6.46322,56.282817],[-6.462923,56.282277],[-6.462131,56.282588],[-6.46322,56.282817]]],[[[-6.387554,56.299298],[-6.386839,56.299628],[-6.387125,56.299817],[-6.387554,56.299298]]],[[[-5.863098,56.34066],[-5.861357,56.340685],[-5.86151,56.340792],[-5.863098,56.34066]]],[[[-6.395561,56.286662],[-6.396552,56.286913],[-6.396337,56.286441],[-6.395561,56.286662]]],[[[-6.450298,56.694378],[-6.450416,56.693576],[-6.449492,56.693849],[-6.450298,56.694378]]],[[[-6.896873,56.528184],[-6.897303,56.528119],[-6.896053,56.52762],[-6.896873,56.528184]]],[[[-6.817403,56.486413],[-6.816801,56.486336],[-6.816615,56.486825],[-6.817403,56.486413]]],[[[-6.404065,56.503281],[-6.404009,56.503141],[-6.403314,56.502949],[-6.404065,56.503281]]],[[[-6.254813,56.337695],[-6.255054,56.337482],[-6.254046,56.337093],[-6.254813,56.337695]]],[[[-6.830157,56.488127],[-6.829182,56.48794],[-6.829033,56.488349],[-6.830157,56.488127]]],[[[-6.251164,56.280858],[-6.251431,56.280229],[-6.250739,56.280063],[-6.251164,56.280858]]],[[[-6.45062,56.282551],[-6.449859,56.282494],[-6.449744,56.282888],[-6.45062,56.282551]]],[[[-6.191604,56.461425],[-6.190657,56.461457],[-6.190677,56.461795],[-6.191604,56.461425]]],[[[-6.532945,56.598641],[-6.531799,56.598727],[-6.531794,56.598913],[-6.532945,56.598641]]],[[[-6.409211,56.505157],[-6.40914,56.504518],[-6.408333,56.504954],[-6.409211,56.505157]]],[[[-6.442,56.316985],[-6.442255,56.316846],[-6.440657,56.316946],[-6.442,56.316985]]],[[[-6.446775,56.315706],[-6.445333,56.315624],[-6.44588,56.315952],[-6.446775,56.315706]]],[[[-6.222579,56.459342],[-6.222378,56.459111],[-6.221783,56.459377],[-6.222579,56.459342]]],[[[-6.479403,56.690024],[-6.479897,56.689827],[-6.479051,56.689531],[-6.479403,56.690024]]],[[[-6.42792,56.303659],[-6.427983,56.302961],[-6.427483,56.302975],[-6.42792,56.303659]]],[[[-5.719083,56.393009],[-5.719587,56.392658],[-5.718734,56.392478],[-5.719083,56.393009]]],[[[-6.220702,56.283831],[-6.220668,56.283563],[-6.21971,56.283826],[-6.220702,56.283831]]],[[[-6.405768,56.503183],[-6.405209,56.502768],[-6.404842,56.503166],[-6.405768,56.503183]]],[[[-6.405302,56.314496],[-6.405448,56.313963],[-6.404758,56.31401],[-6.405302,56.314496]]],[[[-6.395006,56.290601],[-6.395329,56.290671],[-6.394487,56.290214],[-6.395006,56.290601]]],[[[-6.410538,56.506437],[-6.410733,56.506267],[-6.409487,56.505936],[-6.410538,56.506437]]],[[[-6.339068,56.281561],[-6.339569,56.281341],[-6.338647,56.281019],[-6.339068,56.281561]]],[[[-6.208564,56.46898],[-6.208707,56.468669],[-6.208017,56.468382],[-6.208564,56.46898]]],[[[-6.520453,56.679303],[-6.519597,56.679182],[-6.519877,56.679774],[-6.520453,56.679303]]],[[[-6.507068,56.683492],[-6.506241,56.683411],[-6.506247,56.683968],[-6.507068,56.683492]]],[[[-6.173013,56.48944],[-6.172305,56.489598],[-6.172463,56.489811],[-6.173013,56.48944]]],[[[-6.727723,56.52194],[-6.726963,56.521931],[-6.727643,56.522355],[-6.727723,56.52194]]],[[[-6.209887,56.287857],[-6.210367,56.287184],[-6.209867,56.286893],[-6.209887,56.287857]]],[[[-6.446355,56.308977],[-6.447901,56.308998],[-6.447663,56.308965],[-6.446355,56.308977]]],[[[-6.359763,56.344295],[-6.360087,56.344105],[-6.358872,56.343643],[-6.359763,56.344295]]],[[[-6.170472,56.48881],[-6.170574,56.488715],[-6.169377,56.488241],[-6.170472,56.48881]]],[[[-6.304284,56.266858],[-6.304944,56.266758],[-6.30342,56.266256],[-6.304284,56.266858]]],[[[-6.463677,56.695798],[-6.464054,56.695247],[-6.463696,56.695046],[-6.463677,56.695798]]],[[[-6.386378,56.29869],[-6.386362,56.298288],[-6.385608,56.298443],[-6.386378,56.29869]]],[[[-6.444015,56.693244],[-6.443934,56.692674],[-6.443136,56.692781],[-6.444015,56.693244]]],[[[-6.442694,56.706014],[-6.44185,56.705533],[-6.442081,56.70577],[-6.442694,56.706014]]],[[[-6.410622,56.235632],[-6.411183,56.235396],[-6.410985,56.235098],[-6.410622,56.235632]]],[[[-6.388975,56.298321],[-6.388073,56.297983],[-6.388036,56.298648],[-6.388975,56.298321]]],[[[-6.064556,56.362016],[-6.06501,56.361804],[-6.064672,56.361653],[-6.064556,56.362016]]],[[[-6.709605,56.562118],[-6.71009,56.561849],[-6.709277,56.561571],[-6.709605,56.562118]]],[[[-6.487332,56.690435],[-6.488411,56.690306],[-6.487524,56.690065],[-6.487332,56.690435]]],[[[-6.897742,56.442035],[-6.89784,56.441938],[-6.896696,56.44205],[-6.897742,56.442035]]],[[[-6.559428,56.591172],[-6.560018,56.590862],[-6.559391,56.590582],[-6.559428,56.591172]]],[[[-6.217499,56.463718],[-6.216595,56.463742],[-6.217029,56.464203],[-6.217499,56.463718]]],[[[-6.359824,56.341144],[-6.358898,56.341682],[-6.359297,56.341772],[-6.359824,56.341144]]],[[[-6.309833,56.267614],[-6.310344,56.267626],[-6.31027,56.267097],[-6.309833,56.267614]]],[[[-6.606837,56.57516],[-6.60734,56.575362],[-6.60758,56.574996],[-6.606837,56.57516]]],[[[-6.165959,56.487362],[-6.166521,56.487298],[-6.165936,56.486855],[-6.165959,56.487362]]],[[[-6.383708,56.297219],[-6.38381,56.297174],[-6.382556,56.296997],[-6.383708,56.297219]]],[[[-6.174469,56.459279],[-6.17556,56.459123],[-6.174903,56.458768],[-6.174469,56.459279]]],[[[-6.518258,56.67993],[-6.517538,56.679563],[-6.517144,56.680053],[-6.518258,56.67993]]],[[[-6.158513,56.414585],[-6.158431,56.414207],[-6.157638,56.414624],[-6.158513,56.414585]]],[[[-6.215696,56.598668],[-6.214579,56.598169],[-6.21458,56.598266],[-6.215696,56.598668]]],[[[-6.382331,56.296621],[-6.38145,56.296524],[-6.381471,56.296765],[-6.382331,56.296621]]],[[[-6.785503,56.515487],[-6.785569,56.51543],[-6.784426,56.515352],[-6.785503,56.515487]]],[[[-6.834918,56.488649],[-6.834733,56.488437],[-6.834013,56.488644],[-6.834918,56.488649]]],[[[-6.678007,56.577908],[-6.677708,56.577473],[-6.677495,56.577742],[-6.678007,56.577908]]],[[[-6.670259,56.577471],[-6.670486,56.577616],[-6.670508,56.576645],[-6.670259,56.577471]]],[[[-6.708263,56.563354],[-6.706883,56.563521],[-6.707212,56.563622],[-6.708263,56.563354]]],[[[-6.428095,56.339186],[-6.428015,56.338955],[-6.427188,56.339213],[-6.428095,56.339186]]],[[[-6.387613,56.298521],[-6.38762,56.297999],[-6.387014,56.298284],[-6.387613,56.298521]]],[[[-6.78399,56.514994],[-6.78434,56.514945],[-6.783575,56.514346],[-6.78399,56.514994]]],[[[-6.369459,56.330214],[-6.369708,56.32958],[-6.369336,56.329657],[-6.369459,56.330214]]],[[[-6.349117,56.348873],[-6.349473,56.348387],[-6.348776,56.348465],[-6.349117,56.348873]]],[[[-6.419205,56.307731],[-6.419354,56.307231],[-6.418915,56.307338],[-6.419205,56.307731]]],[[[-6.385305,56.295693],[-6.384417,56.295472],[-6.38483,56.295898],[-6.385305,56.295693]]],[[[-6.465524,56.69633],[-6.465779,56.696198],[-6.464833,56.695827],[-6.465524,56.69633]]],[[[-6.407413,56.505932],[-6.408157,56.505796],[-6.407601,56.505405],[-6.407413,56.505932]]],[[[-6.387691,56.295278],[-6.387796,56.295028],[-6.387005,56.295009],[-6.387691,56.295278]]],[[[-6.393726,56.291867],[-6.393552,56.291174],[-6.393016,56.291684],[-6.393726,56.291867]]],[[[-6.36567,56.342304],[-6.365812,56.342026],[-6.364826,56.341834],[-6.36567,56.342304]]],[[[-6.578559,56.656431],[-6.578664,56.656327],[-6.577589,56.65606],[-6.578559,56.656431]]],[[[-6.520857,56.678228],[-6.521052,56.678],[-6.520484,56.677682],[-6.520857,56.678228]]],[[[-6.226497,56.458251],[-6.226675,56.4581],[-6.225736,56.458296],[-6.226497,56.458251]]],[[[-6.381761,56.310421],[-6.382338,56.310202],[-6.381725,56.310114],[-6.381761,56.310421]]],[[[-6.479413,56.688977],[-6.479565,56.688812],[-6.479145,56.688632],[-6.479413,56.688977]]],[[[-6.363345,56.275583],[-6.363229,56.275202],[-6.362784,56.275265],[-6.363345,56.275583]]],[[[-6.836458,56.488363],[-6.836692,56.488226],[-6.835793,56.488211],[-6.836458,56.488363]]],[[[-6.385537,56.299222],[-6.385523,56.298698],[-6.38506,56.29886],[-6.385537,56.299222]]],[[[-6.430531,56.339606],[-6.429816,56.339678],[-6.429912,56.340041],[-6.430531,56.339606]]],[[[-6.426671,56.494692],[-6.425827,56.494889],[-6.426126,56.495152],[-6.426671,56.494692]]],[[[-6.461638,56.66183],[-6.462032,56.661589],[-6.461356,56.661415],[-6.461638,56.66183]]],[[[-6.352348,56.432865],[-6.352205,56.432645],[-6.351805,56.43278],[-6.352348,56.432865]]],[[[-6.707654,56.562294],[-6.707764,56.562227],[-6.706916,56.561908],[-6.707654,56.562294]]],[[[-6.405749,56.497092],[-6.40601,56.496996],[-6.405117,56.496867],[-6.405749,56.497092]]],[[[-6.385076,56.294791],[-6.384458,56.294935],[-6.38464,56.295181],[-6.385076,56.294791]]],[[[-6.481214,56.690314],[-6.480815,56.689939],[-6.480623,56.690061],[-6.481214,56.690314]]],[[[-6.346174,56.436046],[-6.345286,56.436702],[-6.345495,56.436767],[-6.346174,56.436046]]],[[[-6.611157,56.575832],[-6.610678,56.575742],[-6.610635,56.575943],[-6.611157,56.575832]]],[[[-6.279242,56.26898],[-6.279766,56.268749],[-6.279395,56.268589],[-6.279242,56.26898]]],[[[-6.388791,56.299229],[-6.387738,56.299023],[-6.387961,56.299308],[-6.388791,56.299229]]],[[[-6.34281,56.348044],[-6.34305,56.347799],[-6.342636,56.3476],[-6.34281,56.348044]]],[[[-6.225203,56.606814],[-6.224672,56.606715],[-6.224728,56.607029],[-6.225203,56.606814]]],[[[-6.758387,56.512197],[-6.758559,56.512119],[-6.757792,56.511874],[-6.758387,56.512197]]],[[[-6.367776,56.341655],[-6.367876,56.341297],[-6.367478,56.341246],[-6.367776,56.341655]]],[[[-6.480385,56.690556],[-6.480511,56.690087],[-6.479813,56.690382],[-6.480385,56.690556]]],[[[-6.312399,56.603592],[-6.311782,56.603587],[-6.311837,56.603836],[-6.312399,56.603592]]],[[[-6.897636,56.442635],[-6.897777,56.442163],[-6.897176,56.442322],[-6.897636,56.442635]]],[[[-6.940329,56.45324],[-6.940652,56.452989],[-6.940444,56.452782],[-6.940329,56.45324]]],[[[-6.327897,56.280895],[-6.327868,56.281131],[-6.328504,56.280966],[-6.327897,56.280895]]],[[[-5.97188,56.318161],[-5.972029,56.317994],[-5.971577,56.317761],[-5.97188,56.318161]]],[[[-6.203741,56.516897],[-6.204145,56.516688],[-6.203521,56.516544],[-6.203741,56.516897]]],[[[-6.334659,56.282595],[-6.334806,56.282482],[-6.334639,56.282174],[-6.334659,56.282595]]],[[[-6.510176,56.680472],[-6.509702,56.68052],[-6.509864,56.680825],[-6.510176,56.680472]]],[[[-6.38313,56.31072],[-6.382681,56.311098],[-6.382966,56.311161],[-6.38313,56.31072]]],[[[-6.518632,56.681474],[-6.517934,56.681626],[-6.518205,56.681802],[-6.518632,56.681474]]],[[[-6.22427,56.60695],[-6.224495,56.606907],[-6.224522,56.60661],[-6.22427,56.60695]]],[[[-6.372249,56.317004],[-6.372203,56.316639],[-6.37179,56.316734],[-6.372249,56.317004]]],[[[-5.750013,56.387277],[-5.750474,56.387307],[-5.750402,56.386951],[-5.750013,56.387277]]],[[[-5.973204,56.319377],[-5.973271,56.31936],[-5.973062,56.31881],[-5.973204,56.319377]]],[[[-6.385767,56.297504],[-6.385877,56.297331],[-6.385416,56.297102],[-6.385767,56.297504]]],[[[-6.372677,56.28553],[-6.373054,56.285394],[-6.372941,56.285108],[-6.372677,56.28553]]],[[[-6.349675,56.433318],[-6.349893,56.432723],[-6.34962,56.432718],[-6.349675,56.433318]]],[[[-6.644373,56.566244],[-6.643721,56.56596],[-6.643819,56.566093],[-6.644373,56.566244]]],[[[-6.219844,56.470497],[-6.219904,56.470398],[-6.219373,56.470124],[-6.219844,56.470497]]],[[[-6.235617,56.344151],[-6.235098,56.344297],[-6.23539,56.344512],[-6.235617,56.344151]]],[[[-6.360975,56.254498],[-6.361213,56.254431],[-6.360754,56.25412],[-6.360975,56.254498]]],[[[-6.454264,56.69573],[-6.454379,56.695702],[-6.454079,56.695315],[-6.454264,56.69573]]],[[[-6.215848,56.600888],[-6.215988,56.600841],[-6.215631,56.600453],[-6.215848,56.600888]]],[[[-6.484788,56.451355],[-6.484178,56.450996],[-6.484129,56.451149],[-6.484788,56.451355]]],[[[-6.503717,56.686661],[-6.503871,56.686505],[-6.503344,56.686344],[-6.503717,56.686661]]],[[[-6.455897,56.689072],[-6.455928,56.688732],[-6.455575,56.688868],[-6.455897,56.689072]]],[[[-6.505943,56.685043],[-6.50547,56.685439],[-6.505616,56.685471],[-6.505943,56.685043]]],[[[-6.464852,56.691843],[-6.464868,56.691545],[-6.464432,56.691631],[-6.464852,56.691843]]],[[[-6.300935,56.345044],[-6.301319,56.34509],[-6.301208,56.344703],[-6.300935,56.345044]]],[[[-6.765748,56.548877],[-6.765387,56.548608],[-6.765268,56.548652],[-6.765748,56.548877]]],[[[-6.786244,56.514128],[-6.785798,56.514013],[-6.785777,56.514161],[-6.786244,56.514128]]],[[[-6.37964,56.307864],[-6.379669,56.307649],[-6.379336,56.307579],[-6.37964,56.307864]]],[[[-6.40871,56.507644],[-6.408114,56.507526],[-6.408137,56.507718],[-6.40871,56.507644]]],[[[-6.24722,56.469181],[-6.247013,56.468861],[-6.246595,56.469031],[-6.246724,56.469129],[-6.24722,56.469181]]],[[[-6.896495,56.442627],[-6.896186,56.44307],[-6.896314,56.443101],[-6.896495,56.442627]]],[[[-6.37943,56.302619],[-6.379651,56.302395],[-6.379157,56.302318],[-6.37943,56.302619]]],[[[-6.925511,56.442275],[-6.925362,56.442184],[-6.925018,56.442386],[-6.925511,56.442275]]],[[[-6.227496,56.284575],[-6.227882,56.284568],[-6.227939,56.284296],[-6.227496,56.284575]]],[[[-6.669932,56.57782],[-6.669686,56.577598],[-6.669456,56.577784],[-6.669932,56.57782]]],[[[-6.242671,56.322232],[-6.242103,56.322058],[-6.242191,56.322187],[-6.242671,56.322232]]],[[[-6.886385,56.529372],[-6.886177,56.529455],[-6.88638,56.529673],[-6.886385,56.529372]]],[[[-6.384034,56.296856],[-6.383702,56.296823],[-6.383837,56.297065],[-6.384034,56.296856]]],[[[-6.199406,56.337324],[-6.199429,56.337171],[-6.199072,56.337146],[-6.199406,56.337324]]],[[[-6.343247,56.281252],[-6.342772,56.28138],[-6.342823,56.281455],[-6.343247,56.281252]]],[[[-6.284564,56.34119],[-6.284694,56.341095],[-6.284459,56.340999],[-6.284564,56.34119]]],[[[-6.903706,56.530753],[-6.903804,56.530706],[-6.903325,56.530463],[-6.903706,56.530753]]],[[[-6.894812,56.4451],[-6.894887,56.444845],[-6.894728,56.444862],[-6.894812,56.4451]]],[[[-6.154604,56.411784],[-6.15426,56.411926],[-6.154378,56.411957],[-6.154604,56.411784]]],[[[-6.764245,56.549094],[-6.764092,56.549133],[-6.76419,56.549348],[-6.764245,56.549094]]],[[[-6.859006,56.53177],[-6.858746,56.53184],[-6.858855,56.531958],[-6.859006,56.53177]]],[[[-6.163482,56.484218],[-6.163283,56.484299],[-6.163288,56.484346],[-6.163482,56.484218]]],[[[-6.972698,56.519834],[-6.972404,56.51995],[-6.97255,56.520037],[-6.972698,56.519834]]],[[[-6.903866,56.530613],[-6.903989,56.530569],[-6.903662,56.530494],[-6.903866,56.530613]]],[[[-6.387767,56.294694],[-6.387468,56.294708],[-6.387512,56.294744],[-6.387767,56.294694]]],[[[-6.902278,56.530711],[-6.902304,56.53068],[-6.902104,56.530587],[-6.902278,56.530711]]],[[[-6.371338,56.306402],[-6.371325,56.306366],[-6.371116,56.306377],[-6.371338,56.306402]]],[[[-6.901821,56.530652],[-6.901827,56.530606],[-6.901648,56.5306],[-6.901821,56.530652]]],[[[-6.902711,56.53106],[-6.902726,56.531019],[-6.90256,56.531012],[-6.902711,56.53106]]]]}}
