{"type":"Feature","properties":{"mrgid":21342,"name":"Sahara Coast","placeType":"Coast","source":"MarineRegions:coasts_subnational"},"geometry":{"type":"MultiLineString","coordinates":[[[-16.010817,23.55181],[-16.013031,23.553901],[-16.004941,23.564116],[-16.005049,23.555635],[-16.010817,23.55181]],[[-16.008145,23.528169],[-16.012951,23.540371],[-16.011691,23.542418],[-16.004607,23.531571],[-16.008145,23.528169]],[[-15.993511,23.505316],[-15.996228,23.506498],[-16.003249,23.5217],[-15.99829,23.520266],[-15.993511,23.505316]],[[-16.494379,20.608415],[-16.503153,20.63629],[-16.494577,20.639888],[-16.489573,20.626992],[-16.494379,20.608415]],[[-16.484532,20.592261],[-16.486531,20.61272],[-16.479376,20.620926],[-16.484532,20.592261]],[[-16.448667,20.566233],[-16.473129,20.585042],[-16.469917,20.614645],[-16.448416,20.617462],[-16.448667,20.566233]],[[-16.388791,19.849148],[-16.396953,19.858869],[-16.383768,19.865421],[-16.381618,19.861721],[-16.388791,19.849148]],[[-16.358884,19.686671],[-16.364167,19.690858],[-16.351801,19.714868],[-16.350864,19.735543],[-16.339606,19.743706],[-16.339867,19.718441],[-16.358884,19.686671]],[[-16.492723,19.669437],[-16.503343,19.675738],[-16.497574,19.721637],[-16.483147,19.732778],[-16.477872,19.700804],[-16.492723,19.669437]],[[-16.506349,19.639231],[-16.515267,19.644811],[-16.511308,19.65374],[-16.5021,19.652526],[-16.506349,19.639231]],[[-16.431828,19.594951],[-16.445887,19.620799],[-16.452061,19.685187],[-16.435708,19.719739],[-16.414639,19.813995],[-16.40437,19.821022],[-16.38961,19.816298],[-16.363276,19.850758],[-16.351099,19.854091],[-16.356652,19.786589],[-16.368171,19.775215],[-16.359064,19.764331],[-16.376263,19.694871],[-16.401589,19.636964],[-16.431828,19.594951]],[[-16.396801,19.581786],[-16.398466,19.608677],[-16.37224,19.637162],[-16.352872,19.681558],[-16.319419,19.724229],[-16.294597,19.731112],[-16.384093,19.61614],[-16.396801,19.581786]],[[-16.070154,17.58958],[-16.047384,17.709407],[-16.02286,18.030647],[-16.027891,18.169894],[-16.051705,18.328411],[-16.055718,18.454102],[-16.091917,18.568891],[-16.135216,18.658702],[-16.150768,18.75373],[-16.164457,18.780289],[-16.17883,18.895771],[-16.230076,19.022401],[-16.260397,19.078982],[-16.347517,19.186172],[-16.470168,19.259845],[-16.501147,19.337516],[-16.539487,19.380574],[-16.53189,19.390616],[-16.496764,19.392399],[-16.456012,19.374138],[-16.411534,19.391222],[-16.348552,19.439594],[-16.28629,19.531377],[-16.284634,19.551115],[-16.305388,19.536148],[-16.320643,19.538125],[-16.354582,19.513627],[-16.397791,19.458179],[-16.356994,19.539153],[-16.374309,19.528046],[-16.393264,19.498813],[-16.436887,19.472992],[-16.430362,19.421935],[-16.437031,19.408896],[-16.466938,19.421783],[-16.417932,19.528444],[-16.39518,19.550286],[-16.364733,19.612286],[-16.346158,19.625211],[-16.341936,19.658719],[-16.31446,19.687876],[-16.303894,19.678589],[-16.29267,19.684459],[-16.273329,19.72288],[-16.275481,19.748851],[-16.247464,19.7803],[-16.250559,19.82995],[-16.243,19.855844],[-16.259389,19.844281],[-16.266598,19.852165],[-16.255473,19.870444],[-16.255473,19.89226],[-16.275786,19.90096],[-16.29115,19.895588],[-16.303138,19.864226],[-16.315,19.868015],[-16.318744,19.88298],[-16.307314,19.906307],[-16.232649,19.979128],[-16.228627,19.991483],[-16.236186,20.022031],[-16.254222,20.030104],[-16.261576,20.046025],[-16.2385,20.044658],[-16.25272,20.055814],[-16.247977,20.089547],[-16.262646,20.1276],[-16.251738,20.123821],[-16.225926,20.147002],[-16.226538,20.15872],[-16.211049,20.172364],[-16.199953,20.207863],[-16.232479,20.281698],[-16.267273,20.285018],[-16.287297,20.325412],[-16.305711,20.335229],[-16.327582,20.386889],[-16.359144,20.42279],[-16.352971,20.429857],[-16.375308,20.486563],[-16.384561,20.536965],[-16.425906,20.598661],[-16.429174,20.63935],[-16.438884,20.64402],[-16.442908,20.631645],[-16.45081,20.647332],[-16.474831,20.662462],[-16.486332,20.686453],[-16.488394,20.726678],[-16.509156,20.725002],[-16.526401,20.736621],[-16.533493,20.682007],[-16.52604,20.642435],[-16.532881,20.615852],[-16.524655,20.580867],[-16.532935,20.556577],[-16.572147,20.589739],[-16.583848,20.591206],[-16.640395,20.657566],[-16.665379,20.676124],[-16.678798,20.677364],[-16.660284,20.733235],[-16.690174,20.74934],[-16.717012,20.783753],[-16.733553,20.823851],[-16.753471,20.839597],[-16.754695,20.871308],[-16.772857,20.924712],[-16.786977,20.932838],[-16.786851,20.917684],[-16.800928,20.930644],[-16.815228,20.981716],[-16.86129,21.040802],[-16.853362,21.08853],[-16.834498,21.056723],[-16.816398,21.054535],[-16.794609,20.991701],[-16.758853,20.965275],[-16.754245,20.992112],[-16.812538,21.080932],[-16.795492,21.102409],[-16.837549,21.14264],[-16.85005,21.14065],[-16.862353,21.166441],[-16.84743,21.19897],[-16.846441,21.268087],[-16.855998,21.233233],[-16.864872,21.226861],[-16.891549,21.230458],[-16.905841,21.254437],[-16.907173,21.27465],[-16.92394,21.258673],[-16.935253,21.216942],[-16.934722,21.185477],[-16.946323,21.172678],[-16.945872,21.12858],[-16.963576,21.116053],[-16.96389,21.105477],[-16.977777,21.115889],[-16.995814,21.051919],[-17.013409,21.054305],[-17.022526,21.04424],[-17.020447,21.023333],[-17.001681,21.01174],[-17.008738,20.978243],[-17.00295,20.964898],[-17.017459,20.911924],[-17.04292,20.906532],[-17.05183,20.888665],[-17.047528,20.871874],[-17.027125,20.850868],[-17.044468,20.769878],[-17.054448,20.774745],[-17.082744,20.826802],[-17.099809,20.833317],[-17.102167,20.847338],[-17.07631,20.883499],[-17.092248,20.918041],[-17.08891,20.946266],[-17.06046,21.001257],[-17.060263,21.079105],[-17.038959,21.162148],[-17.047887,21.183328],[-17.034379,21.271905],[-17.0242,21.293902],[-17.028132,21.333185],[-17.010304,21.401533],[-17.013319,21.428181],[-17.00251,21.470605],[-16.991134,21.486392],[-16.978561,21.571974],[-16.981558,21.601151],[-16.970911,21.654358],[-16.979101,21.717773],[-16.947853,21.760992],[-16.962262,21.776463],[-16.961586,21.803318],[-16.953036,21.832198],[-16.895508,21.900744],[-16.889227,21.918158],[-16.897218,21.938175],[-16.84195,22.058577],[-16.812168,22.154571],[-16.77003,22.186204],[-16.780983,22.205546],[-16.721701,22.249],[-16.683639,22.289131],[-16.656973,22.293063],[-16.629819,22.266018],[-16.613538,22.265902],[-16.532628,22.294892],[-16.493631,22.323493],[-16.491885,22.34987],[-16.479249,22.356421],[-16.456956,22.389516],[-16.450612,22.457845],[-16.428309,22.515253],[-16.377315,22.549239],[-16.359792,22.572496],[-16.341694,22.647815],[-16.347768,22.658194],[-16.338804,22.687487],[-16.344691,22.715983],[-16.326394,22.761927],[-16.329273,22.770214],[-16.28907,22.826511],[-16.289341,22.84739],[-16.301598,22.858516],[-16.286019,22.902418],[-16.271242,22.894705],[-16.212813,22.915252],[-16.179801,22.942918],[-16.145791,22.991209],[-16.138518,23.019343],[-16.153252,23.073164],[-16.176813,23.093576],[-16.206936,23.082631],[-16.186858,23.125778],[-16.160857,23.143411],[-16.117054,23.197096],[-16.112932,23.230755],[-16.057672,23.30379],[-16.058805,23.332238],[-16.01395,23.36409],[-15.985879,23.403231],[-15.952443,23.47117],[-15.972351,23.507614],[-15.941076,23.521708],[-15.915237,23.558101],[-15.90199,23.562988],[-15.874557,23.622956],[-15.857016,23.632153],[-15.80047,23.70736],[-15.793279,23.722855],[-15.801721,23.724331],[-15.747261,23.771348],[-15.730108,23.803217],[-15.711261,23.815134],[-15.71379,23.829371],[-15.742321,23.820094],[-15.712342,23.894198],[-15.749989,23.910012],[-15.77239,23.877972],[-15.766882,23.914791],[-15.782344,23.89642],[-15.790569,23.896523],[-15.80442,23.868952],[-15.81127,23.877512],[-15.820279,23.875101],[-15.846748,23.853187],[-15.891432,23.792293],[-15.923121,23.694335],[-15.96589,23.659963],[-15.983052,23.622569],[-16.00252,23.636988],[-16.001323,23.652784],[-15.959652,23.699546],[-15.956863,23.722658],[-15.921772,23.758712],[-15.924112,23.770197],[-15.90253,23.818984],[-15.801954,23.920252],[-15.762399,23.948883],[-15.661168,23.998268],[-15.601966,24.04153],[-15.581895,24.069194],[-15.581347,24.088689],[-15.525844,24.129871],[-15.520011,24.148091],[-15.407835,24.253326],[-15.328572,24.313654],[-15.239283,24.427295],[-15.207181,24.450526],[-15.180748,24.482602],[-15.135919,24.51015],[-15.032437,24.540883],[-15.007812,24.565339],[-14.984439,24.632414],[-14.891218,24.698665],[-14.87293,24.80373],[-14.828128,24.920867],[-14.835409,24.949666],[-14.827291,24.975466],[-14.822385,25.059023],[-14.840475,25.085626],[-14.844382,25.1225],[-14.842842,25.210386],[-14.823474,25.273512],[-14.827543,25.305802],[-14.794414,25.378984],[-14.783173,25.433046],[-14.730081,25.496388],[-14.68923,25.569414],[-14.685253,25.622244],[-14.660286,25.679221],[-14.638749,25.76188],[-14.573752,25.842517],[-14.50177,25.97599],[-14.478135,26.086183],[-14.496099,26.13419],[-14.493193,26.144557],[-14.412669,26.251002],[-14.30494,26.292016],[-14.220475,26.369009],[-14.178777,26.426078],[-14.070967,26.434537],[-13.993693,26.462446],[-13.91101,26.520418],[-13.757118,26.597339],[-13.620201,26.683892],[-13.54804,26.767297],[-13.495858,26.875394],[-13.486353,26.920646],[-13.448257,27.012332],[-13.434101,27.020945]],[[33.693239,27.76735],[33.680748,27.779149],[33.676679,27.79173],[33.68243,27.787204],[33.693239,27.76735]],[[33.609171,27.751348],[33.588489,27.768753],[33.59343,27.781911],[33.61008,27.77409],[33.609171,27.751348]],[[33.709097,27.749635],[33.701133,27.763777],[33.703815,27.774154],[33.708288,27.768232],[33.709097,27.749635]],[[33.694454,27.680066],[33.673737,27.701173],[33.675015,27.718192],[33.691106,27.711961],[33.699018,27.684954],[33.694454,27.680066]],[[33.795021,27.665674],[33.78566,27.670158],[33.807161,27.681669],[33.80952,27.678952],[33.795021,27.665674]],[[33.641777,27.650907],[33.626883,27.663128],[33.629178,27.680392],[33.634371,27.678384],[33.641777,27.650907]],[[33.705344,27.643681],[33.701708,27.677871],[33.723362,27.679283],[33.73509,27.7047],[33.741245,27.6733],[33.705344,27.643681]],[[33.681629,27.62638],[33.666193,27.640658],[33.668192,27.644354],[33.678327,27.63944],[33.681629,27.62638]],[[33.805497,27.619623],[33.784661,27.650851],[33.793545,27.660376],[33.816684,27.64801],[33.817503,27.627813],[33.805497,27.619623]],[[33.789837,27.61507],[33.784418,27.615699],[33.784975,27.629719],[33.791816,27.620152],[33.789837,27.61507]],[[33.887891,27.572317],[33.869594,27.590734],[33.871097,27.593504],[33.883491,27.592028],[33.887891,27.572317]],[[33.872168,27.554228],[33.872601,27.560428],[33.882166,27.557557],[33.879629,27.554543],[33.872168,27.554228]],[[33.778963,27.5497],[33.764339,27.562391],[33.778945,27.567619],[33.768345,27.570482],[33.767696,27.578512],[33.741326,27.584388],[33.764979,27.622357],[33.778227,27.6154],[33.782491,27.589249],[33.805109,27.575972],[33.780863,27.56052],[33.778963,27.5497]],[[33.76793,27.546355],[33.758012,27.554499],[33.756339,27.563211],[33.766266,27.553913],[33.76793,27.546355]],[[33.855078,27.542098],[33.84496,27.547263],[33.844071,27.555283],[33.858309,27.550162],[33.855078,27.542098]],[[33.780378,27.540756],[33.778487,27.546471],[33.788928,27.555335],[33.790421,27.541333],[33.780378,27.540756]],[[33.749391,27.511894],[33.743639,27.516889],[33.750803,27.520873],[33.760927,27.515248],[33.749391,27.511894]],[[33.728348,27.506815],[33.723156,27.509042],[33.736089,27.522307],[33.73851,27.516125],[33.728348,27.506815]],[[34.030236,27.443816],[33.98664,27.490006],[33.955318,27.501847],[33.931163,27.498823],[33.917412,27.524637],[33.930127,27.53649],[33.96107,27.534069],[34.022333,27.498412],[34.042466,27.452896],[34.030236,27.443816]],[[33.870881,27.207775],[33.87531,27.221615],[33.883545,27.221012],[33.885912,27.217133],[33.870881,27.207775]],[[33.972094,27.186841],[33.972348,27.206828],[33.97818,27.21286],[33.988179,27.194588],[33.984166,27.186965],[33.972094,27.186841]],[[33.955985,27.18207],[33.948489,27.18567],[33.946194,27.203788],[33.925521,27.213219],[33.897341,27.244834],[33.908015,27.252765],[33.905523,27.266528],[33.931668,27.252333],[33.933233,27.231676],[33.961818,27.187416],[33.955985,27.18207]],[[33.979593,27.163953],[33.979241,27.17083],[33.986351,27.176652],[33.986476,27.16677],[33.979593,27.163953]],[[33.868002,27.157435],[33.867093,27.167074],[33.873969,27.171062],[33.873825,27.16279],[33.868002,27.157435]],[[33.98006,26.814311],[33.976505,26.83196],[33.982302,26.838693],[33.987575,26.827038],[33.98006,26.814311]],[[33.997701,26.701361],[33.95603,26.773633],[33.956598,26.788349],[33.96701,26.775361],[33.974318,26.783701],[33.98167,26.768628],[33.992733,26.764381],[33.993497,26.7444],[34.004216,26.72614],[33.997701,26.701361]],[[33.964805,26.65106],[33.952143,26.661725],[33.950676,26.675489],[33.973509,26.6886],[33.974309,26.666558],[33.964805,26.65106]],[[34.998348,24.968312],[34.993811,24.970588],[34.993533,24.977017],[35.005395,24.969709],[34.998348,24.968312]],[[35.145227,24.68852],[35.137901,24.706169],[35.1389,24.709147],[35.148476,24.692437],[35.145227,24.68852]],[[35.182722,24.640648],[35.155335,24.658945],[35.148521,24.675913],[35.176908,24.659219],[35.182722,24.640648]],[[35.383772,24.374284],[35.371,24.385518],[35.379263,24.406621],[35.373738,24.42177],[35.391026,24.406396],[35.391026,24.378191],[35.383772,24.374284]],[[35.401054,24.341488],[35.390541,24.347221],[35.38127,24.362361],[35.400791,24.35525],[35.401054,24.341488]],[[35.382279,24.320853],[35.379777,24.325658],[35.389793,24.328871],[35.389793,24.3236],[35.382279,24.320853]],[[35.396553,24.31764],[35.402547,24.334147],[35.410555,24.331175],[35.4008,24.317874],[35.396553,24.31764]],[[35.383287,24.294709],[35.374782,24.297218],[35.346,24.328405],[35.370021,24.321762],[35.367771,24.314886],[35.383287,24.294709]],[[35.815718,23.829614],[35.80563,23.833357],[35.814171,23.842268],[35.817834,23.832991],[35.815718,23.829614]],[[35.601717,23.811021],[35.598773,23.812019],[35.603112,23.829778],[35.607125,23.823467],[35.601717,23.811021]],[[35.503571,23.797357],[35.505361,23.80625],[35.511888,23.815224],[35.512743,23.803291],[35.503571,23.797357]],[[36.182298,23.592698],[36.180272,23.622001],[36.197769,23.619779],[36.208695,23.606107],[36.182298,23.592698]],[[36.241769,23.563729],[36.22701,23.566273],[36.229287,23.572078],[36.240042,23.570559],[36.241769,23.563729]],[[35.720867,23.189561],[35.676318,23.222314],[35.634701,23.224923],[35.612625,23.210901],[35.599808,23.213563],[35.61697,23.199986],[35.594607,23.206843],[35.584031,23.224357],[35.649903,23.233644],[35.681528,23.229269],[35.692292,23.238811],[35.706503,23.219119],[35.694668,23.221538],[35.720867,23.189561]],[[36.242804,22.903101],[36.264018,22.911653],[36.276275,22.909348],[36.267104,22.905099],[36.242804,22.903101]],[[36.29441,22.902534],[36.282108,22.906187],[36.292106,22.907122],[36.29441,22.902534]],[[35.731802,22.890079],[35.725871,22.897602],[35.726006,22.901723],[35.732116,22.89924],[35.731802,22.890079]],[[35.725494,22.886595],[35.72137,22.889475],[35.714909,22.9032],[35.716674,22.90385],[35.725494,22.886595]],[[36.20163,22.780468],[36.191378,22.787479],[36.211323,22.790701],[36.209288,22.80923],[36.215596,22.791484],[36.240087,22.786858],[36.244533,22.782328],[36.207163,22.786597],[36.20163,22.780468]],[[36.270903,22.763807],[36.262821,22.770214],[36.248358,22.774472],[36.26345,22.772898],[36.270903,22.763807]],[[36.111351,22.745997],[36.110118,22.751506],[36.10639,22.757905],[36.112773,22.756132],[36.111351,22.745997]],[[36.312338,22.743702],[36.304869,22.753448],[36.289523,22.763662],[36.306921,22.756832],[36.312338,22.743702]],[[36.134463,22.726477],[36.13988,22.742902],[36.154641,22.753088],[36.154217,22.744609],[36.134463,22.726477]],[[36.09317,22.722695],[36.102746,22.740877],[36.126784,22.735376],[36.10118,22.734961],[36.09317,22.722695]],[[36.144488,22.720238],[36.142599,22.724091],[36.153732,22.727339],[36.153804,22.725064],[36.144488,22.720238]],[[36.037856,22.718158],[36.034806,22.736312],[36.060635,22.761467],[36.054308,22.751199],[36.062211,22.724729],[36.046974,22.739588],[36.037856,22.718158]],[[36.183711,22.701166],[36.178671,22.705256],[36.169859,22.706316],[36.184456,22.710626],[36.183711,22.701166]],[[36.085008,22.693484],[36.063399,22.699376],[36.061949,22.700951],[36.074747,22.706532],[36.085008,22.693484]],[[36.111405,22.690972],[36.103996,22.69207],[36.097293,22.703921],[36.109622,22.702645],[36.11108,22.711483],[36.125192,22.709275],[36.13466,22.720292],[36.137656,22.714189],[36.125273,22.707008],[36.119243,22.708782],[36.111405,22.690972]],[[36.091146,22.688125],[36.091937,22.695957],[36.101928,22.691034],[36.098508,22.688333],[36.091146,22.688125]],[[36.134741,22.676716],[36.125958,22.680115],[36.131898,22.700971],[36.139206,22.697064],[36.134741,22.676716]],[[36.364926,22.664797],[36.32312,22.696865],[36.318629,22.703375],[36.369208,22.664917],[36.364926,22.664797]],[[36.193646,22.647031],[36.190298,22.657958],[36.167222,22.681375],[36.187706,22.682456],[36.200091,22.667905],[36.193646,22.647031]],[[36.236577,22.639483],[36.240751,22.650518],[36.244542,22.648337],[36.241805,22.640606],[36.236577,22.639483]],[[36.265242,22.594663],[36.258347,22.601186],[36.258751,22.606112],[36.266187,22.599602],[36.265242,22.594663]],[[36.359435,22.563898],[36.357959,22.566967],[36.364647,22.575159],[36.361371,22.564728],[36.359435,22.563898]],[[36.521832,22.395139],[36.506226,22.403644],[36.511158,22.409719],[36.521599,22.402863],[36.521832,22.395139]],[[36.549399,22.392299],[36.539497,22.402739],[36.540712,22.405147],[36.552602,22.392377],[36.549399,22.392299]],[[36.559703,22.368787],[36.544701,22.378498],[36.528644,22.402448],[36.529876,22.403681],[36.559703,22.368787]],[[36.633432,22.339198],[36.618545,22.345355],[36.618915,22.354876],[36.626672,22.351499],[36.633432,22.339198]],[[36.615971,22.303091],[36.615531,22.317938],[36.604434,22.325965],[36.606063,22.335525],[36.623928,22.31458],[36.615971,22.303091]],[[36.626412,22.283371],[36.625385,22.292066],[36.639489,22.291081],[36.626412,22.283371]],[[36.658533,22.245919],[36.649397,22.258736],[36.627761,22.249889],[36.627085,22.262248],[36.641512,22.28175],[36.64235,22.270948],[36.657696,22.2615],[36.658533,22.245919]],[[36.828497,22.146813],[36.824825,22.148972],[36.828524,22.160295],[36.841304,22.149001],[36.828497,22.146813]],[[36.877277,22.098592],[36.865766,22.107664],[36.866055,22.112162],[36.880049,22.100148],[36.877277,22.098592]],[[37.137333,21.140269],[37.14266,21.147181],[37.150931,21.147047],[37.143498,21.141379],[37.137333,21.140269]],[[37.25274,20.749193],[37.245369,20.75958],[37.248526,20.821735],[37.251534,20.836747],[37.267777,20.850255],[37.285625,20.841037],[37.268346,20.758996],[37.25274,20.749193]],[[32.356142,29.555264],[32.396789,29.51019],[32.444211,29.485026],[32.479932,29.445138],[32.497699,29.438163],[32.505473,29.422476],[32.565279,29.38238],[32.594178,29.34002],[32.609388,29.289337],[32.6044,29.280061],[32.629944,29.234401],[32.625497,29.203778],[32.64752,29.171827],[32.650518,29.126413],[32.665331,29.109709],[32.666743,29.09502],[32.640879,29.064194],[32.649339,29.050507],[32.637647,29.059702],[32.62395,29.052152],[32.631195,29.014389],[32.620098,28.979028],[32.668868,28.920285],[32.678201,28.881647],[32.72546,28.838467],[32.736251,28.813645],[32.752748,28.799944],[32.799575,28.782459],[32.813382,28.761364],[32.832696,28.727497],[32.827809,28.714077],[32.863178,28.617336],[32.866131,28.569383],[32.927448,28.550053],[32.97394,28.495288],[33.001409,28.487503],[33.026168,28.46105],[33.053179,28.40202],[33.0825,28.367135],[33.110516,28.356361],[33.114369,28.321497],[33.128013,28.290248],[33.151367,28.27754],[33.186008,28.220212],[33.242763,28.170124],[33.245373,28.143053],[33.274218,28.138455],[33.334311,28.085392],[33.342465,28.051279],[33.364586,28.045413],[33.378357,28.028611],[33.413268,28.030732],[33.488138,27.982872],[33.562218,27.886257],[33.567862,27.858535],[33.588318,27.840203],[33.583998,27.805219],[33.592071,27.786266],[33.571432,27.785062],[33.561695,27.810674],[33.545765,27.805851],[33.493106,27.83315],[33.482557,27.830707],[33.472577,27.811043],[33.524814,27.748367],[33.538772,27.746944],[33.560264,27.758491],[33.555126,27.726263],[33.541229,27.709309],[33.531862,27.713763],[33.527837,27.707516],[33.532607,27.700226],[33.546801,27.700417],[33.555368,27.681932],[33.579975,27.676522],[33.596578,27.639746],[33.56562,27.670806],[33.560516,27.667528],[33.570839,27.652268],[33.531401,27.680444],[33.497418,27.647127],[33.523491,27.630722],[33.563747,27.583712],[33.564241,27.524446],[33.595491,27.519813],[33.604562,27.500867],[33.626315,27.492651],[33.634613,27.458297],[33.681891,27.41526],[33.693347,27.39013],[33.678723,27.3718],[33.686228,27.369135],[33.697253,27.338266],[33.728051,27.309016],[33.752315,27.302642],[33.847455,27.247717],[33.84227,27.214813],[33.853485,27.202761],[33.827385,27.17857],[33.836276,27.14903],[33.832757,27.108792],[33.89645,27.067708],[33.906477,27.04714],[33.892329,27.050436],[33.88485,27.034954],[33.915009,27.005193],[33.902581,26.99542],[33.924342,26.978885],[33.919067,26.970327],[33.930453,26.962641],[33.94397,26.929476],[33.961043,26.916805],[33.968009,26.893898],[33.995109,26.896939],[33.989987,26.87759],[34.003605,26.853381],[33.998979,26.835427],[33.972267,26.861319],[33.951485,26.845478],[33.944853,26.824966],[33.950548,26.800453],[33.937689,26.786753],[33.960198,26.748178],[33.942189,26.737192],[33.936492,26.666153],[34.017697,26.610965],[34.040108,26.555373],[34.070979,26.515261],[34.086017,26.453394],[34.108203,26.411356],[34.134995,26.386577],[34.137209,26.372357],[34.158468,26.34534],[34.181031,26.328196],[34.194387,26.272052],[34.209885,26.2529],[34.223663,26.20295],[34.290507,26.110288],[34.281741,26.097821],[34.306517,26.085844],[34.345901,25.983512],[34.37884,25.964017],[34.413356,25.909173],[34.418811,25.86788],[34.436018,25.84413],[34.431014,25.836506],[34.471443,25.824862],[34.491538,25.786646],[34.540041,25.744958],[34.573395,25.691445],[34.56894,25.677646],[34.585311,25.656615],[34.591088,25.628416],[34.610547,25.597772],[34.638528,25.577047],[34.64732,25.55092],[34.645485,25.524278],[34.654735,25.501606],[34.678902,25.480621],[34.677777,25.458346],[34.693058,25.440976],[34.701176,25.39672],[34.740596,25.351929],[34.739974,25.331957],[34.756355,25.294627],[34.795192,25.255099],[34.813144,25.198487],[34.854662,25.166989],[34.855994,25.152769],[34.879341,25.120267],[34.883786,25.086553],[34.905783,25.069654],[34.920327,25.024726],[34.947876,25.000732],[34.951206,24.9856],[34.938489,24.958926],[34.966785,24.931718],[34.968845,24.917038],[34.986548,24.894387],[34.997618,24.82398],[35.076782,24.744809],[35.092442,24.713415],[35.088249,24.6861],[35.094566,24.670513],[35.109903,24.662509],[35.102685,24.639101],[35.118803,24.615505],[35.115825,24.604945],[35.13387,24.609115],[35.145218,24.58276],[35.16834,24.561928],[35.151573,24.550432],[35.154363,24.535286],[35.138361,24.517817],[35.141384,24.511176],[35.196348,24.470216],[35.228523,24.407414],[35.278139,24.368949],[35.302683,24.356584],[35.319702,24.357509],[35.344505,24.318999],[35.389551,24.280711],[35.422049,24.224067],[35.4358,24.21467],[35.430788,24.18784],[35.481495,24.141266],[35.498954,24.102503],[35.512193,24.106394],[35.490979,24.132323],[35.494734,24.137819],[35.51646,24.130007],[35.532668,24.111658],[35.554899,24.110018],[35.584579,24.086377],[35.610707,24.038416],[35.607927,24.019156],[35.637077,24.000085],[35.64633,24.007176],[35.67053,24.005752],[35.722163,23.991247],[35.761628,23.957298],[35.772419,23.923738],[35.793965,23.905438],[35.787657,23.889131],[35.761646,23.929342],[35.745158,23.935788],[35.69438,23.910041],[35.6384,23.928435],[35.60465,23.92598],[35.565239,23.955319],[35.514057,23.924485],[35.53121,23.94378],[35.520114,23.941042],[35.557643,23.959432],[35.51034,23.977072],[35.48271,23.926526],[35.474547,23.928587],[35.482546,23.914393],[35.479218,23.904169],[35.486173,23.903278],[35.491943,23.859341],[35.49044,23.844269],[35.478668,23.842765],[35.485643,23.820102],[35.474834,23.802535],[35.477201,23.783679],[35.483231,23.77755],[35.49656,23.796415],[35.486209,23.769901],[35.509736,23.788015],[35.51699,23.758929],[35.513031,23.737502],[35.50511,23.76133],[35.486409,23.753392],[35.502949,23.741449],[35.513687,23.668018],[35.510367,23.628454],[35.49477,23.645871],[35.487334,23.631651],[35.492194,23.620499],[35.497344,23.625853],[35.50511,23.590096],[35.508656,23.606955],[35.511762,23.602975],[35.505732,23.534371],[35.487379,23.491331],[35.496389,23.462872],[35.53481,23.422327],[35.545925,23.383477],[35.558283,23.373945],[35.554564,23.315122],[35.576101,23.253949],[35.575922,23.211982],[35.630048,23.139512],[35.651692,23.090246],[35.660433,23.063139],[35.660963,23.006234],[35.674941,22.965661],[35.666283,22.973275],[35.659874,22.967026],[35.669082,22.939452],[35.679774,22.947625],[35.675788,22.954168],[35.687082,22.958424],[35.689619,22.938616],[35.7104,22.915963],[35.716043,22.889413],[35.75991,22.843566],[35.750478,22.871619],[35.760063,22.87637],[35.751864,22.896812],[35.719338,22.909265],[35.716971,22.919662],[35.734917,22.922794],[35.758668,22.907627],[35.767919,22.895632],[35.767074,22.87846],[35.774598,22.888321],[35.781968,22.872265],[35.78447,22.844654],[35.772608,22.83859],[35.778431,22.82786],[35.790859,22.822201],[35.792598,22.829491],[35.783877,22.835034],[35.792571,22.842577],[35.802749,22.808071],[35.843671,22.76092],[35.880168,22.73615],[35.929595,22.713489],[35.942762,22.714694],[35.949134,22.706234],[35.945985,22.68062],[35.96924,22.694354],[35.97699,22.689746],[35.970329,22.683302],[36.034707,22.672945],[36.054066,22.678138],[36.097949,22.660884],[36.171974,22.658787],[36.184494,22.654339],[36.18325,22.647421],[36.199559,22.633434],[36.226262,22.626196],[36.240212,22.609168],[36.253604,22.607497],[36.257709,22.589019],[36.275429,22.576913],[36.282395,22.561036],[36.30278,22.492746],[36.346683,22.458202],[36.424452,22.421889],[36.418908,22.403125],[36.434442,22.359229],[36.572151,22.290802],[36.615666,22.249528],[36.642395,22.238557],[36.647515,22.217102],[36.67817,22.191299],[36.690688,22.193262],[36.718067,22.161148],[36.741441,22.154671],[36.767018,22.172138],[36.794217,22.145536],[36.797114,22.124017],[36.837956,22.085595],[36.864048,22.078261],[36.880581,22.061232],[36.891121,22.062652],[36.88896,22.020328],[36.856883,21.973984],[36.878753,21.943087],[36.870266,21.906324],[36.86069,21.905603],[36.873019,21.896747],[36.869267,21.858271],[36.878322,21.835538],[36.867899,21.829851],[36.854157,21.839932],[36.848477,21.832803],[36.864676,21.826719],[36.857297,21.815236],[36.88229,21.826448],[36.872013,21.79079],[36.854561,21.787057],[36.860609,21.780963],[36.874901,21.786273],[36.880246,21.763666],[36.860798,21.755268],[36.87942,21.758814],[36.893613,21.728392],[36.895134,21.718791],[36.877691,21.714263],[36.895511,21.714426],[36.894972,21.683005],[36.876152,21.693013],[36.879923,21.67265],[36.893369,21.679432],[36.901631,21.666096],[36.90155,21.644497],[36.885504,21.639015],[36.89481,21.63168],[36.904898,21.639303],[36.91109,21.62935],[36.913745,21.590126],[36.927651,21.585202],[36.934049,21.555574],[36.947811,21.543217],[36.966431,21.503017],[36.952374,21.488858],[36.9444,21.49279],[36.944696,21.482919],[36.961742,21.479228],[36.965126,21.497237],[36.97013,21.494161],[37.013159,21.424715],[36.979598,21.406375],[36.972595,21.394465],[37.011297,21.415554],[37.055523,21.359834],[37.042049,21.350752],[37.022313,21.355073],[37.01216,21.366765],[37.002792,21.343536],[37.014888,21.348907],[37.020053,21.332026],[37.025147,21.350095],[37.051113,21.346765],[37.057953,21.352321],[37.133192,21.26419],[37.192177,21.218022],[37.230852,21.175316],[37.273709,21.122119],[37.287956,21.084767],[37.315011,21.06244],[37.296849,21.028662],[37.282025,21.042425],[37.294868,21.020578],[37.252135,21.017455],[37.249517,20.99716],[37.197426,21.101596],[37.219268,21.098961],[37.234135,21.0662],[37.274789,21.042898],[37.270569,21.046365],[37.279801,21.052611],[37.245549,21.078443],[37.230356,21.105187],[37.237259,21.121219],[37.232696,21.135589],[37.201691,21.141261],[37.200287,21.129732],[37.183268,21.160564],[37.177238,21.139732],[37.161408,21.145534],[37.156647,21.166567],[37.17137,21.191537],[37.163748,21.209732],[37.132401,21.226643],[37.105544,21.21515],[37.092783,21.17323],[37.099884,21.156401],[37.130798,21.154193],[37.116984,21.140738],[37.126443,21.126724],[37.115733,21.107609],[37.12861,21.085173],[37.111998,21.067047],[37.096752,21.077927],[37.087391,21.054472],[37.092377,21.034141],[37.105481,21.029643],[37.107749,21.010168],[37.12682,20.993634],[37.154046,20.930879],[37.155297,20.895274],[37.167402,20.873746],[37.164413,20.79803],[37.175033,20.780998],[37.171676,20.748319],[37.180677,20.723489],[37.17561,20.687029],[37.204671,20.643154],[37.203941,20.625668],[37.237367,20.537983],[37.22709,20.486681],[37.234171,20.460184],[37.213373,20.458783],[37.201385,20.442349],[37.210079,20.460428],[37.19098,20.461636],[37.185186,20.450455],[37.204013,20.396437],[37.186922,20.371411],[37.184367,20.332252],[37.191252,20.330352],[37.189496,20.305943],[37.20117,20.280249],[37.199856,20.222729],[37.209126,20.178359],[37.202627,20.17701],[37.210791,20.153791],[37.214471,20.082835],[37.196391,20.036231],[37.201035,20.057742],[37.179776,20.036438],[37.190522,20.008881],[37.175511,20.006441],[37.179614,19.99862],[37.191665,20.002238],[37.198407,19.969993],[37.208226,19.958058],[37.210025,19.945683],[37.200936,19.944197],[37.215561,19.9387],[37.225649,19.899385],[37.254565,19.863782],[37.251785,19.832443],[37.265835,19.842904],[37.258913,19.740193]]]}}
