{"type":"Feature","properties":{"mrgid":21727,"name":"Sahul Shelf","placeType":"Marine Ecoregion of the World (MEOW)","source":"Ecoregions:provinces"},"geometry":{"type":"Polygon","coordinates":[[[146.444125,-8.628373],[146.419983,-8.604998],[146.379105,-8.584712],[146.318571,-8.508887],[146.268738,-8.426249],[146.262483,-8.359721],[146.238552,-8.28584],[146.111085,-8.16389],[146.11023,-8.13473],[146.089692,-8.091107],[145.98774,-8.051111],[145.918584,-8.039717],[145.880802,-8.041661],[145.835505,-8.028053],[145.718289,-7.96778],[145.649988,-7.959716],[145.616913,-7.937783],[145.432737,-7.948052],[145.244106,-7.868609],[145.182726,-7.813835],[145.165545,-7.822241],[145.159335,-7.843346],[144.995517,-7.815554],[144.879669,-7.782497],[144.841068,-7.749233],[144.872451,-7.705421],[144.862452,-7.610552],[144.844704,-7.60778],[144.832473,-7.679168],[144.821781,-7.689023],[144.785673,-7.69139],[144.5994,-7.660286],[144.58635,-7.65611],[144.552186,-7.611947],[144.535671,-7.524305],[144.5229,-7.502921],[144.51075,-7.506179],[144.508329,-7.618058],[144.408582,-7.519868],[144.435519,-7.679996],[144.467748,-7.743059],[144.395811,-7.755839],[144.358785,-7.743338],[144.354123,-7.726112],[144.360225,-7.682498],[144.314118,-7.617914],[144.260802,-7.637786],[144.243567,-7.666946],[144.270243,-7.773758],[144.217377,-7.794656],[144.147222,-7.778888],[143.911926,-7.696943],[143.829189,-7.617338],[143.768313,-7.506665],[143.664831,-7.467641],[143.839422,-7.715285],[143.853714,-7.81028],[143.958006,-7.978616],[143.956206,-7.987085],[143.888112,-8.039996],[143.83386,-8.045837],[143.752761,-8.039996],[143.721909,-8.009441],[143.661375,-7.991387],[143.618832,-7.986113],[143.546085,-8.00639],[143.483697,-7.990136],[143.454411,-7.924166],[143.438643,-7.910279],[143.360379,-7.901108],[143.358696,-7.913816],[143.542998,-8.054873],[143.629407,-8.195975],[143.623854,-8.238743],[143.568846,-8.247221],[143.338563,-8.25389],[143.069976,-8.310833],[142.976628,-8.34416],[142.943436,-8.336393],[142.845795,-8.286668],[142.776648,-8.270837],[142.696359,-8.267498],[142.575255,-8.296667],[142.50861,-8.33597],[142.440111,-8.332082],[142.411923,-8.315837],[142.382601,-8.189306],[142.327755,-8.16389],[142.221618,-8.17334],[142.139007,-8.223893],[142.135524,-8.233334],[142.159851,-8.238473],[142.225938,-8.199305],[142.324398,-8.183339],[142.358292,-8.202779],[142.385238,-8.32319],[142.439418,-8.371394],[142.469973,-8.378477],[142.512759,-8.371943],[142.556634,-8.340839],[142.638597,-8.310554],[142.734681,-8.322497],[142.774137,-8.332919],[142.803297,-8.361809],[142.906104,-8.423612],[143.047206,-8.44847],[143.110224,-8.470286],[143.245989,-8.578052],[143.392761,-8.770283],[143.404632,-8.968058],[143.365104,-9.01223],[143.314758,-9.033128],[143.286102,-9.019997],[143.248014,-9.025559],[143.041995,-9.093131],[143.027343,-9.110834],[142.902774,-9.197504],[142.807464,-9.252224],[142.723845,-9.283337],[142.638885,-9.334718],[142.571628,-9.328058],[142.497747,-9.265283],[142.42581,-9.228059],[142.206498,-9.164996],[141.944697,-9.206945],[141.721344,-9.214442],[141.612318,-9.236105],[141.522489,-9.221111],[141.448581,-9.165833],[141.375249,-9.143333],[141.309828,-9.15389],[141.213591,-9.22472],[141.160797,-9.2375],[141.119964,-9.230975],[141.007014,-9.128465],[140.943843,-9.089162],[140.876343,-9.070559],[140.841648,-9.046394],[140.757471,-8.940275],[140.608854,-8.802782],[140.50386,-8.632079],[140.229126,-8.39834],[140.051637,-8.268893],[139.985226,-8.193608],[139.974975,-8.176661],[139.982148,-8.137718],[140.00562,-8.113553],[140.02245,-8.10989],[140.051637,-8.086598],[140.061915,-8.071388],[140.133879,-7.93916],[140.147901,-7.885835],[140.053644,-7.926875],[140.037201,-7.994168],[140.039982,-8.054441],[139.965633,-8.09684],[139.9158,-8.114714],[139.752198,-8.112779],[139.620519,-8.125001],[139.529421,-8.177228],[139.418298,-8.203607],[139.366368,-8.206388],[139.325805,-8.201663],[139.275819,-8.169722],[139.218291,-8.089163],[139.084137,-8.140004],[138.973572,-8.220554],[138.939057,-8.295002],[138.910266,-8.298332],[138.848301,-8.18],[138.836637,-8.129996],[138.904146,-8.037215],[138.91095,-7.912916],[138.922335,-7.90028],[138.991905,-7.867502],[139.005828,-7.820279],[139.00374,-7.760555],[139.055238,-7.631666],[139.093308,-7.591112],[139.09455,-7.561808],[139.068846,-7.536392],[139.006233,-7.513613],[138.933873,-7.463609],[138.897756,-7.380134],[138.862737,-7.336664],[138.763881,-7.271387],[138.6711,-7.224164],[138.662199,-7.200971],[138.674565,-7.192916],[138.934692,-7.20278],[139.009428,-7.244999],[139.05054,-7.251668],[139.175811,-7.238888],[139.222476,-7.162496],[139.175811,-7.183052],[139.161501,-7.20278],[139.042206,-7.213607],[138.847473,-7.153892],[138.748833,-7.108892],[138.58164,-6.961391],[138.563874,-6.938054],[138.562902,-6.906527],[138.59802,-6.878339],[138.644028,-6.877187],[138.699198,-6.896321],[138.741336,-6.897428],[138.805101,-6.856397],[138.909294,-6.843608],[138.983292,-6.868745],[139.048308,-6.933338],[139.107186,-6.970283],[139.136787,-6.978338],[139.186647,-6.967574],[139.172481,-6.959168],[139.129119,-6.954443],[139.088862,-6.933338],[139.017492,-6.868889],[138.98664,-6.851663],[138.937473,-6.832781],[138.882447,-6.825833],[138.681918,-6.720551],[138.666654,-6.657785],[138.704958,-6.646949],[138.676905,-6.608888],[138.481623,-6.421661],[138.437748,-6.363053],[138.408327,-6.296948],[138.389985,-6.233606],[138.393171,-6.184583],[138.365235,-6.101387],[138.296052,-5.972786],[138.297456,-5.855552],[138.211605,-5.831666],[138.16773,-5.793335],[138.191283,-5.75864],[138.351627,-5.680286],[138.341313,-5.671394],[138.314394,-5.670557],[138.221307,-5.684867],[138.16422,-5.717915],[138.085911,-5.739866],[138.07125,-5.731316],[138.052737,-5.626943],[138.073302,-5.438051],[138.065247,-5.408954],[138.036375,-5.460002],[137.94858,-5.427215],[137.778048,-5.314715],[137.750004,-5.280551],[137.662758,-5.223887],[137.608578,-5.209442],[137.574981,-5.188337],[137.570256,-5.176664],[137.593566,-5.155559],[137.518308,-5.154866],[137.409147,-5.105834],[137.304405,-5.03],[137.268864,-4.986944],[137.210796,-5.012639],[137.003598,-4.954166],[136.822752,-4.930415],[136.79928,-4.905836],[136.631619,-4.828058],[136.359954,-4.683059],[136.258317,-4.684166],[136.035396,-4.593608],[136.008234,-4.569515],[135.972198,-4.516388],[135.928314,-4.498613],[135.80109,-4.491944],[135.724122,-4.501394],[135.425538,-4.436666],[135.329409,-4.444721],[135.232182,-4.466663],[135.176634,-4.446944],[134.96274,-4.324445],[134.871627,-4.285895],[134.261795,-4.69831],[133.98204,-4.873762],[133.601929,-5.08475],[133.580208,-6.141334],[133.259267,-6.433099],[132.675738,-7.600158],[132.65548,-8.106597],[132.123264,-8.521726],[131.100839,-9.09933],[130.32406,-9.358256],[129.766374,-9.471121],[129.515616,-9.484861],[128.994975,-9.412903],[128.534516,-9.367505],[128.23619,-9.393447],[127.94435,-9.510183],[127.666035,-9.671323],[127.477406,-9.808508],[126.90021,-10.093863],[126.394354,-10.30788],[125.888497,-10.424616],[125.538289,-10.554322],[125.259419,-10.807251],[124.870299,-11.092606],[125.097286,-11.533609],[125.33583,-11.780568],[125.380423,-13.59772],[125.267689,-13.725673],[125.234871,-13.821418],[125.086812,-13.862198],[124.915178,-13.95022],[124.835428,-14.008398],[124.621391,-14.10057],[124.500584,-14.260462],[124.484052,-14.378942],[124.397603,-14.534442],[124.281035,-14.610933],[124.114191,-14.705088],[123.95603,-14.823876],[123.931285,-14.936972],[123.856923,-15.001758],[123.738887,-15.195616],[123.654979,-15.294338],[123.539119,-15.342328],[123.426529,-15.237755],[123.235218,-15.155494],[123.020589,-15.174599],[122.850744,-15.316319],[122.76596,-15.511559],[122.776863,-15.651059],[122.848589,-15.780924],[122.868168,-15.851607],[122.819359,-15.938253],[122.628789,-16.103115],[122.952948,-16.403199],[122.991651,-16.389719],[123.060249,-16.455554],[123.039081,-16.481321],[122.989491,-16.475975],[122.956227,-16.58681],[122.977206,-16.628057],[123.019713,-16.670276],[123.096096,-16.716113],[123.116382,-16.792784],[123.307749,-17.137502],[123.434712,-17.342774],[123.553449,-17.514998],[123.575274,-17.597501],[123.583734,-17.586602],[123.594021,-17.509724],[123.559983,-17.445824],[123.563601,-17.367218],[123.619005,-17.206109],[123.574005,-17.072918],[123.576516,-17.030069],[123.592617,-16.996661],[123.655752,-16.994789],[123.727482,-17.066663],[123.78249,-17.142497],[123.855822,-17.206388],[123.891444,-17.221247],[123.916023,-17.20826],[123.877566,-17.190962],[123.831936,-17.136179],[123.796377,-16.997984],[123.836931,-16.943894],[123.89166,-16.893332],[123.858315,-16.876394],[123.782211,-16.898894],[123.766371,-16.888193],[123.717753,-16.788059],[123.607755,-16.673336],[123.613596,-16.564166],[123.501375,-16.565975],[123.458886,-16.537778],[123.425181,-16.49951],[123.49332,-16.497215],[123.61734,-16.531388],[123.6411,-16.529444],[123.708879,-16.430282],[123.717483,-16.378892],[123.707484,-16.340138],[123.595749,-16.319096],[123.560253,-16.288334],[123.557202,-16.200557],[123.5709,-16.171667],[123.603183,-16.156259],[123.72624,-16.13861],[123.806403,-16.198991],[123.783867,-16.246106],[123.732702,-16.259516],[123.839154,-16.368056],[123.891372,-16.378892],[123.892776,-16.339868],[123.964425,-16.245557],[124.086249,-16.262504],[124.13997,-16.285283],[124.166376,-16.3025],[124.202556,-16.38521],[124.229844,-16.404236],[124.333029,-16.409861],[124.384365,-16.352783],[124.475805,-16.395839],[124.578603,-16.405559],[124.729146,-16.384868],[124.762275,-16.389656],[124.835823,-16.430003],[124.893045,-16.406702],[124.815267,-16.399997],[124.749153,-16.375823],[124.697349,-16.34687],[124.615251,-16.327781],[124.562349,-16.324163],[124.50249,-16.335422],[124.479981,-16.3475],[124.417899,-16.3475],[124.400547,-16.329446],[124.382196,-16.282502],[124.376085,-16.221941],[124.391934,-16.17236],[124.430544,-16.102502],[124.470837,-16.09334],[124.518735,-16.163612],[124.593048,-16.114166],[124.585272,-16.02278],[124.614702,-15.918605],[124.726716,-15.808958],[124.670115,-15.786944],[124.616214,-15.802289],[124.56081,-15.880832],[124.534719,-15.936389],[124.487766,-15.937217],[124.400196,-15.864308],[124.371927,-15.668333],[124.457265,-15.478262],[124.488936,-15.465212],[124.581789,-15.516809],[124.656372,-15.47972],[124.674147,-15.454997],[124.660809,-15.342776],[124.66332,-15.263054],[124.705269,-15.253334],[124.912494,-15.356105],[124.993728,-15.431813],[125.18181,-15.520679],[125.176995,-15.506945],[125.076375,-15.430418],[125.071101,-15.407783],[125.096301,-15.345071],[125.118603,-15.323192],[125.097345,-15.301808],[125.011386,-15.300557],[124.912098,-15.336008],[124.900758,-15.278894],[124.937469,-15.228332],[124.975818,-15.210629],[125.004366,-15.228125],[125.044254,-15.161561],[125.012772,-15.153605],[124.881777,-15.237359],[124.854426,-15.236108],[124.824852,-15.160283],[124.856937,-15.120278],[124.900533,-15.100415],[124.959159,-15.117218],[124.980273,-15.110837],[125.032896,-15.07472],[125.018334,-15.040835],[125.078328,-14.999714],[125.147214,-15.151391],[125.16471,-15.162362],[125.174565,-15.119441],[125.161929,-15.079715],[125.161659,-15.033887],[125.279289,-15.10118],[125.281791,-15.137081],[125.321652,-15.156044],[125.414838,-15.151526],[125.434773,-15.13313],[125.417133,-15.119162],[125.387001,-15.121871],[125.36019,-15.098741],[125.389971,-15.070832],[125.281098,-14.995556],[125.18289,-14.948333],[125.2161,-14.910551],[125.243046,-14.901947],[125.201097,-14.853473],[125.136027,-14.747426],[125.243316,-14.598053],[125.336106,-14.523056],[125.388315,-14.544998],[125.553024,-14.555969],[125.58888,-14.549444],[125.599428,-14.426945],[125.579988,-14.308892],[125.592759,-14.241662],[125.618319,-14.222429],[125.728677,-14.273189],[125.706789,-14.339582],[125.642241,-14.630102],[125.660808,-14.611661],[125.705124,-14.483195],[125.722791,-14.40431],[125.84304,-14.464862],[125.824995,-14.572502],[125.843886,-14.607368],[125.908866,-14.645285],[125.92386,-14.617502],[125.990955,-14.547221],[126.03762,-14.515208],[126.066384,-14.344163],[126.143316,-14.192504],[126.146655,-14.129999],[126.081513,-13.965902],[126.017595,-13.926527],[126.067491,-13.915556],[126.148032,-13.927499],[126.217485,-13.961942],[126.208863,-14.03729],[126.157275,-14.059097],[126.191646,-14.168402],[126.234135,-14.179715],[126.280206,-14.215139],[126.287775,-14.233058],[126.313308,-14.193611],[126.29457,-14.140556],[126.309132,-14.089445],[126.334152,-14.050421],[126.43137,-13.975001],[126.502488,-13.964714],[126.491094,-14.009165],[126.455337,-14.077538],[126.568323,-14.220557],[126.600534,-14.229719],[126.703881,-14.123744],[126.789147,-13.971392],[126.76194,-13.839443],[126.745956,-13.795415],[126.857898,-13.750973],[126.955836,-13.728212],[127.017765,-13.776389],[127.074744,-13.848569],[127.057545,-13.886315],[127.12842,-13.971491],[127.153593,-13.932782],[127.15416,-13.900004],[127.241928,-13.896395],[127.425258,-13.954031],[127.521099,-14.086106],[127.658034,-14.175971],[127.760535,-14.300558],[127.873305,-14.47334],[127.957203,-14.581664],[128.000115,-14.560694],[128.123424,-14.656256],[128.169432,-14.702786],[128.182734,-14.741666],[128.188287,-14.800283],[128.139984,-14.867774],[128.069406,-15.100838],[128.079729,-15.206084],[128.073024,-15.396524],[128.053314,-15.451946],[128.031786,-15.472637],[128.020842,-15.498224],[128.068983,-15.4718],[128.097045,-15.434306],[128.113866,-15.343055],[128.118132,-15.248663],[128.132145,-15.214058],[128.181717,-15.233408],[128.257614,-15.305975],[128.264571,-15.351182],[128.287179,-15.400691],[128.291922,-15.303743],[128.284974,-15.281108],[128.224413,-15.190559],[128.192112,-15.065207],[128.220795,-15.014861],[128.306295,-14.912774],[128.326284,-14.916464],[128.340378,-15.019163],[128.353005,-15.044237],[128.448288,-15.047081],[128.458233,-15.001667],[128.418579,-14.931944],[128.387682,-14.800004],[128.535966,-14.758469],[128.90277,-14.84027],[129.089421,-14.899445],[129.185523,-14.980004],[129.174408,-15.162497],[129.191076,-15.182504],[129.25638,-15.104168],[129.218427,-14.861393],[129.229614,-14.839235],[129.332745,-14.867216],[129.462039,-14.930558],[129.486771,-14.949026],[129.668589,-15.15473],[129.676608,-15.203231],[129.731967,-15.182189],[129.663459,-15.095501],[129.626478,-15.021665],[129.613914,-14.946947],[129.636441,-14.905016],[129.64734,-14.837777],[129.697209,-14.853887],[129.801573,-14.863958],[129.864681,-14.843051],[129.92886,-14.789996],[129.94443,-14.767784],[129.765825,-14.822711],[129.675384,-14.766047],[129.603573,-14.674445],[129.586563,-14.628059],[129.623778,-14.610392],[129.703428,-14.601941],[129.768732,-14.557364],[129.772755,-14.535593],[129.659904,-14.572178],[129.590514,-14.568056],[129.540114,-14.550281],[129.454956,-14.503058],[129.358512,-14.413679],[129.370239,-14.333336],[129.430548,-14.222222],[129.492468,-14.14223],[129.713859,-14.013332],[129.732723,-13.99472],[129.74661,-13.964165],[129.78747,-13.74416],[129.78234,-13.698476],[129.828852,-13.516946],[129.899898,-13.445036],[129.909501,-13.507919],[129.944133,-13.527368],[129.993048,-13.526261],[130.041162,-13.509863],[130.164156,-13.42916],[130.264434,-13.325282],[130.254696,-13.288058],[130.192047,-13.204025],[130.157883,-13.176395],[130.124034,-13.16924],[130.115781,-13.14764],[130.124547,-12.970277],[130.140702,-12.925925],[130.182192,-12.907916],[130.195998,-12.933332],[130.225725,-12.946733],[130.263183,-12.938759],[130.327605,-12.894029],[130.353012,-12.838742],[130.353858,-12.739787],[130.343985,-12.706109],[130.354416,-12.672638],[130.509,-12.604445],[130.55472,-12.663341],[130.6008,-12.70736],[130.627449,-12.710834],[130.688829,-12.701069],[130.644432,-12.681107],[130.60413,-12.676661],[130.575519,-12.570902],[130.60233,-12.506813],[130.609323,-12.427154],[130.579272,-12.404654],[130.594275,-12.389867],[130.628448,-12.385133],[130.770396,-12.429584],[130.89636,-12.640283],[130.896639,-12.607496],[130.95414,-12.536387],[130.815801,-12.444731],[130.825809,-12.406391],[130.847184,-12.373055],[130.885803,-12.354164],[130.926087,-12.348188],[131.026914,-12.35834],[131.036103,-12.32666],[131.026365,-12.240692],[131.003019,-12.207707],[130.998456,-12.186809],[131.024322,-12.149585],[131.114061,-12.15368],[131.213295,-12.217499],[131.344119,-12.22361],[131.436351,-12.289166],[131.492601,-12.297221],[131.931504,-12.268052],[132.062661,-12.309101],[132.223572,-12.200003],[132.36093,-12.202361],[132.384159,-12.231395],[132.417342,-12.307157],[132.384015,-12.358745],[132.38361,-12.380003],[132.437619,-12.325553],[132.444702,-12.302081],[132.42456,-12.185558],[132.444351,-12.150269],[132.578154,-12.10292],[132.601338,-12.117293],[132.682734,-12.140558],[132.716286,-12.145976],[132.748992,-12.135419],[132.709824,-12.130631],[132.638454,-12.078611],[132.627591,-12.032783],[132.624666,-11.80889],[132.63498,-11.744999],[132.6915,-11.658203],[132.540255,-11.547503],[132.489963,-11.476943],[132.448437,-11.451392],[132.372747,-11.437784],[132.229539,-11.461256],[132.105798,-11.526389],[132.086772,-11.524724],[132.062607,-11.510558],[131.990238,-11.42972],[131.970582,-11.364371],[131.902776,-11.322773],[131.865246,-11.309165],[131.797053,-11.321666],[131.770953,-11.317634],[131.764266,-11.30669],[131.87412,-11.177225],[131.984325,-11.127428],[132.005241,-11.135834],[132.090237,-11.230001],[132.165936,-11.406455],[132.204951,-11.409731],[132.235497,-11.355281],[132.192477,-11.222216],[132.146685,-11.140001],[132.181227,-11.131802],[132.276087,-11.163608],[132.340518,-11.130137],[132.458589,-11.218058],[132.503445,-11.264444],[132.513597,-11.308472],[132.649704,-11.490272],[132.671979,-11.508128],[132.726348,-11.519522],[132.772491,-11.483891],[132.874686,-11.333366],[132.91803,-11.336948],[132.99651,-11.419721],[133.051905,-11.502503],[133.099119,-11.610836],[133.146234,-11.687786],[133.183044,-11.716667],[133.251372,-11.736944],[133.30746,-11.699441],[133.35669,-11.70143],[133.407198,-11.774168],[133.548858,-11.832776],[133.616772,-11.834585],[133.665255,-11.819447],[133.762212,-11.767634],[133.783596,-11.748608],[133.799427,-11.718332],[133.832178,-11.717504],[133.908327,-11.736107],[133.919433,-11.767229],[133.850097,-11.806109],[133.834878,-11.829788],[133.839396,-11.85416],[133.871067,-11.882771],[133.942671,-11.912291],[133.998093,-11.886452],[134.027343,-11.847914],[134.050401,-11.844449],[134.185518,-11.946392],[134.173854,-11.965832],[134.187741,-12.046112],[134.206632,-12.061664],[134.369964,-12.037778],[134.421084,-12.058757],[134.516079,-12.066668],[134.598573,-12.05639],[134.672679,-12.001184],[134.771382,-11.995838],[134.870652,-12.131666],[134.906922,-12.141395],[134.997192,-12.196394],[135.083862,-12.266666],[135.192474,-12.276944],[135.231354,-12.294449],[135.226071,-12.275558],[135.26694,-12.171941],[135.328311,-12.111668],[135.379674,-12.090275],[135.437805,-12.115277],[135.586089,-12.098339],[135.662751,-12.037229],[135.639279,-12.024656],[135.582534,-12.057785],[135.5724,-12.033053],[135.593226,-11.957705],[135.685791,-11.933333],[135.733158,-11.940839],[135.753534,-11.935052],[135.880461,-11.834999],[135.876348,-11.76479],[135.912753,-11.765555],[135.946629,-11.804165],[135.91638,-11.852504],[135.855531,-11.894444],[135.746001,-11.994506],[135.788301,-12.04361],[135.673443,-12.159512],[135.669141,-12.190832],[135.688716,-12.237497],[135.735498,-12.280832],[135.786366,-12.258755],[135.801225,-12.218336],[135.883575,-12.151808],[136.023039,-12.111947],[135.938088,-12.217256],[135.971838,-12.26771],[135.998721,-12.264164],[136.015686,-12.24584],[136.045944,-12.234023],[136.063476,-12.264128],[135.983151,-12.377915],[136.010529,-12.444731],[136.039698,-12.471668],[136.08108,-12.445559],[136.156842,-12.437639],[136.171017,-12.461183],[136.240155,-12.455],[136.293723,-12.414311],[136.349118,-12.29111],[136.363914,-12.23972],[136.337463,-12.205691],[136.242954,-12.217157],[136.181916,-12.191525],[136.177749,-12.166946],[136.281645,-12.065552],[136.451079,-11.954168],[136.562193,-11.934449],[136.539153,-12.009725],[136.601901,-12.183056],[136.673235,-12.284522],[136.718568,-12.283397],[136.757196,-12.256253],[136.754055,-12.234302],[136.722735,-12.215969],[136.68831,-12.210902],[136.693998,-12.191525],[136.775412,-12.171734],[136.876401,-12.22271],[136.931094,-12.283613],[136.978362,-12.358151],[136.957455,-12.381668],[136.803861,-12.4775],[136.745235,-12.544163],[136.64358,-12.704165],[136.620792,-12.825278],[136.494414,-12.779162],[136.484343,-12.845942],[136.546083,-12.958055],[136.545255,-13.055003],[136.528317,-13.149998],[136.47663,-13.212215],[136.458009,-13.252499],[136.448856,-13.220486],[136.408446,-13.239305],[136.367739,-13.247216],[136.371825,-13.06916],[136.356624,-13.053752],[136.325457,-13.061321],[136.2861,-13.166387],[136.200249,-13.239161],[136.159704,-13.242086],[136.145601,-13.203476],[136.097199,-13.184729],[135.993285,-13.224716],[135.927261,-13.277843],[135.891513,-13.338476],[135.894636,-13.366034],[135.934965,-13.396949],[135.908604,-13.455836],[135.864135,-13.491665],[135.844272,-13.581107],[135.845793,-13.603895],[135.888993,-13.72868],[135.927396,-13.748957],[135.960237,-13.746662],[136.008045,-13.715558],[136.02582,-13.687784],[136.020267,-13.762502],[135.988551,-13.866668],[135.924678,-13.961942],[135.896949,-14.142779],[135.86913,-14.194583],[135.77373,-14.249717],[135.621351,-14.437502],[135.540531,-14.573609],[135.531369,-14.619239],[135.538299,-14.646662],[135.413298,-14.729444],[135.372744,-14.728895],[135.4122,-14.850836],[135.451359,-14.932781],[135.476406,-14.964578],[135.542889,-15.019307],[135.670536,-15.064442],[135.882171,-15.196949],[135.944541,-15.259445],[136.212192,-15.394445],[136.241073,-15.418475],[136.265121,-15.540416],[136.279638,-15.567362],[136.319967,-15.603056],[136.457451,-15.658055],[136.568574,-15.718337],[136.671084,-15.800282],[136.71747,-15.863192],[136.765809,-15.904448],[137.030544,-15.914717],[137.136654,-15.968609],[137.369124,-16.127639],[137.488302,-16.176392],[137.543724,-16.174862],[137.646639,-16.208054],[137.737674,-16.25174],[137.858841,-16.438058],[137.933874,-16.493606],[138.066651,-16.614728],[138.194829,-16.707365],[138.290796,-16.742501],[138.466917,-16.785278],[138.639546,-16.779311],[138.687336,-16.812638],[138.843288,-16.875836],[138.987459,-16.890281],[139.010544,-16.899164],[139.031082,-16.91486],[139.141359,-17.074169],[139.145823,-17.147222],[139.162752,-17.203058],[139.213008,-17.297153],[139.260528,-17.342504],[139.336632,-17.367776],[139.437189,-17.379161],[139.53546,-17.441738],[139.616478,-17.520839],[139.692474,-17.549729],[139.814145,-17.57528],[139.882716,-17.61416],[139.951899,-17.665973],[139.97934,-17.697221],[140.01858,-17.712773],[140.132169,-17.719163],[140.396634,-17.673335],[140.494968,-17.640836],[140.61996,-17.579996],[140.758029,-17.477774],[140.833296,-17.451944],[140.859684,-17.411111],[140.885802,-17.359721],[140.942196,-17.15111],[140.954814,-17.059508],[140.947758,-17.023193],[140.956911,-17.001116],[141.17886,-16.724996],[141.214284,-16.667783],[141.286104,-16.503335],[141.315516,-16.357499],[141.426576,-16.074377],[141.400548,-15.905834],[141.431634,-15.67916],[141.460506,-15.536105],[141.634566,-15.149312],[141.665526,-15.026525],[141.65874,-14.993477],[141.606765,-14.894441],[141.566499,-14.763608],[141.520959,-14.481242],[141.536097,-14.398613],[141.593175,-14.255558],[141.600105,-14.143751],[141.578172,-14.065415],[141.501915,-13.985558],[141.477462,-13.948469],[141.465789,-13.897079],[141.468849,-13.828058],[141.49746,-13.679999],[141.541929,-13.532786],[141.683166,-13.280975],[141.688719,-13.254029],[141.677271,-13.210073],[141.650802,-13.193189],[141.630921,-13.159448],[141.58566,-12.986387],[141.606765,-12.934583],[141.708591,-12.870971],[141.747741,-12.824441],[141.766866,-12.793058],[141.796917,-12.691241],[141.822873,-12.691745],[141.856767,-12.70934],[141.889419,-12.763475],[141.889986,-12.843611],[141.931917,-12.907214],[141.940305,-12.865004],[141.883866,-12.704165],[141.839352,-12.672503],[141.717744,-12.49334],[141.747597,-12.469715],[141.728031,-12.455558],[141.662196,-12.451112],[141.653736,-12.50972],[141.66144,-12.531941],[141.685245,-12.55166],[141.626889,-12.569579],[141.592392,-12.554522],[141.59412,-12.531662],[141.688287,-12.331943],[141.775821,-12.213611],[141.759981,-12.178889],[141.805395,-12.051665],[141.849117,-11.988476],[141.892434,-11.969],[141.891084,-11.994443],[141.916923,-12.088889],[142.023663,-12.067784],[142.031646,-12.043547],[141.978573,-11.981249],[141.95052,-11.9654],[141.946623,-11.924441],[141.968853,-11.808476],[142.122861,-11.372633],[142.15887,-11.149442],[142.152894,-11.051243],[142.13817,-10.973609],[142.147692,-10.949165],[142.184673,-10.922921],[142.304409,-10.907783],[142.343019,-10.895417],[142.399557,-10.821941],[142.424001,-10.740977],[142.444431,-10.70972],[142.520943,-10.707487],[142.532556,-10.680743],[142.536014,-10.491851],[142.414129,-10.416857],[142.315222,-10.38968],[142.168862,-10.424625],[142.026454,-10.498394],[141.716095,-10.912153],[141.318244,-11.465166],[141.134255,-11.344407],[141.068048,-11.200443],[141.08062,-11.095483],[141.158759,-11.003358],[141.027505,-10.951463],[140.843271,-10.781777],[140.78837,-10.522034],[142.063498,-9.719018],[142.080561,-9.243377],[142.232207,-9.214422],[142.404229,-9.306123],[142.560425,-9.350924],[142.778657,-9.332519],[142.845698,-9.396936],[142.845698,-9.663804],[143.01134,-9.663804],[143.084959,-9.553376],[143.337619,-9.542745],[143.499066,-9.378531],[143.793541,-9.369329],[144.210328,-9.496044],[144.910594,-10.712196],[146.462377,-8.893587],[146.444125,-8.628373]],[[143.494695,-8.363051],[143.578512,-8.37548],[143.616051,-8.46584],[143.612181,-8.475272],[143.572752,-8.493893],[143.495658,-8.478746],[143.354943,-8.418059],[143.317179,-8.390969],[143.314416,-8.380133],[143.339067,-8.358749],[143.494695,-8.363051]],[[143.27469,-8.474444],[143.371332,-8.493893],[143.467191,-8.527778],[143.645805,-8.666387],[143.653041,-8.700551],[143.639694,-8.731394],[143.632449,-8.734445],[143.585784,-8.679716],[143.487738,-8.628893],[143.367192,-8.544725],[143.278875,-8.510282],[143.240508,-8.487215],[143.182548,-8.423477],[143.214687,-8.415692],[143.27469,-8.474444]],[[143.195778,-9.135071],[143.234712,-9.107108],[143.259651,-9.104372],[143.263782,-9.125207],[143.24103,-9.162215],[143.195778,-9.135071]],[[137.673855,-8.431388],[137.644911,-8.435132],[137.630934,-8.410832],[137.634282,-8.381105],[137.727756,-8.137781],[137.905245,-7.795835],[138.018249,-7.625213],[138.048858,-7.592084],[138.221343,-7.471106],[138.362454,-7.415414],[138.512484,-7.391105],[138.590514,-7.370558],[138.702474,-7.362638],[138.761361,-7.370558],[138.806919,-7.383194],[138.828312,-7.402499],[138.890826,-7.507214],[138.924972,-7.542917],[139.001067,-7.557497],[139.036653,-7.613891],[138.981357,-7.769447],[138.913299,-7.878608],[138.881898,-8.036108],[138.84885,-8.078336],[138.78234,-8.139446],[138.667347,-8.164583],[138.623562,-8.234999],[138.452904,-8.377919],[138.379545,-8.410553],[138.299697,-8.426393],[138.272751,-8.423333],[138.250386,-8.404721],[138.213009,-8.394308],[137.868282,-8.371106],[137.703357,-8.410976],[137.673855,-8.431388]],[[138.846924,-8.413892],[138.739968,-8.404442],[138.577617,-8.375975],[138.557052,-8.365832],[138.544713,-8.333054],[138.549429,-8.320976],[138.707181,-8.183339],[138.805821,-8.155421],[138.81906,-8.158337],[138.834684,-8.20916],[138.908601,-8.365004],[138.909969,-8.384444],[138.898593,-8.405342],[138.846924,-8.413892]],[[134.20053,-6.920837],[134.18262,-6.92153],[134.06859,-6.828758],[134.051499,-6.777638],[134.093844,-6.521111],[134.123292,-6.441389],[134.12412,-6.297785],[134.090379,-6.192638],[134.104554,-6.173054],[134.120943,-6.170354],[134.216901,-6.236666],[134.276922,-6.296948],[134.297496,-6.305228],[134.300043,-6.318548],[134.285247,-6.339167],[134.331417,-6.387947],[134.39457,-6.413759],[134.429355,-6.444683],[134.454411,-6.446807],[134.515728,-6.592499],[134.493561,-6.642215],[134.405829,-6.718337],[134.343702,-6.80111],[134.363574,-6.808607],[134.361207,-6.818471],[134.322759,-6.855281],[134.20053,-6.920837]],[[134.239968,-6.251948],[134.119962,-6.134165],[134.112456,-6.09389],[134.120925,-6.044579],[134.152029,-6.012503],[134.158581,-6.047081],[134.189568,-6.046667],[134.214507,-6.026354],[134.222949,-6.030422],[134.241624,-6.097634],[134.228142,-6.128747],[134.23176,-6.140969],[134.328312,-6.236945],[134.404011,-6.281666],[134.333037,-6.326387],[134.239968,-6.251948]],[[134.302338,-6.022781],[134.302158,-5.910002],[134.358552,-5.85278],[134.380962,-5.806736],[134.366031,-5.788052],[134.283438,-5.76584],[134.255376,-5.767784],[134.206317,-5.734862],[134.209107,-5.704028],[134.240616,-5.677496],[134.317989,-5.713613],[134.359929,-5.706107],[134.48304,-5.491943],[134.493615,-5.437295],[134.569062,-5.429375],[134.631774,-5.448887],[134.692749,-5.530283],[134.679132,-5.592779],[134.721072,-5.736941],[134.735229,-5.84666],[134.755245,-5.860835],[134.760033,-5.893334],[134.730234,-5.977079],[134.714142,-5.978753],[134.653428,-5.932781],[134.630217,-5.93486],[134.512839,-5.962337],[134.379657,-6.023852],[134.344116,-6.030557],[134.302338,-6.022781]],[[134.729964,-6.034715],[134.770266,-6.103475],[134.744967,-6.239168],[134.708013,-6.311393],[134.673579,-6.338609],[134.605521,-6.369578],[134.54901,-6.354863],[134.493561,-6.294167],[134.397495,-6.25958],[134.334549,-6.224714],[134.287758,-6.158609],[134.268525,-6.114923],[134.292753,-6.04889],[134.366634,-6.036668],[134.509284,-5.976062],[134.60715,-5.952779],[134.642304,-5.949656],[134.729964,-6.034715]],[[134.84079,-6.293051],[134.872038,-6.292637],[134.883711,-6.301529],[134.886933,-6.343892],[134.833221,-6.469721],[134.816076,-6.47],[134.792208,-6.446105],[134.788725,-6.390278],[134.84079,-6.293051]],[[134.58915,-6.395417],[134.604126,-6.424721],[134.543871,-6.533612],[134.509563,-6.517223],[134.455653,-6.427565],[134.43633,-6.432317],[134.386245,-6.393977],[134.361216,-6.392708],[134.34552,-6.359714],[134.378298,-6.321392],[134.408601,-6.29972],[134.447877,-6.284789],[134.58915,-6.395417]],[[134.646498,-6.769862],[134.623989,-6.751394],[134.626347,-6.715556],[134.685243,-6.594578],[134.694972,-6.587081],[134.708013,-6.589718],[134.730531,-6.605558],[134.741637,-6.628607],[134.721621,-6.690554],[134.667342,-6.774443],[134.646498,-6.769862]],[[138.618009,-6.76889],[138.610791,-6.739163],[138.628296,-6.725834],[138.663297,-6.754445],[138.738555,-6.768053],[138.785805,-6.837713],[138.745521,-6.868052],[138.711915,-6.871391],[138.685248,-6.857216],[138.618009,-6.76889]],[[136.764162,-11.018609],[136.773864,-11.021246],[136.777959,-11.034719],[136.724976,-11.206943],[136.562193,-11.432501],[136.540188,-11.45222],[136.503324,-11.456387],[136.507203,-11.409866],[136.64304,-11.216393],[136.728702,-11.045132],[136.764162,-11.018609]],[[132.626349,-11.177783],[132.624549,-11.276252],[132.596073,-11.344724],[132.566652,-11.313611],[132.531642,-11.218058],[132.512481,-11.143052],[132.502203,-11.051387],[132.578856,-11.022497],[132.626349,-11.177783]],[[130.364685,-11.253059],[130.371606,-11.179448],[130.392684,-11.163401],[130.531914,-11.283335],[130.573296,-11.349449],[130.704957,-11.390282],[130.845087,-11.357783],[130.899564,-11.307779],[130.966065,-11.327498],[131.004153,-11.352221],[131.121477,-11.263472],[131.151717,-11.260763],[131.171922,-11.329028],[131.22351,-11.402018],[131.227965,-11.376341],[131.193576,-11.292227],[131.205105,-11.242079],[131.226624,-11.214719],[131.271516,-11.190284],[131.418378,-11.248334],[131.528592,-11.391947],[131.537061,-11.466944],[131.457456,-11.560004],[131.28192,-11.730833],[131.249502,-11.735414],[131.126346,-11.813336],[131.047767,-11.878613],[130.958865,-11.938895],[130.861341,-11.858741],[130.818303,-11.850416],[130.678029,-11.784716],[130.511655,-11.662784],[130.493439,-11.642012],[130.418586,-11.448611],[130.364685,-11.253059]],[[130.398183,-11.43584],[130.432194,-11.556107],[130.491054,-11.688605],[130.561641,-11.706668],[130.615506,-11.744999],[130.636584,-11.772917],[130.613841,-11.822498],[130.493565,-11.838608],[130.327749,-11.775896],[130.236354,-11.792501],[130.124115,-11.830553],[130.096341,-11.833613],[130.040523,-11.822921],[130.017492,-11.772503],[130.072599,-11.673746],[130.083165,-11.673476],[130.118994,-11.700692],[130.156641,-11.702915],[130.193577,-11.66723],[130.190796,-11.528054],[130.173858,-11.484998],[130.255677,-11.344166],[130.343994,-11.325554],[130.398183,-11.43584]],[[125.08596,-14.620976],[125.092485,-14.544449],[125.115264,-14.48666],[125.152218,-14.44166],[125.162199,-14.439023],[125.208036,-14.489162],[125.185257,-14.59889],[125.149086,-14.615693],[125.138322,-14.648606],[125.08596,-14.620976]],[[124.469154,-15.324722],[124.494282,-15.286184],[124.559712,-15.260003],[124.646517,-15.400691],[124.522488,-15.445286],[124.513893,-15.417224],[124.460532,-15.369164],[124.469154,-15.324722]],[[136.178316,-11.687786],[136.182618,-11.644442],[136.273743,-11.572217],[136.348848,-11.568608],[136.48122,-11.467214],[136.472049,-11.517218],[136.373292,-11.592503],[136.26666,-11.653334],[136.178316,-11.687786]],[[136.67886,-13.658057],[136.713294,-13.651946],[136.721835,-13.660559],[136.724121,-13.680836],[136.714419,-13.706666],[136.675665,-13.733054],[136.712889,-13.837922],[136.808019,-13.854167],[136.833435,-13.835555],[136.841085,-13.820075],[136.830537,-13.786109],[136.848573,-13.761395],[136.88136,-13.752782],[136.910673,-13.773131],[136.918458,-13.809581],[136.819971,-13.908338],[136.789983,-13.919165],[136.767339,-13.941665],[136.706085,-14.075558],[136.699263,-14.117777],[136.708029,-14.167772],[136.720521,-14.185835],[136.870371,-14.211665],[136.895805,-14.199722],[136.924137,-14.154443],[136.967319,-14.151662],[136.941651,-14.277779],[136.92609,-14.286113],[136.889163,-14.297786],[136.874259,-14.29514],[136.865583,-14.282576],[136.750671,-14.261669],[136.632177,-14.278607],[136.378017,-14.21639],[136.413027,-14.044445],[136.405404,-13.970555],[136.428318,-13.886945],[136.457181,-13.838894],[136.59219,-13.813613],[136.623987,-13.789583],[136.624959,-13.778333],[136.594971,-13.726943],[136.67886,-13.658057]],[[136.244556,-13.672079],[136.283445,-13.71014],[136.288863,-13.730273],[136.274841,-13.794308],[136.24191,-13.846661],[136.201356,-13.859999],[136.204407,-13.824161],[136.183167,-13.775975],[136.172484,-13.769162],[136.157742,-13.771106],[136.146636,-13.786388],[136.162629,-13.83416],[136.120653,-13.834583],[136.105101,-13.815278],[136.114047,-13.731947],[136.201761,-13.664582],[136.244556,-13.672079]],[[136.516392,-15.644168],[136.498833,-15.633332],[136.519434,-15.549722],[136.576899,-15.511949],[136.605519,-15.524864],[136.610226,-15.543053],[136.598436,-15.613055],[136.587735,-15.634727],[136.516392,-15.644168]],[[136.994688,-15.597782],[137.010195,-15.593057],[137.055546,-15.647498],[137.072754,-15.692786],[137.09232,-15.787637],[137.067201,-15.829442],[137.041074,-15.828335],[137.004426,-15.796664],[136.940796,-15.719165],[136.934415,-15.698888],[136.953036,-15.647498],[136.994688,-15.597782]],[[139.141512,-16.757081],[139.138578,-16.702496],[139.164984,-16.600553],[139.222476,-16.523891],[139.306635,-16.462502],[139.364685,-16.461944],[139.479669,-16.442216],[139.534425,-16.413893],[139.727331,-16.444304],[139.733586,-16.455833],[139.732884,-16.502777],[139.689144,-16.522496],[139.62384,-16.535834],[139.580811,-16.502498],[139.489137,-16.538057],[139.5036,-16.569161],[139.441923,-16.667783],[139.33026,-16.708895],[139.185243,-16.735004],[139.148316,-16.760834],[139.141512,-16.757081]],[[139.400118,-17.088758],[139.502772,-16.996661],[139.554135,-17.031869],[139.576086,-17.095832],[139.570254,-17.105003],[139.517487,-17.110835],[139.452759,-17.10278],[139.434417,-17.119448],[139.428315,-17.146106],[139.400118,-17.088758]],[[142.259022,-10.72097],[142.211367,-10.733129],[142.183314,-10.770281],[142.150815,-10.754999],[142.120656,-10.720556],[142.115796,-10.657502],[142.123356,-10.645343],[142.175808,-10.618613],[142.21692,-10.61027],[142.265808,-10.683611],[142.259022,-10.72097]]]}}
