{"type":"Feature","properties":{"mrgid":21781,"name":"Southern New Zealand","placeType":"Marine Province","source":"Ecoregions:provinces"},"geometry":{"type":"MultiPolygon","coordinates":[[[[180.0,-42.82271],[179.85926,-43.339974],[179.815234,-43.716567],[179.846935,-44.276316],[180.0,-44.674058],[180.0,-42.82271]]],[[[-172.854449,-43.677797],[-173.089987,-42.493671],[-173.812076,-41.412988],[-174.892759,-40.690898],[-175.823329,-40.45516],[-176.266043,-40.435661],[-176.59269,-40.407224],[-176.868768,-40.460736],[-177.046678,-40.468173],[-178.056459,-40.711185],[-178.31751,-40.885613],[-179.065648,-41.357175],[-179.125256,-41.427304],[-179.197532,-41.482363],[-179.274836,-41.596061],[-179.497278,-41.859502],[-179.729346,-42.27774],[-179.911235,-42.551318],[-180.0,-42.82271],[-180.0,-44.67406],[-179.879037,-44.986051],[-179.56227,-45.539817],[-179.125861,-46.095614],[-178.302972,-46.782547],[-177.678085,-47.2567],[-177.452737,-47.472859],[-177.370674,-47.531815],[-177.125344,-47.547915],[-176.8195,-47.641534],[-176.171352,-47.709927],[-175.915077,-47.688162],[-175.326263,-47.611027],[-174.825248,-47.441527],[-174.411468,-47.179344],[-174.290039,-47.086861],[-173.907436,-46.832749],[-173.765413,-46.729976],[-173.043325,-45.649293],[-172.93989,-45.129288],[-172.887611,-44.951989],[-172.872076,-44.788367],[-172.787867,-44.333772],[-172.824269,-43.786395],[-172.854449,-43.677797]],[[-176.848758,-43.815977],[-176.842521,-43.803053],[-176.557797,-43.717508],[-176.479191,-43.724024],[-176.385834,-43.748882],[-176.330601,-43.748882],[-176.269203,-43.763894],[-176.313663,-43.796393],[-176.351949,-43.790561],[-176.371947,-43.770842],[-176.424471,-43.756109],[-176.51142,-43.749449],[-176.527215,-43.755569],[-176.535558,-43.77167],[-176.532813,-43.783901],[-176.498082,-43.869995],[-176.451957,-43.955],[-176.354739,-44.01251],[-176.37723,-44.056115],[-176.533353,-44.125001],[-176.602086,-44.120285],[-176.608917,-44.082224],[-176.65506,-44.011979],[-176.563323,-43.974719],[-176.523372,-43.936109],[-176.517792,-43.907786],[-176.532408,-43.873748],[-176.564457,-43.834724],[-176.618052,-43.805006],[-176.654187,-43.800146],[-176.68323,-43.83098],[-176.792265,-43.840844],[-176.833755,-43.842095],[-176.848758,-43.815977]]],[[[-179.198596,-40.986042],[-178.741603,-40.372993],[-180.0,-39.949136],[-180.0,-41.878227],[-179.198596,-40.986042]]],[[[173.166228,-35.176391],[173.191923,-35.12834],[173.198583,-35.051111],[173.189421,-35.01278],[173.159145,-34.958339],[172.828035,-34.584443],[172.729678,-34.501172],[172.584097,-34.769043],[172.296839,-34.987999],[170.179901,-36.826505],[170.236215,-36.903285],[170.491336,-37.333371],[170.806435,-37.682604],[170.779305,-37.790857],[170.712936,-37.841653],[170.540153,-37.944283],[170.346598,-38.086134],[170.183146,-38.183749],[169.853929,-38.468547],[169.746666,-38.576652],[169.705359,-38.638793],[169.635211,-38.689396],[169.416063,-39.035652],[169.219129,-39.306948],[168.498632,-40.359454],[168.355518,-40.438192],[168.152783,-40.601189],[168.010278,-40.675281],[167.742784,-40.797286],[167.633065,-40.824815],[167.095355,-40.998992],[166.927637,-41.110599],[166.578226,-41.292509],[166.007464,-41.733656],[165.615361,-42.053544],[165.492191,-42.120729],[165.164909,-42.378021],[165.016453,-42.476506],[164.971103,-42.527406],[164.579359,-42.860122],[163.827501,-43.772548],[163.575876,-44.21625],[163.480368,-44.3703],[163.429481,-44.47545],[163.237718,-45.047895],[163.129511,-45.914472],[163.152183,-46.375459],[163.206053,-46.579258],[163.24265,-46.861121],[163.352563,-47.189533],[163.170834,-48.103148],[163.296787,-48.736356],[165.003777,-49.229079],[166.805085,-49.602936],[170.916884,-49.690598],[170.985778,-49.664678],[171.511234,-49.390065],[171.853204,-49.115961],[171.942693,-49.056373],[172.623077,-48.689919],[173.138486,-48.268581],[173.403375,-47.872147],[173.496053,-47.757045],[173.561799,-47.63731],[173.875984,-47.143824],[174.033961,-47.068042],[174.254191,-47.018231],[174.332348,-46.985279],[174.459198,-46.90672],[175.048811,-46.577429],[175.439531,-46.248518],[175.970288,-45.564397],[176.172296,-45.166849],[176.239135,-44.975497],[176.280171,-44.823287],[176.597781,-44.726784],[177.006183,-44.532581],[177.093031,-44.478595],[177.348164,-44.34262],[177.634534,-44.14932],[177.840362,-44.035398],[177.976055,-43.923257],[178.068799,-43.864841],[178.340116,-43.621632],[178.650586,-43.283559],[178.737694,-43.142081],[178.824653,-43.044051],[178.877722,-42.958635],[178.975675,-42.868853],[179.187778,-42.574292],[179.481862,-42.237827],[179.582556,-42.181055],[179.868309,-41.9588],[180.0,-41.878227],[180.0,-39.949136],[179.017783,-39.504119],[177.908682,-38.97634],[177.893865,-39.064778],[177.906708,-39.064283],[177.923034,-39.089168],[177.967746,-39.098339],[177.998004,-39.123881],[177.909975,-39.256955],[177.874974,-39.286115],[177.864966,-39.288068],[177.824124,-39.193055],[177.841647,-39.15278],[177.821136,-39.103946],[177.680268,-39.075281],[177.42609,-39.064166],[177.054966,-39.204449],[176.933583,-39.352778],[176.903874,-39.398057],[176.898591,-39.44222],[176.946624,-39.664448],[177.010803,-39.654998],[177.107184,-39.66083],[177.118857,-39.665411],[177.117444,-39.679307],[177.070797,-39.743747],[177.030963,-39.76001],[177.021927,-39.771395],[176.894721,-40.034726],[176.89401,-40.08653],[176.834133,-40.181669],[176.808321,-40.216661],[176.68719,-40.321394],[176.644134,-40.380002],[176.628303,-40.421942],[176.500827,-40.535],[176.386113,-40.675004],[176.352309,-40.691105],[176.288571,-40.793894],[176.239134,-40.908887],[176.220792,-40.931675],[176.172768,-40.952231],[176.142213,-40.975271],[176.120793,-41.01362],[176.080806,-41.129162],[175.955229,-41.255279],[175.739967,-41.394176],[175.557735,-41.485004],[175.42746,-41.564447],[175.318164,-41.615414],[175.230801,-41.620832],[175.219551,-41.615558],[175.184694,-41.535836],[175.181094,-41.500835],[175.193433,-41.441939],[175.188582,-41.427782],[175.04928,-41.378606],[174.989538,-41.395283],[174.939282,-41.440553],[174.913587,-41.448194],[174.863574,-41.422364],[174.862746,-41.343893],[174.898881,-41.278751],[174.901914,-41.25473],[174.89124,-41.226245],[174.823011,-41.220413],[174.78747,-41.244443],[174.776229,-41.259023],[174.774843,-41.279714],[174.821076,-41.28695],[174.831363,-41.297921],[174.831075,-41.313059],[174.811491,-41.335001],[174.744693,-41.347502],[174.651507,-41.330834],[174.591918,-41.278607],[174.612186,-41.234714],[174.648591,-41.234444],[174.694698,-41.213618],[174.800808,-41.100281],[174.844422,-41.041673],[174.93219,-40.987502],[175.014981,-40.848605],[175.120794,-40.726943],[175.171905,-40.609727],[175.23801,-40.329728],[175.231359,-40.280831],[175.196358,-40.166945],[175.155543,-40.095836],[175.071627,-40.003064],[174.960783,-39.912776],[174.83247,-39.863753],[174.781098,-39.853052],[174.729672,-39.865832],[174.545811,-39.820418],[174.421359,-39.726944],[174.376062,-39.678605],[174.351213,-39.637214],[174.312477,-39.612095],[174.213027,-39.578471],[173.966625,-39.54347],[173.851902,-39.470552],[173.795256,-39.421943],[173.762208,-39.354722],[173.751642,-39.269996],[173.783583,-39.188195],[173.829951,-39.145832],[174.011112,-39.073337],[174.209139,-38.977217],[174.281373,-38.96999],[174.351348,-38.97944],[174.388734,-38.975831],[174.45636,-38.940272],[174.546081,-38.871935],[174.587733,-38.828888],[174.608586,-38.763062],[174.724398,-38.185829],[174.852189,-38.155553],[174.929553,-38.113757],[174.940245,-38.101112],[174.877164,-38.064167],[174.89304,-37.973195],[174.868281,-37.943612],[174.858156,-37.942352],[174.834684,-37.963619],[174.828582,-37.995002],[174.818727,-38.001122],[174.78873,-37.99097],[174.783735,-37.976246],[174.793302,-37.849868],[174.823164,-37.827224],[174.872745,-37.80611],[174.971502,-37.807784],[174.974976,-37.750004],[174.970656,-37.740419],[174.947895,-37.744028],[174.906918,-37.774169],[174.866211,-37.784024],[174.848301,-37.769714],[174.76416,-37.527785],[174.717477,-37.424996],[174.714687,-37.404026],[174.722454,-37.391813],[174.770262,-37.374029],[174.840651,-37.294172],[174.801231,-37.298339],[174.753036,-37.333754],[174.74274,-37.361942],[174.728853,-37.368746],[174.714282,-37.362914],[174.550806,-37.077227],[174.555819,-37.064861],[174.568842,-37.061378],[174.644136,-37.061108],[174.66318,-37.068749],[174.664152,-37.083059],[174.648942,-37.099862],[174.703851,-37.197773],[174.733857,-37.196108],[174.720105,-37.152215],[174.879117,-37.088891],[174.887478,-37.059164],[174.795534,-37.023056],[174.804408,-36.972215],[174.831075,-36.951812],[174.823434,-36.942218],[174.770262,-36.936665],[174.686103,-36.940832],[174.656376,-36.949445],[174.622464,-36.982214],[174.600531,-37.022228],[174.524688,-37.045556],[174.500244,-37.034729],[174.451896,-36.923894],[174.427767,-36.812771],[174.407904,-36.768203],[174.301092,-36.627218],[174.20886,-36.535283],[174.187746,-36.496943],[174.1779,-36.462914],[174.187188,-36.433754],[174.200949,-36.428201],[174.254832,-36.445823],[174.36933,-36.630836],[174.426516,-36.667637],[174.454704,-36.647918],[174.465522,-36.532214],[174.442473,-36.414719],[174.42054,-36.368477],[174.381075,-36.400274],[174.300399,-36.39347],[174.276918,-36.370556],[174.268584,-36.345833],[174.292209,-36.316943],[174.303999,-36.315557],[174.330108,-36.331253],[174.372867,-36.331253],[174.421242,-36.310607],[174.506931,-36.267218],[174.519342,-36.25334],[174.505248,-36.23138],[174.413304,-36.26306],[174.364686,-36.294164],[174.336363,-36.298889],[174.305232,-36.287513],[174.365235,-36.26],[174.442203,-36.16973],[174.396087,-36.144449],[174.371625,-36.209726],[174.335103,-36.230975],[174.278871,-36.119717],[174.229128,-36.112499],[174.195252,-36.131111],[174.185793,-36.171944],[174.240099,-36.181808],[174.287754,-36.210284],[174.313584,-36.240272],[174.255399,-36.27278],[174.065796,-36.168335],[173.992734,-36.112634],[173.931093,-35.981945],[173.947329,-35.911799],[173.911104,-35.872082],[173.904417,-35.88416],[173.921355,-36.003068],[173.990097,-36.136943],[174.124395,-36.263618],[174.178314,-36.279728],[174.199419,-36.348056],[174.191931,-36.377504],[174.080808,-36.409436],[174.057462,-36.374714],[174.020535,-36.273887],[173.826081,-36.032498],[173.397204,-35.570699],[173.446623,-35.440271],[173.504151,-35.422496],[173.540259,-35.430839],[173.629944,-35.356661],[173.655549,-35.317916],[173.564145,-35.278055],[173.553867,-35.283608],[173.549709,-35.302778],[173.550807,-35.324864],[173.566926,-35.34416],[173.563038,-35.37125],[173.439702,-35.37611],[173.413161,-35.386676],[173.391354,-35.423054],[173.395539,-35.453888],[173.381769,-35.524718],[173.089692,-35.214164],[173.09538,-35.185553],[173.148885,-35.190557],[173.166228,-35.176391]],[[172.596348,-40.601393],[172.629819,-40.570559],[172.631619,-40.560002],[172.582137,-40.554998],[172.58985,-40.541174],[172.630242,-40.510556],[172.661373,-40.50278],[172.712187,-40.495553],[172.861353,-40.507784],[172.988217,-40.53104],[172.79721,-40.516109],[172.735794,-40.518332],[172.656918,-40.653323],[172.701351,-40.748336],[172.860651,-40.853051],[172.907199,-40.828895],[172.932759,-40.799447],[172.980927,-40.781528],[173.013309,-40.796675],[173.051082,-40.869449],[173.059695,-40.967351],[173.031642,-41.027498],[173.077749,-41.294312],[173.105523,-41.313329],[173.20302,-41.309999],[173.275272,-41.272082],[173.377161,-41.178059],[173.602323,-41.053058],[173.639709,-41.073614],[173.724138,-41.058332],[173.73996,-41.047226],[173.743992,-41.028335],[173.738286,-41.018606],[173.679138,-41.038757],[173.678319,-41.014457],[173.696625,-41.000282],[173.751372,-40.976945],[173.80026,-40.96916],[173.9133,-40.931675],[173.989548,-40.896809],[174.025269,-40.915835],[174.025818,-40.945418],[173.929968,-40.992227],[173.821077,-40.994162],[173.780397,-41.01236],[173.769714,-41.098607],[173.778588,-41.114447],[173.794437,-41.109443],[173.822211,-41.080832],[173.821896,-41.06222],[173.841489,-41.05403],[173.930814,-41.049449],[173.949831,-41.058188],[173.887479,-41.103332],[173.848842,-41.144165],[173.820528,-41.245838],[173.762055,-41.270282],[173.775816,-41.289731],[173.806362,-41.289443],[174.037203,-41.218325],[174.099699,-41.198336],[174.130524,-41.179787],[174.004857,-41.177078],[173.993013,-41.198336],[173.981898,-41.199434],[173.904021,-41.19875],[173.893581,-41.192774],[173.886507,-41.165693],[173.900115,-41.130971],[174.032748,-40.999724],[174.089268,-41.022359],[174.246336,-41.044724],[174.299409,-41.003621],[174.319542,-41.001947],[174.322737,-41.014448],[174.209967,-41.19749],[174.157074,-41.22611],[174.026646,-41.236118],[174.053862,-41.254172],[174.21066,-41.268059],[174.323853,-41.221529],[174.288573,-41.276942],[174.245373,-41.324309],[174.20859,-41.329448],[174.151647,-41.306813],[174.111633,-41.336666],[174.050946,-41.424443],[174.045114,-41.446664],[174.084138,-41.526107],[174.104559,-41.50736],[174.177477,-41.582366],[174.179556,-41.59862],[174.160242,-41.620967],[174.193029,-41.685551],[174.289698,-41.737634],[174.283326,-41.762222],[174.236355,-41.837219],[174.181095,-41.892785],[174.088566,-41.957783],[173.979675,-42.061112],[173.953854,-42.11972],[173.956365,-42.166394],[173.930814,-42.199721],[173.881089,-42.245837],[173.798172,-42.295283],[173.558592,-42.487784],[173.448855,-42.690275],[173.351628,-42.840836],[173.325807,-42.91361],[173.285514,-42.958052],[173.103147,-43.059581],[172.935522,-43.098335],[172.838007,-43.148051],[172.797768,-43.183061],[172.759419,-43.24292],[172.726767,-43.419446],[172.775817,-43.612217],[172.905543,-43.620839],[173.059695,-43.653059],[173.10303,-43.700417],[173.114406,-43.741394],[173.111481,-43.829162],[173.091645,-43.856387],[173.058588,-43.871111],[173.00169,-43.867457],[172.96524,-43.802225],[172.96011,-43.760699],[172.939977,-43.756109],[172.924542,-43.768889],[172.920537,-43.828757],[172.920582,-43.872551],[172.938564,-43.894304],[172.866213,-43.902917],[172.808163,-43.880273],[172.715238,-43.808336],[172.642761,-43.772228],[172.495233,-43.72388],[172.424988,-43.733609],[172.390257,-43.763894],[172.384983,-43.778609],[172.38402,-43.81667],[172.39401,-43.854443],[172.386936,-43.863335],[172.275543,-43.883891],[172.189701,-43.909163],[171.941076,-44.015012],[171.654687,-44.122499],[171.547209,-44.173889],[171.344466,-44.293877],[171.285516,-44.356391],[171.270531,-44.387504],[171.277893,-44.424863],[171.269991,-44.451944],[171.211635,-44.535284],[171.200529,-44.541116],[171.193023,-44.663327],[171.214695,-44.743337],[171.19719,-44.923742],[171.149715,-44.99666],[171.079956,-45.06722],[171.026649,-45.103337],[170.963991,-45.166112],[170.921628,-45.243053],[170.873424,-45.362636],[170.871336,-45.424169],[170.857881,-45.490697],[170.750277,-45.619721],[170.616906,-45.839438],[170.556633,-45.884861],[170.555544,-45.896111],[170.608581,-45.888056],[170.777205,-45.784583],[170.790804,-45.806948],[170.788878,-45.863891],[170.779707,-45.880559],[170.699985,-45.911663],[170.664426,-45.908333],[170.452458,-45.931949],[170.342469,-45.97361],[170.312472,-45.994166],[170.263611,-46.051946],[170.253603,-46.111805],[170.22663,-46.165004],[170.193843,-46.188044],[170.067744,-46.246661],[169.860789,-46.374029],[169.849404,-46.389446],[169.852329,-46.461113],[169.845246,-46.469987],[169.701903,-46.558052],[169.631343,-46.581947],[169.458012,-46.623329],[169.133031,-46.67084],[169.097202,-46.666943],[169.067196,-46.635002],[169.05789,-46.676807],[169.00803,-46.680839],[168.880806,-46.664864],[168.862185,-46.623887],[168.864678,-46.607498],[168.840378,-46.562084],[168.733305,-46.577501],[168.614685,-46.611116],[168.492735,-46.613339],[168.439374,-46.600586],[168.446628,-46.583999],[168.4422,-46.575008],[168.490512,-46.573055],[168.55164,-46.594448],[168.563871,-46.584656],[168.54624,-46.569023],[168.391359,-46.539998],[168.357744,-46.546118],[168.351903,-46.560275],[168.362739,-46.583882],[168.350571,-46.583333],[168.362163,-46.589246],[168.364386,-46.601999],[168.351408,-46.60316],[168.275277,-46.557782],[168.268716,-46.532366],[168.30774,-46.520558],[168.324966,-46.538612],[168.33942,-46.53917],[168.389577,-46.494998],[168.39414,-46.470275],[168.371334,-46.419029],[168.250275,-46.40084],[168.208587,-46.353338],[168.19011,-46.344023],[168.116364,-46.343609],[167.955534,-46.371383],[167.850801,-46.399445],[167.828292,-46.396529],[167.753871,-46.33388],[167.779143,-46.30958],[167.782482,-46.294595],[167.701896,-46.209446],[167.596929,-46.16639],[167.534424,-46.152782],[167.45607,-46.153052],[167.415525,-46.204721],[167.356629,-46.254446],[167.280273,-46.273058],[166.966065,-46.224719],[166.836366,-46.232504],[166.768038,-46.223612],[166.721913,-46.212497],[166.670532,-46.157633],[166.73886,-46.119167],[166.829958,-46.003895],[166.886937,-45.990278],[166.944627,-45.949238],[166.929687,-45.947222],[166.832199,-45.982916],[166.788576,-46.007648],[166.739382,-46.06631],[166.670532,-46.087217],[166.614678,-46.088612],[166.619268,-46.056113],[166.661658,-45.991943],[166.625793,-45.96722],[166.488435,-46.013759],[166.474971,-46.002779],[166.466214,-45.986813],[166.464693,-45.839438],[166.476897,-45.809729],[166.537476,-45.798893],[166.69998,-45.798893],[166.886082,-45.778895],[166.97412,-45.735002],[166.987179,-45.70973],[166.887486,-45.704996],[166.80942,-45.721385],[166.775814,-45.662777],[166.812993,-45.611189],[166.869693,-45.588779],[166.912875,-45.590948],[166.995954,-45.578474],[167.032476,-45.527786],[167.041359,-45.501398],[166.794039,-45.570059],[166.707459,-45.576944],[166.698162,-45.550691],[166.757472,-45.425285],[166.821624,-45.320552],[166.868838,-45.279728],[166.880799,-45.279161],[167.038299,-45.357785],[167.146947,-45.427229],[167.168853,-45.472499],[167.205231,-45.477773],[167.213025,-45.471248],[167.209407,-45.461393],[167.158017,-45.406664],[167.051079,-45.333323],[167.114223,-45.310337],[167.17086,-45.305288],[167.177565,-45.313838],[167.215788,-45.315836],[167.260257,-45.335825],[167.305662,-45.327779],[167.303997,-45.316529],[167.194647,-45.271448],[167.093217,-45.270233],[167.0022,-45.201113],[166.996917,-45.145835],[167.201487,-44.953613],[167.316777,-44.873189],[167.40027,-44.862875],[167.422383,-44.896418],[167.419296,-44.910323],[167.440383,-44.933057],[167.459679,-44.994716],[167.506191,-45.000143],[167.511105,-44.986949],[167.464323,-44.87219],[167.450805,-44.79209],[167.599701,-44.683883],[167.743008,-44.611676],[167.838867,-44.498609],[167.949981,-44.403605],[168.034977,-44.353619],[168.128019,-44.316944],[168.143193,-44.304443],[168.144138,-44.2925],[168.124104,-44.251397],[168.169707,-44.244719],[168.291072,-44.170136],[168.338304,-44.120276],[168.33636,-44.094446],[168.372324,-44.040554],[168.402771,-44.029727],[168.674562,-43.990703],[168.71913,-44.012366],[168.764166,-44.008622],[168.824403,-43.988336],[168.862473,-43.974989],[168.961914,-43.90361],[169.080768,-43.848476],[169.142211,-43.794161],[169.224399,-43.743338],[169.491321,-43.643465],[169.660521,-43.601948],[169.739136,-43.558055],[169.871067,-43.406666],[170.025255,-43.350137],[170.049411,-43.306946],[170.288298,-43.107785],[170.527482,-43.009307],[170.674344,-42.958736],[170.794125,-42.901388],[171.151659,-42.560414],[171.225801,-42.433613],[171.235782,-42.394166],[171.27054,-42.354998],[171.304407,-42.296669],[171.329139,-42.155828],[171.343845,-42.110837],[171.510804,-41.764454],[171.650817,-41.761394],[171.790524,-41.696387],[171.886653,-41.630003],[172.02276,-41.443055],[172.06497,-41.403608],[172.122192,-41.277779],[172.105227,-41.153057],[172.106082,-40.91138],[172.113867,-40.879997],[172.224702,-40.781105],[172.271367,-40.770557],[172.348299,-40.727492],[172.478304,-40.613894],[172.52019,-40.603148],[172.520127,-40.628195],[172.529847,-40.632083],[172.596348,-40.601393]],[[173.829132,-40.757786],[173.960109,-40.709726],[173.966373,-40.718051],[173.959407,-40.795145],[173.923443,-40.865975],[173.805822,-40.927778],[173.783718,-40.932503],[173.777463,-40.923332],[173.799135,-40.879718],[173.829132,-40.757786]],[[166.749147,-45.723608],[166.716369,-45.741671],[166.65246,-45.745838],[166.504698,-45.722771],[166.526919,-45.686942],[166.576626,-45.638054],[166.715235,-45.615977],[166.728168,-45.624446],[166.748022,-45.662219],[166.749147,-45.723608]],[[166.990239,-45.310283],[166.922613,-45.278477],[166.891086,-45.246113],[166.906377,-45.211805],[166.958712,-45.15542],[166.971618,-45.164717],[166.971771,-45.189584],[166.988007,-45.23138],[167.008455,-45.244862],[167.029983,-45.300554],[166.990239,-45.310283]],[[167.522337,-47.276531],[167.521905,-47.229434],[167.529978,-47.201246],[167.740236,-47.002499],[167.809131,-46.919996],[167.813307,-46.903751],[167.802183,-46.862783],[167.756382,-46.808333],[167.757471,-46.756394],[167.772897,-46.702916],[167.798313,-46.688327],[167.92191,-46.682216],[167.998581,-46.717775],[168.054687,-46.791944],[168.182892,-46.866527],[168.191928,-46.905272],[168.048306,-46.935827],[168.225525,-46.971665],[168.259428,-47.003336],[168.242733,-47.04389],[168.217749,-47.072501],[168.156369,-47.115008],[168.113862,-47.106107],[168.042213,-47.111669],[168.001353,-47.124305],[167.891085,-47.191112],[167.782473,-47.167496],[167.769288,-47.140973],[167.693031,-47.17223],[167.619753,-47.223251],[167.636934,-47.226662],[167.719275,-47.21264],[167.711229,-47.242637],[167.701086,-47.24945],[167.678595,-47.261393],[167.605803,-47.274173],[167.522337,-47.276531]]]]}}
