{"type":"Feature","properties":{"mrgid":21931,"name":"Arabian (Persian) Gulf","placeType":"Marine Ecoregion of the World (MEOW)","source":"Ecoregions:ecoregions"},"geometry":{"type":"Polygon","coordinates":[[[56.999431,26.8804],[56.844081,27.030691],[56.86749,27.059437],[56.808882,27.123607],[56.645271,27.15499],[56.532213,27.160831],[56.355831,27.200269],[56.328048,27.200134],[56.132766,27.160273],[55.975266,27.06166],[55.956321,27.032086],[55.844856,27.006796],[55.659987,26.990695],[55.60722,26.948611],[55.578879,26.911243],[55.598328,26.798608],[55.481652,26.760556],[55.417212,26.754715],[55.370826,26.762914],[55.355688,26.776945],[55.274715,26.786944],[55.239714,26.778745],[55.162494,26.716933],[54.852777,26.519167],[54.788463,26.490412],[54.690273,26.506108],[54.472491,26.588323],[54.360549,26.655823],[54.327501,26.701111],[54.296937,26.716105],[54.269856,26.717635],[54.211932,26.695828],[54.125829,26.706097],[54.065826,26.724718],[53.83611,26.699167],[53.747775,26.709166],[53.686935,26.732773],[53.485965,26.855137],[53.473185,26.873056],[53.470683,26.933743],[53.462358,26.953192],[53.4393,26.974432],[53.389998,27.001108],[53.307495,27.017218],[53.166384,27.063325],[53.001108,27.129439],[52.853058,27.20944],[52.75638,27.289162],[52.60833,27.348193],[52.573608,27.386245],[52.61499,27.411247],[52.626384,27.461665],[52.499718,27.608608],[52.434018,27.642502],[52.363053,27.651106],[52.224165,27.686386],[52.173882,27.712216],[52.128468,27.761392],[52.026102,27.828325],[51.792219,27.851113],[51.717348,27.832681],[51.606378,27.841942],[51.582222,27.84916],[51.430275,27.937774],[51.325272,28.048339],[51.26472,28.154989],[51.234165,28.281664],[51.138882,28.408339],[51.093324,28.497214],[51.075486,28.5625],[51.069168,28.704448],[51.054714,28.738747],[51.008607,28.800559],[50.94792,28.821799],[50.878953,28.830898],[50.80104,28.92979],[50.800275,28.970902],[50.825763,28.991602],[50.86062,28.974088],[50.891724,28.944856],[50.925969,29.005273],[50.923746,29.064583],[50.885271,29.103337],[50.826591,29.136592],[50.716665,29.132425],[50.687145,29.119582],[50.638878,29.142775],[50.629851,29.185975],[50.656392,29.248885],[50.668749,29.400346],[50.639166,29.47042],[50.62527,29.492218],[50.465826,29.624446],[50.394024,29.655271],[50.237568,29.862217],[50.187222,29.895004],[50.147496,29.932786],[50.133537,29.952496],[50.138883,30.026944],[50.133609,30.068884],[50.080554,30.179584],[50.055543,30.202777],[50.026113,30.215836],[49.926654,30.207772],[49.833747,30.163042],[49.578885,30.008188],[49.555053,30.007216],[49.498524,30.067354],[49.500135,30.096379],[49.485825,30.148669],[49.423329,30.170269],[49.353048,30.171664],[49.315815,30.163609],[49.238316,30.188044],[49.004712,30.297358],[48.928869,30.387043],[49.063869,30.406105],[49.114854,30.393613],[49.190472,30.360691],[49.222494,30.373336],[49.263462,30.429091],[49.22388,30.473326],[49.192776,30.489715],[49.100265,30.516112],[49.038885,30.519163],[48.978882,30.511531],[48.948885,30.496384],[48.866382,30.359026],[48.862008,30.308122],[48.88854,30.273121],[48.913605,30.255004],[48.942909,30.169027],[48.93471,30.087217],[48.917358,30.040687],[48.867768,30.020824],[48.708054,30.027214],[48.659859,29.995417],[48.642354,29.962351],[48.59568,29.950966],[48.545559,29.963026],[48.560688,29.939167],[48.534021,29.924578],[48.443049,29.927503],[48.383883,29.939716],[48.306393,29.970559],[48.233331,30.011662],[48.158523,30.037834],[48.093885,30.045556],[47.959434,30.033055],[47.943477,30.017557],[47.982222,29.864161],[48.006099,29.803609],[48.059928,29.731591],[48.088053,29.714167],[48.147489,29.615824],[48.166866,29.565136],[48.149298,29.54764],[48.099717,29.562499],[48.086586,29.580139],[48.007908,29.629657],[47.975274,29.630827],[47.95596,29.623744],[47.708316,29.407492],[47.707218,29.37583],[47.821248,29.329228],[47.88207,29.337769],[47.973663,29.394388],[48.028599,29.344987],[48.097404,29.212507],[48.122208,29.103058],[48.146112,29.029024],[48.173049,28.978057],[48.379716,28.714168],[48.375126,28.66042],[48.416589,28.545274],[48.501657,28.495135],[48.518604,28.416664],[48.518748,28.334719],[48.60333,28.121113],[48.650409,28.038187],[48.877497,27.833608],[48.874302,27.761113],[48.846789,27.732466],[48.855681,27.802216],[48.820212,27.824905],[48.798603,27.807364],[48.788613,27.744445],[48.838869,27.619714],[48.911319,27.599851],[48.95874,27.62416],[48.980124,27.616384],[49.051386,27.545554],[49.076658,27.539722],[49.177143,27.551107],[49.236516,27.544303],[49.301244,27.489025],[49.308732,27.444853],[49.166937,27.458605],[49.127976,27.442288],[49.247487,27.340543],[49.400559,27.157771],[49.408875,27.127216],[49.471659,27.143893],[49.511034,27.186112],[49.54221,27.1711],[49.62249,27.056665],[49.666923,26.977636],[49.78611,26.900002],[49.866516,26.859439],[49.951989,26.850016],[50.155002,26.663059],[50.158746,26.642638],[49.996386,26.742502],[49.98249,26.679439],[50.002353,26.56153],[50.050413,26.46514],[50.081796,26.44777],[50.173119,26.421589],[50.211801,26.374924],[50.219442,26.300278],[50.208606,26.181388],[50.15583,26.101108],[50.116941,26.090551],[50.063121,26.178058],[50.027013,26.194789],[49.978953,26.133058],[49.993893,26.02],[50.107635,25.915132],[50.114088,25.868674],[50.134437,25.820002],[50.21055,25.737778],[50.255964,25.665067],[50.255406,25.630687],[50.234301,25.652503],[50.233401,25.676587],[50.163111,25.720012],[50.138055,25.726105],[50.148612,25.698745],[50.346801,25.475419],[50.369643,25.4584],[50.457699,25.44409],[50.482773,25.413895],[50.522769,25.288264],[50.560002,25.049512],[50.570829,25.038613],[50.573916,25.05691],[50.606451,25.042636],[50.726394,24.877081],[50.740452,24.767119],[50.775408,24.720823],[50.843601,24.759199],[50.863059,24.790483],[50.849442,24.913612],[50.805135,25.064299],[50.767668,25.129459],[50.755275,25.259851],[50.756382,25.499584],[50.782986,25.522777],[50.818806,25.46506],[50.838327,25.459714],[50.842503,25.488325],[50.8275,25.593058],[50.907222,25.588882],[50.951799,25.59916],[50.973057,25.641946],[50.919165,25.625269],[50.890896,25.659721],[50.889924,25.717708],[50.898168,25.73074],[50.900688,25.774651],[50.9319,25.802812],[50.955966,25.776667],[50.97465,25.808608],[50.969718,25.824169],[50.952906,25.828957],[50.949162,25.859026],[51.036948,26.042428],[51.171948,26.123608],[51.244857,26.152498],[51.309432,26.126803],[51.340761,26.10514],[51.344433,26.04277],[51.396876,25.961248],[51.413301,25.949593],[51.500763,25.949089],[51.567219,25.907707],[51.593049,25.780825],[51.587487,25.693885],[51.541947,25.621111],[51.496668,25.60861],[51.485139,25.589026],[51.491169,25.550092],[51.475383,25.521769],[51.488613,25.48],[51.519924,25.432291],[51.510276,25.302214],[51.532083,25.28722],[51.575616,25.287085],[51.603192,25.271875],[51.615828,25.178608],[51.611949,25.013746],[51.569586,24.921946],[51.503814,24.853888],[51.435558,24.661108],[51.366249,24.589585],[51.334929,24.57271],[51.335064,24.598954],[51.348051,24.634027],[51.328323,24.652216],[51.27111,24.656941],[51.214374,24.634441],[51.215166,24.620887],[51.257772,24.615838],[51.306102,24.593338],[51.292773,24.567355],[51.298929,24.519673],[51.345828,24.541246],[51.402501,24.613741],[51.438744,24.62014],[51.487218,24.58333],[51.408054,24.498334],[51.317496,24.423607],[51.27903,24.337351],[51.282351,24.300001],[51.30792,24.291244],[51.352614,24.292144],[51.384582,24.314167],[51.407217,24.31972],[51.473331,24.309856],[51.506037,24.293323],[51.529581,24.260554],[51.550137,24.251392],[51.623325,24.264442],[51.725826,24.261112],[51.773607,24.178339],[51.769998,24.1525],[51.788187,24.044716],[51.800337,24.013297],[51.81597,23.997979],[51.854166,23.988052],[51.934167,23.987503],[52.085961,23.955976],[52.231662,23.973895],[52.330896,24.002047],[52.434162,24.052357],[52.523046,24.121666],[52.581591,24.191317],[52.626249,24.196798],[52.677216,24.13972],[52.943598,24.137776],[53.055549,24.121666],[53.145828,24.135823],[53.224443,24.136111],[53.325828,24.102775],[53.459721,24.106105],[53.529444,24.087772],[53.556948,24.070555],[53.567496,24.052915],[53.587773,24.044167],[53.874162,24.059719],[54.123741,24.141664],[54.245826,24.217777],[54.381942,24.25222],[54.4275,24.285691],[54.469449,24.366943],[54.477495,24.410269],[54.502848,24.43771],[54.54666,24.433057],[54.575559,24.440977],[54.669168,24.663331],[54.650277,24.746941],[54.707769,24.801391],[54.946395,24.953608],[55.006371,24.976045],[55.066383,25.018057],[55.369719,25.36111],[55.43928,25.40728],[55.466514,25.413958],[55.504161,25.47361],[55.542708,25.565482],[55.563669,25.581592],[55.545579,25.548076],[55.549134,25.525756],[55.632123,25.536475],[55.647342,25.58224],[55.691109,25.623055],[55.859436,25.720417],[56.024793,25.88257],[56.073609,26.025976],[56.087082,26.08777],[56.171799,26.230411],[56.201904,26.260867],[56.234448,26.218054],[56.303883,26.201107],[56.326527,26.198605],[56.357505,26.215966],[56.401524,26.219791],[56.384586,26.239852],[56.350062,26.238475],[56.334168,26.223193],[56.310975,26.222707],[56.318328,26.268895],[56.354715,26.321392],[56.404206,26.368705],[56.401938,26.284996],[56.481309,26.240077],[56.471382,26.142157],[56.377215,26.172217],[56.377215,26.197705],[56.320695,26.166943],[56.332908,26.112214],[56.374029,26.094997],[56.431107,26.054443],[56.42388,25.950277],[56.401668,25.894162],[56.325555,25.756939],[56.30256,25.746913],[56.274435,25.717915],[56.264301,25.659442],[56.269719,25.636015],[56.299303,25.622009],[56.429705,25.758338],[56.644663,26.116601],[56.651828,26.331559],[56.766472,26.596674],[56.999431,26.8804]],[[55.99944,26.957503],[56.155545,26.998597],[56.220543,27.000559],[56.290275,26.963326],[56.288331,26.94997],[56.158596,26.86861],[56.11833,26.819722],[56.06055,26.771662],[55.987209,26.727769],[55.910817,26.709436],[55.819161,26.709166],[55.696104,26.68888],[55.558881,26.622496],[55.327491,26.546113],[55.30041,26.541244],[55.283607,26.558605],[55.274994,26.650828],[55.282491,26.658055],[55.328607,26.641945],[55.360269,26.642773],[55.518597,26.698879],[55.675827,26.77222],[55.740546,26.77861],[55.769994,26.792776],[55.78416,26.841106],[55.763055,26.892775],[55.737072,26.926381],[55.754586,26.952085],[55.781109,26.948611],[55.853361,26.915554],[55.956654,26.929999],[55.99944,26.957503]],[[55.669446,26.790274],[55.637496,26.78527],[55.626381,26.833051],[55.638324,26.864443],[55.69263,26.92999],[55.71333,26.903611],[55.734993,26.838055],[55.731654,26.797501],[55.703745,26.812351],[55.669446,26.790274]],[[48.347775,29.782216],[48.359448,29.745001],[48.35637,29.71333],[48.329991,29.67499],[48.266388,29.613889],[48.228318,29.595277],[48.188601,29.596096],[48.167766,29.612215],[48.079989,29.773324],[48.146103,29.929717],[48.114855,29.975347],[48.155823,29.992357],[48.188538,29.981926],[48.347775,29.782216]],[[50.613048,26.246944],[50.603958,26.263189],[50.611248,26.279164],[50.627214,26.288893],[50.653953,26.270614],[50.650551,26.244721],[50.613048,26.246944]],[[50.469444,26.111665],[50.453325,26.211529],[50.458878,26.224444],[50.471244,26.235559],[50.499981,26.23978],[50.54733,26.226928],[50.590827,26.236243],[50.609304,26.20666],[50.598882,26.191945],[50.554161,26.191387],[50.613057,26.127775],[50.619717,25.980823],[50.607504,25.862779],[50.597217,25.836661],[50.573331,25.809724],[50.555277,25.811947],[50.463882,25.954165],[50.462487,25.978339],[50.491665,26.051392],[50.469444,26.111665]],[[50.741667,25.669999],[50.747769,25.695136],[50.794722,25.727365],[50.790834,25.687216],[50.771799,25.681798],[50.763609,25.654996],[50.761386,25.598053],[50.771943,25.571944],[50.744718,25.589449],[50.741667,25.669999]],[[54.330579,24.456781],[54.386694,24.512878],[54.472635,24.419773],[54.330579,24.456781]],[[53.852697,24.267772],[53.959167,24.19111],[53.964855,24.179446],[53.955,24.14584],[53.899992,24.132502],[53.821395,24.137218],[53.784162,24.124996],[53.678052,24.160132],[53.638326,24.151798],[53.62695,24.15889],[53.631378,24.177502],[53.708607,24.221665],[53.852697,24.267772]]]}}
