{"type":"Feature","properties":{"mrgid":21947,"name":"Chatham Island","placeType":"Marine Ecoregion of the World (MEOW)","source":"Ecoregions:ecoregions"},"geometry":{"type":"MultiPolygon","coordinates":[[[[180.0,-42.82271],[179.85926,-43.339974],[179.815234,-43.716567],[179.846935,-44.276316],[180.0,-44.674058],[180.0,-42.82271]]],[[[-172.854449,-43.677797],[-173.089987,-42.493671],[-173.812076,-41.412988],[-174.892759,-40.690898],[-175.823329,-40.45516],[-176.266043,-40.435661],[-176.59269,-40.407224],[-176.868768,-40.460736],[-177.046678,-40.468173],[-178.056459,-40.711185],[-178.31751,-40.885613],[-179.065648,-41.357175],[-179.125256,-41.427304],[-179.197532,-41.482363],[-179.274836,-41.596061],[-179.497278,-41.859502],[-179.729346,-42.27774],[-179.911235,-42.551318],[-180.0,-42.82271],[-180.0,-44.67406],[-179.879037,-44.986051],[-179.56227,-45.539817],[-179.125861,-46.095614],[-178.302972,-46.782547],[-177.678085,-47.2567],[-177.452737,-47.472859],[-177.370674,-47.531815],[-177.125344,-47.547915],[-176.8195,-47.641534],[-176.171352,-47.709927],[-175.915077,-47.688162],[-175.326263,-47.611027],[-174.825248,-47.441527],[-174.411468,-47.179344],[-174.290039,-47.086861],[-173.907436,-46.832749],[-173.765413,-46.729976],[-173.043325,-45.649293],[-172.93989,-45.129288],[-172.887611,-44.951989],[-172.872076,-44.788367],[-172.787867,-44.333772],[-172.824269,-43.786395],[-172.854449,-43.677797]],[[-176.848758,-43.815977],[-176.842521,-43.803053],[-176.557797,-43.717508],[-176.479191,-43.724024],[-176.385834,-43.748882],[-176.330601,-43.748882],[-176.269203,-43.763894],[-176.313663,-43.796393],[-176.351949,-43.790561],[-176.371947,-43.770842],[-176.424471,-43.756109],[-176.51142,-43.749449],[-176.527215,-43.755569],[-176.535558,-43.77167],[-176.532813,-43.783901],[-176.498082,-43.869995],[-176.451957,-43.955],[-176.354739,-44.01251],[-176.37723,-44.056115],[-176.533353,-44.125001],[-176.602086,-44.120285],[-176.608917,-44.082224],[-176.65506,-44.011979],[-176.563323,-43.974719],[-176.523372,-43.936109],[-176.517792,-43.907786],[-176.532408,-43.873748],[-176.564457,-43.834724],[-176.618052,-43.805006],[-176.654187,-43.800146],[-176.68323,-43.83098],[-176.792265,-43.840844],[-176.833755,-43.842095],[-176.848758,-43.815977]]]]}}
