{"type":"Feature","properties":{"mrgid":21974,"name":"Guayaquil","placeType":"Marine Ecoregion of the World (MEOW)","source":"Ecoregions:ecoregions"},"geometry":{"type":"Polygon","coordinates":[[[-80.49951,-0.370544],[-80.86801,-0.334333],[-84.26325,-0.354948],[-84.401132,-0.870412],[-84.429981,-1.307867],[-84.306957,-1.938329],[-84.345264,-2.208145],[-84.2414,-2.798459],[-84.365307,-3.065517],[-84.385222,-3.16037],[-84.430175,-3.23404],[-84.505763,-3.671151],[-84.58108,-3.942679],[-84.587542,-4.020226],[-84.607967,-4.098398],[-84.633351,-4.380428],[-84.687488,-4.716756],[-84.60484,-5.454197],[-84.515275,-5.73822],[-84.52215,-5.8761],[-81.244125,-5.979108],[-81.196851,-5.97639],[-81.179037,-5.898194],[-81.151533,-5.855687],[-81.11223,-5.83334],[-81.065979,-5.833052],[-81.035982,-5.852078],[-80.983485,-5.869862],[-80.939034,-5.860133],[-80.920143,-5.844581],[-80.888904,-5.790554],[-80.873478,-5.713334],[-80.872857,-5.644583],[-80.912376,-5.525972],[-80.956251,-5.440139],[-80.981127,-5.409998],[-81.091944,-5.306111],[-81.136251,-5.286662],[-81.203823,-5.204447],[-81.178695,-5.074235],[-81.153198,-5.06222],[-81.115974,-5.066531],[-81.095418,-5.060132],[-81.085005,-5.017778],[-81.121401,-4.952231],[-81.330147,-4.725278],[-81.355149,-4.687496],[-81.32904,-4.646393],[-81.303075,-4.552217],[-81.279873,-4.38542],[-81.288828,-4.313681],[-81.257652,-4.251392],[-81.117288,-4.122224],[-81.060525,-4.084757],[-81.019998,-4.004585],[-80.98848,-3.960278],[-80.882649,-3.89132],[-80.863893,-3.868613],[-80.846388,-3.794444],[-80.817228,-3.746807],[-80.721954,-3.684716],[-80.602227,-3.620132],[-80.557506,-3.560282],[-80.532288,-3.510206],[-80.5032,-3.498191],[-80.420013,-3.495833],[-80.378478,-3.475691],[-80.3475,-3.419927],[-80.340426,-3.380516],[-80.291403,-3.328334],[-80.269938,-3.338612],[-80.142795,-3.334715],[-80.021115,-3.261662],[-79.956315,-3.207779],[-79.920342,-3.089375],[-79.892226,-3.058892],[-79.884171,-3.038606],[-79.831683,-2.803058],[-79.781112,-2.659166],[-79.726815,-2.596949],[-79.725627,-2.542427],[-79.748901,-2.484719],[-79.769997,-2.489444],[-79.792569,-2.478887],[-79.844103,-2.378195],[-79.834734,-2.308058],[-79.842087,-2.208743],[-79.851393,-2.190977],[-79.808904,-2.07584],[-79.772778,-2.036105],[-79.762923,-2.014028],[-79.823493,-2.036942],[-79.88382,-2.091392],[-79.895286,-2.125286],[-79.903206,-2.205134],[-79.869861,-2.253887],[-79.863903,-2.274866],[-79.865847,-2.389445],[-79.890291,-2.533337],[-79.905834,-2.559311],[-79.931403,-2.581667],[-80.002503,-2.612501],[-80.051121,-2.591666],[-80.064729,-2.573333],[-80.005428,-2.35916],[-79.976538,-2.347784],[-79.955847,-2.316113],[-80.025489,-2.342159],[-80.105283,-2.512916],[-80.217225,-2.626388],[-80.252226,-2.733191],[-80.311401,-2.721113],[-80.459874,-2.630285],[-80.620983,-2.447918],[-80.66223,-2.413052],[-80.682507,-2.397086],[-80.733069,-2.380004],[-80.784594,-2.380976],[-80.816391,-2.367215],[-80.89002,-2.320559],[-80.975007,-2.216942],[-80.976672,-2.185001],[-80.925003,-2.206943],[-80.85474,-2.175281],[-80.78751,-2.126528],[-80.754174,-2.076947],[-80.730981,-1.937915],[-80.773893,-1.761668],[-80.854803,-1.594655],[-80.809308,-1.474307],[-80.787852,-1.464164],[-80.758269,-1.32479],[-80.890074,-1.135484],[-80.915013,-1.057634],[-80.91279,-1.036529],[-80.835975,-0.928889],[-80.751114,-0.920285],[-80.711388,-0.92834],[-80.61876,-0.927215],[-80.576046,-0.897713],[-80.533485,-0.821105],[-80.523612,-0.735137],[-80.499456,-0.67931],[-80.433261,-0.569519],[-80.414244,-0.58229],[-80.40438,-0.617498],[-80.376534,-0.63458],[-80.338896,-0.636389],[-80.269722,-0.625382],[-80.374311,-0.611387],[-80.490627,-0.414305],[-80.49951,-0.370544]],[[-80.216946,-3.036392],[-80.273187,-3.015206],[-80.265015,-2.850839],[-80.208072,-2.726108],[-80.085285,-2.673755],[-80.019729,-2.662217],[-80.001954,-2.665556],[-79.902783,-2.722085],[-79.923897,-2.761388],[-80.123607,-2.888333],[-80.10063,-2.953952],[-80.112231,-2.999996],[-80.123337,-3.014864],[-80.216946,-3.036392]]]}}
