{"type":"Feature","properties":{"mrgid":22000,"name":"Magdalena Transition","placeType":"Marine Ecoregion of the World (MEOW)","source":"Ecoregions:ecoregions"},"geometry":{"type":"Polygon","coordinates":[[[-109.983286,22.873732],[-110.028483,22.906108],[-110.080566,22.986667],[-110.10015,23.046112],[-110.1339,23.223052],[-110.171745,23.326876],[-110.311191,23.560687],[-110.404863,23.632921],[-110.57049,23.687983],[-110.634453,23.73166],[-110.810007,23.910004],[-111.046815,24.114997],[-111.221946,24.203053],[-111.472434,24.34465],[-111.501396,24.392503],[-111.535839,24.426244],[-111.576114,24.435694],[-111.602781,24.459715],[-111.65364,24.549166],[-111.686958,24.56389],[-111.793617,24.562504],[-111.826953,24.642496],[-111.863682,24.695695],[-111.969315,24.791941],[-111.978126,24.753538],[-112.087512,24.756112],[-112.115835,24.866668],[-112.095288,24.938605],[-112.107231,25.023952],[-112.134456,24.973327],[-112.15098,24.899581],[-112.175001,24.895864],[-112.169727,24.957217],[-112.126401,25.17292],[-112.105566,25.213474],[-112.078719,25.231906],[-112.06737,25.278742],[-112.060836,25.368607],[-112.083336,25.601032],[-112.086954,25.559164],[-112.102785,25.520761],[-112.111956,25.55227],[-112.100148,25.728058],[-112.109868,25.765975],[-112.193073,25.958332],[-112.248054,26.041249],[-112.325292,26.080552],[-112.35861,26.218324],[-112.378347,26.254999],[-112.400694,26.276113],[-112.426326,26.289505],[-112.450626,26.284654],[-112.470786,26.264926],[-112.673196,26.330554],[-112.782501,26.417773],[-112.892715,26.521948],[-112.947642,26.54722],[-112.977576,26.551108],[-113.079996,26.631109],[-113.116671,26.672221],[-113.215005,26.703334],[-113.222646,26.729353],[-113.213682,26.77492],[-113.200848,26.800831],[-113.132511,26.874163],[-113.124087,26.902423],[-113.130981,26.959996],[-113.167575,26.971111],[-113.186115,26.939584],[-113.183631,26.880823],[-113.206392,26.826382],[-113.275251,26.781355],[-113.431392,26.844166],[-113.451813,26.843194],[-113.476122,26.830972],[-113.536395,26.754094],[-113.557532,26.749182],[-113.508593,26.61931],[-113.502624,26.539021],[-113.516877,26.426919],[-113.578827,26.312278],[-113.662078,26.22924],[-113.773149,26.169895],[-113.872542,26.148344],[-113.991432,26.144398],[-114.068249,26.157031],[-114.15283,26.214461],[-114.20686,26.294001],[-115.790892,24.142767],[-115.678873,24.07056],[-115.609666,24.052161],[-115.503957,23.974057],[-115.438761,23.787887],[-115.381693,23.50099],[-115.164306,23.175648],[-115.090195,23.021119],[-115.034192,22.944959],[-114.909889,22.724529],[-114.817899,22.608943],[-114.778988,22.54061],[-114.442945,22.144474],[-113.923987,21.736337],[-113.676448,21.725203],[-109.983286,22.873732]],[[-111.700287,24.40027],[-111.695553,24.36472],[-111.708072,24.328324],[-111.743055,24.364999],[-111.835008,24.427504],[-111.935835,24.486949],[-112.007232,24.517216],[-112.015908,24.528187],[-111.839166,24.542497],[-111.700287,24.40027]],[[-112.042926,24.542218],[-112.041261,24.525271],[-112.049172,24.518611],[-112.087512,24.534721],[-112.180149,24.664861],[-112.153617,24.705415],[-112.161663,24.754447],[-112.18779,24.791383],[-112.2489,24.809716],[-112.211937,24.984163],[-112.151403,25.176664],[-112.133619,25.281109],[-112.126662,25.233058],[-112.172238,25.080004],[-112.202505,24.844996],[-112.194738,24.818608],[-112.171113,24.791941],[-112.042926,24.542218]]]}}
