{"type":"Feature","properties":{"mrgid":22034,"name":"Bight of Sofala/Swamp Coast","placeType":"Marine Ecoregion of the World (MEOW)","source":"Ecoregions:ecoregions"},"geometry":{"type":"Polygon","coordinates":[[[41.95897,-16.757797],[40.754162,-16.191969],[40.183813,-15.888117],[40.125546,-15.939998],[40.134015,-15.997634],[40.097502,-16.082918],[39.976668,-16.235558],[39.932775,-16.243334],[39.883887,-16.239311],[39.808053,-16.281944],[39.782637,-16.305551],[39.817503,-16.412786],[39.698613,-16.536941],[39.506661,-16.653338],[39.310551,-16.75223],[39.127491,-16.870418],[39.124998,-16.937783],[39.09618,-16.984376],[38.824434,-17.056808],[38.686104,-17.070839],[38.249721,-17.229446],[38.198115,-17.269586],[38.096523,-17.316944],[37.96083,-17.344997],[37.872216,-17.376389],[37.220553,-17.750069],[37.088613,-17.871947],[37.004166,-17.989442],[36.983889,-18.001394],[36.91638,-17.950553],[36.899856,-17.890001],[36.870138,-17.8757],[36.846378,-17.875556],[36.82152,-17.894789],[36.952218,-18.029447],[36.970479,-18.059444],[36.943884,-18.108611],[36.773613,-18.301526],[36.479718,-18.576944],[36.418878,-18.674162],[36.39861,-18.733337],[36.320544,-18.794447],[36.252774,-18.891395],[36.158058,-18.903887],[36.13104,-18.900071],[36.122634,-18.840977],[36.131049,-18.808757],[36.123057,-18.802502],[36.100134,-18.813059],[36.059166,-18.866105],[35.982774,-18.926945],[35.878878,-18.974996],[35.67042,-19.121948],[35.636661,-19.187225],[35.576109,-19.271393],[35.447148,-19.419029],[35.112222,-19.716947],[34.890687,-19.860416],[34.847568,-19.855592],[34.812702,-19.778399],[34.626798,-19.618613],[34.641387,-19.671947],[34.683885,-19.738952],[34.742502,-19.76903],[34.776099,-19.82591],[34.750548,-20.036663],[34.75944,-20.180555],[34.695135,-20.381111],[34.666938,-20.391182],[34.739298,-20.557781],[34.871112,-20.656673],[34.952985,-20.695553],[34.990272,-20.727368],[35.012502,-20.778893],[35.008893,-20.806946],[35.07444,-20.913065],[35.111799,-20.933297],[35.102961,-20.957327],[35.11791,-20.974445],[35.082495,-21.087224],[35.050284,-21.097781],[35.079165,-21.324176],[35.148727,-21.452237],[36.918618,-21.452237],[38.828068,-21.59883],[38.817235,-21.344779],[38.784105,-21.187735],[38.953814,-20.964467],[39.038463,-20.82463],[39.177497,-20.642115],[39.242933,-20.584694],[39.404522,-20.415213],[39.612195,-20.328236],[40.036662,-20.195469],[40.381642,-20.121378],[40.430275,-20.07709],[41.366638,-18.687108],[41.95897,-16.757797]],[[39.908745,-16.274861],[39.914856,-16.282916],[39.902913,-16.412363],[39.849444,-16.415279],[39.834369,-16.406738],[39.810555,-16.360694],[39.812769,-16.324865],[39.83499,-16.290134],[39.864303,-16.277498],[39.908745,-16.274861]]]}}
