{"type":"Feature","properties":{"mrgid":22136,"name":"French Coast","placeType":"Coast","source":"MarineRegions:world_countries_coasts"},"geometry":{"type":"MultiLineString","coordinates":[[[9.257431,41.343258],[9.262451,41.33864],[9.259817,41.333814],[9.252656,41.336278],[9.257635,41.348665],[9.257431,41.343258]],[[9.255371,41.346849],[9.25513,41.350732],[9.256794,41.35111],[9.25668,41.348731],[9.255371,41.346849]],[[9.249727,41.347662],[9.248515,41.348411],[9.251555,41.348657],[9.251343,41.347914],[9.249727,41.347662]],[[9.22741,41.370605],[9.227588,41.372926],[9.229787,41.373149],[9.22982,41.371854],[9.22741,41.370605]],[[9.262333,41.370606],[9.264779,41.373817],[9.275468,41.368254],[9.26853,41.361089],[9.250092,41.368068],[9.262333,41.370606]],[[9.245596,41.374789],[9.245227,41.376217],[9.247774,41.37636],[9.247652,41.375455],[9.245596,41.374789]],[[9.101613,41.425786],[9.100229,41.427554],[9.10068,41.428038],[9.102128,41.42709],[9.101613,41.425786]],[[9.022136,41.460028],[9.024889,41.458789],[9.019054,41.461195],[9.020507,41.461431],[9.022136,41.460028]],[[9.073518,41.472085],[9.073546,41.472892],[9.075613,41.473725],[9.074803,41.472368],[9.073518,41.472085]],[[9.381748,41.506726],[9.380154,41.509547],[9.384609,41.509491],[9.381801,41.507772],[9.381748,41.506726]],[[9.355634,41.537839],[9.352208,41.539215],[9.351872,41.540797],[9.354792,41.541538],[9.355634,41.537839]],[[9.360475,41.547763],[9.36097,41.553258],[9.365003,41.552699],[9.364767,41.550547],[9.360475,41.547763]],[[9.367615,41.555597],[9.365742,41.553907],[9.366238,41.558096],[9.36703,41.557798],[9.367615,41.555597]],[[9.373241,41.558074],[9.370952,41.559338],[9.372899,41.565595],[9.375089,41.561543],[9.373241,41.558074]],[[9.362815,41.631594],[9.360588,41.633585],[9.362,41.634514],[9.363652,41.633711],[9.362815,41.631594]],[[8.745639,41.810262],[8.74375,41.810775],[8.743807,41.81377],[8.74625,41.812685],[8.745639,41.810262]],[[8.593468,41.873499],[8.585433,41.87413],[8.598478,41.882633],[8.59859,41.879812],[8.593468,41.873499]],[[8.600467,41.883948],[8.599473,41.885443],[8.601537,41.886044],[8.601726,41.885266],[8.600467,41.883948]],[[8.606184,41.887881],[8.605073,41.889028],[8.607338,41.890093],[8.607208,41.888474],[8.606184,41.887881]],[[3.018608,42.846573],[3.019232,42.850284],[3.024198,42.86037],[3.024656,42.854649],[3.018608,42.846573]],[[3.010311,42.898264],[3.008771,42.899481],[3.012056,42.900702],[3.012234,42.899027],[3.010311,42.898264]],[[9.343897,42.962626],[9.340687,42.963289],[9.339761,42.965522],[9.342676,42.965058],[9.343897,42.962626]],[[9.469519,42.984179],[9.471202,42.984134],[9.471607,42.982922],[9.467913,42.983662],[9.469519,42.984179]],[[6.39578,42.986758],[6.392958,42.988121],[6.39688,42.989978],[6.397358,42.988975],[6.39578,42.986758]],[[6.246416,42.996653],[6.19857,42.981647],[6.159852,43.001264],[6.172582,43.009194],[6.211375,43.002151],[6.217181,43.013621],[6.233463,43.010881],[6.240706,43.025111],[6.252612,43.004193],[6.246416,42.996653]],[[6.252927,42.996954],[6.251767,42.998186],[6.252507,42.999481],[6.25411,42.998453],[6.252927,42.996954]],[[6.162469,43.003101],[6.161479,43.003581],[6.160739,43.005646],[6.162792,43.003602],[6.162469,43.003101]],[[6.365261,43.003372],[6.360109,43.015772],[6.369137,43.019051],[6.364002,43.010411],[6.365261,43.003372]],[[9.425709,43.00953],[9.463976,42.986072],[9.452294,42.962906],[9.469767,42.934816],[9.477954,42.881939],[9.473104,42.875248],[9.486308,42.852197],[9.480448,42.837462],[9.492656,42.805578],[9.465659,42.757299],[9.458416,42.702693],[9.446826,42.685964],[9.44766,42.656686],[9.511191,42.588887],[9.533135,42.545943],[9.52968,42.48854],[9.542073,42.458812],[9.543094,42.427549],[9.532555,42.367476],[9.560595,42.282435],[9.552166,42.23169],[9.559437,42.195655],[9.554872,42.124402],[9.549023,42.103331],[9.420889,41.967317],[9.412305,41.939252],[9.411405,41.953594],[9.399383,41.951404],[9.407329,41.951051],[9.40059,41.946043],[9.416082,41.930198],[9.397052,41.876115],[9.39752,41.86121],[9.405663,41.85734],[9.406695,41.823808],[9.394771,41.798622],[9.40061,41.788643],[9.395869,41.775126],[9.408415,41.766298],[9.402003,41.717095],[9.408267,41.713427],[9.40115,41.692289],[9.372624,41.678501],[9.37656,41.669968],[9.396904,41.669151],[9.381319,41.663685],[9.389319,41.656404],[9.38191,41.65093],[9.38624,41.645368],[9.377611,41.648339],[9.370667,41.635584],[9.355946,41.641145],[9.365122,41.640255],[9.366794,41.644351],[9.355112,41.643001],[9.348599,41.637649],[9.355249,41.616668],[9.33494,41.621338],[9.320694,41.615144],[9.32601,41.618276],[9.307173,41.628059],[9.307226,41.615551],[9.287292,41.608319],[9.28166,41.597486],[9.292447,41.581545],[9.319896,41.604934],[9.337276,41.601263],[9.34123,41.592096],[9.368761,41.59752],[9.367774,41.589439],[9.347345,41.574804],[9.350717,41.566052],[9.343493,41.558884],[9.32359,41.5572],[9.287085,41.528815],[9.273985,41.531551],[9.272473,41.523501],[9.285048,41.516814],[9.266171,41.498592],[9.283423,41.500425],[9.288396,41.492336],[9.284291,41.47722],[9.266446,41.470311],[9.27828,41.464038],[9.266716,41.46627],[9.243057,41.446476],[9.213488,41.439636],[9.221846,41.439386],[9.228981,41.425783],[9.219952,41.405162],[9.26475,41.428223],[9.259525,41.413143],[9.220271,41.374859],[9.220381,41.365931],[9.18029,41.365366],[9.168684,41.384178],[9.126623,41.394338],[9.132774,41.39927],[9.093222,41.393983],[9.094578,41.411912],[9.124595,41.443479],[9.070665,41.445878],[9.065545,41.454038],[9.078289,41.476297],[9.041219,41.456161],[9.03791,41.471476],[9.023838,41.461597],[9.014364,41.472124],[9.019018,41.479594],[9.00359,41.474461],[8.993743,41.487487],[8.981778,41.473193],[8.960639,41.491417],[8.938894,41.488595],[8.933806,41.496095],[8.920653,41.488395],[8.916837,41.507398],[8.883134,41.504896],[8.890473,41.515768],[8.877885,41.524243],[8.842452,41.518081],[8.855829,41.53499],[8.853181,41.546564],[8.847679,41.540228],[8.832819,41.548071],[8.82145,41.543553],[8.810359,41.556422],[8.787719,41.556516],[8.783173,41.566954],[8.803755,41.5753],[8.773852,41.59148],[8.786805,41.597253],[8.791194,41.61041],[8.785391,41.617687],[8.795368,41.623569],[8.790954,41.628935],[8.80317,41.633676],[8.80436,41.641919],[8.81828,41.629244],[8.851969,41.648138],[8.870648,41.645663],[8.883064,41.671606],[8.913811,41.679893],[8.914776,41.690433],[8.843277,41.696569],[8.810108,41.714624],[8.781505,41.699242],[8.786977,41.70872],[8.771193,41.713673],[8.784365,41.732072],[8.775869,41.740913],[8.709209,41.721581],[8.70242,41.725626],[8.70655,41.73841],[8.670795,41.743162],[8.659768,41.737892],[8.661937,41.750452],[8.695581,41.751569],[8.732623,41.779769],[8.708874,41.796078],[8.712048,41.802207],[8.737332,41.796662],[8.747876,41.811125],[8.774245,41.812303],[8.772799,41.823237],[8.784088,41.832404],[8.749017,41.844944],[8.788728,41.850506],[8.790676,41.866164],[8.778203,41.88327],[8.804373,41.895447],[8.783106,41.925171],[8.764995,41.921642],[8.748512,41.933885],[8.73982,41.925405],[8.741445,41.915487],[8.718363,41.90705],[8.641658,41.909629],[8.607125,41.894112],[8.623467,41.935437],[8.609813,41.939284],[8.607355,41.952034],[8.598608,41.952191],[8.592875,41.964708],[8.615025,41.971511],[8.649549,41.969149],[8.676737,41.989387],[8.65871,41.991694],[8.655597,42.010009],[8.686248,42.027386],[8.725239,42.03469],[8.724954,42.043031],[8.742514,42.041317],[8.748459,42.04942],[8.735927,42.065717],[8.715765,42.063561],[8.722133,42.071872],[8.710864,42.086875],[8.702055,42.085102],[8.70962,42.098236],[8.697611,42.11403],[8.65882,42.100768],[8.650969,42.118623],[8.623126,42.121967],[8.615651,42.133326],[8.579343,42.127959],[8.593714,42.143324],[8.591014,42.149037],[8.557309,42.145589],[8.593704,42.169254],[8.560587,42.172184],[8.585801,42.180223],[8.577616,42.188085],[8.582135,42.20611],[8.565945,42.204945],[8.576959,42.214194],[8.567315,42.219187],[8.573262,42.228114],[8.552889,42.226728],[8.538186,42.236611],[8.559567,42.235879],[8.61682,42.255578],[8.635045,42.252947],[8.691808,42.269244],[8.687937,42.280989],[8.673652,42.283643],[8.674422,42.293948],[8.661293,42.301547],[8.640278,42.298953],[8.626188,42.312414],[8.601549,42.308668],[8.601094,42.321615],[8.627363,42.332294],[8.628508,42.340065],[8.614876,42.349658],[8.592156,42.352945],[8.564981,42.333055],[8.55281,42.33304],[8.557463,42.360091],[8.534598,42.371997],[8.545648,42.370088],[8.546948,42.381096],[8.568781,42.370367],[8.578178,42.374851],[8.576815,42.38389],[8.608484,42.386246],[8.601863,42.398808],[8.610397,42.404529],[8.600693,42.408876],[8.607869,42.41731],[8.622243,42.42241],[8.644902,42.413691],[8.655666,42.41704],[8.663263,42.433465],[8.648211,42.44386],[8.667759,42.445737],[8.664093,42.457186],[8.679866,42.469492],[8.67649,42.476341],[8.650039,42.47356],[8.648867,42.479754],[8.665948,42.496528],[8.668649,42.517442],[8.68553,42.515877],[8.698962,42.527459],[8.719425,42.525209],[8.710148,42.535965],[8.72267,42.555386],[8.718186,42.570277],[8.706499,42.570192],[8.724555,42.584535],[8.727822,42.561908],[8.755541,42.571654],[8.763151,42.568662],[8.760203,42.5583],[8.783948,42.556818],[8.805039,42.57197],[8.798389,42.58241],[8.810493,42.594621],[8.798662,42.602693],[8.827006,42.60689],[8.831294,42.601614],[8.850991,42.612119],[8.869658,42.608274],[8.880124,42.62931],[8.912565,42.629165],[8.936771,42.641827],[8.930663,42.644003],[8.933726,42.646734],[8.946943,42.633165],[9.015875,42.640871],[9.028814,42.653139],[9.060081,42.661579],[9.05347,42.680907],[9.059696,42.682578],[9.058451,42.696107],[9.069495,42.692614],[9.084538,42.704756],[9.08479,42.715384],[9.098022,42.715319],[9.123684,42.73263],[9.16663,42.736836],[9.199632,42.72523],[9.222106,42.735557],[9.229169,42.718353],[9.257412,42.718075],[9.254335,42.705441],[9.270588,42.700281],[9.285501,42.675293],[9.300554,42.675855],[9.297932,42.681182],[9.321978,42.69632],[9.321671,42.71577],[9.345214,42.735371],[9.337337,42.764627],[9.342563,42.797294],[9.30966,42.833577],[9.340169,42.86534],[9.329944,42.87198],[9.321874,42.898196],[9.359545,42.923754],[9.349419,42.929617],[9.358683,42.945011],[9.346204,42.956535],[9.350412,42.967769],[9.340387,42.994056],[9.357954,43.006948],[9.425709,43.00953]],[[6.410983,43.01724],[6.412212,43.009301],[6.420274,43.011747],[6.403151,42.993059],[6.369646,42.998167],[6.383418,43.013505],[6.410983,43.01724]],[[6.145585,43.020175],[6.14427,43.014799],[6.139262,43.019681],[6.141206,43.020679],[6.145585,43.020175]],[[9.408174,43.022035],[9.404165,43.02597],[9.405541,43.028188],[9.409251,43.023487],[9.408174,43.022035]],[[6.502513,43.040752],[6.485129,43.039038],[6.470631,43.016185],[6.451023,43.0171],[6.438395,43.003465],[6.43287,43.008231],[6.437178,43.02377],[6.458105,43.028468],[6.473376,43.048682],[6.505251,43.053815],[6.511552,43.046018],[6.502513,43.040752]],[[3.083533,43.053393],[3.082614,43.054938],[3.084022,43.05787],[3.084777,43.056695],[3.083533,43.053393]],[[3.004228,43.062264],[2.998795,43.067767],[2.99346,43.06786],[3.002686,43.069892],[3.010689,43.067386],[3.004228,43.062264]],[[5.793625,43.067557],[5.789661,43.068371],[5.786541,43.071767],[5.789792,43.072346],[5.793625,43.067557]],[[5.787242,43.078931],[5.792649,43.076722],[5.779133,43.069287],[5.777306,43.079659],[5.787242,43.078931]],[[5.768356,43.080228],[5.767854,43.0787],[5.76563,43.079756],[5.766926,43.081695],[5.768356,43.080228]],[[3.00045,43.086316],[3.003351,43.085672],[2.994536,43.078177],[2.996998,43.085778],[3.00045,43.086316]],[[5.75014,43.128142],[5.753577,43.12742],[5.745878,43.128277],[5.746831,43.12866],[5.75014,43.128142]],[[2.994756,43.152103],[2.984775,43.139327],[2.994848,43.122964],[2.985687,43.110703],[2.960935,43.105884],[2.964662,43.099003],[2.980632,43.101585],[2.987461,43.088748],[2.970813,43.081888],[2.966089,43.089661],[2.975966,43.0868],[2.977826,43.092775],[2.962629,43.091629],[2.965149,43.084409],[2.954402,43.0724],[2.978873,43.071575],[2.992428,43.050372],[3.003636,43.05872],[3.007272,43.045563],[3.02189,43.040192],[3.010604,43.029974],[3.037021,43.026512],[3.046322,43.041691],[3.023989,43.063454],[3.030079,43.066406],[3.021402,43.07106],[3.027104,43.087241],[3.01768,43.066989],[3.011518,43.067322],[3.026985,43.098472],[3.026218,43.106401],[3.005793,43.116122],[3.01537,43.140113],[2.997799,43.142883],[2.994756,43.152103]],[[5.619721,43.157397],[5.615859,43.158754],[5.615115,43.162624],[5.61836,43.162202],[5.619721,43.157397]],[[5.382812,43.179572],[5.396048,43.17631],[5.398621,43.173107],[5.371709,43.179035],[5.382812,43.179572]],[[5.38951,43.184757],[5.383156,43.187302],[5.381462,43.190161],[5.391268,43.186164],[5.38951,43.184757]],[[5.230625,43.198715],[5.231088,43.198281],[5.227863,43.196625],[5.228592,43.198838],[5.230625,43.198715]],[[5.357241,43.20106],[5.363487,43.199893],[5.371457,43.193756],[5.354925,43.201046],[5.357241,43.20106]],[[5.335082,43.212409],[5.339639,43.208076],[5.32979,43.21042],[5.325283,43.214695],[5.335082,43.212409]],[[5.325439,43.278776],[5.325208,43.280719],[5.328136,43.280152],[5.328032,43.279618],[5.325439,43.278776]],[[5.315349,43.286805],[5.324278,43.285969],[5.287856,43.26079],[5.302782,43.276629],[5.292022,43.280905],[5.315349,43.286805]],[[5.358302,43.299632],[5.359555,43.310004],[5.340051,43.333801],[5.317737,43.347759],[5.342135,43.335063],[5.360891,43.311113],[5.358302,43.299632]],[[-1.786572,43.350518],[-1.770928,43.366175],[-1.785403,43.367651],[-1.787704,43.375987],[-1.76945,43.374074],[-1.751103,43.384408],[-1.733279,43.380084],[-1.683274,43.39637],[-1.680099,43.38873],[-1.666352,43.388136],[-1.661515,43.403394],[-1.639226,43.407862],[-1.600097,43.431185],[-1.5681,43.47527],[-1.569728,43.483726],[-1.546024,43.494674],[-1.522192,43.52843],[-1.498752,43.52453],[-1.493089,43.501905],[-1.458998,43.484705],[-1.451196,43.483744],[-1.417894,43.495459],[-1.363495,43.493592],[-1.314854,43.502159],[-1.287433,43.497545],[-1.228968,43.523194],[-1.193678,43.545954],[-1.290882,43.498782],[-1.319757,43.504696],[-1.338813,43.503282],[-1.35791,43.49941],[-1.36721,43.496212],[-1.417447,43.498032],[-1.449877,43.48613],[-1.486136,43.500427],[-1.493946,43.524988],[-1.533751,43.531376],[-1.513832,43.541434],[-1.446337,43.645321],[-1.42617,43.7491],[-1.308009,44.163209],[-1.25065,44.486823],[-1.251208,44.511433],[-1.261347,44.51466],[-1.253803,44.516646],[-1.256891,44.535463],[-1.213158,44.596732],[-1.203886,44.641685],[-1.191607,44.660534],[-1.145984,44.66102],[-1.139119,44.653257],[-1.146081,44.650756],[-1.143738,44.644847],[-1.074222,44.642012],[-1.037145,44.65469],[-1.034743,44.64774],[-1.02929,44.643057],[-1.034199,44.651356],[-1.019567,44.667776],[-1.068834,44.69494],[-1.042981,44.694645],[-1.096508,44.737126],[-1.152483,44.766304],[-1.170478,44.766796],[-1.178738,44.75847],[-1.172398,44.745117],[-1.228377,44.700552],[-1.244742,44.64774],[-1.244965,44.621487],[-1.254357,44.622018],[-1.260343,44.63247],[-1.161695,45.298848],[-1.160646,45.412677],[-1.150821,45.442383],[-1.155943,45.471295],[-1.138339,45.505143],[-1.101357,45.540142],[-1.089229,45.56463],[-1.059926,45.572068],[-1.063159,45.554547],[-1.04207,45.544376],[-1.041828,45.549641],[-1.037953,45.535108],[-1.052733,45.534961],[-1.0515,45.524965],[-1.068118,45.518883],[-1.055253,45.504134],[-0.999537,45.472809],[-1.003365,45.463703],[-0.986243,45.466257],[-0.970208,45.452842],[-0.934548,45.441373],[-0.902845,45.408585],[-0.845969,45.380532],[-0.802564,45.345277],[-0.762311,45.279333],[-0.746322,45.234149],[-0.744258,45.197699],[-0.685827,45.083005],[-0.662158,45.063772],[-0.652848,45.050312],[-0.631835,45.032419],[-0.608535,45.01537],[-0.566806,44.998198],[-0.545732,44.977458],[-0.543582,44.959916],[-0.554759,44.930246],[-0.539071,44.879946],[-0.54548,44.863269],[-0.565054,44.853608],[-0.569378,44.845141],[-0.532634,44.812005],[-0.51272,44.774936],[-0.512699,44.748444],[-0.5102,44.742773],[-0.453512,44.723978],[-0.436211,44.702476],[-0.396319,44.702484],[-0.405296,44.690951],[-0.404851,44.686848],[-0.377969,44.686264],[-0.357748,44.657612],[-0.333121,44.648438],[-0.357963,44.659368],[-0.376749,44.687171],[-0.403313,44.687863],[-0.395669,44.703577],[-0.410603,44.708566],[-0.433848,44.703173],[-0.448948,44.724275],[-0.495805,44.741472],[-0.509023,44.755105],[-0.508584,44.771079],[-0.519959,44.802869],[-0.535191,44.824219],[-0.565272,44.84504],[-0.542006,44.861527],[-0.533145,44.881027],[-0.546557,44.922566],[-0.536301,44.97847],[-0.606519,45.041775],[-0.54219,45.022746],[-0.510766,45.003289],[-0.481612,44.998582],[-0.474753,44.9731],[-0.444966,44.934203],[-0.404748,44.946073],[-0.384875,44.936306],[-0.325552,44.93048],[-0.318267,44.907231],[-0.30424,44.890142],[-0.296715,44.887909],[-0.284501,44.888713],[-0.279104,44.894598],[-0.288303,44.908174],[-0.285447,44.916675],[-0.253001,44.915796],[-0.247986,44.899679],[-0.259879,44.88913],[-0.259886,44.875174],[-0.249702,44.871998],[-0.235238,44.877579],[-0.234547,44.882458],[-0.240604,44.887771],[-0.2369,44.891814],[-0.211334,44.892493],[-0.204755,44.879944],[-0.213492,44.868114],[-0.219825,44.853376],[-0.194904,44.834931],[-0.187392,44.831815],[-0.15044,44.84205],[-0.148504,44.83858],[-0.157303,44.835163],[-0.159223,44.82968],[-0.155344,44.823751],[-0.146245,44.821113],[-0.157649,44.829127],[-0.147577,44.837982],[-0.151235,44.844008],[-0.188105,44.832874],[-0.21797,44.853062],[-0.203031,44.880153],[-0.211728,44.894029],[-0.237295,44.893098],[-0.241808,44.887162],[-0.236605,44.878091],[-0.258765,44.875691],[-0.245882,44.900172],[-0.252746,44.917398],[-0.286,44.919053],[-0.290949,44.909866],[-0.283733,44.89275],[-0.294451,44.889665],[-0.304986,44.89439],[-0.3141,44.925042],[-0.324239,44.933093],[-0.377956,44.93839],[-0.399047,44.950026],[-0.440995,44.936113],[-0.467258,44.97218],[-0.475693,45.002441],[-0.510703,45.011768],[-0.541457,45.033188],[-0.588942,45.041364],[-0.61657,45.055919],[-0.63715,45.074908],[-0.667366,45.125113],[-0.669597,45.168244],[-0.7274,45.358113],[-0.762511,45.418693],[-0.798918,45.459365],[-0.87935,45.525072],[-0.909956,45.534399],[-0.915666,45.550085],[-0.93439,45.556873],[-0.955345,45.553793],[-0.992705,45.576458],[-0.991988,45.595686],[-1.013046,45.599936],[-1.008574,45.608245],[-1.017927,45.620224],[-1.042453,45.616966],[-1.076674,45.638523],[-1.114973,45.645674],[-1.210039,45.696692],[-1.229715,45.690663],[-1.20858,45.67438],[-1.188262,45.679938],[-1.179262,45.675137],[-1.209433,45.669984],[-1.228582,45.674181],[-1.244353,45.781517],[-1.213859,45.793497],[-1.190626,45.789974],[-1.148392,45.799906],[-1.033581,45.724766],[-1.002365,45.713401],[-1.127372,45.790648],[-1.137079,45.819091],[-1.156036,45.840253],[-1.168586,45.845159],[-1.163072,45.850142],[-1.170079,45.855352],[-1.150499,45.852824],[-1.154262,45.863254],[-1.122782,45.858054],[-1.078778,45.901855],[-1.076382,45.934841],[-1.101567,45.944364],[-1.097969,45.949862],[-1.021428,45.958219],[-0.999827,45.970927],[-0.993859,45.965119],[-1.003659,45.941774],[-0.991143,45.968053],[-1.008097,45.975229],[-1.019461,45.963176],[-1.063054,45.955064],[-1.079901,45.959739],[-1.084116,45.978924],[-1.126362,46.003822],[-1.093953,45.992607],[-1.057668,45.995911],[-1.052724,46.011569],[-1.061461,46.025021],[-1.060184,46.044484],[-1.089922,46.053476],[-1.100955,46.094121],[-1.143427,46.106295],[-1.124643,46.112037],[-1.127585,46.126304],[-1.17567,46.137914],[-1.153709,46.154958],[-1.206677,46.145714],[-1.230632,46.150488],[-1.221399,46.158409],[-1.229637,46.159799],[-1.226066,46.16523],[-1.24157,46.162237],[-1.220465,46.167866],[-1.222409,46.175473],[-1.20277,46.188055],[-1.199859,46.199919],[-1.206646,46.203604],[-1.200473,46.212389],[-1.15,46.237627],[-1.140583,46.254331],[-1.12351,46.263562],[-1.132488,46.300502],[-1.121529,46.322615],[-1.115751,46.316294],[-1.096286,46.310904],[-1.08728,46.317457],[-1.096912,46.312291],[-1.120941,46.324345],[-1.134417,46.305388],[-1.163083,46.312843],[-1.188535,46.306769],[-1.21228,46.281657],[-1.206395,46.266925],[-1.294611,46.311841],[-1.311589,46.331599],[-1.294602,46.299795],[-1.289011,46.303875],[-1.273191,46.289781],[-1.295981,46.290766],[-1.327803,46.327754],[-1.366483,46.345357],[-1.468451,46.342871],[-1.487081,46.380259],[-1.514348,46.403878],[-1.581829,46.40625],[-1.653597,46.420818],[-1.649755,46.428909],[-1.711861,46.451164],[-1.778832,46.492983],[-1.805731,46.4889],[-1.815585,46.498065],[-1.85595,46.608431],[-1.900632,46.64286],[-1.943275,46.694832],[-1.968465,46.692942],[-1.980839,46.70438],[-1.982414,46.720555],[-2.01537,46.745168],[-2.143105,46.819901],[-2.15414,46.8899],[-2.127093,46.893719],[-2.100273,46.925314],[-2.058352,46.950761],[-2.034259,46.992578],[-2.039422,46.997215],[-2.031613,46.999897],[-2.032012,47.01078],[-1.981483,47.027357],[-2.002151,47.058592],[-2.054379,47.094009],[-2.108351,47.110491],[-2.154027,47.112653],[-2.249893,47.133082],[-2.214732,47.160598],[-2.179993,47.155934],[-2.16706,47.166619],[-2.159039,47.208632],[-2.182995,47.233143],[-2.171116,47.240627],[-2.169908,47.269431],[-2.060081,47.282582],[-2.040759,47.291548],[-1.927142,47.280047],[-1.870715,47.265156],[-1.832474,47.227121],[-1.801105,47.212119],[-1.752237,47.20198],[-1.703675,47.205007],[-1.658014,47.190878],[-1.598424,47.191172],[-1.544945,47.197478],[-1.483163,47.217375],[-1.46294,47.23769],[-1.43772,47.245241],[-1.423239,47.261284],[-1.391263,47.278551],[-1.377636,47.292924],[-1.350554,47.303506],[-1.302459,47.337024],[-1.256791,47.340393],[-1.205253,47.354521],[-1.224469,47.355582],[-1.306191,47.339257],[-1.35588,47.304129],[-1.403563,47.281982],[-1.4826,47.22715],[-1.569462,47.207996],[-1.594942,47.192852],[-1.655396,47.192126],[-1.707217,47.207839],[-1.755257,47.205581],[-1.796859,47.214353],[-1.824309,47.226601],[-1.849897,47.258617],[-1.885242,47.277298],[-1.913516,47.285156],[-2.063702,47.306684],[-2.118235,47.305284],[-2.171829,47.288251],[-2.181126,47.297686],[-2.180562,47.284273],[-2.201436,47.266293],[-2.22226,47.266154],[-2.227185,47.255307],[-2.246956,47.255419],[-2.267397,47.238026],[-2.298121,47.232163],[-2.342636,47.255815],[-2.355461,47.272006],[-2.380013,47.279643],[-2.419514,47.276226],[-2.424458,47.269995],[-2.416246,47.259517],[-2.431611,47.257334],[-2.546687,47.288861],[-2.549569,47.298771],[-2.532643,47.30494],[-2.512211,47.298001],[-2.501766,47.284707],[-2.481322,47.282329],[-2.473918,47.286234],[-2.479368,47.293766],[-2.471347,47.296067],[-2.487595,47.304924],[-2.470525,47.309875],[-2.480397,47.316919],[-2.513263,47.302147],[-2.503701,47.319336],[-2.507457,47.342413],[-2.531743,47.365129],[-2.560476,47.373841],[-2.467516,47.421252],[-2.461975,47.410942],[-2.432823,47.413254],[-2.458697,47.423223],[-2.446132,47.43567],[-2.457312,47.447838],[-2.480675,47.440876],[-2.495626,47.449342],[-2.50153,47.458179],[-2.489103,47.472016],[-2.502018,47.493016],[-2.482111,47.49563],[-2.467773,47.486794],[-2.441561,47.495243],[-2.412765,47.491504],[-2.394405,47.502183],[-2.373366,47.496085],[-2.350145,47.513743],[-2.32827,47.509811],[-2.307348,47.518174],[-2.299261,47.531706],[-2.307516,47.546695],[-2.295553,47.557575],[-2.281247,47.558359],[-2.278735,47.566783],[-2.283404,47.574085],[-2.239695,47.575581],[-2.234372,47.582843],[-2.282392,47.576135],[-2.284258,47.574528],[-2.284616,47.570726],[-2.281718,47.559521],[-2.298308,47.55785],[-2.310696,47.545611],[-2.302014,47.529921],[-2.311044,47.518232],[-2.328107,47.511229],[-2.350201,47.516091],[-2.378889,47.499105],[-2.39015,47.505546],[-2.411935,47.495577],[-2.44224,47.498408],[-2.466519,47.511311],[-2.501737,47.513739],[-2.502665,47.52186],[-2.517119,47.527552],[-2.542957,47.522771],[-2.552718,47.513816],[-2.549349,47.509101],[-2.595537,47.51736],[-2.60659,47.514114],[-2.606194,47.506858],[-2.632933,47.502144],[-2.622658,47.515434],[-2.612468,47.511187],[-2.613436,47.523306],[-2.585812,47.533187],[-2.580717,47.537652],[-2.575788,47.547874],[-2.603338,47.530807],[-2.612908,47.537614],[-2.619587,47.531128],[-2.649979,47.531734],[-2.620492,47.526952],[-2.628339,47.516971],[-2.661672,47.517079],[-2.658779,47.522334],[-2.670502,47.523278],[-2.663184,47.522089],[-2.663631,47.50917],[-2.681004,47.496064],[-2.674076,47.491025],[-2.728834,47.509395],[-2.7397,47.499492],[-2.782352,47.494687],[-2.793726,47.483596],[-2.816022,47.485289],[-2.850433,47.498196],[-2.847986,47.513835],[-2.875427,47.534042],[-2.904883,47.53492],[-2.902827,47.54155],[-2.919282,47.546986],[-2.908488,47.549493],[-2.914373,47.556903],[-2.897789,47.563326],[-2.894531,47.55485],[-2.878295,47.563479],[-2.877012,47.554819],[-2.866655,47.558126],[-2.873257,47.546399],[-2.858794,47.550719],[-2.861598,47.540776],[-2.852445,47.536885],[-2.848428,47.547661],[-2.839188,47.543459],[-2.826184,47.549893],[-2.828836,47.542851],[-2.81979,47.54278],[-2.823449,47.556604],[-2.805535,47.555375],[-2.807046,47.54304],[-2.799482,47.537547],[-2.799488,47.547389],[-2.78708,47.552686],[-2.776005,47.546792],[-2.779688,47.540131],[-2.766366,47.535737],[-2.733884,47.541049],[-2.728652,47.567656],[-2.711526,47.579776],[-2.717861,47.587939],[-2.709167,47.588208],[-2.70847,47.57713],[-2.698657,47.581155],[-2.707681,47.582482],[-2.70775,47.589714],[-2.691145,47.592098],[-2.68656,47.616349],[-2.695237,47.628002],[-2.701728,47.628851],[-2.696018,47.608678],[-2.70464,47.607362],[-2.709707,47.591943],[-2.726241,47.590823],[-2.730746,47.596095],[-2.719908,47.592647],[-2.718861,47.599987],[-2.732646,47.598702],[-2.77986,47.620685],[-2.7764,47.626212],[-2.736354,47.614493],[-2.742712,47.627364],[-2.747506,47.620326],[-2.757438,47.629452],[-2.760451,47.641741],[-2.767774,47.630058],[-2.79082,47.640249],[-2.775791,47.62776],[-2.781758,47.620926],[-2.812706,47.621652],[-2.835275,47.612188],[-2.830617,47.61913],[-2.862557,47.621817],[-2.866537,47.616842],[-2.855852,47.613761],[-2.86824,47.606431],[-2.859149,47.602723],[-2.861716,47.5969],[-2.887046,47.602907],[-2.890483,47.581323],[-2.906319,47.582047],[-2.904778,47.589349],[-2.911973,47.591778],[-2.919577,47.582205],[-2.927182,47.60118],[-2.937158,47.59607],[-2.935604,47.585623],[-2.950511,47.606516],[-2.949221,47.621576],[-2.939848,47.627327],[-2.956403,47.625904],[-2.961783,47.63439],[-2.953409,47.639261],[-2.948879,47.647292],[-2.926455,47.649903],[-2.923329,47.661451],[-2.926093,47.667156],[-2.928032,47.655308],[-2.954061,47.645561],[-2.958085,47.63853],[-2.968618,47.639086],[-2.965596,47.645754],[-2.978186,47.655876],[-2.970673,47.635185],[-2.962566,47.633674],[-2.953751,47.615407],[-2.967774,47.605133],[-2.95429,47.596128],[-2.968748,47.588341],[-2.947175,47.579033],[-2.928275,47.553089],[-2.952196,47.555325],[-2.957041,47.564455],[-2.962373,47.552688],[-2.972446,47.571849],[-2.995324,47.589146],[-2.986705,47.565582],[-2.994651,47.571642],[-2.994323,47.564513],[-3.0067,47.567313],[-3.022095,47.589695],[-3.016421,47.596246],[-3.023456,47.604519],[-3.029877,47.599814],[-3.017325,47.565403],[-3.039085,47.573022],[-3.03899,47.581163],[-3.052401,47.57727],[-3.053624,47.568538],[-3.071616,47.571361],[-3.096114,47.563083],[-3.106598,47.574337],[-3.09276,47.579139],[-3.129676,47.596993],[-3.128307,47.574583],[-3.114679,47.576321],[-3.133569,47.544314],[-3.126457,47.512967],[-3.11759,47.509737],[-3.119373,47.50054],[-3.10993,47.490173],[-3.079065,47.468301],[-3.10961,47.470895],[-3.118531,47.478528],[-3.135045,47.473161],[-3.146442,47.483552],[-3.153584,47.523715],[-3.163073,47.529456],[-3.152973,47.527678],[-3.135214,47.545366],[-3.140318,47.579515],[-3.16022,47.607086],[-3.202037,47.621967],[-3.197573,47.628497],[-3.211293,47.642213],[-3.202222,47.653244],[-3.20867,47.669069],[-3.196321,47.678817],[-3.188222,47.677321],[-3.184804,47.684932],[-3.162843,47.679921],[-3.164063,47.686663],[-3.148052,47.696107],[-3.120351,47.698436],[-3.123898,47.703577],[-3.153877,47.699507],[-3.155165,47.693646],[-3.168707,47.697027],[-3.148631,47.70399],[-3.149043,47.716741],[-3.130741,47.704303],[-3.138788,47.712469],[-3.125419,47.725396],[-3.106907,47.723081],[-3.126129,47.72773],[-3.155805,47.719803],[-3.160064,47.706488],[-3.164063,47.719308],[-3.143855,47.731336],[-3.153206,47.738586],[-3.144898,47.739501],[-3.136816,47.745484],[-3.148631,47.74201],[-3.148031,47.753556],[-3.159579,47.728447],[-3.175096,47.737582],[-3.18698,47.738317],[-3.193014,47.747732],[-3.191378,47.736275],[-3.169154,47.728111],[-3.175136,47.719002],[-3.166108,47.704965],[-3.175025,47.699011],[-3.175236,47.707081],[-3.195195,47.703646],[-3.198825,47.696344],[-3.187746,47.692824],[-3.199109,47.686991],[-3.214559,47.695385],[-3.20648,47.68735],[-3.211344,47.684579],[-3.197856,47.682981],[-3.205903,47.671338],[-3.216071,47.671477],[-3.209181,47.654974],[-3.21439,47.644036],[-3.267757,47.677426],[-3.320804,47.694777],[-3.319141,47.696262],[-3.34867,47.695123],[-3.36172,47.683414],[-3.355565,47.699163],[-3.325259,47.70226],[-3.280466,47.688198],[-3.287696,47.699158],[-3.317812,47.70383],[-3.309645,47.703192],[-3.310181,47.708942],[-3.352906,47.702342],[-3.365607,47.71041],[-3.351406,47.709016],[-3.351867,47.715661],[-3.342621,47.716996],[-3.351613,47.723738],[-3.344207,47.727004],[-3.34726,47.735508],[-3.318554,47.737617],[-3.297059,47.770921],[-3.286136,47.769024],[-3.28302,47.776096],[-3.292812,47.788998],[-3.287077,47.771957],[-3.299352,47.774096],[-3.315928,47.756225],[-3.324134,47.757636],[-3.323729,47.746964],[-3.344307,47.739355],[-3.353781,47.759332],[-3.363062,47.762357],[-3.363514,47.769523],[-3.379088,47.790931],[-3.370981,47.768484],[-3.364824,47.760446],[-3.355533,47.756656],[-3.349234,47.740231],[-3.366624,47.725773],[-3.376336,47.731856],[-3.398788,47.732456],[-3.366967,47.716348],[-3.383812,47.701511],[-3.421045,47.699358],[-3.424953,47.704754],[-3.45289,47.695313],[-3.500497,47.729992],[-3.502365,47.743422],[-3.528916,47.76575],[-3.525292,47.769079],[-3.528344,47.790591],[-3.520316,47.798371],[-3.518851,47.802758],[-3.53152,47.790357],[-3.530902,47.771036],[-3.538563,47.76215],[-3.626131,47.76972],[-3.645863,47.773713],[-3.649762,47.782334],[-3.677952,47.775249],[-3.723408,47.798172],[-3.709008,47.812744],[-3.704184,47.812325],[-3.695737,47.819207],[-3.684751,47.818926],[-3.683529,47.820757],[-3.696636,47.820894],[-3.694086,47.827769],[-3.695754,47.830423],[-3.70411,47.813955],[-3.708262,47.814256],[-3.732782,47.802534],[-3.748789,47.840176],[-3.756197,47.835235],[-3.745291,47.82683],[-3.753443,47.816384],[-3.740534,47.808099],[-3.743996,47.79523],[-3.799185,47.786912],[-3.823179,47.796236],[-3.85709,47.790036],[-3.850728,47.79764],[-3.856748,47.805134],[-3.903109,47.833848],[-3.904015,47.842237],[-3.887533,47.849072],[-3.920363,47.854768],[-3.904248,47.856972],[-3.911593,47.871056],[-3.931377,47.870585],[-3.93352,47.881315],[-3.95031,47.89002],[-3.948022,47.898348],[-3.972114,47.895246],[-3.977582,47.908196],[-3.978134,47.895274],[-3.990983,47.895033],[-3.971181,47.891707],[-3.988832,47.882395],[-3.977208,47.851847],[-4.039725,47.843168],[-4.080267,47.860614],[-4.064793,47.860228],[-4.073136,47.867065],[-4.09968,47.861701],[-4.118004,47.880205],[-4.107077,47.882382],[-4.122708,47.886914],[-4.11916,47.89417],[-4.141583,47.899863],[-4.144675,47.909059],[-4.139501,47.921177],[-4.139729,47.925267],[-4.133158,47.924775],[-4.130476,47.926729],[-4.13136,47.929347],[-4.129305,47.930205],[-4.115117,47.931137],[-4.110241,47.936592],[-4.109764,47.94995],[-4.096618,47.958069],[-4.098016,47.971063],[-4.114828,47.975692],[-4.114581,47.987788],[-4.116853,47.975556],[-4.100728,47.970191],[-4.114053,47.96552],[-4.111626,47.955732],[-4.121052,47.952504],[-4.112415,47.951606],[-4.111284,47.936076],[-4.130816,47.931053],[-4.133812,47.925159],[-4.14045,47.925953],[-4.148033,47.907556],[-4.145671,47.896962],[-4.165555,47.895269],[-4.175019,47.903898],[-4.166571,47.894177],[-4.132332,47.891248],[-4.120665,47.88325],[-4.112225,47.861702],[-4.143188,47.857572],[-4.169723,47.838073],[-4.159911,47.858034],[-4.167913,47.85537],[-4.177475,47.877766],[-4.190017,47.872651],[-4.175601,47.854533],[-4.179494,47.849881],[-4.194723,47.864326],[-4.194638,47.854359],[-4.183462,47.848834],[-4.189146,47.84502],[-4.178892,47.839058],[-4.183119,47.83575],[-4.157663,47.830776],[-4.178054,47.796697],[-4.210575,47.79964],[-4.223457,47.791429],[-4.267284,47.789701],[-4.294717,47.791743],[-4.299181,47.799351],[-4.345354,47.799881],[-4.366893,47.789376],[-4.380934,47.794033],[-4.382618,47.803319],[-4.373443,47.810774],[-4.390511,47.811959],[-4.368017,47.828802],[-4.349737,47.830235],[-4.346363,47.835034],[-4.356232,47.836619],[-4.34637,47.842932],[-4.363168,47.889364],[-4.387669,47.926364],[-4.451271,47.981006],[-4.536943,48.011392],[-4.532143,48.020565],[-4.534747,48.023139],[-4.531637,48.028648],[-4.534073,48.031669],[-4.530489,48.035596],[-4.505286,48.035788],[-4.494933,48.039483],[-4.530008,48.036998],[-4.534399,48.032835],[-4.537294,48.023185],[-4.534893,48.017361],[-4.540655,48.010053],[-4.555156,48.009082],[-4.558661,47.99901],[-4.567073,47.998084],[-4.593618,48.005369],[-4.596794,48.0142],[-4.623553,48.017319],[-4.633073,48.029197],[-4.652268,48.020986],[-4.697001,48.025164],[-4.741322,48.040108],[-4.706311,48.045899],[-4.716069,48.065412],[-4.672706,48.061675],[-4.665448,48.0731],[-4.621373,48.069036],[-4.575396,48.0831],[-4.547506,48.077609],[-4.536515,48.089914],[-4.501727,48.093214],[-4.489019,48.087391],[-4.476744,48.097201],[-4.433455,48.097095],[-4.417468,48.107422],[-4.363041,48.109882],[-4.337114,48.095667],[-4.327249,48.100002],[-4.304062,48.089663],[-4.285988,48.104982],[-4.280623,48.1184],[-4.286151,48.126112],[-4.270319,48.133724],[-4.272843,48.153122],[-4.296347,48.158435],[-4.294854,48.183442],[-4.316748,48.203509],[-4.370007,48.204987],[-4.378409,48.218477],[-4.393054,48.216245],[-4.427472,48.22872],[-4.439075,48.224087],[-4.425665,48.23622],[-4.428908,48.237641],[-4.433721,48.230578],[-4.46375,48.238948],[-4.499305,48.231817],[-4.503809,48.225291],[-4.493005,48.22626],[-4.493544,48.219928],[-4.510175,48.210836],[-4.518555,48.191226],[-4.53952,48.180475],[-4.539458,48.169764],[-4.560478,48.169337],[-4.551492,48.181525],[-4.552843,48.209312],[-4.561727,48.229854],[-4.574906,48.235477],[-4.544118,48.240928],[-4.54529,48.25016],[-4.557903,48.258184],[-4.596751,48.25177],[-4.612255,48.261367],[-4.622839,48.251984],[-4.616797,48.275288],[-4.629079,48.280789],[-4.601162,48.287923],[-4.589666,48.281411],[-4.593189,48.275336],[-4.570313,48.282645],[-4.574294,48.312873],[-4.584048,48.319294],[-4.555869,48.338561],[-4.533402,48.341771],[-4.555556,48.301647],[-4.54921,48.292998],[-4.538157,48.293951],[-4.535784,48.285097],[-4.508211,48.310822],[-4.496302,48.31013],[-4.495063,48.306934],[-4.514719,48.294463],[-4.504628,48.286706],[-4.50998,48.280978],[-4.452253,48.297161],[-4.447144,48.291363],[-4.419192,48.293496],[-4.41778,48.280846],[-4.408975,48.275978],[-4.384421,48.27542],[-4.308886,48.297225],[-4.280631,48.297125],[-4.262005,48.292585],[-4.265829,48.283718],[-4.283963,48.287482],[-4.286299,48.274006],[-4.260323,48.266667],[-4.244116,48.250768],[-4.21728,48.258673],[-4.210641,48.243304],[-4.15455,48.244949],[-4.150783,48.244112],[-4.1418,48.237986],[-4.138077,48.236719],[-4.153187,48.247022],[-4.205567,48.249192],[-4.216547,48.260595],[-4.240581,48.253435],[-4.25203,48.267272],[-4.278984,48.277553],[-4.279382,48.285227],[-4.265094,48.279326],[-4.241263,48.291921],[-4.192391,48.296403],[-4.238911,48.29833],[-4.2376,48.310506],[-4.248329,48.298426],[-4.282689,48.312928],[-4.248745,48.326359],[-4.293041,48.310866],[-4.339486,48.31197],[-4.318073,48.323288],[-4.322982,48.32742],[-4.303304,48.330125],[-4.321154,48.334617],[-4.284769,48.34269],[-4.291616,48.350715],[-4.271618,48.353248],[-4.26294,48.357878],[-4.301703,48.354864],[-4.298108,48.344636],[-4.329994,48.338197],[-4.325128,48.355435],[-4.355182,48.342333],[-4.348081,48.352718],[-4.366213,48.344159],[-4.378542,48.325086],[-4.416925,48.323913],[-4.39803,48.341553],[-4.45933,48.326672],[-4.439069,48.341986],[-4.444929,48.349608],[-4.436844,48.360993],[-4.407201,48.381299],[-4.311198,48.417228],[-4.299389,48.423914],[-4.290599,48.434493],[-4.346846,48.405897],[-4.359885,48.40899],[-4.401293,48.389546],[-4.430603,48.397372],[-4.43543,48.382737],[-4.496,48.37974],[-4.533266,48.357978],[-4.553,48.361276],[-4.608189,48.337582],[-4.628981,48.336525],[-4.68006,48.355804],[-4.700563,48.349853],[-4.69677,48.336672],[-4.709962,48.329808],[-4.772285,48.328712],[-4.770462,48.347304],[-4.780558,48.359045],[-4.76003,48.362224],[-4.788709,48.361632],[-4.788294,48.370105],[-4.768773,48.365353],[-4.762726,48.382422],[-4.777183,48.390639],[-4.774221,48.404963],[-4.78479,48.404351],[-4.796088,48.415174],[-4.772099,48.463673],[-4.746479,48.471444],[-4.760723,48.47028],[-4.778792,48.484497],[-4.771731,48.485494],[-4.781047,48.496349],[-4.778612,48.505208],[-4.767133,48.51016],[-4.783702,48.517104],[-4.759594,48.520641],[-4.765244,48.53178],[-4.752322,48.532155],[-4.75405,48.54407],[-4.731357,48.556265],[-4.715395,48.559368],[-4.704483,48.551996],[-4.700873,48.556194],[-4.708481,48.56305],[-4.701709,48.56573],[-4.708785,48.56925],[-4.690455,48.570794],[-4.694839,48.576311],[-4.680056,48.568153],[-4.670967,48.576697],[-4.656549,48.571738],[-4.624762,48.579254],[-4.624497,48.575415],[-4.595153,48.570731],[-4.59195,48.554132],[-4.580422,48.560475],[-4.533935,48.553086],[-4.523616,48.554658],[-4.586678,48.561666],[-4.594051,48.573936],[-4.610638,48.575016],[-4.603687,48.584693],[-4.608057,48.60441],[-4.598052,48.608795],[-4.585392,48.602816],[-4.593448,48.594479],[-4.542639,48.598994],[-4.520461,48.585828],[-4.501889,48.587075],[-4.490355,48.575289],[-4.482723,48.57311],[-4.500608,48.588977],[-4.518851,48.58837],[-4.542914,48.601539],[-4.563096,48.602316],[-4.555663,48.609897],[-4.573217,48.605384],[-4.574908,48.611485],[-4.568232,48.608407],[-4.564123,48.615609],[-4.577214,48.615015],[-4.572351,48.624894],[-4.565113,48.619186],[-4.561994,48.628015],[-4.559572,48.623813],[-4.542634,48.624735],[-4.561397,48.6312],[-4.545533,48.630149],[-4.544412,48.6369],[-4.533013,48.630337],[-4.514299,48.635379],[-4.501503,48.621409],[-4.463324,48.627525],[-4.449399,48.645034],[-4.432375,48.631516],[-4.436079,48.643679],[-4.406641,48.639356],[-4.432459,48.646774],[-4.439592,48.659775],[-4.429416,48.652955],[-4.397703,48.655487],[-4.373217,48.670581],[-4.330456,48.677391],[-4.323833,48.676094],[-4.327226,48.66733],[-4.316012,48.674712],[-4.295849,48.66539],[-4.298752,48.652986],[-4.311867,48.645537],[-4.298869,48.634085],[-4.302581,48.640716],[-4.280828,48.642509],[-4.275378,48.650351],[-4.20187,48.652274],[-4.22587,48.657738],[-4.188081,48.687924],[-4.138183,48.692955],[-4.135123,48.698641],[-4.100177,48.697015],[-4.080551,48.69478],[-4.065807,48.681785],[-4.071602,48.688232],[-4.063127,48.68804],[-4.058887,48.697856],[-4.072506,48.706591],[-4.041503,48.703446],[-4.040172,48.713546],[-4.033255,48.715578],[-4.024873,48.711784],[-4.014236,48.71307],[-4.009901,48.728268],[-4.000754,48.727174],[-4.006155,48.720916],[-4.000607,48.712016],[-3.982144,48.729625],[-3.979358,48.722731],[-3.969537,48.727933],[-3.961543,48.720993],[-3.975899,48.699126],[-3.957739,48.688455],[-3.967941,48.689662],[-3.970634,48.674216],[-3.949849,48.673432],[-3.955946,48.647393],[-3.950926,48.635736],[-3.950914,48.652967],[-3.942498,48.661651],[-3.931677,48.658061],[-3.924075,48.669313],[-3.929817,48.677615],[-3.923724,48.682985],[-3.925729,48.700122],[-3.918669,48.684356],[-3.92728,48.675709],[-3.889524,48.670907],[-3.905478,48.662118],[-3.896699,48.645729],[-3.859957,48.633371],[-3.854326,48.619946],[-3.841004,48.627954],[-3.849888,48.632927],[-3.86546,48.670864],[-3.855272,48.674589],[-3.847291,48.661851],[-3.857083,48.691406],[-3.841644,48.696254],[-3.842623,48.707704],[-3.83645,48.706908],[-3.832,48.715158],[-3.822155,48.70293],[-3.817772,48.711675],[-3.823644,48.720119],[-3.8082,48.711678],[-3.80074,48.715269],[-3.785909,48.702583],[-3.76421,48.710127],[-3.722482,48.707121],[-3.702083,48.690413],[-3.679555,48.687534],[-3.643544,48.697695],[-3.653898,48.681803],[-3.639486,48.672502],[-3.64978,48.667178],[-3.637919,48.671018],[-3.635968,48.682896],[-3.622422,48.68718],[-3.610688,48.670665],[-3.581128,48.670532],[-3.567842,48.681846],[-3.585083,48.690755],[-3.58167,48.721734],[-3.588769,48.723063],[-3.587793,48.72702],[-3.576184,48.723154],[-3.565329,48.731757],[-3.531329,48.732721],[-3.551295,48.733013],[-3.549781,48.746231],[-3.563059,48.759217],[-3.585747,48.75724],[-3.578691,48.763683],[-3.588247,48.767928],[-3.577989,48.782667],[-3.58448,48.790942],[-3.569753,48.791571],[-3.585447,48.794475],[-3.590585,48.807106],[-3.565712,48.808213],[-3.565423,48.796472],[-3.555159,48.793477],[-3.543725,48.7983],[-3.539765,48.808717],[-3.547528,48.808594],[-3.558234,48.813469],[-3.542471,48.8154],[-3.544989,48.825364],[-3.530844,48.823167],[-3.524177,48.825901],[-3.528211,48.833961],[-3.513929,48.835205],[-3.520517,48.840788],[-3.509509,48.835246],[-3.496201,48.838769],[-3.51051,48.834221],[-3.502234,48.824325],[-3.496454,48.830639],[-3.485443,48.825334],[-3.491366,48.831596],[-3.476764,48.838706],[-3.460078,48.816971],[-3.429046,48.822062],[-3.425722,48.817622],[-3.441029,48.799111],[-3.410035,48.79917],[-3.387928,48.80439],[-3.388721,48.815638],[-3.353089,48.820228],[-3.32273,48.83817],[-3.29233,48.830925],[-3.284067,48.845842],[-3.288081,48.845982],[-3.295343,48.851431],[-3.297437,48.844376],[-3.295724,48.854316],[-3.288246,48.847446],[-3.271411,48.850561],[-3.275161,48.843677],[-3.26461,48.834339],[-3.25806,48.848677],[-3.234417,48.863345],[-3.2392,48.867586],[-3.223259,48.871321],[-3.205696,48.847283],[-3.21847,48.834074],[-3.200452,48.83772],[-3.202724,48.824508],[-3.226344,48.79758],[-3.225691,48.770244],[-3.253948,48.755548],[-3.254139,48.751444],[-3.220311,48.772737],[-3.223833,48.796478],[-3.199405,48.815168],[-3.183507,48.845292],[-3.129336,48.864941],[-3.105991,48.865279],[-3.07145,48.884683],[-3.095721,48.867833],[-3.073164,48.866292],[-3.080026,48.862116],[-3.076,48.855777],[-3.085391,48.8584],[-3.080061,48.85235],[-3.097285,48.833144],[-3.070461,48.832051],[-3.083572,48.826213],[-3.095329,48.80616],[-3.098788,48.782985],[-3.106315,48.782044],[-3.121349,48.771853],[-3.122457,48.75735],[-3.14627,48.747598],[-3.147377,48.739263],[-3.124344,48.753002],[-3.117401,48.764375],[-3.100115,48.769068],[-3.105646,48.77966],[-3.094922,48.781872],[-3.094569,48.794925],[-3.073644,48.819925],[-3.008483,48.820501],[-3.016137,48.81071],[-3.003522,48.798719],[-3.01982,48.797314],[-3.04315,48.784444],[-3.008653,48.781994],[-3.027828,48.776435],[-2.989486,48.762885],[-2.959488,48.76371],[-2.95213,48.772101],[-2.948553,48.761926],[-2.92778,48.755275],[-2.940919,48.744719],[-2.933429,48.737054],[-2.94665,48.723524],[-2.929325,48.720394],[-2.925764,48.708193],[-2.902945,48.699168],[-2.894676,48.703751],[-2.88257,48.689658],[-2.881854,48.675367],[-2.857323,48.674622],[-2.818301,48.650003],[-2.82717,48.646546],[-2.8125,48.613839],[-2.823466,48.597443],[-2.778676,48.585098],[-2.773992,48.571673],[-2.760927,48.565787],[-2.712995,48.55521],[-2.723985,48.546752],[-2.717001,48.539607],[-2.72334,48.530783],[-2.710266,48.533886],[-2.714994,48.524047],[-2.687488,48.500031],[-2.675815,48.513023],[-2.682215,48.532871],[-2.668374,48.536528],[-2.656986,48.52552],[-2.632162,48.525752],[-2.633052,48.537989],[-2.552802,48.591621],[-2.55384,48.60008],[-2.529032,48.598223],[-2.479532,48.617931],[-2.472506,48.624035],[-2.476078,48.63043],[-2.467144,48.633685],[-2.478635,48.63396],[-2.489583,48.64604],[-2.437958,48.653982],[-2.416533,48.647876],[-2.417948,48.640993],[-2.396266,48.64277],[-2.386315,48.653087],[-2.36049,48.655921],[-2.330154,48.672213],[-2.318431,48.688655],[-2.310979,48.671234],[-2.283318,48.668451],[-2.329717,48.622721],[-2.314199,48.610747],[-2.273866,48.640735],[-2.241905,48.645303],[-2.255379,48.635009],[-2.23804,48.626063],[-2.244073,48.614255],[-2.227625,48.610733],[-2.223969,48.594669],[-2.2122,48.591403],[-2.213328,48.573525],[-2.191748,48.593351],[-2.195516,48.610619],[-2.182103,48.602595],[-2.185631,48.583491],[-2.177803,48.576768],[-2.163287,48.587048],[-2.17249,48.596251],[-2.167635,48.605101],[-2.146762,48.620596],[-2.141359,48.610876],[-2.125699,48.606632],[-2.137512,48.613021],[-2.138615,48.624345],[-2.1509,48.62643],[-2.15019,48.635735],[-2.121416,48.636846],[-2.112087,48.648377],[-2.111286,48.638773],[-2.094341,48.633993],[-2.07742,48.641447],[-2.047409,48.639454],[-2.054264,48.626536],[-2.029227,48.623734],[-2.030092,48.60494],[-2.017285,48.60541],[-2.024034,48.59826],[-1.993244,48.577579],[-2.00229,48.576207],[-2.010631,48.569511],[-2.000366,48.567969],[-1.98508,48.545382],[-1.972911,48.544817],[-1.971312,48.535473],[-1.961724,48.552519],[-1.97743,48.556154],[-1.972984,48.565395],[-1.986802,48.584237],[-1.955137,48.574843],[-1.965391,48.583839],[-1.961617,48.591239],[-1.997917,48.590025],[-1.997996,48.602623],[-2.012831,48.598323],[-2.003552,48.612858],[-2.015512,48.613468],[-2.013791,48.626541],[-2.031686,48.633983],[-2.019807,48.639503],[-2.030491,48.640103],[-2.029255,48.650576],[-1.98896,48.664481],[-1.981928,48.674418],[-1.990573,48.683687],[-1.947086,48.683049],[-1.959908,48.690988],[-1.939383,48.693672],[-1.937965,48.703348],[-1.931108,48.693698],[-1.900356,48.690599],[-1.843665,48.713072],[-1.842937,48.702118],[-1.84986,48.699273],[-1.835028,48.680406],[-1.862633,48.666933],[-1.868034,48.642409],[-1.837533,48.613648],[-1.799691,48.606953],[-1.784713,48.612144],[-1.777109,48.603963],[-1.770137,48.613946],[-1.710503,48.606606],[-1.651087,48.61477],[-1.621815,48.624104],[-1.596958,48.642517],[-1.528116,48.64167],[-1.520991,48.632415],[-1.509225,48.63088],[-1.511307,48.637252],[-1.507512,48.631051],[-1.501434,48.630883],[-1.482557,48.643345],[-1.420039,48.639231],[-1.38521,48.648757],[-1.359329,48.634853],[-1.366068,48.646451],[-1.382521,48.650941],[-1.409819,48.649663],[-1.40539,48.672056],[-1.420412,48.652672],[-1.446661,48.653868],[-1.460706,48.671118],[-1.505381,48.684518],[-1.520263,48.720069],[-1.532856,48.729854],[-1.571153,48.742586],[-1.573201,48.81903],[-1.594017,48.834025],[-1.614895,48.83408],[-1.583929,48.8504],[-1.561985,48.928396],[-1.551535,48.935732],[-1.55506,48.922705],[-1.548589,48.916888],[-1.54374,48.932135],[-1.563049,48.943972],[-1.55741,49.026407],[-1.534765,49.036797],[-1.515463,49.023455],[-1.512948,49.027892],[-1.534214,49.037985],[-1.556409,49.033998],[-1.574272,49.001253],[-1.582053,49.001832],[-1.598737,49.035916],[-1.60617,49.066067],[-1.600433,49.07128],[-1.610077,49.076926],[-1.610078,49.099723],[-1.592331,49.135527],[-1.606607,49.19616],[-1.602775,49.205329],[-1.613879,49.217447],[-1.589281,49.222723],[-1.617043,49.226638],[-1.625397,49.217341],[-1.612672,49.208475],[-1.629202,49.212453],[-1.678675,49.281497],[-1.669606,49.283604],[-1.686382,49.288891],[-1.706465,49.317417],[-1.708204,49.326578],[-1.694181,49.32963],[-1.70916,49.33986],[-1.704083,49.328434],[-1.721174,49.325341],[-1.787631,49.373688],[-1.768068,49.373671],[-1.774975,49.376941],[-1.809593,49.372714],[-1.822935,49.400033],[-1.825169,49.450174],[-1.847299,49.474654],[-1.850464,49.508203],[-1.87539,49.51452],[-1.889098,49.533394],[-1.840713,49.573905],[-1.847515,49.625775],[-1.859841,49.648856],[-1.874837,49.658208],[-1.946079,49.673802],[-1.936006,49.692064],[-1.948244,49.717011],[-1.93479,49.727909],[-1.911107,49.724709],[-1.886551,49.70585],[-1.851573,49.717801],[-1.833319,49.707005],[-1.82484,49.690443],[-1.759281,49.678322],[-1.716694,49.67951],[-1.701741,49.669724],[-1.685773,49.6737],[-1.6715,49.657933],[-1.629769,49.65977],[-1.619113,49.639192],[-1.61845,49.648247],[-1.60208,49.6455],[-1.604704,49.656404],[-1.532841,49.654935],[-1.486267,49.668448],[-1.472751,49.697032],[-1.454759,49.690819],[-1.420651,49.704983],[-1.381922,49.706149],[-1.295258,49.69255],[-1.26532,49.69731],[-1.273144,49.679103],[-1.239549,49.654495],[-1.229154,49.606266],[-1.254141,49.612198],[-1.266109,49.593554],[-1.262058,49.584991],[-1.295503,49.58332],[-1.307596,49.560796],[-1.303737,49.537455],[-1.25644,49.485021],[-1.165809,49.406123],[-1.158616,49.383736],[-1.173022,49.37696],[-1.172613,49.357855],[-1.138936,49.367086],[-1.133991,49.353919],[-1.116901,49.344622],[-1.115783,49.360907],[-1.074532,49.389556],[-0.94828,49.396176],[-0.92351,49.392245],[-0.879453,49.369941],[-0.814785,49.356056],[-0.61834,49.339912],[-0.552593,49.346737],[-0.394477,49.333298],[-0.29758,49.29667],[-0.24752,49.290929],[-0.248764,49.281312],[-0.227343,49.276678],[-0.242165,49.27243],[-0.244979,49.264483],[-0.224487,49.270802],[-0.226974,49.283697],[-0.08995,49.294978],[-0.003618,49.32444],[0.134916,49.405105],[0.223994,49.428208],[0.372044,49.439323],[0.496318,49.481434],[0.5215,49.477912],[0.58208,49.431127],[0.613653,49.427507],[0.664935,49.457072],[0.678468,49.511653],[0.721897,49.521173],[0.760178,49.513983],[0.771865,49.503448],[0.77673,49.480518],[0.808943,49.471342],[0.815748,49.447362],[0.800856,49.432776],[0.806495,49.40948],[0.812946,49.401137],[0.822129,49.395316],[0.839012,49.391812],[0.85364,49.391614],[0.86128,49.394411],[0.835191,49.393584],[0.812499,49.403834],[0.803574,49.429528],[0.820055,49.453369],[0.811932,49.472246],[0.779911,49.482226],[0.77424,49.507372],[0.765699,49.514589],[0.74005,49.523425],[0.709816,49.522736],[0.678124,49.514763],[0.668139,49.500983],[0.660191,49.458005],[0.608796,49.430326],[0.578278,49.437481],[0.527452,49.479229],[0.503549,49.487165],[0.402652,49.450671],[0.331116,49.438982],[0.291827,49.436166],[0.210781,49.454907],[0.150866,49.450933],[0.113946,49.456871],[0.10533,49.462568],[0.104735,49.46503],[0.153574,49.451351],[0.174048,49.456244],[0.120023,49.463196],[0.099479,49.478237],[0.147458,49.467384],[0.174839,49.47159],[0.13612,49.471326],[0.107328,49.480425],[0.112371,49.482593],[0.067357,49.507397],[0.065368,49.517109],[0.152981,49.645421],[0.152284,49.661101],[0.141972,49.668044],[0.123824,49.669086],[0.11843,49.661875],[0.116922,49.663258],[0.122828,49.669815],[0.136563,49.67045],[0.157284,49.662442],[0.162754,49.686293],[0.206537,49.714623],[0.334287,49.746094],[0.36721,49.768392],[0.436074,49.789118],[0.581552,49.852466],[0.694362,49.871834],[0.775172,49.873114],[0.928325,49.90628],[0.960402,49.919614],[1.02067,49.915647],[1.105623,49.936384],[1.204521,49.972286],[1.205384,49.980993],[1.22865,49.986083],[1.328918,50.046013],[1.377798,50.063605],[1.443639,50.100629],[1.482892,50.172455],[1.523026,50.208525],[1.569951,50.218156],[1.566862,50.212476],[1.582886,50.200616],[1.594417,50.202912],[1.655671,50.181152],[1.653093,50.187394],[1.666291,50.189202],[1.637072,50.188616],[1.632609,50.193127],[1.642491,50.195694],[1.621253,50.196221],[1.614705,50.206884],[1.621545,50.202306],[1.627944,50.210484],[1.639697,50.206502],[1.658185,50.209278],[1.641219,50.208909],[1.650326,50.216146],[1.645222,50.217744],[1.620916,50.214398],[1.591673,50.249566],[1.580794,50.251057],[1.590245,50.255785],[1.548772,50.257457],[1.538188,50.279605],[1.553462,50.362213],[1.617111,50.369527],[1.58775,50.374179],[1.555223,50.398601],[1.568617,50.43453],[1.582972,50.534819],[1.590191,50.539423],[1.624483,50.519925],[1.576836,50.569865],[1.576437,50.640525],[1.55897,50.698586],[1.573175,50.714916],[1.561165,50.725532],[1.575422,50.727663],[1.571369,50.720111],[1.575336,50.717425],[1.581854,50.730369],[1.593909,50.728298],[1.593735,50.750935],[1.606395,50.767824],[1.603243,50.801757],[1.577729,50.852769],[1.581419,50.871078],[1.639803,50.877371],[1.731758,50.939734],[1.8443,50.968197],[1.849558,50.961918],[1.845803,50.968296],[1.857233,50.967942],[1.867453,50.969816],[1.853433,50.969059],[1.840906,50.972976],[1.893085,50.979751],[1.938782,51.000086],[2.001401,50.998398],[2.123431,51.014849],[2.143622,51.022652],[2.147989,51.034236],[2.162212,51.037875],[2.15053,51.034257],[2.160715,51.03136],[2.151553,51.021636],[2.169867,51.021916],[2.162889,51.017617],[2.181213,51.001007],[2.179024,51.015391],[2.18998,51.021728],[2.174296,51.023047],[2.191984,51.027665],[2.194002,51.037474],[2.161651,51.044076],[2.193605,51.041473],[2.207205,51.032675],[2.256907,51.04265],[2.267518,51.032109],[2.27079,51.041969],[2.327075,51.052392],[2.34756,51.047128],[2.342337,51.042871],[2.364005,51.044181],[2.368865,51.036637],[2.368863,51.044741],[2.354749,51.052325],[2.415823,51.054187],[2.546263,51.089314]],[[5.323619,43.351046],[5.318403,43.351086],[5.314079,43.353717],[5.319124,43.355622],[5.323619,43.351046]],[[4.875399,43.361644],[4.874124,43.363355],[4.873418,43.368621],[4.878194,43.366046],[4.875399,43.361644]],[[3.702811,43.392655],[3.707785,43.395975],[3.73124,43.398775],[3.708316,43.395395],[3.702811,43.392655]],[[3.725258,43.400947],[3.724527,43.40481],[3.731173,43.413548],[3.733897,43.415335],[3.748253,43.419777],[3.732236,43.413741],[3.725258,43.400947]],[[5.051345,43.404063],[5.053329,43.406541],[5.056391,43.405094],[5.054832,43.404514],[5.051345,43.404063]],[[-1.358165,43.496703],[-1.359999,43.497409],[-1.354448,43.499082],[-1.355155,43.497679],[-1.358165,43.496703]],[[7.048689,43.504489],[7.040664,43.505332],[7.036712,43.507989],[7.055532,43.508076],[7.048689,43.504489]],[[7.057456,43.505393],[7.056721,43.506179],[7.059175,43.507389],[7.059075,43.505888],[7.057456,43.505393]],[[7.073916,43.51396],[7.072082,43.516044],[7.072382,43.516881],[7.074576,43.514918],[7.073916,43.51396]],[[7.047975,43.523887],[7.053988,43.520847],[7.070943,43.517523],[7.044969,43.515038],[7.030914,43.521445],[7.047975,43.523887]],[[7.418592,43.724616],[7.406199,43.718503],[7.35972,43.722127],[7.340327,43.712513],[7.33037,43.698865],[7.350043,43.68619],[7.334964,43.686018],[7.332156,43.674292],[7.324085,43.676653],[7.319871,43.690467],[7.326332,43.696705],[7.314343,43.706193],[7.305816,43.684754],[7.284221,43.694435],[7.288412,43.690272],[7.259785,43.693638],[7.240616,43.687457],[7.212735,43.64746],[7.201005,43.645034],[7.192579,43.657304],[7.157467,43.653172],[7.135285,43.62913],[7.126887,43.607633],[7.127486,43.586814],[7.133787,43.588596],[7.126344,43.574172],[7.140532,43.569648],[7.135965,43.555802],[7.144797,43.551998],[7.137817,43.545219],[7.11929,43.542577],[7.121091,43.559328],[7.096762,43.570901],[7.068957,43.56232],[7.038284,43.534722],[7.022159,43.549415],[6.959155,43.540133],[6.937884,43.51448],[6.95686,43.496932],[6.946244,43.48277],[6.932259,43.483672],[6.919966,43.457438],[6.924253,43.450838],[6.878668,43.424651],[6.859539,43.433392],[6.855923,43.41134],[6.829342,43.418248],[6.788263,43.407919],[6.761484,43.424132],[6.731796,43.41081],[6.723943,43.397256],[6.732017,43.389015],[6.71274,43.366463],[6.716683,43.347363],[6.679688,43.340402],[6.665178,43.323799],[6.671428,43.31229],[6.633904,43.307012],[6.624737,43.29571],[6.583354,43.277508],[6.592448,43.262066],[6.620243,43.263807],[6.63824,43.273904],[6.663955,43.264627],[6.677959,43.278857],[6.697336,43.265528],[6.690385,43.251739],[6.66259,43.238417],[6.664661,43.211337],[6.681057,43.200082],[6.642925,43.187181],[6.640039,43.173103],[6.647679,43.166293],[6.63336,43.172599],[6.620676,43.157856],[6.600009,43.182919],[6.560615,43.18883],[6.53783,43.18015],[6.534855,43.163046],[6.524119,43.165672],[6.49361,43.149907],[6.463345,43.157302],[6.440425,43.142614],[6.428938,43.151714],[6.386341,43.144677],[6.369256,43.137653],[6.365898,43.119941],[6.359891,43.120999],[6.363613,43.110344],[6.358116,43.108418],[6.370633,43.091439],[6.364512,43.085983],[6.321929,43.09163],[6.325285,43.09987],[6.31631,43.106575],[6.28943,43.106221],[6.276344,43.120682],[6.238764,43.112932],[6.20568,43.116477],[6.170859,43.099893],[6.153975,43.075724],[6.153053,43.035973],[6.173843,43.03236],[6.148978,43.025978],[6.135318,43.035101],[6.11327,43.034936],[6.097021,43.027112],[6.09363,43.040079],[6.119824,43.038257],[6.131194,43.046229],[6.125962,43.078599],[6.11648,43.082951],[6.080889,43.087278],[6.021896,43.078198],[6.0167,43.084241],[6.024266,43.094294],[6.00686,43.103413],[5.956117,43.10764],[5.92545,43.10197],[5.934436,43.117021],[5.922847,43.115023],[5.924463,43.122838],[5.913192,43.11442],[5.913982,43.122085],[5.912291,43.12236],[5.906362,43.112072],[5.885399,43.116253],[5.889556,43.103679],[5.910656,43.1003],[5.895813,43.08172],[5.90651,43.087386],[5.907381,43.080967],[5.940856,43.084127],[5.951324,43.076223],[5.946914,43.067105],[5.929172,43.07146],[5.910516,43.065677],[5.890101,43.077814],[5.872388,43.068877],[5.858904,43.045405],[5.829751,43.048521],[5.815485,43.063486],[5.794407,43.069914],[5.806504,43.080846],[5.81082,43.111906],[5.766041,43.115306],[5.780571,43.128786],[5.770729,43.138365],[5.749207,43.130585],[5.724389,43.136114],[5.716884,43.147156],[5.694756,43.143551],[5.681946,43.155276],[5.695096,43.168247],[5.686667,43.179084],[5.623725,43.186678],[5.605111,43.160226],[5.570511,43.173537],[5.548952,43.194054],[5.549149,43.207287],[5.537514,43.21215],[5.499606,43.195903],[5.492635,43.203665],[5.455834,43.211051],[5.447895,43.209265],[5.453016,43.201233],[5.402847,43.212837],[5.366622,43.206782],[5.337769,43.21346],[5.36351,43.246246],[5.373285,43.245796],[5.376,43.260748],[5.345305,43.282246],[5.355437,43.295231],[5.364547,43.292527],[5.373494,43.294515],[5.361286,43.294848],[5.358436,43.297846],[5.363647,43.309711],[5.356993,43.31896],[5.361493,43.322407],[5.352349,43.323036],[5.345187,43.332422],[5.35113,43.334151],[5.32839,43.344089],[5.341975,43.341017],[5.314193,43.360268],[5.293715,43.35941],[5.258627,43.33689],[5.225237,43.327877],[5.088916,43.332848],[5.054231,43.323957],[5.050571,43.332621],[5.0351,43.330668],[5.018377,43.342952],[5.024488,43.354923],[5.01571,43.356465],[5.011515,43.369617],[4.985305,43.393163],[4.999236,43.396932],[4.997305,43.402245],[5.026541,43.397056],[5.115583,43.404697],[5.130069,43.397544],[5.204257,43.442034],[5.197873,43.451013],[5.20838,43.443723],[5.228676,43.44829],[5.229536,43.465967],[5.22323,43.482366],[5.206426,43.492069],[5.164107,43.471447],[5.153314,43.459817],[5.160744,43.462163],[5.157776,43.454817],[5.141315,43.459272],[5.112982,43.506411],[5.119716,43.517101],[5.114216,43.522801],[5.060246,43.527829],[5.046182,43.522079],[5.020834,43.556137],[5.011946,43.550372],[5.014596,43.524567],[4.999987,43.508862],[5.000619,43.475396],[5.051566,43.464249],[5.059274,43.406349],[5.052721,43.406792],[5.0374,43.402313],[4.990034,43.403694],[4.983093,43.395799],[4.973775,43.401551],[4.968009,43.426127],[4.92783,43.432757],[4.910225,43.426893],[4.901733,43.411602],[4.890097,43.414137],[4.892895,43.404624],[4.885647,43.414136],[4.905208,43.429899],[4.882288,43.419474],[4.86665,43.432509],[4.861341,43.453238],[4.8496,43.451691],[4.877006,43.410653],[4.866372,43.404591],[4.828941,43.429061],[4.825305,43.423294],[4.859342,43.402085],[4.850554,43.397834],[4.837458,43.40526],[4.839316,43.393542],[4.87254,43.390152],[4.833291,43.374812],[4.851845,43.375896],[4.883529,43.35568],[4.883468,43.363904],[4.890969,43.360237],[4.912235,43.376812],[4.884627,43.354381],[4.861997,43.355807],[4.875775,43.350431],[4.846252,43.33482],[4.83566,43.367554],[4.744871,43.420712],[4.754543,43.421797],[4.760084,43.425185],[4.738284,43.426234],[4.752708,43.470723],[4.735841,43.522122],[4.715892,43.549755],[4.669057,43.584403],[4.65724,43.615963],[4.641064,43.626543],[4.613764,43.634753],[4.600832,43.651287],[4.605792,43.664425],[4.629578,43.68061],[4.628767,43.69249],[4.613542,43.725437],[4.622783,43.74184],[4.627894,43.760259],[4.647656,43.77972],[4.65365,43.79823],[4.651751,43.815891],[4.630149,43.840356],[4.62432,43.859781],[4.687188,43.881732],[4.727869,43.906428],[4.736435,43.923967],[4.685195,43.885628],[4.624553,43.866789],[4.618258,43.859497],[4.621298,43.841848],[4.617095,43.851985],[4.611324,43.854466],[4.625873,43.828804],[4.648261,43.811476],[4.648444,43.790258],[4.628118,43.765072],[4.610842,43.723292],[4.62655,43.680621],[4.601504,43.666384],[4.596197,43.651577],[4.608845,43.63384],[4.653174,43.615502],[4.658723,43.590518],[4.716901,43.542367],[4.734643,43.515805],[4.735118,43.497386],[4.748855,43.471395],[4.731735,43.427058],[4.755064,43.404348],[4.823395,43.368975],[4.837993,43.330652],[4.772771,43.348704],[4.659915,43.345192],[4.580099,43.361928],[4.554705,43.384301],[4.591715,43.402539],[4.590636,43.418669],[4.575359,43.435796],[4.531715,43.451974],[4.459465,43.457031],[4.40197,43.447046],[4.173309,43.469459],[4.136794,43.481896],[4.115051,43.504302],[4.123481,43.510362],[4.12304,43.521444],[4.140947,43.528634],[4.126278,43.544895],[4.088619,43.55629],[4.025488,43.555191],[3.905769,43.517895],[3.831972,43.473657],[3.798923,43.441725],[3.748271,43.417969],[3.752319,43.426198],[3.726059,43.41659],[3.715333,43.398463],[3.668226,43.393804],[3.637216,43.380551],[3.565564,43.326889],[3.507002,43.267669],[3.509442,43.283443],[3.505937,43.272558],[3.482233,43.273466],[3.444201,43.279135],[3.426956,43.290542],[3.367297,43.282266],[3.346906,43.270981],[3.336244,43.281793],[3.341562,43.26818],[3.262361,43.229496],[3.211539,43.194245],[3.195103,43.207005],[3.202521,43.185738],[3.136249,43.128394],[3.125891,43.112606],[3.1331,43.11012],[3.118956,43.105689],[3.086154,43.059013],[3.102761,43.084774],[3.084535,43.063374],[3.081048,43.07592],[3.047455,43.082439],[3.049728,43.093945],[3.036427,43.088606],[3.031216,43.10115],[3.023687,43.073212],[3.032306,43.064936],[3.060897,43.050199],[3.071453,43.058841],[3.080266,43.055943],[3.060208,43.026673],[3.070694,43.011897],[3.054249,43.00518],[3.031643,42.962499],[3.042853,42.967962],[3.034085,42.934367],[3.060376,42.919603],[3.048687,42.876473],[3.054391,42.87322],[3.040359,42.87121],[3.02989,42.854938],[3.048629,42.902259],[3.016422,42.894877],[3.010818,42.927767],[3.001724,42.898272],[3.00676,42.896814],[2.995535,42.884284],[3.001002,42.873784],[2.964107,42.856074],[2.94968,42.833741],[2.96301,42.834452],[2.98172,42.800523],[3.019772,42.804572],[3.026885,42.810704],[3.016801,42.813276],[3.018097,42.836971],[3.030432,42.8482],[3.034853,42.841295],[3.038694,42.86649],[3.054062,42.871789],[3.04679,42.865335],[3.040335,42.821659],[3.033866,42.672728],[3.039763,42.619124],[3.034102,42.610065],[3.041687,42.605579],[3.049077,42.547747],[3.085835,42.524343],[3.142145,42.51592],[3.123059,42.505186],[3.13613,42.499918],[3.129768,42.482265],[3.155371,42.477705],[3.1625,42.465551],[3.157409,42.46008],[3.167938,42.456614],[3.16012,42.452422],[3.169153,42.447597],[3.166128,42.440655],[3.177899,42.439317],[3.173108,42.433493]],[[7.530158,43.783656],[7.489849,43.766394],[7.487513,43.748839],[7.461052,43.759717],[7.439514,43.74927]],[[4.650415,43.791886],[4.650539,43.811441],[4.628356,43.829183],[4.624587,43.843362],[4.650425,43.813992],[4.652268,43.807254],[4.650415,43.791886]],[[-1.173454,44.691182],[-1.18336,44.693074],[-1.190247,44.699692],[-1.16992,44.70251],[-1.165743,44.695389],[-1.173454,44.691182]],[[-0.501559,44.740551],[-0.510149,44.744733],[-0.510339,44.751409],[-0.50292,44.748237],[-0.501559,44.740551]],[[-0.518333,44.790229],[-0.521642,44.794231],[-0.52484,44.804796],[-0.518411,44.797796],[-0.518333,44.790229]],[[-0.592312,45.01122],[-0.634008,45.037832],[-0.673326,45.080218],[-0.679451,45.096447],[-0.592312,45.01122]],[[-0.539946,45.02904],[-0.541185,45.029464],[-0.542294,45.030514],[-0.539592,45.029794],[-0.539946,45.02904]],[[-0.558879,45.03019],[-0.569682,45.031097],[-0.572258,45.032525],[-0.561445,45.032308],[-0.558879,45.03019]],[[-0.643356,45.046152],[-0.651006,45.050095],[-0.652279,45.053353],[-0.647233,45.051782],[-0.643356,45.046152]],[[-0.675395,45.112283],[-0.679172,45.117046],[-0.679203,45.119743],[-0.677084,45.118894],[-0.675395,45.112283]],[[-0.709459,45.175781],[-0.705587,45.168421],[-0.70092,45.151172],[-0.712394,45.178519],[-0.709459,45.175781]],[[-0.689268,45.175781],[-0.679096,45.146835],[-0.67888,45.126992],[-0.695192,45.165921],[-0.692383,45.18262],[-0.689268,45.175781]],[[-0.703295,45.207387],[-0.699265,45.194416],[-0.701039,45.174705],[-0.717378,45.201311],[-0.710996,45.21525],[-0.703295,45.207387]],[[-0.728937,45.219725],[-0.730332,45.224251],[-0.729327,45.22604],[-0.726998,45.223429],[-0.728937,45.219725]],[[-1.164625,45.839984],[-1.167946,45.840775],[-1.167645,45.843507],[-1.163927,45.841344],[-1.164625,45.839984]],[[-1.096113,45.951164],[-1.116471,45.951497],[-1.122225,45.961534],[-1.112962,45.963148],[-1.096113,45.951164]],[[-1.13751,45.968283],[-1.134284,45.968164],[-1.124888,45.962864],[-1.135633,45.965161],[-1.13751,45.968283]],[[-1.159786,46.017369],[-1.168364,46.019089],[-1.17915,46.008866],[-1.178355,46.025192],[-1.153351,46.018734],[-1.159786,46.017369]],[[-1.40625,46.048828],[-1.368474,46.0387],[-1.368121,46.028651],[-1.334673,46.014129],[-1.315409,45.993611],[-1.287858,45.98725],[-1.249431,45.990485],[-1.234287,45.982539],[-1.232955,45.964641],[-1.242199,45.956535],[-1.226315,45.940575],[-1.231265,45.924705],[-1.208275,45.903209],[-1.193557,45.906127],[-1.20124,45.895815],[-1.187431,45.885264],[-1.196967,45.869914],[-1.193641,45.86119],[-1.206949,45.8492],[-1.195881,45.828719],[-1.226184,45.802856],[-1.234575,45.80026],[-1.24401,45.808921],[-1.26839,45.879858],[-1.293028,45.900048],[-1.341392,45.917503],[-1.384922,45.947358],[-1.396964,45.978079],[-1.387464,45.997863],[-1.414407,46.045109],[-1.40625,46.048828]],[[-1.507122,46.257877],[-1.487756,46.253038],[-1.474465,46.23494],[-1.484722,46.227752],[-1.49898,46.233862],[-1.493948,46.224956],[-1.513641,46.225942],[-1.5063,46.213852],[-1.497344,46.215637],[-1.486348,46.204667],[-1.483374,46.21289],[-1.455513,46.224385],[-1.468872,46.224552],[-1.469805,46.230469],[-1.414549,46.231276],[-1.410036,46.22696],[-1.417363,46.219324],[-1.440796,46.212175],[-1.403808,46.203195],[-1.363864,46.208695],[-1.319447,46.186689],[-1.291685,46.187125],[-1.274916,46.160744],[-1.253021,46.165464],[-1.278018,46.143649],[-1.31045,46.141027],[-1.461961,46.202258],[-1.503216,46.192594],[-1.536233,46.201667],[-1.562873,46.243703],[-1.538044,46.244163],[-1.507122,46.257877]],[[-1.869201,46.610602],[-1.870683,46.610873],[-1.867972,46.611786],[-1.868038,46.611154],[-1.869201,46.610602]],[[-2.412722,46.724341],[-2.413721,46.726712],[-2.406545,46.729663],[-2.409861,46.72479],[-2.412722,46.724341]],[[-2.37436,46.73442],[-2.344191,46.727649],[-2.337327,46.718951],[-2.319168,46.719229],[-2.279201,46.689436],[-2.313872,46.694821],[-2.333341,46.684725],[-2.370542,46.701054],[-2.383772,46.69905],[-2.380829,46.704476],[-2.39332,46.70934],[-2.402245,46.725559],[-2.37436,46.73442]],[[-2.256565,47.027366],[-2.217975,47.00779],[-2.21893,46.990422],[-2.235226,46.995264],[-2.238685,46.980623],[-2.23193,46.974485],[-2.15643,46.949762],[-2.14696,46.934787],[-2.152225,46.931486],[-2.146089,46.925954],[-2.14802,46.894184],[-2.161796,46.899129],[-2.177572,46.931501],[-2.203547,46.955244],[-2.224607,46.964757],[-2.260449,46.95759],[-2.282182,46.980723],[-2.302611,46.989744],[-2.290592,47.011013],[-2.307843,47.025523],[-2.256565,47.027366]],[[-2.354595,47.037981],[-2.358305,47.039258],[-2.361687,47.043313],[-2.358315,47.042469],[-2.354595,47.037981]],[[-1.5549,47.19873],[-1.575456,47.199528],[-1.563357,47.208397],[-1.514171,47.21477],[-1.5549,47.19873]],[[-1.491692,47.215733],[-1.498935,47.215654],[-1.511351,47.21389],[-1.482083,47.223089],[-1.491692,47.215733]],[[-2.386634,47.243164],[-2.388414,47.243828],[-2.389209,47.245304],[-2.387462,47.245483],[-2.386634,47.243164]],[[-1.441759,47.245523],[-1.45291,47.244319],[-1.425124,47.262553],[-1.436358,47.249505],[-1.441759,47.245523]],[[-2.349077,47.254983],[-2.351261,47.258658],[-2.345418,47.2593],[-2.34587,47.256306],[-2.349077,47.254983]],[[-1.404806,47.273153],[-1.41711,47.26626],[-1.384895,47.288183],[-1.389949,47.28052],[-1.404806,47.273153]],[[-1.886636,47.275721],[-1.889274,47.276135],[-1.89186,47.277904],[-1.88483,47.276217],[-1.886636,47.275721]],[[-2.124007,47.290241],[-2.137098,47.286092],[-2.139032,47.288226],[-2.116519,47.293128],[-2.124007,47.290241]],[[-3.247754,47.309358],[-3.250798,47.310174],[-3.25177,47.31143],[-3.246868,47.310145],[-3.247754,47.309358]],[[-2.835226,47.323604],[-2.83712,47.325687],[-2.836356,47.326779],[-2.834921,47.32624],[-2.835226,47.323604]],[[-2.864399,47.348402],[-2.860523,47.341115],[-2.876618,47.330836],[-2.892177,47.337729],[-2.891268,47.346955],[-2.873199,47.341831],[-2.864399,47.348402]],[[-2.965359,47.352823],[-2.96742,47.353882],[-2.966036,47.356112],[-2.964711,47.353719],[-2.965359,47.352823]],[[-2.969304,47.35469],[-2.972877,47.356182],[-2.973392,47.357117],[-2.96983,47.357898],[-2.969304,47.35469]],[[-1.215635,47.354803],[-1.210094,47.353697],[-1.260641,47.342408],[-1.228117,47.353577],[-1.215635,47.354803]],[[-2.946151,47.367718],[-2.94682,47.368963],[-2.944505,47.370533],[-2.944689,47.369644],[-2.946151,47.367718]],[[-3.246462,47.387335],[-3.191916,47.365193],[-3.157634,47.364478],[-3.138461,47.328992],[-3.12316,47.32945],[-3.100372,47.315295],[-3.066787,47.316655],[-3.055423,47.307668],[-3.089924,47.278867],[-3.122798,47.28993],[-3.143914,47.285156],[-3.139875,47.288898],[-3.173973,47.301039],[-3.194607,47.290794],[-3.201656,47.298879],[-3.206586,47.292705],[-3.223159,47.294711],[-3.244997,47.308235],[-3.249959,47.317114],[-3.238617,47.326],[-3.264306,47.351495],[-3.26354,47.371443],[-3.247141,47.371633],[-3.253902,47.387829],[-3.246462,47.387335]],[[-2.99701,47.397897],[-2.999412,47.398502],[-2.999616,47.398735],[-2.995021,47.398622],[-2.99701,47.397897]],[[-2.985722,47.399058],[-2.940566,47.393563],[-2.954249,47.382601],[-2.945961,47.371774],[-2.959755,47.383793],[-3.000816,47.394391],[-2.992579,47.395775],[-2.994518,47.40201],[-2.985722,47.399058]],[[-2.61517,47.409893],[-2.622791,47.408834],[-2.626519,47.410495],[-2.621756,47.414368],[-2.61517,47.409893]],[[-3.013345,47.411629],[-3.015705,47.409352],[-3.020649,47.412712],[-3.020236,47.41327],[-3.013345,47.411629]],[[-3.027818,47.415234],[-3.026848,47.416999],[-3.023916,47.4162],[-3.024257,47.416012],[-3.027818,47.415234]],[[-3.06659,47.462922],[-3.067405,47.464278],[-3.069523,47.465825],[-3.064825,47.465607],[-3.06659,47.462922]],[[-3.076381,47.464502],[-3.077863,47.467866],[-3.076859,47.468183],[-3.075897,47.46809],[-3.076381,47.464502]],[[-2.636822,47.502326],[-2.634715,47.501143],[-2.639542,47.501159],[-2.63862,47.502758],[-2.636822,47.502326]],[[-2.948681,47.527094],[-2.948838,47.528695],[-2.943362,47.530134],[-2.945025,47.528165],[-2.948681,47.527094]],[[-2.764846,47.540223],[-2.768399,47.540591],[-2.768348,47.543108],[-2.767185,47.543365],[-2.764846,47.540223]],[[-3.176626,47.548451],[-3.178941,47.549283],[-3.177439,47.55111],[-3.176148,47.549825],[-3.176626,47.548451]],[[-2.847298,47.553977],[-2.845219,47.559673],[-2.843174,47.560418],[-2.842411,47.557967],[-2.847298,47.553977]],[[-3.164278,47.556335],[-3.162747,47.554257],[-3.163031,47.55106],[-3.167283,47.557384],[-3.164278,47.556335]],[[-2.829895,47.556489],[-2.832634,47.55812],[-2.831192,47.560082],[-2.828669,47.557375],[-2.829895,47.556489]],[[-2.975108,47.55758],[-2.97914,47.561586],[-2.97771,47.56337],[-2.972706,47.55979],[-2.975108,47.55758]],[[-2.84845,47.560318],[-2.850155,47.56081],[-2.850941,47.562045],[-2.847389,47.561873],[-2.84845,47.560318]],[[-3.001612,47.561373],[-3.002795,47.563567],[-3.001871,47.564165],[-3.001183,47.564072],[-3.001612,47.561373]],[[-2.805699,47.561636],[-2.806621,47.564186],[-2.80511,47.56619],[-2.804351,47.562999],[-2.805699,47.561636]],[[-2.886842,47.562761],[-2.886271,47.564885],[-2.883937,47.565213],[-2.884717,47.564111],[-2.886842,47.562761]],[[-2.790416,47.563711],[-2.793478,47.562628],[-2.794343,47.566275],[-2.79226,47.564229],[-2.790416,47.563711]],[[-2.889096,47.565241],[-2.888452,47.570973],[-2.886948,47.571538],[-2.886419,47.567525],[-2.889096,47.565241]],[[-2.908748,47.566871],[-2.911467,47.574973],[-2.909518,47.577664],[-2.906121,47.567967],[-2.908748,47.566871]],[[-2.785806,47.568538],[-2.794173,47.570634],[-2.793568,47.576819],[-2.786319,47.574974],[-2.785806,47.568538]],[[-2.898875,47.57091],[-2.900598,47.572079],[-2.89728,47.577112],[-2.895583,47.572942],[-2.898875,47.57091]],[[-2.9211,47.571903],[-2.923256,47.573172],[-2.923275,47.575121],[-2.920875,47.572969],[-2.9211,47.571903]],[[-3.04452,47.572307],[-3.045262,47.5746],[-3.044447,47.574999],[-3.043224,47.573511],[-3.04452,47.572307]],[[-2.727483,47.572583],[-2.737601,47.580122],[-2.738677,47.58395],[-2.72378,47.577415],[-2.727483,47.572583]],[[-2.748203,47.574824],[-2.750057,47.576057],[-2.74748,47.57852],[-2.746282,47.576014],[-2.748203,47.574824]],[[-2.86873,47.576438],[-2.869754,47.577425],[-2.867596,47.579205],[-2.866912,47.577222],[-2.86873,47.576438]],[[-2.913566,47.577041],[-2.914982,47.577893],[-2.914943,47.579173],[-2.911816,47.578563],[-2.913566,47.577041]],[[-2.928652,47.577097],[-2.930344,47.578443],[-2.930176,47.581284],[-2.925585,47.579164],[-2.928652,47.577097]],[[-2.791851,47.578186],[-2.793619,47.578747],[-2.7939,47.579253],[-2.790732,47.579937],[-2.791851,47.578186]],[[-2.886802,47.581519],[-2.884859,47.578885],[-2.891048,47.574518],[-2.889142,47.583073],[-2.886802,47.581519]],[[-2.930095,47.583465],[-2.932842,47.584977],[-2.928494,47.586172],[-2.928497,47.584466],[-2.930095,47.583465]],[[-2.76272,47.590534],[-2.763595,47.59059],[-2.764817,47.59227],[-2.762153,47.592185],[-2.76272,47.590534]],[[-2.836117,47.591841],[-2.823748,47.588621],[-2.846461,47.589427],[-2.855821,47.574082],[-2.84817,47.566632],[-2.860531,47.560348],[-2.854504,47.601071],[-2.838289,47.607422],[-2.836117,47.591841]],[[-2.779358,47.592957],[-2.774366,47.595034],[-2.776038,47.586907],[-2.791945,47.593749],[-2.813274,47.579042],[-2.80806,47.586544],[-2.812758,47.598135],[-2.79666,47.597495],[-2.79308,47.6057],[-2.779358,47.592957]],[[-3.020053,47.59486],[-3.020769,47.596035],[-3.019843,47.597942],[-3.018691,47.59669],[-3.020053,47.59486]],[[-2.822816,47.598539],[-2.824631,47.599392],[-2.820727,47.598973],[-2.82112,47.598772],[-2.822816,47.598539]],[[-2.80109,47.607202],[-2.805177,47.606641],[-2.806293,47.608106],[-2.801407,47.609309],[-2.80109,47.607202]],[[-3.198448,47.607432],[-3.199942,47.608317],[-3.199188,47.610142],[-3.19758,47.608075],[-3.198448,47.607432]],[[-2.766722,47.609102],[-2.753674,47.607253],[-2.752069,47.603419],[-2.769844,47.605187],[-2.766722,47.609102]],[[-2.847601,47.609159],[-2.851454,47.610361],[-2.851236,47.613145],[-2.845987,47.610989],[-2.847601,47.609159]],[[-2.778602,47.615576],[-2.77412,47.613384],[-2.786088,47.615798],[-2.781294,47.618646],[-2.778602,47.615576]],[[-3.4922,47.652694],[-3.429554,47.64296],[-3.416325,47.633794],[-3.417593,47.624934],[-3.42319,47.619262],[-3.438931,47.627931],[-3.462985,47.619885],[-3.515625,47.647042],[-3.514552,47.652578],[-3.4922,47.652694]],[[-3.175811,47.684395],[-3.176456,47.685417],[-3.174855,47.687883],[-3.174644,47.686144],[-3.175811,47.684395]],[[-3.17135,47.685018],[-3.172244,47.687611],[-3.169395,47.687922],[-3.169334,47.685409],[-3.17135,47.685018]],[[-3.178094,47.685834],[-3.179186,47.687544],[-3.177921,47.689564],[-3.176581,47.687016],[-3.178094,47.685834]],[[-3.184316,47.685884],[-3.1858,47.686524],[-3.18564,47.688123],[-3.183713,47.687352],[-3.184316,47.685884]],[[-3.182603,47.693964],[-3.184195,47.694556],[-3.186116,47.696839],[-3.181313,47.694703],[-3.182603,47.693964]],[[-4.015366,47.705735],[-4.019008,47.708818],[-4.013877,47.710542],[-4.012405,47.708728],[-4.015366,47.705735]],[[-3.997349,47.707898],[-3.990177,47.708999],[-3.989231,47.702677],[-4.000755,47.700912],[-4.00336,47.707494],[-3.997349,47.707898]],[[-3.966174,47.710917],[-3.968571,47.713288],[-3.967671,47.713975],[-3.964761,47.713055],[-3.966174,47.710917]],[[-3.957474,47.711338],[-3.961134,47.71616],[-3.955315,47.72455],[-3.950097,47.719959],[-3.957474,47.711338]],[[-4.006773,47.717686],[-4.003594,47.714718],[-4.011499,47.715543],[-4.009917,47.718291],[-4.006773,47.717686]],[[-3.995221,47.720976],[-3.993024,47.726732],[-3.988585,47.722656],[-3.989275,47.721261],[-3.995221,47.720976]],[[-3.999627,47.721445],[-4.005502,47.722056],[-4.010334,47.721156],[-3.995193,47.726125],[-3.999627,47.721445]],[[-4.035027,47.722908],[-4.036477,47.724664],[-4.035912,47.725751],[-4.032928,47.724762],[-4.035027,47.722908]],[[-3.357914,47.72311],[-3.361139,47.723904],[-3.357677,47.727522],[-3.356727,47.724659],[-3.357914,47.72311]],[[-4.019825,47.728844],[-4.022848,47.729547],[-4.023337,47.731536],[-4.022249,47.732465],[-4.019825,47.728844]],[[-4.013259,47.729663],[-4.015162,47.730503],[-4.015425,47.731269],[-4.01318,47.732201],[-4.013259,47.729663]],[[-3.801792,47.769016],[-3.802203,47.772239],[-3.795188,47.773645],[-3.797562,47.770963],[-3.801792,47.769016]],[[-4.342371,47.772067],[-4.346899,47.773351],[-4.345651,47.777455],[-4.341982,47.774114],[-4.342371,47.772067]],[[-4.333995,47.773821],[-4.336666,47.772511],[-4.33792,47.772515],[-4.336064,47.777152],[-4.333995,47.773821]],[[-4.029033,47.776948],[-4.026449,47.778112],[-4.019638,47.776001],[-4.031344,47.773725],[-4.029033,47.776948]],[[-3.797983,47.781551],[-3.799093,47.782241],[-3.803472,47.783288],[-3.799136,47.785058],[-3.797983,47.781551]],[[-4.198018,47.788802],[-4.200956,47.790243],[-4.20065,47.792778],[-4.197046,47.79059],[-4.198018,47.788802]],[[-4.348115,47.79081],[-4.354977,47.789042],[-4.355901,47.790344],[-4.353497,47.793029],[-4.348115,47.79081]],[[-4.392835,47.791803],[-4.392958,47.794598],[-4.382485,47.796226],[-4.384364,47.79316],[-4.392835,47.791803]],[[-4.328128,47.792866],[-4.329434,47.793455],[-4.329309,47.795148],[-4.32746,47.794302],[-4.328128,47.792866]],[[-4.177409,47.840145],[-4.184867,47.844323],[-4.184311,47.847309],[-4.176159,47.844454],[-4.177409,47.840145]],[[-4.84492,48.04018],[-4.846731,48.041191],[-4.846365,48.04354],[-4.843563,48.041656],[-4.84492,48.04018]],[[-4.861195,48.041366],[-4.850223,48.040762],[-4.849429,48.033088],[-4.83509,48.030628],[-4.852578,48.03042],[-4.854972,48.038319],[-4.866385,48.037374],[-4.876718,48.0422],[-4.861195,48.041366]],[[-4.3367,48.098364],[-4.33855,48.09966],[-4.339435,48.103566],[-4.334848,48.10158],[-4.3367,48.098364]],[[-4.538038,48.301083],[-4.539145,48.302582],[-4.537831,48.304223],[-4.535255,48.302305],[-4.538038,48.301083]],[[-4.531093,48.302549],[-4.531764,48.305859],[-4.528841,48.307141],[-4.528319,48.304261],[-4.531093,48.302549]],[[-4.462219,48.322238],[-4.462998,48.322844],[-4.463424,48.324811],[-4.461281,48.323943],[-4.462219,48.322238]],[[-4.856143,48.340919],[-4.871662,48.342953],[-4.84147,48.35616],[-4.854386,48.348183],[-4.856143,48.340919]],[[-4.879265,48.368759],[-4.883177,48.36936],[-4.882389,48.371787],[-4.879782,48.370977],[-4.879265,48.368759]],[[-4.931772,48.371973],[-4.937896,48.368798],[-4.945598,48.370066],[-4.935146,48.375327],[-4.931772,48.371973]],[[-4.884315,48.372257],[-4.888629,48.374015],[-4.889362,48.38058],[-4.882328,48.373526],[-4.884315,48.372257]],[[-4.907113,48.37423],[-4.896873,48.376037],[-4.892126,48.373561],[-4.912574,48.374335],[-4.907113,48.37423]],[[-4.939408,48.377239],[-4.941512,48.379149],[-4.939297,48.380515],[-4.937433,48.379499],[-4.939408,48.377239]],[[-4.897998,48.377489],[-4.902963,48.383765],[-4.901396,48.387145],[-4.895365,48.380548],[-4.897998,48.377489]],[[-4.958503,48.389277],[-4.967671,48.397806],[-4.963617,48.402373],[-4.952532,48.394666],[-4.958503,48.389277]],[[-4.945857,48.401274],[-4.942698,48.401417],[-4.953387,48.398852],[-4.944294,48.407331],[-4.945857,48.401274]],[[-4.973979,48.417464],[-4.985816,48.413256],[-4.98805,48.415219],[-4.98367,48.421064],[-4.973979,48.417464]],[[-5.011416,48.422179],[-5.019066,48.421716],[-5.013541,48.432199],[-5.008635,48.42618],[-5.011416,48.422179]],[[-4.798084,48.427663],[-4.800178,48.429049],[-4.798282,48.429995],[-4.798084,48.427663]],[[-4.799332,48.439224],[-4.801309,48.439814],[-4.802002,48.440658],[-4.799404,48.440881],[-4.799332,48.439224]],[[-5.117224,48.443973],[-5.117324,48.446012],[-5.114641,48.445736],[-5.115095,48.444595],[-5.117224,48.443973]],[[-5.035747,48.456169],[-5.035717,48.458122],[-5.033338,48.45783],[-5.033979,48.456576],[-5.035747,48.456169]],[[-5.099854,48.482143],[-5.093612,48.48258],[-5.089474,48.47918],[-5.107242,48.481046],[-5.099854,48.482143]],[[-5.067667,48.482281],[-5.049966,48.478418],[-5.054962,48.466293],[-5.031414,48.462011],[-5.049491,48.458647],[-5.057031,48.448469],[-5.079413,48.450404],[-5.08832,48.437278],[-5.105405,48.435225],[-5.121611,48.437648],[-5.092594,48.450121],[-5.099621,48.455901],[-5.143675,48.449051],[-5.132644,48.460303],[-5.107461,48.466345],[-5.106087,48.473635],[-5.076808,48.474367],[-5.072118,48.478779],[-5.077674,48.481805],[-5.067667,48.482281]],[[-4.776979,48.525922],[-4.778031,48.53011],[-4.772889,48.531663],[-4.772345,48.527659],[-4.776979,48.525922]],[[-4.707859,48.559223],[-4.709573,48.560279],[-4.708233,48.562083],[-4.707344,48.559915],[-4.707859,48.559223]],[[-4.722618,48.564828],[-4.719537,48.565368],[-4.727397,48.563688],[-4.729853,48.564831],[-4.722618,48.564828]],[[-4.701533,48.574245],[-4.704154,48.574924],[-4.699792,48.576655],[-4.700048,48.574655],[-4.701533,48.574245]],[[-4.673998,48.577338],[-4.677215,48.5783],[-4.678141,48.580189],[-4.673323,48.577876],[-4.673998,48.577338]],[[-4.664101,48.577878],[-4.666246,48.579414],[-4.664407,48.581326],[-4.66305,48.579823],[-4.664101,48.577878]],[[-4.679819,48.578742],[-4.683119,48.580596],[-4.682758,48.581234],[-4.679069,48.580264],[-4.679819,48.578742]],[[-4.669989,48.58098],[-4.672267,48.584129],[-4.667243,48.584505],[-4.668807,48.583465],[-4.669989,48.58098]],[[-4.619114,48.584302],[-4.619865,48.586449],[-4.614995,48.587639],[-4.61458,48.584481],[-4.619114,48.584302]],[[-4.640593,48.584857],[-4.641854,48.585136],[-4.642101,48.591267],[-4.639412,48.5894],[-4.640593,48.584857]],[[-4.614662,48.591276],[-4.614083,48.593611],[-4.611428,48.593624],[-4.61183,48.592682],[-4.614662,48.591276]],[[-4.612666,48.595199],[-4.615633,48.596056],[-4.616851,48.596689],[-4.61431,48.597098],[-4.612666,48.595199]],[[-4.613747,48.597627],[-4.61518,48.598283],[-4.617609,48.602545],[-4.61347,48.601747],[-4.613747,48.597627]],[[-4.617828,48.597666],[-4.620983,48.598527],[-4.624531,48.600854],[-4.619662,48.601773],[-4.617828,48.597666]],[[-4.63301,48.598528],[-4.638481,48.600055],[-4.638742,48.603281],[-4.631395,48.600529],[-4.63301,48.598528]],[[-4.610165,48.599437],[-4.612016,48.600922],[-4.610456,48.602041],[-4.609911,48.601043],[-4.610165,48.599437]],[[-4.583199,48.600791],[-4.58292,48.602493],[-4.57961,48.602998],[-4.579802,48.601922],[-4.583199,48.600791]],[[-2.557228,48.602153],[-2.559228,48.604149],[-2.558694,48.605782],[-2.556977,48.604775],[-2.557228,48.602153]],[[-4.585168,48.605025],[-4.587749,48.605476],[-4.588775,48.607443],[-4.58402,48.607373],[-4.585168,48.605025]],[[-4.609234,48.606798],[-4.612667,48.609195],[-4.613507,48.610668],[-4.612155,48.611335],[-4.609234,48.606798]],[[-4.619361,48.607452],[-4.621411,48.60831],[-4.620663,48.611876],[-4.617566,48.60983],[-4.619361,48.607452]],[[-2.205769,48.610804],[-2.207826,48.612702],[-2.206687,48.615014],[-2.20539,48.612144],[-2.205769,48.610804]],[[-4.603246,48.611602],[-4.604502,48.6131],[-4.605329,48.614829],[-4.602017,48.613687],[-4.603246,48.611602]],[[-4.578251,48.612323],[-4.580484,48.61262],[-4.581249,48.613459],[-4.578163,48.614364],[-4.578251,48.612323]],[[-2.194271,48.615222],[-2.196098,48.619244],[-2.194121,48.620088],[-2.192416,48.61732],[-2.194271,48.615222]],[[-2.188828,48.620299],[-2.192565,48.629318],[-2.186159,48.632661],[-2.183972,48.629629],[-2.188828,48.620299]],[[-4.593021,48.621367],[-4.596588,48.624823],[-4.595787,48.627002],[-4.591248,48.625684],[-4.593021,48.621367]],[[-2.198856,48.624662],[-2.199838,48.628575],[-2.19839,48.62956],[-2.197045,48.627707],[-2.198856,48.624662]],[[-2.155962,48.627906],[-2.154544,48.630391],[-2.153014,48.629697],[-2.153245,48.629008],[-2.155962,48.627906]],[[-4.580944,48.629519],[-4.582459,48.631265],[-4.578166,48.631781],[-4.578439,48.630378],[-4.580944,48.629519]],[[-4.50394,48.63072],[-4.503194,48.63362],[-4.500413,48.632696],[-4.503176,48.63079],[-4.50394,48.63072]],[[-4.571855,48.632537],[-4.573511,48.633151],[-4.574406,48.635625],[-4.571239,48.63482],[-4.571855,48.632537]],[[-2.160205,48.636413],[-2.162459,48.638763],[-2.156413,48.641497],[-2.15804,48.637581],[-2.160205,48.636413]],[[-4.568509,48.637069],[-4.572213,48.637639],[-4.57109,48.641281],[-4.567467,48.640917],[-4.568509,48.637069]],[[-4.462829,48.637609],[-4.464989,48.638299],[-4.465279,48.639105],[-4.461907,48.638131],[-4.462829,48.637609]],[[-2.032633,48.650519],[-2.034139,48.650898],[-2.035373,48.652699],[-2.031204,48.652807],[-2.032633,48.650519]],[[-2.06968,48.652151],[-2.07183,48.654243],[-2.070846,48.65572],[-2.068567,48.653465],[-2.06968,48.652151]],[[-2.024472,48.652664],[-2.024635,48.655924],[-2.023647,48.656803],[-2.021887,48.654519],[-2.024472,48.652664]],[[-1.512175,48.660204],[-1.510809,48.659245],[-1.51577,48.660806],[-1.514586,48.660956],[-1.512175,48.660204]],[[-4.280762,48.663542],[-4.280625,48.661915],[-4.28263,48.663086],[-4.282074,48.664106],[-4.280762,48.663542]],[[-4.386651,48.663723],[-4.389116,48.665543],[-4.387005,48.667705],[-4.385124,48.666792],[-4.386651,48.663723]],[[-3.942334,48.667093],[-3.943649,48.667909],[-3.942259,48.66936],[-3.941371,48.667797],[-3.942334,48.667093]],[[-3.864196,48.675024],[-3.867037,48.675336],[-3.867188,48.677176],[-3.863953,48.67742],[-3.864196,48.675024]],[[-2.069117,48.675886],[-2.074666,48.673981],[-2.077113,48.674736],[-2.070905,48.678936],[-2.069117,48.675886]],[[-1.83206,48.677194],[-1.830556,48.679626],[-1.829626,48.679927],[-1.830682,48.677725],[-1.83206,48.677194]],[[-4.360373,48.677245],[-4.362262,48.678437],[-4.361259,48.681195],[-4.357911,48.678789],[-4.360373,48.677245]],[[-1.827171,48.679718],[-1.827649,48.680675],[-1.826574,48.683355],[-1.825685,48.68056],[-1.827171,48.679718]],[[-1.969432,48.689482],[-1.971681,48.690714],[-1.97159,48.691936],[-1.969544,48.691613],[-1.969432,48.689482]],[[-4.152285,48.693887],[-4.153654,48.694959],[-4.153695,48.696546],[-4.152423,48.695994],[-4.152285,48.693887]],[[-1.896182,48.695709],[-1.896971,48.696245],[-1.897718,48.697708],[-1.894473,48.697238],[-1.896182,48.695709]],[[-1.953841,48.696966],[-1.954568,48.697459],[-1.955622,48.699112],[-1.952824,48.698867],[-1.953841,48.696966]],[[-3.642073,48.697977],[-3.642374,48.700297],[-3.640036,48.699739],[-3.640276,48.698706],[-3.642073,48.697977]],[[-3.910583,48.70204],[-3.912471,48.703812],[-3.907724,48.702632],[-3.909039,48.702129],[-3.910583,48.70204]],[[-4.075943,48.705362],[-4.077743,48.706321],[-4.077668,48.708497],[-4.075087,48.706875],[-4.075943,48.705362]],[[-1.839082,48.70832],[-1.838875,48.710263],[-1.833988,48.716671],[-1.83576,48.711755],[-1.839082,48.70832]],[[-3.837427,48.709271],[-3.839121,48.709992],[-3.840643,48.712391],[-3.838057,48.712373],[-3.837427,48.709271]],[[-4.041513,48.709653],[-4.042724,48.709931],[-4.044669,48.710768],[-4.043158,48.711001],[-4.041513,48.709653]],[[-4.050883,48.71264],[-4.054122,48.713445],[-4.05483,48.714419],[-4.051837,48.714348],[-4.050883,48.71264]],[[-4.02665,48.713275],[-4.028008,48.713981],[-4.027588,48.715438],[-4.02503,48.714038],[-4.02665,48.713275]],[[-3.927751,48.713517],[-3.93008,48.713984],[-3.930611,48.715002],[-3.925253,48.714354],[-3.927751,48.713517]],[[-4.036565,48.718601],[-4.036938,48.720025],[-4.036354,48.721044],[-4.035655,48.720604],[-4.036565,48.718601]],[[-4.051248,48.721575],[-4.054162,48.722429],[-4.054342,48.722947],[-4.051655,48.723378],[-4.051248,48.721575]],[[-3.582098,48.727699],[-3.584268,48.729108],[-3.58034,48.729756],[-3.580731,48.7284],[-3.582098,48.727699]],[[-3.984416,48.731422],[-3.982805,48.731094],[-3.988399,48.731332],[-3.987668,48.732173],[-3.984416,48.731422]],[[-3.97043,48.73441],[-3.972685,48.735155],[-3.97333,48.735618],[-3.969679,48.736808],[-3.97043,48.73441]],[[-3.999746,48.748996],[-4.00132,48.74945],[-4.002159,48.7503],[-3.999057,48.750662],[-3.999746,48.748996]],[[-4.028611,48.752244],[-4.030137,48.754008],[-4.027122,48.754517],[-4.026552,48.752939],[-4.028611,48.752244]],[[-4.017418,48.752647],[-4.004709,48.753733],[-4.005648,48.751357],[-3.997962,48.745911],[-3.989611,48.747137],[-3.988155,48.739215],[-4.041115,48.744604],[-4.017418,48.752647]],[[-3.601604,48.771282],[-3.597265,48.771026],[-3.590647,48.766038],[-3.60113,48.767401],[-3.601604,48.771282]],[[-2.948851,48.773997],[-2.949356,48.774156],[-2.950376,48.775201],[-2.948702,48.775457],[-2.948851,48.773997]],[[-3.61109,48.776548],[-3.613361,48.777152],[-3.614861,48.778843],[-3.613483,48.779252],[-3.61109,48.776548]],[[-2.951406,48.777952],[-2.953022,48.77917],[-2.945784,48.780249],[-2.946197,48.77846],[-2.951406,48.777952]],[[-3.58867,48.778996],[-3.590579,48.781579],[-3.58953,48.782429],[-3.5867,48.780393],[-3.58867,48.778996]],[[-3.593412,48.781276],[-3.596437,48.781946],[-3.596248,48.784496],[-3.593851,48.784618],[-3.593412,48.781276]],[[-3.612421,48.785187],[-3.608772,48.78311],[-3.608023,48.777336],[-3.615843,48.786831],[-3.612421,48.785187]],[[-3.610965,48.786574],[-3.612739,48.786994],[-3.614657,48.789588],[-3.610831,48.788692],[-3.610965,48.786574]],[[-3.595705,48.788497],[-3.598997,48.790421],[-3.598687,48.792992],[-3.59684,48.792449],[-3.595705,48.788497]],[[-3.021386,48.78992],[-3.022045,48.79274],[-3.017418,48.79158],[-3.017676,48.791067],[-3.021386,48.78992]],[[-3.594544,48.791078],[-3.595704,48.791461],[-3.595284,48.794893],[-3.593644,48.79408],[-3.594544,48.791078]],[[-3.605059,48.792792],[-3.613163,48.794788],[-3.613635,48.799082],[-3.606146,48.795929],[-3.605059,48.792792]],[[-3.011721,48.793906],[-3.013864,48.793285],[-3.014966,48.794369],[-3.010309,48.795025],[-3.011721,48.793906]],[[-3.554386,48.798952],[-3.558898,48.803143],[-3.557818,48.806172],[-3.553434,48.802093],[-3.554386,48.798952]],[[-3.607316,48.799351],[-3.608222,48.800004],[-3.609506,48.801728],[-3.607908,48.801439],[-3.607316,48.799351]],[[-2.982191,48.799475],[-2.979494,48.799502],[-2.97295,48.797437],[-2.986678,48.796887],[-2.982191,48.799475]],[[-3.610849,48.80053],[-3.612937,48.802211],[-3.612963,48.805279],[-3.609501,48.803136],[-3.610849,48.80053]],[[-3.595812,48.802195],[-3.590167,48.795572],[-3.600754,48.795607],[-3.607747,48.803675],[-3.595812,48.802195]],[[-3.547508,48.80385],[-3.549102,48.806409],[-3.546055,48.807029],[-3.54544,48.805681],[-3.547508,48.80385]],[[-3.558792,48.809755],[-3.564574,48.811096],[-3.566888,48.816157],[-3.56298,48.815104],[-3.558792,48.809755]],[[-3.573773,48.810011],[-3.576821,48.811558],[-3.579588,48.814565],[-3.574441,48.812382],[-3.573773,48.810011]],[[-3.383181,48.821463],[-3.385327,48.822452],[-3.386073,48.824825],[-3.383528,48.822578],[-3.383181,48.821463]],[[-3.554223,48.822606],[-3.551816,48.822548],[-3.550754,48.821118],[-3.555893,48.822922],[-3.554223,48.822606]],[[-3.531445,48.824703],[-3.533789,48.825941],[-3.5338,48.826749],[-3.530869,48.827431],[-3.531445,48.824703]],[[-3.560974,48.825059],[-3.563076,48.826382],[-3.5632,48.82843],[-3.560044,48.827353],[-3.560974,48.825059]],[[-3.373825,48.826273],[-3.371876,48.824321],[-3.377757,48.827427],[-3.376758,48.828563],[-3.373825,48.826273]],[[-3.533048,48.829814],[-3.535297,48.832426],[-3.531929,48.833622],[-3.530176,48.830758],[-3.533048,48.829814]],[[-3.491952,48.833164],[-3.493816,48.83606],[-3.489923,48.837497],[-3.489506,48.836741],[-3.491952,48.833164]],[[-3.335003,48.834039],[-3.337237,48.835524],[-3.334403,48.836995],[-3.33281,48.834743],[-3.335003,48.834039]],[[-3.026916,48.834412],[-3.028807,48.835553],[-3.025571,48.837783],[-3.025682,48.836062],[-3.026916,48.834412]],[[-3.038667,48.835135],[-3.040344,48.837348],[-3.039144,48.83827],[-3.03775,48.83622],[-3.038667,48.835135]],[[-3.29395,48.836311],[-3.297766,48.836569],[-3.297542,48.840929],[-3.293137,48.841429],[-3.29395,48.836311]],[[-3.018627,48.836812],[-3.01703,48.837867],[-3.013661,48.836011],[-3.020171,48.834469],[-3.022552,48.837778],[-3.018627,48.836812]],[[-3.042228,48.837338],[-3.045167,48.836081],[-3.046064,48.838069],[-3.044634,48.839601],[-3.042228,48.837338]],[[-3.508991,48.837628],[-3.510882,48.839266],[-3.507806,48.842288],[-3.506398,48.839989],[-3.508991,48.837628]],[[-2.992757,48.837661],[-2.992413,48.842113],[-2.987694,48.839796],[-2.989823,48.838026],[-2.992757,48.837661]],[[-3.320546,48.839597],[-3.325166,48.841006],[-3.327217,48.846074],[-3.320255,48.841756],[-3.320546,48.839597]],[[-3.406102,48.839603],[-3.403376,48.839709],[-3.405771,48.829692],[-3.414034,48.843067],[-3.406102,48.839603]],[[-2.984813,48.840159],[-2.987288,48.840876],[-2.985321,48.843247],[-2.982986,48.841777],[-2.984813,48.840159]],[[-3.035756,48.841599],[-3.039775,48.841957],[-3.040126,48.842468],[-3.035804,48.84465],[-3.035756,48.841599]],[[-3.078783,48.842038],[-3.080582,48.842463],[-3.081283,48.84535],[-3.076719,48.843384],[-3.078783,48.842038]],[[-2.979681,48.844995],[-2.987728,48.843977],[-2.992493,48.846119],[-2.982932,48.849646],[-2.979681,48.844995]],[[-3.262326,48.845443],[-3.264581,48.846175],[-3.265955,48.848033],[-3.261315,48.846546],[-3.262326,48.845443]],[[-3.321167,48.845988],[-3.318565,48.844751],[-3.323099,48.845132],[-3.323339,48.847884],[-3.321167,48.845988]],[[-3.081045,48.846605],[-3.08076,48.848721],[-3.077503,48.849173],[-3.078285,48.847269],[-3.081045,48.846605]],[[-3.023727,48.847367],[-3.025429,48.84857],[-3.023761,48.850861],[-3.022509,48.849468],[-3.023727,48.847367]],[[-3.018935,48.847476],[-3.014263,48.841864],[-3.017216,48.838082],[-3.022755,48.840884],[-3.018935,48.847476]],[[-3.074392,48.849159],[-3.076478,48.85131],[-3.073798,48.854671],[-3.072473,48.852733],[-3.074392,48.849159]],[[-3.198772,48.85188],[-3.202484,48.848156],[-3.205521,48.854615],[-3.198981,48.853699],[-3.198772,48.85188]],[[-3.301215,48.852716],[-3.301107,48.842767],[-3.313421,48.846598],[-3.312367,48.851528],[-3.301215,48.852716]],[[-3.253779,48.854083],[-3.255192,48.856012],[-3.258172,48.857769],[-3.253525,48.857628],[-3.253779,48.854083]],[[-3.2595,48.855055],[-3.256675,48.854121],[-3.26202,48.847425],[-3.265452,48.854832],[-3.2595,48.855055]],[[-2.982581,48.857747],[-2.984623,48.860189],[-2.97989,48.861194],[-2.979027,48.858395],[-2.982581,48.857747]],[[-3.281436,48.858055],[-3.285032,48.861466],[-3.283644,48.863366],[-3.27672,48.859137],[-3.281436,48.858055]],[[-2.986923,48.858272],[-2.99457,48.858199],[-2.989214,48.852427],[-2.995459,48.846449],[-2.995692,48.837783],[-3.01191,48.836338],[-3.01407,48.8518],[-3.000989,48.850027],[-2.998883,48.850997],[-3.011282,48.860381],[-2.986344,48.865792],[-2.986923,48.858272]],[[-3.065137,48.860205],[-3.066857,48.860564],[-3.064927,48.864744],[-3.063982,48.861997],[-3.065137,48.860205]],[[-3.28811,48.860564],[-3.291566,48.861217],[-3.291658,48.864117],[-3.286221,48.861205],[-3.28811,48.860564]],[[-3.145034,48.860793],[-3.146324,48.863735],[-3.141222,48.86383],[-3.141466,48.861706],[-3.145034,48.860793]],[[-3.244639,48.862087],[-3.247597,48.860632],[-3.248995,48.867188],[-3.246883,48.867188],[-3.244639,48.862087]],[[-3.184533,48.862953],[-3.190511,48.864551],[-3.184315,48.8693],[-3.196684,48.8761],[-3.179997,48.875204],[-3.184533,48.862953]],[[-3.036253,48.864056],[-3.031981,48.86246],[-3.046587,48.855234],[-3.048351,48.860874],[-3.036253,48.864056]],[[-3.191203,48.867188],[-3.197019,48.862204],[-3.200824,48.867188],[-3.192186,48.868806],[-3.191203,48.867188]],[[-1.82236,48.867626],[-1.842278,48.869578],[-1.837161,48.875288],[-1.845637,48.879009],[-1.822485,48.873047],[-1.82236,48.867626]],[[-3.210376,48.868392],[-3.211717,48.870144],[-3.208653,48.8714],[-3.208927,48.869067],[-3.210376,48.868392]],[[-1.806197,48.868851],[-1.807179,48.869281],[-1.809595,48.873413],[-1.805962,48.871517],[-1.806197,48.868851]],[[-1.768664,48.86972],[-1.771059,48.870535],[-1.771756,48.873744],[-1.76868,48.872974],[-1.768664,48.86972]],[[-1.801895,48.871143],[-1.803887,48.871692],[-1.805733,48.873186],[-1.804584,48.873861],[-1.801895,48.871143]],[[-3.221586,48.871396],[-3.223325,48.872882],[-3.221854,48.874227],[-3.221081,48.872073],[-3.221586,48.871396]],[[-1.76556,48.871678],[-1.767509,48.872635],[-1.767294,48.875644],[-1.76512,48.874221],[-1.76556,48.871678]],[[-3.506853,48.873686],[-3.509251,48.875158],[-3.503349,48.876416],[-3.503064,48.875386],[-3.506853,48.873686]],[[-1.868365,48.874528],[-1.869049,48.874743],[-1.870569,48.875957],[-1.868217,48.876592],[-1.868365,48.874528]],[[-1.79456,48.875039],[-1.798447,48.877542],[-1.798291,48.880948],[-1.794292,48.877953],[-1.79456,48.875039]],[[-1.804461,48.875875],[-1.809081,48.876604],[-1.809589,48.878577],[-1.808429,48.878716],[-1.804461,48.875875]],[[-1.827196,48.879829],[-1.81724,48.87544],[-1.838017,48.884158],[-1.835386,48.885207],[-1.827196,48.879829]],[[-1.841913,48.880038],[-1.843349,48.881821],[-1.84206,48.883909],[-1.838677,48.881808],[-1.841913,48.880038]],[[-1.863959,48.880754],[-1.854546,48.881976],[-1.851189,48.878773],[-1.864449,48.879222],[-1.868454,48.885532],[-1.863959,48.880754]],[[-1.793517,48.882213],[-1.795586,48.88361],[-1.795949,48.884247],[-1.791917,48.884115],[-1.793517,48.882213]],[[-1.848518,48.883357],[-1.852418,48.884423],[-1.853513,48.886009],[-1.849202,48.88644],[-1.848518,48.883357]],[[-1.8203,48.883406],[-1.819966,48.886936],[-1.815518,48.884826],[-1.816061,48.884297],[-1.8203,48.883406]],[[-3.498683,48.883471],[-3.493599,48.882174],[-3.504812,48.883237],[-3.503917,48.885096],[-3.498683,48.883471]],[[-3.201695,48.883688],[-3.203239,48.883975],[-3.204084,48.886136],[-3.201383,48.885639],[-3.201695,48.883688]],[[-1.822414,48.884115],[-1.825682,48.88496],[-1.826573,48.887603],[-1.821496,48.887385],[-1.822414,48.884115]],[[-3.479817,48.884892],[-3.474924,48.880639],[-3.495398,48.877924],[-3.493878,48.880615],[-3.479817,48.884892]],[[-1.808297,48.887534],[-1.809454,48.888224],[-1.807573,48.890808],[-1.807684,48.887998],[-1.808297,48.887534]],[[-1.801057,48.888442],[-1.804356,48.889159],[-1.804239,48.891532],[-1.79995,48.889711],[-1.801057,48.888442]],[[-1.833175,48.889031],[-1.836022,48.889581],[-1.836124,48.891211],[-1.83297,48.890522],[-1.833175,48.889031]],[[-3.06132,48.889102],[-3.068308,48.887808],[-3.070606,48.891297],[-3.059948,48.895947],[-3.06132,48.889102]],[[-1.866518,48.889542],[-1.868724,48.891025],[-1.868765,48.891341],[-1.866025,48.891471],[-1.866518,48.889542]],[[-3.049239,48.889558],[-3.045935,48.894587],[-3.044291,48.893619],[-3.044622,48.891819],[-3.049239,48.889558]],[[-3.46273,48.889881],[-3.465911,48.890482],[-3.4651,48.892246],[-3.461559,48.891454],[-3.46273,48.889881]],[[-1.821754,48.892992],[-1.824767,48.894136],[-1.82574,48.8957],[-1.82243,48.895261],[-1.821754,48.892992]],[[-3.438624,48.89679],[-3.441689,48.899831],[-3.435297,48.900283],[-3.434587,48.898681],[-3.438624,48.89679]],[[-3.046002,48.897691],[-3.048141,48.898497],[-3.049985,48.900251],[-3.045977,48.898917],[-3.046002,48.897691]],[[-3.086564,48.909202],[-3.085201,48.908344],[-3.090311,48.910749],[-3.089708,48.910949],[-3.086564,48.909202]],[[-2.062384,48.96991],[-2.063774,48.971504],[-2.060766,48.971738],[-2.061184,48.970386],[-2.062384,48.96991]],[[-1.551047,49.030156],[-1.550225,49.034319],[-1.543397,49.033937],[-1.544937,49.032272],[-1.551047,49.030156]],[[-2.815673,49.102983],[-2.816082,49.104009],[-2.813411,49.10572],[-2.813852,49.103579],[-2.815673,49.102983]],[[-1.155846,49.491892],[-1.155147,49.493854],[-1.151673,49.493756],[-1.151714,49.493444],[-1.155846,49.491892]],[[-1.146399,49.496374],[-1.14683,49.498225],[-1.144515,49.498189],[-1.144714,49.497661],[-1.146399,49.496374]],[[-1.273121,49.570859],[-1.276171,49.573534],[-1.273501,49.582002],[-1.269929,49.580039],[-1.273121,49.570859]],[[-1.240984,49.585995],[-1.247732,49.588123],[-1.248572,49.590325],[-1.236787,49.588066],[-1.240984,49.585995]],[[0.132241,49.663515],[0.130452,49.665029],[0.131317,49.666335],[0.133322,49.665539],[0.132241,49.663515]],[[2.343846,51.052216],[2.34035,51.052674],[2.33726,51.054416],[2.34417,51.056172],[2.343846,51.052216]]]}}
