{"type":"Feature","properties":{"mrgid":226,"name":"Veere","placeType":"Commune","source":"SAIL:sailcommunes"},"geometry":{"type":"Polygon","coordinates":[[[3.49664,51.49426],[3.53039,51.4604],[3.56369,51.47044],[3.56623,51.47811],[3.58703,51.47927],[3.5754,51.50657],[3.58337,51.50852],[3.58353,51.51961],[3.59648,51.52253],[3.58953,51.53241],[3.6038,51.53605],[3.61079,51.52534],[3.65847,51.51953],[3.68652,51.53639],[3.67868,51.55241],[3.64684,51.56784],[3.63375,51.58839],[3.57915,51.5941],[3.43834,51.54259],[3.43373,51.52621],[3.49664,51.49426]]]}}
