{"type":"Feature","properties":{"mrgid":22641,"name":"North West Japan","placeType":"General Region","source":"World:world_quadrants_20150805"},"geometry":{"type":"MultiPolygon","coordinates":[[[[136.903979,37.403452],[136.903117,37.40385],[136.903913,37.402613],[136.903979,37.403452]]],[[[136.869534,37.406935],[136.841967,37.398804],[136.902444,37.398804],[136.900611,37.40602],[136.891325,37.401277],[136.869534,37.406935]]],[[[137.276493,37.533864],[137.224152,37.51738],[137.209512,37.505727],[137.161911,37.502425],[137.110999,37.48715],[137.073087,37.455481],[137.045925,37.450531],[137.035021,37.435303],[136.931118,37.398804],[137.244834,37.398804],[137.251131,37.424122],[137.268216,37.437027],[137.33276,37.439267],[137.360662,37.451031],[137.35769,37.465288],[137.339869,37.482624],[137.35154,37.501545],[137.345508,37.514947],[137.327643,37.520426],[137.325032,37.530467],[137.280952,37.527431],[137.276493,37.533864]]],[[[136.864806,37.586147],[136.8631,37.584277],[136.864234,37.58319],[136.864806,37.586147]]],[[[136.857098,37.587354],[136.857242,37.587764],[136.854681,37.589115],[136.857098,37.587354]]],[[[136.875,37.590278],[136.874167,37.589167],[136.876389,37.585],[136.875,37.590278]]],[[[136.861614,37.593886],[136.860365,37.593981],[136.861935,37.591769],[136.861614,37.593886]]],[[[136.895,37.612222],[136.894444,37.609722],[136.901944,37.608333],[136.895,37.612222]]],[[[136.888184,37.615295],[136.885957,37.616908],[136.88493,37.614983],[136.888184,37.615295]]],[[[136.909722,37.849444],[136.913611,37.843333],[136.9275,37.853055],[136.909722,37.849444]]]]}}
