{"type":"Feature","properties":{"mrgid":22654,"name":"South Eastern Caribbean Sea","placeType":"General Sea Area","source":"MarineRegions:iho_quadrants_20150810"},"geometry":{"type":"Polygon","coordinates":[[[-74.421308,10.742299],[-74.395009,10.742155],[-74.375418,10.755418],[-74.358273,10.7834],[-74.229873,11.118609],[-74.236955,11.235],[-74.1889,11.309718],[-74.155009,11.331391],[-74.037227,11.356391],[-74.012791,11.355273],[-73.969591,11.339027],[-73.951255,11.319164],[-73.866955,11.284718],[-73.790836,11.265691],[-73.384318,11.273891],[-73.284455,11.295555],[-73.206264,11.349027],[-73.195845,11.376527],[-73.143064,11.424445],[-72.768764,11.687773],[-72.517645,11.7875],[-72.457509,11.785],[-72.416255,11.797782],[-72.258618,11.889164],[-72.232709,11.915209],[-72.138718,12.106391],[-72.145836,12.207291],[-72.168855,12.221564],[-72.157918,12.241109],[-72.138627,12.249445],[-72.028627,12.257773],[-71.964764,12.251982],[-72.011809,12.192636],[-71.986045,12.157082],[-71.963055,12.153609],[-71.937791,12.162773],[-71.864245,12.210764],[-71.809718,12.313327],[-71.692927,12.366391],[-71.631391,12.4216],[-71.655009,12.438891],[-71.704382,12.434482],[-71.736536,12.414164],[-71.724309,12.440973],[-71.690845,12.459309],[-71.661536,12.463891],[-71.528627,12.446109],[-71.2757,12.346109],[-71.220836,12.302082],[-71.114873,12.098609],[-71.110836,12.075555],[-71.114182,12.048891],[-71.131255,12.017364],[-71.2825,11.918609],[-71.319455,11.865273],[-71.341127,11.799164],[-71.378618,11.753336],[-71.480564,11.710282],[-71.638336,11.690836],[-71.816391,11.6475],[-71.954173,11.594718],[-71.969173,11.546245],[-71.952645,11.421809],[-71.932782,11.363055],[-71.866955,11.229445],[-71.795291,11.128609],[-71.740845,11.034164],[-71.763618,11.013745],[-71.691118,10.834164],[-71.661809,10.7775],[-71.577927,10.716109],[-71.581682,10.674718],[-71.630009,10.476391],[-71.6489,10.4425],[-71.7557,10.369718],[-71.794445,10.321809],[-71.841127,10.218891],[-72.125355,9.818191],[-72.077927,9.735555],[-72.046536,9.707773],[-71.979173,9.623336],[-71.944455,9.543055],[-71.910845,9.493609],[-71.7332,9.375691],[-71.723618,9.345],[-71.751955,9.2225],[-71.759455,9.118327],[-71.689173,9.0634],[-71.623891,9.043055],[-71.552782,9.040836],[-71.497227,9.050418],[-71.290555,9.121664],[-71.225082,9.1742],[-71.208345,9.219718],[-71.165418,9.273745],[-71.074864,9.3125],[-71.055973,9.338745],[-71.071118,9.390273],[-71.089173,9.5366],[-71.061109,9.617218],[-71.053345,9.703609],[-71.0734,9.851109],[-71.098345,9.894791],[-71.147782,9.950836],[-71.269455,10.150136],[-71.316955,10.192782],[-71.385564,10.282773],[-71.436673,10.369445],[-71.458618,10.46],[-71.545709,10.568327],[-71.5264,10.726945],[-71.446673,10.795555],[-71.451673,10.916391],[-71.492855,10.961036],[-71.411955,10.984164],[-71.3539,10.978336],[-71.281109,10.989164],[-71.0739,11.08],[-70.9339,11.164718],[-70.825564,11.211391],[-70.736955,11.23],[-70.508473,11.248191],[-70.446673,11.29],[-70.4214,11.292218],[-70.323336,11.331664],[-70.239182,11.353055],[-70.1425,11.418336],[-70.034864,11.441318],[-70.0239,11.491391],[-70.047791,11.517773],[-69.987645,11.514718],[-69.897709,11.436182],[-69.874027,11.426527],[-69.801391,11.427218],[-69.7424,11.4992],[-69.776118,11.609445],[-69.816536,11.690973],[-69.857373,11.689582],[-70.180009,11.603609],[-70.214036,11.609164],[-70.235982,11.628891],[-70.226527,11.655073],[-70.2439,11.775273],[-70.294036,11.861664],[-70.286664,11.920273],[-70.258064,11.989164],[-70.1875,12.107773],[-70.014309,12.1975],[-69.934718,12.169718],[-69.859455,12.071945],[-69.823755,11.988055],[-69.816882,11.850973],[-69.757782,11.661391],[-69.706118,11.548891],[-69.631809,11.467636],[-69.608482,11.459164],[-69.579518,11.4641],[-69.5289,11.503473],[-69.506955,11.506945],[-69.412718,11.487573],[-69.360218,11.493327],[-69.274873,11.533955],[-68.9539,11.451664],[-68.843682,11.447082],[-68.660427,11.349864],[-68.601964,11.290555],[-68.531955,11.261391],[-68.418336,11.18],[-68.333345,11.045],[-68.242509,10.874373],[-68.251955,10.856664],[-68.305073,10.855],[-68.325291,10.843609],[-68.332645,10.815973],[-68.328064,10.7675],[-68.253618,10.588891],[-68.165145,10.498891],[-68.114245,10.484927],[-68.077373,10.493055],[-68.002227,10.491109],[-67.867982,10.464873],[-67.796109,10.491945],[-67.543336,10.532773],[-67.280291,10.546664],[-67.108064,10.579164],[-67.002227,10.610282],[-66.470564,10.629164],[-66.418336,10.625555],[-66.342991,10.604718],[-66.283091,10.644655],[-66.229873,10.640555],[-66.081682,10.576664],[-66.118345,10.526945],[-66.119727,10.5],[-66.068482,10.443191],[-65.958618,10.356664],[-65.935736,10.2983],[-65.814455,10.228336],[-65.765291,10.216945],[-65.725309,10.219209],[-65.548064,10.178055],[-65.426682,10.14],[-65.276118,10.115555],[-65.081391,10.060555],[-64.825009,10.082218],[-64.764455,10.097218],[-64.732791,10.113473],[-64.714736,10.179718],[-64.625973,10.246664],[-64.579727,10.258609],[-64.482509,10.238055],[-64.378545,10.301109],[-64.395845,10.337218],[-64.384736,10.368891],[-64.368055,10.384164],[-64.182055,10.456545],[-64.092509,10.456527],[-64.050009,10.442218],[-63.809445,10.442218],[-63.715564,10.471945],[-63.6975,10.485555],[-63.838891,10.551664],[-63.966391,10.578473],[-64.148682,10.57],[-64.200982,10.550273],[-64.235691,10.514373],[-64.2589,10.534718],[-64.299591,10.626527],[-64.264591,10.657773],[-64.236673,10.638891],[-64.146809,10.617918],[-63.842782,10.645827],[-63.691945,10.645555],[-63.534445,10.627082],[-63.505555,10.64],[-63.344445,10.672636],[-63.286118,10.670827],[-63.253064,10.678336],[-63.172227,10.719718],[-62.993755,10.716391],[-62.953473,10.699864],[-62.906673,10.695836],[-62.748336,10.742218],[-62.6975,10.747773],[-62.538609,10.735555],[-62.301118,10.700282],[-62.192509,10.694164],[-61.983891,10.728055],[-61.879591,10.728327],[-61.883336,10.694718],[-61.921109,10.661945],[-61.953055,10.648891],[-62.085555,10.627218],[-62.162509,10.636664],[-62.249173,10.627009],[-62.276109,10.600418],[-62.301391,10.555273],[-62.331109,10.531664],[-62.527227,10.540418],[-62.649727,10.568191],[-62.9123,10.528745],[-63.004236,10.452982],[-62.934727,10.490555],[-62.911182,10.515627],[-62.872509,10.524445],[-62.838609,10.511664],[-62.830973,10.428191],[-62.837709,10.397291],[-62.871809,10.389864],[-62.911673,10.416527],[-62.934309,10.418473],[-63.003682,10.394164],[-62.998409,10.2716],[-62.934173,10.279309],[-62.927645,10.302918],[-62.942918,10.326736],[-62.954727,10.375],[-62.946664,10.4009],[-62.907227,10.391727],[-62.884736,10.374391],[-62.822418,10.385636],[-62.790091,10.401336],[-62.736391,10.373818],[-62.666391,10.280555],[-62.630627,10.107155],[-62.669309,10.075],[-62.829173,10.053609],[-62.9175,10.095],[-62.956945,10.104309],[-63.015973,10.095691],[-62.983855,10.068918],[-62.910564,10.076945],[-62.805282,10.008609],[-62.662782,10.059164],[-62.615764,10.093191],[-62.605418,10.127218],[-62.623336,10.188609],[-62.609445,10.223955],[-62.5775,10.225136],[-62.535282,10.202218],[-62.501318,10.174236],[-62.488891,10.153055],[-62.426945,9.979164],[-62.372845,9.881318],[-62.315182,9.752845],[-62.3287,9.722936],[-62.322645,9.712082],[-62.300418,9.718473],[-62.277227,9.7475],[-62.236809,9.855],[-62.250491,9.967009],[-62.2057,9.914027],[-62.180727,9.842773],[-62.165345,9.715282],[-62.196109,9.641664],[-62.170764,9.657427],[-62.1557,9.709582],[-62.130009,9.752109],[-62.1335,9.826445],[-62.027436,9.866418],[-62.047336,9.888745],[-62.112227,9.929445],[-62.165145,9.944236],[-62.201536,9.938336],[-62.231736,9.964718],[-62.209236,10.011036],[-62.178891,10.014718],[-62.053891,9.9775],[-61.962227,9.911945],[-61.811673,9.757891],[-61.735836,9.600936],[-61.728618,9.646664],[-61.733336,9.698745],[-61.800918,9.812273],[-61.792782,9.831109],[-61.771945,9.830273],[-61.654164,9.790555],[-61.597709,9.782773],[-61.574582,9.800691],[-61.584727,9.819164],[-61.618755,9.8443],[-61.648055,9.897364],[-61.619864,9.905282],[-61.554173,9.875555],[-61.480564,9.823609],[-61.447227,9.787636],[-61.407227,9.704718],[-61.255982,9.588891],[-61.197536,9.578364],[-61.084164,9.582218],[-61.046455,9.576609],[-61.004445,10.149582],[-61.107227,10.091945],[-61.152227,10.075555],[-61.202918,10.069164],[-61.526673,10.068336],[-61.806118,10.081109],[-61.858336,10.062218],[-61.880282,10.0425],[-61.909518,10.040345],[-61.9216,10.064864],[-61.817782,10.127773],[-61.647782,10.197218],[-61.5041,10.237636],[-61.461391,10.274309],[-61.453755,10.294164],[-61.463055,10.571245],[-61.473618,10.597773],[-61.495836,10.635273],[-61.546255,10.669445],[-61.601255,10.684582],[-61.657782,10.680064],[-61.662018,10.7084],[-61.602782,10.742218],[-61.428545,10.753955],[-61.384591,10.779718],[-61.1964,10.789445],[-61.143336,10.815273],[-61.025418,10.840273],[-60.928336,10.838609],[-60.909236,10.827009],[-60.528444,11.00779],[-60.215249,11.294886],[-59.562759,12.417168],[-59.275664,12.965259],[-59.353963,13.56555],[-59.693257,14.505135],[-60.000353,15.325075],[-61.250827,15.325075],[-61.255909,15.283609],[-61.270009,15.248336],[-61.363618,15.198055],[-61.3741,15.204164],[-61.374309,15.271391],[-61.391755,15.297755],[-61.392597,15.325075],[-74.421308,15.325075],[-74.421308,10.983055],[-74.341673,10.986664],[-74.292227,10.999027],[-74.304873,10.983473],[-74.327227,10.974864],[-74.421308,10.966098],[-74.421308,10.742299]],[[-69.946945,12.436664],[-70.059036,12.540209],[-70.059664,12.627773],[-70.0332,12.618327],[-69.932236,12.528055],[-69.8914,12.472218],[-69.874864,12.415273],[-69.882236,12.411109],[-69.946945,12.436664]],[[-69.158336,12.311391],[-69.163618,12.366391],[-69.146391,12.383891],[-69.079591,12.350273],[-69.058336,12.313055],[-69.040282,12.256391],[-68.980836,12.204718],[-68.911955,12.181664],[-68.861682,12.178891],[-68.824173,12.160273],[-68.753064,12.065],[-68.746945,12.040273],[-68.816955,12.043336],[-68.9657,12.115282],[-69.0625,12.188327],[-69.158336,12.311391]],[[-68.391255,12.217782],[-68.416536,12.253745],[-68.404445,12.292773],[-68.384173,12.3075],[-68.366809,12.306109],[-68.197364,12.222636],[-68.192927,12.2075],[-68.205564,12.113055],[-68.237227,12.023891],[-68.257509,12.024445],[-68.275282,12.051391],[-68.285282,12.102218],[-68.2814,12.157773],[-68.301673,12.199164],[-68.328064,12.215273],[-68.391255,12.217782]],[[-61.724727,12.172218],[-61.675836,12.227773],[-61.654445,12.237155],[-61.614727,12.231945],[-61.605564,12.222364],[-61.596391,12.125555],[-61.611118,12.079445],[-61.630145,12.046109],[-61.651391,12.029164],[-61.749727,11.996945],[-61.785182,12.003818],[-61.724727,12.172218]],[[-60.847227,11.176945],[-60.657782,11.301391],[-60.529591,11.345555],[-60.520836,11.330555],[-60.531809,11.259027],[-60.641809,11.202218],[-60.687782,11.201945],[-60.738755,11.182636],[-60.7975,11.141664],[-60.844936,11.157218],[-60.847227,11.176945]],[[-63.844864,11.127082],[-63.804727,11.021391],[-63.815,10.978055],[-63.890009,10.904445],[-63.972364,10.892918],[-64.055555,10.857218],[-64.1364,10.945],[-64.174036,10.960418],[-64.201127,10.936945],[-64.227927,10.931245],[-64.4057,10.970136],[-64.378345,11.056945],[-64.218336,11.088055],[-64.192782,11.082918],[-64.197436,11.0559],[-64.175845,11.031664],[-64.105836,10.995282],[-64.042782,10.987636],[-64.0225,11.0],[-63.9875,11.076109],[-63.884936,11.175618],[-63.844864,11.127082]],[[-65.199591,10.898336],[-65.210009,10.891391],[-65.281109,10.880282],[-65.393345,10.906945],[-65.4157,10.916245],[-65.416118,10.927218],[-65.364455,10.969164],[-65.304455,10.976109],[-65.212155,10.954164],[-65.199591,10.898336]],[[-59.593482,13.330836],[-59.556945,13.255273],[-59.517091,13.211527],[-59.479445,13.185836],[-59.429173,13.165],[-59.430282,13.135273],[-59.453473,13.095836],[-59.510282,13.055],[-59.533055,13.050555],[-59.545418,13.069027],[-59.608473,13.083536],[-59.627091,13.101527],[-59.642782,13.146391],[-59.658336,13.299164],[-59.642918,13.329718],[-59.616118,13.337082],[-59.593482,13.330836]],[[-61.122918,13.328327],[-61.123755,13.245836],[-61.148055,13.167773],[-61.169791,13.134445],[-61.184445,13.130282],[-61.243618,13.156109],[-61.280145,13.205691],[-61.278064,13.250273],[-61.207091,13.369309],[-61.179864,13.383191],[-61.1425,13.376245],[-61.122918,13.328327]],[[-60.916118,14.101873],[-60.878618,13.975827],[-60.8857,13.851109],[-60.900282,13.778327],[-60.938336,13.717782],[-60.954727,13.709445],[-60.986391,13.744445],[-61.026118,13.7525],[-61.070145,13.792773],[-61.079582,13.876664],[-61.075009,13.896945],[-61.011673,14.009718],[-60.945836,14.104718],[-60.933336,14.109309],[-60.916118,14.101873]],[[-61.144727,14.877773],[-61.037091,14.830555],[-60.940836,14.740836],[-60.942509,14.727773],[-60.906673,14.6525],[-60.829727,14.57],[-60.816945,14.473336],[-60.839445,14.415273],[-60.855,14.403055],[-60.860836,14.402773],[-60.886945,14.465555],[-60.975009,14.471391],[-61.033891,14.465827],[-61.1725,14.693055],[-61.231536,14.8125],[-61.226673,14.832218],[-61.174727,14.876945],[-61.144727,14.877773]]]}}
