{"type":"Feature","properties":{"mrgid":23400,"name":"NAFO 6A","placeType":"NAFO Area","source":"World:nafo_2014_02"},"geometry":{"type":"Polygon","coordinates":[[[-72.085831,41.356529],[-72.094025,41.35725],[-72.091721,41.342335],[-72.098305,41.337582],[-72.088165,41.316723],[-72.113525,41.298721],[-72.137665,41.299835],[-72.154251,41.314167],[-72.164253,41.304054],[-72.184448,41.321529],[-72.202553,41.312584],[-72.201469,41.284889],[-72.210526,41.284084],[-72.225441,41.299362],[-72.241219,41.299],[-72.260719,41.282417],[-72.325554,41.276806],[-72.315529,41.28064],[-72.341393,41.299026],[-72.349831,41.31575],[-72.358192,41.290722],[-72.366806,41.29364],[-72.366608,41.286556],[-72.353081,41.28986],[-72.350166,41.281029],[-72.371635,41.274666],[-72.347305,41.276669],[-72.34417,41.268196],[-72.388252,41.259945],[-72.400276,41.277416],[-72.45208,41.278305],[-72.469444,41.266972],[-72.49836,41.265694],[-72.508141,41.255749],[-72.519165,41.256554],[-72.523026,41.269333],[-72.537888,41.249054],[-72.546387,41.248138],[-72.577278,41.269917],[-72.657387,41.264084],[-72.664581,41.27],[-72.693108,41.244141],[-72.710724,41.243195],[-72.707306,41.247417],[-72.71492,41.249054],[-72.705498,41.258251],[-72.72522,41.259945],[-72.73597,41.250832],[-72.737473,41.26025],[-72.750053,41.258335],[-72.756531,41.268276],[-72.786781,41.263943],[-72.809387,41.249222],[-72.819862,41.249027],[-72.828308,41.263943],[-72.837364,41.247471],[-72.842613,41.258194],[-72.862503,41.244915],[-72.894753,41.24139],[-72.90583,41.248333],[-72.89492,41.259861],[-72.906555,41.270721],[-72.90564,41.301304],[-72.926476,41.280804],[-72.936722,41.280693],[-72.922363,41.266582],[-72.960693,41.250584],[-72.973892,41.23336],[-72.986443,41.233971],[-73.014137,41.204582],[-73.040054,41.202057],[-73.05542,41.219971],[-73.057137,41.215778],[-73.05172,41.209557],[-73.105888,41.172085],[-73.120476,41.178333],[-73.111893,41.201084],[-73.122917,41.188332],[-73.125031,41.172916],[-73.114136,41.172054],[-73.104225,41.151249],[-73.14003,41.14875],[-73.14875,41.153278],[-73.139191,41.153751],[-73.138359,41.162029],[-73.154221,41.157082],[-73.16378,41.16497],[-73.160858,41.174583],[-73.167526,41.166222],[-73.186691,41.182026],[-73.183777,41.169971],[-73.17878,41.166637],[-73.186722,41.158695],[-73.202553,41.157917],[-73.215805,41.141251],[-73.21711,41.154999],[-73.203362,41.164555],[-73.217529,41.158722],[-73.228386,41.14286],[-73.234642,41.144974],[-73.234169,41.158749],[-73.238747,41.154972],[-73.234612,41.148277],[-73.2425,41.127918],[-73.260803,41.118778],[-73.286278,41.128307],[-73.275002,41.142887],[-73.308334,41.115417],[-73.339142,41.111221],[-73.340057,41.120388],[-73.352531,41.102112],[-73.37336,41.116249],[-73.383781,41.104137],[-73.366692,41.09539],[-73.384193,41.099583],[-73.394218,41.082111],[-73.415863,41.103722],[-73.407143,41.07336],[-73.420891,41.080418],[-73.424164,41.065418],[-73.440445,41.061638],[-73.432503,41.055389],[-73.445,41.057056],[-73.445831,41.070389],[-73.451279,41.060001],[-73.448364,41.056252],[-73.462112,41.052471],[-73.458336,41.059528],[-73.467529,41.06039],[-73.47747,41.035416],[-73.481247,41.05164],[-73.489136,41.04036],[-73.49128,41.052528],[-73.504639,41.056641],[-73.504585,41.042446],[-73.522141,41.040806],[-73.517113,41.029972],[-73.528336,41.017082],[-73.53083,41.04789],[-73.537941,41.034138],[-73.544197,41.042057],[-73.546249,41.023304],[-73.554222,41.024555],[-73.572502,41.001221],[-73.585503,41.004139],[-73.572136,41.007446],[-73.567917,41.016666],[-73.574219,41.026249],[-73.582558,41.013748],[-73.594582,41.012474],[-73.589195,41.042889],[-73.60083,41.017056],[-73.613304,41.009556],[-73.613335,41.019554],[-73.617531,41.009556],[-73.626663,41.017029],[-73.627525,41.001251],[-73.64167,41.007889],[-73.669998,40.980389],[-73.672943,40.972473],[-73.665443,40.969971],[-73.677109,40.963306],[-73.685059,40.943722],[-73.698776,40.940834],[-73.695831,40.955387],[-73.717529,40.94289],[-73.730469,40.948334],[-73.734169,40.943748],[-73.722137,40.940807],[-73.725418,40.928333],[-73.735031,40.92289],[-73.736694,40.930389],[-73.744637,40.929165],[-73.74292,40.919998],[-73.758331,40.910389],[-73.764999,40.916222],[-73.763779,40.900833],[-73.777473,40.890388],[-73.775002,40.901222],[-73.803749,40.870804],[-73.801697,40.867943],[-73.790054,40.882057],[-73.784584,40.880001],[-73.782944,40.871693],[-73.791664,40.868752],[-73.799164,40.849556],[-73.813774,40.862446],[-73.816307,40.834972],[-73.797112,40.817501],[-73.805443,40.81414],[-73.790031,40.804554],[-73.811691,40.813694],[-73.835861,40.806221],[-73.840057,40.824585],[-73.847527,40.805416],[-73.900055,40.807083],[-73.925003,40.782028],[-73.935417,40.785],[-73.921669,40.792057],[-73.928802,40.797501],[-73.971252,40.744999],[-73.976669,40.710361],[-73.994057,40.709332],[-74.012054,40.700138],[-74.01889,40.70586],[-74.008278,40.761471],[-74.017441,40.767612],[-74.025497,40.756943],[-74.032249,40.706696],[-74.057587,40.695416],[-74.055725,40.689751],[-74.066444,40.696583],[-74.070442,40.684418],[-74.078308,40.68689],[-74.073471,40.677082],[-74.098663,40.676418],[-74.068108,40.662277],[-74.104385,40.668278],[-74.088249,40.663387],[-74.084831,40.655029],[-74.143608,40.644085],[-74.145859,40.652168],[-74.109306,40.689583],[-74.107246,40.714222],[-74.097115,40.718555],[-74.098,40.725777],[-74.114754,40.715832],[-74.123276,40.718887],[-74.123337,40.697945],[-74.134331,40.68911],[-74.142136,40.695557],[-74.137665,40.686611],[-74.152443,40.683109],[-74.140808,40.670502],[-74.189415,40.645279],[-74.202164,40.634609],[-74.20639,40.625946],[-74.198692,40.603863],[-74.208443,40.591526],[-74.216751,40.562222],[-74.250809,40.556332],[-74.252556,40.520416],[-74.266861,40.499474],[-74.283775,40.500721],[-74.288803,40.509029],[-74.293137,40.502945],[-74.272278,40.490917],[-74.262192,40.466835],[-74.209305,40.448807],[-74.208748,40.438057],[-74.180031,40.460835],[-74.158974,40.449306],[-74.137169,40.457611],[-74.047974,40.419945],[-73.985863,40.407028],[-73.981667,40.386223],[-74.017441,40.389252],[-74.077469,40.358223],[-74.06208,40.35675],[-74.024307,40.378555],[-73.985001,40.377918],[-73.980057,40.383694],[-73.977974,40.364113],[-74.023666,40.340416],[-74.015862,40.33725],[-74.023941,40.321056],[-74.003891,40.333138],[-73.991669,40.31789],[-73.995476,40.32914],[-73.985474,40.327446],[-73.995697,40.338974],[-73.979164,40.338722],[-73.975418,40.349972],[-73.977943,40.395],[-73.983749,40.416637],[-73.991249,40.420807],[-73.995026,40.447887],[-74.004837,40.446304],[-74.010025,40.465637],[-74.01889,40.468666],[-74.016808,40.479305],[-73.995476,40.469971],[-73.980415,40.444111],[-73.971306,40.369141],[-73.976303,40.305805],[-74.064613,39.984138],[-74.097137,39.76664],[-74.119637,39.780834],[-74.097969,39.783306],[-74.103752,39.799137],[-74.079613,39.936668],[-74.092941,39.945],[-74.080414,39.947472],[-74.089638,39.948307],[-74.079582,39.959999],[-74.086281,39.965832],[-74.076225,39.965805],[-74.068802,39.988361],[-74.084694,40.0],[-74.067085,39.99828],[-74.07058,40.004639],[-74.062943,40.007526],[-74.063141,40.026028],[-74.052307,40.045113],[-74.050804,40.066776],[-74.067719,40.062054],[-74.066971,40.056362],[-74.107559,40.055027],[-74.12178,40.062],[-74.113419,40.051529],[-74.052612,40.050888],[-74.059891,40.047443],[-74.059891,40.034916],[-74.083138,40.027443],[-74.076637,40.022972],[-74.087585,40.013279],[-74.126915,40.02636],[-74.131081,40.019806],[-74.107224,40.013027],[-74.110107,40.003502],[-74.116943,40.009224],[-74.119057,40.001472],[-74.139832,40.005054],[-74.138359,39.997082],[-74.149612,39.996639],[-74.130859,39.98539],[-74.115028,39.995419],[-74.114609,39.983334],[-74.121246,39.980804],[-74.109581,39.973331],[-74.122169,39.961639],[-74.109581,39.961666],[-74.118362,39.945446],[-74.13839,39.937054],[-74.165886,39.949554],[-74.177948,39.946667],[-74.141747,39.930389],[-74.105469,39.930805],[-74.140442,39.884998],[-74.135475,39.874168],[-74.144554,39.869999],[-74.1325,39.867111],[-74.130417,39.855804],[-74.14003,39.859612],[-74.136307,39.853279],[-74.147972,39.846668],[-74.143753,39.839138],[-74.173752,39.826668],[-74.160446,39.823307],[-74.182892,39.793304],[-74.190414,39.751667],[-74.197914,39.745029],[-74.162941,39.737446],[-74.172531,39.73539],[-74.163719,39.722473],[-74.186302,39.723305],[-74.17083,39.717888],[-74.173363,39.710415],[-74.159164,39.714584],[-74.169609,39.706665],[-74.158806,39.706638],[-74.191719,39.705387],[-74.174614,39.697472],[-74.203804,39.689972],[-74.192558,39.690388],[-74.200417,39.683304],[-74.188751,39.679165],[-74.212555,39.670387],[-74.212944,39.675835],[-74.220055,39.642918],[-74.226723,39.64875],[-74.253387,39.64539],[-74.255417,39.622501],[-74.266724,39.617943],[-74.261665,39.605389],[-74.283333,39.612888],[-74.292114,39.609165],[-74.290863,39.601276],[-74.299164,39.604584],[-74.316307,39.594166],[-74.324974,39.57539],[-74.33625,39.579166],[-74.341248,39.564999],[-74.297997,39.539166],[-74.307526,39.508751],[-74.333809,39.511639],[-74.335442,39.524166],[-74.327141,39.526638],[-74.330833,39.543724],[-74.392502,39.53875],[-74.397499,39.55125],[-74.406754,39.550415],[-74.40583,39.559582],[-74.413391,39.551193],[-74.414642,39.560833],[-74.432945,39.555027],[-74.408775,39.537445],[-74.415413,39.519974],[-74.405472,39.500805],[-74.377113,39.483334],[-74.400055,39.47625],[-74.408386,39.487083],[-74.412972,39.477501],[-74.394638,39.462471],[-74.410446,39.460835],[-74.392944,39.445835],[-74.407501,39.435417],[-74.403358,39.418751],[-74.41008,39.418724],[-74.410446,39.434971],[-74.431664,39.457054],[-74.446281,39.457474],[-74.448364,39.447861],[-74.459663,39.445805],[-74.465446,39.422501],[-74.482109,39.421638],[-74.49128,39.398277],[-74.476723,39.394554],[-74.468391,39.402084],[-74.434166,39.394585],[-74.442108,39.389137],[-74.424583,39.384998],[-74.426697,39.371193],[-74.415054,39.37711],[-74.410835,39.362083],[-74.482559,39.334557],[-74.535057,39.302917],[-74.525414,39.322498],[-74.510498,39.33086],[-74.510864,39.342056],[-74.453751,39.361668],[-74.469193,39.346222],[-74.446693,39.359585],[-74.445892,39.367863],[-74.449997,39.361252],[-74.458336,39.367054],[-74.479637,39.369972],[-74.466278,39.362473],[-74.4925,39.353722],[-74.499611,39.357471],[-74.489609,39.366638],[-74.496307,39.367527],[-74.489166,39.374584],[-74.480446,39.369167],[-74.485031,39.376221],[-74.495834,39.37289],[-74.51667,39.384609],[-74.526276,39.373306],[-74.514969,39.362915],[-74.532082,39.354168],[-74.520027,39.348751],[-74.512527,39.357056],[-74.510414,39.350834],[-74.537476,39.337891],[-74.538414,39.354527],[-74.540413,39.352501],[-74.540085,39.337029],[-74.553337,39.347916],[-74.56292,39.337471],[-74.558365,39.324585],[-74.551666,39.322083],[-74.549637,39.327473],[-74.556252,39.328335],[-74.540886,39.33625],[-74.530472,39.316696],[-74.559196,39.307083],[-74.542946,39.324974],[-74.547501,39.327057],[-74.566666,39.303722],[-74.587502,39.313694],[-74.615059,39.303722],[-74.629196,39.314583],[-74.635056,39.306252],[-74.652946,39.309166],[-74.65583,39.321251],[-74.682915,39.327499],[-74.655418,39.317471],[-74.661278,39.308334],[-74.647972,39.30164],[-74.651726,39.289528],[-74.660446,39.296665],[-74.658363,39.28875],[-74.652527,39.287083],[-74.636665,39.292915],[-74.615448,39.28336],[-74.627136,39.271667],[-74.630447,39.246666],[-74.648361,39.240417],[-74.657082,39.227528],[-74.664612,39.209167],[-74.649666,39.214169],[-74.659668,39.199944],[-74.692528,39.198723],[-74.711281,39.182529],[-74.705025,39.166248],[-74.688332,39.167084],[-74.677887,39.182499],[-74.694252,39.180416],[-74.697052,39.187473],[-74.686691,39.188751],[-74.695442,39.189972],[-74.690025,39.197056],[-74.673775,39.198334],[-74.685448,39.189999],[-74.682526,39.186222],[-74.680443,39.188332],[-74.67836,39.194557],[-74.671669,39.195416],[-74.674194,39.189583],[-74.650475,39.201637],[-74.707108,39.125805],[-74.715858,39.12125],[-74.70842,39.149555],[-74.715858,39.13789],[-74.727531,39.142056],[-74.732918,39.136639],[-74.719193,39.137054],[-74.719223,39.128693],[-74.730835,39.128723],[-74.721725,39.12711],[-74.724197,39.117889],[-74.745865,39.116222],[-74.748749,39.12664],[-74.740471,39.124973],[-74.744194,39.127888],[-74.756691,39.126221],[-74.759163,39.131248],[-74.758751,39.125],[-74.745056,39.114555],[-74.728386,39.113724],[-74.749222,39.10125],[-74.780029,39.107887],[-74.795441,39.092472],[-74.785446,39.089973],[-74.781693,39.072056],[-74.762527,39.070446],[-74.762947,39.059971],[-74.781693,39.042889],[-74.791252,39.045834],[-74.790474,39.060001],[-74.801666,39.069584],[-74.822113,39.058334],[-74.807526,39.040417],[-74.809639,39.05164],[-74.800468,39.054138],[-74.805054,39.062889],[-74.791275,39.059166],[-74.797997,39.045834],[-74.781281,39.040833],[-74.795105,39.029396],[-74.783333,39.0],[-71.666664,39.0],[-71.666664,41.346905],[-71.714836,41.329056],[-71.719749,41.333916],[-71.812805,41.319],[-71.856056,41.301445],[-71.860916,41.308998],[-71.886559,41.307167],[-71.88147,41.312248],[-71.858086,41.311527],[-71.845779,41.328945],[-71.826584,41.337307],[-71.830971,41.351555],[-71.831085,41.34],[-71.858803,41.321472],[-71.869888,41.328167],[-71.86422,41.333862],[-71.880638,41.338139],[-71.881859,41.350334],[-71.904419,41.326889],[-71.910416,41.333832],[-71.905586,41.348194],[-71.920219,41.344387],[-71.914749,41.342583],[-71.919746,41.326611],[-71.936638,41.339695],[-71.951752,41.331585],[-71.959557,41.348251],[-71.966698,41.344749],[-71.969475,41.350807],[-71.97625,41.338333],[-71.990585,41.332973],[-71.983696,41.324749],[-71.98764,41.315029],[-72.0,41.318916],[-72.005447,41.305695],[-72.018166,41.312946],[-72.018219,41.326557],[-72.030525,41.31086],[-72.074669,41.318222],[-72.085831,41.356529]],[[-71.922791,41.292717],[-71.934181,41.281326],[-71.965851,41.276051],[-72.002502,41.2528],[-72.038734,41.25],[-72.026108,41.266705],[-72.021149,41.261585],[-72.021149,41.276669],[-72.007187,41.271111],[-72.012909,41.263374],[-72.005562,41.259407],[-71.991127,41.281605],[-71.941963,41.282436],[-71.940018,41.291328],[-71.922791,41.292717]],[[-72.107498,41.205833],[-72.107964,41.206573],[-72.106911,41.207523],[-72.107498,41.205833]],[[-72.114525,41.204166],[-72.123055,41.200775],[-72.11972,41.203335],[-72.114525,41.204166]],[[-72.161942,41.18861],[-72.184723,41.184723],[-72.198059,41.164444],[-72.212219,41.174446],[-72.190277,41.18861],[-72.161942,41.18861]],[[-72.230667,41.160915],[-72.256386,41.130833],[-72.304939,41.110645],[-72.262085,41.135361],[-72.281113,41.138443],[-72.279358,41.129471],[-72.288559,41.126556],[-72.315636,41.139084],[-72.364304,41.091084],[-72.38237,41.088318],[-72.374443,41.076027],[-72.403168,41.074001],[-72.415276,41.05389],[-72.384445,41.049999],[-72.386696,41.032223],[-72.40567,41.028137],[-72.436584,41.034943],[-72.447388,41.019001],[-72.433334,40.984444],[-72.460892,41.008194],[-72.470833,40.989613],[-72.531693,40.977085],[-72.574997,40.933723],[-72.620852,40.931371],[-72.613808,40.92664],[-72.625581,40.920809],[-72.612946,40.91914],[-72.622948,40.911694],[-72.616669,40.906223],[-72.599998,40.916668],[-72.581665,40.905398],[-72.570862,40.907055],[-72.565025,40.917915],[-72.498611,40.894444],[-72.478615,40.897778],[-72.450836,40.918335],[-72.442451,40.945576],[-72.395836,40.953609],[-72.40139,40.957222],[-72.371666,40.995556],[-72.362778,40.99139],[-72.368057,40.99472],[-72.376663,41.019722],[-72.370834,41.012501],[-72.366669,40.996437],[-72.349167,40.994446],[-72.342857,41.00135],[-72.330002,40.995556],[-72.317223,41.00861],[-72.332779,41.033333],[-72.313057,41.040833],[-72.297501,41.015278],[-72.299721,41.003334],[-72.315834,41.008888],[-72.31147,40.999023],[-72.299721,41.002224],[-72.29583,41.00528],[-72.271385,41.001946],[-72.260834,41.013332],[-72.252777,41.012501],[-72.256386,41.003334],[-72.250832,41.002499],[-72.240837,41.041668],[-72.261948,41.041111],[-72.242226,41.044998],[-72.203331,41.032501],[-72.188332,41.035],[-72.184166,41.025833],[-72.20417,41.028332],[-72.182777,41.001389],[-72.179443,41.034168],[-72.187225,41.035],[-72.159447,41.05389],[-72.135834,41.036945],[-72.137779,41.024445],[-72.143059,41.041668],[-72.140556,41.033333],[-72.148331,41.026669],[-72.143333,41.024723],[-72.15139,41.021389],[-72.145836,41.018055],[-72.138809,41.023121],[-72.134445,41.016109],[-72.136108,41.022499],[-72.110275,40.99472],[-72.095558,40.99139],[-72.055557,41.022499],[-72.022224,41.021389],[-71.993629,41.04744],[-71.963905,41.041882],[-71.957031,41.049103],[-71.956757,41.072994],[-71.937775,41.075832],[-71.938057,41.068333],[-71.927223,41.052776],[-71.91333,41.048054],[-71.907501,41.059723],[-71.936089,41.077431],[-71.903473,41.085522],[-71.895851,41.07716],[-71.856354,41.07085],[-71.874146,41.051743],[-71.903725,41.03997],[-71.95752,41.028271],[-72.221031,40.93145],[-72.228333,40.93],[-72.219444,40.936668],[-72.217499,40.941666],[-72.223892,40.933887],[-72.236946,40.948055],[-72.230492,40.928947],[-72.317696,40.894226],[-72.328125,40.894516],[-72.313614,40.901943],[-72.330559,40.907776],[-72.336113,40.920834],[-72.336945,40.905834],[-72.353889,40.905834],[-72.341667,40.891109],[-72.329414,40.889935],[-72.473831,40.838871],[-72.461945,40.851666],[-72.415833,40.862221],[-72.412781,40.868332],[-72.419441,40.865276],[-72.422501,40.879166],[-72.424995,40.862186],[-72.435837,40.862221],[-72.442223,40.874722],[-72.438057,40.883888],[-72.444168,40.875557],[-72.44722,40.881111],[-72.500977,40.881374],[-72.490555,40.871113],[-72.503365,40.84539],[-72.52253,40.85289],[-72.518776,40.845833],[-72.532555,40.848751],[-72.529587,40.857445],[-72.541695,40.867943],[-72.549583,40.839973],[-72.572502,40.845417],[-72.573685,40.830204],[-72.582222,40.833057],[-72.578888,40.822224],[-72.590054,40.821167],[-72.590043,40.819768],[-72.584167,40.816944],[-72.590009,40.811681],[-72.522781,40.836666],[-72.511719,40.833721],[-72.479164,40.843777],[-72.477142,40.839783],[-72.752975,40.762562],[-72.751724,40.767082],[-72.738808,40.773724],[-72.740196,40.78117],[-72.721911,40.775531],[-72.645203,40.796448],[-72.665833,40.807083],[-72.677979,40.800892],[-72.690887,40.807083],[-72.692497,40.797112],[-72.701591,40.796726],[-72.718811,40.803673],[-72.722663,40.816972],[-72.732475,40.799557],[-72.752945,40.801666],[-72.745003,40.787029],[-72.761401,40.793392],[-72.752113,40.784138],[-72.770058,40.78289],[-72.773254,40.790192],[-72.775475,40.782837],[-72.795907,40.785339],[-72.808334,40.777054],[-72.830002,40.800388],[-72.828804,40.788307],[-72.813774,40.778362],[-72.810417,40.765835],[-72.846146,40.754616],[-72.845886,40.74625],[-72.877502,40.73875],[-72.893291,40.769722],[-72.894722,40.759998],[-72.927498,40.758057],[-72.945274,40.740833],[-73.015053,40.748749],[-73.035683,40.729744],[-73.070862,40.722862],[-73.105583,40.718479],[-73.11982,40.726245],[-73.153053,40.726666],[-73.14917,40.724556],[-73.147499,40.724583],[-73.146698,40.723721],[-73.14003,40.722916],[-73.135437,40.719166],[-73.128807,40.721638],[-73.150864,40.697918],[-73.201668,40.707779],[-73.202936,40.722181],[-73.207085,40.709167],[-73.222221,40.706665],[-73.223651,40.723888],[-73.277133,40.682375],[-73.263769,40.660162],[-73.24128,40.654999],[-73.244194,40.644585],[-73.261391,40.64389],[-73.247971,40.640804],[-73.260834,40.635555],[-73.308304,40.638721],[-73.309723,40.632778],[-73.355194,40.62838],[-73.571693,40.577888],[-73.562553,40.591194],[-73.519165,40.60125],[-73.500053,40.61375],[-73.487114,40.609112],[-73.497528,40.599583],[-73.460892,40.61375],[-73.429222,40.612915],[-73.385887,40.632057],[-73.371666,40.627918],[-73.359352,40.634445],[-73.375473,40.634998],[-73.349167,40.651222],[-73.329613,40.649166],[-73.341857,40.638697],[-73.321663,40.647915],[-73.269839,40.64373],[-73.289169,40.648056],[-73.266113,40.66],[-73.279396,40.683178],[-73.312036,40.687204],[-73.313362,40.679585],[-73.328331,40.684166],[-73.340027,40.671223],[-73.380142,40.657902],[-73.430443,40.656639],[-73.431923,40.649998],[-73.449196,40.655418],[-73.458336,40.648724],[-73.470024,40.657055],[-73.473335,40.650417],[-73.487137,40.650833],[-73.500053,40.624554],[-73.510887,40.626251],[-73.519196,40.617889],[-73.532524,40.629555],[-73.543747,40.630779],[-73.533363,40.617889],[-73.546669,40.617889],[-73.550003,40.627083],[-73.557915,40.624943],[-73.555862,40.632889],[-73.565002,40.633751],[-73.576691,40.625362],[-73.592476,40.634583],[-73.595001,40.622082],[-73.614166,40.631248],[-73.614586,40.622501],[-73.629997,40.612915],[-73.659225,40.627888],[-73.677475,40.63039],[-73.687973,40.623306],[-73.677109,40.618305],[-73.67836,40.608723],[-73.690475,40.607498],[-73.694191,40.623779],[-73.708778,40.611637],[-73.709221,40.604557],[-73.699638,40.603306],[-73.708778,40.608334],[-73.699997,40.607887],[-73.695831,40.617111],[-73.692947,40.608307],[-73.698753,40.605804],[-73.686691,40.601196],[-73.688332,40.593723],[-73.78083,40.591251],[-73.939163,40.544582],[-73.938751,40.555805],[-73.925026,40.564556],[-73.825027,40.587082],[-73.779198,40.611195],[-73.770859,40.599556],[-73.770027,40.615391],[-73.761253,40.614971],[-73.769585,40.619167],[-73.744614,40.634167],[-73.762558,40.630417],[-73.770027,40.620361],[-73.776642,40.627945],[-73.781281,40.612473],[-73.792526,40.608723],[-73.800415,40.616638],[-73.783302,40.632057],[-73.820831,40.651222],[-73.848335,40.64539],[-73.854164,40.652084],[-73.855415,40.644138],[-73.895447,40.622501],[-73.888779,40.61161],[-73.895416,40.605804],[-73.883308,40.606251],[-73.876221,40.58503],[-73.895859,40.577888],[-73.904198,40.587917],[-73.952141,40.583332],[-73.933388,40.582054],[-73.936722,40.575417],[-74.005753,40.571777],[-74.013084,40.574165],[-74.011528,40.58239],[-73.988747,40.5825],[-74.042053,40.613834],[-74.039307,40.639027],[-74.002609,40.66711],[-74.018364,40.664196],[-74.019081,40.671471],[-74.013474,40.669998],[-74.021446,40.67939],[-73.995003,40.705387],[-73.972916,40.705029],[-73.962112,40.7425],[-73.93586,40.770416],[-73.934135,40.779556],[-73.92672,40.778721],[-73.908333,40.792862],[-73.888336,40.774582],[-73.870056,40.787056],[-73.848358,40.762859],[-73.848778,40.781639],[-73.857971,40.785805],[-73.853752,40.794167],[-73.838333,40.79789],[-73.832497,40.791195],[-73.818336,40.80125],[-73.792526,40.791195],[-73.776695,40.79789],[-73.75547,40.769165],[-73.754639,40.781639],[-73.746223,40.784168],[-73.764641,40.814972],[-73.753807,40.821667],[-73.754166,40.838722],[-73.740837,40.826221],[-73.721695,40.823723],[-73.711693,40.799583],[-73.709641,40.815807],[-73.699585,40.81414],[-73.707947,40.825806],[-73.703331,40.838722],[-73.729141,40.835415],[-73.738808,40.850807],[-73.727913,40.856667],[-73.730026,40.868721],[-73.713387,40.872082],[-73.676247,40.860001],[-73.652084,40.829166],[-73.651665,40.804554],[-73.646225,40.824165],[-73.653778,40.845833],[-73.647163,40.856667],[-73.657112,40.8675],[-73.654587,40.879971],[-73.639191,40.895363],[-73.634193,40.892887],[-73.622887,40.896667],[-73.634163,40.894554],[-73.6325,40.902889],[-73.616692,40.900417],[-73.568336,40.91711],[-73.549164,40.910389],[-73.521667,40.919613],[-73.509636,40.910805],[-73.507141,40.902473],[-73.517914,40.899139],[-73.521721,40.887054],[-73.532974,40.886639],[-73.522087,40.904167],[-73.526276,40.912445],[-73.564636,40.899944],[-73.546692,40.902943],[-73.53833,40.87875],[-73.504585,40.875],[-73.509636,40.89164],[-73.494225,40.896252],[-73.485832,40.877083],[-73.464226,40.86961],[-73.496826,40.923611],[-73.485054,40.947887],[-73.434998,40.936249],[-73.427109,40.919945],[-73.434525,40.914192],[-73.432301,40.922222],[-73.481625,40.912777],[-73.434219,40.908722],[-73.441388,40.900555],[-73.42086,40.88789],[-73.419411,40.894394],[-73.433289,40.905952],[-73.393333,40.909527],[-73.370026,40.888721],[-73.375,40.900276],[-73.380432,40.901016],[-73.374725,40.913334],[-73.358749,40.902473],[-73.362526,40.890388],[-73.353333,40.897221],[-73.359444,40.91],[-73.352028,40.922562],[-73.368889,40.930279],[-73.379448,40.925373],[-73.372867,40.933978],[-73.379166,40.940277],[-73.383888,40.926388],[-73.399193,40.929585],[-73.406944,40.916111],[-73.398392,40.957085],[-73.344719,40.925173],[-73.331642,40.931252],[-73.290863,40.925388],[-73.235001,40.909557],[-73.22583,40.897057],[-73.19664,40.887054],[-73.204445,40.897221],[-73.232292,40.907246],[-73.148781,40.93],[-73.180473,40.913361],[-73.169197,40.89539],[-73.171074,40.904167],[-73.153412,40.915737],[-73.147499,40.923889],[-73.144371,40.955109],[-73.15937,40.967125],[-73.134224,40.967918],[-73.11869,40.977837],[-73.090416,40.969139],[-73.108757,40.969723],[-73.097946,40.959946],[-73.102893,40.947401],[-73.095863,40.958721],[-73.06797,40.949944],[-73.078613,40.96611],[-73.074921,40.970894],[-73.09211,40.971943],[-73.085052,40.974556],[-73.042784,40.963919],[-72.889221,40.964554],[-72.834198,40.972057],[-72.775024,40.967056],[-72.689163,40.982056],[-72.635025,40.982918],[-72.589996,40.996277],[-72.522614,41.039001],[-72.4795,41.052193],[-72.446747,41.086472],[-72.394386,41.099361],[-72.352776,41.141418],[-72.32692,41.139],[-72.289055,41.15836],[-72.230667,41.160915]],[[-72.077225,41.099724],[-72.093971,41.088177],[-72.086823,41.079723],[-72.085831,41.09111],[-72.081665,41.071667],[-72.098892,41.049999],[-72.094681,41.073055],[-72.103889,41.087776],[-72.142502,41.096668],[-72.128067,41.111298],[-72.130836,41.123611],[-72.077225,41.099724]],[[-72.334106,41.107685],[-72.299828,41.081509],[-72.305504,41.075024],[-72.310539,41.086647],[-72.32341,41.088955],[-72.310043,41.069988],[-72.319077,41.070244],[-72.313217,41.06361],[-72.282501,41.068054],[-72.273331,41.052223],[-72.280556,41.043335],[-72.270554,41.026943],[-72.28167,41.02861],[-72.28083,41.040279],[-72.310555,41.054165],[-72.318886,41.051109],[-72.315834,41.042221],[-72.324165,41.042221],[-72.343567,41.052261],[-72.343353,41.06213],[-72.350273,41.048565],[-72.355743,41.066193],[-72.36615,41.063431],[-72.355606,41.064293],[-72.357658,41.057377],[-72.350555,41.04361],[-72.33873,41.047199],[-72.343849,41.041786],[-72.354218,41.042027],[-72.373116,41.051781],[-72.384125,41.072178],[-72.366669,41.073612],[-72.357971,41.087875],[-72.353775,41.079502],[-72.342171,41.085159],[-72.348373,41.095036],[-72.334106,41.107685]],[[-72.278061,41.079681],[-72.279404,41.070477],[-72.295235,41.077583],[-72.278061,41.079681]],[[-72.471107,40.977779],[-72.458054,40.975555],[-72.451668,40.95639],[-72.468613,40.967777],[-72.471107,40.977779]],[[-72.099693,41.042084],[-72.099777,41.044804],[-72.099167,41.044167],[-72.099693,41.042084]],[[-72.099205,41.039349],[-72.099167,41.041569],[-72.09861,41.040833],[-72.099205,41.039349]],[[-72.100868,41.032558],[-72.099205,41.036591],[-72.098213,41.035831],[-72.100868,41.032558]],[[-71.931946,41.072498],[-71.932777,41.066387],[-71.936668,41.071667],[-71.931946,41.072498]],[[-72.488464,40.848103],[-72.48764,40.845329],[-72.492371,40.844772],[-72.488464,40.848103]],[[-72.479866,40.847553],[-72.486809,40.846451],[-72.480721,40.853943],[-72.479866,40.847553]],[[-72.472374,40.853374],[-72.472389,40.851467],[-72.474586,40.852844],[-72.472374,40.853374]],[[-72.512138,40.841198],[-72.512634,40.841526],[-72.511513,40.843155],[-72.512138,40.841198]],[[-72.50869,40.839294],[-72.508057,40.840557],[-72.50528,40.840557],[-72.50869,40.839294]],[[-72.805756,40.753529],[-72.795479,40.764782],[-72.776909,40.762028],[-72.754921,40.769783],[-72.765129,40.759747],[-73.076988,40.660019],[-73.234444,40.625557],[-73.311386,40.623333],[-73.300835,40.629166],[-73.256668,40.625557],[-73.055,40.668888],[-72.91861,40.72361],[-72.897781,40.723888],[-72.89167,40.732777],[-72.874443,40.731388],[-72.805756,40.753529]],[[-73.224859,40.649858],[-73.235039,40.650269],[-73.236305,40.653332],[-73.230858,40.657082],[-73.224859,40.649858]],[[-73.24234,40.657825],[-73.241722,40.661251],[-73.237114,40.659111],[-73.24234,40.657825]],[[-73.166664,40.659557],[-73.175415,40.659973],[-73.171669,40.660389],[-73.166664,40.659557]],[[-73.190456,40.656846],[-73.177528,40.660416],[-73.175552,40.656113],[-73.178055,40.652222],[-73.190456,40.656846]],[[-73.200058,40.660362],[-73.19297,40.655804],[-73.198059,40.653709],[-73.200058,40.660362]],[[-72.912781,40.726944],[-72.917221,40.729443],[-72.912498,40.730556],[-72.912781,40.726944]],[[-72.751389,40.771667],[-72.760834,40.778332],[-72.744553,40.775833],[-72.751389,40.771667]],[[-72.723335,40.780388],[-72.722084,40.7775],[-72.726387,40.777779],[-72.723335,40.780388]],[[-72.697174,40.785206],[-72.698746,40.786896],[-72.697723,40.786896],[-72.697174,40.785206]],[[-72.895042,40.739506],[-72.898102,40.739517],[-72.89782,40.740334],[-72.895042,40.739506]],[[-73.588333,40.596222],[-73.595444,40.607498],[-73.588303,40.628693],[-73.569611,40.604973],[-73.588333,40.596222]],[[-73.660057,40.597057],[-73.66964,40.605804],[-73.65667,40.608749],[-73.658775,40.623306],[-73.640808,40.617027],[-73.646751,40.598751],[-73.660057,40.597057]],[[-73.666664,40.597084],[-73.681664,40.597084],[-73.682083,40.59914],[-73.671722,40.610416],[-73.666664,40.597084]],[[-73.664581,40.614166],[-73.660858,40.616249],[-73.659554,40.610001],[-73.664581,40.614166]],[[-73.682503,40.62289],[-73.683365,40.625416],[-73.680054,40.625389],[-73.682503,40.62289]],[[-73.642944,40.600807],[-73.639557,40.612499],[-73.630859,40.607887],[-73.60997,40.616222],[-73.629196,40.598721],[-73.642944,40.600807]],[[-73.615417,40.603306],[-73.611275,40.611637],[-73.609192,40.61375],[-73.605446,40.603333],[-73.615417,40.603306]],[[-73.596642,40.603748],[-73.591698,40.597057],[-73.607086,40.599998],[-73.596642,40.603748]],[[-73.623779,40.599167],[-73.623306,40.60286],[-73.616753,40.60125],[-73.623779,40.599167]],[[-73.576248,40.616665],[-73.561691,40.630444],[-73.554222,40.618721],[-73.532913,40.604168],[-73.544998,40.601223],[-73.556664,40.616249],[-73.576248,40.616665]],[[-73.530891,40.618721],[-73.522942,40.614166],[-73.525833,40.609554],[-73.531219,40.613304],[-73.530891,40.618721]],[[-73.505836,40.617889],[-73.517502,40.605389],[-73.524635,40.605835],[-73.518303,40.616222],[-73.505836,40.617889]],[[-73.504639,40.620834],[-73.497559,40.624527],[-73.500832,40.615417],[-73.504639,40.620834]],[[-73.487503,40.625416],[-73.493774,40.625805],[-73.469612,40.625832],[-73.480888,40.615391],[-73.497971,40.616638],[-73.487503,40.625416]],[[-73.419034,40.620931],[-73.431694,40.619526],[-73.436226,40.630806],[-73.415413,40.631668],[-73.419034,40.620931]],[[-73.432892,40.619141],[-73.44622,40.6175],[-73.445442,40.625832],[-73.432892,40.619141]],[[-73.431664,40.617085],[-73.430443,40.615002],[-73.433388,40.614582],[-73.431664,40.617085]],[[-73.456665,40.614555],[-73.458748,40.618305],[-73.449997,40.620419],[-73.456665,40.614555]],[[-73.479225,40.608723],[-73.483749,40.608334],[-73.473358,40.616249],[-73.479225,40.608723]],[[-73.484612,40.613304],[-73.490417,40.611668],[-73.48922,40.614582],[-73.484612,40.613304]],[[-73.463753,40.619167],[-73.461693,40.620388],[-73.460472,40.615002],[-73.463753,40.619167]],[[-73.488358,40.629555],[-73.488808,40.637444],[-73.470413,40.633335],[-73.488358,40.629555]],[[-73.433304,40.640388],[-73.427559,40.642944],[-73.423775,40.639973],[-73.427498,40.63789],[-73.433304,40.640388]],[[-73.412224,40.636944],[-73.392975,40.637474],[-73.407776,40.624168],[-73.415558,40.625557],[-73.412224,40.636944]],[[-73.412224,40.636944],[-73.413055,40.644165],[-73.409225,40.645416],[-73.40625,40.641666],[-73.412224,40.636944]],[[-73.416252,40.63414],[-73.422974,40.635834],[-73.419998,40.640415],[-73.416252,40.63414]],[[-73.431664,40.632916],[-73.437973,40.633278],[-73.425446,40.635807],[-73.431664,40.632916]],[[-73.445,40.632057],[-73.441666,40.639584],[-73.437943,40.637474],[-73.439583,40.634972],[-73.445,40.632057]],[[-73.478363,40.640415],[-73.486275,40.642502],[-73.48333,40.65036],[-73.478363,40.640415]],[[-73.386665,40.647057],[-73.381279,40.643333],[-73.391945,40.640232],[-73.386665,40.647057]],[[-73.375031,40.647057],[-73.372948,40.646641],[-73.374413,40.644131],[-73.375031,40.647057]],[[-73.388737,40.638761],[-73.380806,40.640388],[-73.377975,40.633335],[-73.381943,40.6325],[-73.388737,40.638761]],[[-73.402557,40.64539],[-73.396225,40.645805],[-73.400833,40.642056],[-73.402557,40.64539]],[[-73.529999,40.607029],[-73.542892,40.615002],[-73.536697,40.617085],[-73.529999,40.607029]],[[-73.553749,40.609974],[-73.552528,40.599609],[-73.567947,40.605804],[-73.567497,40.608723],[-73.553749,40.609974]],[[-73.487503,40.607918],[-73.48378,40.606667],[-73.484192,40.605415],[-73.487503,40.607918]],[[-73.296539,40.649952],[-73.300468,40.652527],[-73.295059,40.655418],[-73.296539,40.649952]],[[-73.291275,40.656666],[-73.290031,40.658722],[-73.287109,40.657471],[-73.291275,40.656666]],[[-73.696281,40.618305],[-73.698387,40.617085],[-73.697975,40.619194],[-73.696281,40.618305]],[[-74.139359,40.531696],[-74.12886,40.543056],[-74.137802,40.546638],[-74.154663,40.530224],[-74.238808,40.497391],[-74.25222,40.496555],[-74.257973,40.504501],[-74.243835,40.520832],[-74.248276,40.546528],[-74.213417,40.559639],[-74.197136,40.601971],[-74.203613,40.62714],[-74.185585,40.645473],[-74.156914,40.639084],[-74.083527,40.650944],[-74.073891,40.646526],[-74.070335,40.622471],[-74.054276,40.599529],[-74.139359,40.531696]],[[-73.940445,40.771641],[-73.956665,40.753723],[-73.960442,40.753307],[-73.947113,40.768333],[-73.940445,40.771641]],[[-73.219719,40.901943],[-73.218613,40.900555],[-73.225075,40.899914],[-73.219719,40.901943]],[[-73.157776,40.916111],[-73.165001,40.915833],[-73.150002,40.924446],[-73.157776,40.916111]],[[-73.156097,40.915688],[-73.153038,40.917439],[-73.153511,40.916595],[-73.156097,40.915688]],[[-73.168892,40.90889],[-73.17028,40.912403],[-73.165001,40.913887],[-73.168892,40.90889]],[[-73.50753,41.035416],[-73.507973,41.036667],[-73.506668,41.037918],[-73.50753,41.035416]],[[-73.151276,41.154972],[-73.158386,41.154583],[-73.171249,41.16],[-73.165833,41.164528],[-73.151276,41.154972]],[[-73.497086,41.046638],[-73.502975,41.04414],[-73.500862,41.049557],[-73.497086,41.046638]],[[-74.000893,40.384945],[-74.001556,40.384945],[-74.00222,40.386055],[-74.000893,40.384945]],[[-74.003723,40.384972],[-74.005585,40.385612],[-74.004669,40.387554],[-74.003723,40.384972]],[[-74.003387,40.382168],[-74.000664,40.383583],[-74.000725,40.380779],[-74.003387,40.382168]],[[-74.118332,39.773724],[-74.115891,39.750446],[-74.10672,39.76461],[-74.102913,39.754971],[-74.138748,39.692471],[-74.237083,39.559971],[-74.280029,39.51125],[-74.291725,39.507889],[-74.262085,39.538334],[-74.257942,39.55336],[-74.248802,39.555805],[-74.25547,39.555],[-74.251305,39.564972],[-74.24836,39.557056],[-74.202972,39.615807],[-74.186279,39.651611],[-74.176277,39.657501],[-74.181274,39.660805],[-74.161697,39.670444],[-74.146278,39.689945],[-74.130417,39.720001],[-74.134636,39.731693],[-74.122917,39.734165],[-74.117111,39.747528],[-74.125862,39.752918],[-74.13253,39.74786],[-74.136276,39.755779],[-74.122139,39.75911],[-74.125443,39.774193],[-74.118332,39.773724]]]}}
