{"type":"Feature","properties":{"mrgid":23554,"name":"St. Lawrence Estuary","placeType":"Estuary","source":"World:stlawrenceestuary"},"geometry":{"type":"Polygon","coordinates":[[[-67.569818,49.317518],[-67.663545,49.296436],[-67.6967,49.3037],[-67.753845,49.297755],[-67.802391,49.269018],[-67.881991,49.286745],[-67.975373,49.275109],[-68.040791,49.283482],[-68.072873,49.251273],[-68.117636,49.266409],[-68.125536,49.256182],[-68.125509,49.232709],[-68.138,49.2242],[-68.139055,49.202809],[-68.157839,49.197389],[-68.177325,49.15092],[-68.175818,49.111918],[-68.191727,49.095118],[-68.308464,49.090318],[-68.4014,49.0443],[-68.463536,49.043518],[-68.406436,49.077327],[-68.370145,49.130882],[-68.370691,49.140936],[-68.380991,49.140218],[-68.398809,49.104436],[-68.426455,49.080318],[-68.5695,49.0517],[-68.6018,49.033055],[-68.625791,48.992191],[-68.624455,48.946036],[-68.643536,48.930227],[-68.6909,48.936591],[-68.662327,48.911509],[-68.638891,48.913945],[-68.625236,48.926345],[-68.617255,48.9187],[-68.628136,48.902955],[-68.760845,48.884827],[-68.765709,48.896136],[-68.818255,48.850345],[-68.860655,48.831336],[-68.862173,48.822609],[-68.937809,48.814964],[-68.929091,48.798309],[-68.957855,48.773245],[-68.998073,48.764764],[-69.042445,48.766636],[-69.053164,48.751691],[-69.037873,48.740264],[-69.069336,48.716009],[-69.075318,48.692973],[-69.067118,48.644327],[-69.081391,48.640782],[-69.116627,48.574273],[-69.154173,48.565445],[-69.2153,48.578836],[-69.237591,48.542173],[-69.274764,48.514482],[-69.2723,48.481218],[-69.263609,48.4769],[-69.270955,48.464791],[-69.343391,48.378845],[-69.389491,48.354464],[-69.380545,48.336055],[-69.413318,48.290655],[-69.436364,48.288045],[-69.4489,48.273464],[-69.503345,48.261336],[-69.513845,48.241345],[-69.531809,48.233145],[-69.550282,48.227409],[-69.552582,48.237355],[-69.581918,48.2277],[-69.604782,48.189909],[-69.722442,48.114792],[-69.717764,48.097236],[-69.727409,48.079736],[-69.740645,48.078127],[-69.743836,48.067518],[-69.757736,48.062882],[-69.775155,48.035764],[-69.768682,48.007736],[-69.775173,47.980127],[-69.7871,47.968727],[-69.8144,47.962655],[-69.797164,47.949727],[-69.803209,47.912855],[-69.839464,47.891245],[-69.839018,47.882555],[-69.860445,47.867864],[-69.871573,47.834282],[-69.898218,47.804227],[-69.908982,47.767173],[-69.959818,47.750036],[-69.970045,47.7242],[-69.987791,47.709645],[-70.1337,47.646709],[-70.1417,47.6214],[-70.202164,47.576209],[-70.2019,47.523745],[-70.216191,47.503509],[-70.225491,47.505182],[-70.229382,47.486527],[-70.320018,47.454591],[-70.348173,47.454245],[-70.461573,47.420436],[-70.492418,47.420373],[-70.489136,47.387736],[-70.494964,47.372455],[-70.554618,47.313673],[-70.559945,47.280655],[-70.592255,47.250064],[-70.597745,47.232455],[-70.616864,47.216982],[-70.6558,47.161418],[-70.719818,47.098264],[-70.768991,47.078555],[-70.815536,47.047136],[-70.886258,47.034685],[-70.866574,47.015645],[-70.841291,47.025582],[-70.8245,47.017782],[-70.797309,47.019845],[-70.81895,46.969579],[-70.807038,46.958056],[-70.797627,46.975164],[-70.778527,46.976564],[-70.786927,46.962055],[-70.803437,46.954573],[-70.764724,46.917192],[-70.7456,46.9334],[-70.708909,46.937855],[-70.618982,46.984455],[-70.568773,46.992018],[-70.5526,46.986773],[-70.543136,46.998164],[-70.499991,47.010227],[-70.460309,47.0465],[-70.453091,47.064682],[-70.406855,47.098064],[-70.384209,47.125009],[-70.351036,47.140155],[-70.2892,47.194555],[-70.203064,47.303145],[-70.114218,47.331164],[-70.062773,47.370327],[-70.053,47.388018],[-70.052009,47.414664],[-70.068555,47.427173],[-70.036455,47.450355],[-70.045545,47.461809],[-70.028036,47.483473],[-70.000718,47.498518],[-69.988773,47.502227],[-69.988582,47.495709],[-69.974691,47.495218],[-69.937082,47.529873],[-69.922136,47.522682],[-69.926773,47.541045],[-69.873464,47.578636],[-69.882091,47.605636],[-69.8686,47.628818],[-69.777045,47.657855],[-69.679236,47.728182],[-69.626591,47.750064],[-69.594191,47.807718],[-69.560873,47.839455],[-69.558727,47.846364],[-69.568945,47.846809],[-69.569427,47.853273],[-69.552536,47.870745],[-69.552709,47.881218],[-69.504827,47.924564],[-69.5238,47.932009],[-69.502355,47.955936],[-69.481536,47.954655],[-69.429627,47.998218],[-69.352573,48.021291],[-69.309182,48.044245],[-69.270445,48.074545],[-69.276273,48.076745],[-69.259727,48.091891],[-69.219355,48.095891],[-69.221582,48.105573],[-69.199418,48.129018],[-69.136627,48.155627],[-69.134418,48.168882],[-69.106045,48.193009],[-68.976345,48.268855],[-68.948645,48.292645],[-68.860109,48.320709],[-68.850773,48.3346],[-68.8085,48.347355],[-68.810327,48.353445],[-68.831791,48.353964],[-68.809482,48.368755],[-68.798682,48.371336],[-68.787645,48.359527],[-68.753373,48.375682],[-68.744882,48.371345],[-68.750582,48.363891],[-68.737018,48.366082],[-68.725391,48.372173],[-68.727591,48.3799],[-68.650236,48.403518],[-68.580209,48.444],[-68.538009,48.448418],[-68.517491,48.469682],[-68.518309,48.481155],[-68.504991,48.481318],[-68.469391,48.518591],[-68.426327,48.529264],[-68.3917,48.549773],[-68.352309,48.550491],[-68.1983,48.630255],[-68.160309,48.641936],[-68.1118,48.641527],[-68.071991,48.659673],[-68.062427,48.676755],[-68.030864,48.680882],[-68.016,48.668236],[-67.943245,48.695027],[-67.861127,48.744927],[-67.600727,48.822264],[-67.549136,48.851345],[-67.4657,48.861655],[-67.371591,48.899291],[-67.2925,48.907691],[-67.268891,48.9204],[-67.126623,48.956355],[-67.375379,49.317143],[-67.569818,49.317518]],[[-68.588064,48.458355],[-68.583209,48.469436],[-68.548473,48.486282],[-68.5359,48.482491],[-68.549618,48.470282],[-68.588064,48.458355]],[[-68.888545,48.392682],[-68.874391,48.407236],[-68.838945,48.410055],[-68.846009,48.392055],[-68.8873,48.384045],[-68.888545,48.392682]],[[-69.246055,48.138936],[-69.241191,48.146845],[-69.233773,48.148],[-69.236518,48.138782],[-69.246055,48.138936]],[[-69.718282,48.117082],[-69.715655,48.116591],[-69.716136,48.114982],[-69.718282,48.117082]],[[-69.493164,47.986691],[-69.477318,48.000018],[-69.472855,48.015545],[-69.450709,48.027718],[-69.425145,48.057791],[-69.386436,48.067318],[-69.412818,48.029936],[-69.493164,47.986691]],[[-69.776509,47.806827],[-69.734273,47.869482],[-69.683955,47.908445],[-69.698436,47.8721],[-69.728955,47.856273],[-69.735145,47.839455],[-69.771136,47.803164],[-69.776509,47.806827]],[[-69.685918,47.761818],[-69.671327,47.756891],[-69.6845,47.752755],[-69.685918,47.761818]],[[-69.720364,47.739718],[-69.710118,47.738282],[-69.715382,47.728518],[-69.722345,47.730991],[-69.720364,47.739718]],[[-69.729382,47.734373],[-69.733618,47.720536],[-69.754345,47.710182],[-69.741927,47.731164],[-69.729382,47.734373]],[[-70.311673,47.427364],[-70.408464,47.358964],[-70.436827,47.361309],[-70.436391,47.397291],[-70.390109,47.422518],[-70.311673,47.427364]],[[-70.542255,47.093573],[-70.514973,47.113491],[-70.511,47.126873],[-70.468164,47.158409],[-70.439245,47.169291],[-70.447809,47.147991],[-70.499991,47.115445],[-70.5198,47.088709],[-70.514564,47.076227],[-70.522982,47.060827],[-70.556182,47.040627],[-70.566918,47.041482],[-70.542255,47.093573]],[[-70.416545,47.155827],[-70.410091,47.164755],[-70.4046,47.163182],[-70.405182,47.155427],[-70.416545,47.155827]],[[-70.6034,47.041145],[-70.604891,47.0297],[-70.632909,47.0179],[-70.613609,47.043382],[-70.6034,47.041145]],[[-70.658073,47.033745],[-70.664636,47.020236],[-70.6738,47.018891],[-70.676118,47.028327],[-70.658073,47.033745]],[[-70.717391,47.020509],[-70.753918,46.995073],[-70.769582,46.992473],[-70.7679,47.001655],[-70.745445,47.015491],[-70.717391,47.020509]]]}}
