{"type":"Feature","properties":{"mrgid":24499,"name":"Frankrijk-West","placeType":"Historical fishing areas","source":"Visgronden:visgronden"},"geometry":{"type":"Polygon","coordinates":[[[-18.0,48.0],[-18.0,43.0],[-11.0,43.0],[-11.0,44.5],[-2.0,44.5],[-2.0,43.316686],[-1.9923,43.3158],[-1.9867,43.3209],[-1.9934,43.3258],[-1.9767,43.3252],[-1.9722,43.3354],[-1.9164,43.3367],[-1.8839,43.3489],[-1.8702,43.3687],[-1.8488,43.3797],[-1.792,43.3957],[-1.7923,43.3702],[-1.7823,43.3627],[-1.7941,43.3506],[-1.8075,43.3515],[-1.8008,43.3455],[-1.7703,43.3652],[-1.7887,43.3741],[-1.7638,43.3762],[-1.7526,43.3847],[-1.7326,43.3802],[-1.6779,43.3979],[-1.6854,43.3906],[-1.6675,43.389],[-1.6611,43.3969],[-1.667,43.3996],[-1.6002,43.4338],[-1.5684,43.4757],[-1.57,43.4839],[-1.5589,43.4855],[-1.5317,43.5174],[-1.5238,43.5306],[-1.5352,43.5317],[-1.5184,43.536],[-1.4465,43.6483],[-1.4219,43.767],[-1.3345,44.0591],[-1.2969,44.211],[-1.2608,44.416],[-1.251,44.4954],[-1.2569,44.5437],[-1.2098,44.6031],[-1.204,44.64],[-1.1919,44.6602],[-1.143,44.6595],[-1.1391,44.6534],[-1.1473,44.6478],[-1.1409,44.6412],[-1.1018,44.6466],[-1.0735,44.6398],[-1.0745,44.6461],[-1.0364,44.6469],[-1.0044,44.6352],[-1.0096,44.6412],[-1.0035,44.6554],[-1.0187,44.6634],[-1.0245,44.6753],[-1.0181,44.678],[-1.0457,44.6813],[-1.0337,44.6865],[-1.0501,44.6816],[-1.0697,44.6954],[-1.0463,44.6918],[-1.034,44.6958],[-1.0433,44.6955],[-1.0967,44.7369],[-1.1674,44.7751],[-1.1786,44.7617],[-1.1737,44.7447],[-1.223,44.709],[-1.2327,44.6926],[-1.2415,44.6745],[-1.2432,44.6284],[-1.2518,44.617],[-1.2468,44.6144],[-1.254,44.6158],[-1.262,44.6322],[-1.1626,45.2981],[-1.1615,45.4082],[-1.1517,45.4433],[-1.1574,45.4755],[-1.1397,45.5081],[-1.1016,45.5398],[-1.095,45.5563],[-1.0615,45.5736],[-1.0636,45.5532],[-1.042,45.5431],[-1.042,45.549],[-1.0407,45.5458],[-1.0404,45.5362],[-1.0427,45.529],[-1.0618,45.5373],[-1.079,45.5315],[-1.0623,45.5363],[-1.0538,45.5303],[-1.0707,45.5245],[-1.0672,45.5117],[-0.9713,45.4535],[-0.9326,45.4402],[-0.9047,45.4076],[-0.8537,45.3838],[-0.8105,45.3523],[-0.7645,45.2811],[-0.7441,45.2258],[-0.7484,45.2125],[-0.7406,45.1838],[-0.6815,45.0769],[-0.6906,45.0752],[-0.6843,45.0738],[-0.681,45.0766],[-0.6729,45.0724],[-0.6524,45.0478],[-0.6407,45.0393],[-0.6458,45.0412],[-0.6077,45.0146],[-0.5955,45.0095],[-0.5896,45.011],[-0.5832,45.0158],[-0.6068,45.0404],[-0.5981,45.0456],[-0.6381,45.0746],[-0.6675,45.1265],[-0.6663,45.1715],[-0.6865,45.2123],[-0.6907,45.2335],[-0.683,45.2329],[-0.6917,45.2375],[-0.7207,45.3434],[-0.7459,45.4079],[-0.7832,45.4606],[-0.7975,45.4753],[-0.8081,45.4724],[-0.8256,45.4873],[-0.8201,45.4921],[-0.8539,45.5147],[-0.9108,45.5348],[-0.9061,45.537],[-0.9149,45.5492],[-0.9703,45.5603],[-0.9747,45.5699],[-0.9927,45.577],[-0.9942,45.5982],[-1.0111,45.5984],[-1.01,45.6113],[-1.0238,45.6225],[-1.0293,45.6147],[-1.041,45.6169],[-1.0752,45.6375],[-1.0996,45.6399],[-1.2026,45.6956],[-1.2329,45.6924],[-1.2172,45.6723],[-1.2065,45.6724],[-1.2152,45.6709],[-1.2214,45.6719],[-1.2362,45.6922],[-1.2434,45.7282],[-1.2377,45.7857],[-1.1341,45.8026],[-1.1559,45.8435],[-1.1793,45.853],[-1.1736,45.8576],[-1.1506,45.852],[-1.1463,45.8565],[-1.1563,45.8607],[-1.151,45.8625],[-1.1214,45.8559],[-1.1024,45.8701],[-1.0746,45.9134],[-1.078,45.9366],[-1.101,45.9449],[-1.0792,45.9491],[-1.0845,45.9788],[-1.111663,45.99964],[-1.322612,45.999667],[-1.0543,46.0],[-1.0616,46.0243],[-1.0559,46.0346],[-1.066,46.0491],[-1.0965,46.0601],[-1.1019,46.0947],[-1.1436,46.1062],[-1.1252,46.1115],[-1.1295,46.1267],[-1.1746,46.1375],[-1.1731,46.1461],[-1.1509,46.1568],[-1.2077,46.145],[-1.2306,46.1537],[-1.2202,46.1575],[-1.2299,46.1585],[-1.2238,46.1653],[-1.2389,46.1634],[-1.2389,46.1641],[-1.2375,46.1656],[-1.2237,46.1655],[-1.2174,46.1816],[-1.2057,46.1852],[-1.2016,46.2114],[-1.1512,46.2387],[-1.1422,46.2543],[-1.1115,46.2597],[-1.1084,46.2706],[-1.1144,46.2702],[-1.1237,46.3004],[-1.1345,46.3022],[-1.1248,46.3019],[-1.1167,46.3227],[-1.1311,46.3113],[-1.1641,46.3244],[-1.2021,46.3147],[-1.1961,46.3008],[-1.2129,46.2781],[-1.2063,46.2697],[-1.3183,46.3328],[-1.2951,46.3042],[-1.2983,46.2986],[-1.289,46.2965],[-1.2964,46.2949],[-1.2852,46.2945],[-1.2957,46.2909],[-1.3436,46.3419],[-1.3693,46.3487],[-1.3968,46.3397],[-1.4287,46.3474],[-1.439,46.3399],[-1.468,46.342],[-1.4875,46.3796],[-1.5147,46.4035],[-1.6492,46.4196],[-1.66,46.4344],[-1.7114,46.4511],[-1.7786,46.4921],[-1.7943,46.4928],[-1.7938,46.4877],[-1.8138,46.4944],[-1.8577,46.61],[-1.8981,46.6406],[-1.9488,46.6975],[-1.9669,46.6935],[-1.9787,46.705],[-1.9797,46.7184],[-2.0165,46.7472],[-2.1424,46.8203],[-2.1528,46.8894],[-2.1221,46.8904],[-2.1156,46.8975],[-2.1114,46.8919],[-2.1202,46.9089],[-2.0754,46.9353],[-2.0814,46.9386],[-2.076,46.94],[-2.0711,46.9354],[-2.0742,46.94],[-2.0444,46.9678],[-2.034,46.9688],[-2.0448,46.9693],[-2.0469,46.9771],[-2.0302,46.9904],[-2.0379,46.998],[-2.0291,47.0092],[-1.9786,47.0291],[-2.0048,47.0619],[-2.0334,47.0747],[-2.0525,47.0946],[-2.1059,47.1066],[-2.0995,47.1152],[-2.1159,47.1102],[-2.1149,47.1071],[-2.2469,47.1331],[-2.2466,47.1406],[-2.2394,47.1373],[-2.2124,47.1554],[-2.2148,47.1605],[-2.1776,47.1566],[-2.166,47.1687],[-2.1587,47.2092],[-2.1822,47.233],[-2.1717,47.2396],[-2.1711,47.2644],[-2.2114,47.2703],[-2.2283,47.2561],[-2.2533,47.2531],[-2.2662,47.2386],[-2.299,47.2329],[-2.3461,47.255],[-2.3409,47.2597],[-2.3465,47.2663],[-2.3752,47.2784],[-2.417,47.2768],[-2.4255,47.271],[-2.417,47.2585],[-2.4314,47.2584],[-2.5455,47.2918],[-2.5439,47.2981],[-2.5083,47.3086],[-2.5053,47.3382],[-2.5258,47.3625],[-2.5591,47.3742],[-2.4923,47.4042],[-2.4454,47.4356],[-2.4569,47.4478],[-2.4803,47.4416],[-2.4955,47.4499],[-2.5006,47.4584],[-2.4889,47.4714],[-2.5017,47.492],[-2.4549,47.4893],[-2.441,47.4982],[-2.4671,47.5117],[-2.5029,47.5141],[-2.506,47.523],[-2.5214,47.5264],[-2.5445,47.5225],[-2.5496,47.51],[-2.5978,47.5172],[-2.633,47.5042],[-2.6241,47.5137],[-2.6392,47.5201],[-2.6672,47.516],[-2.6659,47.5082],[-2.6815,47.4936],[-2.7261,47.506],[-2.7827,47.4945],[-2.7942,47.4839],[-2.8154,47.4862],[-2.8499,47.4981],[-2.8482,47.5123],[-2.8738,47.5329],[-2.9048,47.5346],[-2.9027,47.5419],[-2.92,47.547],[-2.9113,47.5531],[-2.9518,47.5558],[-2.9576,47.5647],[-2.963,47.5532],[-2.9789,47.5615],[-2.969,47.5589],[-2.977,47.5772],[-2.9895,47.5795],[-2.9881,47.5658],[-2.9954,47.5715],[-3.0046,47.5663],[-3.0248,47.5921],[-3.0199,47.5671],[-3.0402,47.5785],[-3.0526,47.5776],[-3.0536,47.5687],[-3.0889,47.5643],[-3.1159,47.575],[-3.1232,47.5692],[-3.1343,47.5425],[-3.1278,47.5134],[-3.1184,47.5097],[-3.1179,47.496],[-3.0796,47.4684],[-3.1184,47.4784],[-3.1311,47.4728],[-3.1458,47.4837],[-3.1537,47.5212],[-3.1625,47.5289],[-3.145,47.5304],[-3.135,47.5444],[-3.1481,47.5934],[-3.2707,47.6788],[-3.3279,47.6946],[-3.3474,47.695],[-3.3611,47.6859],[-3.3552,47.7006],[-3.3658,47.7106],[-3.392,47.7005],[-3.4277,47.7042],[-3.4535,47.6956],[-3.4946,47.7247],[-3.506,47.7462],[-3.5271,47.7636],[-3.6271,47.7699],[-3.6709,47.7844],[-3.6789,47.776],[-3.7276,47.8049],[-3.7621,47.7903],[-3.8012,47.787],[-3.8387,47.7979],[-3.8549,47.7906],[-3.8539,47.8038],[-3.902,47.8344],[-3.8988,47.8466],[-3.8915,47.843],[-3.8858,47.8491],[-3.8951,47.8495],[-3.8816,47.8585],[-3.8852,47.8587],[-3.8928,47.8527],[-3.8977,47.8543],[-3.896,47.8494],[-3.9106,47.8499],[-3.9194,47.8564],[-3.9,47.8602],[-3.9306,47.8713],[-3.9336,47.8821],[-3.947,47.887],[-3.943,47.8932],[-3.9503,47.8909],[-3.9463,47.9023],[-3.9892,47.8832],[-3.9747,47.8544],[-4.0329,47.8497],[-4.0414,47.8428],[-4.0565,47.8562],[-4.0985,47.8622],[-4.1057,47.8714],[-4.1134,47.862],[-4.1465,47.8566],[-4.1663,47.8454],[-4.1681,47.8357],[-4.1578,47.8313],[-4.1646,47.8146],[-4.1914,47.7962],[-4.2087,47.8016],[-4.2182,47.7919],[-4.2668,47.7907],[-4.2926,47.7916],[-4.3009,47.8009],[-4.3714,47.7972],[-4.3754,47.8162],[-4.3834,47.8131],[-4.3806,47.8204],[-4.3465,47.833],[-4.3581,47.8876],[-4.421,47.9622],[-4.49598,48.0],[-18.0,48.0]],[[-1.3718,46.0307],[-1.322612,45.999667],[-1.2994,45.9892],[-1.2424,45.9875],[-1.2325,45.9706],[-1.2411,45.9533],[-1.2283,45.9413],[-1.2358,45.9274],[-1.1875,45.8855],[-1.1977,45.8685],[-1.1863,45.8592],[-1.1908,45.8593],[-1.1965,45.8629],[-1.2009,45.861],[-1.2078,45.8495],[-1.1951,45.8283],[-1.2309,45.799],[-1.248,45.8053],[-1.2537,45.8517],[-1.2689,45.8803],[-1.2925,45.8998],[-1.3514,45.925],[-1.3876,45.9552],[-1.3955,45.9775],[-1.3874,45.9987],[-1.4122,46.0475],[-1.3704,46.0386],[-1.3718,46.0307]],[[-4.0307,47.7755],[-4.0285,47.7767],[-4.028,47.7744],[-4.0307,47.7755]],[[-4.0182,47.7099],[-4.0167,47.7102],[-4.0161,47.7098],[-4.0182,47.7099]],[[-4.0141,47.7088],[-4.013,47.7102],[-4.0127,47.709],[-4.0141,47.7088]],[[-4.0103,47.7162],[-4.0104,47.7191],[-4.0061,47.7174],[-4.0103,47.7162]],[[-4.0013,47.723],[-4.007,47.7237],[-4.0006,47.726],[-3.9957,47.7248],[-4.0013,47.723]],[[-3.9998,47.7019],[-4.0014,47.7084],[-3.9925,47.709],[-3.9903,47.7023],[-3.9998,47.7019]],[[-3.9995,47.7286],[-3.9988,47.7302],[-3.9983,47.7292],[-3.9995,47.7286]],[[-3.9935,47.716],[-3.9922,47.7171],[-3.9924,47.7163],[-3.9935,47.716]],[[-3.9662,47.7123],[-3.9652,47.7141],[-3.9641,47.7137],[-3.9662,47.7123]],[[-3.9555,47.7149],[-3.9544,47.7238],[-3.951,47.722],[-3.9555,47.7149]],[[-3.8032,47.7838],[-3.8012,47.7843],[-3.8006,47.7831],[-3.8032,47.7838]],[[-3.8024,47.771],[-3.801,47.7725],[-3.7996,47.7716],[-3.8024,47.771]],[[-3.4638,47.6199],[-3.5143,47.6479],[-3.4969,47.6533],[-3.4357,47.6444],[-3.4155,47.6316],[-3.4222,47.6197],[-3.4382,47.6285],[-3.4638,47.6199]],[[-3.2642,47.3589],[-3.2632,47.3597],[-3.2631,47.3594],[-3.2642,47.3589]],[[-3.264,47.3518],[-3.2635,47.3519],[-3.2635,47.3518],[-3.264,47.3518]],[[-3.2636,47.3514],[-3.2636,47.3516],[-3.2634,47.3516],[-3.2636,47.3514]],[[-3.2635,47.3511],[-3.2634,47.3513],[-3.2633,47.3512],[-3.2635,47.3511]],[[-3.2634,47.3509],[-3.2631,47.3509],[-3.2633,47.3508],[-3.2634,47.3509]],[[-3.253,47.3486],[-3.2626,47.3518],[-3.2565,47.3683],[-3.263,47.371],[-3.2467,47.3713],[-3.2534,47.3756],[-3.2451,47.3873],[-3.2359,47.3781],[-3.2183,47.3782],[-3.2181,47.363],[-3.2152,47.3732],[-3.1719,47.3593],[-3.1575,47.364],[-3.1475,47.3328],[-3.1399,47.3291],[-3.1019,47.3153],[-3.0681,47.3163],[-3.056,47.3077],[-3.0925,47.2776],[-3.1186,47.2899],[-3.16,47.2917],[-3.1687,47.3012],[-3.2187,47.2925],[-3.2255,47.3039],[-3.2344,47.3007],[-3.2474,47.3113],[-3.2357,47.3259],[-3.2536,47.3353],[-3.253,47.3486]],[[-3.2512,47.3866],[-3.2525,47.3894],[-3.2492,47.3886],[-3.2512,47.3866]],[[-3.2526,47.3899],[-3.252,47.3903],[-3.2518,47.3899],[-3.2526,47.3899]],[[-3.2512,47.3134],[-3.2502,47.3136],[-3.2494,47.3124],[-3.2512,47.3134]],[[-3.2503,47.3895],[-3.2497,47.3898],[-3.2496,47.3895],[-3.2503,47.3895]],[[-3.2481,47.3096],[-3.247,47.3098],[-3.247,47.3094],[-3.2481,47.3096]],[[-3.226,47.2947],[-3.2243,47.2949],[-3.2242,47.2943],[-3.226,47.2947]],[[-3.1993,47.6078],[-3.1986,47.6079],[-3.1986,47.6075],[-3.1993,47.6078]],[[-3.197,47.2925],[-3.1945,47.2926],[-3.1951,47.2913],[-3.197,47.2925]],[[-3.1668,47.5549],[-3.165,47.5559],[-3.1649,47.5544],[-3.1668,47.5549]],[[-3.0447,47.5728],[-3.0448,47.5738],[-3.0445,47.5729],[-3.0447,47.5728]],[[-3.0258,47.4162],[-3.0258,47.417],[-3.0247,47.4167],[-3.0258,47.4162]],[[-3.0187,47.4107],[-3.0115,47.4116],[-3.0162,47.4108],[-3.0187,47.4107]],[[-2.9977,47.3928],[-2.9961,47.3947],[-2.9956,47.394],[-2.9977,47.3928]],[[-2.9984,47.3984],[-2.9966,47.3989],[-2.996,47.3986],[-2.9984,47.3984]],[[-2.9581,47.383],[-2.9947,47.3939],[-2.991,47.4021],[-2.9534,47.3904],[-2.9389,47.3934],[-2.9534,47.3847],[-2.9488,47.3731],[-2.9581,47.383]],[[-2.9729,47.3564],[-2.9688,47.357],[-2.9685,47.3559],[-2.9729,47.3564]],[[-2.9497,47.5277],[-2.9466,47.5289],[-2.9459,47.5285],[-2.9497,47.5277]],[[-2.9377,47.3882],[-2.9378,47.389],[-2.937,47.3888],[-2.9377,47.3882]],[[-2.8817,47.3295],[-2.8908,47.3461],[-2.8742,47.3421],[-2.8636,47.3485],[-2.8606,47.3411],[-2.8817,47.3295]],[[-2.6228,47.4096],[-2.6212,47.4134],[-2.6185,47.4116],[-2.6228,47.4096]],[[-2.3917,46.7097],[-2.3989,46.7261],[-2.382,46.7333],[-2.3471,46.7293],[-2.3401,46.7199],[-2.318,46.7201],[-2.2825,46.6908],[-2.312,46.6959],[-2.3326,46.6861],[-2.368,46.702],[-2.3815,46.6989],[-2.3786,46.7048],[-2.3917,46.7097]],[[-2.3599,47.0417],[-2.3582,47.0427],[-2.3542,47.0385],[-2.3599,47.0417]],[[-2.2902,47.0121],[-2.3067,47.0253],[-2.2603,47.0299],[-2.2247,47.0171],[-2.2172,47.0094],[-2.2186,46.993],[-2.237,46.9912],[-2.2313,46.9898],[-2.2366,46.981],[-2.1565,46.9497],[-2.1477,46.9334],[-2.155,46.9074],[-2.1492,46.895],[-2.1647,46.9069],[-2.1759,46.9328],[-2.2077,46.9585],[-2.2282,46.966],[-2.2639,46.9611],[-2.2999,46.9918],[-2.2902,47.0121]],[[-2.2367,47.1459],[-2.2357,47.1472],[-2.2351,47.1458],[-2.2367,47.1459]],[[-1.5349,46.2024],[-1.5607,46.2446],[-1.5394,46.2432],[-1.5128,46.2573],[-1.4981,46.2569],[-1.4741,46.2327],[-1.4883,46.227],[-1.5023,46.2355],[-1.5025,46.24],[-1.521,46.2293],[-1.5017,46.204],[-1.4851,46.2037],[-1.4793,46.2144],[-1.4705,46.2111],[-1.4659,46.2225],[-1.4549,46.2206],[-1.4587,46.2278],[-1.4136,46.23],[-1.4186,46.2183],[-1.4372,46.2174],[-1.4401,46.2085],[-1.4133,46.2002],[-1.3661,46.2086],[-1.3236,46.188],[-1.2927,46.1873],[-1.2736,46.1592],[-1.2516,46.1624],[-1.2789,46.1436],[-1.3095,46.1425],[-1.4621,46.2018],[-1.505,46.1932],[-1.5349,46.2024]],[[-1.5175,46.2274],[-1.5145,46.229],[-1.5166,46.2272],[-1.5175,46.2274]],[[-1.5097,46.2298],[-1.5051,46.2319],[-1.5048,46.2266],[-1.5097,46.2298]],[[-1.4814,46.2247],[-1.4799,46.2277],[-1.4782,46.2276],[-1.4814,46.2247]],[[-1.413,46.2024],[-1.4181,46.2039],[-1.4102,46.2035],[-1.4102,46.2032],[-1.413,46.2024]],[[-1.3787,46.3425],[-1.3787,46.3437],[-1.3777,46.3433],[-1.3787,46.3425]],[[-1.3774,46.3442],[-1.377,46.3451],[-1.3763,46.3446],[-1.3774,46.3442]],[[-1.3737,46.3443],[-1.3715,46.3447],[-1.3704,46.3445],[-1.3737,46.3443]],[[-1.366,46.344],[-1.3623,46.344],[-1.3612,46.3433],[-1.366,46.344]],[[-1.341,46.2026],[-1.34,46.2032],[-1.3399,46.2028],[-1.341,46.2026]],[[-1.328,46.1956],[-1.327,46.1973],[-1.3265,46.1966],[-1.328,46.1956]],[[-1.2929,46.2978],[-1.2903,46.2979],[-1.2902,46.2975],[-1.2929,46.2978]],[[-1.2844,46.292],[-1.2828,46.2926],[-1.2817,46.2917],[-1.2844,46.292]],[[-1.2785,46.2924],[-1.2759,46.2932],[-1.2754,46.2924],[-1.2785,46.2924]],[[-1.1717,46.0113],[-1.1783,46.0102],[-1.1747,46.0237],[-1.1533,46.0187],[-1.1707,46.0189],[-1.1717,46.0113]],[[-1.1167,45.9517],[-1.1209,45.9608],[-1.1136,45.9615],[-1.1057,45.9537],[-1.1167,45.9517]],[[-0.7302,45.2208],[-0.7284,45.2233],[-0.7298,45.2207],[-0.7302,45.2208]],[[-0.7121,45.1872],[-0.7179,45.2036],[-0.712,45.216],[-0.7056,45.2128],[-0.7013,45.1764],[-0.7121,45.1872]],[[-0.7039,45.1533],[-0.7146,45.1802],[-0.7079,45.1718],[-0.7001,45.1473],[-0.7039,45.1533]],[[-0.6924,45.1574],[-0.692,45.1836],[-0.679,45.1266],[-0.6924,45.1574]],[[-0.6764,45.1122],[-0.6768,45.1181],[-0.6755,45.1121],[-0.6764,45.1122]],[[-0.6737,45.0803],[-0.68,45.0963],[-0.5912,45.011],[-0.6361,45.0397],[-0.6434,45.051],[-0.6358,45.0497],[-0.6737,45.0803]],[[-0.651,45.0497],[-0.6478,45.052],[-0.6439,45.0457],[-0.651,45.0497]]]}}
