{"type":"Feature","properties":{"mrgid":24506,"name":"Moray-Firth","placeType":"Historical fishing areas","source":"Visgronden:visgronden"},"geometry":{"type":"MultiPolygon","coordinates":[[[[-4.4763,57.4716],[-4.4342,57.4817],[-4.4104,57.4959],[-4.3792,57.4793],[-4.31,57.4792],[-4.244,57.4955],[-4.2096,57.4961],[-4.1891,57.4854],[-4.151,57.503],[-4.1492,57.5195],[-4.1299,57.5146],[-4.0412,57.5622],[-4.0413,57.5696],[-4.0606,57.5821],[-4.08,57.5822],[-4.0625,57.5908],[-4.019,57.5918],[-4.0119,57.5973],[-4.0151,57.6039],[-3.9711,57.5863],[-3.9512,57.5881],[-4.0053,57.6023],[-3.9317,57.5855],[-3.8676,57.59],[-3.8304,57.5973],[-3.7696,57.6279],[-3.803,57.6206],[-3.8236,57.6102],[-3.8042,57.6223],[-3.7221,57.6446],[-3.7559,57.6311],[-3.7458,57.6304],[-3.6902,57.6567],[-3.718,57.6525],[-3.704,57.6564],[-3.6778,57.6596],[-3.6243,57.6602],[-3.6261,57.6442],[-3.6422,57.6419],[-3.6464,57.6331],[-3.6382,57.6412],[-3.6339,57.631],[-3.626,57.6364],[-3.5908,57.6312],[-3.584,57.6459],[-3.625,57.6628],[-3.5309,57.6644],[-3.4965,57.68],[-3.4887,57.6976],[-3.497,57.7059],[-3.4558,57.7044],[-3.3417,57.7259],[-3.2773,57.7258],[-3.259,57.7128],[-3.2047,57.6959],[-3.0336,57.6647],[-2.8581,57.7077],[-2.8283,57.6935],[-2.7918,57.7001],[-2.7575,57.6942],[-2.7453,57.683],[-2.7158,57.6939],[-2.6837,57.6864],[-2.6685,57.6926],[-2.6397,57.6817],[-2.5731,57.6816],[-2.561,57.673],[-2.5189,57.6716],[-2.5114,57.6652],[-2.499,57.6744],[-2.3446,57.6702],[-2.3205,57.6778],[-2.3264,57.6869],[-2.3034,57.6944],[-2.2592,57.68],[-2.1839,57.672],[-2.1185,57.7027],[-2.0471,57.6927],[-2.0025,57.6986],[-1.9986,57.6844],[-1.9772,57.6765],[-1.9402,57.6801],[-1.9202,57.6736],[-1.8884,57.6369],[-1.8258,57.6144],[-1.8281,57.572],[-1.8045,57.5563],[-1.8061,57.5303],[-1.7977,57.5179],[-1.8048,57.5165],[-1.7742,57.5107],[-1.767716,57.500053],[-1.051625,57.500001],[-1.051825,57.540052],[-1.060193,57.565156],[-1.129926,57.567945],[-1.127137,57.595838],[-1.037879,57.623731],[-1.021143,57.643256],[-1.03509,57.66836],[-1.099244,57.699042],[-1.15224,57.710199],[-1.205237,57.74646],[-1.23313,57.768775],[-1.244287,57.796668],[-1.263812,57.818982],[-1.394909,57.802246],[-1.425592,57.821771],[-1.43117,57.844086],[-1.400488,57.852454],[-1.322388,57.855243],[-1.258234,57.871979],[-1.277759,57.897082],[-1.486956,57.916607],[-1.539953,57.90545],[-1.559478,57.888714],[-1.545532,57.869189],[-1.506481,57.841296],[-1.626421,57.841296],[-1.698943,57.902661],[-1.754729,57.930554],[-1.79099,57.933343],[-1.79099,57.955658],[-1.818883,57.969604],[-1.87188,57.972393],[-1.885826,57.991919],[-1.796569,58.003076],[-1.715679,57.969604],[-1.662682,57.958447],[-1.467431,57.952868],[-1.408856,57.958447],[-1.358648,57.972393],[-1.341913,58.028179],[-1.425592,58.053283],[-1.47022,58.095123],[-1.506481,58.109069],[-1.718468,58.103491],[-1.74915,58.114648],[-1.765886,58.125805],[-1.777043,58.150909],[-1.768676,58.18717],[-2.03087,58.270849],[-2.053184,58.298742],[-2.061552,58.329424],[-2.058763,58.427049],[-2.044816,58.449364],[-1.930455,58.521886],[-1.799358,58.580461],[-1.782622,58.611143],[-1.743572,58.650193],[-1.7101,58.809183],[-1.684997,58.834287],[-1.684997,58.859391],[-1.645946,58.90402],[-1.645946,58.923545],[-1.715679,58.968173],[-1.741344,58.996405],[-2.911629,58.996217],[-2.9098,58.99],[-2.8897,58.9951],[-2.8882,58.9893],[-2.9175,58.9834],[-2.9182,58.9672],[-2.8887,58.961],[-2.8792,58.9709],[-2.8697,58.9688],[-2.859,58.9855],[-2.8213,58.982],[-2.7998,58.9907],[-2.7952,58.9655],[-2.8482,58.9578],[-2.8304,58.9471],[-2.8287,58.935],[-2.8383,58.9261],[-2.8286,58.9216],[-2.8204,58.9294],[-2.8026,58.9297],[-2.8074,58.9238],[-2.7881,58.9163],[-2.7813,58.9271],[-2.7936,58.9278],[-2.7901,58.942],[-2.8137,58.9438],[-2.7959,58.9518],[-2.7096,58.9728],[-2.7078,58.9483],[-2.7204,58.9393],[-2.7126,58.9212],[-2.7424,58.924],[-2.7618,58.9137],[-2.7894,58.9133],[-2.8028,58.8966],[-2.8237,58.8879],[-2.8205,58.8761],[-2.8312,58.8729],[-2.8481,58.8888],[-2.8824,58.8998],[-2.9291,58.8908],[-2.9321,58.9029],[-2.9731,58.9412],[-2.9685,58.9603],[-2.9761,58.9625],[-3.0244,58.94],[-3.0835,58.9423],[-3.0769,58.9313],[-3.104678,58.9325],[-3.109735,58.844522],[-3.0626,58.8454],[-3.1091,58.8318],[-3.0776,58.8286],[-3.0841,58.825],[-3.0813,58.8139],[-3.1079,58.8197],[-3.111523,58.813411],[-3.112286,58.800131],[-3.0939,58.8033],[-3.112433,58.797576],[-3.117859,58.703163],[-3.1001,58.6842],[-3.1046,58.6715],[-3.119718,58.670801],[-3.121344,58.642526],[-3.0528,58.6484],[-3.0252,58.6435],[-3.0388,58.6289],[-3.0365,58.6087],[-3.0435,58.5967],[-3.0714,58.5918],[-3.061,58.5802],[-3.0681,58.5629],[-3.1328,58.5167],[-3.1347,58.4993],[-3.1185,58.4787],[-3.0904,58.4739],[-3.0465,58.4793],[-3.0538,58.4591],[-3.0489,58.4499],[-3.0586,58.4416],[-3.0825,58.441],[-3.0678,58.4297],[-3.1032,58.3934],[-3.1094,58.3698],[-3.1837,58.3322],[-3.2214,58.3043],[-3.2903,58.2953],[-3.3812,58.2698],[-3.4134,58.2462],[-3.4278,58.2444],[-3.5133,58.1692],[-3.6572,58.1137],[-3.6729,58.1011],[-3.6899,58.1005],[-3.7451,58.0681],[-3.8038,58.057],[-3.8327,58.0377],[-3.8404,58.0105],[-3.8917,57.9878],[-3.9841,57.9703],[-4.0044,57.9349],[-4.0304,57.9349],[-4.0137,57.9496],[-4.0488,57.9444],[-4.0559,57.9531],[-4.0825,57.9527],[-4.0714,57.9379],[-4.0027,57.9289],[-3.9921,57.9048],[-4.0142,57.889],[-4.0121,57.8591],[-4.0356,57.8681],[-4.0755,57.8664],[-4.1099,57.8494],[-4.1497,57.8571],[-4.1344,57.858],[-4.135,57.8688],[-4.1481,57.8598],[-4.1726,57.86],[-4.1771,57.8695],[-4.2342,57.8742],[-4.2913,57.8609],[-4.3474,57.8905],[-4.3561,57.8868],[-4.3441,57.873],[-4.2933,57.8543],[-4.2707,57.8514],[-4.1953,57.8638],[-4.1888,57.8502],[-4.1809,57.8545],[-4.1644,57.8339],[-4.1183,57.8299],[-4.1356,57.844],[-4.048,57.8151],[-3.9651,57.8453],[-3.9122,57.8309],[-3.9549,57.8145],[-3.9502,57.812],[-3.9105,57.823],[-3.8592,57.8245],[-3.8284,57.8361],[-3.8112,57.86],[-3.7731,57.8659],[-3.7931,57.8369],[-3.8732,57.7757],[-3.9184,57.7518],[-3.9336,57.7272],[-3.9774,57.6932],[-4.0378,57.6937],[-4.0262,57.7192],[-4.0103,57.7298],[-4.0123,57.7404],[-4.1071,57.7198],[-4.1451,57.6974],[-4.1387,57.6881],[-4.1471,57.6961],[-4.1722,57.6839],[-4.2006,57.6911],[-4.2354,57.6887],[-4.2445,57.6847],[-4.2404,57.6787],[-4.2817,57.684],[-4.2999,57.6753],[-4.3032,57.6572],[-4.335,57.6509],[-4.4112,57.6075],[-4.4092,57.5914],[-4.4308,57.5758],[-4.3853,57.5909],[-4.3315,57.6286],[-4.222,57.6715],[-4.1675,57.6745],[-4.1657,57.6567],[-4.0892,57.6645],[-4.0394,57.6835],[-3.9946,57.6768],[-4.106,57.6079],[-4.1134,57.588],[-4.0918,57.5723],[-4.1351,57.5788],[-4.1774,57.5633],[-4.1895,57.5464],[-4.2497,57.55],[-4.1957,57.5393],[-4.2356,57.5019],[-4.3852,57.5103],[-4.4323,57.4969],[-4.4279,57.4927],[-4.4381,57.4835],[-4.4545,57.4853],[-4.4509,57.4778],[-4.4595,57.4807],[-4.4763,57.4716]],[[-3.249,58.2973],[-3.2484,58.2972],[-3.2493,58.2962],[-3.249,58.2973]],[[-3.0846,58.4098],[-3.0846,58.4093],[-3.0868,58.4086],[-3.0846,58.4098]],[[-3.0733,58.8546],[-3.0685,58.853],[-3.0834,58.8517],[-3.0733,58.8546]],[[-3.0727,58.735],[-3.0637,58.7378],[-3.0499,58.7526],[-3.0526,58.738],[-3.0727,58.735]],[[-3.0336,58.6305],[-3.0352,58.6304],[-3.0358,58.6316],[-3.0336,58.6305]],[[-3.0355,58.8231],[-3.0105,58.8334],[-2.958,58.8277],[-2.9041,58.8376],[-2.8864,58.8339],[-2.888,58.8253],[-2.8765,58.8205],[-2.9016,58.8172],[-2.9275,58.794],[-2.9197,58.7845],[-2.937,58.7654],[-2.9091,58.7545],[-2.9143,58.7339],[-2.9617,58.7289],[-2.9657,58.7398],[-2.9793,58.7414],[-2.9923,58.7542],[-2.978,58.7621],[-2.98,58.7827],[-3.014,58.7974],[-3.0205,58.8088],[-3.0095,58.8141],[-2.9916,58.8028],[-2.9805,58.8062],[-2.9779,58.8177],[-2.99,58.8134],[-3.0052,58.8265],[-3.0292,58.8161],[-3.0355,58.8231]],[[-2.9873,58.8541],[-2.9365,58.8609],[-2.91,58.8525],[-2.9092,58.8692],[-2.8836,58.8741],[-2.8845,58.8529],[-2.8597,58.8517],[-2.8919,58.8412],[-2.931,58.842],[-2.9701,58.8537],[-2.9827,58.8482],[-2.9873,58.8541]],[[-2.9356,58.6948],[-2.921,58.6965],[-2.9194,58.6935],[-2.929,58.6913],[-2.9356,58.6948]],[[-2.918,58.8782],[-2.9108,58.8784],[-2.9176,58.8737],[-2.918,58.8782]],[[-2.9131,58.6785],[-2.9119,58.678],[-2.914,58.677],[-2.9131,58.6785]],[[-2.8927,58.8897],[-2.8865,58.8888],[-2.8962,58.8847],[-2.8927,58.8897]],[[-2.6945,58.9024],[-2.6936,58.8999],[-2.7027,58.8965],[-2.6945,58.9024]],[[-2.6835,58.8978],[-2.6727,58.9019],[-2.6663,58.8993],[-2.6826,58.8914],[-2.6835,58.8978]]],[[[-3.068577,58.996191],[-3.0671,58.9959],[-3.066578,58.996192],[-3.068577,58.996191]]],[[[-3.0585,58.9956],[-3.0531,58.9949],[-3.053041,58.996194],[-3.0585,58.9956]]],[[[-2.9557,58.985],[-2.945618,58.996211],[-2.968583,58.996208],[-2.9557,58.985]]],[[[-1.788397,57.502743],[-1.772878,57.500654],[-1.7726,57.5026],[-1.7761,57.5011],[-1.788397,57.502743]]]]}}
