{"type":"Feature","properties":{"mrgid":25140,"name":"Montana","placeType":"State","source":"World:usa_states"},"geometry":{"type":"Polygon","coordinates":[[[-116.049193,49.000912],[-116.048822,47.976727],[-116.018729,47.963091],[-115.993678,47.926184],[-115.966879,47.912578],[-115.968486,47.89966],[-115.939993,47.883153],[-115.918773,47.853657],[-115.901401,47.843098],[-115.881575,47.849611],[-115.870862,47.834939],[-115.852291,47.827992],[-115.845107,47.814973],[-115.847488,47.785228],[-115.831768,47.755701],[-115.79727,47.757402],[-115.780442,47.743447],[-115.783504,47.729306],[-115.77622,47.719819],[-115.752349,47.716743],[-115.72263,47.695162],[-115.736271,47.654763],[-115.72993,47.642442],[-115.694285,47.623461],[-115.697992,47.605705],[-115.687551,47.594653],[-115.755863,47.548094],[-115.741371,47.538645],[-115.697565,47.531079],[-115.711002,47.516651],[-115.689703,47.499932],[-115.685515,47.484825],[-115.668299,47.488868],[-115.660562,47.4782],[-115.628695,47.479642],[-115.646384,47.456696],[-115.718247,47.45316],[-115.748032,47.441697],[-115.759348,47.422233],[-115.720698,47.425536],[-115.712022,47.415406],[-115.67877,47.409381],[-115.677339,47.401656],[-115.657682,47.400651],[-115.643888,47.377496],[-115.617248,47.382521],[-115.576876,47.36687],[-115.575417,47.355645],[-115.551093,47.349985],[-115.55131,47.333857],[-115.540205,47.329088],[-115.529361,47.299429],[-115.482305,47.281772],[-115.466607,47.287804],[-115.457078,47.277795],[-115.426637,47.280159],[-115.410686,47.264229],[-115.384489,47.267268],[-115.319889,47.256692],[-115.324818,47.244848],[-115.317125,47.233306],[-115.294785,47.220914],[-115.300504,47.18814],[-115.261912,47.181831],[-115.243707,47.150347],[-115.19887,47.139681],[-115.170436,47.106266],[-115.142651,47.101842],[-115.127035,47.067668],[-115.107132,47.049041],[-115.087807,47.045519],[-115.081233,47.029359],[-115.071447,47.02615],[-115.06765,46.995265],[-115.050126,46.981329],[-115.049674,46.970963],[-115.001274,46.971901],[-114.960597,46.93001],[-114.925143,46.918682],[-114.921856,46.912803],[-114.936806,46.897379],[-114.931608,46.8768],[-114.947413,46.859324],[-114.928616,46.854815],[-114.92046,46.827698],[-114.898936,46.823312],[-114.896127,46.802664],[-114.86527,46.814305],[-114.829118,46.782504],[-114.798643,46.775818],[-114.784971,46.780443],[-114.783383,46.76822],[-114.76506,46.758082],[-114.765127,46.745384],[-114.788597,46.713422],[-114.768537,46.704892],[-114.766891,46.696902],[-114.748024,46.698796],[-114.740116,46.711771],[-114.713045,46.715426],[-114.699008,46.740223],[-114.665329,46.739245],[-114.620859,46.707415],[-114.623199,46.691511],[-114.642714,46.673145],[-114.633051,46.67175],[-114.639855,46.665666],[-114.63564,46.659382],[-114.614717,46.655256],[-114.615037,46.639733],[-114.60527,46.635822],[-114.583404,46.633301],[-114.541812,46.650017],[-114.466903,46.631696],[-114.452487,46.641733],[-114.453239,46.649267],[-114.424774,46.660561],[-114.412356,46.656766],[-114.358057,46.671061],[-114.32175,46.649245],[-114.328119,46.619892],[-114.322594,46.610825],[-114.344231,46.590069],[-114.329763,46.576019],[-114.347946,46.551642],[-114.342859,46.518217],[-114.35874,46.505306],[-114.402841,46.499344],[-114.400069,46.47718],[-114.379339,46.460166],[-114.384351,46.447112],[-114.368478,46.437253],[-114.382576,46.432784],[-114.385809,46.410714],[-114.422459,46.387098],[-114.410044,46.360899],[-114.413759,46.335946],[-114.433478,46.305502],[-114.425587,46.287899],[-114.439492,46.274565],[-114.470479,46.26732],[-114.468255,46.248796],[-114.447746,46.23148],[-114.444016,46.169255],[-114.475544,46.160583],[-114.514706,46.167727],[-114.51414,46.154162],[-114.527155,46.145831],[-114.5175,46.135514],[-114.520953,46.125005],[-114.474327,46.113176],[-114.460049,46.097104],[-114.461865,46.078571],[-114.472313,46.076807],[-114.46853,46.062485],[-114.493476,46.052403],[-114.507633,46.031606],[-114.480242,46.030326],[-114.472978,46.014447],[-114.487848,46.003694],[-114.480257,45.992863],[-114.457924,45.99754],[-114.44824,45.987359],[-114.412007,45.978058],[-114.402291,45.957799],[-114.431159,45.935737],[-114.413169,45.91148],[-114.395059,45.901459],[-114.387675,45.884595],[-114.396512,45.871128],[-114.405759,45.870394],[-114.409643,45.851538],[-114.437663,45.86262],[-114.475524,45.846464],[-114.487203,45.851616],[-114.509304,45.845531],[-114.517144,45.835994],[-114.511519,45.82963],[-114.530872,45.819009],[-114.54389,45.790293],[-114.566172,45.773864],[-114.544737,45.759335],[-114.547763,45.74331],[-114.50487,45.722177],[-114.495421,45.703322],[-114.515183,45.684969],[-114.499053,45.679297],[-114.507755,45.657627],[-114.563652,45.637412],[-114.538133,45.606834],[-114.558254,45.585105],[-114.55302,45.576914],[-114.564839,45.557731],[-114.526076,45.570772],[-114.498177,45.555474],[-114.471805,45.565121],[-114.456155,45.562129],[-114.463999,45.545466],[-114.430121,45.529309],[-114.426557,45.511679],[-114.36852,45.492716],[-114.35922,45.472616],[-114.333219,45.459317],[-114.270617,45.484817],[-114.248989,45.520636],[-114.248122,45.545877],[-114.192803,45.536596],[-114.180043,45.551433],[-114.13525,45.557465],[-114.122322,45.58426],[-114.086585,45.591181],[-114.08179,45.61133],[-114.06762,45.627707],[-114.014974,45.654008],[-114.028227,45.675366],[-114.014644,45.684039],[-114.015633,45.696127],[-113.996642,45.696853],[-113.98814,45.705884],[-113.970654,45.702823],[-113.963668,45.689825],[-113.934866,45.694261],[-113.931011,45.671956],[-113.895336,45.64409],[-113.904685,45.622154],[-113.886006,45.61702],[-113.861405,45.62366],[-113.80673,45.602147],[-113.796661,45.581621],[-113.821438,45.565974],[-113.817413,45.556803],[-113.834648,45.520652],[-113.766023,45.520622],[-113.772806,45.513293],[-113.75983,45.480308],[-113.776235,45.470775],[-113.774287,45.463471],[-113.78416,45.454947],[-113.774324,45.446415],[-113.776078,45.434067],[-113.759536,45.427147],[-113.777252,45.416355],[-113.775874,45.408054],[-113.749267,45.402967],[-113.733092,45.390173],[-113.738842,45.368203],[-113.728885,45.356172],[-113.7402,45.34559],[-113.73873,45.329741],[-113.680314,45.279192],[-113.691956,45.272572],[-113.691985,45.262953],[-113.654033,45.238842],[-113.63689,45.212984],[-113.592521,45.18469],[-113.589681,45.15536],[-113.56598,45.149335],[-113.577009,45.132625],[-113.571682,45.123895],[-113.554745,45.112901],[-113.513343,45.115225],[-113.506638,45.107289],[-113.520134,45.093034],[-113.487098,45.074652],[-113.485278,45.063519],[-113.451972,45.059247],[-113.449121,45.046098],[-113.455715,45.039686],[-113.44622,45.033857],[-113.448723,45.020422],[-113.437778,45.007709],[-113.446884,44.998546],[-113.443827,44.9593],[-113.498692,44.942382],[-113.489764,44.921896],[-113.47179,44.909891],[-113.478482,44.895453],[-113.461084,44.886743],[-113.45498,44.865244],[-113.428883,44.854876],[-113.421952,44.837599],[-113.377154,44.834858],[-113.356062,44.819799],[-113.3461,44.800612],[-113.354034,44.791746],[-113.341276,44.784665],[-113.246895,44.822974],[-113.23873,44.814145],[-113.193119,44.801656],[-113.163807,44.778921],[-113.131453,44.772838],[-113.134825,44.752764],[-113.121019,44.746618],[-113.116624,44.731971],[-113.102075,44.729448],[-113.097946,44.697759],[-113.067586,44.679748],[-113.067997,44.656586],[-113.048804,44.628968],[-113.08785,44.599241],[-113.036747,44.564011],[-113.045502,44.543934],[-113.00703,44.525872],[-113.027147,44.495715],[-113.006546,44.471315],[-113.003545,44.450814],[-112.970301,44.426933],[-112.953028,44.42416],[-112.951147,44.4167],[-112.901228,44.398684],[-112.884668,44.402107],[-112.881769,44.380315],[-112.855396,44.359976],[-112.84486,44.358222],[-112.812735,44.377182],[-112.813273,44.398174],[-112.840521,44.42527],[-112.781294,44.484888],[-112.741988,44.488296],[-112.735085,44.499159],[-112.717931,44.504274],[-112.660696,44.485756],[-112.6327,44.491228],[-112.624756,44.483123],[-112.601864,44.491016],[-112.577707,44.480127],[-112.541989,44.483972],[-112.500311,44.463051],[-112.473208,44.480028],[-112.455509,44.466772],[-112.442475,44.466828],[-112.433743,44.454686],[-112.407237,44.457465],[-112.386896,44.447635],[-112.366438,44.467359],[-112.358926,44.48628],[-112.358918,44.528848],[-112.35251,44.538022],[-112.319198,44.53911],[-112.312899,44.553536],[-112.286188,44.568473],[-112.242786,44.568091],[-112.228895,44.564002],[-112.229476,44.549494],[-112.221698,44.543519],[-112.180232,44.532852],[-112.164598,44.541666],[-112.136454,44.539912],[-112.105764,44.520717],[-112.068998,44.537108],[-112.032799,44.528404],[-112.032707,44.546643],[-111.978786,44.535891],[-111.94794,44.556776],[-111.869217,44.565295],[-111.842541,44.526069],[-111.821487,44.509286],[-111.807914,44.511716],[-111.803942,44.525197],[-111.761453,44.526848],[-111.746402,44.540767],[-111.715474,44.543544],[-111.704218,44.560205],[-111.614406,44.548991],[-111.585764,44.562843],[-111.546638,44.557099],[-111.51425,44.536465],[-111.467952,44.538868],[-111.46932,44.557554],[-111.478653,44.553396],[-111.509143,44.563195],[-111.501244,44.572173],[-111.519127,44.582917],[-111.52478,44.597768],[-111.518955,44.602306],[-111.525524,44.605138],[-111.504241,44.629603],[-111.516589,44.643708],[-111.500794,44.648538],[-111.489526,44.642433],[-111.487677,44.654113],[-111.473179,44.665479],[-111.476803,44.673833],[-111.468834,44.679336],[-111.484898,44.687579],[-111.488373,44.7061],[-111.438794,44.720547],[-111.414272,44.710741],[-111.398576,44.723343],[-111.397806,44.746739],[-111.385995,44.755136],[-111.352978,44.726178],[-111.337114,44.733204],[-111.323627,44.729072],[-111.322556,44.718729],[-111.296261,44.702271],[-111.297005,44.691441],[-111.266348,44.666534],[-111.278119,44.651016],[-111.252681,44.651092],[-111.219237,44.622616],[-111.242281,44.613418],[-111.227996,44.576675],[-111.180773,44.569039],[-111.177046,44.550937],[-111.15959,44.546376],[-111.151342,44.534899],[-111.131836,44.532522],[-111.139455,44.517112],[-111.122654,44.49366],[-111.048975,44.474072],[-111.055199,45.001322],[-110.785009,45.002952],[-110.705273,44.992324],[-110.625763,44.992109],[-110.402927,44.993811],[-110.362699,45.000594],[-110.199504,44.996188],[-110.110104,45.003906],[-109.103445,45.005904],[-109.080644,44.999438],[-107.351442,45.001408],[-106.250587,44.993689],[-105.928185,44.993647],[-105.90956,45.00095],[-104.040303,44.997771],[-104.048737,48.999878],[-116.049193,49.000912]]]}}
