{"type":"Feature","properties":{"mrgid":25142,"name":"Nevada","placeType":"State","source":"World:usa_states"},"geometry":{"type":"Polygon","coordinates":[[[-114.774945,42.00041],[-119.999168,41.994541],[-119.996193,40.249939],[-120.003781,39.124908],[-120.001015,38.999574],[-118.714313,38.102185],[-117.498548,37.219207],[-116.541983,36.499952],[-115.852908,35.96966],[-114.633013,35.002086],[-114.634753,35.033729],[-114.602909,35.068589],[-114.613132,35.083097],[-114.646759,35.101873],[-114.628428,35.118944],[-114.578525,35.128751],[-114.569239,35.18348],[-114.579963,35.209641],[-114.604315,35.353584],[-114.627138,35.409504],[-114.663116,35.445917],[-114.678958,35.497319],[-114.677206,35.513492],[-114.656905,35.534392],[-114.663406,35.564691],[-114.675506,35.579991],[-114.659606,35.58749],[-114.653406,35.61079],[-114.689408,35.651089],[-114.680608,35.685488],[-114.705409,35.708287],[-114.694409,35.756887],[-114.70141,35.769086],[-114.69891,35.790186],[-114.712111,35.806185],[-114.695811,35.829585],[-114.704611,35.851685],[-114.661711,35.871384],[-114.700272,35.901772],[-114.708517,35.912313],[-114.707526,35.928061],[-114.731159,35.943916],[-114.728318,35.95629],[-114.743576,35.983721],[-114.74304,36.008646],[-114.721861,36.031403],[-114.743883,36.04022],[-114.735462,36.056681],[-114.755618,36.087166],[-114.736166,36.104367],[-114.665417,36.116705],[-114.630884,36.142483],[-114.616694,36.130101],[-114.572032,36.15161],[-114.513257,36.151217],[-114.50171,36.143378],[-114.507885,36.128144],[-114.463637,36.139696],[-114.446606,36.12597],[-114.405475,36.147372],[-114.372106,36.143115],[-114.308431,36.082443],[-114.315557,36.059495],[-114.273157,36.046402],[-114.266721,36.029239],[-114.251906,36.01981],[-114.23329,36.014289],[-114.176824,36.027651],[-114.15413,36.023862],[-114.138202,36.041284],[-114.136896,36.059467],[-114.114532,36.095218],[-114.123144,36.111576],[-114.099871,36.121655],[-114.068028,36.180663],[-114.046838,36.194069],[-114.052999,37.556061],[-114.041508,41.991731],[-114.774945,42.00041]]]}}
