{"type":"Feature","properties":{"mrgid":25220,"name":"French part of the Celtic Sea","placeType":"Marine Region","source":"MarineRegions:eez_iho"},"geometry":{"type":"Polygon","coordinates":[[[-4.570935,48.641318],[-5.072833,49.265705],[-5.345889,49.215667],[-5.697833,49.199],[-9.443487,48.145687],[-5.483329,46.500566],[-4.355849,47.791776],[-4.380934,47.794033],[-4.382618,47.803319],[-4.373443,47.810774],[-4.390943,47.809695],[-4.368017,47.828802],[-4.349737,47.830235],[-4.346363,47.835034],[-4.356232,47.836619],[-4.345951,47.838845],[-4.363168,47.889364],[-4.387669,47.926364],[-4.451271,47.981006],[-4.536943,48.011392],[-4.532143,48.020565],[-4.534073,48.031669],[-4.530489,48.035596],[-4.494933,48.039483],[-4.530008,48.036998],[-4.534399,48.032835],[-4.537294,48.023185],[-4.534893,48.017361],[-4.540655,48.010053],[-4.555156,48.009082],[-4.558661,47.99901],[-4.567073,47.998084],[-4.593618,48.005369],[-4.596794,48.0142],[-4.623553,48.017319],[-4.633073,48.029197],[-4.652268,48.020986],[-4.697001,48.025164],[-4.741322,48.040108],[-4.706311,48.045899],[-4.716069,48.065412],[-4.672706,48.061675],[-4.665448,48.0731],[-4.621373,48.069036],[-4.575396,48.0831],[-4.547506,48.077609],[-4.536515,48.089914],[-4.501727,48.093214],[-4.489019,48.087391],[-4.476744,48.097201],[-4.433455,48.097095],[-4.417468,48.107422],[-4.363041,48.109882],[-4.337114,48.095667],[-4.327249,48.100002],[-4.304062,48.089663],[-4.285988,48.104982],[-4.280623,48.1184],[-4.286151,48.126112],[-4.270319,48.133724],[-4.272843,48.153122],[-4.296347,48.158435],[-4.294854,48.183442],[-4.316748,48.203509],[-4.370007,48.204987],[-4.378409,48.218477],[-4.393054,48.216245],[-4.427472,48.22872],[-4.439075,48.224087],[-4.425665,48.23622],[-4.428908,48.237641],[-4.433721,48.230578],[-4.46375,48.238948],[-4.499305,48.231817],[-4.503809,48.225291],[-4.493005,48.22626],[-4.493544,48.219928],[-4.510175,48.210836],[-4.518555,48.191226],[-4.53952,48.180475],[-4.539458,48.169764],[-4.560478,48.169337],[-4.551492,48.181525],[-4.552843,48.209312],[-4.561727,48.229854],[-4.574906,48.235477],[-4.544118,48.240928],[-4.54529,48.25016],[-4.557903,48.258184],[-4.596751,48.25177],[-4.612255,48.261367],[-4.622839,48.251984],[-4.616797,48.275288],[-4.628887,48.281115],[-4.601162,48.287923],[-4.589666,48.281411],[-4.593189,48.275336],[-4.570313,48.282645],[-4.574294,48.312873],[-4.584048,48.319294],[-4.555869,48.338561],[-4.533402,48.341771],[-4.555556,48.301647],[-4.54921,48.292998],[-4.538157,48.293951],[-4.535784,48.285097],[-4.508211,48.310822],[-4.495063,48.306934],[-4.514719,48.294463],[-4.504628,48.286706],[-4.50998,48.280978],[-4.452253,48.297161],[-4.447144,48.291363],[-4.419192,48.293496],[-4.41778,48.280846],[-4.408975,48.275978],[-4.384421,48.27542],[-4.308886,48.297225],[-4.280631,48.297125],[-4.262005,48.292585],[-4.265829,48.283718],[-4.283963,48.287482],[-4.286299,48.274006],[-4.260323,48.266667],[-4.244116,48.250768],[-4.21728,48.258673],[-4.210641,48.243304],[-4.15455,48.244949],[-4.138077,48.236719],[-4.153187,48.247022],[-4.205567,48.249192],[-4.216547,48.260595],[-4.240581,48.253435],[-4.25203,48.267272],[-4.278984,48.277553],[-4.279382,48.285227],[-4.265094,48.279326],[-4.241263,48.291921],[-4.192391,48.296403],[-4.238911,48.29833],[-4.2376,48.310506],[-4.243826,48.309248],[-4.248329,48.298426],[-4.282689,48.312928],[-4.248745,48.326359],[-4.277061,48.320237],[-4.293041,48.310866],[-4.339486,48.31197],[-4.318073,48.323288],[-4.322982,48.32742],[-4.303304,48.330125],[-4.321154,48.334617],[-4.284769,48.34269],[-4.291616,48.350715],[-4.26294,48.357878],[-4.301703,48.354864],[-4.298108,48.344636],[-4.329994,48.338197],[-4.325128,48.355435],[-4.355182,48.342333],[-4.348081,48.352718],[-4.366213,48.344159],[-4.378542,48.325086],[-4.416925,48.323913],[-4.39803,48.341553],[-4.45933,48.326672],[-4.439069,48.341986],[-4.444929,48.349608],[-4.436844,48.360993],[-4.407201,48.381299],[-4.311198,48.417228],[-4.290599,48.434493],[-4.346846,48.405897],[-4.359885,48.40899],[-4.401293,48.389546],[-4.430603,48.397372],[-4.43543,48.382737],[-4.496,48.37974],[-4.533266,48.357978],[-4.553,48.361276],[-4.608189,48.337582],[-4.628981,48.336525],[-4.68006,48.355804],[-4.700563,48.349853],[-4.69677,48.336672],[-4.709962,48.329808],[-4.774107,48.329951],[-4.770462,48.347304],[-4.780558,48.359045],[-4.76003,48.362224],[-4.76686,48.363281],[-4.788709,48.361632],[-4.788294,48.370105],[-4.768773,48.365353],[-4.762726,48.382422],[-4.777183,48.390639],[-4.774221,48.404963],[-4.78479,48.404351],[-4.796088,48.415174],[-4.772099,48.463673],[-4.746479,48.471444],[-4.751287,48.472867],[-4.760723,48.47028],[-4.778792,48.484497],[-4.771731,48.485494],[-4.781047,48.496349],[-4.778612,48.505208],[-4.767133,48.51016],[-4.783702,48.517104],[-4.75935,48.520833],[-4.766873,48.52942],[-4.749663,48.535011],[-4.75405,48.54407],[-4.722519,48.559939],[-4.704483,48.551996],[-4.700873,48.556194],[-4.708481,48.56305],[-4.701709,48.56573],[-4.708785,48.56925],[-4.690455,48.570794],[-4.694839,48.576311],[-4.680056,48.568153],[-4.670967,48.576697],[-4.656549,48.571738],[-4.628166,48.57945],[-4.595153,48.570731],[-4.59195,48.554132],[-4.580422,48.560475],[-4.523616,48.554658],[-4.538973,48.559766],[-4.586678,48.561666],[-4.594051,48.573936],[-4.610638,48.575016],[-4.603687,48.584693],[-4.608057,48.60441],[-4.598052,48.608795],[-4.585392,48.602816],[-4.593448,48.594479],[-4.542639,48.598994],[-4.520461,48.585828],[-4.501889,48.587075],[-4.482723,48.57311],[-4.500608,48.588977],[-4.518851,48.58837],[-4.521936,48.593555],[-4.542914,48.601539],[-4.563096,48.602316],[-4.555663,48.609897],[-4.573217,48.605384],[-4.574908,48.611485],[-4.568232,48.608407],[-4.564123,48.615609],[-4.577214,48.615015],[-4.572351,48.624894],[-4.56269,48.620673],[-4.570935,48.641318]],[[-4.573787,48.633519],[-4.574406,48.635625],[-4.571239,48.63482],[-4.573787,48.633519]],[[-4.578867,48.630116],[-4.582627,48.630214],[-4.582459,48.631265],[-4.578867,48.630116]],[[-4.596782,48.625237],[-4.595787,48.627002],[-4.591248,48.625684],[-4.596782,48.625237]],[[-4.605178,48.61434],[-4.604935,48.615015],[-4.602017,48.613687],[-4.605178,48.61434]],[[-4.580484,48.61262],[-4.581249,48.613459],[-4.578163,48.614364],[-4.580484,48.61262]],[[-4.617566,48.60983],[-4.619021,48.607468],[-4.621411,48.60831],[-4.617566,48.60983]],[[-4.612667,48.609195],[-4.613507,48.610668],[-4.611732,48.610947],[-4.612667,48.609195]],[[-4.638481,48.600055],[-4.638742,48.603281],[-4.631395,48.600529],[-4.638481,48.600055]],[[-4.61347,48.601747],[-4.613202,48.597734],[-4.61518,48.598283],[-4.61347,48.601747]],[[-4.612016,48.600922],[-4.610456,48.602041],[-4.609911,48.60003],[-4.612016,48.600922]],[[-4.619662,48.601773],[-4.617455,48.597787],[-4.624561,48.600623],[-4.619662,48.601773]],[[-4.615633,48.596056],[-4.616851,48.596689],[-4.61431,48.597098],[-4.615633,48.596056]],[[-4.614083,48.593611],[-4.611428,48.593624],[-4.613543,48.591547],[-4.614083,48.593611]],[[-4.642615,48.589273],[-4.642101,48.591267],[-4.639412,48.5894],[-4.642615,48.589273]],[[-4.61458,48.584481],[-4.620242,48.584863],[-4.619865,48.586449],[-4.61458,48.584481]],[[-4.667094,48.584353],[-4.671472,48.581499],[-4.672267,48.584129],[-4.667094,48.584353]],[[-4.66305,48.579823],[-4.664101,48.577878],[-4.666246,48.579414],[-4.66305,48.579823]],[[-4.673323,48.577876],[-4.673528,48.577512],[-4.677215,48.5783],[-4.673323,48.577876]],[[-4.679819,48.578742],[-4.683119,48.580596],[-4.682473,48.581523],[-4.679819,48.578742]],[[-4.704154,48.574924],[-4.699792,48.576655],[-4.700048,48.574655],[-4.704154,48.574924]],[[-4.719537,48.565368],[-4.727397,48.563688],[-4.729853,48.564831],[-4.719537,48.565368]],[[-4.708233,48.562083],[-4.707352,48.559454],[-4.708655,48.559328],[-4.708233,48.562083]],[[-4.772345,48.527659],[-4.777657,48.526136],[-4.778031,48.53011],[-4.772345,48.527659]],[[-5.073801,48.484318],[-5.049966,48.478418],[-5.054962,48.466293],[-5.031414,48.462011],[-5.049491,48.458647],[-5.057031,48.448469],[-5.079413,48.450404],[-5.08832,48.437278],[-5.105405,48.435225],[-5.121611,48.437648],[-5.092594,48.450121],[-5.099621,48.455901],[-5.143675,48.449051],[-5.132644,48.460303],[-5.107461,48.466345],[-5.106087,48.473635],[-5.076808,48.474367],[-5.073801,48.484318]],[[-5.034842,48.458521],[-5.033235,48.457386],[-5.035747,48.456169],[-5.034842,48.458521]],[[-4.799404,48.440881],[-4.798998,48.439482],[-4.800708,48.439523],[-4.799404,48.440881]],[[-5.117224,48.443973],[-5.118111,48.444783],[-5.116578,48.446493],[-5.117224,48.443973]],[[-5.106603,48.479664],[-5.107292,48.481559],[-5.089296,48.479949],[-5.106603,48.479664]],[[-5.012702,48.432199],[-5.008635,48.42618],[-5.018782,48.421343],[-5.012702,48.432199]],[[-4.798282,48.429995],[-4.796924,48.427989],[-4.798084,48.427663],[-4.798282,48.429995]],[[-4.973645,48.417573],[-4.987694,48.414287],[-4.983925,48.420983],[-4.973645,48.417573]],[[-4.942698,48.401417],[-4.949938,48.396723],[-4.953335,48.401774],[-4.942698,48.401417]],[[-4.961961,48.401868],[-4.952532,48.394666],[-4.957227,48.389588],[-4.967671,48.397806],[-4.961961,48.401868]],[[-4.902963,48.383765],[-4.901396,48.387145],[-4.895365,48.380548],[-4.902963,48.383765]],[[-4.889362,48.38058],[-4.882397,48.372864],[-4.888629,48.374015],[-4.889362,48.38058]],[[-4.896101,48.375944],[-4.896972,48.368912],[-4.912574,48.374335],[-4.910471,48.376156],[-4.896101,48.375944]],[[-4.882089,48.372016],[-4.878735,48.369427],[-4.879265,48.368759],[-4.882089,48.372016]],[[-4.945598,48.370066],[-4.931393,48.374563],[-4.931471,48.372018],[-4.945598,48.370066]],[[-4.941512,48.379149],[-4.939297,48.380515],[-4.937433,48.379499],[-4.941512,48.379149]],[[-4.84147,48.35616],[-4.856143,48.340919],[-4.871662,48.342953],[-4.865207,48.34276],[-4.84147,48.35616]],[[-4.86632,48.045792],[-4.83509,48.030628],[-4.852578,48.03042],[-4.854972,48.038319],[-4.876565,48.041475],[-4.86632,48.045792]],[[-4.846048,48.043446],[-4.843701,48.040985],[-4.846341,48.040518],[-4.846048,48.043446]],[[-4.392958,47.794598],[-4.382485,47.796226],[-4.384998,47.792913],[-4.392958,47.794598]],[[-4.334848,48.10158],[-4.336096,48.098408],[-4.33855,48.09966],[-4.334848,48.10158]],[[-4.463497,48.32412],[-4.463424,48.324811],[-4.461281,48.323943],[-4.463497,48.32412]],[[-4.529382,48.307331],[-4.528491,48.306707],[-4.529587,48.302999],[-4.529382,48.307331]],[[-4.535395,48.302018],[-4.538711,48.301204],[-4.538802,48.303303],[-4.535395,48.302018]],[[-4.588775,48.607443],[-4.58402,48.607373],[-4.584386,48.605319],[-4.588775,48.607443]],[[-4.58292,48.602493],[-4.57961,48.602998],[-4.579802,48.601922],[-4.58292,48.602493]]]}}
