{"type":"Feature","properties":{"mrgid":25240,"name":"Danish part of the Norwegian Sea (Faeroe)","placeType":"Marine Region","source":"MarineRegions:eez_iho"},"geometry":{"type":"Polygon","coordinates":[[[-0.486397,64.43416],[-0.704753,64.555809],[-0.935389,64.671432],[-1.195034,64.78842],[-1.456767,64.894376],[-1.741854,64.998151],[-2.02686,65.091315],[-2.637687,65.260369],[-3.313155,65.407167],[-4.165093,65.551223],[-4.853088,65.63638],[-5.573791,65.693364],[-6.085828,65.5073],[-6.786614,65.217644],[-8.225103,64.5],[-9.250194,64.0],[-9.868773,63.709507],[-6.263843,62.345824],[-3.460902,61.644727],[-3.055417,61.987217],[-0.7956,63.677483],[-0.488764,63.887481],[-0.486397,64.43416]]]}}
