{"type":"Feature","properties":{"mrgid":25405,"name":"Emirati part of the Persian Gulf","placeType":"Marine Region","source":"MarineRegions:eez_iho"},"geometry":{"type":"Polygon","coordinates":[[[56.086706,26.05135],[55.890174,26.083175],[55.704315,26.154606],[55.660473,26.059652],[55.53702,25.968003],[55.496754,25.943714],[55.428558,25.919321],[55.291001,25.69872],[55.233607,25.638667],[54.752732,25.495889],[54.775126,25.800425],[54.747222,25.788889],[54.678333,25.729722],[54.640833,25.712222],[54.572222,25.694444],[54.506944,25.693056],[54.438333,25.665278],[54.087778,25.636944],[53.034722,25.530556],[52.614161,25.098553],[52.50167,25.00399],[52.463308,25.045855],[52.41558,25.065228],[52.363093,25.06232],[52.315537,25.035369],[52.290206,25.00025],[52.283237,24.953078],[52.30034,24.901342],[52.336676,24.865292],[52.272222,24.811111],[51.905161,24.7325],[51.867194,24.757375],[51.828747,24.765981],[51.786488,24.761334],[51.748678,24.743086],[51.726051,24.721446],[51.710164,24.690739],[51.683685,24.685069],[51.517858,24.426815],[51.516839,24.401527],[51.525975,24.381895],[51.57025,24.335171],[51.592309,24.27896],[51.590588,24.258094],[51.595949,24.259632],[51.597286,24.269836],[51.59958,24.265174],[51.604339,24.281628],[51.593009,24.309811],[51.592738,24.352701],[51.58172,24.362045],[51.594185,24.376115],[51.621214,24.351424],[51.641964,24.311287],[51.633677,24.305743],[51.640845,24.298888],[51.632179,24.29758],[51.627656,24.278573],[51.634079,24.233125],[51.64661,24.217789],[51.632019,24.211561],[51.634134,24.204651],[51.665136,24.224356],[51.67229,24.241189],[51.666889,24.289485],[51.649193,24.307374],[51.654096,24.326247],[51.671107,24.292796],[51.669929,24.277763],[51.688317,24.250537],[51.694213,24.213758],[51.710364,24.210444],[51.721748,24.218889],[51.714921,24.247652],[51.744995,24.286358],[51.741139,24.293623],[51.776296,24.273372],[51.782168,24.262713],[51.774827,24.24483],[51.781757,24.226226],[51.773154,24.215214],[51.778044,24.193916],[51.767086,24.180956],[51.76268,24.155169],[51.791958,24.067009],[51.785256,24.068547],[51.780854,24.054933],[51.783537,24.0325],[51.800464,24.007289],[51.832066,23.98618],[51.876536,23.977753],[51.916453,23.975194],[51.905955,23.992366],[51.917219,23.988525],[51.953074,24.003806],[51.970257,23.984943],[51.993907,23.979942],[52.019422,23.991289],[52.044531,23.969645],[52.083535,23.959057],[52.097304,23.970853],[52.147205,23.959014],[52.251665,23.974957],[52.317379,23.998669],[52.333783,24.017911],[52.449502,24.067602],[52.459759,24.086069],[52.433489,24.105195],[52.434252,24.120243],[52.447708,24.11825],[52.442194,24.101502],[52.466695,24.091827],[52.572129,24.137588],[52.565241,24.150139],[52.569185,24.184962],[52.601592,24.198588],[52.626225,24.189601],[52.633073,24.193779],[52.626646,24.188008],[52.633931,24.168723],[52.655976,24.159787],[52.671911,24.13448],[52.682306,24.144793],[52.712854,24.141225],[52.716813,24.167254],[52.710622,24.17591],[52.718558,24.168756],[52.715147,24.142611],[52.721463,24.141554],[52.723005,24.166046],[52.722477,24.142043],[52.730471,24.141148],[52.730404,24.150917],[52.734375,24.143415],[52.734375,24.154297],[52.766915,24.125199],[52.838727,24.146952],[52.863057,24.130052],[52.916266,24.145296],[52.928409,24.13211],[52.942408,24.131975],[52.980987,24.156479],[53.059298,24.12059],[53.129465,24.136194],[53.132154,24.164567],[53.142532,24.170727],[53.201284,24.146445],[53.232356,24.099133],[53.299733,24.087836],[53.307286,24.091424],[53.292772,24.109068],[53.261405,24.114612],[53.260221,24.128699],[53.270499,24.136928],[53.281044,24.135254],[53.307859,24.092122],[53.322262,24.110237],[53.311579,24.116031],[53.34869,24.101036],[53.372837,24.111913],[53.411211,24.11229],[53.443929,24.124581],[53.456994,24.13963],[53.444888,24.124042],[53.465855,24.116483],[53.472283,24.097824],[53.478512,24.097985],[53.486186,24.10331],[53.488563,24.10925],[53.487094,24.102008],[53.492912,24.106836],[53.49209,24.100292],[53.514383,24.090613],[53.535772,24.090627],[53.578774,24.046712],[53.605531,24.04244],[53.680566,24.054341],[53.705986,24.068688],[53.734972,24.057786],[53.813459,24.053879],[53.82687,24.061803],[53.823724,24.068326],[53.839501,24.065608],[53.829017,24.076087],[53.856941,24.062578],[53.853631,24.089928],[53.911934,24.098339],[53.908413,24.118232],[53.91382,24.099095],[53.924244,24.096198],[54.028098,24.126019],[54.005651,24.159715],[54.036579,24.129772],[54.049211,24.134749],[54.022745,24.162586],[54.061621,24.14483],[54.077559,24.154144],[54.085871,24.147133],[54.092082,24.153145],[54.105209,24.149905],[54.128693,24.161092],[54.129097,24.172887],[54.162629,24.185152],[54.168962,24.194535],[54.14465,24.197236],[54.143258,24.208073],[54.130384,24.21596],[54.118521,24.211166],[54.138394,24.19452],[54.126917,24.196223],[54.102824,24.185967],[54.098883,24.203299],[54.099217,24.183489],[54.060682,24.161026],[54.02281,24.171336],[54.04122,24.16795],[54.013178,24.186651],[54.040535,24.211288],[54.051996,24.199249],[54.070272,24.199056],[54.072293,24.182244],[54.074954,24.197128],[54.068042,24.201388],[54.052751,24.199469],[54.047086,24.20552],[54.052748,24.212492],[54.096565,24.199678],[54.086473,24.213276],[54.058563,24.220432],[54.06164,24.231368],[54.09561,24.231445],[54.119681,24.212585],[54.135275,24.220703],[54.132342,24.227733],[54.096333,24.238195],[54.107147,24.236726],[54.097818,24.244868],[54.106464,24.254962],[54.12395,24.253926],[54.106377,24.262073],[54.080999,24.263165],[54.098654,24.274523],[54.088989,24.295601],[54.148124,24.329631],[54.149267,24.310117],[54.170495,24.284351],[54.189167,24.265112],[54.201934,24.265653],[54.179811,24.300083],[54.193954,24.296875],[54.202324,24.277181],[54.200378,24.29177],[54.188798,24.301648],[54.168045,24.306955],[54.165058,24.322125],[54.215709,24.353306],[54.208416,24.35274],[54.171413,24.333484],[54.176577,24.33817],[54.215743,24.358787],[54.27388,24.30558],[54.291437,24.27608],[54.282395,24.267651],[54.256413,24.278709],[54.251258,24.278709],[54.245367,24.268057],[54.256281,24.277829],[54.277462,24.268079],[54.285053,24.266492],[54.29601,24.271679],[54.276523,24.310708],[54.264192,24.323252],[54.257919,24.352932],[54.233178,24.367715],[54.190898,24.367695],[54.194211,24.383458],[54.220351,24.389743],[54.24322,24.413434],[54.260705,24.41582],[54.243659,24.395283],[54.244929,24.377084],[54.265735,24.358487],[54.267653,24.340717],[54.27085,24.345006],[54.26707,24.350356],[54.281342,24.342408],[54.300209,24.302013],[54.316406,24.294036],[54.30579,24.286965],[54.304586,24.260772],[54.286191,24.264506],[54.270969,24.261022],[54.285915,24.24559],[54.301024,24.242105],[54.316865,24.246373],[54.324769,24.267429],[54.354876,24.2517],[54.360018,24.262375],[54.381822,24.256182],[54.415905,24.271974],[54.449049,24.302616],[54.487942,24.303732],[54.489448,24.313688],[54.525327,24.312229],[54.517417,24.316864],[54.458466,24.313345],[54.451243,24.318742],[54.454396,24.335156],[54.460022,24.33258],[54.466914,24.381316],[54.521544,24.38466],[54.516008,24.39217],[54.475017,24.384123],[54.477373,24.394101],[54.490506,24.392116],[54.479095,24.395794],[54.489692,24.404696],[54.486865,24.422157],[54.521684,24.423766],[54.602009,24.447713],[54.612574,24.456899],[54.57378,24.447979],[54.570346,24.457729],[54.583792,24.470873],[54.583921,24.481495],[54.546795,24.48514],[54.528823,24.478466],[54.473994,24.492501],[54.476151,24.501655],[54.484672,24.500959],[54.475832,24.504878],[54.469574,24.520229],[54.475577,24.521616],[54.459784,24.547876],[54.469785,24.566075],[54.475507,24.563123],[54.471447,24.569221],[54.487709,24.569102],[54.486331,24.555666],[54.516629,24.522586],[54.583012,24.507005],[54.605229,24.521394],[54.616667,24.56229],[54.623677,24.557638],[54.613035,24.566785],[54.630122,24.563522],[54.629725,24.578851],[54.641699,24.596883],[54.628863,24.60583],[54.589064,24.58902],[54.577135,24.603752],[54.577399,24.619197],[54.565796,24.623251],[54.582341,24.641506],[54.556379,24.64242],[54.608175,24.6821],[54.613546,24.672337],[54.600731,24.67143],[54.611551,24.660412],[54.614825,24.631555],[54.599612,24.624961],[54.598865,24.613388],[54.609763,24.598089],[54.607353,24.617679],[54.634369,24.62126],[54.6545,24.638538],[54.64138,24.640793],[54.643883,24.653553],[54.660603,24.652447],[54.665838,24.654461],[54.659261,24.662096],[54.672627,24.662809],[54.658645,24.67458],[54.654261,24.660442],[54.643729,24.661738],[54.648181,24.672621],[54.638873,24.673726],[54.647293,24.679658],[54.655844,24.67608],[54.664794,24.686135],[54.663574,24.694454],[54.654612,24.694462],[54.659338,24.704411],[54.652324,24.699647],[54.652489,24.704905],[54.657986,24.70609],[54.665663,24.702464],[54.665432,24.712157],[54.658524,24.707206],[54.646395,24.722618],[54.635898,24.719085],[54.635272,24.727162],[54.670042,24.738309],[54.664591,24.742981],[54.648622,24.732311],[54.647392,24.741517],[54.642171,24.738797],[54.666363,24.756022],[54.678037,24.753721],[54.668437,24.756789],[54.68879,24.776943],[54.70836,24.813419],[54.750234,24.79103],[54.750311,24.800096],[54.764562,24.799294],[54.771208,24.804036],[54.773359,24.810627],[54.761826,24.839124],[54.764739,24.854534],[54.773045,24.844093],[54.804719,24.85513],[54.80628,24.870708],[54.808053,24.861953],[54.80628,24.857705],[54.812168,24.858155],[54.841901,24.889891],[54.851932,24.883754],[54.856307,24.899869],[54.869791,24.896586],[54.899393,24.911714],[54.962011,24.964371],[54.986577,24.970937],[54.961811,24.983736],[54.953426,24.995779],[54.954781,25.013334],[54.97286,25.035401],[54.986732,25.035652],[54.962266,25.020769],[54.95626,25.001969],[54.963031,24.987604],[54.99187,24.973796],[55.002349,24.9785],[54.990339,25.001176],[54.984675,24.986807],[54.984382,24.995216],[54.988034,25.002238],[54.978822,24.987338],[54.980514,24.994803],[54.98657,25.00392],[54.973483,24.989315],[54.975599,24.995865],[54.985496,25.005956],[54.969512,24.991705],[54.973191,24.999966],[54.984488,25.007844],[54.964954,24.998225],[54.96987,25.003861],[54.983381,25.010116],[54.96375,25.004658],[54.970717,25.009378],[54.981982,25.011443],[54.966126,25.011414],[54.970847,25.014482],[54.981136,25.014276],[54.969544,25.018229],[54.985075,25.021681],[54.985141,25.016282],[54.994811,25.026933],[54.986769,25.014128],[55.003928,25.023009],[54.988235,25.011414],[55.008683,25.018613],[54.988821,25.009968],[55.011774,25.012299],[54.990124,25.00808],[55.012165,25.007844],[54.991362,25.006398],[55.010504,25.003625],[54.99237,25.004451],[55.007605,24.997222],[54.991686,25.001855],[55.004643,24.979949],[55.014696,24.984214],[55.018365,25.021106],[54.988929,25.031978],[55.000277,25.035814],[55.013888,25.030061],[55.022657,25.017419],[55.015782,24.985096],[55.031957,24.997285],[55.045278,24.996858],[55.038287,25.020614],[55.055216,24.972085],[55.0818,24.995047],[55.060488,24.981727],[55.057642,24.988736],[55.075454,25.004601],[55.071414,25.008437],[55.055063,24.994385],[55.043363,25.020051],[55.076691,25.023639],[55.124318,25.074863],[55.124302,25.072237],[55.131598,25.069095],[55.147627,25.083911],[55.140738,25.091556],[55.142426,25.09429],[55.145969,25.093106],[55.152156,25.102425],[55.134799,25.11584],[55.1332,25.10501],[55.133431,25.116854],[55.129343,25.103948],[55.132169,25.117627],[55.124829,25.103626],[55.126162,25.111077],[55.13105,25.118528],[55.120386,25.104623],[55.123141,25.112718],[55.130019,25.119284],[55.116369,25.108389],[55.121382,25.115889],[55.128775,25.120379],[55.115356,25.114247],[55.127176,25.121489],[55.116743,25.120347],[55.125363,25.122873],[55.119195,25.124869],[55.124261,25.130099],[55.126768,25.124354],[55.128047,25.132256],[55.128581,25.122809],[55.133949,25.134991],[55.130039,25.121698],[55.140402,25.135136],[55.131425,25.120813],[55.145593,25.132111],[55.132404,25.119944],[55.147281,25.128409],[55.13363,25.119156],[55.147885,25.124257],[55.13475,25.118222],[55.147494,25.120507],[55.13603,25.117385],[55.147725,25.11502],[55.154678,25.103035],[55.162115,25.110375],[55.250328,25.217534],[55.264095,25.237263],[55.26331,25.250208],[55.275148,25.25377],[55.25427,25.264478],[55.26096,25.282631],[55.275015,25.256302],[55.28806,25.271387],[55.274266,25.268582],[55.2915,25.281574],[55.290249,25.26547],[55.307541,25.262579],[55.344188,25.225655],[55.317355,25.190669],[55.34731,25.201263],[55.347617,25.227834],[55.30731,25.265679],[55.291728,25.267103],[55.324689,25.294451],[55.307244,25.294773],[55.327117,25.318648],[55.320423,25.328529],[55.29368,25.330428],[55.294676,25.353248],[55.330928,25.326276],[55.329985,25.305958],[55.315745,25.304832],[55.317213,25.298072],[55.330757,25.297259],[55.352362,25.328022],[55.34759,25.307307],[55.355328,25.298424],[55.350819,25.31589],[55.359696,25.306792],[55.363779,25.309882],[55.355471,25.328421],[55.36661,25.32649],[55.364889,25.318015],[55.373287,25.316137],[55.372248,25.325176],[55.36204,25.330567],[55.355613,25.330009],[55.368869,25.351859],[55.368598,25.369921],[55.372225,25.359181],[55.385269,25.369432],[55.370296,25.367271],[55.38523,25.377173],[55.388317,25.373373],[55.387738,25.36741],[55.377165,25.358379],[55.375969,25.353776],[55.376551,25.332284],[55.3841,25.324988],[55.389559,25.331254],[55.377782,25.356671],[55.389643,25.366907],[55.391134,25.375465],[55.419623,25.394297],[55.44219,25.42541],[55.444091,25.418844],[55.455779,25.422235],[55.454162,25.398245],[55.466657,25.395541],[55.456252,25.40142],[55.457963,25.415883],[55.463711,25.410004],[55.459818,25.422964],[55.482581,25.419445],[55.474219,25.430946],[55.484864,25.423393],[55.498217,25.426826],[55.473933,25.436268],[55.456445,25.424638],[55.444733,25.425813],[55.477072,25.458401],[55.477315,25.477947],[55.482062,25.466327],[55.480413,25.475621],[55.487722,25.474816],[55.489371,25.482541],[55.494228,25.470431],[55.50684,25.463591],[55.49561,25.472483],[55.491822,25.481616],[55.496902,25.474374],[55.509826,25.479001],[55.515396,25.463793],[55.517446,25.472362],[55.514148,25.478116],[55.506082,25.48057],[55.496457,25.475983],[55.493316,25.481431],[55.557299,25.585359],[55.579471,25.605424],[55.580387,25.58483],[55.564554,25.583473],[55.564226,25.525349],[55.571289,25.532902],[55.583388,25.528418],[55.626032,25.539511],[55.633669,25.535528],[55.649154,25.54796],[55.633384,25.561495],[55.646723,25.585856],[55.666337,25.595466],[55.671466,25.609732],[55.699868,25.626431],[55.70013,25.629205],[55.698363,25.629676],[55.693996,25.626281],[55.695025,25.628614],[55.747737,25.658247],[55.737654,25.675177],[55.740083,25.681658],[55.750035,25.682516],[55.738273,25.675693],[55.752844,25.663633],[55.775556,25.696206],[55.781557,25.686464],[55.783748,25.694404],[55.789701,25.691829],[55.786081,25.697107],[55.77608,25.697021],[55.798547,25.723618],[55.800053,25.710341],[55.816429,25.715416],[55.802542,25.718897],[55.836925,25.714944],[55.845309,25.718485],[55.848321,25.72173],[55.848387,25.726038],[55.867063,25.736659],[55.849244,25.722025],[55.855241,25.718478],[55.870202,25.726424],[55.905865,25.755162],[55.949985,25.807571],[55.951473,25.790995],[55.937593,25.773668],[55.951115,25.766802],[55.944384,25.779301],[55.952128,25.772166],[55.965773,25.775331],[55.963688,25.786597],[55.95355,25.792073],[55.966547,25.795233],[55.952248,25.796789],[55.953738,25.804192],[55.950195,25.811364],[55.987823,25.836207],[56.010644,25.863823],[56.005987,25.86754],[56.015627,25.885951],[56.032531,25.882164],[56.05787,25.900526],[56.050324,25.925723],[56.059443,25.940384],[56.059379,25.946848],[56.052816,25.951332],[56.057541,25.957174],[56.052238,25.97183],[56.045555,25.974941],[56.070522,25.989056],[56.086706,26.05135]],[[55.197384,25.155178],[55.196233,25.152381],[55.19614,25.152442],[55.197384,25.155178]],[[55.188515,25.145434],[55.188327,25.143383],[55.188069,25.143587],[55.188515,25.145434]],[[55.188629,25.145905],[55.188515,25.145434],[55.188556,25.145875],[55.188629,25.145905]],[[55.162231,25.115148],[55.162162,25.112328],[55.16163,25.112426],[55.162231,25.115148]],[[55.156363,25.108089],[55.156043,25.105488],[55.155575,25.105967],[55.156363,25.108089]],[[56.029139,25.884889],[56.017004,25.888665],[56.050257,25.963488],[56.05636,25.956289],[56.0517,25.952926],[56.058131,25.941065],[56.038125,25.909731],[56.039765,25.904716],[56.030843,25.895569],[56.029139,25.884889]],[[56.047554,25.906914],[56.047425,25.90657],[56.043894,25.907746],[56.047554,25.906914]],[[56.047572,25.90566],[56.052557,25.904184],[56.049015,25.902001],[56.047572,25.90566]],[[56.044629,25.900204],[56.041896,25.89663],[56.040185,25.898148],[56.044629,25.900204]],[[56.034869,25.895025],[56.03304,25.888961],[56.030964,25.892731],[56.034869,25.895025]],[[56.00907,25.887485],[56.015038,25.886423],[55.994642,25.850959],[55.976454,25.830397],[56.00907,25.887485]],[[55.880218,25.737013],[55.875764,25.735243],[55.875043,25.737367],[55.880218,25.737013]],[[55.839283,25.72291],[55.84747,25.725507],[55.847339,25.722438],[55.839283,25.72291]],[[55.822974,25.717894],[55.830178,25.721199],[55.838169,25.722084],[55.835746,25.715888],[55.822974,25.717894]],[[55.672816,25.629902],[55.71279,25.655844],[55.668837,25.621665],[55.654937,25.620406],[55.665612,25.613175],[55.653364,25.613203],[55.651269,25.618723],[55.648709,25.608637],[55.645069,25.618122],[55.648448,25.605891],[55.642713,25.611362],[55.64668,25.602642],[55.638738,25.593231],[55.631147,25.602813],[55.637929,25.590441],[55.627824,25.600428],[55.620174,25.598845],[55.619318,25.606211],[55.586936,25.586891],[55.600739,25.606856],[55.616017,25.617414],[55.645668,25.623164],[55.618111,25.617199],[55.603357,25.606341],[55.672816,25.629902]],[[55.721299,25.653682],[55.725322,25.651242],[55.715497,25.654171],[55.721299,25.653682]],[[55.68841,25.631821],[55.68238,25.627885],[55.684728,25.630588],[55.68841,25.631821]],[[55.680169,25.615278],[55.681347,25.619586],[55.686779,25.623245],[55.685732,25.619114],[55.680169,25.615278]],[[55.620917,25.595419],[55.628907,25.59566],[55.634316,25.584912],[55.616593,25.569222],[55.605748,25.572049],[55.616577,25.587725],[55.609736,25.593295],[55.625795,25.593467],[55.620917,25.595419]],[[55.578374,25.579343],[55.591627,25.553562],[55.58426,25.533379],[55.575338,25.541962],[55.578374,25.579343]],[[55.60103,25.565348],[55.599683,25.567925],[55.601687,25.567094],[55.60103,25.565348]],[[55.595682,25.561928],[55.591866,25.557273],[55.589174,25.561339],[55.595682,25.561928]],[[55.599741,25.561047],[55.613598,25.560355],[55.623694,25.561991],[55.611998,25.550207],[55.599741,25.561047]],[[55.597121,25.542472],[55.595946,25.55274],[55.61376,25.546368],[55.597121,25.542472]],[[55.567338,25.546297],[55.570838,25.551645],[55.573131,25.541654],[55.567338,25.546297]],[[55.590413,25.576181],[55.593171,25.574357],[55.588161,25.574982],[55.590413,25.576181]],[[55.617744,25.598633],[55.618027,25.598337],[55.611935,25.597543],[55.617744,25.598633]],[[55.217925,25.363397],[55.21916,25.361853],[55.216738,25.362368],[55.217925,25.363397]],[[55.224954,25.359149],[55.229418,25.362325],[55.232552,25.35563],[55.224954,25.359149]],[[55.284743,25.321126],[55.272815,25.326887],[55.278085,25.332616],[55.284743,25.321126]],[[55.174057,25.253239],[55.181501,25.254781],[55.178164,25.250812],[55.174057,25.253239]],[[55.180048,25.249578],[55.179855,25.250812],[55.180107,25.25104],[55.180048,25.249578]],[[55.177245,25.248425],[55.177037,25.24884],[55.179469,25.249913],[55.177245,25.248425]],[[55.175373,25.247938],[55.175627,25.248372],[55.177001,25.247926],[55.175373,25.247938]],[[55.17207,25.249645],[55.171492,25.24644],[55.168319,25.248827],[55.17207,25.249645]],[[55.16648,25.248626],[55.16866,25.247084],[55.168778,25.245997],[55.16648,25.248626]],[[55.17941,25.247969],[55.18116,25.247633],[55.181857,25.246145],[55.17941,25.247969]],[[55.178803,25.246224],[55.180764,25.244377],[55.17528,25.24358],[55.178803,25.246224]],[[55.172598,25.242965],[55.173225,25.244051],[55.174306,25.243182],[55.172598,25.242965]],[[55.178469,25.241903],[55.176347,25.24148],[55.177081,25.242736],[55.178469,25.241903]],[[55.181645,25.240937],[55.181418,25.24078],[55.17991,25.241275],[55.181645,25.240937]],[[55.177735,25.239851],[55.178229,25.241082],[55.17987,25.240141],[55.177735,25.239851]],[[55.182226,25.239687],[55.182693,25.238842],[55.181199,25.239144],[55.182226,25.239687]],[[55.185292,25.237787],[55.183146,25.238455],[55.184732,25.239223],[55.185292,25.237787]],[[55.191889,25.237481],[55.195313,25.237381],[55.195313,25.236938],[55.191889,25.237481]],[[55.182924,25.235864],[55.183071,25.237312],[55.184552,25.236866],[55.182924,25.235864]],[[55.191889,25.23554],[55.190767,25.233323],[55.19015,25.23531],[55.191889,25.23554]],[[55.194157,25.233116],[55.192667,25.233579],[55.192856,25.234122],[55.194157,25.233116]],[[55.184097,25.232416],[55.182282,25.233044],[55.183203,25.233707],[55.184097,25.232416]],[[55.176994,25.230955],[55.178141,25.232416],[55.178368,25.232404],[55.176994,25.230955]],[[55.184806,25.231041],[55.184752,25.230957],[55.182604,25.231331],[55.184806,25.231041]],[[55.18068,25.229657],[55.179082,25.229657],[55.179245,25.230837],[55.18068,25.229657]],[[55.182606,25.228916],[55.181618,25.229398],[55.181538,25.230231],[55.182606,25.228916]],[[55.176643,25.229095],[55.177165,25.227974],[55.174915,25.226853],[55.176643,25.229095]],[[55.169811,25.226691],[55.169501,25.22526],[55.168784,25.22551],[55.169811,25.226691]],[[55.170333,25.226219],[55.172648,25.226529],[55.172632,25.224684],[55.170333,25.226219]],[[55.176105,25.224699],[55.17542,25.225319],[55.176578,25.226514],[55.176105,25.224699]],[[55.173268,25.225451],[55.173301,25.22554],[55.174328,25.22585],[55.173268,25.225451]],[[55.166482,25.224317],[55.16715,25.224612],[55.167313,25.224553],[55.166482,25.224317]],[[55.17077,25.223166],[55.170216,25.221898],[55.169189,25.222665],[55.17077,25.223166]],[[55.17726,25.222119],[55.175222,25.221942],[55.175287,25.223093],[55.17726,25.222119]],[[55.188032,25.20549],[55.188281,25.21446],[55.196428,25.222968],[55.189645,25.213473],[55.188032,25.20549]],[[55.169673,25.206319],[55.169836,25.203797],[55.169103,25.205538],[55.169673,25.206319]],[[55.166625,25.204092],[55.168565,25.204313],[55.168614,25.203413],[55.166625,25.204092]],[[55.170652,25.203354],[55.170896,25.202292],[55.170717,25.20213],[55.170652,25.203354]],[[55.154341,25.201363],[55.153118,25.201879],[55.154716,25.202277],[55.154341,25.201363]],[[55.150396,25.201879],[55.152221,25.202307],[55.152564,25.2012],[55.150396,25.201879]],[[55.17057,25.201097],[55.171059,25.199902],[55.168075,25.20182],[55.17057,25.201097]],[[55.174287,25.19828],[55.173684,25.19881],[55.175005,25.199961],[55.174287,25.19828]],[[55.170864,25.198781],[55.171483,25.199533],[55.171793,25.199489],[55.170864,25.198781]],[[55.147102,25.202941],[55.149058,25.201067],[55.143466,25.202351],[55.147102,25.202941]],[[55.139952,25.207057],[55.135636,25.202765],[55.135683,25.224395],[55.139952,25.207057]],[[54.23295,25.245805],[54.240973,25.212198],[54.200149,25.224499],[54.197043,25.238332],[54.204058,25.247459],[54.221067,25.254155],[54.23295,25.245805]],[[55.17097,25.244462],[55.170329,25.244076],[55.169715,25.244317],[55.17097,25.244462]],[[55.171677,25.246296],[55.173158,25.245681],[55.172277,25.245053],[55.171677,25.246296]],[[55.175267,25.244655],[55.17516,25.244413],[55.174052,25.244498],[55.175267,25.244655]],[[55.16762,25.2441],[55.169248,25.243593],[55.168928,25.242422],[55.16762,25.2441]],[[55.164523,25.24298],[55.163263,25.24361],[55.163974,25.244348],[55.164523,25.24298]],[[55.171704,25.242736],[55.170356,25.241843],[55.169929,25.242446],[55.171704,25.242736]],[[55.172771,25.241022],[55.174372,25.242108],[55.174826,25.241649],[55.172771,25.241022]],[[55.167869,25.241116],[55.172668,25.238884],[55.175771,25.239704],[55.173419,25.237681],[55.167869,25.241116]],[[55.177068,25.238487],[55.176521,25.238125],[55.175827,25.238523],[55.177068,25.238487]],[[55.181698,25.238572],[55.182859,25.237823],[55.182019,25.237292],[55.181698,25.238572]],[[55.179394,25.237367],[55.179799,25.236408],[55.178701,25.235345],[55.179394,25.237367]],[[55.174116,25.235148],[55.174116,25.23545],[55.176073,25.235309],[55.174116,25.235148]],[[55.182153,25.234201],[55.182076,25.233954],[55.180088,25.233567],[55.182153,25.234201]],[[55.176272,25.232974],[55.176272,25.233375],[55.178334,25.234491],[55.176272,25.232974]],[[55.174523,25.234149],[55.174768,25.232439],[55.173656,25.232842],[55.174523,25.234149]],[[55.17161,25.233345],[55.172521,25.233667],[55.172966,25.232379],[55.17161,25.233345]],[[55.166868,25.232566],[55.166601,25.233673],[55.168625,25.231782],[55.166868,25.232566]],[[55.164916,25.232445],[55.166792,25.231531],[55.166058,25.230351],[55.164916,25.232445]],[[55.171017,25.230689],[55.169109,25.23063],[55.170006,25.231825],[55.171017,25.230689]],[[55.176125,25.229777],[55.174835,25.230179],[55.174924,25.231929],[55.176125,25.229777]],[[55.171005,25.230374],[55.173895,25.230836],[55.173451,25.22975],[55.171005,25.230374]],[[55.16709,25.230313],[55.168447,25.230253],[55.168491,25.229066],[55.16709,25.230313]],[[55.163416,25.231826],[55.161051,25.228197],[55.159404,25.230173],[55.163416,25.231826]],[[55.146287,25.228861],[55.14994,25.226913],[55.148293,25.226146],[55.146287,25.228861]],[[55.144754,25.226486],[55.146304,25.226663],[55.14601,25.22563],[55.144754,25.226486]],[[55.161427,25.22535],[55.161019,25.225232],[55.160921,25.227931],[55.161427,25.22535]],[[55.164492,25.227282],[55.164199,25.226397],[55.162193,25.227444],[55.164492,25.227282]],[[55.170186,25.22821],[55.168751,25.227576],[55.168457,25.228505],[55.170186,25.22821]],[[55.172042,25.226943],[55.170737,25.227489],[55.171422,25.228403],[55.172042,25.226943]],[[55.168082,25.22703],[55.168294,25.22554],[55.165717,25.226779],[55.168082,25.22703]],[[55.165047,25.225379],[55.163742,25.224538],[55.163677,25.225232],[55.165047,25.225379]],[[55.166368,25.224627],[55.165145,25.223638],[55.164982,25.224568],[55.166368,25.224627]],[[55.161883,25.225158],[55.16247,25.22535],[55.163074,25.223978],[55.161883,25.225158]],[[55.157986,25.223491],[55.158116,25.224155],[55.160693,25.223801],[55.157986,25.223491]],[[55.164867,25.223299],[55.165992,25.222414],[55.165259,25.220998],[55.164867,25.223299]],[[55.171113,25.222414],[55.172531,25.223151],[55.171911,25.221544],[55.171113,25.222414]],[[55.173004,25.222045],[55.173787,25.218047],[55.172287,25.218062],[55.173004,25.222045]],[[55.178597,25.220806],[55.178352,25.22054],[55.177374,25.220467],[55.178597,25.220806]],[[55.183587,25.219832],[55.183864,25.22113],[55.18419,25.22113],[55.183587,25.219832]],[[55.180782,25.219286],[55.181059,25.219729],[55.182853,25.218741],[55.180782,25.219286]],[[55.17607,25.217221],[55.176869,25.218357],[55.178287,25.217855],[55.17607,25.217221]],[[55.179983,25.215525],[55.179673,25.215421],[55.178646,25.216631],[55.179983,25.215525]],[[55.182837,25.216528],[55.182739,25.215687],[55.180945,25.216262],[55.182837,25.216528]],[[55.182168,25.212825],[55.183032,25.215584],[55.18463,25.212973],[55.182168,25.212825]],[[55.151977,25.211674],[55.15369,25.212132],[55.154016,25.211158],[55.151977,25.211674]],[[55.14989,25.211689],[55.150461,25.212265],[55.151325,25.210288],[55.14989,25.211689]],[[55.153999,25.207957],[55.152189,25.207544],[55.153151,25.210317],[55.153999,25.207957]],[[55.168071,25.20964],[55.168525,25.207419],[55.166844,25.208867],[55.168071,25.20964]],[[55.164397,25.207762],[55.166497,25.208554],[55.166284,25.207226],[55.164397,25.207762]],[[55.161535,25.206333],[55.161588,25.207057],[55.163615,25.207009],[55.161535,25.206333]],[[55.166576,25.206585],[55.16788,25.205479],[55.165663,25.205139],[55.166576,25.206585]],[[55.164211,25.206069],[55.165988,25.20421],[55.16563,25.203605],[55.164211,25.206069]],[[55.148528,25.202746],[55.148553,25.203712],[55.149682,25.203133],[55.148528,25.202746]],[[55.147509,25.203531],[55.146922,25.204505],[55.147754,25.204697],[55.147509,25.203531]],[[55.144901,25.204756],[55.145097,25.204918],[55.146042,25.204564],[55.144901,25.204756]],[[55.144412,25.206777],[55.144738,25.206762],[55.144232,25.20449],[55.144412,25.206777]],[[55.140548,25.205449],[55.140417,25.205936],[55.142325,25.206231],[55.140548,25.205449]],[[55.142292,25.206791],[55.142488,25.208075],[55.143564,25.20778],[55.142292,25.206791]],[[55.145814,25.208045],[55.145113,25.207795],[55.144477,25.208724],[55.145814,25.208045]],[[55.141754,25.210951],[55.14208,25.210907],[55.141803,25.208827],[55.141754,25.210951]],[[55.144982,25.210539],[55.143564,25.208916],[55.143124,25.209506],[55.144982,25.210539]],[[55.149303,25.210406],[55.150559,25.209461],[55.149303,25.209167],[55.149303,25.210406]],[[55.148048,25.20834],[55.146694,25.209108],[55.147118,25.209875],[55.148048,25.20834]],[[55.150461,25.208045],[55.15214,25.206334],[55.149303,25.20685],[55.150461,25.208045]],[[55.158973,25.205295],[55.160681,25.206574],[55.161615,25.205488],[55.158973,25.205295]],[[55.149678,25.204018],[55.149727,25.205051],[55.150836,25.205405],[55.149678,25.204018]],[[55.14764,25.207337],[55.148602,25.206319],[55.14702,25.205833],[55.14764,25.207337]],[[55.160374,25.20747],[55.159901,25.208296],[55.161108,25.208532],[55.160374,25.20747]],[[55.142406,25.212677],[55.142569,25.211925],[55.140042,25.212456],[55.142406,25.212677]],[[55.144835,25.212958],[55.145097,25.211733],[55.143107,25.213636],[55.144835,25.212958]],[[55.15157,25.214699],[55.152254,25.213592],[55.14932,25.214477],[55.15157,25.214699]],[[55.166757,25.215556],[55.169042,25.216306],[55.168748,25.214418],[55.166757,25.215556]],[[55.17183,25.217988],[55.171357,25.216661],[55.167542,25.217088],[55.17183,25.217988]],[[55.167542,25.220201],[55.168124,25.218169],[55.16627,25.217634],[55.167542,25.220201]],[[55.164998,25.21582],[55.165568,25.217811],[55.166751,25.215705],[55.164998,25.21582]],[[55.146026,25.214979],[55.147885,25.215008],[55.14764,25.214595],[55.146026,25.214979]],[[55.140743,25.215289],[55.140971,25.213902],[55.139471,25.21548],[55.140743,25.215289]],[[55.144558,25.217265],[55.144933,25.217029],[55.142765,25.215746],[55.144558,25.217265]],[[55.141183,25.216218],[55.140237,25.216616],[55.140775,25.217369],[55.141183,25.216218]],[[55.14689,25.217251],[55.147363,25.216115],[55.14614,25.215997],[55.14689,25.217251]],[[55.151155,25.220799],[55.152573,25.218881],[55.15166,25.218379],[55.151155,25.220799]],[[55.148016,25.219788],[55.148407,25.220909],[55.149125,25.220673],[55.148016,25.219788]],[[55.141374,25.22168],[55.141893,25.221643],[55.141665,25.22046],[55.141374,25.22168]],[[55.139215,25.222394],[55.140399,25.22153],[55.139278,25.220385],[55.139215,25.222394]],[[55.143857,25.221485],[55.142569,25.221853],[55.14358,25.223225],[55.143857,25.221485]],[[55.142121,25.223821],[55.140731,25.222807],[55.140108,25.223971],[55.142121,25.223821]],[[55.145619,25.224789],[55.145668,25.224641],[55.143776,25.224583],[55.145619,25.224789]],[[55.14932,25.224863],[55.150723,25.226132],[55.151734,25.223992],[55.14932,25.224863]],[[55.14844,25.22262],[55.147543,25.223255],[55.147641,25.223933],[55.14844,25.22262]],[[55.150266,25.221189],[55.149699,25.222708],[55.150641,25.222975],[55.150266,25.221189]],[[55.16415,25.221912],[55.162079,25.221367],[55.161965,25.222886],[55.16415,25.221912]],[[55.14508,25.221101],[55.145521,25.221824],[55.146564,25.221263],[55.14508,25.221101]],[[55.169759,25.220098],[55.170314,25.22147],[55.170624,25.221396],[55.169759,25.220098]],[[55.161443,25.219936],[55.162046,25.220894],[55.16384,25.220629],[55.161443,25.219936]],[[55.147869,25.221735],[55.147657,25.221322],[55.145716,25.22262],[55.147869,25.221735]],[[55.148228,25.225187],[55.148114,25.224583],[55.146646,25.22383],[55.148228,25.225187]],[[55.142163,25.226468],[55.142246,25.225642],[55.141063,25.225942],[55.142163,25.226468]],[[55.139395,25.226813],[55.140351,25.227916],[55.140651,25.226685],[55.139395,25.226813]],[[55.138593,25.228458],[55.139195,25.228496],[55.138904,25.226524],[55.138593,25.228458]],[[55.14495,25.228005],[55.14327,25.228787],[55.140302,25.22858],[55.143694,25.230528],[55.14495,25.228005]],[[55.14239,25.226869],[55.143048,25.228393],[55.144118,25.227412],[55.14239,25.226869]],[[55.176265,25.218003],[55.174847,25.217324],[55.174602,25.218977],[55.176265,25.218003]],[[55.180521,25.219006],[55.179934,25.218165],[55.179119,25.218401],[55.180521,25.219006]],[[55.175923,25.219626],[55.175271,25.220894],[55.176477,25.221086],[55.175923,25.219626]],[[55.173249,25.215259],[55.170526,25.214581],[55.171015,25.215628],[55.173249,25.215259]],[[55.180749,25.213725],[55.180668,25.215318],[55.182054,25.215053],[55.180749,25.213725]],[[55.180896,25.212633],[55.177048,25.213563],[55.178564,25.215259],[55.180896,25.212633]],[[55.1694,25.212206],[55.169221,25.212368],[55.169678,25.214315],[55.1694,25.212206]],[[55.147135,25.21284],[55.14883,25.213474],[55.149205,25.212928],[55.147135,25.21284]],[[55.153575,25.213076],[55.15276,25.213769],[55.154668,25.213961],[55.153575,25.213076]],[[55.174602,25.21433],[55.173428,25.215067],[55.174553,25.215392],[55.174602,25.21433]],[[55.166384,25.228846],[55.162421,25.229761],[55.163873,25.230159],[55.166384,25.228846]],[[55.161863,25.23728],[55.164242,25.237662],[55.162686,25.234082],[55.161863,25.23728]],[[55.170337,25.237776],[55.170293,25.237414],[55.166935,25.238098],[55.170337,25.237776]],[[55.164576,25.241746],[55.164509,25.238608],[55.162574,25.238829],[55.164576,25.241746]],[[55.165157,25.240177],[55.165065,25.2408],[55.165866,25.241344],[55.165157,25.240177]],[[55.176102,25.236161],[55.173989,25.236362],[55.174011,25.237167],[55.176102,25.236161]],[[55.171232,25.236563],[55.172855,25.236664],[55.172232,25.234994],[55.171232,25.236563]],[[55.16809,25.236294],[55.169068,25.236053],[55.168245,25.233921],[55.16809,25.236294]],[[55.170137,25.232184],[55.168825,25.232747],[55.169114,25.234276],[55.170137,25.232184]],[[55.163509,25.234464],[55.164198,25.235711],[55.166177,25.234584],[55.163509,25.234464]],[[55.167222,25.236475],[55.166266,25.235651],[55.165087,25.236194],[55.167222,25.236475]],[[55.181577,25.235023],[55.180322,25.235542],[55.180816,25.236725],[55.181577,25.235023]],[[55.184301,25.24556],[55.184464,25.244114],[55.182638,25.245649],[55.184301,25.24556]],[[55.174665,25.24931],[55.172841,25.247231],[55.17207,25.248572],[55.174665,25.24931]],[[52.883099,25.140066],[52.870216,25.144747],[52.867262,25.162039],[52.880288,25.162559],[52.883099,25.140066]],[[55.110815,25.124359],[55.129325,25.140302],[55.148381,25.138178],[55.131806,25.1384],[55.119064,25.130464],[55.111477,25.117707],[55.112947,25.102773],[55.108506,25.115446],[55.110815,25.124359]],[[55.152241,25.120998],[55.148135,25.135458],[55.149864,25.136881],[55.154881,25.127926],[55.152241,25.120998]],[[55.136169,25.099708],[55.136219,25.099589],[55.135055,25.098884],[55.136169,25.099708]],[[55.133397,25.100579],[55.123688,25.097148],[55.114677,25.102832],[55.12388,25.099519],[55.133397,25.100579]],[[55.136486,25.099846],[55.136169,25.099708],[55.135677,25.100884],[55.136486,25.099846]],[[55.137757,25.098428],[55.143437,25.102726],[55.140058,25.09699],[55.137757,25.098428]],[[55.136476,25.089783],[55.144628,25.086104],[55.130138,25.070474],[55.136476,25.089783]],[[55.139845,25.091942],[55.137734,25.090589],[55.13772,25.090768],[55.139845,25.091942]],[[55.038119,25.033572],[55.044501,25.034516],[55.058697,25.045019],[55.041375,25.028733],[55.038119,25.033572]],[[52.395657,24.951564],[52.395576,24.966401],[52.406868,24.952982],[52.395657,24.951564]],[[52.838609,24.940259],[52.850545,24.944864],[52.860205,24.924442],[52.838609,24.940259]],[[53.719424,24.901834],[53.715872,24.900486],[53.716169,24.903432],[53.719424,24.901834]],[[53.07885,24.857254],[53.05713,24.887561],[53.062945,24.898824],[53.079441,24.89517],[53.088334,24.883947],[53.093025,24.871148],[53.084448,24.878478],[53.07885,24.857254]],[[53.534186,24.896609],[53.532597,24.896797],[53.533934,24.898812],[53.534186,24.896609]],[[54.75554,24.849615],[54.753837,24.872188],[54.76158,24.84704],[54.740301,24.842234],[54.732803,24.832963],[54.761912,24.835906],[54.767443,24.802084],[54.737652,24.802784],[54.705399,24.815197],[54.737756,24.84395],[54.75554,24.849615]],[[53.613603,24.837551],[53.616943,24.834515],[53.616867,24.834214],[53.613603,24.837551]],[[53.6114,24.86143],[53.61476,24.855323],[53.614189,24.855211],[53.6114,24.86143]],[[53.702277,24.857936],[53.702456,24.857705],[53.698996,24.856922],[53.702277,24.857936]],[[52.563887,24.774319],[52.549416,24.789925],[52.557912,24.802666],[52.571431,24.788847],[52.563887,24.774319]],[[54.672199,24.771561],[54.671394,24.771244],[54.673619,24.775695],[54.672199,24.771561]],[[54.659737,24.689167],[54.661442,24.691009],[54.660287,24.688071],[54.659737,24.689167]],[[54.620836,24.680609],[54.617657,24.68736],[54.61946,24.687326],[54.620836,24.680609]],[[51.818892,24.665412],[51.824162,24.664699],[51.821534,24.660048],[51.818892,24.665412]],[[54.551916,24.635583],[54.55646,24.604929],[54.544523,24.612095],[54.525853,24.605003],[54.501728,24.608842],[54.503642,24.616761],[54.516279,24.613476],[54.551916,24.635583]],[[54.565567,24.600653],[54.561492,24.619044],[54.575439,24.613611],[54.577652,24.599999],[54.565567,24.600653]],[[51.720402,24.599235],[51.735775,24.590116],[51.719043,24.567122],[51.708227,24.58036],[51.720402,24.599235]],[[53.325878,24.587809],[53.325984,24.585171],[53.322736,24.586635],[53.325878,24.587809]],[[54.431979,24.54683],[54.477184,24.58594],[54.455854,24.551255],[54.475692,24.504305],[54.47139,24.49395],[54.462771,24.513981],[54.462037,24.504264],[54.41149,24.521426],[54.394472,24.537593],[54.431979,24.54683]],[[54.524174,24.563177],[54.514182,24.578427],[54.591134,24.567824],[54.585479,24.555251],[54.585135,24.563201],[54.571912,24.564329],[54.583066,24.551618],[54.553285,24.564704],[54.540274,24.558907],[54.524174,24.563177]],[[54.565513,24.545909],[54.572567,24.553778],[54.579453,24.545344],[54.570666,24.537169],[54.565513,24.545909]],[[54.516944,24.553037],[54.543526,24.54294],[54.547871,24.528701],[54.518962,24.525401],[54.497768,24.547263],[54.516944,24.553037]],[[54.553388,24.533937],[54.55468,24.530439],[54.549732,24.531438],[54.553388,24.533937]],[[54.555671,24.53456],[54.570574,24.528923],[54.568161,24.525165],[54.555671,24.53456]],[[54.552589,24.527794],[54.551931,24.529738],[54.554744,24.529075],[54.552589,24.527794]],[[54.548502,24.547002],[54.545241,24.548072],[54.546914,24.549984],[54.548502,24.547002]],[[54.434923,24.488468],[54.434441,24.495853],[54.469062,24.484761],[54.472689,24.472829],[54.478378,24.467415],[54.466381,24.459393],[54.469323,24.451771],[54.446978,24.469866],[54.437518,24.470211],[54.431655,24.486567],[54.44993,24.482839],[54.434923,24.488468]],[[54.487181,24.475584],[54.473224,24.477004],[54.473848,24.484684],[54.480665,24.483337],[54.487181,24.475584]],[[54.494455,24.46923],[54.490554,24.479313],[54.548772,24.465623],[54.568447,24.446916],[54.545362,24.438847],[54.536718,24.452265],[54.494455,24.46923]],[[54.503334,24.442831],[54.502606,24.461589],[54.534577,24.452047],[54.540851,24.441746],[54.513515,24.425548],[54.496984,24.425818],[54.475732,24.439522],[54.483877,24.456988],[54.483111,24.44325],[54.503334,24.442831]],[[54.465787,24.444607],[54.484435,24.423726],[54.48766,24.408839],[54.467204,24.396206],[54.454429,24.40115],[54.466777,24.406042],[54.440573,24.41514],[54.420968,24.418144],[54.453581,24.40836],[54.450848,24.401321],[54.396637,24.426963],[54.3805,24.430179],[54.396887,24.425681],[54.397123,24.419145],[54.366573,24.429618],[54.3416,24.449676],[54.346231,24.453033],[54.331051,24.448764],[54.338064,24.453807],[54.323685,24.457991],[54.30907,24.450803],[54.300289,24.458688],[54.301944,24.467636],[54.313725,24.463302],[54.32121,24.468774],[54.310601,24.477679],[54.315434,24.484813],[54.316672,24.475318],[54.319559,24.48315],[54.325218,24.474031],[54.333233,24.478376],[54.323508,24.465233],[54.343161,24.475538],[54.376269,24.512708],[54.369218,24.509082],[54.373664,24.51752],[54.366382,24.512011],[54.359637,24.516962],[54.361553,24.53335],[54.366459,24.529027],[54.358871,24.53614],[54.379604,24.541041],[54.38699,24.536098],[54.38155,24.525871],[54.392529,24.515924],[54.390298,24.532095],[54.398653,24.523169],[54.39827,24.519173],[54.382509,24.501901],[54.388418,24.489148],[54.411865,24.470744],[54.430134,24.468741],[54.446645,24.452443],[54.44364,24.445348],[54.465787,24.444607]],[[54.398014,24.395571],[54.418651,24.403896],[54.458511,24.390421],[54.461432,24.382954],[54.446998,24.330168],[54.430419,24.308624],[54.438614,24.31283],[54.429383,24.297552],[54.420341,24.308195],[54.43673,24.327593],[54.431455,24.341154],[54.440215,24.353084],[54.451622,24.3542],[54.457275,24.369392],[54.398014,24.395571]],[[54.439539,24.313774],[54.438315,24.314117],[54.445472,24.320297],[54.439539,24.313774]],[[54.384444,24.26631],[54.43265,24.296865],[54.443023,24.31386],[54.450746,24.314632],[54.413819,24.272833],[54.39094,24.26219],[54.384444,24.26631]],[[54.376503,24.27442],[54.378514,24.276263],[54.380734,24.274366],[54.376503,24.27442]],[[54.326372,24.321927],[54.316406,24.318732],[54.315327,24.309458],[54.310251,24.312606],[54.28841,24.346122],[54.291035,24.356641],[54.273883,24.372087],[54.277083,24.379411],[54.298519,24.37796],[54.288422,24.382955],[54.294028,24.398211],[54.311607,24.394083],[54.350735,24.353967],[54.330783,24.341574],[54.326372,24.321927]],[[54.416851,24.404497],[54.394177,24.396558],[54.329627,24.415766],[54.319062,24.442177],[54.326982,24.447241],[54.363634,24.422868],[54.416851,24.404497]],[[54.298767,24.400161],[54.29776,24.40694],[54.301984,24.413714],[54.303363,24.4131],[54.298767,24.400161]],[[52.652297,24.41756],[52.654135,24.408063],[52.648917,24.414594],[52.652297,24.41756]],[[51.574026,24.414088],[51.565935,24.402401],[51.566085,24.41619],[51.554012,24.415554],[51.562859,24.399971],[51.55457,24.402545],[51.549746,24.408985],[51.545554,24.402613],[51.53125,24.406001],[51.545385,24.424692],[51.570718,24.419737],[51.574026,24.414088]],[[51.561343,24.405696],[51.562603,24.406208],[51.563333,24.404768],[51.561343,24.405696]],[[51.522116,24.425078],[51.522656,24.423578],[51.5202,24.42348],[51.522116,24.425078]],[[52.303576,24.423707],[52.311058,24.467496],[52.30614,24.479777],[52.286032,24.49076],[52.280133,24.509068],[52.309442,24.54468],[52.333118,24.532479],[52.343353,24.493627],[52.331961,24.492895],[52.33346,24.484392],[52.31906,24.471395],[52.314971,24.419421],[52.303576,24.423707]],[[51.545089,24.432265],[51.539563,24.43682],[51.550063,24.439871],[51.545089,24.432265]],[[51.7279,24.495484],[51.739436,24.492861],[51.732505,24.480713],[51.726886,24.483661],[51.7279,24.495484]],[[51.723652,24.511093],[51.724304,24.504473],[51.717887,24.509266],[51.723652,24.511093]],[[51.72572,24.51802],[51.728681,24.518242],[51.72533,24.51328],[51.72572,24.51802]],[[54.355026,24.520342],[54.33775,24.50517],[54.329608,24.487487],[54.337136,24.50545],[54.355026,24.520342]],[[54.329596,24.480559],[54.340018,24.505177],[54.357491,24.519752],[54.359867,24.502038],[54.329596,24.480559]],[[54.288333,24.456274],[54.299853,24.477284],[54.292059,24.4621],[54.300765,24.448396],[54.290076,24.457858],[54.289684,24.445069],[54.288333,24.456274]],[[54.311978,24.4354],[54.312522,24.445992],[54.314296,24.447102],[54.317708,24.437631],[54.311978,24.4354]],[[54.307822,24.436639],[54.305971,24.426879],[54.304055,24.42856],[54.307822,24.436639]],[[54.303411,24.445166],[54.310075,24.445201],[54.308692,24.438014],[54.306192,24.438651],[54.303411,24.445166]],[[54.27179,24.441191],[54.2819,24.447362],[54.282053,24.446458],[54.27179,24.441191]],[[53.373707,24.467442],[53.373231,24.452176],[53.368458,24.456416],[53.373707,24.467442]],[[54.305993,24.422492],[54.303176,24.417974],[54.302099,24.420059],[54.305993,24.422492]],[[54.332948,24.383301],[54.333052,24.380777],[54.328457,24.382182],[54.332948,24.383301]],[[54.347705,24.378759],[54.343899,24.378238],[54.343944,24.38058],[54.347705,24.378759]],[[54.40662,24.362422],[54.41063,24.353465],[54.414679,24.34914],[54.397649,24.360826],[54.40662,24.362422]],[[54.409575,24.360072],[54.411083,24.360213],[54.412521,24.358143],[54.409575,24.360072]],[[54.415132,24.358009],[54.421636,24.355985],[54.421486,24.354301],[54.415132,24.358009]],[[54.405065,24.325938],[54.400613,24.328475],[54.40116,24.328962],[54.405065,24.325938]],[[54.420226,24.317245],[54.413311,24.319864],[54.413892,24.324258],[54.418272,24.321966],[54.420226,24.317245]],[[54.321395,24.45106],[54.31793,24.451575],[54.322953,24.453351],[54.321395,24.45106]],[[54.397194,24.50869],[54.416104,24.506315],[54.413263,24.497834],[54.424837,24.484066],[54.419218,24.473961],[54.392902,24.488455],[54.397194,24.50869]],[[54.426941,24.50409],[54.425453,24.507675],[54.434201,24.507758],[54.426941,24.50409]],[[54.418784,24.49558],[54.41779,24.495689],[54.417166,24.498311],[54.418784,24.49558]],[[54.387156,24.50118],[54.392429,24.507039],[54.390367,24.492616],[54.387156,24.50118]],[[54.444033,24.465798],[54.440831,24.467414],[54.443112,24.467839],[54.444033,24.465798]],[[54.45146,24.45979],[54.454791,24.453676],[54.452959,24.454227],[54.45146,24.45979]],[[54.491293,24.611574],[54.491399,24.607712],[54.489594,24.607229],[54.491293,24.611574]],[[54.149653,24.607722],[54.149525,24.607975],[54.150604,24.609062],[54.149653,24.607722]],[[54.476424,24.61872],[54.474088,24.612347],[54.474194,24.615726],[54.476424,24.61872]],[[53.051171,24.630031],[53.049164,24.626294],[53.052459,24.633719],[53.051171,24.630031]],[[52.769292,24.388258],[52.758668,24.395545],[52.762949,24.397424],[52.76673,24.395525],[52.769292,24.388258]],[[53.415422,24.39685],[53.423244,24.389631],[53.424198,24.382148],[53.415422,24.39685]],[[51.704332,24.383311],[51.706236,24.381087],[51.704631,24.381173],[51.704332,24.383311]],[[51.579729,24.385293],[51.601856,24.378444],[51.576404,24.381457],[51.579729,24.385293]],[[52.775583,24.393121],[52.780877,24.392691],[52.779808,24.388407],[52.775583,24.393121]],[[51.53372,24.390609],[51.53415,24.392373],[51.535704,24.391397],[51.53372,24.390609]],[[52.602274,24.370701],[52.627581,24.370025],[52.649105,24.336685],[52.650146,24.3239],[52.647684,24.311035],[52.64735,24.335769],[52.642641,24.299713],[52.622502,24.272429],[52.612986,24.275418],[52.619837,24.274945],[52.620914,24.282954],[52.610665,24.27734],[52.59803,24.257813],[52.607622,24.264995],[52.607947,24.25493],[52.59253,24.248933],[52.58565,24.255998],[52.58992,24.269872],[52.583424,24.261117],[52.552124,24.295952],[52.558053,24.344632],[52.602274,24.370701]],[[52.762682,24.361677],[52.761147,24.361672],[52.761048,24.361989],[52.762682,24.361677]],[[53.078095,24.323215],[53.077468,24.335456],[53.092239,24.341704],[53.101969,24.319216],[53.107179,24.322147],[53.10641,24.310833],[53.078095,24.323215]],[[53.330511,24.317552],[53.353935,24.302386],[53.336381,24.301884],[53.330474,24.290619],[53.334043,24.259808],[53.317411,24.277504],[53.284055,24.290934],[53.270031,24.284849],[53.264922,24.26765],[53.247538,24.269089],[53.224386,24.284678],[53.226935,24.294833],[53.330511,24.317552]],[[53.81389,24.28148],[53.872553,24.291168],[53.821066,24.275848],[53.815959,24.263831],[53.81389,24.28148]],[[53.844955,24.276016],[53.860462,24.273232],[53.87774,24.263239],[53.863057,24.245973],[53.879526,24.225472],[53.90794,24.212945],[53.936568,24.211256],[53.945117,24.222898],[53.93798,24.210562],[53.973002,24.182111],[53.960016,24.165591],[53.960923,24.148446],[53.925438,24.126139],[53.890845,24.120402],[53.905923,24.130244],[53.888985,24.133914],[53.890208,24.126354],[53.88767,24.134598],[53.873167,24.133149],[53.864056,24.14729],[53.842694,24.152164],[53.852617,24.170561],[53.881938,24.147729],[53.846077,24.177455],[53.833856,24.161351],[53.830394,24.136576],[53.812407,24.127271],[53.785075,24.128819],[53.777854,24.119867],[53.76293,24.128756],[53.73233,24.130219],[53.681574,24.161521],[53.64334,24.147494],[53.623472,24.168039],[53.733037,24.237089],[53.766612,24.243503],[53.758305,24.236474],[53.773591,24.230777],[53.818765,24.250915],[53.814768,24.262839],[53.820222,24.259216],[53.821389,24.25223],[53.811858,24.236441],[53.844955,24.276016]],[[54.082576,24.268854],[54.082978,24.268575],[54.080658,24.267738],[54.082576,24.268854]],[[54.100455,24.256517],[54.099319,24.257813],[54.102381,24.258286],[54.100455,24.256517]],[[54.094616,24.256696],[54.098188,24.255126],[54.09719,24.252349],[54.094616,24.256696]],[[54.090423,24.25268],[54.090948,24.253069],[54.094072,24.25035],[54.090423,24.25268]],[[54.016415,24.241003],[54.014239,24.241124],[54.014409,24.24447],[54.016415,24.241003]],[[54.000088,24.195252],[53.989601,24.208224],[53.991473,24.219169],[53.994835,24.205248],[54.000088,24.195252]],[[54.042871,24.212622],[54.042241,24.21321],[54.04354,24.215392],[54.042871,24.212622]],[[54.015979,24.2058],[54.014228,24.204115],[54.011852,24.207876],[54.015979,24.2058]],[[54.00747,24.172844],[54.00481,24.175636],[54.00586,24.176683],[54.00747,24.172844]],[[52.813003,24.175075],[52.822951,24.177822],[52.826381,24.172786],[52.8245,24.170356],[52.813003,24.175075]],[[52.879032,24.181209],[52.882393,24.187057],[52.888048,24.186989],[52.887798,24.178909],[52.879032,24.181209]],[[53.544735,24.18839],[53.534149,24.189068],[53.536147,24.202596],[53.542304,24.199546],[53.544735,24.18839]],[[52.952185,24.192171],[52.946293,24.193334],[52.944574,24.199087],[52.952185,24.192171]],[[51.995008,24.206695],[52.00006,24.202919],[52.002039,24.165044],[51.984596,24.170941],[51.995008,24.206695]],[[52.566357,24.186643],[52.562533,24.186861],[52.566427,24.188751],[52.566357,24.186643]],[[52.012664,24.210713],[51.995482,24.216936],[52.001739,24.247569],[52.013376,24.257049],[52.026608,24.245598],[52.024893,24.226976],[52.012664,24.210713]],[[51.868809,24.219454],[51.864437,24.212073],[51.860705,24.209787],[51.861696,24.217577],[51.868809,24.219454]],[[53.397598,24.233957],[53.39162,24.234477],[53.392172,24.243389],[53.392676,24.243201],[53.397598,24.233957]],[[53.387248,24.203802],[53.384442,24.218663],[53.418519,24.224533],[53.42905,24.196326],[53.400382,24.193837],[53.387248,24.203802]],[[53.216204,24.285568],[53.200122,24.283818],[53.188526,24.308006],[53.202426,24.307386],[53.215781,24.296008],[53.216204,24.285568]],[[52.877985,24.306964],[52.879669,24.30584],[52.878563,24.302687],[52.877985,24.306964]],[[51.792889,24.293365],[51.788844,24.300071],[51.794089,24.295081],[51.792889,24.293365]],[[51.635975,24.325642],[51.639547,24.329898],[51.641357,24.325895],[51.635975,24.325642]],[[51.621513,24.360326],[51.621664,24.359393],[51.617571,24.357702],[51.621513,24.360326]],[[51.690241,24.272756],[51.688908,24.269916],[51.685594,24.272768],[51.690241,24.272756]],[[52.001847,24.161872],[52.003935,24.160603],[52.000401,24.156576],[52.001847,24.161872]],[[51.994395,24.148692],[51.994064,24.148469],[51.992702,24.150759],[51.994395,24.148692]],[[52.435614,24.134827],[52.436814,24.133775],[52.436091,24.132648],[52.435614,24.134827]],[[51.896386,24.117531],[51.897297,24.114153],[51.89529,24.115143],[51.896386,24.117531]],[[53.031746,24.158442],[53.05603,24.162064],[53.041075,24.157176],[53.031746,24.158442]],[[53.00875,24.156415],[53.009704,24.161979],[53.011911,24.157137],[53.00875,24.156415]],[[53.862159,24.11939],[53.866252,24.118266],[53.861687,24.115281],[53.862159,24.11939]],[[53.882486,24.118658],[53.906027,24.118552],[53.901879,24.114766],[53.882486,24.118658]],[[53.870392,24.118423],[53.87634,24.119197],[53.873182,24.11559],[53.870392,24.118423]],[[53.473247,24.104275],[53.481996,24.104154],[53.477963,24.098823],[53.473247,24.104275]],[[53.577796,24.058158],[53.574236,24.056247],[53.575421,24.059354],[53.577796,24.058158]],[[54.080781,24.167063],[54.089419,24.175223],[54.110429,24.169645],[54.080781,24.167063]],[[54.120123,24.188253],[54.120244,24.180596],[54.116241,24.184798],[54.120123,24.188253]],[[54.131402,24.1904],[54.13163,24.183421],[54.127368,24.189793],[54.131402,24.1904]],[[54.18107,24.276324],[54.177922,24.283615],[54.184322,24.278645],[54.18107,24.276324]],[[54.191058,24.267461],[54.18923,24.268193],[54.191033,24.269915],[54.191058,24.267461]],[[54.255883,24.348703],[54.24954,24.35448],[54.249782,24.357641],[54.255883,24.348703]],[[54.287339,24.258371],[54.284891,24.261719],[54.289982,24.259084],[54.287339,24.258371]],[[54.298573,24.250483],[54.29242,24.253188],[54.305356,24.248951],[54.298573,24.250483]],[[54.286255,24.249266],[54.286798,24.250721],[54.28932,24.250253],[54.286255,24.249266]],[[54.494099,24.385142],[54.494452,24.387503],[54.496042,24.387342],[54.494099,24.385142]],[[54.619915,24.66642],[54.623739,24.675889],[54.621541,24.663587],[54.619915,24.66642]],[[54.615234,24.666061],[54.612088,24.661319],[54.603954,24.670175],[54.615234,24.666061]],[[54.621296,24.65553],[54.617306,24.656088],[54.617152,24.661598],[54.621296,24.65553]],[[54.637449,24.642095],[54.631658,24.641751],[54.627442,24.648282],[54.631729,24.643943],[54.637449,24.642095]],[[54.615283,24.640564],[54.626897,24.638354],[54.631984,24.62761],[54.617992,24.629509],[54.615283,24.640564]],[[54.603207,24.617348],[54.601147,24.614422],[54.602094,24.622944],[54.603207,24.617348]],[[55.151519,25.11159],[55.155094,25.117447],[55.160308,25.116374],[55.151519,25.11159]],[[55.158444,25.110837],[55.159575,25.111238],[55.158853,25.109591],[55.158444,25.110837]],[[55.347157,25.210152],[55.343959,25.203432],[55.341653,25.204002],[55.341323,25.207584],[55.347157,25.210152]],[[55.331633,25.195817],[55.332896,25.198446],[55.333923,25.197169],[55.331633,25.195817]],[[55.355993,25.312672],[55.357885,25.314811],[55.3568,25.312071],[55.355993,25.312672]],[[55.370082,25.319517],[55.369459,25.318712],[55.366907,25.321689],[55.370082,25.319517]],[[55.380934,25.340859],[55.379824,25.340505],[55.377702,25.346701],[55.380934,25.340859]],[[55.383023,25.335696],[55.386026,25.333837],[55.385177,25.333365],[55.383023,25.335696]],[[55.698309,25.62781],[55.698369,25.626951],[55.697863,25.626925],[55.698309,25.62781]],[[55.699026,25.629268],[55.699469,25.629151],[55.698309,25.628051],[55.699026,25.629268]],[[55.853425,25.724385],[55.861483,25.726274],[55.861089,25.724798],[55.853425,25.724385]],[[55.9522,25.783527],[55.950898,25.782415],[55.94749,25.784389],[55.9522,25.783527]],[[55.961509,25.785837],[55.963567,25.781661],[55.961108,25.782466],[55.961509,25.785837]]]}}
