{"type":"Feature","properties":{"mrgid":25422,"name":"Overlapping claim Glorioso Islands: France / Madagascar part of the Mozambique Channel","placeType":"Marine Region","source":"MarineRegions:eez_iho"},"geometry":{"type":"Polygon","coordinates":[[[48.058122,-11.836594],[45.990995,-11.630414],[46.114764,-11.869345],[46.418142,-12.378554],[46.685979,-12.809392],[47.146871,-12.694532],[47.239909,-12.661117],[47.466087,-12.56189],[47.588728,-12.493572],[47.720092,-12.407588],[47.858259,-12.16158],[48.058122,-11.836594]]]}}
