{"type":"Feature","properties":{"mrgid":25437,"name":"Indonesian part of the Andaman or Burma Sea","placeType":"Marine Region","source":"MarineRegions:eez_iho"},"geometry":{"type":"Polygon","coordinates":[[[97.058141,6.841292],[96.608333,7.096667],[95.53,7.783333],[95.429167,7.668333],[94.926944,7.04],[94.633333,6.641667],[94.438519,6.329215],[95.04884,5.750244],[95.056304,5.753906],[95.070042,5.746094],[95.063765,5.737983],[95.072716,5.723677],[95.090237,5.72466],[95.11184,5.704481],[95.107263,5.69626],[95.132846,5.68656],[95.140131,5.663043],[95.117719,5.672086],[95.111054,5.666752],[95.136302,5.62888],[95.144722,5.635211],[95.140252,5.660046],[95.156452,5.660142],[95.166293,5.650964],[95.158649,5.640733],[95.167336,5.640538],[95.171109,5.625],[95.192741,5.605073],[95.17436,5.60795],[95.157906,5.596474],[95.19935,5.534309],[95.225219,5.57602],[95.239844,5.570213],[95.236532,5.552633],[95.244982,5.545759],[95.257522,5.549111],[95.238222,5.557299],[95.261561,5.549915],[95.279307,5.556195],[95.267267,5.548552],[95.275794,5.546598],[95.28367,5.559959],[95.299247,5.564946],[95.297843,5.569545],[95.320395,5.58656],[95.325052,5.593558],[95.346645,5.597638],[95.338856,5.600344],[95.346495,5.604954],[95.348535,5.598403],[95.345805,5.595166],[95.318036,5.583859],[95.326995,5.578234],[95.331326,5.588521],[95.334482,5.573246],[95.334269,5.589826],[95.342058,5.592494],[95.339602,5.571627],[95.34623,5.58643],[95.359414,5.572449],[95.354688,5.586395],[95.391101,5.614691],[95.387953,5.618949],[95.378064,5.61557],[95.416838,5.650391],[95.432258,5.657058],[95.436861,5.651418],[97.058141,6.841292]],[[95.113366,6.076547],[95.121244,6.07372],[95.118257,6.070737],[95.113366,6.076547]],[[95.110454,6.05781],[95.110142,6.058327],[95.112243,6.058452],[95.110454,6.05781]],[[95.239686,5.849988],[95.219601,5.87489],[95.21655,5.907206],[95.236163,5.898265],[95.248111,5.877291],[95.249773,5.883513],[95.257326,5.87274],[95.268113,5.870032],[95.26379,5.85924],[95.276325,5.847635],[95.298985,5.839359],[95.301571,5.872863],[95.316015,5.867248],[95.324154,5.882955],[95.309633,5.893276],[95.328245,5.900921],[95.348371,5.886441],[95.358997,5.858097],[95.374461,5.847538],[95.376082,5.804824],[95.350847,5.82819],[95.343906,5.821436],[95.346415,5.793303],[95.329738,5.772072],[95.284755,5.780419],[95.265602,5.806462],[95.256392,5.843919],[95.239686,5.849988]],[[95.25257,5.8954],[95.253055,5.897173],[95.255611,5.894078],[95.25257,5.8954]],[[95.254302,5.885491],[95.260293,5.882621],[95.259234,5.87475],[95.257413,5.880207],[95.254302,5.885491]],[[95.310554,5.87773],[95.313939,5.874219],[95.312763,5.873177],[95.310554,5.87773]],[[95.169307,5.643216],[95.169901,5.642673],[95.169487,5.641806],[95.169307,5.643216]],[[95.372659,5.613959],[95.374084,5.613402],[95.35138,5.601687],[95.372659,5.613959]],[[95.370869,5.606876],[95.374415,5.605906],[95.371162,5.60231],[95.370869,5.606876]],[[95.319339,5.588065],[95.320032,5.588065],[95.319339,5.586605],[95.319339,5.588065]],[[95.215723,5.579787],[95.182804,5.574157],[95.188895,5.579186],[95.215723,5.579787]],[[95.219527,5.579584],[95.221607,5.577081],[95.218141,5.577081],[95.219527,5.579584]],[[95.180939,5.573144],[95.179067,5.573561],[95.179344,5.574256],[95.180939,5.573144]],[[95.355062,5.598386],[95.353633,5.591824],[95.351405,5.596408],[95.355062,5.598386]],[[95.351517,5.588376],[95.350788,5.587033],[95.345504,5.592884],[95.351517,5.588376]]]}}
