{"type":"Feature","properties":{"mrgid":25518,"name":"Equatorial Guinean part of the South Atlantic Ocean","placeType":"Marine Region","source":"MarineRegions:eez_iho"},"geometry":{"type":"Polygon","coordinates":[[[4.920513,0.0],[2.59619,0.0],[2.466622,-0.32435],[2.368205,-0.674026],[2.307663,-1.032933],[2.285988,-1.389357],[2.300918,-1.764743],[2.352433,-2.117853],[2.443469,-2.471446],[2.571497,-2.811309],[2.722875,-3.113777],[2.894541,-3.386943],[3.095319,-3.646519],[3.31935,-3.884354],[3.561258,-4.096672],[3.823894,-4.285435],[4.095295,-4.443541],[4.38887,-4.578745],[4.687973,-4.682974],[5.004663,-4.759962],[5.325213,-4.80532],[5.657486,-4.820083],[5.980174,-4.802479],[6.307775,-4.752094],[6.621773,-4.671825],[6.922446,-4.562986],[7.354937,-2.054074],[7.349013,-1.931889],[7.28448,-1.491281],[6.191861,-0.787722],[5.323056,-0.215],[4.920513,0.0]],[[5.631755,-1.403533],[5.649447,-1.41816],[5.655556,-1.441815],[5.651278,-1.460503],[5.638359,-1.468187],[5.617348,-1.452304],[5.625872,-1.443251],[5.61705,-1.410348],[5.631755,-1.403533]]]}}
