{"type":"Feature","properties":{"mrgid":25525,"name":"Angolan part of the South Atlantic Ocean","placeType":"Marine Region","source":"MarineRegions:eez_iho"},"geometry":{"type":"MultiPolygon","coordinates":[[[[13.420862,-5.873396],[13.431981,-5.859551],[13.401044,-5.873289],[13.381689,-5.870482],[13.355137,-5.909967],[13.33172,-5.896932],[13.307568,-5.893617],[13.280918,-5.875614],[13.222465,-5.862],[13.169273,-5.875597],[13.114855,-5.904637],[13.087839,-5.872359],[13.038223,-5.864361],[13.016476,-5.871055],[13.003292,-5.888187],[12.943341,-5.92101],[12.904008,-5.919179],[12.888582,-5.938683],[12.869159,-5.947971],[12.843716,-5.93722],[12.814517,-5.973561],[12.74462,-5.971458],[12.701148,-6.008818],[12.669027,-6.008024],[12.645956,-6.021711],[12.628506,-6.016499],[12.488279,-6.071251],[12.444089,-6.080925],[12.406053,-6.071808],[12.401655,-6.023798],[12.362911,-6.052933],[9.057717,-7.082652],[9.146105,-7.350233],[9.259198,-7.613823],[9.363207,-7.81237],[9.49596,-8.027339],[9.585225,-8.213052],[9.68917,-8.398642],[9.641933,-8.709921],[9.622015,-9.00412],[9.62777,-9.309651],[9.658992,-9.600696],[9.704582,-9.841677],[9.76508,-10.071866],[9.829469,-10.264064],[9.901598,-10.443077],[10.000262,-10.788053],[10.085935,-11.010506],[10.000878,-11.14532],[9.744285,-11.487564],[9.61939,-11.673227],[9.48287,-11.91254],[9.370827,-12.151259],[9.251353,-12.481292],[9.194675,-12.68388],[9.150463,-12.891186],[9.040711,-13.235325],[8.959892,-13.576404],[8.916424,-13.863948],[8.855793,-14.001698],[8.719222,-14.227301],[8.586763,-14.488876],[8.48346,-14.742052],[8.399146,-14.999499],[8.343563,-15.219958],[8.303117,-15.446678],[8.278818,-15.671366],[8.269875,-15.888644],[8.226009,-16.140717],[8.201528,-16.390827],[8.195909,-16.600077],[8.204061,-16.812199],[8.225909,-17.026516],[8.263541,-17.25],[11.718221,-17.25],[11.751744,-17.242947],[11.789649,-17.272145],[11.789465,-17.271047],[11.780229,-17.263834],[11.777053,-17.256529],[11.773214,-17.255966],[11.768521,-17.248349],[11.750847,-17.239519],[11.748675,-17.100871],[11.763135,-16.940093],[11.782224,-16.87756],[11.771418,-16.776708],[11.786313,-16.76504],[11.783479,-16.774405],[11.792078,-16.7751],[11.778363,-16.822405],[11.790296,-16.821041],[11.804171,-16.805742],[11.811339,-16.781194],[11.822546,-16.707543],[11.815702,-16.68207],[11.820995,-16.658089],[11.81864,-16.677613],[11.827314,-16.690336],[11.823522,-16.639441],[11.814703,-16.625485],[11.821959,-16.616053],[11.819637,-16.630489],[11.823178,-16.617312],[11.826663,-16.456228],[11.790073,-16.131914],[11.789682,-16.091936],[11.805451,-16.021533],[11.781084,-15.97168],[11.736589,-15.908345],[11.731544,-15.878033],[11.769083,-15.791506],[11.784463,-15.781295],[11.796472,-15.794085],[11.830793,-15.780841],[11.855277,-15.781342],[11.853041,-15.787234],[11.830672,-15.782953],[11.810277,-15.792327],[11.826303,-15.803103],[11.879578,-15.78711],[11.894329,-15.756392],[11.909725,-15.745674],[11.926901,-15.677265],[11.967423,-15.658463],[11.995095,-15.631489],[12.00459,-15.592495],[12.019965,-15.567265],[12.030704,-15.486336],[12.030103,-15.396112],[12.043304,-15.351861],[12.05321,-15.341317],[12.054785,-15.234336],[12.092105,-15.201826],[12.106207,-15.201265],[12.125568,-15.186296],[12.140772,-15.196874],[12.153739,-15.182299],[12.156622,-15.16123],[12.143467,-15.12961],[12.136969,-15.125684],[12.128457,-15.136238],[12.112294,-15.136052],[12.116474,-15.117188],[12.125584,-15.117188],[12.140085,-15.055118],[12.169339,-15.021512],[12.164083,-14.985141],[12.169756,-14.965427],[12.175635,-14.953292],[12.190053,-14.952282],[12.199113,-14.935946],[12.204727,-14.900422],[12.215422,-14.895448],[12.210685,-14.870659],[12.224157,-14.834961],[12.248937,-14.82812],[12.264822,-14.784012],[12.287341,-14.754628],[12.280602,-14.734236],[12.285395,-14.728141],[12.271309,-14.699648],[12.295629,-14.668393],[12.291784,-14.630631],[12.30035,-14.617238],[12.300972,-14.577863],[12.335668,-14.474862],[12.336947,-14.448152],[12.345842,-14.446883],[12.354461,-14.410887],[12.35876,-14.365289],[12.352344,-14.338309],[12.369011,-14.312961],[12.36403,-14.295045],[12.369323,-14.28748],[12.354233,-14.268363],[12.354732,-14.24407],[12.334648,-14.215753],[12.331819,-14.186046],[12.361381,-14.180764],[12.371063,-14.155126],[12.353095,-14.101742],[12.361223,-14.059321],[12.377014,-14.052323],[12.391955,-14.032809],[12.397716,-13.957333],[12.42461,-13.945025],[12.421492,-13.878091],[12.493439,-13.867506],[12.487713,-13.880971],[12.507909,-13.87652],[12.511458,-13.882057],[12.528601,-13.847004],[12.519422,-13.843819],[12.520764,-13.819564],[12.528385,-13.816536],[12.520982,-13.808802],[12.526367,-13.784675],[12.521606,-13.765995],[12.531738,-13.746781],[12.526225,-13.742437],[12.533955,-13.70345],[12.530696,-13.675123],[12.539395,-13.636062],[12.527872,-13.629741],[12.535993,-13.620391],[12.528873,-13.610836],[12.55076,-13.587945],[12.550549,-13.570853],[12.54267,-13.567698],[12.554576,-13.559336],[12.539192,-13.541169],[12.548931,-13.504592],[12.532178,-13.4988],[12.539207,-13.458013],[12.524951,-13.450712],[12.533455,-13.437125],[12.53093,-13.418668],[12.545713,-13.421237],[12.550772,-13.401624],[12.559495,-13.39977],[12.564587,-13.411477],[12.589235,-13.396731],[12.613237,-13.359375],[12.651576,-13.34023],[12.652619,-13.313972],[12.63848,-13.290033],[12.65848,-13.291091],[12.644807,-13.28335],[12.65544,-13.244842],[12.671585,-13.2581],[12.706306,-13.2376],[12.706015,-13.211304],[12.727738,-13.232607],[12.744785,-13.223075],[12.750118,-13.199816],[12.782672,-13.19586],[12.795142,-13.162245],[12.779804,-13.154608],[12.819586,-13.130433],[12.822108,-13.140744],[12.82847,-13.139479],[12.840625,-13.116121],[12.875955,-13.10489],[12.892991,-13.064728],[12.916094,-13.043887],[12.917968,-13.030878],[12.942227,-13.018252],[12.965371,-12.982741],[12.978627,-12.982669],[12.977263,-12.958783],[12.938617,-12.863121],[12.940374,-12.834339],[12.970521,-12.819965],[13.011934,-12.771872],[13.057087,-12.741058],[13.077801,-12.714318],[13.096498,-12.708094],[13.117502,-12.680616],[13.139787,-12.669603],[13.150172,-12.636723],[13.19209,-12.602141],[13.204482,-12.598298],[13.20255,-12.611749],[13.235157,-12.622577],[13.266622,-12.599951],[13.264392,-12.584265],[13.285204,-12.589844],[13.301709,-12.580498],[13.320617,-12.609259],[13.342562,-12.613267],[13.380108,-12.592532],[13.406557,-12.559604],[13.473803,-12.510579],[13.48532,-12.476702],[13.477468,-12.454618],[13.485254,-12.455233],[13.480016,-12.447648],[13.516176,-12.372411],[13.583905,-12.315098],[13.548496,-12.3459],[13.557154,-12.353159],[13.575074,-12.347643],[13.652123,-12.244272],[13.673671,-12.146007],[13.696063,-12.127531],[13.70843,-12.104825],[13.726143,-11.990015],[13.76319,-11.956571],[13.778798,-11.890206],[13.780022,-11.845028],[13.79388,-11.81234],[13.798942,-11.765289],[13.780851,-11.62623],[13.787785,-11.615662],[13.768655,-11.578179],[13.781105,-11.56932],[13.786097,-11.552593],[13.78218,-11.500715],[13.797231,-11.457608],[13.792768,-11.43127],[13.805572,-11.396585],[13.796512,-11.344276],[13.809832,-11.318684],[13.829518,-11.308451],[13.824764,-11.24707],[13.8334,-11.230878],[13.839584,-11.146032],[13.857558,-11.070153],[13.855628,-11.038459],[13.865173,-11.019889],[13.854386,-10.959868],[13.827918,-10.901764],[13.719119,-10.756365],[13.744656,-10.746858],[13.757557,-10.719553],[13.773332,-10.713588],[13.781938,-10.684535],[13.766348,-10.655193],[13.642802,-10.505807],[13.529922,-10.389065],[13.547841,-10.361318],[13.526462,-10.272675],[13.494714,-10.238726],[13.49748,-10.233096],[13.486372,-10.231849],[13.467546,-10.208454],[13.439886,-10.122944],[13.407735,-10.083533],[13.363082,-10.048362],[13.361047,-10.033397],[13.313227,-9.983423],[13.311204,-9.974996],[13.33326,-9.972839],[13.342289,-9.95358],[13.312399,-9.893797],[13.313816,-9.869563],[13.288144,-9.818436],[13.195918,-9.68763],[13.194981,-9.676015],[13.217948,-9.670446],[13.237111,-9.637746],[13.226404,-9.60563],[13.192994,-9.558397],[13.201869,-9.552419],[13.198161,-9.537363],[13.206312,-9.52695],[13.170473,-9.465869],[13.179136,-9.442011],[13.177972,-9.413064],[13.150029,-9.349344],[13.161381,-9.341321],[13.166121,-9.322837],[13.176268,-9.331163],[13.187357,-9.326727],[13.189525,-9.309742],[13.198795,-9.30181],[13.19266,-9.293045],[13.205803,-9.289556],[13.220595,-9.266333],[13.228085,-9.210769],[13.248557,-9.188305],[13.280087,-9.180197],[13.299216,-9.157822],[13.318296,-9.149862],[13.359375,-9.165179],[13.348877,-9.159088],[13.322567,-9.149323],[13.318256,-9.148996],[13.30059,-9.155307],[13.280952,-9.1791],[13.253749,-9.184662],[13.248435,-9.187589],[13.227361,-9.21044],[13.217301,-9.257673],[13.217935,-9.262562],[13.220041,-9.266412],[13.210209,-9.273278],[13.204574,-9.289643],[13.196915,-9.290251],[13.1919,-9.29276],[13.19189,-9.295375],[13.197956,-9.30126],[13.188565,-9.310158],[13.186252,-9.326787],[13.176013,-9.330052],[13.170539,-9.319826],[13.165496,-9.320989],[13.153108,-9.345191],[12.992876,-9.084775],[13.001217,-9.028314],[13.013148,-9.026316],[13.018936,-9.033408],[13.002816,-9.037389],[13.010908,-9.043415],[13.00335,-9.066109],[13.014004,-9.073454],[13.007563,-9.074401],[13.012992,-9.090281],[13.006565,-9.101374],[13.015672,-9.105115],[13.019647,-9.081043],[13.052734,-9.052428],[13.070794,-9.020761],[13.073877,-9.00284],[13.091288,-8.992651],[13.104754,-8.958692],[13.148413,-8.956953],[13.159477,-8.929274],[13.158252,-8.909354],[13.199122,-8.866133],[13.203357,-8.837507],[13.214461,-8.831046],[13.222416,-8.804727],[13.218578,-8.806685],[13.212471,-8.825261],[13.212253,-8.816872],[13.223594,-8.793762],[13.233191,-8.782861],[13.263339,-8.760664],[13.225689,-8.794078],[13.229672,-8.811261],[13.245637,-8.795028],[13.277045,-8.790263],[13.289708,-8.76422],[13.302303,-8.755865],[13.365849,-8.775885],[13.397833,-8.748194],[13.416284,-8.65839],[13.410756,-8.63411],[13.394154,-8.6216],[13.372323,-8.584434],[13.370127,-8.538674],[13.345864,-8.471333],[13.354751,-8.464918],[13.376499,-8.473641],[13.387161,-8.461444],[13.392591,-8.44321],[13.38616,-8.415099],[13.396644,-8.411466],[13.394187,-8.393006],[13.349097,-8.299173],[13.296535,-8.2267],[13.289991,-8.202708],[13.265124,-8.17483],[13.26687,-8.136068],[13.213471,-8.073926],[13.200521,-8.032735],[13.178882,-7.997214],[13.18857,-7.996347],[13.188236,-7.992546],[13.183439,-7.99559],[13.152646,-7.949025],[13.147759,-7.91448],[13.096587,-7.838024],[13.104223,-7.834454],[13.111709,-7.844672],[13.116836,-7.839145],[13.131736,-7.852346],[13.129967,-7.841427],[13.146596,-7.844653],[13.139974,-7.835153],[13.153273,-7.822857],[13.121894,-7.811866],[13.104349,-7.81875],[13.108726,-7.836043],[13.098385,-7.814824],[13.103354,-7.816018],[13.069752,-7.77601],[13.058323,-7.719171],[13.02717,-7.65777],[13.023087,-7.631859],[12.997736,-7.598584],[13.007813,-7.575056],[12.986946,-7.553715],[12.955129,-7.456583],[12.947224,-7.455127],[12.935539,-7.432874],[12.913387,-7.334669],[12.887332,-7.305297],[12.891799,-7.301487],[12.886616,-7.304419],[12.853736,-7.269526],[12.856714,-7.221744],[12.8505,-7.205935],[12.855806,-7.201446],[12.849687,-7.200483],[12.843272,-7.151612],[12.849948,-7.110063],[12.828145,-7.028252],[12.829332,-6.992862],[12.797404,-6.948224],[12.805602,-6.956164],[12.803724,-6.948272],[12.760275,-6.898313],[12.750063,-6.870075],[12.562213,-6.662806],[12.555694,-6.633539],[12.500997,-6.550333],[12.395378,-6.324355],[12.273464,-6.138192],[12.275407,-6.108511],[12.331717,-6.077381],[12.321085,-6.106913],[12.277647,-6.110327],[12.277687,-6.118816],[12.297555,-6.108959],[12.30914,-6.112901],[12.299578,-6.124207],[12.299659,-6.131892],[12.300751,-6.124328],[12.305972,-6.123724],[12.308602,-6.121995],[12.310704,-6.113345],[12.318235,-6.113297],[12.314379,-6.142765],[12.287748,-6.148224],[12.302289,-6.151056],[12.29717,-6.164156],[12.304366,-6.160557],[12.30846,-6.155179],[12.318279,-6.164753],[12.31616,-6.157744],[12.310314,-6.15166],[12.320855,-6.135008],[12.339929,-6.140394],[12.339223,-6.146108],[12.348382,-6.155883],[12.343826,-6.14702],[12.339513,-6.144949],[12.344702,-6.137651],[12.325304,-6.132572],[12.321271,-6.121428],[12.361235,-6.118912],[12.371154,-6.13113],[12.383481,-6.127188],[12.391676,-6.14579],[12.387862,-6.175683],[12.39173,-6.171414],[12.394782,-6.147606],[12.38964,-6.128183],[12.383948,-6.123074],[12.370191,-6.125424],[12.364916,-6.114706],[12.406124,-6.117395],[12.412788,-6.110815],[12.422333,-6.117163],[12.419827,-6.113316],[12.413671,-6.109684],[12.410943,-6.110026],[12.405558,-6.116187],[12.399712,-6.109501],[12.443246,-6.10359],[12.453681,-6.110682],[12.452387,-6.121417],[12.462979,-6.115967],[12.45694,-6.099645],[12.483783,-6.092094],[12.498097,-6.09712],[12.503085,-6.110631],[12.519216,-6.128425],[12.540513,-6.12252],[12.569429,-6.140874],[12.588882,-6.13177],[12.608665,-6.139102],[12.599594,-6.129796],[12.587095,-6.129773],[12.566606,-6.137805],[12.540392,-6.118666],[12.520589,-6.124568],[12.502393,-6.08631],[12.567242,-6.062706],[12.575324,-6.070966],[12.569006,-6.07585],[12.570474,-6.086125],[12.602562,-6.095495],[12.588152,-6.085725],[12.572081,-6.082655],[12.593271,-6.065707],[12.589374,-6.063263],[12.580885,-6.069039],[12.573123,-6.060806],[12.607522,-6.052923],[12.639108,-6.071636],[12.662874,-6.044438],[12.667816,-6.029648],[12.699808,-6.044419],[12.74505,-6.049031],[12.773433,-6.038255],[12.779294,-6.045345],[12.791717,-6.048422],[12.815811,-6.028768],[12.846958,-6.032891],[12.88758,-5.99601],[12.911715,-5.997738],[12.937836,-5.969828],[12.949919,-5.97179],[12.956932,-5.967041],[12.961222,-5.962773],[12.964048,-5.956307],[12.962753,-5.916899],[13.003078,-5.898356],[13.021151,-5.898215],[13.036526,-5.90873],[13.066518,-5.895442],[13.10058,-5.89601],[13.114499,-5.911345],[13.130374,-5.909247],[13.170619,-5.878371],[13.224372,-5.865621],[13.277951,-5.879405],[13.309629,-5.901453],[13.332102,-5.900928],[13.335413,-5.91287],[13.347506,-5.908836],[13.355146,-5.918185],[13.385918,-5.875303],[13.420862,-5.873396]],[[13.134728,-5.901805],[13.135311,-5.902831],[13.133181,-5.906047],[13.134728,-5.901805]],[[13.058191,-5.889718],[13.038524,-5.872206],[13.050406,-5.867437],[13.069966,-5.874547],[13.072108,-5.885513],[13.058191,-5.889718]],[[13.013811,-5.887371],[13.031001,-5.87804],[13.039724,-5.881576],[13.039015,-5.884202],[13.013811,-5.887371]],[[13.036436,-5.878033],[13.046779,-5.884805],[13.032981,-5.875988],[13.036436,-5.878033]],[[13.074957,-5.879434],[13.095162,-5.884388],[13.093448,-5.888022],[13.074957,-5.879434]],[[12.890962,-5.939896],[12.921594,-5.928599],[12.901459,-5.938383],[12.888113,-5.955446],[12.890962,-5.939896]],[[12.930069,-5.932659],[12.914964,-5.950459],[12.910493,-5.964712],[12.897633,-5.979045],[12.867015,-5.989618],[12.852699,-5.985931],[12.868316,-5.966568],[12.889852,-5.96273],[12.930069,-5.932659]],[[12.957988,-5.94561],[12.95485,-5.955894],[12.954156,-5.953735],[12.957988,-5.94561]],[[12.958789,-5.95539],[12.960381,-5.962494],[12.945287,-5.96978],[12.952501,-5.960114],[12.958789,-5.95539]],[[12.915524,-5.956998],[12.916871,-5.950056],[12.917742,-5.951833],[12.915524,-5.956998]],[[12.918644,-5.949297],[12.917617,-5.94996],[12.91785,-5.948492],[12.918644,-5.949297]],[[12.921114,-5.976563],[12.924201,-5.978934],[12.918259,-5.982393],[12.921114,-5.976563]],[[12.91421,-5.984904],[12.907669,-5.987754],[12.915007,-5.9815],[12.91421,-5.984904]],[[12.828035,-5.994094],[12.832058,-5.998253],[12.80768,-5.992926],[12.828035,-5.994094]],[[12.813862,-5.999277],[12.81022,-5.99822],[12.811541,-5.998118],[12.813862,-5.999277]],[[12.764784,-6.015973],[12.725092,-6.026719],[12.714529,-6.020593],[12.723969,-6.007486],[12.799253,-5.987507],[12.764784,-6.015973]],[[12.850685,-6.002019],[12.840027,-6.014399],[12.82078,-6.017097],[12.809934,-6.008219],[12.83119,-6.004464],[12.850685,-6.002019]],[[12.863435,-6.0097],[12.867994,-6.008023],[12.857747,-6.013786],[12.863435,-6.0097]],[[12.856161,-6.015904],[12.856636,-6.023118],[12.838388,-6.031199],[12.832439,-6.026841],[12.845953,-6.021121],[12.856161,-6.015904]],[[12.743989,-6.028987],[12.739502,-6.029731],[12.743366,-6.027375],[12.743989,-6.028987]],[[12.774092,-6.02915],[12.776474,-6.029426],[12.774392,-6.030356],[12.774092,-6.02915]],[[12.751506,-6.034319],[12.743372,-6.032852],[12.749602,-6.030102],[12.751506,-6.034319]],[[12.76421,-6.036179],[12.754914,-6.043512],[12.742442,-6.036418],[12.75651,-6.038488],[12.76421,-6.036179]],[[12.792693,-6.037479],[12.788548,-6.04506],[12.778412,-6.038579],[12.779605,-6.037521],[12.792693,-6.037479]],[[12.737795,-6.037888],[12.743006,-6.042875],[12.737893,-6.042757],[12.737795,-6.037888]],[[12.71406,-6.029935],[12.716637,-6.025309],[12.720579,-6.028866],[12.71406,-6.029935]],[[12.704385,-6.023844],[12.712519,-6.021799],[12.71302,-6.029461],[12.704385,-6.023844]],[[12.659545,-6.027698],[12.661319,-6.043852],[12.636956,-6.066827],[12.617492,-6.052848],[12.598258,-6.052199],[12.626654,-6.031744],[12.659545,-6.027698]],[[12.786366,-6.02233],[12.805481,-6.020716],[12.793001,-6.027716],[12.786366,-6.02233]],[[12.781415,-6.021971],[12.784338,-6.019504],[12.788893,-6.020296],[12.781415,-6.021971]],[[12.813753,-6.018214],[12.815816,-6.017721],[12.813468,-6.019681],[12.813753,-6.018214]],[[12.824708,-6.01752],[12.826048,-6.018563],[12.821629,-6.020847],[12.824708,-6.01752]],[[12.740909,-6.030475],[12.745904,-6.029634],[12.74255,-6.030898],[12.740909,-6.030475]],[[12.812108,-6.006129],[12.804706,-6.004941],[12.802183,-6.0055],[12.807636,-6.000521],[12.812108,-6.006129]],[[12.710184,-6.019334],[12.711046,-6.017512],[12.714734,-6.01771],[12.710184,-6.019334]],[[12.673406,-6.012867],[12.690158,-6.012652],[12.685292,-6.017343],[12.673406,-6.012867]],[[12.717423,-6.013513],[12.711149,-6.016639],[12.711427,-6.014277],[12.717423,-6.013513]],[[12.746469,-5.998448],[12.741517,-5.999108],[12.743566,-5.996726],[12.746469,-5.998448]],[[12.752083,-5.99541],[12.748154,-5.995724],[12.751518,-5.993078],[12.752083,-5.99541]],[[12.730539,-5.994328],[12.745766,-5.980226],[12.760039,-5.982972],[12.755711,-5.99088],[12.730539,-5.994328]],[[12.73463,-5.986986],[12.729508,-5.991758],[12.736627,-5.983297],[12.73463,-5.986986]],[[12.764308,-5.97954],[12.772752,-5.980223],[12.772098,-5.985741],[12.764308,-5.97954]],[[12.850128,-5.976563],[12.85394,-5.975162],[12.851678,-5.979813],[12.850128,-5.976563]],[[12.833489,-5.975477],[12.835126,-5.971932],[12.837954,-5.973183],[12.833489,-5.975477]],[[12.839849,-5.973498],[12.845649,-5.967669],[12.829553,-5.966605],[12.839085,-5.950423],[12.858338,-5.947405],[12.853145,-5.971502],[12.839849,-5.973498]],[[12.874108,-5.948868],[12.884987,-5.944603],[12.886434,-5.952663],[12.880231,-5.955995],[12.874108,-5.948868]],[[12.888765,-5.956573],[12.889057,-5.957271],[12.885631,-5.958279],[12.888765,-5.956573]],[[12.871703,-5.953166],[12.868217,-5.953102],[12.870129,-5.950594],[12.871703,-5.953166]],[[12.868846,-5.959965],[12.871701,-5.958984],[12.873326,-5.960512],[12.868846,-5.959965]],[[12.778562,-5.981222],[12.778534,-5.984218],[12.777276,-5.983909],[12.778562,-5.981222]],[[12.775923,-5.983769],[12.774239,-5.984689],[12.773084,-5.983444],[12.775923,-5.983769]],[[12.763272,-5.988947],[12.76214,-5.98867],[12.762394,-5.987932],[12.763272,-5.988947]],[[12.911934,-5.937873],[12.905921,-5.94582],[12.901716,-5.946757],[12.904222,-5.941127],[12.911934,-5.937873]],[[13.210647,-8.825347],[13.213882,-8.826377],[13.202204,-8.832162],[13.210647,-8.825347]],[[13.048342,-8.960444],[13.141496,-8.866725],[13.153324,-8.863153],[13.163849,-8.869602],[13.142122,-8.874599],[13.142469,-8.888697],[13.120864,-8.897424],[13.103537,-8.924735],[13.065019,-8.953732],[13.050925,-8.979751],[13.039231,-8.981764],[13.025211,-9.003863],[13.048342,-8.960444]],[[13.165905,-8.867343],[13.166113,-8.868312],[13.165374,-8.868827],[13.165905,-8.867343]],[[13.148937,-8.902198],[13.155091,-8.904892],[13.147961,-8.908297],[13.148937,-8.902198]],[[13.127102,-8.90576],[13.129488,-8.919668],[13.122311,-8.939668],[13.115217,-8.94066],[13.12155,-8.9433],[13.105059,-8.947096],[13.102722,-8.935385],[13.127102,-8.90576]],[[13.130431,-8.935057],[13.131636,-8.931901],[13.14019,-8.938591],[13.130431,-8.935057]],[[13.093733,-8.975966],[13.09608,-8.975705],[13.094056,-8.982738],[13.093733,-8.975966]],[[13.05789,-8.988239],[13.055802,-8.988536],[13.054777,-8.984248],[13.05789,-8.988239]],[[13.017121,-9.021998],[13.022825,-9.008176],[13.023929,-9.007521],[13.026068,-9.018198],[13.017121,-9.021998]],[[13.066984,-9.021238],[13.068386,-9.018566],[13.069199,-9.020498],[13.066984,-9.021238]],[[12.947129,-12.889915],[12.947377,-12.889726],[12.949765,-12.896166],[12.947129,-12.889915]],[[12.949542,-12.897462],[12.949937,-12.896925],[12.951238,-12.899283],[12.949542,-12.897462]],[[12.963492,-12.934507],[12.964902,-12.934961],[12.964835,-12.936549],[12.963492,-12.934507]],[[12.521833,-13.4511],[12.52284,-13.450481],[12.522334,-13.452546],[12.521833,-13.4511]],[[12.341421,-14.391767],[12.343682,-14.39123],[12.340997,-14.396649],[12.341421,-14.391767]],[[11.671471,-16.575498],[11.670025,-16.541766],[11.688348,-16.515111],[11.712528,-16.508823],[11.720928,-16.520847],[11.725779,-16.565199],[11.71713,-16.583294],[11.729177,-16.608622],[11.728622,-16.665494],[11.738551,-16.681067],[11.741196,-16.710921],[11.72941,-16.706517],[11.71324,-16.686259],[11.671471,-16.575498]],[[11.815123,-16.594739],[11.819805,-16.593552],[11.819658,-16.602404],[11.815123,-16.594739]],[[11.764514,-17.251904],[11.762441,-17.248959],[11.77149,-17.253787],[11.764514,-17.251904]],[[12.54187,-13.418556],[12.543172,-13.416705],[12.543097,-13.419225],[12.54187,-13.418556]],[[13.126876,-7.837573],[13.12754,-7.838865],[13.124944,-7.839568],[13.126876,-7.837573]],[[13.137656,-7.830446],[13.139894,-7.829562],[13.138637,-7.831661],[13.137656,-7.830446]],[[13.118081,-7.826292],[13.116934,-7.827531],[13.115296,-7.825463],[13.118081,-7.826292]],[[13.125657,-7.816016],[13.121868,-7.815454],[13.123183,-7.813028],[13.125657,-7.816016]],[[12.387637,-6.130545],[12.389287,-6.131305],[12.38897,-6.132693],[12.387637,-6.130545]],[[12.507239,-6.111752],[12.50749,-6.111564],[12.50934,-6.112482],[12.507239,-6.111752]],[[12.58329,-6.069105],[12.583704,-6.069338],[12.583175,-6.070403],[12.58329,-6.069105]],[[12.570413,-6.077173],[12.571138,-6.078357],[12.570153,-6.078849],[12.570413,-6.077173]]],[[[12.00958,-5.030147],[9.12111,-6.734409],[12.202413,-5.773048],[12.154627,-5.691803],[12.145757,-5.639457],[12.183714,-5.549025],[12.21072,-5.557963],[12.229523,-5.545083],[12.232887,-5.517573],[12.223075,-5.464434],[12.167749,-5.330094],[12.178335,-5.326545],[12.178571,-5.315237],[12.132621,-5.242594],[12.141926,-5.217518],[12.12593,-5.189918],[12.139385,-5.190691],[12.134975,-5.199196],[12.147496,-5.190954],[12.136203,-5.179087],[12.139874,-5.171438],[12.129666,-5.172215],[12.126402,-5.161611],[12.117618,-5.164775],[12.110115,-5.156656],[12.107678,-5.164328],[12.119766,-5.171156],[12.128805,-5.198749],[12.00958,-5.030147]]]]}}
