{"type":"Feature","properties":{"mrgid":25558,"name":"Nauruan part of the North Pacific Ocean","placeType":"Marine Region","source":"MarineRegions:eez_iho"},"geometry":{"type":"Polygon","coordinates":[[[168.328616,0.0],[168.559858,1.77884],[165.924388,2.693851],[165.709395,2.616899],[165.494781,2.522795],[165.284488,2.412182],[165.08818,2.290517],[164.896355,2.152088],[164.720523,2.005484],[164.531344,1.821703],[164.387199,1.66372],[164.24108,1.479958],[164.111662,1.292028],[163.994028,1.093424],[163.888404,0.883118],[163.79941,0.670468],[163.724483,0.450099],[163.666582,0.233064],[163.621063,0.0],[168.321417,0.0],[168.328616,0.0]]]}}
