{"type":"Feature","properties":{"mrgid":25619,"name":"Slovenian part of the Adriatic Sea","placeType":"Marine Region","source":"MarineRegions:eez_iho"},"geometry":{"type":"Polygon","coordinates":[[[13.72261,45.594515],[13.63,45.63],[13.387007,45.564947],[13.523806,45.511583],[13.614506,45.46549],[13.609779,45.479291],[13.618201,45.479012],[13.618731,45.487186],[13.587531,45.49956],[13.592285,45.512206],[13.569107,45.515682],[13.563342,45.530318],[13.600353,45.525685],[13.606185,45.530453],[13.602201,45.537345],[13.614339,45.540411],[13.644262,45.532127],[13.657022,45.54178],[13.691423,45.548115],[13.719339,45.543104],[13.737952,45.552385],[13.731212,45.556515],[13.746685,45.558769],[13.733127,45.559734],[13.746145,45.564777],[13.741571,45.573255],[13.703468,45.590468],[13.72261,45.594515]]]}}
