{"type":"Feature","properties":{"mrgid":25627,"name":"Australian part of the South Pacific Ocean (Macquarie Island)","placeType":"Marine Region","source":"MarineRegions:eez_iho"},"geometry":{"type":"Polygon","coordinates":[[[160.62503,-51.176753],[160.355151,-51.130667],[159.899288,-51.072563],[159.462255,-51.039285],[159.047111,-51.027479],[158.631408,-51.034802],[158.21747,-51.061244],[157.831364,-51.103478],[157.426767,-51.166572],[157.030563,-51.247781],[156.644357,-51.346825],[156.269885,-51.463339],[155.909117,-51.59673],[155.563999,-51.746321],[155.23645,-51.911341],[154.927251,-52.091621],[154.655746,-52.2739],[154.330778,-52.530158],[153.9876,-52.855014],[153.77246,-53.082855],[153.585561,-53.319881],[153.445317,-53.535592],[153.336189,-53.741598],[153.180191,-54.097826],[153.110534,-54.288123],[153.030596,-54.459006],[152.96825,-54.624474],[152.902651,-54.868916],[152.869313,-55.100029],[152.863875,-55.331906],[152.886754,-55.562824],[152.941984,-55.804925],[153.023013,-56.0292],[153.132445,-56.249728],[153.270396,-56.465798],[153.424646,-56.662137],[153.589619,-56.838991],[153.790267,-57.022736],[153.998097,-57.186893],[154.244036,-57.355473],[154.492002,-57.50353],[154.779166,-57.653095],[155.06349,-57.782158],[155.387463,-57.909909],[155.703548,-58.017533],[156.033004,-58.11407],[156.374185,-58.199028],[156.753185,-58.277185],[157.114322,-58.337045],[157.482667,-58.384376],[157.856542,-58.418958],[158.263386,-58.441756],[158.646397,-58.449429],[159.02955,-58.443829],[159.41103,-58.424981],[159.789035,-58.392976],[160.161794,-58.347967],[160.527574,-58.290166],[160.91033,-58.214248],[161.251861,-58.132063],[161.606698,-58.030742],[161.922689,-57.92521],[162.246947,-57.799783],[162.552625,-57.663179],[162.817623,-57.528062],[163.084304,-57.372516],[163.314948,-57.218359],[163.602407,-56.992608],[163.861848,-56.743049],[163.981145,-56.606834],[164.080144,-56.479149],[164.247041,-56.217307],[164.314838,-56.083647],[164.372171,-55.948492],[164.446225,-55.713919],[164.537826,-55.461953],[164.622374,-55.093463],[164.691234,-54.695289],[164.245011,-53.849958],[163.424282,-53.273086],[162.685285,-52.736543],[161.548177,-51.887024],[160.62503,-51.176753]],[[158.939736,-54.485721],[158.949955,-54.492188],[158.934535,-54.506213],[158.939018,-54.529472],[158.915888,-54.56689],[158.925687,-54.580241],[158.88848,-54.667969],[158.850776,-54.720549],[158.853204,-54.740599],[158.841067,-54.778389],[158.775146,-54.767403],[158.781801,-54.762483],[158.776303,-54.758475],[158.792081,-54.761625],[158.798649,-54.753486],[158.784701,-54.744692],[158.797047,-54.740045],[158.794889,-54.731267],[158.80924,-54.714885],[158.800025,-54.696782],[158.808465,-54.690707],[158.798377,-54.687875],[158.827039,-54.676208],[158.822313,-54.65384],[158.813087,-54.651679],[158.822522,-54.64314],[158.82125,-54.615665],[158.832624,-54.61154],[158.825432,-54.606652],[158.857208,-54.567644],[158.850954,-54.557727],[158.871991,-54.55382],[158.850423,-54.531893],[158.868811,-54.52588],[158.850689,-54.519534],[158.885187,-54.506279],[158.876516,-54.495808],[158.928537,-54.502622],[158.939736,-54.485721]],[[158.684945,-55.114988],[158.689331,-55.111302],[158.69239,-55.114563],[158.684945,-55.114988]]]}}
