{"type":"Feature","properties":{"mrgid":25630,"name":"Solomon Islands part of the South Pacific Ocean","placeType":"Marine Region","source":"MarineRegions:eez_iho"},"geometry":{"type":"Polygon","coordinates":[[[173.593168,-11.847151],[173.58109,-11.635165],[173.552553,-11.407696],[173.512743,-11.202383],[173.464598,-11.013431],[173.38876,-10.781864],[173.321049,-10.611645],[173.241311,-10.440392],[173.125858,-10.228018],[173.020488,-10.06167],[172.893888,-9.886016],[172.781855,-9.746471],[172.667292,-9.619581],[172.479829,-9.436489],[172.266987,-9.259178],[172.102753,-9.104912],[171.843547,-8.898784],[171.657977,-8.774047],[171.436542,-8.64692],[171.238604,-8.550882],[171.034878,-8.467806],[170.854909,-8.40667],[170.631614,-8.345985],[170.435061,-8.305607],[170.183464,-8.271593],[170.021068,-8.014685],[169.824071,-7.758836],[169.571181,-7.49266],[169.265363,-7.218824],[168.983618,-7.003586],[168.747385,-6.855495],[168.492414,-6.723323],[168.236675,-6.616347],[167.96208,-6.527444],[167.642829,-6.455169],[167.315426,-6.414345],[167.023477,-6.404863],[166.731799,-6.420662],[166.370888,-6.475764],[166.087726,-6.547729],[165.807586,-6.645637],[165.715933,-6.505868],[165.582632,-6.326274],[165.443535,-6.162756],[165.291274,-6.00523],[165.104613,-5.837011],[164.95785,-5.72152],[164.778102,-5.596533],[164.62534,-5.502955],[164.461823,-5.415047],[164.263341,-5.322999],[164.061855,-5.24047],[163.868921,-5.17478],[163.632564,-5.111435],[163.4867,-5.081512],[163.219921,-5.044241],[163.032484,-5.030204],[162.999521,-4.798723],[162.961159,-4.61565],[162.903604,-4.404196],[162.810109,-4.140029],[160.480278,-4.751389],[158.235278,-4.871667],[156.035833,-6.55],[156.039722,-6.658333],[155.983359,-6.749589],[156.388485,-6.662221],[156.393467,-6.640437],[156.438012,-6.599272],[156.455112,-6.597675],[156.463157,-6.588843],[156.479537,-6.596257],[156.473706,-6.604284],[156.479132,-6.610008],[156.486969,-6.593108],[156.503436,-6.594404],[156.549971,-6.637836],[156.547496,-6.646186],[156.575832,-6.650881],[156.5814,-6.649435],[156.585167,-6.643769],[156.601069,-6.656534],[156.632354,-6.659578],[156.656983,-6.701895],[156.676002,-6.716094],[156.677805,-6.739258],[156.717402,-6.748384],[156.736321,-6.763364],[156.754571,-6.759066],[156.75736,-6.770331],[156.783913,-6.771667],[156.798538,-6.7857],[156.830455,-6.790766],[156.843913,-6.81302],[156.894818,-6.845693],[156.903358,-6.839141],[156.911163,-6.846617],[156.929748,-6.84516],[156.963049,-6.865711],[156.970413,-6.859778],[156.978632,-6.871554],[156.974536,-6.884409],[156.98929,-6.897579],[157.007916,-6.890484],[157.081468,-6.952873],[157.098289,-6.957524],[157.109969,-6.980463],[157.113353,-7.05015],[157.133153,-7.082343],[157.131082,-7.111316],[157.138662,-7.12456],[157.175223,-7.14176],[157.172688,-7.159449],[157.188432,-7.17235],[157.196044,-7.15278],[157.199999,-7.156047],[157.208402,-7.187033],[157.219797,-7.180314],[157.238879,-7.19714],[157.26183,-7.19414],[157.26604,-7.201445],[157.276286,-7.195511],[157.275212,-7.185862],[157.282263,-7.190029],[157.278058,-7.196121],[157.285324,-7.202706],[157.276935,-7.213518],[157.293077,-7.213156],[157.296985,-7.224502],[157.288278,-7.237915],[157.332461,-7.273075],[157.351951,-7.269696],[157.347875,-7.285575],[157.360116,-7.294179],[157.368959,-7.292951],[157.368454,-7.277215],[157.380815,-7.282412],[157.395498,-7.325023],[157.407426,-7.318156],[157.421897,-7.321276],[157.406663,-7.304513],[157.409862,-7.29021],[157.447821,-7.323606],[157.47337,-7.304933],[157.497328,-7.302176],[157.515262,-7.284546],[157.533075,-7.289119],[157.550648,-7.304924],[157.550832,-7.317241],[157.72266,-7.414072],[157.740572,-7.398621],[157.746022,-7.406058],[157.757514,-7.389449],[157.762838,-7.39707],[157.757979,-7.407344],[157.771752,-7.391048],[157.785881,-7.393656],[157.798172,-7.415357],[157.812339,-7.425513],[157.825119,-7.471811],[158.034378,-7.468571],[158.019722,-7.455833],[158.0225,-7.448333],[158.035,-7.45],[158.024167,-7.457222],[158.0368,-7.468534],[158.229167,-7.465556],[158.224722,-7.453056],[158.185278,-7.435555],[158.198889,-7.436667],[158.203056,-7.428056],[158.191389,-7.411667],[158.210278,-7.415278],[158.212883,-7.427395],[158.228055,-7.420833],[158.224167,-7.405556],[158.230278,-7.401667],[158.260556,-7.403889],[158.262222,-7.408611],[158.269444,-7.410556],[158.262778,-7.425],[158.247478,-7.436245],[158.227778,-7.431389],[158.233611,-7.439444],[158.254444,-7.444167],[158.250556,-7.438611],[158.271111,-7.424444],[158.273056,-7.408611],[158.279167,-7.404167],[158.290278,-7.415278],[158.284722,-7.418889],[158.276111,-7.410833],[158.283056,-7.424444],[158.279444,-7.440833],[158.262778,-7.450555],[158.248611,-7.446111],[158.243889,-7.471944],[158.25,-7.473611],[158.24414,-7.475407],[158.260529,-7.486191],[158.263333,-7.48],[158.249722,-7.470278],[158.2525,-7.463889],[158.250278,-7.450555],[158.273688,-7.457292],[158.271111,-7.450278],[158.278056,-7.454444],[158.28,-7.475278],[158.293889,-7.472778],[158.315,-7.493055],[158.315833,-7.485278],[158.323889,-7.487222],[158.351944,-7.513611],[158.362222,-7.514167],[158.346944,-7.496944],[158.358197,-7.494524],[158.352222,-7.4825],[158.361944,-7.4925],[158.3825,-7.495556],[158.363611,-7.499444],[158.376111,-7.508889],[158.394722,-7.5],[158.404167,-7.515556],[158.411111,-7.509167],[158.419167,-7.513055],[158.424167,-7.519722],[158.416667,-7.522222],[158.418056,-7.534444],[158.404167,-7.538611],[158.419444,-7.561111],[158.402778,-7.563611],[158.368333,-7.551944],[158.336389,-7.523056],[158.278309,-7.49789],[158.39745,-7.580353],[158.402831,-7.571501],[158.415086,-7.575474],[158.408105,-7.586422],[158.425522,-7.594286],[158.444188,-7.596463],[158.442234,-7.5835],[158.467246,-7.588928],[158.431715,-7.561472],[158.443858,-7.553655],[158.426579,-7.550201],[158.434702,-7.547625],[158.422043,-7.53475],[158.435504,-7.521626],[158.434001,-7.512908],[158.459312,-7.521264],[158.466983,-7.545316],[158.485019,-7.54831],[158.491473,-7.540497],[158.499337,-7.553676],[158.526405,-7.552118],[158.525008,-7.567515],[158.535361,-7.560216],[158.566847,-7.581159],[158.569861,-7.573843],[158.579602,-7.589254],[158.588567,-7.583238],[158.588956,-7.559821],[158.604172,-7.551099],[158.616281,-7.555106],[158.620607,-7.571873],[158.629639,-7.558221],[158.678044,-7.596193],[158.733895,-7.579904],[158.738785,-7.607697],[158.797681,-7.654872],[158.804623,-7.672499],[158.845913,-7.710192],[158.854769,-7.730286],[158.87036,-7.738508],[158.884184,-7.734893],[158.890975,-7.742601],[158.928695,-7.743339],[158.930504,-7.754957],[158.943067,-7.751653],[158.965349,-7.773704],[158.963504,-7.78222],[158.993857,-7.791692],[158.995005,-7.797596],[158.989207,-7.79483],[158.966886,-7.815541],[158.990292,-7.824247],[158.999578,-7.84596],[159.016407,-7.843938],[159.026567,-7.852078],[159.036423,-7.837101],[159.033475,-7.847569],[159.037289,-7.843082],[159.072265,-7.868953],[159.066232,-7.899734],[159.079991,-7.904783],[159.090917,-7.899416],[159.100518,-7.919531],[159.157002,-7.931037],[159.142848,-7.914864],[159.167833,-7.906039],[159.198924,-7.919348],[159.169294,-7.917541],[159.187473,-7.931021],[159.178721,-7.928506],[159.191692,-7.951155],[159.214096,-7.943408],[159.230946,-7.961032],[159.258186,-7.959222],[159.271318,-7.971241],[159.271785,-7.98713],[159.287377,-7.986362],[159.294482,-7.996319],[159.306681,-7.990398],[159.30583,-7.982851],[159.325107,-7.991305],[159.319071,-7.973651],[159.340509,-7.982173],[159.352295,-7.999154],[159.358261,-7.994217],[159.366732,-8.00833],[159.364934,-7.980396],[159.375141,-7.981056],[159.392857,-8.000397],[159.43164,-8.021523],[159.438129,-8.042708],[159.479909,-8.06654],[159.518808,-8.078125],[159.518847,-8.090008],[159.510756,-8.092844],[159.522124,-8.090838],[159.541241,-8.103522],[159.554258,-8.128348],[159.615429,-8.155797],[159.618527,-8.152003],[159.664397,-8.205749],[159.716411,-8.22994],[159.761001,-8.280087],[159.775015,-8.282125],[159.792747,-8.303821],[159.8546,-8.343311],[159.836558,-8.364382],[159.81493,-8.371791],[159.809937,-8.396899],[159.786657,-8.405156],[159.758839,-8.39338],[159.741599,-8.402483],[159.774571,-8.412631],[159.769863,-8.430702],[159.778486,-8.446039],[159.792834,-8.426638],[159.801793,-8.429074],[159.813089,-8.419892],[159.817647,-8.425108],[159.809206,-8.435979],[159.823944,-8.438889],[159.827076,-8.451288],[159.805262,-8.463992],[159.833228,-8.455454],[159.856822,-8.461353],[159.848335,-8.476702],[159.86448,-8.479786],[159.871136,-8.4949],[159.848198,-8.506523],[159.860578,-8.511577],[159.858548,-8.527846],[159.865072,-8.529189],[159.866236,-8.519611],[159.871768,-8.527072],[159.881526,-8.528684],[159.873388,-8.539971],[159.899399,-8.553376],[159.896227,-8.562427],[160.563831,-8.357184],[160.559513,-8.339462],[160.567298,-8.328992],[160.599033,-8.32875],[160.696731,-8.376966],[160.714386,-8.374691],[160.721343,-8.345036],[160.710318,-8.335773],[160.679456,-8.323274],[160.693806,-8.312779],[160.715831,-8.321265],[160.737594,-8.317209],[160.761705,-8.350071],[160.784377,-8.356512],[160.807582,-8.380534],[160.819928,-8.407381],[160.816674,-8.419564],[160.830087,-8.425973],[160.83223,-8.442028],[160.845785,-8.451908],[160.841583,-8.461654],[160.895596,-8.495988],[160.905847,-8.511344],[160.902812,-8.526636],[160.923205,-8.539482],[160.912041,-8.543761],[160.912855,-8.550671],[160.937828,-8.560594],[160.962071,-8.584029],[160.973119,-8.609547],[161.001462,-8.642223],[161.000123,-8.672942],[160.979933,-8.689453],[160.946812,-8.698426],[160.941203,-8.71046],[160.952931,-8.716728],[160.955321,-8.741473],[160.947507,-8.756187],[160.94109,-8.750076],[160.943089,-8.761118],[160.933707,-8.753977],[160.932301,-8.762547],[160.922147,-8.762428],[160.933366,-8.765619],[160.936871,-8.813191],[160.950061,-8.832472],[160.966376,-8.833761],[160.96497,-8.847088],[160.986412,-8.862016],[161.018129,-8.865911],[160.989972,-8.847151],[160.999842,-8.850261],[161.008028,-8.842885],[161.042866,-8.864503],[161.068847,-8.885404],[161.060066,-8.891308],[161.045893,-8.882311],[161.041286,-8.88831],[161.071057,-8.915445],[161.077186,-8.889695],[161.166325,-8.983809],[161.159747,-8.986266],[161.158738,-8.978091],[161.137535,-8.966014],[161.133963,-8.970603],[161.145531,-8.984742],[161.122393,-8.983716],[161.128487,-8.996199],[161.14595,-8.997147],[161.146198,-9.007101],[161.165445,-9.007805],[161.183809,-9.033745],[161.171531,-9.052308],[161.187377,-9.052047],[161.191288,-9.058611],[161.188474,-9.087411],[161.180958,-9.092076],[161.167174,-9.081773],[161.172883,-9.096331],[161.212547,-9.095742],[161.21833,-9.104171],[161.221831,-9.121779],[161.196791,-9.137276],[161.197086,-9.14742],[161.224548,-9.14782],[161.227389,-9.162611],[161.237314,-9.159679],[161.251601,-9.167975],[161.235497,-9.185369],[161.265586,-9.194393],[161.259934,-9.206719],[161.230199,-9.205407],[161.2372,-9.21445],[161.232693,-9.218532],[161.235688,-9.232566],[161.253807,-9.243567],[161.247254,-9.257174],[161.26743,-9.303005],[161.248764,-9.296952],[161.22689,-9.274754],[161.215031,-9.279991],[161.217009,-9.286025],[161.242712,-9.316932],[161.26498,-9.32769],[161.284413,-9.36205],[161.303422,-9.376394],[161.298306,-9.380453],[161.338368,-9.443167],[161.348126,-9.452898],[161.358272,-9.43891],[161.366369,-9.448521],[161.364044,-9.455263],[161.355364,-9.448754],[161.360739,-9.453773],[161.355892,-9.465493],[161.361363,-9.470345],[161.370755,-9.451823],[161.371595,-9.468379],[161.38153,-9.476472],[161.394782,-9.459571],[161.386333,-9.447087],[161.391464,-9.451279],[161.405619,-9.429561],[161.389178,-9.41554],[161.378667,-9.424887],[161.376208,-9.404209],[161.396693,-9.39995],[161.375255,-9.387251],[161.369715,-9.409561],[161.35817,-9.38555],[161.36891,-9.374667],[161.350107,-9.369874],[161.353016,-9.360646],[161.344697,-9.360639],[161.331757,-9.331849],[161.347575,-9.327129],[161.35416,-9.348578],[161.367188,-9.36077],[161.392856,-9.360919],[161.451728,-9.432005],[161.460884,-9.45951],[161.478558,-9.461624],[161.488443,-9.478415],[161.481288,-9.486095],[161.517161,-9.524243],[161.52924,-9.528139],[161.547335,-9.570865],[161.552919,-9.575927],[161.557459,-9.569522],[161.560434,-9.616194],[161.548801,-9.615421],[161.545717,-9.625145],[161.559119,-9.628454],[161.570894,-9.644833],[161.572787,-9.652733],[161.560461,-9.660628],[161.577022,-9.66652],[161.581212,-9.69478],[161.571797,-9.726765],[161.300829,-10.208304],[161.319376,-10.211038],[161.339542,-10.188509],[161.425995,-10.211419],[161.463157,-10.230218],[161.474782,-10.245257],[161.493799,-10.246402],[161.50455,-10.258341],[161.550229,-10.27784],[161.564639,-10.295824],[161.584625,-10.299556],[161.588054,-10.315693],[161.645461,-10.345145],[161.65652,-10.367159],[161.689921,-10.364706],[161.688067,-10.373772],[161.714876,-10.406199],[161.742769,-10.412697],[161.754725,-10.402962],[161.768646,-10.415707],[161.790141,-10.40981],[161.81204,-10.444745],[161.842056,-10.457421],[161.875518,-10.455425],[161.885571,-10.444825],[161.913978,-10.458077],[161.925204,-10.444335],[161.937313,-10.457016],[161.955819,-10.4565],[161.960473,-10.470915],[161.983606,-10.490741],[162.026541,-10.505316],[162.042885,-10.502767],[162.054564,-10.465433],[162.071022,-10.478795],[162.084973,-10.474235],[162.151346,-10.558951],[162.166967,-10.606826],[162.188716,-10.614051],[162.196536,-10.640403],[162.192352,-10.653846],[162.205392,-10.674177],[162.246848,-10.695066],[162.263865,-10.68944],[162.276341,-10.725544],[162.272561,-10.756863],[162.281121,-10.771475],[162.244869,-10.800975],[162.227538,-10.799584],[162.223714,-10.808809],[162.253666,-10.800932],[162.263717,-10.821803],[162.28582,-10.82182],[162.289284,-10.813408],[162.320548,-10.827809],[162.344119,-10.819417],[162.377493,-10.829327],[165.717337,-10.044392],[167.06174,-9.759134],[167.069446,-9.762716],[167.096829,-9.797362],[167.106639,-9.796998],[167.107201,-9.808662],[167.165856,-9.872563],[167.160207,-9.854092],[167.17745,-9.859035],[167.193578,-9.880403],[167.189994,-9.898861],[167.703556,-12.63048],[168.22967,-12.78026],[169.932744,-13.897685],[171.59602,-14.967316],[171.814819,-14.861673],[172.009041,-14.750825],[172.195204,-14.62772],[172.395805,-14.474016],[172.593777,-14.295981],[172.747483,-14.13625],[172.933474,-13.910435],[173.062885,-13.725512],[173.210618,-13.474677],[173.307228,-13.277058],[173.39964,-13.04866],[173.479493,-12.794969],[173.525716,-12.601013],[173.593168,-11.847151]],[[169.849842,-11.606089],[169.852767,-11.611156],[169.849149,-11.614599],[169.846417,-11.611181],[169.849842,-11.606089]],[[167.242313,-9.932928],[167.245929,-9.926276],[167.249284,-9.932456],[167.242313,-9.932928]],[[167.243666,-9.92241],[167.238561,-9.922789],[167.239677,-9.920922],[167.243666,-9.92241]],[[167.233665,-9.919822],[167.232716,-9.911139],[167.236086,-9.912485],[167.233665,-9.919822]],[[167.193922,-9.894652],[167.193445,-9.893338],[167.1946,-9.892151],[167.193922,-9.894652]],[[167.125873,-9.82152],[167.125295,-9.823255],[167.119184,-9.821347],[167.125873,-9.82152]],[[167.092885,-9.782764],[167.084074,-9.778584],[167.087319,-9.776247],[167.092885,-9.782764]],[[167.081373,-9.776736],[167.080634,-9.775867],[167.084393,-9.775391],[167.081373,-9.776736]],[[161.986732,-9.741147],[161.986894,-9.795077],[161.996237,-9.813539],[161.989713,-9.825318],[161.998,-9.84672],[161.980578,-9.866565],[161.963223,-9.836338],[161.944996,-9.766155],[161.961789,-9.71599],[161.981585,-9.718571],[161.987184,-9.729328],[161.999651,-9.717743],[162.004854,-9.726334],[161.999696,-9.737325],[161.986732,-9.741147]],[[161.998369,-9.738199],[161.999648,-9.737427],[161.998783,-9.738527],[161.998369,-9.738199]],[[161.545037,-9.535477],[161.555929,-9.558178],[161.554195,-9.5631],[161.546992,-9.555164],[161.545037,-9.535477]],[[161.543459,-9.545965],[161.54262,-9.546545],[161.544024,-9.543993],[161.543459,-9.545965]],[[161.538272,-9.517262],[161.538397,-9.522237],[161.535829,-9.51597],[161.538272,-9.517262]],[[161.335736,-9.32046],[161.333481,-9.322965],[161.330907,-9.320985],[161.335736,-9.32046]],[[161.237692,-9.221105],[161.236121,-9.221104],[161.236063,-9.220003],[161.237692,-9.221105]],[[161.271872,-9.20769],[161.268664,-9.213491],[161.265808,-9.207172],[161.271872,-9.20769]],[[161.261976,-9.159433],[161.270241,-9.166752],[161.267902,-9.173514],[161.256157,-9.16836],[161.261976,-9.159433]],[[161.192713,-9.022047],[161.205536,-9.03335],[161.203528,-9.043324],[161.191471,-9.027251],[161.192713,-9.022047]],[[160.941389,-8.778333],[160.940278,-8.776111],[160.941667,-8.775556],[160.941389,-8.778333]],[[160.945833,-8.773889],[160.944722,-8.772778],[160.948056,-8.770833],[160.945833,-8.773889]],[[161.024392,-8.769578],[161.04698,-8.761705],[161.021674,-8.748677],[160.995343,-8.757394],[161.006871,-8.747218],[161.020192,-8.745286],[161.037487,-8.748913],[161.049212,-8.760089],[161.047978,-8.766351],[161.024392,-8.769578]],[[162.867739,-8.425677],[162.867631,-8.423638],[162.873487,-8.420849],[162.867739,-8.425677]],[[162.950596,-8.407867],[162.939642,-8.417201],[162.933569,-8.413661],[162.941486,-8.40615],[162.950596,-8.407867]],[[160.828568,-8.414403],[160.82815,-8.415165],[160.826409,-8.413573],[160.828568,-8.414403]],[[162.870342,-8.397889],[162.868498,-8.398318],[162.871535,-8.394885],[162.870342,-8.397889]],[[162.885525,-8.382869],[162.879235,-8.380294],[162.880211,-8.378041],[162.885525,-8.382869]],[[160.8125,-8.339444],[160.756111,-8.297222],[160.780278,-8.2875],[160.801389,-8.294444],[160.815278,-8.316111],[160.8125,-8.322699],[160.8125,-8.339444]],[[160.745458,-8.315727],[160.742273,-8.316627],[160.742525,-8.315279],[160.745458,-8.315727]],[[160.715849,-8.312568],[160.714656,-8.311783],[160.715845,-8.310144],[160.715849,-8.312568]],[[160.590144,-8.312007],[160.585313,-8.320122],[160.570384,-8.304467],[160.579826,-8.302801],[160.590144,-8.312007]],[[160.81328,-8.323962],[160.81427,-8.32162],[160.815378,-8.325058],[160.81328,-8.323962]],[[160.818856,-8.321746],[160.818189,-8.330969],[160.817512,-8.330348],[160.818856,-8.321746]],[[160.818476,-8.336132],[160.81963,-8.335203],[160.819738,-8.338144],[160.818476,-8.336132]],[[160.188889,-8.26],[160.191111,-8.263611],[160.183889,-8.2575],[160.188889,-8.26]],[[160.164722,-8.226944],[160.163056,-8.227778],[160.1625,-8.225833],[160.164722,-8.226944]],[[159.616667,-8.148056],[159.616667,-8.151667],[159.6125,-8.145278],[159.616667,-8.148056]],[[159.614167,-8.138333],[159.614444,-8.141389],[159.607222,-8.139167],[159.614167,-8.138333]],[[159.592778,-8.1025],[159.605278,-8.131111],[159.585833,-8.111389],[159.575833,-8.111111],[159.578889,-8.100556],[159.592778,-8.1025]],[[159.545,-8.091389],[159.525833,-8.078333],[159.531111,-8.068889],[159.545,-8.091389]],[[159.460278,-8.006111],[159.458889,-8.008055],[159.455833,-8.004444],[159.460278,-8.006111]],[[159.347473,-7.972021],[159.346777,-7.970635],[159.347264,-7.970635],[159.347473,-7.972021]],[[160.642715,-7.929655],[160.621827,-7.926425],[160.618535,-7.907421],[160.604992,-7.898229],[160.609914,-7.874753],[160.630247,-7.88099],[160.642715,-7.929655]],[[159.242711,-7.898292],[159.241946,-7.897044],[159.243546,-7.896351],[159.242711,-7.898292]],[[159.08304,-7.850945],[159.083423,-7.852361],[159.079091,-7.849589],[159.08304,-7.850945]],[[159.076764,-7.850094],[159.076725,-7.851676],[159.073889,-7.850842],[159.076764,-7.850094]],[[159.063611,-7.839167],[159.062222,-7.841389],[159.061667,-7.838333],[159.063611,-7.839167]],[[159.01603,-7.830337],[159.024727,-7.835989],[159.01922,-7.841663],[159.015192,-7.84056],[159.01603,-7.830337]],[[159.013888,-7.840835],[159.013888,-7.841806],[159.012222,-7.841111],[159.013888,-7.840835]],[[158.993058,-7.830598],[158.993615,-7.827881],[158.998329,-7.83118],[158.993058,-7.830598]],[[159.007442,-7.826395],[159.009704,-7.822778],[159.013786,-7.82761],[159.007442,-7.826395]],[[159.012498,-7.819912],[159.012099,-7.820027],[159.011806,-7.818259],[159.012498,-7.819912]],[[159.053185,-7.816486],[159.051446,-7.815099],[159.053115,-7.81503],[159.053185,-7.816486]],[[158.785679,-7.610359],[158.780983,-7.610011],[158.782477,-7.608614],[158.785679,-7.610359]],[[158.76,-7.608889],[158.753055,-7.608889],[158.748055,-7.603889],[158.755833,-7.604722],[158.76,-7.608889]],[[158.786667,-7.599722],[158.7825,-7.594167],[158.775278,-7.592222],[158.773611,-7.597778],[158.766944,-7.573889],[158.775278,-7.571389],[158.787222,-7.598056],[158.804167,-7.603333],[158.786667,-7.599722]],[[158.78043,-7.596399],[158.777884,-7.597062],[158.777177,-7.595431],[158.78043,-7.596399]],[[158.762226,-7.588168],[158.761394,-7.590209],[158.756734,-7.5864],[158.762226,-7.588168]],[[158.756225,-7.58389],[158.726327,-7.572651],[158.714193,-7.542993],[158.737401,-7.551895],[158.755502,-7.570867],[158.746417,-7.575111],[158.756225,-7.58389]],[[158.66,-7.578333],[158.658611,-7.575278],[158.66,-7.574444],[158.66,-7.578333]],[[158.717778,-7.566944],[158.716389,-7.567778],[158.715278,-7.566667],[158.717778,-7.566944]],[[158.694917,-7.551533],[158.69328,-7.550447],[158.694206,-7.550527],[158.694917,-7.551533]],[[158.694444,-7.544722],[158.7,-7.545833],[158.698056,-7.551111],[158.694444,-7.544722]],[[158.699444,-7.541389],[158.671111,-7.514722],[158.675278,-7.508055],[158.695555,-7.513333],[158.703889,-7.534722],[158.699444,-7.541389]],[[158.665289,-7.506475],[158.668257,-7.50141],[158.673787,-7.504076],[158.665289,-7.506475]],[[158.664444,-7.504167],[158.662778,-7.502222],[158.663889,-7.500833],[158.664444,-7.504167]],[[158.659167,-7.501667],[158.656111,-7.496944],[158.658056,-7.496389],[158.659167,-7.501667]],[[158.445833,-7.497222],[158.437222,-7.4975],[158.440278,-7.493333],[158.445833,-7.497222]],[[158.655833,-7.490833],[158.659444,-7.48],[158.669167,-7.491389],[158.655833,-7.490833]],[[158.631643,-7.481417],[158.637354,-7.486549],[158.637218,-7.48875],[158.632211,-7.48887],[158.631643,-7.481417]],[[158.361306,-7.485105],[158.358386,-7.482194],[158.358594,-7.481847],[158.361306,-7.485105]],[[158.329444,-7.485],[158.321111,-7.480833],[158.323611,-7.479167],[158.329444,-7.485]],[[158.336667,-7.478889],[158.336667,-7.465],[158.345556,-7.463611],[158.346944,-7.47],[158.336667,-7.478889]],[[158.2925,-7.467778],[158.286389,-7.465833],[158.291111,-7.464167],[158.2925,-7.467778]],[[158.323333,-7.463056],[158.305833,-7.4625],[158.299167,-7.456389],[158.311944,-7.447222],[158.323333,-7.463056]],[[158.297222,-7.455556],[158.285278,-7.435278],[158.292222,-7.426944],[158.3,-7.433333],[158.2925,-7.446111],[158.297222,-7.455556]],[[158.316744,-7.43581],[158.31897,-7.435255],[158.318622,-7.436572],[158.316744,-7.43581]],[[158.394169,-7.465655],[158.396219,-7.463843],[158.398494,-7.467876],[158.394169,-7.465655]],[[158.644777,-7.466888],[158.645078,-7.468243],[158.643289,-7.468025],[158.644777,-7.466888]],[[158.654493,-7.470555],[158.655538,-7.47453],[158.6537,-7.47444],[158.654493,-7.470555]],[[158.62994,-7.470215],[158.631047,-7.467076],[158.632594,-7.468331],[158.62994,-7.470215]],[[158.365409,-7.481154],[158.364922,-7.482748],[158.362628,-7.481293],[158.365409,-7.481154]],[[158.693333,-7.494444],[158.699444,-7.49],[158.704167,-7.492778],[158.703611,-7.494444],[158.693333,-7.494444]],[[158.683611,-7.495556],[158.691111,-7.500278],[158.689444,-7.501111],[158.683611,-7.495556]],[[158.677222,-7.500278],[158.678056,-7.501667],[158.670278,-7.498055],[158.677222,-7.500278]],[[158.755232,-7.574463],[158.755748,-7.573645],[158.760807,-7.575432],[158.755232,-7.574463]],[[158.81174,-7.603857],[158.813757,-7.604481],[158.813131,-7.604966],[158.81174,-7.603857]],[[158.293333,-7.423056],[158.291945,-7.420555],[158.293611,-7.42],[158.293333,-7.423056]],[[158.304892,-7.420137],[158.294655,-7.419278],[158.29365,-7.417873],[158.298391,-7.415386],[158.304892,-7.420137]],[[158.271667,-7.406667],[158.25,-7.394444],[158.243889,-7.399167],[158.2425,-7.388333],[158.271667,-7.406667]],[[158.226111,-7.401667],[158.214167,-7.415833],[158.193056,-7.406667],[158.197437,-7.399864],[158.185833,-7.389167],[158.195868,-7.382813],[158.198889,-7.392778],[158.211111,-7.384722],[158.223333,-7.3875],[158.213889,-7.395],[158.238055,-7.393611],[158.226111,-7.401667]],[[158.179722,-7.412222],[158.176111,-7.408611],[158.183889,-7.405833],[158.179722,-7.412222]],[[157.805883,-7.411636],[157.804628,-7.41124],[157.806716,-7.4073],[157.805883,-7.411636]],[[158.154167,-7.401667],[158.166389,-7.4025],[158.165278,-7.408889],[158.154167,-7.401667]],[[158.135556,-7.405556],[158.126111,-7.394722],[158.132778,-7.391944],[158.125,-7.373333],[158.135,-7.376389],[158.130833,-7.371389],[158.141944,-7.373055],[158.149167,-7.365278],[158.153611,-7.368333],[158.143611,-7.373889],[158.147222,-7.396667],[158.135556,-7.405556]],[[158.119444,-7.386389],[158.118889,-7.381944],[158.123333,-7.384444],[158.119444,-7.386389]],[[158.1093,-7.386639],[158.102486,-7.384071],[158.104687,-7.382813],[158.1093,-7.386639]],[[157.674444,-7.385833],[157.673056,-7.383889],[157.675868,-7.382813],[157.674444,-7.385833]],[[158.125833,-7.383889],[158.126146,-7.382813],[158.13,-7.385556],[158.125833,-7.383889]],[[158.133889,-7.366944],[158.120278,-7.366667],[158.115278,-7.362778],[158.127222,-7.36],[158.133889,-7.366944]],[[158.078565,-7.363913],[158.07692,-7.363672],[158.078091,-7.361522],[158.078565,-7.363913]],[[158.198333,-7.362778],[158.206389,-7.356667],[158.221667,-7.363611],[158.235,-7.375833],[158.239076,-7.391753],[158.2225,-7.379722],[158.220833,-7.374444],[158.235113,-7.381079],[158.217778,-7.366111],[158.198333,-7.362778]],[[158.225,-7.386111],[158.222445,-7.385319],[158.225278,-7.383333],[158.225,-7.386111]],[[158.1875,-7.384722],[158.186667,-7.381389],[158.188056,-7.381667],[158.1875,-7.384722]],[[158.194923,-7.379988],[158.196576,-7.380802],[158.195465,-7.38191],[158.194923,-7.379988]],[[158.157141,-7.378597],[158.153372,-7.377659],[158.156469,-7.375813],[158.157141,-7.378597]],[[158.215,-7.371389],[158.213333,-7.369722],[158.214444,-7.368889],[158.215,-7.371389]],[[157.590947,-7.332277],[157.585641,-7.333705],[157.582141,-7.324713],[157.585508,-7.329618],[157.590947,-7.332277]],[[157.599795,-7.321005],[157.591904,-7.310923],[157.608856,-7.302208],[157.604842,-7.316457],[157.599795,-7.321005]],[[158.087222,-7.317778],[158.088611,-7.319444],[158.086944,-7.320278],[158.087222,-7.317778]],[[157.374244,-7.275549],[157.372796,-7.27732],[157.371523,-7.275333],[157.374244,-7.275549]],[[157.347487,-7.264657],[157.342343,-7.26547],[157.342486,-7.262652],[157.347487,-7.264657]],[[157.246471,-7.180093],[157.246585,-7.180386],[157.245116,-7.181082],[157.246471,-7.180093]],[[157.161258,-7.133101],[157.158586,-7.121685],[157.163189,-7.123751],[157.161258,-7.133101]],[[157.10905,-6.969241],[157.114918,-6.973596],[157.115262,-6.976135],[157.109954,-6.975252],[157.10905,-6.969241]],[[156.965673,-6.859528],[156.962873,-6.85813],[156.967005,-6.852906],[156.965673,-6.859528]],[[156.616519,-6.646066],[156.615345,-6.6453],[156.61801,-6.643739],[156.616519,-6.646066]],[[156.583696,-6.640118],[156.581758,-6.638714],[156.583147,-6.638714],[156.583696,-6.640118]],[[159.643458,-5.537053],[159.635103,-5.532416],[159.645563,-5.533817],[159.643458,-5.537053]],[[159.609375,-5.530134],[159.569506,-5.527035],[159.562266,-5.525323],[159.588178,-5.525699],[159.609375,-5.530134]],[[159.56096,-5.525044],[159.555834,-5.524489],[159.552283,-5.522487],[159.556429,-5.521544],[159.56096,-5.525044]],[[159.549221,-5.520971],[159.543098,-5.521734],[159.535106,-5.517457],[159.536055,-5.516772],[159.549221,-5.520971]],[[159.672344,-5.523628],[159.668905,-5.524025],[159.668836,-5.523726],[159.672344,-5.523628]],[[159.623856,-5.529167],[159.623341,-5.530058],[159.621534,-5.529071],[159.623856,-5.529167]],[[159.615395,-5.528335],[159.615412,-5.528872],[159.612835,-5.527801],[159.615395,-5.528335]],[[159.530608,-5.516221],[159.523198,-5.515141],[159.518564,-5.512349],[159.530608,-5.516221]],[[159.507619,-5.504748],[159.506917,-5.499053],[159.516732,-5.509821],[159.507619,-5.504748]],[[159.687442,-5.500833],[159.688508,-5.499033],[159.690259,-5.500964],[159.687442,-5.500833]],[[159.686604,-5.504624],[159.687575,-5.506986],[159.682996,-5.505874],[159.686604,-5.504624]],[[159.683507,-5.51195],[159.679388,-5.510737],[159.681053,-5.506986],[159.683507,-5.51195]],[[159.692775,-5.454953],[159.704385,-5.47917],[159.691566,-5.497054],[159.697318,-5.476454],[159.692775,-5.454953]],[[159.502146,-5.492375],[159.501935,-5.49365],[159.499326,-5.492999],[159.502146,-5.492375]],[[159.491122,-5.48658],[159.495702,-5.49047],[159.466699,-5.4788],[159.491122,-5.48658]],[[159.448828,-5.476254],[159.445596,-5.47171],[159.44694,-5.470915],[159.448828,-5.476254]],[[159.384019,-5.471417],[159.366409,-5.443627],[159.3891,-5.469022],[159.384019,-5.471417]],[[159.284452,-5.470888],[159.284379,-5.472809],[159.278813,-5.471015],[159.284452,-5.470888]],[[159.276667,-5.457778],[159.275833,-5.458611],[159.270555,-5.451944],[159.276667,-5.457778]],[[159.262403,-5.445199],[159.262159,-5.445515],[159.258805,-5.444462],[159.262403,-5.445199]],[[159.255139,-5.441458],[159.255278,-5.439444],[159.257431,-5.442222],[159.255139,-5.441458]],[[159.359167,-5.4375],[159.360556,-5.435555],[159.366111,-5.44],[159.359167,-5.4375]],[[159.690296,-5.437014],[159.688953,-5.447232],[159.688114,-5.446943],[159.690296,-5.437014]],[[159.433614,-5.454829],[159.436084,-5.454654],[159.436653,-5.456835],[159.433614,-5.454829]],[[159.44036,-5.458821],[159.443854,-5.459952],[159.438829,-5.460468],[159.44036,-5.458821]],[[159.613779,-5.473508],[159.614863,-5.472813],[159.614778,-5.475186],[159.613779,-5.473508]],[[159.626354,-5.432883],[159.627256,-5.43073],[159.627909,-5.431507],[159.626354,-5.432883]],[[159.687564,-5.43176],[159.687841,-5.429815],[159.688605,-5.431899],[159.687564,-5.43176]],[[159.688056,-5.412778],[159.686806,-5.426111],[159.684375,-5.407986],[159.688056,-5.412778]],[[159.248103,-5.421488],[159.246867,-5.422959],[159.24652,-5.422611],[159.248103,-5.421488]],[[159.217589,-5.416135],[159.211871,-5.412528],[159.217953,-5.415104],[159.217589,-5.416135]],[[159.234583,-5.412361],[159.239514,-5.415486],[159.238333,-5.416111],[159.234583,-5.412361]],[[159.210555,-5.410485],[159.205,-5.406389],[159.205833,-5.404444],[159.207778,-5.406111],[159.210555,-5.410485]],[[159.682976,-5.40616],[159.678119,-5.398101],[159.686306,-5.391433],[159.682559,-5.399769],[159.682976,-5.40616]],[[159.194444,-5.392778],[159.189444,-5.389444],[159.189444,-5.385833],[159.190555,-5.386111],[159.194444,-5.392778]],[[159.69875,-5.381736],[159.7,-5.381667],[159.697986,-5.384583],[159.69875,-5.381736]],[[159.635438,-5.378209],[159.633375,-5.379703],[159.633479,-5.377021],[159.635438,-5.378209]],[[159.573782,-5.369568],[159.573381,-5.371863],[159.572438,-5.369865],[159.573782,-5.369568]],[[159.643134,-5.364177],[159.643145,-5.367205],[159.640852,-5.364769],[159.643134,-5.364177]],[[159.573618,-5.359584],[159.573271,-5.360487],[159.572153,-5.358611],[159.573618,-5.359584]],[[159.392411,-5.274347],[159.391578,-5.27657],[159.391439,-5.273583],[159.392411,-5.274347]],[[159.38405,-5.247047],[159.385047,-5.250201],[159.383019,-5.249896],[159.38405,-5.247047]],[[159.384859,-5.23492],[159.382644,-5.23513],[159.38379,-5.232311],[159.384859,-5.23492]],[[159.387664,-5.20437],[159.387386,-5.204439],[159.388427,-5.202216],[159.387664,-5.20437]],[[159.390468,-5.199394],[159.387831,-5.200158],[159.388178,-5.196199],[159.390468,-5.199394]],[[159.385503,-5.188049],[159.385573,-5.190284],[159.383943,-5.186859],[159.385503,-5.188049]],[[159.383682,-5.183754],[159.382919,-5.184796],[159.382572,-5.182781],[159.383682,-5.183754]],[[159.387864,-5.158361],[159.3894,-5.163486],[159.387186,-5.168496],[159.384328,-5.1673],[159.387864,-5.158361]],[[159.390228,-5.1377],[159.390108,-5.138132],[159.390723,-5.134777],[159.390228,-5.1377]],[[159.391552,-5.132042],[159.390625,-5.132778],[159.390139,-5.130625],[159.391552,-5.132042]],[[159.406958,-5.099868],[159.398701,-5.099242],[159.40564,-5.082571],[159.406958,-5.099868]],[[159.403963,-5.079106],[159.403698,-5.079244],[159.403007,-5.077999],[159.403963,-5.079106]],[[159.403472,-5.075972],[159.402361,-5.076736],[159.398979,-5.067011],[159.403472,-5.075972]],[[159.390366,-5.054992],[159.393641,-5.059555],[159.385176,-5.054095],[159.390366,-5.054992]],[[159.378229,-5.048894],[159.360747,-5.04136],[159.361274,-5.040128],[159.378229,-5.048894]],[[159.277639,-5.0425],[159.277222,-5.0425],[159.278611,-5.039167],[159.277639,-5.0425]],[[159.355278,-5.038611],[159.355139,-5.037639],[159.359861,-5.039476],[159.355278,-5.038611]],[[159.339791,-5.032014],[159.3375,-5.030972],[159.338542,-5.030625],[159.339791,-5.032014]],[[159.334742,-5.028954],[159.333007,-5.028051],[159.334673,-5.026801],[159.334742,-5.028954]],[[156.102778,-6.643333],[156.105278,-6.647222],[156.104167,-6.648056],[156.102778,-6.643333]],[[156.127376,-6.646508],[156.126515,-6.648201],[156.125667,-6.647049],[156.127376,-6.646508]],[[156.11,-6.649167],[156.108611,-6.647778],[156.111111,-6.646667],[156.11,-6.649167]],[[156.086285,-6.671721],[156.115133,-6.696796],[156.105322,-6.698768],[156.09375,-6.684989],[156.089759,-6.691611],[156.086285,-6.671721]],[[156.569444,-6.645],[156.571667,-6.645833],[156.570833,-6.646667],[156.569444,-6.645]],[[156.569814,-6.647022],[156.568795,-6.64752],[156.5677,-6.646334],[156.569814,-6.647022]],[[156.578663,-6.647509],[156.578733,-6.649176],[156.575676,-6.649592],[156.578663,-6.647509]],[[157.363611,-7.283333],[157.365136,-7.284448],[157.364167,-7.284722],[157.363611,-7.283333]],[[157.816423,-7.416909],[157.814338,-7.417967],[157.814592,-7.416348],[157.816423,-7.416909]],[[157.810694,-7.418353],[157.80527,-7.419739],[157.804992,-7.416828],[157.806105,-7.415858],[157.810694,-7.418353]],[[157.960571,-7.431683],[157.980234,-7.438367],[157.971419,-7.438147],[157.998606,-7.463796],[157.960571,-7.431683]],[[157.980833,-7.444167],[157.981667,-7.443056],[157.987778,-7.4475],[157.980833,-7.444167]],[[157.856111,-7.463889],[157.858611,-7.468056],[157.853055,-7.464167],[157.856111,-7.463889]],[[158.235026,-7.437933],[158.234177,-7.436715],[158.236774,-7.435607],[158.235026,-7.437933]],[[158.3425,-7.488611],[158.344444,-7.49],[158.3425,-7.491111],[158.3425,-7.488611]],[[158.425162,-7.528621],[158.42803,-7.526946],[158.427953,-7.52896],[158.425162,-7.528621]],[[158.415723,-7.543752],[158.419075,-7.541811],[158.416808,-7.54719],[158.415723,-7.543752]],[[158.422799,-7.561562],[158.416622,-7.556244],[158.420734,-7.556839],[158.422799,-7.561562]],[[158.568889,-7.566111],[158.570833,-7.561389],[158.579167,-7.575],[158.568889,-7.566111]],[[159.824167,-8.399167],[159.822222,-8.411667],[159.805555,-8.419167],[159.804722,-8.411944],[159.824167,-8.399167]],[[159.826985,-8.417671],[159.829754,-8.41601],[159.830024,-8.417923],[159.826985,-8.417671]],[[159.795177,-8.416615],[159.793715,-8.415438],[159.796389,-8.411389],[159.795177,-8.416615]],[[159.795056,-8.421543],[159.79531,-8.421845],[159.794229,-8.423489],[159.795056,-8.421543]],[[159.842222,-8.421389],[159.846944,-8.421667],[159.843056,-8.424167],[159.842222,-8.421389]],[[159.818889,-8.429444],[159.821667,-8.430555],[159.820278,-8.433333],[159.818889,-8.429444]],[[159.824775,-8.432639],[159.829722,-8.430833],[159.831667,-8.433333],[159.830556,-8.434444],[159.824775,-8.432639]],[[159.907222,-8.508611],[159.918956,-8.506423],[159.92,-8.529444],[159.909167,-8.517778],[159.907222,-8.508611]],[[159.8825,-8.521944],[159.872222,-8.524167],[159.873889,-8.519444],[159.8825,-8.521944]],[[159.882222,-8.514444],[159.880833,-8.515556],[159.880278,-8.513055],[159.882222,-8.514444]],[[159.863055,-8.511111],[159.863055,-8.509444],[159.865278,-8.509444],[159.863055,-8.511111]],[[160.693622,-8.330186],[160.695197,-8.332155],[160.694231,-8.332629],[160.693622,-8.330186]],[[160.713199,-8.353899],[160.71184,-8.354487],[160.71108,-8.35366],[160.713199,-8.353899]],[[161.302778,-9.329167],[161.304544,-9.328959],[161.303777,-9.330756],[161.302778,-9.329167]],[[161.303412,-9.373413],[161.302867,-9.372049],[161.306432,-9.371174],[161.303412,-9.373413]],[[161.347297,-9.384382],[161.348156,-9.382166],[161.349329,-9.384154],[161.347297,-9.384382]],[[161.347765,-9.386632],[161.349407,-9.385631],[161.352151,-9.391579],[161.347765,-9.386632]],[[161.340486,-9.393889],[161.339722,-9.394515],[161.337778,-9.391667],[161.340486,-9.393889]],[[161.319281,-9.395494],[161.316983,-9.397771],[161.316216,-9.395428],[161.319281,-9.395494]],[[161.345508,-9.399165],[161.345278,-9.404444],[161.342778,-9.403333],[161.345508,-9.399165]],[[161.321586,-9.405131],[161.318743,-9.401256],[161.319837,-9.400009],[161.321586,-9.405131]],[[161.358899,-9.411334],[161.358563,-9.420348],[161.356842,-9.419093],[161.358899,-9.411334]],[[161.3714,-9.411673],[161.37166,-9.411404],[161.372796,-9.413836],[161.3714,-9.411673]],[[161.332734,-9.419862],[161.330135,-9.415729],[161.331944,-9.415],[161.332734,-9.419862]],[[161.326111,-9.415833],[161.326389,-9.414096],[161.3275,-9.414444],[161.326111,-9.415833]],[[161.333133,-9.421592],[161.334249,-9.421937],[161.333691,-9.422836],[161.333133,-9.421592]],[[161.394275,-9.43199],[161.381922,-9.448618],[161.383488,-9.442318],[161.378817,-9.445729],[161.371373,-9.435784],[161.377757,-9.435161],[161.380024,-9.438331],[161.379299,-9.434916],[161.376233,-9.433236],[161.384712,-9.429391],[161.394275,-9.43199]],[[161.389105,-9.441102],[161.389967,-9.441439],[161.389416,-9.442596],[161.389105,-9.441102]],[[161.348056,-9.441389],[161.342222,-9.435278],[161.349523,-9.436114],[161.348056,-9.441389]],[[161.382872,-9.429116],[161.383585,-9.427378],[161.384998,-9.427232],[161.382872,-9.429116]],[[161.351025,-9.441622],[161.351335,-9.443406],[161.350771,-9.443763],[161.351025,-9.441622]],[[161.349023,-9.443954],[161.349886,-9.444446],[161.349762,-9.445346],[161.349023,-9.443954]],[[161.380061,-9.457848],[161.386134,-9.462718],[161.38148,-9.471306],[161.373376,-9.465641],[161.380061,-9.457848]],[[161.916947,-10.148887],[161.922488,-10.131233],[161.929942,-10.127232],[161.92916,-10.146502],[161.916947,-10.148887]],[[161.681381,-10.187316],[161.674138,-10.171736],[161.676667,-10.164185],[161.692762,-10.178774],[161.681381,-10.187316]],[[161.93663,-10.184569],[161.945333,-10.173353],[161.956312,-10.189583],[161.946257,-10.199973],[161.93663,-10.184569]],[[161.71875,-10.210379],[161.747355,-10.221399],[161.766983,-10.258304],[161.756948,-10.287036],[161.737178,-10.303662],[161.719374,-10.29853],[161.728598,-10.283633],[161.723065,-10.257086],[161.704291,-10.253209],[161.708035,-10.215984],[161.71875,-10.210379]],[[161.961177,-10.225413],[161.969587,-10.227539],[161.983526,-10.260228],[161.976671,-10.279153],[161.971619,-10.273158],[161.978681,-10.258489],[161.968511,-10.262044],[161.955488,-10.233956],[161.961177,-10.225413]],[[161.743866,-10.399149],[161.744204,-10.39858],[161.745414,-10.400205],[161.743866,-10.399149]],[[162.278703,-10.746478],[162.275364,-10.74166],[162.281191,-10.744965],[162.278703,-10.746478]],[[162.284289,-10.750279],[162.288283,-10.756921],[162.285294,-10.759966],[162.284516,-10.759601],[162.284289,-10.750279]],[[162.285456,-10.766154],[162.286322,-10.765892],[162.286029,-10.769784],[162.285456,-10.766154]],[[162.269923,-10.796445],[162.267954,-10.800613],[162.264099,-10.802269],[162.269923,-10.796445]],[[162.278162,-10.804573],[162.279877,-10.803296],[162.281189,-10.807521],[162.278162,-10.804573]],[[162.303422,-10.810432],[162.303806,-10.810615],[162.303594,-10.812063],[162.303422,-10.810432]],[[162.270584,-10.813652],[162.275059,-10.816546],[162.2708,-10.820452],[162.270584,-10.813652]],[[170.186063,-11.907204],[170.188327,-11.904576],[170.192134,-11.910992],[170.186063,-11.907204]],[[168.812363,-12.303586],[168.825133,-12.280722],[168.84117,-12.285185],[168.847258,-12.29675],[168.819766,-12.308234],[168.812363,-12.303586]]]}}
