{"type":"Feature","properties":{"mrgid":25654,"name":"United States part of the South Pacific Ocean (Howland and Baker Islands)","placeType":"Marine Region","source":"MarineRegions:eez_iho"},"geometry":{"type":"Polygon","coordinates":[[[-177.452967,-3.014831],[-177.284603,-2.946928],[-173.754836,-0.72975],[-173.306091,0.0],[-179.851317,0.0],[-179.787861,-0.22537],[-179.752525,-0.447738],[-179.699762,-0.677429],[-179.637004,-0.885629],[-179.567273,-1.073808],[-179.464567,-1.302567],[-179.353599,-1.50854],[-179.219083,-1.720062],[-179.079514,-1.908024],[-178.916019,-2.097788],[-178.73888,-2.274648],[-178.548898,-2.437782],[-178.347457,-2.585998],[-178.135055,-2.718895],[-177.913231,-2.835462],[-177.68381,-2.934746],[-177.452967,-3.014831]]]}}
