{"type":"Feature","properties":{"mrgid":25687,"name":"Indonesian part of the Molukka Sea","placeType":"Marine Region","source":"MarineRegions:eez_iho"},"geometry":{"type":"Polygon","coordinates":[[[126.855463,4.485988],[126.85305,4.466493],[126.867214,4.458648],[126.869807,4.427597],[126.85138,4.412209],[126.850921,4.374223],[126.865926,4.342705],[126.900071,4.301178],[126.911742,4.269829],[126.861402,4.250021],[126.870014,4.216286],[126.830729,4.188704],[126.797004,4.148852],[126.804277,4.110091],[126.812464,4.103763],[126.801974,4.054486],[126.808651,4.032795],[126.794824,4.032058],[126.792378,4.018333],[126.760603,3.993891],[126.696218,4.002924],[126.676649,3.951573],[126.720736,3.917324],[126.722199,3.897461],[126.70527,3.879737],[126.741839,3.836775],[126.761215,3.855469],[126.803157,3.834194],[126.834874,3.793976],[126.851626,3.754384],[126.842435,3.740695],[126.82234,3.727997],[126.813014,3.737559],[125.615692,3.349165],[125.62084,3.341715],[125.613865,3.34163],[125.428092,2.657299],[125.431627,2.649683],[125.423213,2.639326],[125.165086,1.688466],[125.176014,1.684255],[125.175992,1.673618],[125.163259,1.663085],[125.164035,1.642011],[125.161089,1.638184],[125.157219,1.639344],[125.150821,1.633737],[125.154871,1.625016],[125.143104,1.621791],[125.143743,1.606107],[125.165576,1.57014],[125.208224,1.550133],[125.246191,1.514938],[125.234565,1.467906],[125.195735,1.437833],[125.153205,1.439483],[125.127908,1.429078],[125.118191,1.400501],[125.066765,1.358904],[125.079281,1.35619],[125.070335,1.352319],[125.076759,1.338392],[125.062392,1.318035],[125.068566,1.298946],[125.023687,1.141706],[124.972069,1.074764],[124.893146,1.005651],[124.894763,0.981832],[124.887581,0.988132],[124.887164,0.972172],[124.849471,0.967884],[124.790031,0.945222],[124.783424,0.931277],[124.790905,0.927917],[124.770677,0.914373],[124.770729,0.898752],[124.761384,0.887424],[124.749854,0.896436],[124.732784,0.884884],[124.727342,0.896113],[124.71727,0.895367],[124.709158,0.849131],[124.73664,0.856773],[124.708379,0.841731],[124.701864,0.846314],[124.689963,0.829762],[124.670876,0.8275],[124.638731,0.790069],[124.623913,0.760919],[124.630827,0.713335],[124.615254,0.699263],[124.59874,0.706503],[124.593449,0.683252],[124.582056,0.694274],[124.577087,0.67172],[124.556019,0.652584],[124.543591,0.624769],[124.566142,0.618098],[124.568971,0.579651],[124.557666,0.591153],[124.538184,0.587773],[124.523323,0.561219],[124.493194,0.546835],[124.497622,0.541167],[124.489029,0.53026],[124.503791,0.514789],[124.507474,0.491869],[124.501489,0.490274],[124.512593,0.472721],[124.495246,0.467204],[124.498772,0.477865],[124.488717,0.486581],[124.480157,0.466963],[124.44857,0.464821],[124.458446,0.45175],[124.453644,0.443566],[124.402767,0.454769],[124.385242,0.442155],[124.361749,0.44419],[124.360403,0.43136],[124.356455,0.451809],[124.346864,0.44337],[124.341898,0.449106],[124.338314,0.433571],[124.324635,0.446098],[124.313999,0.410545],[124.30395,0.427252],[124.28488,0.421194],[124.272724,0.428155],[124.287466,0.406637],[124.242811,0.3981],[124.231222,0.388971],[124.225034,0.394685],[124.219093,0.383191],[124.21193,0.397303],[124.079939,0.387556],[124.051407,0.360559],[124.044273,0.375393],[124.035333,0.368532],[124.031089,0.374467],[123.99341,0.374938],[123.98026,0.370205],[123.975573,0.358846],[123.946288,0.362953],[123.942685,0.354367],[123.925239,0.355451],[123.920293,0.34541],[123.915954,0.351259],[123.882473,0.347062],[123.872168,0.330761],[123.86008,0.327364],[123.807685,0.334815],[123.797508,0.316377],[123.778106,0.311467],[123.736139,0.323043],[123.707608,0.318946],[123.677161,0.295538],[123.647721,0.306248],[123.629467,0.291923],[123.613016,0.299859],[123.612254,0.308851],[123.589779,0.308621],[123.57384,0.321156],[123.557076,0.322464],[123.492111,0.306949],[123.458155,0.33737],[123.437225,0.317439],[123.419258,0.311975],[123.335482,0.309667],[123.411296,-0.65551],[123.381314,-0.669203],[123.387865,-0.674265],[123.392395,-0.669346],[123.396514,-0.692382],[123.421397,-0.718735],[123.435462,-0.708014],[123.443858,-0.711055],[123.426396,-0.744223],[123.444659,-0.744969],[123.458498,-0.768768],[123.447233,-0.771523],[123.434064,-0.800135],[123.431546,-0.81788],[123.444914,-0.829121],[123.443776,-0.838816],[123.409489,-0.857465],[123.391212,-0.893028],[123.383433,-0.931416],[123.39696,-0.956376],[123.377639,-0.975965],[123.374081,-1.009814],[123.351776,-1.034516],[123.326042,-1.048759],[123.303718,-1.156214],[123.293158,-1.169067],[123.300309,-1.179197],[123.318051,-1.175583],[123.325585,-1.189314],[123.313136,-1.266307],[123.32345,-1.284039],[123.365095,-1.226283],[123.381275,-1.219936],[123.399972,-1.234654],[123.404617,-1.218362],[123.414891,-1.228545],[123.404524,-1.251823],[123.408831,-1.25812],[123.418087,-1.254784],[123.42747,-1.269046],[123.445986,-1.265437],[123.442325,-1.233517],[123.471637,-1.24863],[123.487502,-1.269675],[123.518139,-1.262682],[123.559739,-1.281718],[123.557561,-1.329741],[123.534535,-1.360096],[123.538935,-1.396189],[123.517272,-1.446299],[123.497023,-1.466832],[123.48049,-1.469728],[123.474191,-1.461436],[123.471348,-1.474587],[123.498389,-1.512929],[123.506464,-1.496447],[123.51775,-1.508341],[123.527395,-1.507335],[123.52159,-1.486693],[123.528546,-1.477641],[123.543381,-1.486884],[123.564106,-1.548598],[123.554481,-1.56496],[123.55965,-1.598651],[123.575949,-1.609504],[123.588992,-1.606465],[123.587058,-1.595031],[123.597543,-1.59199],[123.599827,-1.601573],[123.61446,-1.607552],[123.621591,-1.637403],[123.604127,-1.631281],[123.619927,-1.651622],[123.60795,-1.677468],[123.613707,-1.696261],[123.598559,-1.713716],[124.388333,-1.671317],[124.400782,-1.6597],[124.436359,-1.664544],[124.492434,-1.658055],[124.508091,-1.651367],[124.512956,-1.635335],[124.529436,-1.629538],[124.520114,-1.645063],[124.52535,-1.664818],[124.541605,-1.642179],[124.553711,-1.638393],[124.574656,-1.646734],[124.588551,-1.639674],[124.597794,-1.644726],[124.606187,-1.637809],[124.643128,-1.639302],[124.715391,-1.653737],[124.750487,-1.670261],[124.77926,-1.66459],[124.785845,-1.677138],[124.81006,-1.686908],[124.803878,-1.674088],[124.835034,-1.683564],[124.87016,-1.68031],[124.89907,-1.708976],[124.911111,-1.695644],[124.925437,-1.705829],[124.939591,-1.697436],[124.948546,-1.705601],[124.957943,-1.696121],[124.961245,-1.709792],[124.979208,-1.704157],[124.978081,-1.716337],[125.000925,-1.715306],[124.999997,-1.726951],[125.014461,-1.719348],[125.025795,-1.72294],[125.015551,-1.752909],[125.024352,-1.761106],[125.036803,-1.751812],[125.046445,-1.771407],[125.058208,-1.766758],[125.060769,-1.743344],[125.069281,-1.773287],[125.078759,-1.759393],[125.102496,-1.760045],[125.10882,-1.7488],[125.087813,-1.745447],[125.104262,-1.742546],[125.11419,-1.730573],[125.101186,-1.73134],[125.107686,-1.692122],[125.131617,-1.684196],[125.142828,-1.693653],[125.139985,-1.707725],[125.1488,-1.714978],[125.1642,-1.696161],[125.184482,-1.704287],[125.18139,-1.715607],[125.191254,-1.711252],[125.203632,-1.724448],[125.180892,-1.780392],[125.197374,-1.792045],[125.211943,-1.792654],[125.222079,-1.778148],[125.229068,-1.761305],[125.222875,-1.735839],[125.231158,-1.739741],[125.240607,-1.725219],[125.255831,-1.722954],[125.292753,-1.732157],[125.295,-1.768473],[125.26981,-1.790508],[125.275559,-1.796283],[125.299448,-1.778216],[125.321001,-1.78418],[125.316411,-1.838423],[125.329085,-1.838822],[125.350719,-1.804451],[125.366596,-1.810899],[125.375043,-1.806033],[125.356635,-1.79642],[125.366927,-1.779906],[125.39118,-1.783801],[125.403258,-1.774624],[125.410388,-1.777593],[125.412473,-1.796485],[125.424482,-1.808842],[125.449451,-1.800602],[125.457373,-1.778162],[125.479555,-1.779091],[125.487527,-1.785324],[125.472387,-1.802599],[125.487584,-1.809722],[125.488196,-1.81982],[125.496365,-1.807307],[125.499311,-1.821535],[125.507813,-1.808036],[125.516415,-1.817306],[125.514309,-1.804338],[125.520377,-1.801322],[125.52527,-1.810879],[125.526,-1.797504],[125.539249,-1.786243],[125.54181,-1.812129],[125.5503,-1.8025],[125.588488,-1.805164],[125.588095,-1.812759],[125.597385,-1.808542],[125.604936,-1.819966],[125.622976,-1.812892],[125.635724,-1.829729],[125.647844,-1.821501],[125.688591,-1.822995],[125.695655,-1.830285],[125.714581,-1.816746],[125.729049,-1.826535],[125.729989,-1.815946],[125.744183,-1.806394],[125.751124,-1.81542],[125.756232,-1.806054],[125.769361,-1.805797],[125.771926,-1.812179],[125.780726,-1.80781],[125.781066,-1.797739],[125.784091,-1.805241],[125.814624,-1.811308],[125.831047,-1.802322],[125.874314,-1.80689],[125.885231,-1.794051],[125.915598,-1.79272],[126.126131,-1.811316],[126.19772,-1.803796],[126.208682,-1.815116],[126.266646,-1.814174],[126.304985,-1.828376],[126.315124,-1.822901],[126.312835,-1.815556],[126.33216,-1.810081],[126.354832,-1.81451],[126.332211,-1.826578],[126.349749,-1.826578],[126.45683,-1.799871],[126.447323,-1.807442],[126.478264,-1.805781],[126.456844,-1.810314],[126.477636,-1.812267],[126.464449,-1.820496],[126.477915,-1.820635],[127.413179,-1.664312],[127.392759,-1.616072],[127.41208,-1.566759],[127.410085,-1.544816],[127.402352,-1.537801],[127.41788,-1.50677],[127.430773,-1.499326],[127.418806,-1.495117],[127.415496,-1.480642],[127.432275,-1.468331],[127.428378,-1.458621],[127.443013,-1.434659],[127.433151,-1.437013],[127.431002,-1.427288],[127.420248,-1.428137],[127.414812,-1.418913],[127.441497,-1.409328],[127.447368,-1.41593],[127.435794,-1.41953],[127.43766,-1.42554],[127.485045,-1.446004],[127.493338,-1.438423],[127.49389,-1.449135],[127.504579,-1.45252],[127.506176,-1.434662],[127.516055,-1.434082],[127.513471,-1.416402],[127.556749,-1.391085],[127.580886,-1.363752],[127.620698,-1.351533],[127.642984,-1.330806],[127.600334,-1.260051],[127.561746,-1.248398],[127.533867,-1.249794],[127.515382,-1.268385],[127.493199,-1.271691],[127.466826,-1.254831],[127.465137,-1.239897],[127.479125,-1.217985],[127.509246,-1.201501],[127.511136,-1.176598],[127.539269,-1.178658],[127.548151,-1.17054],[128.307406,-0.957835],[128.314945,-0.938055],[128.329348,-0.941946],[128.323144,-0.948221],[128.332664,-0.943399],[128.337505,-0.94937],[128.46049,-0.91451],[128.37734,-0.877819],[128.355507,-0.881925],[128.3517,-0.88972],[128.314317,-0.862139],[128.306553,-0.879746],[128.284267,-0.878591],[128.243052,-0.856307],[128.225373,-0.837201],[128.248707,-0.820384],[128.28261,-0.836375],[128.255133,-0.796625],[128.228291,-0.778004],[128.230019,-0.770553],[128.23914,-0.778987],[128.238943,-0.771268],[128.246759,-0.769649],[128.243265,-0.759444],[128.239639,-0.769049],[128.224542,-0.768909],[128.233327,-0.750548],[128.22517,-0.757444],[128.2175,-0.773077],[128.065325,-0.717883],[128.020303,-0.686945],[127.996534,-0.658319],[127.988809,-0.612307],[127.959014,-0.568823],[127.938208,-0.504318],[127.906279,-0.47391],[127.904795,-0.44654],[127.863931,-0.366081],[127.849656,-0.363619],[127.817359,-0.337621],[127.798178,-0.339836],[127.75088,-0.320436],[127.74578,-0.307908],[127.687145,-0.269694],[127.689442,-0.248189],[127.663335,-0.221626],[127.661023,-0.209168],[127.686612,-0.139083],[127.689483,-0.108978],[127.699594,-0.099505],[127.697295,0.006753],[127.721819,0.069615],[127.712588,0.103093],[127.685017,0.098815],[127.701142,0.123744],[127.691741,0.146076],[127.695948,0.184145],[127.734066,0.3112],[127.708965,0.352842],[127.661567,0.341759],[127.648888,0.357303],[127.621283,0.360518],[127.622265,0.395408],[127.59621,0.400943],[127.578443,0.414902],[127.585025,0.422567],[127.57286,0.428554],[127.576131,0.443882],[127.568485,0.454479],[127.56173,0.515463],[127.526848,0.553916],[127.536522,0.572971],[127.529369,0.612231],[127.540427,0.630995],[127.539652,0.653278],[127.550709,0.682562],[127.547727,0.730234],[127.57485,0.753615],[127.596358,0.759739],[127.59945,0.750333],[127.605093,0.765836],[127.602466,0.778961],[127.615409,0.782588],[127.622156,0.802101],[127.636096,0.810477],[127.639738,0.851617],[127.625163,0.843947],[127.628404,0.860462],[127.619942,0.862752],[127.613553,0.854318],[127.610047,0.863905],[127.599573,0.864886],[127.588211,0.860711],[127.566265,0.865874],[127.56626,0.873886],[127.562168,0.863669],[127.556728,0.863363],[127.561886,0.867629],[127.561643,0.872817],[127.548382,0.879436],[127.543431,0.873713],[127.543069,0.86134],[127.526089,0.85829],[127.546005,0.880397],[127.537338,0.883398],[127.525364,0.877072],[127.527582,0.885579],[127.501879,0.884874],[127.492086,0.892397],[127.491101,0.927659],[127.512067,0.953293],[127.511086,0.974042],[127.495059,0.995172],[127.480937,0.992844],[127.471919,1.006535],[127.479115,1.015981],[127.494776,1.015716],[127.50021,1.047015],[127.478563,1.063946],[127.439189,1.046347],[127.424759,1.049911],[127.424201,1.032589],[127.400372,1.042439],[127.399385,1.048825],[127.411755,1.046912],[127.397641,1.059929],[127.399452,1.083935],[127.42471,1.114454],[127.431296,1.147718],[127.39943,1.19587],[127.422983,1.264736],[127.484056,1.354338],[127.48627,1.393273],[127.524242,1.440976],[127.535686,1.505936],[127.524803,1.534261],[127.528483,1.550969],[127.509779,1.556943],[127.527344,1.584867],[127.543883,1.581122],[127.551033,1.592716],[127.54996,1.62845],[127.540501,1.649727],[127.548848,1.651203],[127.549005,1.664543],[127.559464,1.663757],[127.555664,1.640346],[127.564553,1.660947],[127.5701,1.654045],[127.571524,1.6628],[127.583212,1.66418],[127.583614,1.689109],[127.562766,1.710468],[127.55012,1.711098],[127.57639,1.726396],[127.569219,1.74227],[127.57578,1.761683],[127.612651,1.782859],[127.61298,1.794689],[127.645079,1.824053],[127.641252,1.837004],[127.659858,1.865114],[127.654261,1.876325],[127.66446,1.86947],[127.661587,1.877111],[127.67782,1.888489],[127.673783,1.902865],[127.693927,1.920736],[127.692806,1.930629],[127.706375,1.945778],[127.732998,1.957317],[127.737089,1.968699],[127.748179,1.968713],[127.786377,2.010164],[127.788552,2.025329],[127.837248,2.08253],[127.837741,2.091653],[127.900755,2.135045],[127.911361,2.158227],[127.929936,2.162807],[127.933769,2.180945],[127.959226,2.196379],[127.953908,2.221479],[127.977704,2.207636],[127.984802,2.180023],[128.025584,2.197796],[128.0683,2.197454],[128.196905,2.281315],[128.248838,2.325613],[128.283144,2.370049],[128.286632,2.390426],[128.295942,2.406981],[128.298221,2.401953],[128.295747,2.440964],[128.323277,2.471587],[128.348117,2.486105],[128.362649,2.508338],[128.376332,2.506041],[128.380784,2.519266],[128.411239,2.527994],[128.432759,2.57273],[128.44557,2.569137],[128.459967,2.596201],[128.47473,2.587651],[128.47744,2.594023],[128.484766,2.585343],[128.487824,2.591329],[128.50315,2.576792],[128.525991,2.577299],[128.546476,2.606004],[128.549986,2.629396],[128.566405,2.645311],[126.855463,4.485988]],[[126.709722,3.956389],[126.713889,3.955556],[126.713056,3.952222],[126.709722,3.956389]],[[126.713595,3.93856],[126.708662,3.943512],[126.710373,3.947278],[126.71812,3.94459],[126.713595,3.93856]],[[125.674419,3.056423],[125.675858,3.061674],[125.677616,3.060114],[125.674419,3.056423]],[[125.458992,2.68833],[125.462388,2.679793],[125.451458,2.676353],[125.447173,2.683593],[125.458992,2.68833]],[[125.465278,2.671667],[125.465833,2.654444],[125.473889,2.655556],[125.463056,2.6475],[125.465556,2.640556],[125.4425,2.638055],[125.443333,2.643333],[125.458333,2.649722],[125.449167,2.669722],[125.465278,2.671667]],[[125.472665,2.666812],[125.473606,2.66769],[125.475985,2.665741],[125.472665,2.666812]],[[125.476622,2.660904],[125.476887,2.66002],[125.474555,2.658422],[125.476622,2.660904]],[[125.489317,2.653064],[125.488071,2.64798],[125.481011,2.656058],[125.489317,2.653064]],[[125.475266,2.646806],[125.476939,2.645174],[125.475726,2.644598],[125.475266,2.646806]],[[128.141596,2.385902],[128.168471,2.415786],[128.176667,2.374444],[128.187222,2.364722],[128.176667,2.314444],[128.188611,2.305833],[128.179444,2.291111],[128.161039,2.287689],[128.143056,2.295278],[128.129722,2.314444],[128.125,2.335],[128.136111,2.3425],[128.130556,2.351111],[128.143889,2.372222],[128.141596,2.385902]],[[128.157149,2.282627],[128.151111,2.282778],[128.157222,2.2875],[128.157149,2.282627]],[[127.779129,2.274928],[127.825377,2.27054],[127.816238,2.228956],[127.807169,2.222547],[127.803153,2.23014],[127.804399,2.223313],[127.792768,2.216975],[127.77277,2.219298],[127.77186,2.261067],[127.762881,2.255837],[127.756685,2.264158],[127.774908,2.294778],[127.779129,2.274928]],[[127.819776,2.273772],[127.821437,2.272415],[127.82015,2.272077],[127.819776,2.273772]],[[127.749241,2.266979],[127.748055,2.268889],[127.749776,2.267639],[127.749241,2.266979]],[[127.746378,2.270241],[127.746733,2.269402],[127.744064,2.27026],[127.746378,2.270241]],[[127.74217,2.271896],[127.74268,2.274573],[127.743766,2.273612],[127.74217,2.271896]],[[127.741942,2.272636],[127.741667,2.271667],[127.740139,2.274177],[127.741942,2.272636]],[[125.366186,2.28751],[125.344038,2.30478],[125.355665,2.320379],[125.378091,2.327621],[125.385842,2.304084],[125.366186,2.28751]],[[125.393611,2.3275],[125.368611,2.361944],[125.387778,2.383611],[125.403889,2.367222],[125.4175,2.368611],[125.421389,2.380556],[125.434961,2.383541],[125.466276,2.352808],[125.442671,2.316833],[125.393611,2.3275]],[[127.764198,2.212698],[127.774255,2.202955],[127.765099,2.197234],[127.753586,2.204957],[127.764198,2.212698]],[[127.713223,2.203708],[127.712005,2.202893],[127.711727,2.204334],[127.713223,2.203708]],[[127.720585,2.194923],[127.741078,2.183291],[127.743143,2.191088],[127.756378,2.183918],[127.758571,2.190507],[127.77784,2.160235],[127.769842,2.152214],[127.759563,2.164762],[127.726251,2.179984],[127.720585,2.194923]],[[125.411389,2.133889],[125.40958,2.103248],[125.393333,2.103055],[125.379305,2.090482],[125.371944,2.093889],[125.3625,2.088611],[125.358611,2.072778],[125.34293,2.071807],[125.335833,2.086667],[125.341723,2.104681],[125.346872,2.097021],[125.353889,2.109167],[125.363889,2.105556],[125.353611,2.126389],[125.364721,2.129652],[125.366389,2.119444],[125.372222,2.125278],[125.390278,2.114167],[125.411389,2.133889]],[[127.765956,2.121706],[127.775852,2.128782],[127.78907,2.10701],[127.783462,2.103518],[127.783921,2.108243],[127.765956,2.121706]],[[127.788618,2.127095],[127.789577,2.119166],[127.78627,2.119905],[127.788618,2.127095]],[[127.775201,2.105537],[127.775063,2.104701],[127.774163,2.106303],[127.775201,2.105537]],[[127.774262,2.107387],[127.773132,2.108421],[127.774866,2.108151],[127.774262,2.107387]],[[127.777608,2.109244],[127.778369,2.109375],[127.778438,2.107364],[127.777608,2.109244]],[[125.362756,2.082342],[125.363033,2.08262],[125.364764,2.080044],[125.362756,2.082342]],[[125.333202,2.086868],[125.332302,2.086172],[125.331334,2.09028],[125.333202,2.086868]],[[125.35323,2.113659],[125.346035,2.113967],[125.348512,2.122833],[125.351133,2.120762],[125.35323,2.113659]],[[125.366425,2.127467],[125.368224,2.128929],[125.370578,2.125238],[125.366425,2.127467]],[[127.717933,1.956684],[127.721267,1.958982],[127.721325,1.956378],[127.717933,1.956684]],[[127.602344,1.804746],[127.604025,1.806425],[127.604161,1.803613],[127.602344,1.804746]],[[127.523888,1.726041],[127.534072,1.714722],[127.532099,1.71067],[127.536944,1.700833],[127.534978,1.688589],[127.494883,1.666063],[127.512222,1.686111],[127.523888,1.726041]],[[127.533547,1.710405],[127.534205,1.711885],[127.534824,1.710669],[127.533547,1.710405]],[[127.544863,1.707759],[127.54923,1.708694],[127.549616,1.706865],[127.544863,1.707759]],[[127.538608,1.683891],[127.549191,1.678923],[127.543507,1.669006],[127.52917,1.672521],[127.538608,1.683891]],[[127.488855,1.667004],[127.485345,1.65302],[127.478873,1.661276],[127.484055,1.674909],[127.493963,1.671229],[127.488855,1.667004]],[[127.4925,1.6625],[127.490556,1.659167],[127.489167,1.661111],[127.4925,1.6625]],[[127.539059,1.66053],[127.540066,1.659963],[127.539047,1.658263],[127.539059,1.66053]],[[125.15625,1.635603],[125.15625,1.637277],[125.1586,1.636625],[125.15625,1.635603]],[[125.291366,1.548926],[125.292968,1.533829],[125.274908,1.503517],[125.281567,1.480854],[125.272184,1.475665],[125.262292,1.44684],[125.260386,1.41338],[125.254241,1.4076],[125.244813,1.415291],[125.227269,1.3979],[125.207137,1.404606],[125.174405,1.397735],[125.173138,1.387316],[125.168675,1.397426],[125.179009,1.405025],[125.166409,1.403898],[125.186523,1.432199],[125.231722,1.4388],[125.239423,1.448033],[125.24323,1.459963],[125.237616,1.461951],[125.277839,1.517016],[125.291366,1.548926]],[[125.293674,1.544477],[125.29563,1.546149],[125.296468,1.544856],[125.293674,1.544477]],[[125.214746,1.390989],[125.21674,1.388274],[125.215279,1.388433],[125.214746,1.390989]],[[125.232591,1.458905],[125.231146,1.459675],[125.232815,1.461184],[125.232591,1.458905]],[[126.381445,1.35266],[126.416824,1.332676],[126.399465,1.316319],[126.393189,1.280162],[126.376213,1.311924],[126.356894,1.321875],[126.363607,1.341045],[126.381445,1.35266]],[[126.14398,0.984525],[126.148019,0.989397],[126.151534,0.98644],[126.150603,0.984402],[126.14398,0.984525]],[[126.155954,0.976925],[126.154666,0.969458],[126.146245,0.973056],[126.147486,0.964385],[126.162117,0.957525],[126.142167,0.962363],[126.126866,0.977234],[126.155954,0.976925]],[[124.902433,0.959721],[124.901326,0.960209],[124.902364,0.961115],[124.902433,0.959721]],[[124.918595,0.975828],[124.911827,0.969602],[124.89652,0.9763],[124.903095,0.978822],[124.918595,0.975828]],[[124.951627,0.977496],[124.950892,0.976067],[124.950114,0.976391],[124.951627,0.977496]],[[124.902503,0.979853],[124.901534,0.979713],[124.901465,0.980967],[124.902503,0.979853]],[[124.879462,0.954427],[124.880084,0.954985],[124.880223,0.952825],[124.879462,0.954427]],[[124.789499,0.924906],[124.791152,0.9261],[124.788976,0.917377],[124.789499,0.924906]],[[127.314724,0.91356],[127.331001,0.896564],[127.321299,0.881432],[127.302793,0.898091],[127.314724,0.91356]],[[127.499664,0.881404],[127.507236,0.880608],[127.500246,0.865677],[127.497003,0.871266],[127.499664,0.881404]],[[127.508809,0.882385],[127.509834,0.88425],[127.511673,0.8825],[127.508809,0.882385]],[[127.521941,0.883315],[127.524016,0.877928],[127.517578,0.878906],[127.521941,0.883315]],[[127.512718,0.879226],[127.512822,0.881004],[127.514855,0.88033],[127.512718,0.879226]],[[127.527739,0.877874],[127.53023,0.878361],[127.529054,0.876829],[127.527739,0.877874]],[[127.530969,0.87441],[127.528994,0.873722],[127.528764,0.874575],[127.530969,0.87441]],[[127.526653,0.875408],[127.52628,0.872506],[127.524578,0.873441],[127.526653,0.875408]],[[127.52195,0.872777],[127.521099,0.871106],[127.519424,0.873119],[127.52195,0.872777]],[[127.507968,0.868101],[127.509073,0.864552],[127.506577,0.864138],[127.507968,0.868101]],[[127.515795,0.862824],[127.514001,0.862187],[127.513467,0.863332],[127.515795,0.862824]],[[127.513502,0.86001],[127.509941,0.858739],[127.508955,0.86055],[127.513502,0.86001]],[[127.340524,0.86365],[127.388356,0.829639],[127.388445,0.780414],[127.37077,0.760103],[127.322198,0.754646],[127.304995,0.765423],[127.293828,0.791463],[127.293731,0.818631],[127.302364,0.841397],[127.319486,0.853592],[127.318904,0.863395],[127.340524,0.86365]],[[127.594172,0.772739],[127.595608,0.774588],[127.597023,0.773191],[127.594172,0.772739]],[[127.405345,0.758262],[127.41021,0.748189],[127.447426,0.7458],[127.460319,0.715268],[127.448732,0.655372],[127.428532,0.628546],[127.41248,0.621795],[127.378051,0.630708],[127.363591,0.664213],[127.362574,0.679481],[127.384897,0.723182],[127.385205,0.748179],[127.405345,0.758262]],[[124.634115,0.711241],[124.63305,0.710809],[124.632115,0.711851],[124.634115,0.711241]],[[127.373188,0.741037],[127.379635,0.731095],[127.368957,0.723963],[127.362788,0.734767],[127.373188,0.741037]],[[124.657042,0.782795],[124.662358,0.774949],[124.660663,0.76976],[124.650153,0.778725],[124.657042,0.782795]],[[124.661141,0.804934],[124.688058,0.809291],[124.679541,0.805835],[124.661141,0.804934]],[[124.737234,0.860198],[124.744925,0.864147],[124.748033,0.86329],[124.743102,0.862389],[124.737234,0.860198]],[[124.765906,0.875422],[124.761922,0.873349],[124.762019,0.87502],[124.765906,0.875422]],[[124.730976,0.879545],[124.728277,0.879197],[124.739555,0.883933],[124.730976,0.879545]],[[124.782612,0.889149],[124.779928,0.888668],[124.781136,0.890773],[124.782612,0.889149]],[[127.393363,0.586522],[127.406143,0.585339],[127.411247,0.573745],[127.381739,0.558279],[127.393363,0.586522]],[[124.567675,0.57486],[124.566295,0.570635],[124.564829,0.574885],[124.567675,0.57486]],[[127.389369,0.472686],[127.417834,0.479593],[127.439664,0.44742],[127.421,0.432686],[127.398816,0.432242],[127.382871,0.449006],[127.389369,0.472686]],[[124.479009,0.446572],[124.47577,0.446191],[124.47711,0.448879],[124.479009,0.446572]],[[124.460922,0.450224],[124.461171,0.452951],[124.462418,0.452186],[124.460922,0.450224]],[[124.361669,0.420037],[124.357267,0.427921],[124.35745,0.430448],[124.365922,0.423946],[124.361669,0.420037]],[[124.353898,0.41826],[124.349608,0.416101],[124.349746,0.417285],[124.353898,0.41826]],[[127.578716,0.399582],[127.586016,0.399467],[127.585049,0.395421],[127.578716,0.399582]],[[127.587749,0.393164],[127.589126,0.39253],[127.587816,0.388508],[127.587749,0.393164]],[[127.606467,0.389594],[127.609303,0.387406],[127.601337,0.38333],[127.606467,0.389594]],[[127.59513,0.381233],[127.590547,0.379812],[127.590713,0.382116],[127.59513,0.381233]],[[127.420238,0.372638],[127.437753,0.350022],[127.443177,0.324505],[127.422578,0.28315],[127.392997,0.275179],[127.353692,0.304447],[127.344416,0.328978],[127.36566,0.35727],[127.420238,0.372638]],[[127.619513,0.356064],[127.62215,0.357887],[127.624542,0.354861],[127.619513,0.356064]],[[127.155553,0.162946],[127.158988,0.157852],[127.144948,0.1509],[127.155553,0.162946]],[[127.170555,0.159722],[127.174096,0.161322],[127.172778,0.154444],[127.170555,0.159722]],[[127.433699,0.149955],[127.430455,0.143989],[127.427899,0.147456],[127.433699,0.149955]],[[127.220674,0.142511],[127.219555,0.132818],[127.207382,0.140602],[127.2135,0.144561],[127.220674,0.142511]],[[127.426399,0.1394],[127.435297,0.13122],[127.459042,0.131564],[127.443181,0.117263],[127.440649,0.102958],[127.447913,0.06917],[127.46647,0.072399],[127.458848,0.05271],[127.46926,0.033733],[127.457357,0.007113],[127.465603,-0.001706],[127.469329,-0.068581],[127.462697,-0.053814],[127.466758,-0.041448],[127.461551,-0.034],[127.456753,-0.039254],[127.4353,-0.007026],[127.442677,0.007987],[127.427295,0.024977],[127.412619,0.009785],[127.404101,0.017639],[127.426399,0.1394]],[[127.439639,-0.078668],[127.420411,-0.069191],[127.41815,-0.051756],[127.410493,-0.104026],[127.402568,-0.071784],[127.416205,-0.016147],[127.429347,-0.043188],[127.421111,-0.056696],[127.439639,-0.078668]],[[127.437222,-0.070555],[127.437222,-0.068889],[127.439444,-0.071389],[127.437222,-0.070555]],[[127.434021,-0.08189],[127.43088,-0.08398],[127.429925,-0.080761],[127.434021,-0.08189]],[[127.446899,-0.087384],[127.446957,-0.093664],[127.435361,-0.087698],[127.446899,-0.087384]],[[127.422696,-0.085473],[127.420201,-0.07659],[127.425033,-0.077312],[127.422696,-0.085473]],[[127.268967,-0.071616],[127.273942,-0.08493],[127.261085,-0.12603],[127.227384,-0.139731],[127.200547,-0.121663],[127.200806,-0.11381],[127.21024,-0.115234],[127.222557,-0.103061],[127.231038,-0.108755],[127.22734,-0.095215],[127.239397,-0.078902],[127.247989,-0.084368],[127.268967,-0.071616]],[[127.205909,-0.112138],[127.20863,-0.113216],[127.208118,-0.113975],[127.205909,-0.112138]],[[127.189692,-0.045374],[127.188719,-0.044125],[127.190279,-0.043318],[127.189692,-0.045374]],[[127.187535,-0.043485],[127.175283,-0.041502],[127.172094,-0.03835],[127.174225,-0.036586],[127.187535,-0.043485]],[[127.191,-0.029796],[127.194652,-0.026168],[127.20016,-0.042801],[127.191,-0.029796]],[[127.198681,-0.025623],[127.199237,-0.025623],[127.200207,-0.02722],[127.198681,-0.025623]],[[127.252162,-0.025221],[127.244155,-0.032733],[127.242722,-0.028648],[127.252162,-0.025221]],[[127.202438,-0.024699],[127.185101,-0.017674],[127.173514,-0.022377],[127.163578,-0.015483],[127.191235,-0.013443],[127.202438,-0.024699]],[[127.415902,-0.003412],[127.424502,0.01244],[127.432445,-0.008755],[127.429227,-0.018475],[127.415902,-0.003412]],[[127.427288,0.014103],[127.428395,0.016193],[127.430555,0.013333],[127.427288,0.014103]],[[127.235638,-0.020555],[127.237131,-0.022121],[127.234936,-0.022893],[127.235638,-0.020555]],[[127.224668,-0.02297],[127.223166,-0.023319],[127.222945,-0.021639],[127.224668,-0.02297]],[[127.221497,-0.035679],[127.219133,-0.033994],[127.221161,-0.031206],[127.221497,-0.035679]],[[127.20577,-0.036402],[127.203555,-0.038077],[127.203749,-0.031589],[127.20577,-0.036402]],[[127.205983,-0.029711],[127.207689,-0.027632],[127.207838,-0.030236],[127.205983,-0.029711]],[[127.214879,-0.026701],[127.216888,-0.030562],[127.210832,-0.031117],[127.214879,-0.026701]],[[127.22522,-0.028268],[127.227291,-0.027244],[127.227726,-0.031393],[127.22522,-0.028268]],[[127.230621,-0.028449],[127.232222,-0.029444],[127.231389,-0.0325],[127.230621,-0.028449]],[[127.205256,-0.039531],[127.206305,-0.040159],[127.205804,-0.04423],[127.205256,-0.039531]],[[127.223275,0.037798],[127.230119,0.0257],[127.225657,0.021559],[127.216307,0.030061],[127.223275,0.037798]],[[127.149505,0.105605],[127.143155,0.106174],[127.144268,0.107707],[127.149505,0.105605]],[[127.113022,0.133414],[127.110338,0.142374],[127.118436,0.149689],[127.134632,0.136621],[127.135231,0.128503],[127.113022,0.133414]],[[127.105,0.141944],[127.104313,0.143119],[127.105556,0.144444],[127.105,0.141944]],[[127.152212,-0.184417],[127.12824,-0.204825],[127.132979,-0.223477],[127.126467,-0.235369],[127.10896,-0.252122],[127.092467,-0.25498],[127.097763,-0.229193],[127.087448,-0.229206],[127.092949,-0.211171],[127.107592,-0.213344],[127.128145,-0.177454],[127.152212,-0.184417]],[[127.302449,-0.227471],[127.311519,-0.22734],[127.316776,-0.235356],[127.305114,-0.241831],[127.302449,-0.227471]],[[127.302773,-0.239684],[127.302427,-0.24059],[127.300697,-0.239127],[127.302773,-0.239684]],[[127.245481,-0.247507],[127.241468,-0.253101],[127.249602,-0.255368],[127.26186,-0.279543],[127.305007,-0.2707],[127.303405,-0.287565],[127.281837,-0.295164],[127.268961,-0.287995],[127.267121,-0.293975],[127.25748,-0.291824],[127.260994,-0.303529],[127.251707,-0.321151],[127.253737,-0.33726],[127.267082,-0.335961],[127.265625,-0.349051],[127.288196,-0.374924],[127.286588,-0.400105],[127.280405,-0.396775],[127.262919,-0.407706],[127.27589,-0.444491],[127.270356,-0.449739],[127.277666,-0.456475],[127.257719,-0.472459],[127.264049,-0.491628],[127.227891,-0.493962],[127.231274,-0.508254],[127.217098,-0.518043],[127.186798,-0.51866],[127.170899,-0.530634],[127.148295,-0.526541],[127.133429,-0.514663],[127.127319,-0.51831],[127.123376,-0.508782],[127.136555,-0.499547],[127.118797,-0.499067],[127.118553,-0.488172],[127.110659,-0.485725],[127.120501,-0.472844],[127.155998,-0.473427],[127.123521,-0.444154],[127.122885,-0.428005],[127.10271,-0.425535],[127.103812,-0.414505],[127.115337,-0.418897],[127.122272,-0.409525],[127.115446,-0.399495],[127.119187,-0.391287],[127.107753,-0.389076],[127.134721,-0.362253],[127.136087,-0.341959],[127.129537,-0.336231],[127.13891,-0.321533],[127.132598,-0.315891],[127.139544,-0.312585],[127.115059,-0.30292],[127.121623,-0.292854],[127.110459,-0.291995],[127.109581,-0.281945],[127.135998,-0.275381],[127.15031,-0.256439],[127.155472,-0.263909],[127.163074,-0.255991],[127.175696,-0.263615],[127.195611,-0.252279],[127.214198,-0.257526],[127.245481,-0.247507]],[[127.271566,-0.296021],[127.269697,-0.292455],[127.271029,-0.293536],[127.271566,-0.296021]],[[127.543781,-0.2989],[127.563141,-0.300324],[127.568598,-0.309732],[127.545808,-0.310053],[127.543781,-0.2989]],[[127.538062,-0.311813],[127.56908,-0.316054],[127.580955,-0.333784],[127.578981,-0.347224],[127.592584,-0.35913],[127.593196,-0.378363],[127.60409,-0.370032],[127.613161,-0.379897],[127.620499,-0.404643],[127.61615,-0.412551],[127.646424,-0.412686],[127.658676,-0.439141],[127.692873,-0.457168],[127.674606,-0.486471],[127.675488,-0.499716],[127.663293,-0.51749],[127.637305,-0.537311],[127.611406,-0.573944],[127.605312,-0.574633],[127.601264,-0.576648],[127.596603,-0.596578],[127.60479,-0.627766],[127.646445,-0.629679],[127.655004,-0.647023],[127.646616,-0.665039],[127.648529,-0.682878],[127.652605,-0.67988],[127.664427,-0.70414],[127.689827,-0.710629],[127.714768,-0.690191],[127.744492,-0.685231],[127.761859,-0.693049],[127.774753,-0.681708],[127.789222,-0.685513],[127.798957,-0.678492],[127.851703,-0.714293],[127.858866,-0.715817],[127.858832,-0.707663],[127.873357,-0.717268],[127.873356,-0.752648],[127.893733,-0.758217],[127.891342,-0.763986],[127.903195,-0.77167],[127.904772,-0.78546],[127.880002,-0.775499],[127.897853,-0.798706],[127.880772,-0.794955],[127.871336,-0.825972],[127.852018,-0.827646],[127.827906,-0.854332],[127.790077,-0.864632],[127.779932,-0.859557],[127.768078,-0.869903],[127.726279,-0.869731],[127.751013,-0.861601],[127.730256,-0.849761],[127.718028,-0.854846],[127.688243,-0.842484],[127.681812,-0.822106],[127.666784,-0.823384],[127.669264,-0.814915],[127.658725,-0.813232],[127.654833,-0.791823],[127.663942,-0.774793],[127.652422,-0.749444],[127.631629,-0.741144],[127.611858,-0.762853],[127.57154,-0.770677],[127.50107,-0.800827],[127.474914,-0.823813],[127.463484,-0.814834],[127.441994,-0.737133],[127.453898,-0.693489],[127.477934,-0.659659],[127.480041,-0.630273],[127.444274,-0.628249],[127.420747,-0.607499],[127.414695,-0.610494],[127.419795,-0.620856],[127.408514,-0.621385],[127.389964,-0.589136],[127.375059,-0.591501],[127.360309,-0.579334],[127.361256,-0.557814],[127.350729,-0.558279],[127.342454,-0.546691],[127.346601,-0.540339],[127.306676,-0.513137],[127.307997,-0.495783],[127.295526,-0.482356],[127.29109,-0.457078],[127.295448,-0.436271],[127.318297,-0.428479],[127.337603,-0.383485],[127.330041,-0.35066],[127.320252,-0.341103],[127.322519,-0.329129],[127.338282,-0.338199],[127.371245,-0.31633],[127.412446,-0.358351],[127.412024,-0.375504],[127.427013,-0.406153],[127.452664,-0.418218],[127.457795,-0.411684],[127.452208,-0.40384],[127.467723,-0.40259],[127.47842,-0.388699],[127.475198,-0.364817],[127.484654,-0.340262],[127.518253,-0.321144],[127.513186,-0.315501],[127.52075,-0.301098],[127.538062,-0.311813]],[[127.742816,-0.328004],[127.758065,-0.357313],[127.749973,-0.366325],[127.75684,-0.363064],[127.763044,-0.372162],[127.726998,-0.397319],[127.72687,-0.390262],[127.738811,-0.369279],[127.742816,-0.328004]],[[127.729455,-0.401609],[127.722573,-0.406206],[127.720817,-0.402955],[127.729455,-0.401609]],[[127.726133,-0.414929],[127.736693,-0.415367],[127.746674,-0.426954],[127.733879,-0.429288],[127.726133,-0.414929]],[[127.75528,-0.414217],[127.755972,-0.415611],[127.753135,-0.41568],[127.75528,-0.414217]],[[127.656138,-0.424605],[127.654885,-0.424037],[127.656251,-0.422668],[127.656138,-0.424605]],[[127.724888,-0.418666],[127.724508,-0.417838],[127.727309,-0.422591],[127.724888,-0.418666]],[[127.721099,-0.439147],[127.721914,-0.438659],[127.722774,-0.440276],[127.721099,-0.439147]],[[127.702702,-0.455132],[127.706818,-0.451994],[127.711883,-0.456051],[127.710215,-0.459015],[127.702702,-0.455132]],[[127.676019,-0.488335],[127.680033,-0.484735],[127.681914,-0.493997],[127.676019,-0.488335]],[[127.619164,-0.571096],[127.619458,-0.571389],[127.618889,-0.5725],[127.619164,-0.571096]],[[127.606639,-0.585883],[127.604255,-0.576944],[127.609794,-0.575335],[127.614103,-0.582628],[127.606639,-0.585883]],[[127.66027,-0.672899],[127.665876,-0.67048],[127.66769,-0.673689],[127.66027,-0.672899]],[[127.879159,-0.729893],[127.879996,-0.732887],[127.877534,-0.732533],[127.879159,-0.729893]],[[128.158084,-0.786475],[128.161134,-0.791],[128.157582,-0.790684],[128.158084,-0.786475]],[[128.156072,-0.792837],[128.161608,-0.793101],[128.156626,-0.799217],[128.156072,-0.792837]],[[128.139389,-0.804495],[128.152744,-0.80618],[128.137479,-0.810889],[128.139389,-0.804495]],[[128.14635,-0.811725],[128.146904,-0.81199],[128.13831,-0.815904],[128.14635,-0.811725]],[[128.144638,-0.815673],[128.146048,-0.814796],[128.144437,-0.817502],[128.144638,-0.815673]],[[128.138586,-0.825627],[128.134393,-0.82645],[128.135791,-0.822006],[128.138586,-0.825627]],[[127.875277,-0.826962],[127.875263,-0.825833],[127.876107,-0.825833],[127.875277,-0.826962]],[[128.111686,-0.852819],[128.103414,-0.861308],[128.080146,-0.850955],[128.085245,-0.838632],[128.111686,-0.852819]],[[128.117327,-0.84187],[128.123047,-0.843893],[128.116421,-0.856027],[128.113315,-0.852012],[128.117327,-0.84187]],[[123.449515,-0.830999],[123.448408,-0.830283],[123.448572,-0.829577],[123.449515,-0.830999]],[[123.452914,-0.823392],[123.450699,-0.817819],[123.459294,-0.820327],[123.452914,-0.823392]],[[127.297307,-0.799017],[127.276689,-0.77914],[127.246226,-0.765657],[127.225835,-0.780361],[127.208478,-0.780503],[127.165797,-0.75172],[127.171581,-0.735555],[127.167043,-0.718875],[127.174609,-0.714358],[127.167465,-0.70835],[127.189883,-0.692997],[127.193586,-0.681576],[127.186807,-0.678216],[127.211457,-0.670174],[127.20598,-0.663076],[127.216102,-0.63702],[127.202147,-0.633062],[127.190876,-0.615632],[127.205902,-0.617129],[127.217997,-0.603986],[127.243282,-0.602164],[127.269785,-0.61721],[127.265625,-0.627232],[127.248153,-0.627602],[127.248061,-0.63627],[127.264307,-0.661974],[127.288025,-0.668381],[127.303981,-0.683287],[127.292192,-0.689007],[127.300716,-0.695138],[127.290285,-0.706228],[127.294407,-0.730768],[127.334169,-0.785755],[127.297307,-0.799017]],[[127.189942,-0.773638],[127.177641,-0.770615],[127.160122,-0.752354],[127.163888,-0.750659],[127.189942,-0.773638]],[[127.168649,-0.705369],[127.163021,-0.706301],[127.164547,-0.703905],[127.168649,-0.705369]],[[127.17694,-0.689975],[127.173824,-0.689831],[127.174805,-0.687779],[127.17694,-0.689975]],[[127.334861,-0.59931],[127.337777,-0.611907],[127.366375,-0.617411],[127.376491,-0.608328],[127.3847,-0.611179],[127.414523,-0.636765],[127.414327,-0.656662],[127.384628,-0.656712],[127.378995,-0.667619],[127.372506,-0.650278],[127.373708,-0.663902],[127.348465,-0.658612],[127.344196,-0.641258],[127.335418,-0.643063],[127.333845,-0.617653],[127.323991,-0.606469],[127.334861,-0.59931]],[[127.387065,-0.606179],[127.380667,-0.598794],[127.388154,-0.592111],[127.39446,-0.602333],[127.387065,-0.606179]],[[127.393625,-0.607222],[127.394172,-0.608327],[127.3925,-0.608611],[127.393625,-0.607222]],[[127.426203,-0.629964],[127.433808,-0.633546],[127.427662,-0.635662],[127.426203,-0.629964]],[[127.420957,-0.644071],[127.422336,-0.642072],[127.423687,-0.644599],[127.420957,-0.644071]],[[127.314581,-0.6681],[127.313731,-0.66942],[127.312812,-0.668172],[127.314581,-0.6681]],[[127.308377,-0.662527],[127.310965,-0.661272],[127.312169,-0.664423],[127.308377,-0.662527]],[[127.321138,-0.66255],[127.310151,-0.65042],[127.301653,-0.644996],[127.305437,-0.63083],[127.323512,-0.655634],[127.321138,-0.66255]],[[127.310197,-0.652596],[127.310719,-0.65612],[127.306435,-0.655994],[127.310197,-0.652596]],[[127.303481,-0.652952],[127.300739,-0.649421],[127.303882,-0.649893],[127.303481,-0.652952]],[[127.278526,-0.651007],[127.276249,-0.649407],[127.277129,-0.647942],[127.278526,-0.651007]],[[127.300949,-0.644433],[127.301585,-0.647563],[127.299008,-0.646339],[127.300949,-0.644433]],[[127.309069,-0.625421],[127.314036,-0.619348],[127.328503,-0.621479],[127.330737,-0.636773],[127.322854,-0.637938],[127.3339,-0.657285],[127.309069,-0.625421]],[[127.293228,-0.624592],[127.295283,-0.621888],[127.297888,-0.627009],[127.293228,-0.624592]],[[127.337333,-0.648856],[127.337333,-0.647461],[127.340402,-0.648577],[127.337333,-0.648856]],[[127.170993,-0.587042],[127.169622,-0.589371],[127.166986,-0.586797],[127.170993,-0.587042]],[[127.269582,-0.551902],[127.269138,-0.553408],[127.265625,-0.553292],[127.269582,-0.551902]],[[127.247267,-0.551675],[127.223951,-0.543979],[127.233642,-0.532426],[127.247967,-0.54307],[127.241449,-0.548677],[127.247267,-0.551675]],[[127.261389,-0.533056],[127.256944,-0.543333],[127.255278,-0.536667],[127.261389,-0.533056]],[[127.278359,-0.541422],[127.276865,-0.532884],[127.282649,-0.53127],[127.287295,-0.537491],[127.278359,-0.541422]],[[127.26703,-0.531505],[127.264315,-0.516198],[127.252637,-0.512807],[127.260525,-0.501599],[127.267967,-0.502573],[127.272977,-0.528327],[127.26703,-0.531505]],[[127.285581,-0.488954],[127.299604,-0.497358],[127.287296,-0.500768],[127.298259,-0.514155],[127.289616,-0.517866],[127.296299,-0.519031],[127.289957,-0.519802],[127.291295,-0.527344],[127.280618,-0.509784],[127.272832,-0.510746],[127.285581,-0.488954]],[[127.257126,-0.498431],[127.254334,-0.495934],[127.257105,-0.495421],[127.257126,-0.498431]],[[127.262657,-0.493936],[127.262262,-0.492904],[127.265625,-0.493862],[127.262657,-0.493936]],[[127.301961,-0.498609],[127.302791,-0.499723],[127.301389,-0.5],[127.301961,-0.498609]],[[127.293625,-0.529167],[127.293072,-0.530542],[127.292505,-0.530542],[127.293625,-0.529167]],[[127.246118,-0.536888],[127.246568,-0.534573],[127.247605,-0.534908],[127.246118,-0.536888]],[[127.279029,-0.543763],[127.279788,-0.543974],[127.280062,-0.545288],[127.279029,-0.543763]],[[127.253277,-0.549604],[127.253485,-0.550997],[127.251478,-0.550788],[127.253277,-0.549604]],[[127.273457,-0.481054],[127.26996,-0.485592],[127.26318,-0.482488],[127.266568,-0.478279],[127.273457,-0.481054]],[[127.311623,-0.428402],[127.310303,-0.429902],[127.309745,-0.428148],[127.311623,-0.428402]],[[127.280388,-0.346095],[127.287791,-0.333891],[127.302425,-0.344737],[127.280388,-0.346095]],[[127.312292,-0.3425],[127.312125,-0.339052],[127.318013,-0.341594],[127.312292,-0.3425]],[[127.31938,-0.343152],[127.320706,-0.345336],[127.319656,-0.344871],[127.31938,-0.343152]],[[127.314916,-0.346576],[127.313255,-0.346576],[127.313808,-0.344905],[127.314916,-0.346576]],[[127.400007,-0.322297],[127.409611,-0.321147],[127.406453,-0.341048],[127.400007,-0.322297]],[[127.411004,-0.343106],[127.409512,-0.345397],[127.407684,-0.343651],[127.411004,-0.343106]],[[127.43263,-0.349686],[127.431051,-0.359297],[127.418564,-0.353642],[127.43263,-0.349686]],[[127.261781,-0.307748],[127.260036,-0.306344],[127.261781,-0.304823],[127.261781,-0.307748]],[[127.263568,-0.30501],[127.264341,-0.304409],[127.265124,-0.305375],[127.263568,-0.30501]],[[127.111008,-0.490476],[127.110108,-0.491102],[127.10914,-0.489501],[127.111008,-0.490476]],[[127.118889,-0.43523],[127.11631,-0.433648],[127.118045,-0.432348],[127.118889,-0.43523]],[[127.115054,-0.380009],[127.113346,-0.38101],[127.113058,-0.379155],[127.115054,-0.380009]],[[127.120566,-0.330781],[127.131594,-0.325446],[127.128614,-0.330155],[127.120566,-0.330781]],[[127.115544,-0.31856],[127.126266,-0.311479],[127.121911,-0.314971],[127.115544,-0.31856]],[[127.065626,-0.307189],[127.06776,-0.303768],[127.070808,-0.306591],[127.065626,-0.307189]],[[127.110438,-0.302091],[127.112167,-0.303475],[127.11155,-0.304026],[127.110438,-0.302091]],[[127.060573,-0.294533],[127.060385,-0.274798],[127.062828,-0.287614],[127.069169,-0.279405],[127.06766,-0.293934],[127.060573,-0.294533]],[[127.042153,-0.283404],[127.037202,-0.291733],[127.025993,-0.282875],[127.031104,-0.269593],[127.020841,-0.261944],[127.030939,-0.255083],[127.044594,-0.271923],[127.043327,-0.238677],[127.05123,-0.242006],[127.05904,-0.22764],[127.082011,-0.245978],[127.087338,-0.238146],[127.091347,-0.258188],[127.042153,-0.283404]],[[127.021111,-0.259722],[127.018611,-0.260556],[127.019722,-0.258262],[127.021111,-0.259722]],[[123.388925,-0.672311],[123.388186,-0.673247],[123.387025,-0.672739],[123.388925,-0.672311]],[[127.396502,-1.149258],[127.41142,-1.136247],[127.429083,-1.152678],[127.444167,-1.187382],[127.442734,-1.208245],[127.431515,-1.220274],[127.407118,-1.200192],[127.408978,-1.164451],[127.396502,-1.149258]],[[123.41,-1.22],[123.409911,-1.220991],[123.407222,-1.219167],[123.41,-1.22]],[[123.411735,-1.217581],[123.409585,-1.214975],[123.410854,-1.214286],[123.411735,-1.217581]],[[127.388794,-1.312385],[127.434838,-1.318133],[127.41778,-1.333079],[127.376149,-1.320453],[127.388794,-1.312385]],[[127.379026,-1.335302],[127.372912,-1.331837],[127.37595,-1.330047],[127.379026,-1.335302]],[[127.341944,-1.364444],[127.351667,-1.370833],[127.348333,-1.383611],[127.359722,-1.378889],[127.360833,-1.364722],[127.3675,-1.376944],[127.380833,-1.367778],[127.383333,-1.379167],[127.372222,-1.3825],[127.391111,-1.386667],[127.399722,-1.404167],[127.375,-1.425833],[127.341944,-1.435],[127.326944,-1.455278],[127.317222,-1.437778],[127.294167,-1.433056],[127.281111,-1.414444],[127.32,-1.3925],[127.314722,-1.378889],[127.321389,-1.365556],[127.327222,-1.365],[127.327222,-1.380833],[127.338056,-1.388333],[127.341944,-1.364444]],[[127.390556,-1.379444],[127.390278,-1.371111],[127.391111,-1.370278],[127.397222,-1.378611],[127.390556,-1.379444]],[[127.423455,-1.42958],[127.423442,-1.428442],[127.424721,-1.429474],[127.423455,-1.42958]],[[127.28177,-1.421264],[127.278566,-1.422129],[127.279127,-1.420582],[127.28177,-1.421264]],[[123.558921,-1.465072],[123.561446,-1.47158],[123.557424,-1.472381],[123.558921,-1.465072]],[[123.562899,-1.474028],[123.5643,-1.506816],[123.560124,-1.504276],[123.551265,-1.484638],[123.562899,-1.474028]],[[127.385114,-1.490327],[127.395117,-1.483088],[127.410408,-1.498189],[127.398857,-1.501002],[127.404501,-1.508753],[127.396176,-1.508211],[127.395172,-1.524702],[127.377227,-1.521085],[127.385114,-1.490327]],[[123.509133,-1.491683],[123.516349,-1.479805],[123.513536,-1.491597],[123.509133,-1.491683]],[[124.474193,-1.577632],[124.481585,-1.582031],[124.479585,-1.603813],[124.477929,-1.592773],[124.474193,-1.577632]],[[124.4855,-1.629937],[124.492044,-1.628382],[124.488898,-1.636641],[124.4855,-1.629937]],[[124.992885,-1.656808],[125.016305,-1.66186],[125.022348,-1.665509],[125.000087,-1.670736],[124.992885,-1.656808]],[[124.949527,-1.666155],[124.969714,-1.66553],[124.966536,-1.668195],[124.949527,-1.666155]],[[124.894865,-1.659155],[124.890273,-1.663345],[124.886299,-1.661756],[124.888561,-1.659606],[124.894865,-1.659155]],[[124.879944,-1.661146],[124.878123,-1.65841],[124.880162,-1.657087],[124.879944,-1.661146]],[[124.968056,-1.686667],[124.969167,-1.691667],[124.964722,-1.688889],[124.968056,-1.686667]],[[124.966935,-1.696229],[124.967482,-1.698242],[124.963567,-1.698855],[124.966935,-1.696229]],[[124.991492,-1.710405],[124.991327,-1.71243],[124.989987,-1.71274],[124.991492,-1.710405]],[[125.687667,-1.756066],[125.693792,-1.752026],[125.701451,-1.757813],[125.694939,-1.762497],[125.687667,-1.756066]],[[125.54294,-1.758315],[125.551382,-1.778759],[125.538167,-1.781755],[125.527054,-1.773758],[125.507338,-1.778787],[125.52051,-1.76176],[125.527272,-1.770127],[125.54294,-1.758315]],[[125.415835,-1.770516],[125.422634,-1.767558],[125.424755,-1.769942],[125.415835,-1.770516]],[[125.4158,-1.795402],[125.417199,-1.793527],[125.418504,-1.794743],[125.4158,-1.795402]],[[125.624613,-1.810357],[125.622085,-1.811894],[125.620433,-1.808219],[125.624613,-1.810357]],[[125.796042,-1.801463],[125.799182,-1.80098],[125.798651,-1.804794],[125.796042,-1.801463]],[[126.343243,-1.822121],[126.346942,-1.822814],[126.346661,-1.823352],[126.343243,-1.822121]],[[127.465612,-1.432384],[127.466317,-1.433616],[127.464999,-1.43387],[127.465612,-1.432384]],[[127.600585,0.859109],[127.598346,0.859161],[127.598678,0.862128],[127.600585,0.859109]],[[127.546867,0.86564],[127.544997,0.874469],[127.548431,0.87294],[127.546867,0.86564]],[[127.555552,0.871762],[127.557381,0.87364],[127.561242,0.870759],[127.555552,0.871762]],[[127.534598,0.878906],[127.533559,0.879314],[127.534239,0.881105],[127.534598,0.878906]],[[127.536603,0.881583],[127.539047,0.882379],[127.538938,0.880684],[127.536603,0.881583]]]}}
