{"type":"Feature","properties":{"mrgid":25697,"name":"Indonesian part of the Timor Sea","placeType":"Marine Region","source":"MarineRegions:eez_iho"},"geometry":{"type":"MultiPolygon","coordinates":[[[[125.087892,-9.462288],[125.047505,-9.490818],[125.009824,-9.528548],[124.993171,-9.558605],[124.976188,-9.549566],[124.975537,-9.538405],[124.973919,-9.551538],[124.993024,-9.565775],[124.986497,-9.630837],[124.976329,-9.647417],[124.945775,-9.679015],[124.934703,-9.673373],[124.93593,-9.680974],[124.897675,-9.694224],[124.864697,-9.719849],[124.762338,-9.850093],[124.747909,-9.883878],[124.697996,-9.914972],[124.673309,-9.919819],[124.655187,-9.948932],[124.605675,-9.977717],[124.583303,-10.00387],[124.555808,-10.006063],[124.54212,-10.016637],[124.512104,-10.089174],[124.478921,-10.122715],[124.390916,-10.170729],[124.226373,-10.163416],[124.226816,-10.153766],[124.209748,-10.163741],[124.169915,-10.151405],[124.10906,-10.174414],[124.164616,-10.141674],[124.177076,-10.137725],[124.18383,-10.144866],[124.178737,-10.13666],[124.163201,-10.139731],[124.105417,-10.172755],[124.080579,-10.204694],[124.082862,-10.217305],[124.034412,-10.245695],[124.017563,-10.276076],[123.962649,-10.276639],[123.943077,-10.297055],[123.917101,-10.296904],[123.860578,-10.335688],[123.797991,-10.355855],[123.766035,-10.348282],[123.703248,-10.366667],[123.655963,-10.349839],[123.628437,-10.354718],[123.611336,-10.370108],[123.595004,-10.349639],[123.543741,-10.327846],[123.485565,-10.356241],[123.458568,-10.357911],[123.385643,-10.438388],[123.407954,-10.459168],[123.40968,-10.47012],[123.424894,-10.471871],[123.402653,-10.47346],[123.383018,-10.488535],[123.399646,-10.505123],[123.38136,-10.532708],[123.375792,-10.527017],[123.370663,-10.531947],[123.369359,-10.543772],[123.385986,-10.538498],[123.379287,-10.538901],[123.387278,-10.526361],[123.405855,-10.516807],[123.40231,-10.505491],[123.409589,-10.493039],[123.440588,-10.492121],[123.439666,-10.510263],[123.433502,-10.506454],[123.405753,-10.539214],[123.398296,-10.538225],[123.384866,-10.560466],[123.379608,-10.546944],[123.362271,-10.545696],[123.360027,-10.553062],[123.37165,-10.552347],[123.371651,-10.560334],[123.379279,-10.552513],[123.383764,-10.56933],[123.368821,-10.58365],[123.343492,-10.586481],[123.354337,-10.598039],[123.389517,-10.596887],[123.420876,-10.613746],[123.427916,-10.654061],[123.407842,-10.664523],[123.405247,-10.68457],[123.397462,-10.688303],[123.392664,-10.681178],[123.379803,-10.691612],[123.365013,-10.681194],[123.347661,-10.687186],[123.332286,-10.677948],[123.329796,-10.692416],[123.305764,-10.703711],[123.300174,-10.720249],[123.252673,-10.735513],[123.246971,-10.751178],[123.236187,-10.754345],[123.244743,-10.77725],[123.230311,-10.799289],[123.223416,-10.829909],[123.210407,-10.82172],[123.188784,-10.836698],[123.159541,-10.817257],[123.128587,-10.81729],[123.102737,-10.832322],[123.084485,-10.860856],[123.075845,-10.859853],[123.071705,-10.849356],[123.057767,-10.864353],[123.049127,-10.855541],[123.015508,-10.867663],[122.99678,-10.859461],[122.973911,-10.867437],[122.949909,-10.885178],[122.970589,-10.914976],[122.949573,-10.904608],[122.910875,-10.925166],[122.908888,-10.910485],[122.900202,-10.922081],[122.895174,-10.920052],[122.900992,-10.911196],[122.873913,-10.915031],[122.8613,-10.919381],[122.852321,-10.942042],[124.425733,-12.027798],[125.333333,-11.783333],[126.2,-11.433333],[126.306233,-11.400135],[126.001449,-10.453705],[125.869377,-10.247672],[125.399497,-9.799848],[125.262988,-9.645241],[125.185272,-9.527195],[125.087892,-9.462288]],[[123.400199,-10.47919],[123.401279,-10.47945],[123.400385,-10.480974],[123.400199,-10.47919]],[[123.39274,-10.487891],[123.396143,-10.481967],[123.397702,-10.494539],[123.39274,-10.487891]],[[123.392958,-10.519416],[123.393642,-10.518693],[123.394114,-10.520513],[123.392958,-10.519416]],[[123.377975,-10.535853],[123.37599,-10.537413],[123.374526,-10.534635],[123.377975,-10.535853]],[[123.385834,-10.564381],[123.388316,-10.562105],[123.390901,-10.564983],[123.385834,-10.564381]],[[123.177764,-10.834368],[123.177694,-10.832643],[123.179073,-10.832129],[123.177764,-10.834368]],[[123.072996,-10.861253],[123.073302,-10.862273],[123.071126,-10.862365],[123.072996,-10.861253]],[[123.05731,-10.870956],[123.06443,-10.870494],[123.067321,-10.877651],[123.06398,-10.878667],[123.05731,-10.870956]],[[123.001367,-10.908414],[123.002841,-10.92299],[122.999031,-10.92022],[122.985975,-10.924876],[122.978246,-10.917951],[122.977218,-10.911966],[123.001367,-10.908414]],[[123.008611,-10.9075],[123.010278,-10.908611],[123.005556,-10.909444],[123.008611,-10.9075]],[[122.998595,-10.925996],[122.994434,-10.929338],[122.993821,-10.928983],[122.998595,-10.925996]],[[122.95493,-10.93854],[122.939946,-10.940759],[122.930398,-10.924068],[122.936051,-10.915942],[122.947762,-10.923101],[122.958351,-10.914873],[122.971923,-10.920385],[122.95493,-10.93854]],[[122.950977,-10.944436],[122.950956,-10.941964],[122.953258,-10.944171],[122.950977,-10.944436]],[[122.878171,-10.955096],[122.879302,-10.953089],[122.883,-10.955195],[122.878171,-10.955096]]],[[[127.862282,-8.214911],[127.818063,-8.200112],[127.792553,-8.18284],[127.753892,-8.199856],[127.741514,-8.214461],[127.730335,-8.219012],[127.717714,-8.213071],[127.663282,-8.237973],[127.632842,-8.238249],[127.630297,-8.224888],[127.600616,-8.216304],[127.42407,-8.318153],[127.481588,-8.357042],[127.552282,-8.4314],[127.640815,-8.560553],[127.704816,-8.686792],[127.765405,-8.838922],[127.822635,-9.016507],[127.876458,-9.219863],[127.929149,-9.461464],[128.502011,-9.63265],[128.207878,-10.486631],[129.016667,-9.983333],[129.5,-9.75],[130.1,-9.65],[130.916667,-9.783333],[131.232993,-9.735405],[130.758813,-8.342287],[128.234167,-8.266667],[128.233611,-8.2725],[128.203611,-8.278889],[128.149722,-8.278333],[128.079722,-8.258611],[128.009121,-8.258837],[127.962054,-8.24839],[127.952139,-8.225402],[127.930007,-8.217143],[127.862282,-8.214911]],[[128.495868,-8.335797],[128.497797,-8.321085],[128.509912,-8.343163],[128.503445,-8.342067],[128.495868,-8.335797]],[[128.514938,-8.345138],[128.515758,-8.351505],[128.514806,-8.347507],[128.514938,-8.345138]],[[128.485979,-8.341021],[128.48529,-8.341167],[128.487309,-8.336183],[128.485979,-8.341021]]]]}}
