{"type":"Feature","properties":{"mrgid":2582,"name":"Vorst","placeType":"Town","source":"Belgium:belgium_municipalities"},"geometry":{"type":"Polygon","coordinates":[[[4.332519,50.828728],[4.332285,50.828811],[4.332123,50.828874],[4.331854,50.828976],[4.331629,50.829019],[4.331194,50.829171],[4.331042,50.829221],[4.330267,50.829525],[4.326492,50.830741],[4.326467,50.830749],[4.32644,50.830758],[4.326111,50.830556],[4.326022,50.830472],[4.325863,50.830354],[4.325761,50.830252],[4.325543,50.829769],[4.32539,50.829233],[4.325203,50.828922],[4.325106,50.828832],[4.325054,50.828793],[4.324999,50.82876],[4.324859,50.8287],[4.324749,50.828678],[4.324614,50.828674],[4.324501,50.828659],[4.324368,50.828677],[4.324182,50.82871],[4.324109,50.828708],[4.324009,50.8287],[4.323904,50.828659],[4.32378,50.828601],[4.323744,50.828558],[4.323732,50.828528],[4.323688,50.828405],[4.323633,50.828311],[4.323607,50.828284],[4.323499,50.82819],[4.323364,50.828095],[4.323291,50.828052],[4.323069,50.827936],[4.322979,50.827885],[4.322836,50.827768],[4.322757,50.82769],[4.322683,50.827603],[4.32246,50.827397],[4.322343,50.827309],[4.322197,50.827215],[4.321784,50.826924],[4.321596,50.826707],[4.321442,50.826466],[4.32142,50.826393],[4.321423,50.826297],[4.321436,50.82619],[4.321559,50.826196],[4.321521,50.826116],[4.32146,50.825982],[4.32146,50.825969],[4.321454,50.82592],[4.321435,50.825842],[4.321335,50.825713],[4.321291,50.82562],[4.321153,50.825495],[4.321107,50.825442],[4.320993,50.825272],[4.321048,50.825092],[4.320954,50.824887],[4.32093,50.824842],[4.320918,50.824795],[4.320898,50.824746],[4.320826,50.824646],[4.32079,50.824623],[4.320738,50.824558],[4.320668,50.824483],[4.320203,50.824242],[4.320123,50.824202],[4.31996,50.824155],[4.319701,50.824089],[4.319559,50.824035],[4.31941,50.823865],[4.319396,50.823801],[4.319325,50.823707],[4.319321,50.823615],[4.319021,50.823488],[4.318529,50.823023],[4.31851,50.822912],[4.318156,50.822537],[4.317945,50.822367],[4.316702,50.821835],[4.315731,50.821512],[4.31446,50.821075],[4.314049,50.821012],[4.313698,50.820992],[4.313314,50.820839],[4.313175,50.820751],[4.313115,50.820638],[4.313092,50.820595],[4.312987,50.820393],[4.312706,50.820249],[4.312444,50.820227],[4.311212,50.820096],[4.31097,50.820072],[4.310754,50.819882],[4.310742,50.819829],[4.310802,50.819598],[4.310823,50.819508],[4.31086,50.819362],[4.310875,50.819323],[4.310919,50.819115],[4.310935,50.819003],[4.3109,50.818954],[4.310846,50.818943],[4.310257,50.818133],[4.309907,50.817915],[4.30977,50.817862],[4.309511,50.817805],[4.309204,50.817738],[4.308997,50.817677],[4.30884,50.817604],[4.308581,50.817449],[4.308308,50.817288],[4.308144,50.817231],[4.30808,50.817207],[4.308041,50.817204],[4.308016,50.817094],[4.308041,50.816977],[4.30809,50.816928],[4.308256,50.816776],[4.308191,50.816589],[4.308122,50.816402],[4.308108,50.816319],[4.308657,50.816053],[4.309227,50.815815],[4.31,50.815486],[4.310255,50.81539],[4.3102,50.815197],[4.310141,50.815121],[4.310016,50.815011],[4.310332,50.814598],[4.310546,50.814495],[4.310765,50.814369],[4.310773,50.814297],[4.310464,50.81368],[4.30981,50.813086],[4.309609,50.812944],[4.308533,50.812548],[4.308484,50.812527],[4.30841,50.812461],[4.308346,50.812264],[4.307566,50.812333],[4.306743,50.812413],[4.306639,50.812426],[4.306503,50.8122],[4.3064,50.812038],[4.305609,50.810819],[4.305585,50.810781],[4.305631,50.810731],[4.305674,50.810653],[4.305723,50.810526],[4.305727,50.810446],[4.305621,50.809949],[4.305503,50.809319],[4.305452,50.809203],[4.305302,50.809176],[4.304684,50.809185],[4.304603,50.809186],[4.304221,50.808566],[4.303685,50.80769],[4.303279,50.807],[4.303215,50.806761],[4.303175,50.806597],[4.303099,50.805906],[4.303065,50.805482],[4.303038,50.805351],[4.302647,50.804933],[4.30264,50.804935],[4.302593,50.804883],[4.302548,50.804718],[4.302104,50.804308],[4.302041,50.804227],[4.30202,50.804153],[4.302024,50.804043],[4.302032,50.803929],[4.302046,50.803815],[4.302053,50.80381],[4.30206,50.803767],[4.302062,50.803732],[4.302068,50.803562],[4.302674,50.802834],[4.302685,50.802814],[4.303028,50.802447],[4.303124,50.802297],[4.303188,50.802262],[4.303208,50.802249],[4.303244,50.802226],[4.303256,50.80222],[4.303373,50.802148],[4.303461,50.801947],[4.303464,50.80194],[4.303799,50.801355],[4.303886,50.801226],[4.303914,50.801178],[4.304214,50.800587],[4.304299,50.800205],[4.304265,50.800037],[4.304233,50.800019],[4.304192,50.799996],[4.304507,50.799314],[4.304932,50.798767],[4.304937,50.798761],[4.305111,50.798652],[4.305148,50.79863],[4.305157,50.79863],[4.305409,50.798623],[4.307479,50.79834],[4.307952,50.798281],[4.308426,50.798222],[4.308547,50.798207],[4.309425,50.798091],[4.309557,50.798074],[4.309918,50.798044],[4.310582,50.797937],[4.310646,50.797928],[4.310696,50.797921],[4.310663,50.797799],[4.310709,50.797715],[4.310759,50.797662],[4.310827,50.797623],[4.310913,50.797609],[4.311165,50.79761],[4.311307,50.79764],[4.311532,50.797682],[4.31164,50.79762],[4.31177,50.797629],[4.311804,50.797626],[4.311824,50.797966],[4.311971,50.798026],[4.312215,50.798146],[4.312511,50.798271],[4.313194,50.798534],[4.313572,50.798636],[4.313907,50.798735],[4.31404,50.798775],[4.314706,50.798979],[4.314961,50.799061],[4.315113,50.7991],[4.315147,50.799065],[4.31516,50.799062],[4.315304,50.799081],[4.31539,50.799103],[4.315502,50.799161],[4.315537,50.799176],[4.315633,50.799204],[4.315854,50.799215],[4.315968,50.799278],[4.316123,50.799317],[4.316325,50.799419],[4.316318,50.799437],[4.3164,50.799513],[4.316662,50.79967],[4.316773,50.799726],[4.316866,50.799764],[4.316998,50.799809],[4.317105,50.799838],[4.317224,50.799847],[4.317412,50.799834],[4.31789,50.799793],[4.318018,50.799806],[4.31836,50.79987],[4.318452,50.799896],[4.318564,50.799947],[4.318638,50.799952],[4.318905,50.799967],[4.319397,50.800154],[4.321111,50.800526],[4.321706,50.800666],[4.322258,50.801383],[4.323603,50.803125],[4.324317,50.803804],[4.324723,50.804518],[4.324824,50.804892],[4.324924,50.805251],[4.324933,50.805284],[4.324947,50.805335],[4.324988,50.805458],[4.324987,50.805478],[4.325085,50.805484],[4.32665,50.805625],[4.327273,50.805679],[4.327921,50.80566],[4.328247,50.806659],[4.328268,50.806677],[4.328461,50.806593],[4.32858,50.806518],[4.32927,50.80636],[4.330362,50.806253],[4.330728,50.80629],[4.330858,50.806327],[4.330823,50.806376],[4.331771,50.80724],[4.331853,50.807313],[4.332102,50.807525],[4.332389,50.807868],[4.33245,50.807946],[4.334514,50.808304],[4.335533,50.808485],[4.335181,50.809538],[4.335624,50.809636],[4.335833,50.80963],[4.335857,50.809627],[4.336556,50.809539],[4.337065,50.810641],[4.337112,50.810702],[4.337175,50.810816],[4.337208,50.810887],[4.33726,50.810974],[4.337311,50.811098],[4.337296,50.811116],[4.337267,50.811149],[4.337201,50.811194],[4.336754,50.811394],[4.336408,50.81161],[4.335806,50.81198],[4.335672,50.81208],[4.335332,50.812377],[4.335096,50.812595],[4.335076,50.812614],[4.335027,50.812667],[4.3349,50.812806],[4.334787,50.812959],[4.334781,50.812972],[4.334959,50.813055],[4.334975,50.813058],[4.335786,50.813199],[4.335817,50.813201],[4.33587,50.81321],[4.336297,50.813495],[4.336548,50.813735],[4.337169,50.813935],[4.337312,50.813949],[4.33756,50.814408],[4.337568,50.814448],[4.337604,50.814603],[4.337704,50.814996],[4.337992,50.815139],[4.338193,50.8151],[4.339387,50.814965],[4.339645,50.815058],[4.340698,50.81496],[4.340798,50.815097],[4.340814,50.815116],[4.340879,50.815115],[4.341004,50.815108],[4.34106,50.81507],[4.3412,50.815024],[4.3413,50.814997],[4.342,50.814837],[4.342011,50.814818],[4.342129,50.814803],[4.342282,50.814784],[4.342433,50.814765],[4.342551,50.814739],[4.342768,50.814691],[4.342912,50.814654],[4.34295,50.814637],[4.343004,50.814606],[4.343035,50.814545],[4.343039,50.814292],[4.343178,50.814277],[4.34327,50.814255],[4.343377,50.814209],[4.343506,50.814156],[4.343539,50.814141],[4.343597,50.814114],[4.343656,50.814097],[4.343787,50.814068],[4.344066,50.814027],[4.344396,50.814045],[4.344755,50.814061],[4.344833,50.814117],[4.344896,50.814122],[4.345106,50.814095],[4.345305,50.814118],[4.345604,50.814153],[4.34601,50.814196],[4.346115,50.814209],[4.346392,50.814221],[4.347137,50.81423],[4.34729,50.814243],[4.347713,50.814274],[4.347922,50.814286],[4.347939,50.814764],[4.347823,50.814748],[4.347801,50.814805],[4.347587,50.815361],[4.347568,50.815413],[4.347541,50.815481],[4.347291,50.816132],[4.348035,50.816047],[4.348125,50.816037],[4.349191,50.815914],[4.349494,50.81586],[4.350065,50.815745],[4.350174,50.815724],[4.350343,50.815693],[4.350418,50.815848],[4.350455,50.816028],[4.350652,50.816461],[4.350867,50.81642],[4.350981,50.816552],[4.350944,50.816561],[4.350956,50.816853],[4.351034,50.816986],[4.351055,50.817363],[4.351255,50.817315],[4.351415,50.817565],[4.351737,50.817927],[4.351632,50.817954],[4.351853,50.8182],[4.351897,50.818336],[4.352025,50.81848],[4.352195,50.818673],[4.352392,50.818984],[4.352316,50.819004],[4.353097,50.820236],[4.353344,50.820174],[4.35359,50.820565],[4.353293,50.820547],[4.353081,50.820554],[4.352934,50.820551],[4.352923,50.82055],[4.352814,50.82055],[4.352596,50.820564],[4.35248,50.82057],[4.352162,50.820604],[4.351452,50.820658],[4.350978,50.820674],[4.350759,50.820691],[4.349979,50.820736],[4.349844,50.820739],[4.349554,50.820759],[4.34931,50.820776],[4.348012,50.820843],[4.345294,50.821589],[4.344792,50.821263],[4.344666,50.821206],[4.344631,50.821196],[4.344544,50.82112],[4.34447,50.821155],[4.344412,50.821182],[4.344347,50.821215],[4.344276,50.821252],[4.3442,50.821291],[4.344119,50.821333],[4.343813,50.82147],[4.343733,50.821502],[4.343618,50.821558],[4.343298,50.821708],[4.34294,50.82189],[4.34275,50.821987],[4.342703,50.822013],[4.34254,50.822094],[4.342367,50.82219],[4.342104,50.822317],[4.341785,50.822473],[4.341454,50.822637],[4.341489,50.822702],[4.341197,50.823044],[4.340149,50.824149],[4.339719,50.824607],[4.339293,50.824984],[4.338946,50.825202],[4.338607,50.825401],[4.338075,50.82574],[4.337628,50.82599],[4.337489,50.826052],[4.33727,50.826205],[4.337163,50.826136],[4.335949,50.826853],[4.335806,50.82694],[4.335629,50.827107],[4.33563,50.82711],[4.335626,50.82711],[4.335186,50.827531],[4.33481,50.827878],[4.334706,50.82798],[4.334277,50.828133],[4.333627,50.828346],[4.33331,50.828453],[4.332519,50.828728]]]}}
