{"type":"Feature","id":"eez.228","geometry_name":"the_geom","properties":{"mrgid":26524,"geoname":"Azerbaijani Exclusive Economic Zone","mrgid_ter1":2134,"pol_type":"200NM","mrgid_sov1":2134,"territory1":"Azerbaijan","iso_ter1":"AZE","sovereign1":"Azerbaijan","mrgid_ter2":null,"mrgid_sov2":null,"territory2":null,"iso_ter2":null,"sovereign2":null,"mrgid_ter3":null,"mrgid_sov3":null,"territory3":null,"iso_ter3":null,"sovereign3":null,"x_1":50.33172,"y_1":40.2835,"mrgid_eez":26524,"area_km2":80614,"iso_sov1":"AZE","iso_sov2":null,"iso_sov3":null,"un_sov1":31,"un_sov2":null,"un_sov3":null,"un_ter1":31,"un_ter2":null,"un_ter3":null,"name":"Azerbaijani Exclusive Economic Zone","source":"eez"},"geometry":{"type":"Polygon","coordinates":[[[51.45665,41.222767],[51.171439,41.510918],[51.043692,41.736416],[50.992443,41.772503],[50.378404,42.010062],[50.086455,42.36545],[49.915088,42.605523],[49.888333,42.56],[48.593871,41.841965],[48.645359,41.809131],[48.700239,41.759985],[48.778523,41.673287],[48.95281,41.503985],[49.065157,41.376866],[49.122022,41.291994],[49.17152,41.105496],[49.21875,41.013951],[49.408426,40.851871],[49.491662,40.833084],[49.53209,40.80731],[49.520044,40.813253],[49.544603,40.785472],[49.53368,40.783818],[49.527033,40.799568],[49.532018,40.776862],[49.515861,40.750472],[49.512676,40.705215],[49.521562,40.676457],[49.547974,40.636894],[49.627646,40.611251],[49.670779,40.611665],[49.690171,40.585208],[49.706602,40.577076],[49.777504,40.576142],[49.804412,40.566413],[49.89675,40.575402],[49.963522,40.59093],[49.990875,40.593676],[50.008021,40.585447],[50.067959,40.596647],[50.070372,40.572438],[50.118651,40.524872],[50.228947,40.500911],[50.263967,40.449911],[50.29012,40.445593],[50.278841,40.442106],[50.284762,40.429902],[50.317058,40.418807],[50.336988,40.401861],[50.354202,40.41197],[50.353873,40.420616],[50.323416,40.464804],[50.30167,40.476334],[50.327251,40.488979],[50.318983,40.519364],[50.296722,40.554599],[50.319956,40.521992],[50.329566,40.48849],[50.344015,40.485087],[50.351366,40.46972],[50.351259,40.437313],[50.365837,40.427096],[50.359,40.40206],[50.384005,40.396719],[50.388091,40.386821],[50.376336,40.398052],[50.358261,40.400824],[50.353947,40.409551],[50.338195,40.4004],[50.362532,40.361542],[50.356854,40.299408],[50.367525,40.27613],[50.369792,40.231042],[50.345065,40.298689],[50.309469,40.322315],[50.23698,40.347592],[50.121228,40.367466],[50.0906,40.361585],[50.082464,40.344762],[50.079539,40.352608],[50.068027,40.347593],[50.051413,40.356445],[50.012356,40.344217],[50.002313,40.33195],[50.007536,40.312357],[50.02536,40.309565],[50.030325,40.255029],[50.009256,40.266601],[50.018667,40.26376],[50.008825,40.278959],[50.018167,40.279377],[50.018333,40.299482],[50.007878,40.309362],[49.987436,40.31239],[50.005719,40.313105],[49.999536,40.338103],[49.971182,40.341439],[49.95893,40.334983],[49.937272,40.361035],[49.879318,40.374824],[49.837515,40.363759],[49.839377,40.34925],[49.860411,40.345279],[49.843829,40.340961],[49.836639,40.309744],[49.823347,40.311052],[49.830829,40.30322],[49.7765,40.301675],[49.721941,40.276023],[49.714994,40.282347],[49.685246,40.27846],[49.67033,40.266309],[49.677307,40.25789],[49.672898,40.25054],[49.673219,40.261791],[49.653805,40.251567],[49.669199,40.241696],[49.650928,40.245905],[49.653698,40.24033],[49.643125,40.238808],[49.651597,40.231388],[49.635738,40.234901],[49.64241,40.224429],[49.630254,40.233676],[49.649794,40.24657],[49.638174,40.249954],[49.628526,40.246225],[49.632168,40.239828],[49.620026,40.239888],[49.625962,40.226197],[49.599641,40.227774],[49.618111,40.236554],[49.591886,40.231488],[49.570313,40.216239],[49.572914,40.210968],[49.532202,40.205211],[49.476648,40.177613],[49.472249,40.146431],[49.492805,40.113627],[49.43178,40.097615],[49.421817,40.089983],[49.418075,40.071756],[49.439742,40.033029],[49.483366,39.996741],[49.415114,39.955238],[49.411195,39.929842],[49.440064,39.862863],[49.405984,39.84544],[49.384273,39.792933],[49.391716,39.750352],[49.421179,39.700339],[49.36365,39.681589],[49.329122,39.647219],[49.273703,39.51294],[49.275419,39.496512],[49.28785,39.480275],[49.283638,39.476576],[49.298358,39.454764],[49.310452,39.442986],[49.336612,39.424808],[49.316017,39.422794],[49.306941,39.41424],[49.333638,39.389529],[49.345881,39.397328],[49.336286,39.408409],[49.338067,39.419281],[49.359523,39.407467],[49.341228,39.389948],[49.344504,39.378084],[49.357348,39.386801],[49.359706,39.403427],[49.400455,39.378942],[49.385045,39.361906],[49.383819,39.348413],[49.411702,39.304096],[49.394782,39.312428],[49.436819,39.278067],[49.403507,39.296018],[49.390941,39.293915],[49.390795,39.300825],[49.375358,39.299724],[49.36778,39.310586],[49.344147,39.310291],[49.337735,39.320956],[49.357078,39.330645],[49.338105,39.333811],[49.340949,39.339854],[49.311223,39.350538],[49.316115,39.355904],[49.270025,39.356985],[49.257115,39.353168],[49.246219,39.335298],[49.230134,39.168594],[49.21875,39.13058],[49.20162,39.118665],[49.199226,39.122605],[49.210094,39.138921],[49.209302,39.163057],[49.203608,39.179555],[49.181487,39.20123],[49.185635,39.178523],[49.177821,39.181355],[49.173186,39.163425],[49.18048,39.163293],[49.161125,39.148322],[49.167103,39.145934],[49.165947,39.1319],[49.10548,39.133817],[49.102817,39.148442],[49.080171,39.159016],[49.083787,39.179011],[49.093243,39.178216],[49.083001,39.191447],[49.114163,39.215459],[49.104615,39.2241],[49.125221,39.216576],[49.143252,39.233587],[49.122393,39.239126],[49.076711,39.232916],[49.049509,39.217682],[49.039504,39.22489],[49.028715,39.226588],[49.042371,39.219808],[49.034323,39.208352],[49.023744,39.209087],[49.026304,39.214916],[49.010713,39.219806],[49.022102,39.215367],[49.015743,39.217553],[49.019617,39.201116],[49.030316,39.201099],[49.028355,39.191591],[49.019172,39.197488],[49.010005,39.184848],[48.996848,39.185181],[49.001931,39.19164],[48.944145,39.170581],[48.93801,39.161966],[48.936293,39.146496],[48.927745,39.140544],[48.931788,39.13077],[48.925723,39.135296],[48.921983,39.127079],[48.927479,39.120571],[48.935721,39.121443],[48.953603,39.153591],[48.949215,39.157488],[48.953684,39.157479],[48.956039,39.1525],[48.928792,39.107672],[48.921439,39.066021],[48.932542,39.096756],[48.940666,39.090451],[48.940031,39.078412],[48.93115,39.061725],[48.918425,39.055884],[48.93237,39.051561],[48.926839,39.052145],[48.937893,39.037776],[48.938223,38.995024],[48.943965,38.998567],[48.945492,38.990683],[48.928515,38.966268],[48.940528,38.968755],[48.928936,38.96496],[48.925886,38.937114],[48.887224,38.879308],[48.863418,38.866004],[48.833635,38.864583],[48.888639,38.899082],[48.853336,38.910252],[48.884358,38.912866],[48.914134,38.943499],[48.910054,38.991528],[48.871426,38.987454],[48.84861,38.961725],[48.827103,38.894636],[48.812713,38.879233],[48.821972,38.871861],[48.81467,38.865274],[48.826219,38.871434],[48.832239,38.858877],[48.826919,38.821871],[48.840701,38.786749],[48.870358,38.748819],[48.881467,38.443202],[49.444894,38.462093],[49.564067,38.369511],[49.735259,38.285292],[50.457909,38.564001],[50.605291,38.6408],[50.903352,38.705015],[51.376534,38.589099],[51.631043,39.009732],[51.733651,39.198319],[51.786695,39.687772],[51.817353,40.055098],[51.796321,40.563758],[51.758404,40.837717],[51.45665,41.222767]],[[49.548006,40.784283],[49.550972,40.784297],[49.551302,40.780784],[49.548006,40.784283]],[[50.417068,40.402516],[50.419479,40.408247],[50.421347,40.403439],[50.417068,40.402516]],[[50.467585,40.401105],[50.468158,40.396985],[50.463232,40.398277],[50.467585,40.401105]],[[50.413218,40.398355],[50.41299,40.396828],[50.408797,40.399715],[50.413218,40.398355]],[[50.489881,40.379362],[50.488262,40.382153],[50.4949,40.376956],[50.489881,40.379362]],[[50.506474,40.374041],[50.507417,40.374112],[50.51171,40.371324],[50.506474,40.374041]],[[50.502232,40.367666],[50.503736,40.368272],[50.505684,40.366398],[50.502232,40.367666]],[[50.527764,40.360043],[50.528852,40.357916],[50.528537,40.357752],[50.527764,40.360043]],[[50.553357,40.337574],[50.536119,40.350572],[50.569415,40.327418],[50.571222,40.318489],[50.546625,40.332099],[50.553357,40.337574]],[[50.578724,40.347241],[50.62532,40.32111],[50.615114,40.324739],[50.616132,40.313849],[50.570159,40.305194],[50.558415,40.290281],[50.562776,40.263256],[50.555356,40.256253],[50.55995,40.266322],[50.552192,40.290724],[50.562667,40.296324],[50.572861,40.318533],[50.588023,40.323606],[50.578724,40.347241]],[[50.591673,40.34609],[50.594586,40.345893],[50.595542,40.342661],[50.591673,40.34609]],[[50.735876,40.28255],[50.84304,40.256227],[50.859556,40.240104],[50.866773,40.245793],[50.864174,40.239701],[50.877545,40.240133],[50.884509,40.227706],[50.892871,40.232309],[50.890299,40.22307],[50.908667,40.239576],[50.899158,40.228037],[50.891862,40.222412],[50.898595,40.216909],[50.915203,40.231666],[50.896513,40.207478],[50.897984,40.215742],[50.884429,40.222798],[50.890691,40.217431],[50.882063,40.21498],[50.892104,40.214211],[50.891455,40.204865],[50.857307,40.229857],[50.834314,40.232628],[50.839632,40.238757],[50.820925,40.251567],[50.841925,40.242179],[50.835062,40.253906],[50.813233,40.262756],[50.807426,40.259646],[50.735876,40.28255]],[[50.368382,40.21139],[50.380557,40.251596],[50.375645,40.233582],[50.368382,40.21139]],[[50.573936,40.343306],[50.574126,40.342689],[50.570825,40.344787],[50.573936,40.343306]],[[49.983467,40.288482],[49.988447,40.285014],[49.978956,40.290782],[49.983467,40.288482]],[[49.921111,40.292735],[49.902595,40.29541],[49.93942,40.294974],[49.921111,40.292735]],[[49.580316,40.035237],[49.587164,40.046352],[49.593734,40.042229],[49.592896,40.039123],[49.580316,40.035237]],[[49.635234,39.989903],[49.632562,40.002134],[49.639553,40.007071],[49.656463,39.993119],[49.651238,39.986122],[49.626711,39.98342],[49.635234,39.989903]],[[49.455478,39.978943],[49.458166,39.980466],[49.455367,39.976721],[49.455478,39.978943]],[[49.455183,39.941382],[49.481777,39.953166],[49.489031,39.950577],[49.486857,39.946128],[49.455183,39.941382]],[[49.425676,39.84497],[49.425443,39.84304],[49.425103,39.842914],[49.425676,39.84497]],[[49.532735,39.840145],[49.535953,39.833469],[49.529018,39.830205],[49.527773,39.834948],[49.532735,39.840145]],[[49.436142,39.832273],[49.441005,39.827435],[49.435836,39.831049],[49.436142,39.832273]],[[49.441498,39.821856],[49.429821,39.829788],[49.425033,39.839807],[49.429026,39.836687],[49.441498,39.821856]],[[49.440186,39.820326],[49.44365,39.817807],[49.446026,39.811688],[49.440186,39.820326]],[[49.467662,39.804329],[49.466851,39.805401],[49.471215,39.803439],[49.467662,39.804329]],[[49.45882,39.802861],[49.470145,39.799441],[49.469775,39.799182],[49.45882,39.802861]],[[49.583302,39.760204],[49.588363,39.754221],[49.579031,39.754074],[49.583302,39.760204]],[[49.365097,39.680649],[49.37293,39.684415],[49.364697,39.678926],[49.365097,39.680649]],[[49.358145,39.675397],[49.359733,39.675362],[49.357234,39.673558],[49.358145,39.675397]],[[49.437727,39.643168],[49.440991,39.642156],[49.435428,39.637818],[49.437727,39.643168]],[[49.711189,39.621123],[49.713683,39.619908],[49.713296,39.618051],[49.711189,39.621123]],[[49.277547,39.496707],[49.279712,39.49743],[49.279938,39.495199],[49.277547,39.496707]],[[49.306138,39.45003],[49.303544,39.455237],[49.308642,39.450351],[49.306138,39.45003]],[[49.312008,39.448884],[49.311991,39.448008],[49.311265,39.448614],[49.312008,39.448884]],[[49.312694,39.443501],[49.313254,39.446816],[49.317053,39.443194],[49.312694,39.443501]],[[49.367126,39.399609],[49.36633,39.402793],[49.37368,39.396513],[49.367126,39.399609]],[[49.340898,39.328959],[49.337686,39.330217],[49.33898,39.331779],[49.340898,39.328959]],[[49.083629,39.1223],[49.073499,39.123641],[49.078208,39.124753],[49.083629,39.1223]],[[49.175144,39.140466],[49.173741,39.13952],[49.172526,39.141045],[49.175144,39.140466]],[[49.186098,39.163247],[49.180678,39.166782],[49.186177,39.168745],[49.186098,39.163247]],[[48.945174,39.158928],[48.993941,39.187454],[48.985783,39.180663],[48.945174,39.158928]],[[48.96984,39.17075],[48.986025,39.178617],[48.984707,39.176622],[48.96984,39.17075]],[[48.960941,39.165825],[48.964467,39.168245],[48.961779,39.165045],[48.960941,39.165825]],[[49.062618,39.185679],[49.055436,39.19275],[49.061449,39.197596],[49.067817,39.192287],[49.062618,39.185679]],[[49.056479,39.185661],[49.053206,39.185977],[49.054125,39.188604],[49.056479,39.185661]],[[49.050566,39.189272],[49.052059,39.191197],[49.05303,39.19038],[49.050566,39.189272]],[[49.044305,39.195571],[49.041466,39.204809],[49.044441,39.219907],[49.05176,39.202767],[49.044305,39.195571]],[[49.069175,39.197624],[49.070446,39.196828],[49.067511,39.196258],[49.069175,39.197624]],[[49.056723,39.197568],[49.057567,39.19565],[49.056099,39.196103],[49.056723,39.197568]],[[49.069863,39.195143],[49.073822,39.194644],[49.073139,39.192985],[49.069863,39.195143]],[[49.079302,39.195364],[49.0837,39.193811],[49.070786,39.187418],[49.079302,39.195364]],[[49.08349,39.218878],[49.08071,39.219694],[49.082172,39.219799],[49.08349,39.218878]],[[49.076724,39.220036],[49.065512,39.221066],[49.067954,39.221468],[49.076724,39.220036]],[[49.114126,39.226907],[49.113703,39.226613],[49.110983,39.230041],[49.114126,39.226907]],[[48.94495,39.155598],[48.944108,39.152297],[48.940788,39.148392],[48.943525,39.153028],[48.94495,39.155598]],[[48.931018,39.140678],[48.931293,39.142049],[48.932845,39.139624],[48.931018,39.140678]],[[49.171895,39.1171],[49.175052,39.11613],[49.171505,39.115372],[49.171895,39.1171]],[[49.105575,39.114525],[49.106336,39.113865],[49.101871,39.112262],[49.105575,39.114525]],[[49.113044,39.10969],[49.11541,39.108359],[49.114375,39.10821],[49.113044,39.10969]],[[49.117764,39.106818],[49.121789,39.10745],[49.120738,39.104777],[49.117764,39.106818]],[[49.114052,39.102419],[49.112462,39.104087],[49.114065,39.105054],[49.114052,39.102419]],[[49.080432,39.100812],[49.080103,39.100044],[49.079311,39.100001],[49.080432,39.100812]],[[49.086518,39.101907],[49.088295,39.099806],[49.085669,39.099836],[49.086518,39.101907]],[[49.167077,39.095235],[49.16417,39.095221],[49.163144,39.097968],[49.167077,39.095235]],[[49.082077,39.09981],[49.081599,39.100845],[49.083277,39.10154],[49.082077,39.09981]],[[49.152868,39.032322],[49.178639,39.036828],[49.177619,38.993742],[49.136799,38.94814],[49.098969,38.941696],[49.138447,38.951661],[49.146544,38.967254],[49.167609,38.982871],[49.170382,38.989747],[49.13331,38.957981],[49.098864,38.948698],[49.134016,38.96212],[49.108793,38.96224],[49.105282,38.976042],[49.092744,38.975418],[49.141542,39.002817],[49.169373,39.034248],[49.152868,39.032322]],[[49.331652,39.015256],[49.333979,39.016403],[49.33591,39.014091],[49.331652,39.015256]],[[49.072123,38.956612],[49.062929,38.960181],[49.06574,38.962399],[49.072123,38.956612]],[[49.087039,38.960596],[49.099951,38.964595],[49.109898,38.959739],[49.092782,38.95912],[49.087039,38.960596]],[[48.947059,38.973237],[48.943688,38.979213],[48.950197,38.98701],[48.951686,38.983467],[48.947059,38.973237]],[[48.831085,38.864439],[48.829294,38.865961],[48.831322,38.869066],[48.831085,38.864439]],[[48.829442,38.873021],[48.826961,38.872579],[48.827202,38.876145],[48.829442,38.873021]]]}}
