{"type":"Feature","properties":{"mrgid":26858,"name":"Macquarie Island","placeType":"World Marine Heritage Site","source":"MarineRegions:worldheritagemarineprogramme"},"geometry":{"type":"Polygon","coordinates":[[[158.67947,-55.32282],[158.76966,-55.31556],[158.85384,-55.29512],[158.92578,-55.26423],[158.98493,-55.22316],[159.02915,-55.16426],[159.03897,-55.0998],[159.01193,-55.03596],[158.94638,-54.97758],[159.03055,-54.95641],[159.09277,-54.92862],[159.14927,-54.887],[159.18294,-54.84197],[159.1952,-54.80513],[159.19635,-54.75663],[159.22108,-54.71898],[159.26099,-54.62281],[159.29321,-54.51719],[159.29284,-54.46465],[159.32805,-54.41284],[159.34023,-54.36082],[159.33324,-54.31723],[159.30975,-54.27465],[159.2689,-54.23464],[159.21382,-54.20139],[159.11569,-54.16854],[159.01025,-54.15631],[158.91184,-54.16256],[158.80728,-54.18897],[158.74806,-54.21735],[158.69825,-54.25512],[158.66503,-54.29873],[158.65048,-54.34467],[158.56037,-54.40706],[158.51658,-54.465],[158.50148,-54.53189],[158.48341,-54.56621],[158.45384,-54.68252],[158.43443,-54.72782],[158.42919,-54.78054],[158.43845,-54.82948],[158.45716,-54.86559],[158.48734,-54.89903],[158.53253,-54.93129],[158.43855,-54.97015],[158.36799,-55.02782],[158.33305,-55.08423],[158.32903,-55.14616],[158.34227,-55.1818],[158.36694,-55.21597],[158.44261,-55.27168],[158.55251,-55.3099],[158.67947,-55.32282]]]}}
