{"type":"Feature","properties":{"mrgid":2710,"name":"Lubbeek","placeType":"Town","source":"Belgium:belgium_municipalities"},"geometry":{"type":"Polygon","coordinates":[[[4.84673,50.911295],[4.844537,50.911583],[4.844125,50.911626],[4.842073,50.911758],[4.841859,50.911693],[4.841727,50.911681],[4.841633,50.911666],[4.841419,50.911612],[4.841186,50.911578],[4.840865,50.91153],[4.840554,50.911484],[4.840329,50.911449],[4.839413,50.91128],[4.839179,50.91126],[4.839019,50.911272],[4.838815,50.911297],[4.838607,50.911315],[4.838466,50.911358],[4.838078,50.911243],[4.837877,50.911186],[4.837567,50.911124],[4.837565,50.911089],[4.837552,50.911053],[4.837529,50.911],[4.837504,50.910955],[4.837467,50.910907],[4.837428,50.910879],[4.837346,50.910827],[4.837242,50.910769],[4.837106,50.910712],[4.837028,50.910687],[4.836824,50.91063],[4.836637,50.910567],[4.836579,50.910541],[4.836457,50.910482],[4.836242,50.910379],[4.835943,50.910234],[4.835739,50.910131],[4.835571,50.910044],[4.835383,50.909944],[4.835269,50.909879],[4.835026,50.909737],[4.834684,50.909536],[4.834434,50.909389],[4.834136,50.909212],[4.83398,50.909119],[4.833853,50.909049],[4.833592,50.908902],[4.833044,50.908586],[4.832812,50.908453],[4.832613,50.908355],[4.832468,50.908291],[4.832343,50.908232],[4.832193,50.908176],[4.832063,50.908133],[4.831908,50.908079],[4.831797,50.90805],[4.831488,50.908025],[4.831215,50.908006],[4.830976,50.907986],[4.830759,50.907971],[4.830587,50.907967],[4.830373,50.907966],[4.83014,50.907969],[4.829802,50.907975],[4.829414,50.907993],[4.829129,50.907992],[4.828745,50.907987],[4.828576,50.907994],[4.828395,50.90801],[4.828262,50.908022],[4.828115,50.908024],[4.828031,50.908017],[4.827897,50.908007],[4.827707,50.907992],[4.827545,50.907981],[4.827408,50.907975],[4.82727,50.90797],[4.827159,50.907969],[4.826853,50.907983],[4.826696,50.90799],[4.826628,50.907993],[4.82632,50.907839],[4.825869,50.907692],[4.825316,50.907516],[4.825141,50.907473],[4.824438,50.907254],[4.82408,50.907144],[4.823644,50.90701],[4.823317,50.90691],[4.823202,50.906874],[4.823102,50.906892],[4.822801,50.906943],[4.82271,50.906968],[4.822573,50.907006],[4.822418,50.90705],[4.822331,50.907088],[4.822118,50.90719],[4.821934,50.907281],[4.821617,50.907449],[4.821486,50.907501],[4.821405,50.907511],[4.821307,50.907513],[4.821209,50.907492],[4.821067,50.907462],[4.820864,50.907434],[4.820221,50.907395],[4.819079,50.907307],[4.818523,50.90725],[4.818154,50.907216],[4.81792,50.907222],[4.817575,50.907136],[4.817143,50.907035],[4.816501,50.906894],[4.815725,50.90673],[4.815497,50.906667],[4.815349,50.906607],[4.814931,50.906401],[4.81447,50.90618],[4.814396,50.906148],[4.814297,50.906113],[4.814126,50.906051],[4.813882,50.905963],[4.813657,50.905896],[4.813336,50.905759],[4.812445,50.905357],[4.811472,50.904927],[4.81081,50.904628],[4.810572,50.904526],[4.810575,50.904474],[4.810574,50.904398],[4.81048,50.904113],[4.810354,50.903755],[4.810304,50.903647],[4.810203,50.903509],[4.810063,50.903335],[4.80982,50.903069],[4.809587,50.902804],[4.809369,50.902605],[4.809058,50.902327],[4.808792,50.902108],[4.808446,50.901815],[4.808173,50.901584],[4.808083,50.901513],[4.808045,50.901552],[4.807955,50.901641],[4.80761,50.901959],[4.807573,50.901918],[4.807433,50.901753],[4.80734,50.901648],[4.807297,50.901608],[4.807247,50.901566],[4.807172,50.901513],[4.807082,50.901456],[4.806898,50.901346],[4.806753,50.901256],[4.806685,50.901168],[4.806612,50.901069],[4.806533,50.900952],[4.806471,50.900877],[4.806415,50.900827],[4.80633,50.900764],[4.806231,50.900699],[4.806163,50.900665],[4.806035,50.900602],[4.805874,50.900528],[4.805793,50.900506],[4.805598,50.900448],[4.805507,50.900425],[4.805366,50.900394],[4.805238,50.90039],[4.805027,50.900376],[4.804878,50.900326],[4.804742,50.900296],[4.804505,50.900225],[4.804387,50.900173],[4.804363,50.900143],[4.804351,50.900102],[4.804338,50.900007],[4.804323,50.899888],[4.804311,50.89989],[4.804273,50.899848],[4.804012,50.899684],[4.80348,50.899298],[4.803353,50.899217],[4.803156,50.899046],[4.802938,50.898965],[4.802553,50.898851],[4.801843,50.898461],[4.801627,50.898335],[4.800942,50.897956],[4.799278,50.897508],[4.797832,50.896883],[4.797769,50.896955],[4.797566,50.897184],[4.797423,50.897346],[4.797392,50.897391],[4.797365,50.897469],[4.797356,50.897502],[4.797314,50.89767],[4.797268,50.897859],[4.797259,50.897915],[4.797224,50.898148],[4.79721,50.898239],[4.79719,50.89832],[4.797098,50.898552],[4.797083,50.898594],[4.797036,50.898689],[4.796988,50.898812],[4.79697,50.898865],[4.796994,50.899028],[4.797006,50.899102],[4.797032,50.899266],[4.797039,50.899332],[4.797057,50.89949],[4.797057,50.899535],[4.797092,50.89955],[4.797585,50.899778],[4.798055,50.899975],[4.79797,50.900083],[4.798105,50.90013],[4.798019,50.900231],[4.796723,50.901882],[4.796529,50.902092],[4.796337,50.902198],[4.795968,50.902387],[4.795775,50.902619],[4.795581,50.902846],[4.795518,50.903013],[4.795279,50.903504],[4.795017,50.903989],[4.794815,50.904427],[4.794695,50.904705],[4.79467,50.905218],[4.794681,50.905372],[4.794512,50.906038],[4.794453,50.906349],[4.794372,50.906322],[4.794241,50.906265],[4.794129,50.906218],[4.794096,50.906196],[4.794054,50.906175],[4.793973,50.906139],[4.793986,50.906176],[4.79401,50.906237],[4.794048,50.90628],[4.79409,50.906323],[4.793586,50.906726],[4.793245,50.906998],[4.793181,50.907046],[4.792969,50.907208],[4.792895,50.907266],[4.792748,50.907378],[4.792524,50.907555],[4.792276,50.907753],[4.792035,50.907943],[4.791958,50.908004],[4.791797,50.908132],[4.79157,50.908312],[4.791535,50.90834],[4.79133,50.908507],[4.791089,50.908703],[4.790869,50.908881],[4.79082,50.90892],[4.790656,50.909049],[4.790435,50.909223],[4.790212,50.909399],[4.790004,50.909564],[4.789857,50.90968],[4.789758,50.909753],[4.788861,50.909392],[4.788509,50.909261],[4.786806,50.908637],[4.78607,50.908409],[4.785457,50.908297],[4.784694,50.908257],[4.783287,50.908201],[4.782856,50.908186],[4.782199,50.908152],[4.781671,50.9081],[4.781022,50.90796],[4.78048,50.907851],[4.78009,50.907786],[4.779591,50.90778],[4.779008,50.907823],[4.778658,50.907876],[4.778539,50.907928],[4.778314,50.90808],[4.778112,50.908234],[4.77793,50.908393],[4.777771,50.908537],[4.777449,50.90878],[4.77739,50.908861],[4.775345,50.90843],[4.775048,50.908377],[4.775062,50.908305],[4.775054,50.907835],[4.774343,50.907584],[4.773787,50.90739],[4.773218,50.907214],[4.772479,50.90702],[4.772389,50.906999],[4.771767,50.906846],[4.771448,50.906765],[4.771163,50.906693],[4.771077,50.906672],[4.7709,50.906633],[4.770752,50.906594],[4.770674,50.906573],[4.770637,50.906561],[4.770546,50.906528],[4.770466,50.906495],[4.770465,50.906495],[4.770461,50.906493],[4.770308,50.906434],[4.770194,50.906395],[4.770182,50.90639],[4.770119,50.906364],[4.770085,50.906398],[4.76998,50.906408],[4.769923,50.906418],[4.769874,50.906429],[4.769216,50.906621],[4.769175,50.906626],[4.76906,50.906675],[4.768928,50.906734],[4.768915,50.90674],[4.768811,50.906799],[4.768327,50.906966],[4.768285,50.906978],[4.76771,50.907137],[4.767405,50.907228],[4.767403,50.907234],[4.764711,50.90796],[4.764282,50.907957],[4.764022,50.907954],[4.76391,50.907953],[4.763674,50.907952],[4.763534,50.90795],[4.763328,50.907948],[4.76325,50.907948],[4.763206,50.907948],[4.763124,50.907946],[4.76291,50.907944],[4.762868,50.907937],[4.762571,50.907883],[4.762226,50.90782],[4.762169,50.90781],[4.762096,50.907803],[4.761886,50.907783],[4.761788,50.907772],[4.761784,50.907781],[4.761529,50.907763],[4.761407,50.907757],[4.760651,50.907797],[4.760582,50.90755],[4.760464,50.907276],[4.760273,50.906988],[4.760101,50.906804],[4.75982,50.906415],[4.759761,50.906178],[4.75973,50.906009],[4.759652,50.90565],[4.759596,50.905435],[4.759197,50.905063],[4.75845,50.904531],[4.75804,50.904199],[4.757799,50.903968],[4.757584,50.903677],[4.757339,50.903331],[4.757127,50.903072],[4.756927,50.902823],[4.756672,50.902344],[4.756527,50.901964],[4.756423,50.90175],[4.756263,50.901511],[4.75605,50.901255],[4.755817,50.901129],[4.755377,50.900927],[4.754783,50.900624],[4.754225,50.900284],[4.753895,50.900054],[4.753753,50.899882],[4.753729,50.899817],[4.753852,50.899602],[4.753917,50.899483],[4.754116,50.899201],[4.754362,50.898844],[4.75452,50.898505],[4.75476,50.898208],[4.754728,50.898146],[4.754666,50.897987],[4.754572,50.897832],[4.754423,50.897688],[4.754312,50.897588],[4.754036,50.897346],[4.753864,50.897197],[4.753706,50.897078],[4.753401,50.896863],[4.753085,50.896635],[4.752881,50.89646],[4.752528,50.896146],[4.752233,50.8959],[4.751922,50.895686],[4.751524,50.895424],[4.751378,50.895328],[4.751263,50.895269],[4.75071,50.894996],[4.749994,50.894718],[4.749513,50.894538],[4.749349,50.894492],[4.748935,50.894264],[4.748723,50.894113],[4.748555,50.893988],[4.748436,50.893887],[4.7483,50.89372],[4.748228,50.893636],[4.748117,50.893477],[4.747984,50.893347],[4.747992,50.893287],[4.748246,50.893258],[4.748365,50.893259],[4.748502,50.893259],[4.748676,50.893262],[4.748742,50.893263],[4.748987,50.893268],[4.749267,50.893274],[4.74966,50.893282],[4.749996,50.89329],[4.750336,50.893297],[4.750776,50.893306],[4.751131,50.893314],[4.751239,50.893313],[4.751271,50.89321],[4.751328,50.89309],[4.751529,50.892862],[4.751662,50.892704],[4.751665,50.892652],[4.751596,50.892148],[4.751595,50.891952],[4.75157,50.891454],[4.751499,50.890881],[4.751311,50.889409],[4.751123,50.887962],[4.751114,50.887897],[4.753087,50.888274],[4.753522,50.88836],[4.753797,50.888395],[4.754376,50.888441],[4.754973,50.888481],[4.766722,50.889431],[4.7684,50.889537],[4.769658,50.889641],[4.769757,50.88965],[4.769865,50.889067],[4.769978,50.888523],[4.769994,50.887767],[4.770016,50.887248],[4.770173,50.886791],[4.770254,50.886506],[4.770348,50.885835],[4.770405,50.885195],[4.77041,50.885079],[4.769134,50.883576],[4.768117,50.882358],[4.767276,50.881341],[4.766697,50.88064],[4.765829,50.879625],[4.764601,50.878243],[4.763473,50.876995],[4.762967,50.876423],[4.762617,50.875987],[4.762514,50.875832],[4.761638,50.874805],[4.760665,50.873667],[4.760065,50.87296],[4.760248,50.872961],[4.760515,50.873028],[4.761248,50.873219],[4.761552,50.873294],[4.761843,50.873354],[4.762147,50.873386],[4.762251,50.873392],[4.762413,50.873388],[4.762625,50.873378],[4.762956,50.87337],[4.763065,50.873368],[4.763142,50.873358],[4.76343,50.873258],[4.763789,50.873145],[4.764235,50.873078],[4.764604,50.873017],[4.764796,50.872966],[4.764992,50.872902],[4.765253,50.872808],[4.765462,50.872732],[4.765477,50.872775],[4.765621,50.873232],[4.765627,50.873298],[4.765607,50.8735],[4.76558,50.873786],[4.765581,50.873809],[4.765619,50.874059],[4.765824,50.874302],[4.765858,50.874342],[4.765936,50.874461],[4.765992,50.874549],[4.766052,50.874645],[4.765563,50.874871],[4.765625,50.874972],[4.765779,50.875143],[4.766036,50.875432],[4.766244,50.875657],[4.766262,50.875677],[4.766707,50.875465],[4.767766,50.874831],[4.767861,50.874793],[4.767985,50.874775],[4.768378,50.874827],[4.768719,50.874863],[4.769048,50.874878],[4.769345,50.874845],[4.769669,50.874742],[4.77008,50.874437],[4.771674,50.873254],[4.772309,50.872782],[4.772876,50.872359],[4.772935,50.872322],[4.773032,50.872284],[4.773092,50.87226],[4.773087,50.872253],[4.773343,50.872129],[4.774038,50.871776],[4.774049,50.871762],[4.774188,50.871441],[4.774323,50.871094],[4.774373,50.870958],[4.774397,50.870906],[4.77456,50.870632],[4.774591,50.870563],[4.774627,50.870446],[4.774651,50.870383],[4.774666,50.86994],[4.774682,50.869687],[4.774697,50.869666],[4.7747,50.869643],[4.77467,50.869603],[4.774676,50.869599],[4.774684,50.869594],[4.777137,50.868048],[4.777217,50.867997],[4.777371,50.868036],[4.778282,50.867802],[4.779279,50.867485],[4.779558,50.867399],[4.779589,50.867389],[4.780547,50.867057],[4.780752,50.866982],[4.78121,50.866776],[4.782468,50.866208],[4.782505,50.866193],[4.783053,50.865964],[4.783056,50.865963],[4.783694,50.86565],[4.783787,50.865607],[4.78425,50.865397],[4.784339,50.865356],[4.784456,50.865304],[4.786304,50.864496],[4.786418,50.864446],[4.786842,50.864544],[4.78689,50.864474],[4.787109,50.864145],[4.787247,50.863935],[4.787557,50.863481],[4.787566,50.863469],[4.787759,50.863164],[4.787779,50.863129],[4.787809,50.863079],[4.788106,50.862545],[4.788631,50.861609],[4.788744,50.861629],[4.788873,50.861379],[4.789337,50.860533],[4.791096,50.859798],[4.791179,50.859764],[4.791228,50.859742],[4.791114,50.85952],[4.79108,50.85923],[4.791058,50.859126],[4.791045,50.859031],[4.791097,50.85888],[4.791141,50.858696],[4.791216,50.858568],[4.791264,50.858473],[4.791321,50.858339],[4.791375,50.858213],[4.791443,50.858067],[4.79153,50.85783],[4.791638,50.857755],[4.793462,50.857477],[4.79361,50.85746],[4.793612,50.857459],[4.793686,50.857454],[4.793752,50.857436],[4.793758,50.857434],[4.793791,50.857542],[4.793844,50.85756],[4.793949,50.857532],[4.794163,50.857519],[4.79427,50.857531],[4.794395,50.857614],[4.794478,50.857703],[4.794616,50.857729],[4.794817,50.857723],[4.794926,50.857803],[4.795069,50.857868],[4.795174,50.857857],[4.795257,50.857825],[4.795333,50.857798],[4.795404,50.857836],[4.795369,50.857871],[4.795364,50.857886],[4.795349,50.85792],[4.795359,50.857964],[4.795425,50.85799],[4.795697,50.857981],[4.795886,50.857974],[4.79617,50.857975],[4.796459,50.857981],[4.797002,50.857928],[4.797329,50.857905],[4.797879,50.857896],[4.797965,50.857903],[4.798176,50.857917],[4.798371,50.857923],[4.79853,50.857926],[4.79868,50.85793],[4.798806,50.857934],[4.798954,50.857942],[4.799021,50.857947],[4.799256,50.85799],[4.799401,50.858022],[4.799458,50.858048],[4.799518,50.858079],[4.799597,50.85816],[4.799641,50.858173],[4.79973,50.858203],[4.80001,50.858261],[4.800285,50.858281],[4.800562,50.858339],[4.800611,50.8584],[4.800695,50.858417],[4.801011,50.858466],[4.801195,50.858483],[4.801227,50.858503],[4.801296,50.858573],[4.801409,50.858635],[4.801506,50.858679],[4.801646,50.8587],[4.801673,50.858711],[4.801732,50.858763],[4.801806,50.858787],[4.80192,50.858822],[4.802149,50.858888],[4.802315,50.858934],[4.802509,50.859017],[4.802767,50.859113],[4.803017,50.859161],[4.803246,50.859215],[4.803621,50.859248],[4.803791,50.859266],[4.803922,50.859255],[4.803936,50.859248],[4.803948,50.859205],[4.803946,50.85914],[4.803961,50.859084],[4.803975,50.859058],[4.803973,50.859034],[4.803929,50.85896],[4.803926,50.858932],[4.803934,50.8589],[4.803957,50.858874],[4.804004,50.85884],[4.804064,50.858811],[4.804129,50.858777],[4.804252,50.858578],[4.804411,50.85833],[4.804418,50.858321],[4.804983,50.85752],[4.805081,50.857381],[4.805115,50.857332],[4.805914,50.85625],[4.806469,50.855438],[4.806719,50.855092],[4.806993,50.854695],[4.807014,50.854655],[4.807274,50.854256],[4.807989,50.85311],[4.808004,50.853086],[4.808228,50.853079],[4.808258,50.853142],[4.808373,50.853419],[4.808422,50.85356],[4.808462,50.853669],[4.808483,50.85373],[4.808511,50.853829],[4.80869,50.854564],[4.808801,50.854971],[4.808899,50.855366],[4.808961,50.85563],[4.80898,50.855759],[4.808996,50.855892],[4.809127,50.856396],[4.80915,50.856638],[4.809164,50.856852],[4.809169,50.857075],[4.809154,50.857317],[4.809108,50.857572],[4.809055,50.857861],[4.808985,50.858294],[4.808959,50.858292],[4.808954,50.858286],[4.808915,50.858283],[4.808207,50.858244],[4.807995,50.859134],[4.80798,50.859207],[4.807979,50.859218],[4.808026,50.859226],[4.808132,50.859251],[4.808194,50.859246],[4.808226,50.859245],[4.808277,50.859252],[4.808318,50.859279],[4.808367,50.85929],[4.808404,50.859294],[4.808432,50.859293],[4.808462,50.859289],[4.808634,50.859284],[4.808744,50.859331],[4.808805,50.859335],[4.80889,50.85932],[4.808925,50.859317],[4.808967,50.859316],[4.808999,50.859321],[4.809062,50.859342],[4.809162,50.859331],[4.809191,50.859333],[4.809252,50.859355],[4.809304,50.859372],[4.809406,50.859388],[4.809546,50.859404],[4.809645,50.859406],[4.809696,50.859418],[4.809853,50.85947],[4.809969,50.859484],[4.80997,50.859475],[4.809982,50.859326],[4.810019,50.858535],[4.81019,50.858521],[4.810197,50.858521],[4.810268,50.858502],[4.810536,50.858409],[4.810555,50.858403],[4.810684,50.858369],[4.810816,50.858339],[4.810866,50.85833],[4.810965,50.858314],[4.810986,50.858312],[4.811057,50.858306],[4.811153,50.858302],[4.811274,50.85828],[4.811593,50.858235],[4.81194,50.858187],[4.811934,50.858176],[4.811851,50.857965],[4.812098,50.857926],[4.812188,50.857915],[4.812263,50.857911],[4.812427,50.857908],[4.812482,50.857912],[4.812877,50.857948],[4.813022,50.857966],[4.813032,50.857964],[4.813066,50.857954],[4.813099,50.857934],[4.813104,50.857929],[4.813132,50.857897],[4.813179,50.857859],[4.813188,50.857849],[4.81325,50.857834],[4.813344,50.857763],[4.8137,50.857855],[4.813727,50.857862],[4.814097,50.857697],[4.814348,50.85759],[4.814493,50.857529],[4.814625,50.857491],[4.814698,50.857472],[4.814837,50.857449],[4.814976,50.857431],[4.815006,50.857405],[4.815611,50.856834],[4.81565,50.856796],[4.81542,50.8568],[4.815088,50.856811],[4.814704,50.856907],[4.814636,50.856909],[4.814706,50.856782],[4.8147,50.856611],[4.814535,50.856594],[4.814437,50.856355],[4.814335,50.855912],[4.814321,50.855657],[4.81423,50.854936],[4.814156,50.854008],[4.814061,50.852694],[4.814072,50.852693],[4.815251,50.852645],[4.817426,50.852554],[4.819157,50.852473],[4.820377,50.852425],[4.820669,50.852351],[4.82114,50.852419],[4.821498,50.85254],[4.822009,50.852745],[4.822193,50.852826],[4.823385,50.853642],[4.824046,50.854183],[4.825606,50.854561],[4.824772,50.855251],[4.827645,50.856355],[4.827639,50.85624],[4.827792,50.856028],[4.827924,50.855849],[4.828104,50.855591],[4.828234,50.85541],[4.828371,50.855471],[4.82842,50.855489],[4.828691,50.855607],[4.830595,50.855682],[4.830595,50.85569],[4.830666,50.855671],[4.831159,50.855673],[4.83137,50.855694],[4.831721,50.85575],[4.832046,50.855812],[4.832838,50.856007],[4.832807,50.856046],[4.832925,50.856108],[4.833813,50.856443],[4.83459,50.856729],[4.835012,50.8567],[4.835706,50.856716],[4.83553,50.858321],[4.835527,50.858344],[4.835941,50.858399],[4.836371,50.858475],[4.83687,50.858576],[4.837322,50.858672],[4.837869,50.85879],[4.838165,50.858862],[4.838296,50.858924],[4.83854,50.859069],[4.838832,50.859275],[4.839089,50.859521],[4.839307,50.859751],[4.83949,50.859953],[4.839655,50.860078],[4.839799,50.86014],[4.839975,50.860189],[4.840112,50.86022],[4.840259,50.860231],[4.840461,50.860221],[4.840667,50.860208],[4.841,50.860184],[4.84128,50.86016],[4.841563,50.860185],[4.842032,50.860256],[4.842418,50.860318],[4.842653,50.860351],[4.842804,50.860369],[4.843094,50.86037],[4.843783,50.860369],[4.84397,50.860387],[4.844203,50.860422],[4.844598,50.860538],[4.84499,50.860649],[4.845272,50.860722],[4.846085,50.860728],[4.846442,50.860803],[4.846863,50.860924],[4.847495,50.861072],[4.847905,50.861153],[4.848269,50.86123],[4.848848,50.861326],[4.849285,50.86141],[4.849587,50.861468],[4.849805,50.861557],[4.850107,50.861602],[4.850324,50.861639],[4.850352,50.861688],[4.850452,50.862182],[4.850552,50.862608],[4.850565,50.862844],[4.850581,50.863214],[4.850545,50.863449],[4.850374,50.863683],[4.850495,50.863698],[4.850962,50.863771],[4.850958,50.864457],[4.850977,50.864465],[4.851217,50.864999],[4.851245,50.865049],[4.851356,50.865106],[4.851483,50.865163],[4.851618,50.865218],[4.851718,50.86525],[4.852017,50.865331],[4.851599,50.865783],[4.852357,50.866183],[4.852355,50.866186],[4.852546,50.866286],[4.853029,50.866571],[4.853542,50.866827],[4.853238,50.867082],[4.85319,50.867152],[4.852857,50.867849],[4.852914,50.867876],[4.853457,50.868012],[4.853526,50.868134],[4.85361,50.868206],[4.853959,50.868307],[4.855006,50.868552],[4.855175,50.868581],[4.855608,50.868596],[4.85564,50.868584],[4.855817,50.868596],[4.855992,50.868625],[4.85631,50.868675],[4.856615,50.868733],[4.856748,50.868775],[4.856919,50.868843],[4.857018,50.868885],[4.857177,50.868952],[4.857382,50.869041],[4.857638,50.869146],[4.857758,50.869195],[4.858066,50.869349],[4.858171,50.869396],[4.858209,50.869412],[4.858284,50.869443],[4.858488,50.869511],[4.858716,50.869592],[4.858895,50.869647],[4.858992,50.869688],[4.859062,50.869706],[4.859173,50.869717],[4.859286,50.869749],[4.8596,50.869867],[4.859991,50.870006],[4.860027,50.870041],[4.860079,50.870065],[4.860158,50.870085],[4.860408,50.870178],[4.860842,50.870307],[4.860922,50.870337],[4.861244,50.870434],[4.861337,50.870461],[4.86149,50.870503],[4.861663,50.87056],[4.862069,50.870667],[4.86233,50.870735],[4.862482,50.870786],[4.862567,50.870812],[4.862834,50.870866],[4.863186,50.870937],[4.863437,50.870989],[4.863601,50.871044],[4.86365,50.87106],[4.863724,50.871088],[4.864054,50.871017],[4.864161,50.870997],[4.864156,50.87102],[4.864155,50.871031],[4.864781,50.871131],[4.864833,50.871064],[4.86516,50.871119],[4.865384,50.871098],[4.865395,50.871097],[4.865995,50.871074],[4.866027,50.871073],[4.866217,50.87106],[4.866416,50.871061],[4.866651,50.870776],[4.866669,50.87078],[4.867157,50.870891],[4.867547,50.870982],[4.867928,50.87106],[4.868362,50.871151],[4.868372,50.871153],[4.869377,50.871248],[4.869228,50.871501],[4.870028,50.871701],[4.871032,50.871939],[4.871177,50.871956],[4.874299,50.872293],[4.874304,50.872278],[4.874468,50.871779],[4.874107,50.871662],[4.874299,50.871355],[4.87437,50.871241],[4.874397,50.871199],[4.874601,50.870875],[4.874733,50.870669],[4.8748,50.870563],[4.874894,50.870451],[4.875279,50.870478],[4.875635,50.870502],[4.876002,50.870528],[4.876407,50.870085],[4.876552,50.869925],[4.87617,50.869842],[4.875925,50.869785],[4.876048,50.869486],[4.876071,50.869434],[4.876927,50.867623],[4.877113,50.867247],[4.877116,50.867241],[4.877238,50.867005],[4.877345,50.86682],[4.877549,50.866645],[4.877679,50.866551],[4.877854,50.866459],[4.878048,50.866329],[4.878156,50.866244],[4.878188,50.866214],[4.879232,50.865032],[4.880174,50.863973],[4.8803,50.863305],[4.880367,50.862943],[4.880383,50.86287],[4.880471,50.862341],[4.880639,50.86202],[4.881099,50.862091],[4.881239,50.861943],[4.881179,50.861361],[4.881233,50.861317],[4.881391,50.861216],[4.882344,50.860643],[4.882576,50.860501],[4.882707,50.860412],[4.882721,50.860401],[4.882849,50.860267],[4.882861,50.860252],[4.88309,50.859985],[4.883221,50.859825],[4.88328,50.859746],[4.883417,50.859651],[4.885022,50.858622],[4.885641,50.858231],[4.88593,50.858036],[4.885934,50.858034],[4.886472,50.85754],[4.886503,50.857515],[4.88684,50.857236],[4.887372,50.856787],[4.887435,50.856734],[4.887792,50.856413],[4.887844,50.856358],[4.888389,50.855678],[4.888725,50.855258],[4.88884,50.855113],[4.889014,50.854876],[4.88913,50.854694],[4.889188,50.854656],[4.889889,50.854092],[4.890353,50.853725],[4.890548,50.853568],[4.890909,50.853284],[4.891124,50.853128],[4.891464,50.852912],[4.891744,50.852734],[4.891809,50.85269],[4.892044,50.85251],[4.892309,50.8523],[4.893059,50.851689],[4.893407,50.851829],[4.89384,50.852],[4.894044,50.85208],[4.894521,50.85227],[4.895244,50.852556],[4.895866,50.852041],[4.897026,50.852566],[4.897506,50.852723],[4.898266,50.852973],[4.898299,50.852943],[4.899034,50.85316],[4.899078,50.853222],[4.899089,50.853234],[4.899787,50.854136],[4.899896,50.854258],[4.900054,50.854345],[4.900084,50.854354],[4.900123,50.854367],[4.900217,50.854392],[4.900339,50.85442],[4.900386,50.854431],[4.900475,50.854458],[4.900561,50.854488],[4.900626,50.854516],[4.900685,50.854546],[4.900727,50.854563],[4.900936,50.854728],[4.901024,50.85479],[4.901084,50.854741],[4.901117,50.854762],[4.901174,50.854792],[4.901182,50.854787],[4.901359,50.854911],[4.90144,50.854967],[4.901467,50.855],[4.901502,50.855023],[4.901545,50.855052],[4.901548,50.855054],[4.90158,50.855068],[4.901629,50.855107],[4.901661,50.855134],[4.901765,50.855201],[4.901843,50.855244],[4.901901,50.855277],[4.901946,50.8553],[4.901968,50.855318],[4.901995,50.855368],[4.902029,50.855397],[4.902094,50.855437],[4.902126,50.855473],[4.902151,50.855492],[4.902193,50.855541],[4.902237,50.855605],[4.902534,50.855499],[4.902821,50.855393],[4.902938,50.85535],[4.90304,50.855478],[4.903206,50.85579],[4.903341,50.856027],[4.903377,50.856086],[4.903514,50.856302],[4.903682,50.856568],[4.903735,50.856649],[4.90397,50.857008],[4.904175,50.857308],[4.904326,50.857528],[4.904332,50.857537],[4.904436,50.857694],[4.904625,50.857922],[4.904786,50.858101],[4.904999,50.858364],[4.90509,50.858481],[4.905666,50.859192],[4.905698,50.85922],[4.905999,50.859522],[4.906343,50.859876],[4.9064,50.859931],[4.90684,50.860339],[4.907026,50.860512],[4.907034,50.860515],[4.907331,50.860793],[4.907844,50.861258],[4.907908,50.861317],[4.90804,50.861459],[4.908317,50.861763],[4.908754,50.862309],[4.908773,50.862374],[4.909168,50.862843],[4.909586,50.863328],[4.909896,50.863682],[4.909935,50.863711],[4.909999,50.863761],[4.910053,50.863813],[4.910167,50.863922],[4.910238,50.864011],[4.910249,50.864089],[4.910241,50.864312],[4.910241,50.864334],[4.910172,50.864362],[4.910137,50.864399],[4.910025,50.864626],[4.910002,50.864667],[4.910007,50.864669],[4.909997,50.864686],[4.909949,50.86475],[4.909867,50.865065],[4.909861,50.865126],[4.909809,50.865245],[4.909768,50.865311],[4.909692,50.865472],[4.909447,50.86593],[4.908842,50.865976],[4.908607,50.86629],[4.9085,50.866443],[4.908496,50.866449],[4.908748,50.866607],[4.908397,50.866813],[4.908315,50.866858],[4.908088,50.86698],[4.907818,50.867167],[4.907768,50.867203],[4.907638,50.867291],[4.907519,50.867357],[4.907299,50.867488],[4.907229,50.86755],[4.907123,50.867634],[4.907028,50.867736],[4.906976,50.86781],[4.906906,50.867853],[4.906863,50.867896],[4.906836,50.867947],[4.906765,50.868073],[4.90674,50.868111],[4.906663,50.868166],[4.906583,50.868278],[4.906462,50.86838],[4.90639,50.868533],[4.906272,50.868666],[4.906269,50.868678],[4.90624,50.868698],[4.906228,50.868736],[4.906207,50.868756],[4.906128,50.868808],[4.906102,50.868863],[4.906081,50.86892],[4.905961,50.869039],[4.905995,50.869046],[4.905995,50.869091],[4.90592,50.869152],[4.905905,50.869172],[4.905817,50.869222],[4.905608,50.869324],[4.905585,50.869363],[4.905585,50.869417],[4.905589,50.869439],[4.905582,50.869453],[4.905526,50.869532],[4.905535,50.869568],[4.905568,50.86962],[4.905579,50.869685],[4.905581,50.869736],[4.905579,50.869798],[4.905583,50.86983],[4.905597,50.869861],[4.905613,50.869873],[4.905625,50.869896],[4.905623,50.869915],[4.90563,50.869933],[4.905652,50.869962],[4.905659,50.870027],[4.905665,50.870046],[4.905696,50.870085],[4.905711,50.870117],[4.905742,50.870162],[4.905751,50.870202],[4.905817,50.870284],[4.905947,50.870394],[4.905972,50.870424],[4.905853,50.870525],[4.905845,50.870556],[4.905841,50.870601],[4.90586,50.870624],[4.905893,50.870652],[4.906022,50.870731],[4.906132,50.870807],[4.906147,50.870826],[4.906326,50.870814],[4.906431,50.870776],[4.906601,50.870852],[4.906959,50.870951],[4.907222,50.870999],[4.907356,50.871039],[4.907615,50.871111],[4.907576,50.871137],[4.907448,50.871224],[4.907431,50.871263],[4.907404,50.871285],[4.907379,50.871308],[4.907353,50.871328],[4.907351,50.871353],[4.907359,50.871395],[4.907355,50.871415],[4.907342,50.871484],[4.907331,50.871565],[4.907344,50.871604],[4.907347,50.871643],[4.907353,50.871667],[4.907368,50.871743],[4.907366,50.871779],[4.907379,50.871834],[4.907387,50.871846],[4.907396,50.871876],[4.907362,50.871933],[4.907376,50.87197],[4.907395,50.871985],[4.907418,50.871996],[4.90746,50.87202],[4.907482,50.872058],[4.907455,50.872208],[4.90746,50.872318],[4.907444,50.87241],[4.907391,50.872537],[4.907399,50.872614],[4.907386,50.872689],[4.907339,50.872751],[4.907324,50.872793],[4.907309,50.87289],[4.907326,50.872976],[4.907314,50.872992],[4.907296,50.873002],[4.907286,50.873017],[4.907278,50.873035],[4.907241,50.873133],[4.907235,50.873167],[4.907221,50.873226],[4.907199,50.873265],[4.907181,50.873287],[4.907153,50.87332],[4.907126,50.873363],[4.907105,50.873422],[4.907091,50.873482],[4.907038,50.873574],[4.907019,50.873692],[4.907006,50.87372],[4.906973,50.873792],[4.906945,50.873834],[4.906924,50.873881],[4.906917,50.873917],[4.906879,50.873993],[4.906619,50.874435],[4.906593,50.874519],[4.906584,50.874581],[4.906671,50.874748],[4.906754,50.874872],[4.906737,50.874916],[4.90672,50.874941],[4.90664,50.875029],[4.906617,50.875064],[4.906595,50.875108],[4.906556,50.875229],[4.906662,50.875367],[4.906742,50.875462],[4.906755,50.875604],[4.90676,50.875668],[4.906798,50.875727],[4.906877,50.875783],[4.906975,50.875812],[4.907328,50.87585],[4.907781,50.875932],[4.907879,50.875983],[4.907945,50.876033],[4.90801,50.876117],[4.908005,50.876174],[4.90799,50.876198],[4.907948,50.87624],[4.90781,50.876363],[4.907798,50.876403],[4.907801,50.876468],[4.907818,50.876521],[4.907906,50.876722],[4.907945,50.876806],[4.907991,50.876907],[4.908043,50.87699],[4.908129,50.877146],[4.908193,50.877248],[4.908239,50.877304],[4.908334,50.877474],[4.908317,50.877507],[4.908209,50.877609],[4.908185,50.87764],[4.908157,50.877699],[4.908106,50.877788],[4.908132,50.877937],[4.90815,50.877988],[4.90818,50.878028],[4.90824,50.878104],[4.90818,50.878191],[4.908183,50.878252],[4.908194,50.878291],[4.908315,50.878406],[4.908578,50.878587],[4.908622,50.878641],[4.908648,50.878697],[4.908653,50.878713],[4.908661,50.878746],[4.908679,50.878861],[4.908672,50.878885],[4.908681,50.878902],[4.908705,50.878926],[4.908756,50.878966],[4.908854,50.879016],[4.908868,50.879022],[4.908959,50.879068],[4.90905,50.879107],[4.909258,50.879138],[4.909293,50.879148],[4.909389,50.879177],[4.909455,50.879213],[4.909504,50.879244],[4.909613,50.879327],[4.909743,50.879427],[4.910031,50.879611],[4.910463,50.879874],[4.910628,50.879968],[4.910657,50.87995],[4.911118,50.880257],[4.91091,50.88037],[4.909286,50.881242],[4.908798,50.882197],[4.908658,50.88248],[4.908546,50.882707],[4.908518,50.88276],[4.908307,50.883164],[4.908274,50.883221],[4.908104,50.883394],[4.90804,50.883479],[4.907425,50.884588],[4.907354,50.884739],[4.907192,50.884817],[4.907003,50.884951],[4.906862,50.885096],[4.906696,50.885352],[4.906598,50.885654],[4.906542,50.886046],[4.906418,50.886424],[4.906157,50.887005],[4.906086,50.887186],[4.905974,50.887186],[4.905789,50.887184],[4.905604,50.887182],[4.905429,50.88718],[4.905283,50.887178],[4.905177,50.887178],[4.905092,50.887162],[4.905023,50.887141],[4.904939,50.887106],[4.904847,50.887066],[4.9047,50.886999],[4.904561,50.886939],[4.904417,50.886888],[4.904244,50.886833],[4.90401,50.886771],[4.903927,50.886763],[4.903794,50.88676],[4.903556,50.886773],[4.903361,50.88678],[4.903145,50.886783],[4.903064,50.886791],[4.902959,50.886808],[4.902799,50.886852],[4.902591,50.886914],[4.902487,50.88694],[4.902429,50.886949],[4.902372,50.886948],[4.902268,50.886942],[4.90213,50.886954],[4.901886,50.886982],[4.901773,50.886986],[4.901635,50.886991],[4.901427,50.88701],[4.901312,50.887003],[4.901151,50.886973],[4.900971,50.88695],[4.900774,50.886924],[4.900663,50.886904],[4.90057,50.88688],[4.900475,50.886856],[4.900371,50.886837],[4.900271,50.886842],[4.900215,50.886865],[4.900056,50.886933],[4.899972,50.886963],[4.899843,50.886966],[4.899702,50.886956],[4.899617,50.886944],[4.899456,50.886922],[4.899325,50.886917],[4.899046,50.886929],[4.898923,50.886958],[4.898796,50.887018],[4.898602,50.887026],[4.898432,50.887055],[4.898383,50.887073],[4.898388,50.887111],[4.898292,50.887595],[4.898154,50.887572],[4.898135,50.887587],[4.898149,50.88775],[4.898065,50.887849],[4.897959,50.887951],[4.897844,50.888025],[4.89761,50.888129],[4.897535,50.888223],[4.8971,50.888358],[4.896876,50.8885],[4.896808,50.88855],[4.89689,50.888666],[4.896853,50.888758],[4.896813,50.888736],[4.896608,50.888851],[4.895957,50.888632],[4.895893,50.88862],[4.893185,50.88838],[4.892985,50.888423],[4.892595,50.888503],[4.891683,50.888378],[4.891671,50.888377],[4.891651,50.888379],[4.891655,50.888396],[4.891684,50.888684],[4.891743,50.889194],[4.891915,50.889686],[4.89217,50.890008],[4.892237,50.890126],[4.892196,50.890202],[4.891994,50.890447],[4.891913,50.890598],[4.892359,50.890775],[4.892409,50.890805],[4.892326,50.891064],[4.89202,50.891398],[4.891993,50.891592],[4.892163,50.89171],[4.89206,50.892368],[4.891692,50.892595],[4.891401,50.892693],[4.891386,50.892685],[4.891259,50.892631],[4.891128,50.892591],[4.890948,50.89257],[4.890844,50.892577],[4.890762,50.892561],[4.890678,50.892519],[4.890589,50.892483],[4.890449,50.892452],[4.890363,50.892428],[4.890277,50.892404],[4.890162,50.892385],[4.8901,50.892379],[4.890036,50.892369],[4.889957,50.892343],[4.889906,50.892318],[4.889814,50.892267],[4.889749,50.892234],[4.889635,50.892207],[4.889549,50.892192],[4.889425,50.892173],[4.889312,50.892164],[4.889195,50.892152],[4.889118,50.892136],[4.889065,50.892121],[4.888994,50.892093],[4.888925,50.892026],[4.888899,50.891979],[4.888865,50.891931],[4.888831,50.891901],[4.888781,50.891872],[4.888687,50.891845],[4.888654,50.891832],[4.888611,50.891811],[4.888556,50.891776],[4.888484,50.891746],[4.888436,50.891729],[4.888375,50.891708],[4.888304,50.891679],[4.888228,50.891628],[4.888199,50.891604],[4.888154,50.891561],[4.888093,50.891506],[4.88805,50.891471],[4.887979,50.891426],[4.887925,50.891397],[4.887849,50.891363],[4.887761,50.891326],[4.887681,50.891293],[4.887636,50.89127],[4.88758,50.89124],[4.887529,50.891206],[4.887496,50.891164],[4.887483,50.891128],[4.88748,50.891094],[4.887475,50.891045],[4.887456,50.891011],[4.887409,50.890974],[4.887346,50.890938],[4.887206,50.890854],[4.887184,50.890782],[4.887178,50.89066],[4.887162,50.890628],[4.886906,50.890468],[4.886853,50.890364],[4.886732,50.890224],[4.886541,50.890093],[4.886401,50.890002],[4.886186,50.889758],[4.885981,50.889713],[4.885717,50.889629],[4.88567,50.889516],[4.88539,50.88947],[4.885264,50.889319],[4.885273,50.889269],[4.885206,50.889223],[4.885099,50.889135],[4.885078,50.889022],[4.884775,50.888989],[4.884556,50.888765],[4.884081,50.888288],[4.883892,50.888037],[4.883871,50.887987],[4.883727,50.887728],[4.883568,50.887448],[4.883492,50.887325],[4.883433,50.887244],[4.88334,50.887141],[4.883292,50.887058],[4.883255,50.887038],[4.883165,50.886987],[4.883144,50.886973],[4.883101,50.886904],[4.883074,50.886873],[4.882929,50.886737],[4.882968,50.886645],[4.882973,50.886621],[4.882975,50.886547],[4.88298,50.88652],[4.882931,50.886475],[4.882839,50.8864],[4.88281,50.886398],[4.882625,50.886385],[4.882369,50.886316],[4.882168,50.886156],[4.88213,50.886118],[4.882122,50.886063],[4.88212,50.885996],[4.882101,50.885955],[4.882073,50.885909],[4.882058,50.88589],[4.882034,50.885866],[4.881933,50.88581],[4.881886,50.885783],[4.881875,50.885779],[4.881707,50.885705],[4.881208,50.885543],[4.880946,50.885804],[4.880945,50.885805],[4.880932,50.885815],[4.879787,50.885337],[4.879521,50.885269],[4.879312,50.885193],[4.87926,50.885182],[4.879118,50.885488],[4.87858,50.886722],[4.878492,50.88685],[4.87832,50.887341],[4.878262,50.887482],[4.878161,50.887733],[4.878061,50.887983],[4.877946,50.888309],[4.877904,50.888554],[4.877906,50.888764],[4.87791,50.888993],[4.877827,50.889186],[4.877619,50.889537],[4.877409,50.889851],[4.877226,50.890133],[4.877116,50.890349],[4.876928,50.890723],[4.876856,50.890774],[4.87668,50.890899],[4.876441,50.891058],[4.876128,50.891217],[4.875806,50.89137],[4.875293,50.891596],[4.874783,50.891902],[4.874495,50.892094],[4.874018,50.892423],[4.87363,50.892681],[4.87318,50.892955],[4.87279,50.893146],[4.872448,50.893243],[4.872317,50.893274],[4.871437,50.893183],[4.870193,50.893081],[4.868585,50.892959],[4.867609,50.892883],[4.867395,50.892862],[4.867251,50.892837],[4.867136,50.892806],[4.866975,50.892743],[4.866831,50.892675],[4.86643,50.892486],[4.866006,50.892327],[4.865513,50.892143],[4.865501,50.892166],[4.865243,50.892627],[4.865295,50.893196],[4.865152,50.893715],[4.865108,50.893804],[4.865098,50.893839],[4.865125,50.89389],[4.865093,50.894026],[4.865089,50.894083],[4.865102,50.89413],[4.865125,50.894169],[4.865104,50.894248],[4.865093,50.894312],[4.865063,50.894416],[4.864979,50.894566],[4.864833,50.894662],[4.864816,50.894691],[4.864802,50.894845],[4.864785,50.894918],[4.864781,50.895174],[4.864799,50.895292],[4.864797,50.895517],[4.864667,50.895684],[4.864424,50.895908],[4.864227,50.896054],[4.864237,50.896066],[4.863946,50.896305],[4.863887,50.896467],[4.863844,50.896557],[4.863793,50.896538],[4.863689,50.896503],[4.863564,50.89647],[4.863337,50.89643],[4.863153,50.896407],[4.862997,50.896385],[4.86264,50.896434],[4.862199,50.896516],[4.861869,50.896591],[4.86176,50.89663],[4.861552,50.896717],[4.861377,50.896782],[4.86132,50.896831],[4.861252,50.896948],[4.861194,50.897063],[4.861182,50.897081],[4.861147,50.89713],[4.861125,50.897158],[4.861089,50.897195],[4.861095,50.897197],[4.861084,50.897206],[4.860857,50.89736],[4.860828,50.897379],[4.860685,50.897456],[4.860564,50.897595],[4.860462,50.897729],[4.860348,50.897871],[4.860338,50.897885],[4.860079,50.898287],[4.859914,50.898547],[4.859908,50.898555],[4.859876,50.898585],[4.859863,50.898601],[4.859866,50.898635],[4.859846,50.898663],[4.859846,50.898666],[4.859905,50.899089],[4.860028,50.899138],[4.859975,50.899229],[4.859768,50.899107],[4.859633,50.899025],[4.859619,50.899018],[4.859344,50.898882],[4.858763,50.898862],[4.858731,50.898813],[4.858671,50.898743],[4.858629,50.898644],[4.85858,50.898543],[4.858543,50.898507],[4.858492,50.898533],[4.858334,50.898358],[4.858321,50.898348],[4.858284,50.898346],[4.858178,50.89838],[4.858082,50.898381],[4.858021,50.898464],[4.857887,50.898433],[4.857883,50.898432],[4.857788,50.898392],[4.857715,50.89838],[4.85764,50.898378],[4.857609,50.898377],[4.857558,50.898352],[4.857476,50.898312],[4.857398,50.898268],[4.857244,50.898174],[4.857103,50.898084],[4.857044,50.898036],[4.856978,50.897974],[4.856898,50.897883],[4.856796,50.897769],[4.856758,50.897733],[4.856686,50.897668],[4.856603,50.897602],[4.856454,50.897498],[4.856175,50.897317],[4.856017,50.89718],[4.855595,50.896811],[4.855434,50.896654],[4.855339,50.896684],[4.855276,50.896708],[4.854675,50.897068],[4.854801,50.897725],[4.854629,50.898214],[4.854616,50.898262],[4.854654,50.898292],[4.855358,50.898555],[4.85549,50.898614],[4.855543,50.898649],[4.855551,50.898692],[4.855524,50.89876],[4.855482,50.898825],[4.855185,50.899104],[4.854964,50.899243],[4.854476,50.899558],[4.854277,50.899623],[4.854036,50.899648],[4.853052,50.899742],[4.852351,50.899801],[4.85191,50.899807],[4.851268,50.899786],[4.851023,50.899745],[4.850841,50.899696],[4.850703,50.899632],[4.850167,50.899357],[4.849679,50.89914],[4.849404,50.899085],[4.849297,50.899088],[4.849196,50.899095],[4.849112,50.89911],[4.849039,50.899135],[4.848846,50.899228],[4.848873,50.899247],[4.849469,50.899574],[4.850278,50.900158],[4.850559,50.90036],[4.850658,50.900416],[4.85067,50.900423],[4.850839,50.900438],[4.85107,50.900503],[4.851082,50.90051],[4.851175,50.900597],[4.851309,50.900679],[4.851351,50.900719],[4.85138,50.900767],[4.851375,50.900814],[4.851301,50.900837],[4.851769,50.901541],[4.851796,50.901534],[4.851942,50.90169],[4.851947,50.901699],[4.85198,50.901687],[4.851948,50.901762],[4.851888,50.901881],[4.851873,50.90204],[4.851888,50.902201],[4.851941,50.902335],[4.851982,50.902406],[4.852118,50.902626],[4.852175,50.902673],[4.85238,50.902891],[4.850791,50.902579],[4.850767,50.902674],[4.850634,50.903158],[4.850652,50.903749],[4.85062,50.903872],[4.85017,50.904264],[4.849872,50.904531],[4.849726,50.90472],[4.849679,50.90479],[4.84959,50.904965],[4.849637,50.90514],[4.849724,50.905211],[4.850199,50.905501],[4.850523,50.905752],[4.850638,50.905875],[4.850641,50.905889],[4.850519,50.906187],[4.850399,50.906668],[4.850253,50.906871],[4.850388,50.906942],[4.850447,50.906976],[4.850674,50.907136],[4.850752,50.907186],[4.850844,50.907244],[4.850885,50.907267],[4.850986,50.907313],[4.851122,50.907367],[4.851376,50.90744],[4.85166,50.9075],[4.852012,50.907557],[4.852121,50.907564],[4.852123,50.907621],[4.852144,50.907986],[4.852137,50.908216],[4.852074,50.908472],[4.852042,50.908644],[4.852004,50.908902],[4.851857,50.909399],[4.851864,50.909428],[4.851779,50.909523],[4.85164,50.909742],[4.851498,50.909839],[4.851288,50.90989],[4.851082,50.909953],[4.850831,50.9102],[4.850592,50.910388],[4.8505,50.910444],[4.850335,50.910548],[4.849926,50.910721],[4.849164,50.910931],[4.849031,50.911015],[4.848926,50.911085],[4.848576,50.9111],[4.848062,50.911135],[4.847447,50.911211],[4.84673,50.911295]]]}}
