{"type":"Feature","properties":{"mrgid":2733,"name":"Sint-Truiden","placeType":"Town","source":"Belgium:belgium_municipalities"},"geometry":{"type":"Polygon","coordinates":[[[5.229729,50.876385],[5.229728,50.87639],[5.229752,50.876473],[5.229954,50.877051],[5.230042,50.877302],[5.228838,50.877159],[5.228246,50.877089],[5.226894,50.876934],[5.226601,50.876899],[5.226533,50.87689],[5.226472,50.876885],[5.225998,50.876829],[5.225434,50.876766],[5.22454,50.876666],[5.224461,50.876657],[5.224457,50.876558],[5.224442,50.876497],[5.224433,50.876418],[5.22439,50.876367],[5.224296,50.876281],[5.224284,50.876256],[5.224265,50.876204],[5.224283,50.876146],[5.22431,50.876105],[5.224344,50.876071],[5.224348,50.876067],[5.224367,50.875983],[5.224362,50.875972],[5.224288,50.875874],[5.224127,50.87576],[5.224102,50.875717],[5.224104,50.87567],[5.224112,50.875639],[5.224117,50.875628],[5.224074,50.875612],[5.224036,50.875586],[5.224001,50.875554],[5.223988,50.875515],[5.224044,50.875404],[5.224008,50.875352],[5.22402,50.875308],[5.224083,50.87521],[5.224096,50.875187],[5.224107,50.875117],[5.224107,50.875068],[5.224101,50.875034],[5.224095,50.874931],[5.224095,50.874907],[5.224119,50.874818],[5.224143,50.874779],[5.224166,50.874733],[5.224175,50.874722],[5.224193,50.874671],[5.224164,50.874628],[5.224151,50.874564],[5.224201,50.87454],[5.224207,50.874531],[5.224232,50.874519],[5.224301,50.874505],[5.224308,50.874453],[5.2243,50.874361],[5.224313,50.874256],[5.224251,50.873866],[5.224251,50.873799],[5.223896,50.873662],[5.223822,50.873677],[5.223666,50.87372],[5.223501,50.873761],[5.223208,50.873804],[5.223078,50.873816],[5.222843,50.87383],[5.222608,50.873837],[5.222494,50.873834],[5.222169,50.873864],[5.222089,50.873874],[5.221177,50.873985],[5.220865,50.874021],[5.220518,50.874061],[5.220487,50.874072],[5.220456,50.874091],[5.22038,50.874141],[5.220316,50.874187],[5.220235,50.874221],[5.22014,50.874231],[5.220064,50.874249],[5.219875,50.874323],[5.219811,50.874341],[5.219502,50.874371],[5.219351,50.874383],[5.219222,50.874399],[5.219154,50.874388],[5.219037,50.874385],[5.218733,50.874384],[5.218672,50.874356],[5.218566,50.874283],[5.218517,50.874246],[5.218486,50.874232],[5.218451,50.874232],[5.218401,50.874238],[5.218157,50.874313],[5.218027,50.874302],[5.217966,50.8743],[5.2179,50.874302],[5.217765,50.874352],[5.217658,50.8744],[5.217621,50.874418],[5.217566,50.87446],[5.217442,50.874468],[5.217254,50.874475],[5.217074,50.874486],[5.216941,50.874511],[5.216225,50.874708],[5.216096,50.874722],[5.215934,50.87471],[5.215839,50.874709],[5.215812,50.87472],[5.215688,50.874733],[5.215593,50.874725],[5.215504,50.874715],[5.21541,50.874698],[5.215288,50.874713],[5.215161,50.874733],[5.215015,50.874769],[5.214751,50.874808],[5.214606,50.874824],[5.214571,50.87482],[5.214455,50.874794],[5.214381,50.874803],[5.214339,50.874819],[5.21425,50.874871],[5.214035,50.874892],[5.214008,50.874897],[5.213865,50.874973],[5.213827,50.874997],[5.213809,50.875039],[5.213788,50.875056],[5.213745,50.87506],[5.213724,50.875058],[5.213665,50.875083],[5.213484,50.875099],[5.213443,50.875112],[5.21338,50.875162],[5.213346,50.875177],[5.213325,50.875199],[5.213306,50.875248],[5.213242,50.875274],[5.21312,50.87529],[5.212987,50.875306],[5.21294,50.875297],[5.212816,50.87529],[5.212705,50.875312],[5.212635,50.875315],[5.212568,50.875305],[5.212551,50.875311],[5.212545,50.875335],[5.212558,50.875356],[5.212475,50.875368],[5.212257,50.875389],[5.212153,50.875421],[5.212032,50.875416],[5.211888,50.875462],[5.211833,50.875484],[5.211766,50.8755],[5.21169,50.87549],[5.211643,50.875488],[5.211492,50.875468],[5.211376,50.87545],[5.211265,50.875414],[5.211195,50.875382],[5.211167,50.875379],[5.211121,50.875357],[5.211107,50.875354],[5.211055,50.875334],[5.210994,50.875323],[5.210932,50.875318],[5.210795,50.875316],[5.210657,50.875309],[5.210568,50.875276],[5.210439,50.875213],[5.210328,50.875197],[5.210264,50.875194],[5.2102,50.875187],[5.210185,50.875205],[5.21015,50.875221],[5.21007,50.875236],[5.210029,50.875239],[5.210001,50.875237],[5.209986,50.875243],[5.209983,50.875261],[5.209959,50.875266],[5.209897,50.875272],[5.209775,50.875271],[5.209744,50.875194],[5.209744,50.87519],[5.20975,50.875164],[5.209673,50.875157],[5.209662,50.875151],[5.209609,50.875118],[5.209476,50.875079],[5.209422,50.875068],[5.209369,50.875054],[5.209367,50.875057],[5.20935,50.875055],[5.209142,50.875041],[5.208939,50.875019],[5.208907,50.875031],[5.208899,50.875034],[5.208867,50.875048],[5.208807,50.875055],[5.208688,50.875065],[5.208384,50.875076],[5.208321,50.875072],[5.208245,50.875061],[5.208214,50.875069],[5.208123,50.875067],[5.208005,50.875068],[5.207885,50.875063],[5.20771,50.875076],[5.207595,50.875056],[5.207418,50.875004],[5.207367,50.874987],[5.207322,50.874988],[5.207261,50.874984],[5.207209,50.874977],[5.207225,50.874964],[5.20736,50.87481],[5.2074,50.874771],[5.207472,50.874715],[5.207544,50.874684],[5.207624,50.874665],[5.207707,50.874703],[5.207786,50.874634],[5.207903,50.87455],[5.208065,50.874375],[5.208264,50.874128],[5.208329,50.873389],[5.208447,50.872368],[5.208563,50.871423],[5.208664,50.870828],[5.20877,50.870298],[5.208785,50.870023],[5.208774,50.869819],[5.208815,50.869248],[5.208846,50.869151],[5.209151,50.868648],[5.209239,50.868406],[5.209371,50.868012],[5.209422,50.86777],[5.209542,50.866984],[5.209568,50.866702],[5.209594,50.866289],[5.209534,50.866086],[5.209454,50.865782],[5.209354,50.86554],[5.209174,50.865006],[5.208867,50.864115],[5.208397,50.862899],[5.208326,50.862616],[5.208262,50.862328],[5.207859,50.862165],[5.207269,50.861974],[5.206653,50.861724],[5.206537,50.861676],[5.205939,50.861333],[5.205804,50.861257],[5.205581,50.861139],[5.20534,50.860999],[5.20496,50.860793],[5.204583,50.860591],[5.204069,50.860307],[5.20336,50.859919],[5.20334,50.859912],[5.20274,50.859585],[5.202369,50.859401],[5.202287,50.859305],[5.202242,50.859013],[5.202233,50.858929],[5.20228,50.858814],[5.202341,50.858812],[5.202341,50.858771],[5.202371,50.858765],[5.202376,50.85874],[5.202422,50.858712],[5.202546,50.858519],[5.202554,50.858502],[5.20264,50.858273],[5.202679,50.858135],[5.202687,50.85812],[5.202748,50.85804],[5.202953,50.857735],[5.202957,50.857728],[5.202961,50.857701],[5.202968,50.85766],[5.202841,50.856476],[5.202836,50.856438],[5.202817,50.856241],[5.202787,50.8559],[5.202769,50.855427],[5.202769,50.855391],[5.202702,50.855392],[5.202375,50.855398],[5.202356,50.855399],[5.201992,50.855401],[5.201641,50.855402],[5.201125,50.855402],[5.200739,50.855397],[5.200548,50.855396],[5.200324,50.855392],[5.200189,50.85539],[5.199829,50.855385],[5.199541,50.85538],[5.199505,50.855379],[5.199281,50.85538],[5.199199,50.855381],[5.19905,50.855381],[5.19893,50.855379],[5.19887,50.855379],[5.198681,50.855378],[5.198498,50.855376],[5.19844,50.855379],[5.198421,50.85538],[5.198121,50.855382],[5.19776,50.855379],[5.197407,50.855376],[5.197267,50.855376],[5.197044,50.855376],[5.196784,50.855373],[5.196746,50.855373],[5.196659,50.855371],[5.196382,50.855365],[5.196127,50.855356],[5.196186,50.855033],[5.196226,50.854871],[5.196225,50.854856],[5.196211,50.854757],[5.19636,50.8547],[5.196375,50.854676],[5.196382,50.854673],[5.19639,50.854639],[5.193729,50.854645],[5.193614,50.854645],[5.193558,50.854639],[5.193475,50.854643],[5.193416,50.854653],[5.193318,50.854657],[5.193145,50.85465],[5.193066,50.854655],[5.192757,50.85468],[5.19264,50.854687],[5.192463,50.854713],[5.192273,50.85472],[5.192181,50.85473],[5.192071,50.854716],[5.192023,50.854713],[5.191781,50.854729],[5.191682,50.854745],[5.191619,50.85475],[5.191566,50.854749],[5.191417,50.854763],[5.191293,50.854739],[5.191218,50.854751],[5.191111,50.854768],[5.190985,50.854771],[5.190889,50.854763],[5.190683,50.8547],[5.190471,50.85466],[5.190329,50.854624],[5.19021,50.854619],[5.190077,50.854662],[5.189936,50.854663],[5.189897,50.854657],[5.189763,50.854608],[5.189684,50.85457],[5.189408,50.854517],[5.189112,50.85445],[5.18905,50.854442],[5.18877,50.854413],[5.18851,50.854388],[5.188363,50.85439],[5.188224,50.854387],[5.188085,50.854401],[5.188052,50.8544],[5.187929,50.854388],[5.187793,50.854393],[5.187629,50.854375],[5.187545,50.854384],[5.187567,50.854489],[5.187559,50.85457],[5.187545,50.854603],[5.187511,50.854778],[5.187527,50.854881],[5.187507,50.85512],[5.187485,50.855244],[5.187418,50.855457],[5.187391,50.855553],[5.187383,50.855582],[5.187354,50.855707],[5.187334,50.855769],[5.18728,50.855901],[5.187274,50.855928],[5.187253,50.85605],[5.187126,50.856033],[5.187068,50.856024],[5.186871,50.856],[5.186857,50.856063],[5.186805,50.856348],[5.186612,50.856948],[5.186528,50.857306],[5.186424,50.857878],[5.186383,50.858135],[5.186362,50.858234],[5.186311,50.858385],[5.186206,50.858784],[5.18619,50.858849],[5.186167,50.858958],[5.186138,50.859127],[5.186106,50.859272],[5.186094,50.859322],[5.186055,50.859602],[5.18603,50.85982],[5.186008,50.859994],[5.185979,50.860143],[5.185949,50.860307],[5.185908,50.860429],[5.185895,50.860455],[5.185788,50.860448],[5.184153,50.860287],[5.183986,50.860221],[5.18364,50.860044],[5.183351,50.859867],[5.183028,50.859648],[5.183002,50.859644],[5.182872,50.859615],[5.182736,50.859623],[5.182658,50.859617],[5.18258,50.859577],[5.182423,50.859481],[5.18236,50.859437],[5.182159,50.859316],[5.18215,50.859304],[5.182171,50.859244],[5.182119,50.859229],[5.182013,50.859209],[5.181943,50.85918],[5.181685,50.859058],[5.181675,50.859052],[5.181425,50.858906],[5.181291,50.858838],[5.181097,50.858736],[5.180855,50.858617],[5.180725,50.858547],[5.180588,50.858468],[5.180531,50.858439],[5.180486,50.858426],[5.180435,50.858403],[5.180139,50.858328],[5.179977,50.858264],[5.179882,50.858236],[5.179823,50.858221],[5.179634,50.858189],[5.179242,50.858115],[5.178983,50.858062],[5.178467,50.858],[5.177985,50.85798],[5.177933,50.857979],[5.177553,50.857919],[5.177436,50.857907],[5.177131,50.857912],[5.176966,50.857924],[5.176938,50.857928],[5.176924,50.857921],[5.176665,50.85789],[5.176579,50.857907],[5.176553,50.857909],[5.176475,50.857909],[5.176282,50.857887],[5.176101,50.857874],[5.175737,50.857863],[5.175406,50.857841],[5.17537,50.857837],[5.175309,50.857829],[5.175173,50.857816],[5.175098,50.857812],[5.174999,50.857811],[5.174869,50.857815],[5.174539,50.857787],[5.174333,50.857773],[5.174129,50.857754],[5.173976,50.857749],[5.173725,50.857731],[5.173544,50.857713],[5.173472,50.857705],[5.173293,50.857679],[5.173136,50.857651],[5.172973,50.85763],[5.17288,50.857617],[5.17281,50.857581],[5.172734,50.857548],[5.172658,50.857507],[5.172485,50.857488],[5.172173,50.857422],[5.171981,50.857396],[5.17195,50.857391],[5.17169,50.857343],[5.171611,50.857324],[5.171341,50.857249],[5.171132,50.857198],[5.170913,50.857129],[5.170533,50.85702],[5.170428,50.85698],[5.170061,50.856879],[5.169945,50.856847],[5.169894,50.856834],[5.169442,50.856711],[5.169103,50.856617],[5.168773,50.856526],[5.168241,50.856376],[5.167419,50.856157],[5.167306,50.856126],[5.167317,50.856111],[5.166796,50.856004],[5.166241,50.855889],[5.165781,50.855789],[5.165571,50.855752],[5.165509,50.855694],[5.165408,50.855496],[5.16535,50.855371],[5.165334,50.855347],[5.165236,50.855212],[5.165222,50.855195],[5.165158,50.855139],[5.165034,50.85505],[5.165007,50.855018],[5.164996,50.855003],[5.164979,50.854965],[5.164942,50.854864],[5.164891,50.854784],[5.164867,50.854753],[5.164813,50.854699],[5.164758,50.854656],[5.164733,50.85462],[5.164701,50.854517],[5.164678,50.854481],[5.164624,50.854421],[5.164578,50.854377],[5.16452,50.854315],[5.164503,50.854276],[5.164513,50.854196],[5.164522,50.854148],[5.164535,50.854114],[5.16456,50.85401],[5.164557,50.853961],[5.164551,50.85394],[5.164545,50.853932],[5.164538,50.853918],[5.164523,50.853913],[5.164498,50.853912],[5.163992,50.85401],[5.163633,50.854076],[5.16352,50.85408],[5.163483,50.854057],[5.163442,50.854038],[5.16343,50.854037],[5.163403,50.854032],[5.163384,50.85404],[5.163297,50.854096],[5.163241,50.854126],[5.163151,50.854121],[5.163102,50.854101],[5.163089,50.854099],[5.163068,50.854079],[5.163061,50.854052],[5.16307,50.853998],[5.163069,50.853982],[5.162944,50.853879],[5.162912,50.853817],[5.162874,50.853625],[5.16286,50.853584],[5.162884,50.85344],[5.16289,50.85334],[5.16288,50.853269],[5.162828,50.853179],[5.162613,50.852978],[5.1626,50.852951],[5.16258,50.852859],[5.162587,50.852806],[5.162741,50.852657],[5.162745,50.852539],[5.162707,50.85247],[5.162602,50.852431],[5.162542,50.852428],[5.162405,50.852433],[5.162217,50.852532],[5.162143,50.852555],[5.162092,50.852557],[5.161782,50.852541],[5.161712,50.852554],[5.161651,50.852563],[5.161617,50.85258],[5.161484,50.852655],[5.161455,50.852663],[5.161426,50.852667],[5.161342,50.852666],[5.161048,50.852641],[5.160892,50.852648],[5.160728,50.852677],[5.16065,50.852681],[5.160624,50.85268],[5.160536,50.852639],[5.160459,50.852554],[5.160435,50.852529],[5.160173,50.852399],[5.16005,50.852321],[5.160016,50.852303],[5.159934,50.852264],[5.159823,50.852218],[5.159798,50.852207],[5.159765,50.852194],[5.159679,50.852186],[5.159591,50.852176],[5.159541,50.852168],[5.159406,50.852157],[5.159338,50.852136],[5.159212,50.852103],[5.15918,50.852097],[5.159045,50.852096],[5.158997,50.852087],[5.158952,50.852064],[5.158948,50.852049],[5.158975,50.852004],[5.159,50.851978],[5.158981,50.851953],[5.158938,50.851931],[5.158829,50.851909],[5.15866,50.851834],[5.158488,50.851847],[5.158442,50.85185],[5.158379,50.85184],[5.158215,50.851806],[5.157865,50.851737],[5.157841,50.851763],[5.157549,50.852163],[5.157505,50.852235],[5.1575,50.852275],[5.157522,50.852298],[5.157796,50.852492],[5.157858,50.852512],[5.157915,50.852522],[5.157944,50.85253],[5.158187,50.852457],[5.15829,50.852455],[5.158458,50.852592],[5.158486,50.852637],[5.158492,50.852687],[5.158486,50.852724],[5.158469,50.852739],[5.158404,50.852801],[5.158398,50.852817],[5.15839,50.852828],[5.158363,50.852857],[5.158369,50.852877],[5.158382,50.852901],[5.158544,50.852965],[5.158605,50.853016],[5.158686,50.853103],[5.159032,50.853541],[5.159101,50.85362],[5.159404,50.853944],[5.159656,50.85422],[5.160067,50.854689],[5.160232,50.854903],[5.16028,50.855104],[5.160286,50.855268],[5.16024,50.855329],[5.160051,50.855598],[5.159974,50.855706],[5.159818,50.85585],[5.159774,50.855971],[5.159696,50.856134],[5.15962,50.856213],[5.15957,50.856281],[5.159336,50.856426],[5.159306,50.856443],[5.159003,50.856642],[5.158587,50.856597],[5.158586,50.856595],[5.158392,50.85659],[5.158216,50.856576],[5.158052,50.856563],[5.157934,50.856569],[5.157746,50.856628],[5.157686,50.856648],[5.15742,50.856697],[5.157337,50.856723],[5.157234,50.856736],[5.157066,50.856762],[5.157,50.856768],[5.15688,50.856735],[5.156814,50.856703],[5.156637,50.856635],[5.15657,50.856638],[5.156542,50.856663],[5.156378,50.856808],[5.15628,50.856853],[5.156166,50.85688],[5.156058,50.856903],[5.155719,50.856956],[5.15559,50.856965],[5.155367,50.856977],[5.155365,50.856983],[5.1548,50.857027],[5.154643,50.857035],[5.154441,50.857042],[5.154354,50.857064],[5.154035,50.857234],[5.153957,50.857276],[5.153821,50.85733],[5.153793,50.857334],[5.153717,50.857326],[5.15349,50.857269],[5.153382,50.857235],[5.153306,50.857214],[5.153286,50.857219],[5.153277,50.857235],[5.153267,50.857266],[5.15327,50.857344],[5.153299,50.857525],[5.153297,50.857567],[5.153252,50.857585],[5.15323,50.857587],[5.152978,50.857498],[5.152728,50.857406],[5.152638,50.857374],[5.152572,50.857371],[5.152507,50.8574],[5.152491,50.857506],[5.15249,50.857665],[5.152468,50.857724],[5.152415,50.857732],[5.152272,50.857737],[5.152171,50.857737],[5.15199,50.857801],[5.151869,50.857858],[5.151794,50.85788],[5.151349,50.857976],[5.151074,50.858035],[5.150947,50.858157],[5.150852,50.858266],[5.150797,50.858306],[5.150732,50.858308],[5.150653,50.858296],[5.150631,50.858274],[5.150602,50.858238],[5.150588,50.858131],[5.150576,50.858069],[5.150504,50.858021],[5.150479,50.858013],[5.150362,50.858088],[5.150399,50.857958],[5.15028,50.857861],[5.150193,50.857875],[5.15005,50.85791],[5.149895,50.857942],[5.149844,50.857971],[5.149805,50.857988],[5.149727,50.857997],[5.149374,50.85801],[5.148929,50.858032],[5.148798,50.858042],[5.148548,50.858056],[5.148445,50.858063],[5.148464,50.857753],[5.148379,50.857751],[5.148361,50.85761],[5.148344,50.857482],[5.148327,50.857385],[5.148293,50.857196],[5.148263,50.857092],[5.148247,50.85704],[5.148211,50.856882],[5.148152,50.856641],[5.148125,50.856527],[5.148083,50.856413],[5.148056,50.856361],[5.147998,50.856236],[5.147659,50.855602],[5.147524,50.855555],[5.147219,50.855451],[5.146981,50.855369],[5.147222,50.855212],[5.147612,50.854958],[5.147863,50.854794],[5.148172,50.854594],[5.148494,50.854385],[5.148537,50.854342],[5.148679,50.854104],[5.148588,50.85403],[5.148613,50.853981],[5.148543,50.853966],[5.148669,50.853709],[5.148687,50.853673],[5.148809,50.853418],[5.148489,50.853369],[5.148222,50.85333],[5.148239,50.853234],[5.148244,50.853198],[5.148265,50.853055],[5.14811,50.853052],[5.148106,50.853003],[5.148099,50.852919],[5.148087,50.852759],[5.148079,50.852661],[5.148067,50.852523],[5.148058,50.852416],[5.147905,50.85247],[5.147585,50.852537],[5.146884,50.852682],[5.146855,50.852401],[5.146824,50.852115],[5.146822,50.852092],[5.1468,50.851887],[5.146708,50.851868],[5.146572,50.851839],[5.146501,50.851828],[5.14623,50.852058],[5.146044,50.852228],[5.145989,50.852289],[5.145826,50.852502],[5.145682,50.852691],[5.145617,50.852778],[5.145512,50.852714],[5.145215,50.852539],[5.145228,50.852527],[5.144919,50.852334],[5.144848,50.85229],[5.144559,50.852111],[5.144471,50.852057],[5.144199,50.851884],[5.143501,50.851478],[5.1434,50.851427],[5.142913,50.851231],[5.142569,50.851093],[5.142003,50.850881],[5.141747,50.850782],[5.141379,50.85064],[5.141109,50.850535],[5.140988,50.850488],[5.140694,50.850373],[5.140527,50.850305],[5.140309,50.850225],[5.139926,50.85008],[5.139617,50.849963],[5.139516,50.849926],[5.139486,50.849913],[5.139336,50.849835],[5.139116,50.84972],[5.138862,50.849594],[5.138769,50.849548],[5.138762,50.849574],[5.138564,50.849462],[5.138219,50.849267],[5.1379,50.849087],[5.137627,50.848934],[5.137543,50.848887],[5.137746,50.848788],[5.137931,50.848698],[5.13807,50.84863],[5.137751,50.848451],[5.137491,50.848308],[5.137414,50.848266],[5.13709,50.848097],[5.137274,50.848009],[5.137536,50.847876],[5.137865,50.847709],[5.138136,50.847553],[5.138315,50.847305],[5.138373,50.847097],[5.138437,50.846874],[5.138468,50.846791],[5.13849,50.846739],[5.138567,50.846605],[5.138676,50.846489],[5.138943,50.846312],[5.139915,50.846003],[5.140365,50.845866],[5.140376,50.845876],[5.140776,50.845751],[5.140982,50.845692],[5.141142,50.845657],[5.141224,50.845642],[5.141397,50.845616],[5.141785,50.845583],[5.14201,50.845578],[5.142399,50.845611],[5.142747,50.845634],[5.14299,50.845641],[5.143293,50.845646],[5.143588,50.845658],[5.14368,50.845657],[5.143902,50.845649],[5.144177,50.845632],[5.144245,50.845601],[5.144293,50.845496],[5.144315,50.84546],[5.144368,50.845339],[5.144501,50.845222],[5.144491,50.845138],[5.144288,50.844693],[5.143599,50.843454],[5.143601,50.843454],[5.143377,50.843071],[5.143383,50.843063],[5.143076,50.842574],[5.142892,50.842273],[5.142701,50.841962],[5.142715,50.841955],[5.142307,50.84143],[5.142189,50.841367],[5.141489,50.84071],[5.141497,50.840707],[5.1414,50.840605],[5.141483,50.840567],[5.140814,50.840089],[5.140796,50.840077],[5.140633,50.839972],[5.140541,50.839915],[5.140248,50.839737],[5.140202,50.839709],[5.140102,50.839682],[5.139962,50.839689],[5.139922,50.839679],[5.13986,50.839648],[5.139829,50.839631],[5.139772,50.839602],[5.139692,50.839548],[5.139659,50.839528],[5.139582,50.839488],[5.13937,50.83939],[5.139336,50.839373],[5.139256,50.839322],[5.139102,50.839205],[5.139022,50.839144],[5.13902,50.839133],[5.139013,50.839117],[5.139014,50.83909],[5.138998,50.839036],[5.138995,50.838986],[5.139001,50.838935],[5.139023,50.838859],[5.139015,50.838792],[5.138987,50.838724],[5.138836,50.838494],[5.138768,50.838373],[5.138725,50.838303],[5.13847,50.83803],[5.138157,50.837691],[5.137663,50.837155],[5.137357,50.836825],[5.136694,50.836111],[5.136524,50.835926],[5.135859,50.83521],[5.135894,50.835151],[5.135843,50.835089],[5.135772,50.835],[5.13568,50.834868],[5.135373,50.833949],[5.135344,50.833862],[5.135313,50.833751],[5.135306,50.833709],[5.135305,50.83371],[5.135303,50.833675],[5.135311,50.833508],[5.135307,50.833415],[5.135258,50.833323],[5.135207,50.833157],[5.135189,50.833058],[5.135189,50.833019],[5.135215,50.832896],[5.135233,50.832844],[5.135267,50.832694],[5.135284,50.832514],[5.135285,50.832349],[5.135279,50.832247],[5.135236,50.832106],[5.135228,50.832084],[5.135205,50.83202],[5.135197,50.832006],[5.135094,50.831821],[5.135038,50.831716],[5.13498,50.831579],[5.134938,50.831465],[5.134847,50.831229],[5.13472,50.83084],[5.134597,50.830494],[5.134565,50.830393],[5.134551,50.830339],[5.13456,50.83029],[5.13455,50.830233],[5.134612,50.830212],[5.134619,50.83017],[5.13463,50.830114],[5.134659,50.830008],[5.134674,50.829943],[5.134677,50.829925],[5.134701,50.829797],[5.134756,50.829618],[5.134796,50.829496],[5.134815,50.829484],[5.134834,50.829422],[5.134899,50.82925],[5.134951,50.829144],[5.13498,50.829085],[5.135082,50.828967],[5.135095,50.828926],[5.135105,50.828891],[5.135152,50.828835],[5.135213,50.828733],[5.135315,50.828584],[5.135353,50.828528],[5.135363,50.828499],[5.135361,50.82844],[5.135384,50.828428],[5.135387,50.828418],[5.135357,50.828327],[5.135343,50.828281],[5.135355,50.828276],[5.135343,50.828186],[5.135346,50.828172],[5.135374,50.828066],[5.13541,50.827929],[5.135392,50.827742],[5.135409,50.827664],[5.135413,50.827635],[5.135418,50.827569],[5.135395,50.827561],[5.135408,50.827467],[5.135407,50.827408],[5.135416,50.827235],[5.135549,50.827187],[5.136063,50.826999],[5.13616,50.826955],[5.136168,50.826975],[5.13638,50.826888],[5.136743,50.826769],[5.136874,50.826718],[5.136892,50.826723],[5.136932,50.826702],[5.136903,50.826656],[5.136609,50.826463],[5.136258,50.826221],[5.136778,50.825925],[5.137229,50.825654],[5.137633,50.825408],[5.137666,50.825387],[5.138218,50.825045],[5.138114,50.824992],[5.137675,50.824741],[5.137301,50.824517],[5.13694,50.824293],[5.136666,50.8241],[5.136142,50.823669],[5.135688,50.823306],[5.135478,50.82302],[5.135399,50.822935],[5.135331,50.82285],[5.135257,50.822749],[5.135148,50.822667],[5.135057,50.822605],[5.135025,50.822579],[5.134834,50.822453],[5.134647,50.822335],[5.134465,50.8222],[5.134477,50.822194],[5.133851,50.821761],[5.133568,50.821564],[5.133479,50.821498],[5.133133,50.821231],[5.132902,50.821045],[5.132787,50.820946],[5.132221,50.820437],[5.132114,50.820316],[5.132067,50.820252],[5.132007,50.820155],[5.13191,50.819945],[5.13176,50.819499],[5.131572,50.818993],[5.13156,50.818963],[5.131517,50.818922],[5.131437,50.818578],[5.131398,50.818439],[5.131376,50.818377],[5.131351,50.818313],[5.131264,50.818143],[5.131078,50.817853],[5.131071,50.817855],[5.13092,50.817639],[5.130824,50.817473],[5.130778,50.817371],[5.130756,50.817302],[5.130726,50.817167],[5.130721,50.817105],[5.13069,50.816905],[5.130619,50.81665],[5.130584,50.816564],[5.130529,50.816448],[5.130462,50.816343],[5.130362,50.816246],[5.130379,50.816165],[5.130443,50.815978],[5.130452,50.815928],[5.13063,50.814939],[5.130498,50.814581],[5.130556,50.81455],[5.130845,50.814454],[5.131815,50.814177],[5.131977,50.814131],[5.13212,50.814042],[5.132398,50.813869],[5.132698,50.81368],[5.1333,50.8133],[5.133514,50.813165],[5.133713,50.813039],[5.134054,50.812823],[5.134292,50.812669],[5.134544,50.812511],[5.134605,50.812472],[5.134729,50.812394],[5.134982,50.812234],[5.135006,50.812219],[5.135055,50.812185],[5.135227,50.812081],[5.135272,50.812052],[5.135508,50.811888],[5.135798,50.811713],[5.136056,50.811575],[5.136223,50.8115],[5.136419,50.811429],[5.136711,50.811325],[5.137104,50.811127],[5.137689,50.810902],[5.138006,50.810777],[5.138469,50.810597],[5.139137,50.81034],[5.139668,50.810137],[5.13969,50.810127],[5.140417,50.809848],[5.14181,50.80942],[5.142737,50.809049],[5.145139,50.809397],[5.146943,50.810875],[5.148572,50.811447],[5.149314,50.811789],[5.149401,50.811824],[5.149699,50.811959],[5.149949,50.811655],[5.149975,50.81158],[5.150136,50.811336],[5.150234,50.811231],[5.150427,50.811009],[5.15056,50.810876],[5.150841,50.810604],[5.150972,50.8105],[5.151161,50.810362],[5.151756,50.809929],[5.15185,50.809861],[5.152186,50.809625],[5.15231,50.809477],[5.152251,50.809454],[5.15149,50.809132],[5.150803,50.808853],[5.150773,50.808866],[5.150005,50.808529],[5.149205,50.808163],[5.148048,50.807584],[5.147105,50.807057],[5.146566,50.806726],[5.14661,50.806726],[5.146043,50.806369],[5.145699,50.806143],[5.14465,50.805391],[5.143904,50.804795],[5.14335,50.804319],[5.143181,50.804228],[5.142213,50.803279],[5.141859,50.802909],[5.139554,50.800236],[5.139143,50.799805],[5.138848,50.799528],[5.138544,50.799009],[5.13661,50.796719],[5.132804,50.79225],[5.13275,50.792184],[5.132644,50.792081],[5.132523,50.792085],[5.132169,50.7921],[5.131658,50.792134],[5.131285,50.792141],[5.130836,50.792152],[5.128835,50.792214],[5.128603,50.792226],[5.126551,50.792278],[5.126335,50.792282],[5.12593,50.792293],[5.124632,50.792328],[5.124558,50.792325],[5.122376,50.792378],[5.122268,50.792381],[5.122166,50.792385],[5.121084,50.792438],[5.120454,50.792469],[5.120454,50.792467],[5.119704,50.792495],[5.119106,50.792505],[5.119106,50.792506],[5.118454,50.792501],[5.118102,50.792528],[5.117411,50.792567],[5.117378,50.792542],[5.117102,50.792329],[5.115882,50.791402],[5.115658,50.790869],[5.115439,50.790897],[5.114734,50.789781],[5.114701,50.789727],[5.114261,50.788983],[5.113973,50.788488],[5.113969,50.78848],[5.113759,50.788029],[5.11364,50.787766],[5.113637,50.787761],[5.113209,50.787206],[5.11307,50.787226],[5.11292,50.787069],[5.112783,50.786935],[5.112294,50.786478],[5.111958,50.786172],[5.111856,50.786159],[5.111799,50.786153],[5.111713,50.786141],[5.111518,50.786101],[5.111198,50.786023],[5.110743,50.786153],[5.110349,50.785712],[5.110511,50.785617],[5.109747,50.784878],[5.109248,50.784397],[5.109377,50.784342],[5.108522,50.783307],[5.109073,50.783053],[5.108696,50.782483],[5.108588,50.782314],[5.108581,50.782307],[5.108105,50.781921],[5.108102,50.781918],[5.107542,50.781075],[5.107421,50.780898],[5.107846,50.78072],[5.10764,50.780471],[5.107504,50.780295],[5.107162,50.779833],[5.106577,50.779054],[5.106883,50.77898],[5.107339,50.778866],[5.107606,50.778801],[5.108213,50.778649],[5.1084,50.7786],[5.10843,50.778592],[5.109281,50.778385],[5.108663,50.777589],[5.108619,50.777537],[5.108579,50.777486],[5.10882,50.776901],[5.108864,50.776804],[5.108872,50.776786],[5.109045,50.776437],[5.10912,50.776304],[5.109263,50.776044],[5.109293,50.775983],[5.109309,50.775943],[5.109324,50.775904],[5.109378,50.775794],[5.109418,50.775712],[5.109415,50.775711],[5.109573,50.775384],[5.109639,50.775304],[5.109743,50.775168],[5.109779,50.775118],[5.109963,50.774823],[5.110075,50.774637],[5.110167,50.774491],[5.110573,50.773831],[5.110649,50.773855],[5.110698,50.773873],[5.110774,50.773754],[5.111084,50.773285],[5.1111,50.77326],[5.111161,50.773149],[5.111186,50.773098],[5.11125,50.772964],[5.111283,50.772848],[5.111322,50.772725],[5.111349,50.772639],[5.111355,50.77262],[5.111393,50.772487],[5.111397,50.772474],[5.111435,50.772348],[5.111194,50.771809],[5.111166,50.771757],[5.110963,50.771538],[5.111068,50.771491],[5.111122,50.771468],[5.111183,50.771452],[5.111222,50.771437],[5.110938,50.771175],[5.111297,50.770765],[5.111653,50.770586],[5.11167,50.770603],[5.112786,50.770042],[5.112773,50.770022],[5.112658,50.769868],[5.112441,50.769574],[5.112428,50.769556],[5.112425,50.769558],[5.11232,50.769415],[5.112472,50.769362],[5.112706,50.769283],[5.112958,50.769196],[5.113264,50.769093],[5.113543,50.768996],[5.114418,50.768697],[5.113291,50.767425],[5.113313,50.767405],[5.114179,50.766623],[5.114225,50.766578],[5.1141,50.766453],[5.113894,50.766249],[5.114108,50.766062],[5.114732,50.76551],[5.114855,50.765402],[5.114874,50.765385],[5.11491,50.765353],[5.115031,50.765246],[5.115124,50.765161],[5.114985,50.765044],[5.114945,50.765012],[5.115646,50.764727],[5.116046,50.764566],[5.116291,50.764469],[5.116357,50.764442],[5.116595,50.764347],[5.117167,50.764118],[5.117328,50.764266],[5.117481,50.764414],[5.117658,50.764588],[5.117995,50.764922],[5.118548,50.764702],[5.118795,50.764606],[5.119273,50.76442],[5.119526,50.764339],[5.119787,50.764259],[5.12027,50.764107],[5.12074,50.763959],[5.12077,50.763992],[5.121097,50.764336],[5.121158,50.764388],[5.121184,50.764405],[5.121383,50.764559],[5.121417,50.764585],[5.122157,50.765107],[5.122301,50.765259],[5.12323,50.764951],[5.124149,50.764644],[5.124384,50.764566],[5.125013,50.764364],[5.125642,50.764169],[5.126422,50.763925],[5.127446,50.765289],[5.128541,50.76496],[5.128562,50.764989],[5.128606,50.764975],[5.128753,50.764932],[5.129172,50.764806],[5.129271,50.764948],[5.129008,50.765011],[5.130054,50.766099],[5.130181,50.766235],[5.130456,50.766547],[5.130462,50.766554],[5.130945,50.766994],[5.131315,50.767338],[5.133007,50.76686],[5.133524,50.767516],[5.135055,50.767235],[5.135439,50.767166],[5.136323,50.767009],[5.137402,50.766815],[5.137059,50.766079],[5.137183,50.76605],[5.137348,50.766056],[5.137557,50.766068],[5.137762,50.76609],[5.13824,50.766137],[5.138261,50.766176],[5.138319,50.766191],[5.138384,50.766192],[5.13857,50.766211],[5.13869,50.766249],[5.13882,50.766322],[5.138878,50.766366],[5.138877,50.766419],[5.138865,50.766478],[5.138881,50.766633],[5.138881,50.766728],[5.13889,50.766816],[5.138902,50.76685],[5.140014,50.766557],[5.140934,50.766307],[5.140982,50.766293],[5.141786,50.766023],[5.142185,50.765896],[5.142332,50.765842],[5.142512,50.765644],[5.142667,50.765566],[5.142921,50.765559],[5.143018,50.765544],[5.143215,50.765494],[5.143431,50.765427],[5.143442,50.765438],[5.143628,50.765375],[5.144603,50.764958],[5.144888,50.764833],[5.145288,50.764669],[5.145552,50.764596],[5.145822,50.764557],[5.145822,50.764542],[5.145952,50.764531],[5.146143,50.76451],[5.146338,50.764498],[5.146549,50.764493],[5.146552,50.764512],[5.146689,50.764519],[5.146972,50.76455],[5.147239,50.764594],[5.148166,50.764787],[5.148165,50.7648],[5.148398,50.764848],[5.148576,50.764882],[5.148862,50.764938],[5.148926,50.764946],[5.149147,50.764964],[5.14929,50.764974],[5.14933,50.764977],[5.149378,50.764982],[5.149706,50.765002],[5.149823,50.765007],[5.149833,50.765011],[5.149975,50.765018],[5.149998,50.765019],[5.150259,50.76503],[5.150352,50.765034],[5.15084,50.765047],[5.150996,50.765052],[5.152284,50.764889],[5.153304,50.764761],[5.153259,50.764714],[5.152846,50.76414],[5.155154,50.763367],[5.156918,50.762776],[5.157244,50.763101],[5.157475,50.763336],[5.157724,50.763195],[5.157941,50.763068],[5.158365,50.762824],[5.158459,50.762761],[5.159212,50.763292],[5.159515,50.763511],[5.159786,50.763711],[5.160319,50.764101],[5.160437,50.76419],[5.160523,50.764259],[5.160857,50.764533],[5.161334,50.764921],[5.161555,50.765104],[5.161638,50.765169],[5.161777,50.765291],[5.161802,50.765321],[5.16192,50.765396],[5.162069,50.765538],[5.162606,50.766053],[5.162949,50.766381],[5.162989,50.766353],[5.163006,50.766372],[5.163101,50.76648],[5.163192,50.766581],[5.163259,50.766654],[5.163297,50.766696],[5.163381,50.766791],[5.163521,50.766946],[5.163602,50.767037],[5.163806,50.766877],[5.163879,50.76682],[5.163888,50.766813],[5.164217,50.767038],[5.164366,50.76714],[5.164636,50.767325],[5.164682,50.767356],[5.164796,50.76728],[5.164877,50.767223],[5.165369,50.766879],[5.165258,50.76682],[5.165085,50.76673],[5.164695,50.766526],[5.164462,50.766404],[5.164433,50.766388],[5.164699,50.766164],[5.164739,50.76613],[5.165174,50.765759],[5.165629,50.765979],[5.16587,50.766096],[5.166286,50.766297],[5.166468,50.766384],[5.166805,50.766548],[5.167067,50.766674],[5.167131,50.766705],[5.167306,50.766594],[5.167778,50.766292],[5.168236,50.765999],[5.168544,50.76621],[5.16899,50.766513],[5.169217,50.76667],[5.169652,50.766399],[5.170142,50.766097],[5.170463,50.766259],[5.170506,50.766281],[5.170541,50.766301],[5.171321,50.766805],[5.171428,50.766875],[5.172072,50.767291],[5.17299,50.766835],[5.173213,50.766723],[5.173781,50.767233],[5.174167,50.767059],[5.174452,50.766928],[5.175306,50.767521],[5.17561,50.767395],[5.17584,50.767301],[5.176579,50.766996],[5.176729,50.76696],[5.177405,50.766635],[5.177534,50.766778],[5.17766,50.766901],[5.177688,50.766928],[5.177739,50.76706],[5.177826,50.767177],[5.177828,50.767271],[5.177883,50.767337],[5.177944,50.767398],[5.177984,50.767458],[5.178022,50.767516],[5.178055,50.767589],[5.178152,50.767735],[5.178197,50.767824],[5.178315,50.767946],[5.178331,50.768051],[5.178366,50.768156],[5.178376,50.768185],[5.178449,50.768252],[5.178611,50.768404],[5.178968,50.76874],[5.17904,50.768808],[5.179092,50.768788],[5.180184,50.768378],[5.180289,50.76834],[5.180295,50.768337],[5.18032,50.768326],[5.181082,50.76794],[5.18119,50.767887],[5.181244,50.76786],[5.182133,50.767539],[5.182172,50.767571],[5.183269,50.767126],[5.183321,50.767132],[5.18344,50.767083],[5.183508,50.767053],[5.183534,50.767076],[5.183853,50.767332],[5.183878,50.767352],[5.183958,50.767416],[5.18408,50.767361],[5.184247,50.767287],[5.184296,50.767267],[5.184281,50.767252],[5.184194,50.767176],[5.184128,50.767117],[5.184282,50.767055],[5.184339,50.767031],[5.184495,50.766964],[5.184677,50.766889],[5.184755,50.766855],[5.185241,50.766643],[5.185441,50.766558],[5.185641,50.766471],[5.185795,50.766402],[5.185853,50.766379],[5.185867,50.766394],[5.186134,50.766663],[5.186262,50.766791],[5.186283,50.766813],[5.186413,50.766943],[5.186548,50.767079],[5.186595,50.767126],[5.186754,50.767057],[5.186768,50.76705],[5.186902,50.766991],[5.187014,50.767085],[5.187135,50.767183],[5.187186,50.767227],[5.18734,50.767151],[5.187445,50.767107],[5.187567,50.767054],[5.188035,50.766847],[5.188091,50.766821],[5.188119,50.766808],[5.188259,50.766731],[5.188295,50.766714],[5.188322,50.766716],[5.188383,50.766729],[5.188359,50.766703],[5.188262,50.766577],[5.188234,50.766543],[5.188072,50.766379],[5.188022,50.766329],[5.188016,50.766323],[5.187893,50.766216],[5.187876,50.766201],[5.187829,50.766162],[5.187725,50.766075],[5.18787,50.766016],[5.187959,50.765979],[5.18807,50.765931],[5.188228,50.765864],[5.188285,50.765839],[5.18831,50.765829],[5.188365,50.765807],[5.18845,50.765769],[5.188505,50.765746],[5.188635,50.765691],[5.188744,50.765644],[5.188799,50.765622],[5.188878,50.765705],[5.188938,50.765767],[5.189026,50.765862],[5.189122,50.765965],[5.189157,50.766002],[5.189327,50.765965],[5.189378,50.765953],[5.189486,50.76593],[5.189597,50.765905],[5.189619,50.7659],[5.189682,50.765886],[5.189934,50.765828],[5.189967,50.765821],[5.190365,50.765732],[5.19045,50.765713],[5.190555,50.76569],[5.190589,50.765682],[5.190779,50.76564],[5.191037,50.765582],[5.191072,50.765573],[5.191182,50.765549],[5.191351,50.765511],[5.191311,50.765455],[5.191288,50.765425],[5.191134,50.765214],[5.191114,50.765187],[5.191012,50.765047],[5.190938,50.764945],[5.190982,50.764924],[5.191096,50.764871],[5.191287,50.764786],[5.191506,50.764686],[5.191901,50.764713],[5.192571,50.764759],[5.192837,50.764776],[5.19312,50.764798],[5.193617,50.764831],[5.193712,50.764794],[5.19412,50.764633],[5.194289,50.764567],[5.194372,50.764533],[5.194334,50.764492],[5.194278,50.764431],[5.194221,50.764372],[5.194205,50.764355],[5.194372,50.764276],[5.194574,50.764177],[5.194709,50.764111],[5.194981,50.763979],[5.195084,50.76393],[5.195117,50.763913],[5.195142,50.763902],[5.19515,50.763912],[5.195375,50.764135],[5.19549,50.764244],[5.195611,50.764364],[5.195711,50.76446],[5.195785,50.764421],[5.195892,50.764365],[5.195987,50.764314],[5.196005,50.764326],[5.196192,50.764538],[5.196288,50.764651],[5.196657,50.764508],[5.196771,50.764604],[5.196823,50.764649],[5.197223,50.764983],[5.197552,50.765255],[5.197202,50.76545],[5.197359,50.765572],[5.197964,50.766039],[5.198143,50.765945],[5.198238,50.76589],[5.198405,50.76602],[5.198447,50.766052],[5.198763,50.766297],[5.198901,50.766403],[5.19893,50.766427],[5.19931,50.766772],[5.199447,50.766932],[5.199861,50.767416],[5.200001,50.767582],[5.200072,50.767668],[5.200177,50.767795],[5.200387,50.767712],[5.200612,50.767633],[5.200634,50.767625],[5.200815,50.767942],[5.200888,50.768045],[5.20124,50.768502],[5.201529,50.768362],[5.201698,50.768266],[5.201774,50.76823],[5.202062,50.768096],[5.202288,50.767997],[5.20252,50.767898],[5.202567,50.76789],[5.202806,50.767785],[5.202542,50.767633],[5.202596,50.767533],[5.202606,50.767512],[5.202648,50.767497],[5.202917,50.767411],[5.202959,50.767391],[5.202964,50.767376],[5.203006,50.767337],[5.20316,50.767294],[5.203209,50.767254],[5.20341,50.767222],[5.203483,50.767207],[5.203699,50.76722],[5.203716,50.767222],[5.203711,50.767422],[5.203707,50.76749],[5.203753,50.767545],[5.203766,50.767618],[5.203784,50.767757],[5.203787,50.767757],[5.203821,50.768024],[5.203791,50.768025],[5.203819,50.76812],[5.203823,50.768137],[5.203907,50.768705],[5.20438,50.768619],[5.204501,50.768599],[5.205022,50.769183],[5.204819,50.769257],[5.205517,50.769897],[5.205547,50.769925],[5.205557,50.769933],[5.205761,50.770078],[5.206078,50.769956],[5.206176,50.770035],[5.2064,50.770209],[5.207175,50.76972],[5.20696,50.769576],[5.207498,50.769211],[5.207809,50.769472],[5.208299,50.769875],[5.209042,50.769816],[5.209139,50.769781],[5.20937,50.769698],[5.209461,50.769668],[5.209603,50.769617],[5.209705,50.769582],[5.210024,50.769966],[5.210722,50.769757],[5.210898,50.770021],[5.211696,50.769698],[5.211645,50.769645],[5.211719,50.769627],[5.211763,50.769615],[5.211984,50.769563],[5.212664,50.769404],[5.213264,50.769839],[5.213564,50.770057],[5.213823,50.77025],[5.21385,50.770163],[5.213862,50.770015],[5.213862,50.769972],[5.21387,50.769846],[5.213877,50.769685],[5.213854,50.769435],[5.213832,50.769292],[5.213832,50.76917],[5.214508,50.769024],[5.214757,50.76961],[5.214856,50.769607],[5.215676,50.769564],[5.215741,50.769566],[5.216162,50.769544],[5.216158,50.769547],[5.216247,50.769542],[5.216515,50.769532],[5.21668,50.769524],[5.21696,50.76951],[5.217251,50.769496],[5.217812,50.769471],[5.218096,50.769458],[5.218385,50.769444],[5.218509,50.769439],[5.218663,50.769431],[5.218708,50.769429],[5.21896,50.769416],[5.219384,50.769397],[5.219515,50.769391],[5.219776,50.769379],[5.21984,50.769375],[5.220077,50.769364],[5.22021,50.769358],[5.220245,50.769357],[5.220775,50.769333],[5.220989,50.769323],[5.221588,50.769296],[5.221756,50.769288],[5.222402,50.769257],[5.222408,50.769254],[5.223244,50.769218],[5.223655,50.769199],[5.223905,50.769186],[5.224115,50.769177],[5.224437,50.769161],[5.224802,50.769143],[5.224814,50.769142],[5.225015,50.769118],[5.226402,50.768933],[5.226694,50.768896],[5.227144,50.768835],[5.227239,50.768822],[5.227692,50.768762],[5.227907,50.768733],[5.228073,50.768711],[5.228917,50.7686],[5.229201,50.768564],[5.229237,50.768562],[5.229308,50.768561],[5.229733,50.768546],[5.230012,50.768539],[5.230304,50.768528],[5.230617,50.768521],[5.230687,50.76852],[5.230821,50.768517],[5.232608,50.768457],[5.232705,50.768211],[5.232813,50.76788],[5.232866,50.767732],[5.232882,50.767686],[5.232971,50.767439],[5.233019,50.767306],[5.233111,50.767066],[5.23323,50.766685],[5.233314,50.766408],[5.233406,50.766026],[5.233439,50.765858],[5.233491,50.765536],[5.23351,50.765382],[5.233563,50.764995],[5.233575,50.764906],[5.233604,50.76471],[5.233601,50.764583],[5.233577,50.764346],[5.233549,50.763978],[5.233551,50.763651],[5.233571,50.763438],[5.233595,50.763333],[5.233631,50.763223],[5.23371,50.763077],[5.233901,50.762689],[5.233963,50.762494],[5.233965,50.76219],[5.233823,50.762004],[5.233808,50.761928],[5.233706,50.761512],[5.233857,50.761087],[5.233868,50.761034],[5.233889,50.760955],[5.233924,50.760802],[5.233963,50.760633],[5.234024,50.760426],[5.234101,50.760178],[5.234112,50.760129],[5.234137,50.759979],[5.234147,50.759881],[5.23415,50.759832],[5.234168,50.759728],[5.234183,50.759672],[5.234209,50.75955],[5.234253,50.759437],[5.23429,50.759329],[5.234332,50.758897],[5.234363,50.758635],[5.234364,50.758469],[5.234408,50.758245],[5.234446,50.758185],[5.234471,50.75814],[5.234499,50.758078],[5.234601,50.757913],[5.234695,50.757704],[5.234707,50.757675],[5.234768,50.757521],[5.234824,50.757395],[5.234898,50.75724],[5.234905,50.757224],[5.234919,50.757194],[5.235015,50.756972],[5.235077,50.756739],[5.235184,50.756332],[5.235211,50.756231],[5.235273,50.756039],[5.23546,50.755802],[5.235616,50.755609],[5.235702,50.755505],[5.235928,50.755215],[5.236216,50.754733],[5.23668,50.753981],[5.236809,50.753695],[5.236866,50.753629],[5.23699,50.753576],[5.237247,50.75332],[5.237373,50.753191],[5.237712,50.752894],[5.237758,50.752855],[5.237823,50.752796],[5.237897,50.752698],[5.238083,50.752467],[5.23816,50.752397],[5.238366,50.752205],[5.238498,50.752088],[5.238561,50.752032],[5.238577,50.752021],[5.238692,50.751931],[5.238839,50.751779],[5.238875,50.75174],[5.23888,50.75173],[5.239043,50.751571],[5.239238,50.751382],[5.239382,50.75123],[5.239651,50.750932],[5.239808,50.750757],[5.239865,50.750691],[5.239904,50.750648],[5.239927,50.750583],[5.239946,50.750535],[5.240002,50.750367],[5.240019,50.750316],[5.240131,50.74999],[5.240148,50.749961],[5.240311,50.749664],[5.240478,50.749536],[5.240741,50.749358],[5.240831,50.749305],[5.240876,50.749277],[5.24107,50.749156],[5.241402,50.748959],[5.241516,50.748888],[5.241939,50.749177],[5.242128,50.74931],[5.24225,50.749393],[5.242472,50.749243],[5.243182,50.749642],[5.24364,50.749373],[5.244634,50.749969],[5.245369,50.749385],[5.245546,50.749242],[5.24561,50.749194],[5.245645,50.749216],[5.245738,50.749276],[5.245796,50.749313],[5.2459,50.749379],[5.246117,50.749515],[5.246362,50.749673],[5.246597,50.749805],[5.246813,50.749925],[5.246895,50.749966],[5.246928,50.74998],[5.246981,50.750003],[5.246902,50.750063],[5.247267,50.750304],[5.247432,50.750218],[5.248114,50.749852],[5.249059,50.750309],[5.249264,50.750154],[5.249547,50.749935],[5.250574,50.750547],[5.251091,50.750226],[5.25158,50.750574],[5.252021,50.750247],[5.252258,50.750415],[5.253251,50.749824],[5.253305,50.749861],[5.25349,50.75],[5.254025,50.750397],[5.254295,50.750594],[5.254614,50.750418],[5.254825,50.75058],[5.254999,50.750716],[5.255187,50.750859],[5.255626,50.751198],[5.256294,50.750886],[5.256427,50.750821],[5.256613,50.750775],[5.256686,50.750756],[5.256665,50.750732],[5.256326,50.750293],[5.256286,50.75022],[5.25652,50.750116],[5.256814,50.749993],[5.256985,50.74992],[5.257439,50.74972],[5.25748,50.749724],[5.257526,50.749733],[5.257868,50.749639],[5.258027,50.749728],[5.258163,50.749933],[5.258279,50.750106],[5.25836,50.750217],[5.2584,50.750213],[5.258554,50.75043],[5.258551,50.750471],[5.258632,50.750556],[5.258763,50.750722],[5.258843,50.750828],[5.258891,50.75095],[5.259146,50.751181],[5.259336,50.751325],[5.259988,50.751697],[5.260044,50.751709],[5.260574,50.752067],[5.260723,50.75214],[5.260916,50.752212],[5.261057,50.75224],[5.261417,50.752337],[5.262231,50.752623],[5.262414,50.7527],[5.26281,50.752801],[5.262947,50.752784],[5.263159,50.752594],[5.263289,50.752558],[5.263335,50.752489],[5.263574,50.752401],[5.263724,50.752405],[5.263812,50.752301],[5.263952,50.752164],[5.264061,50.752108],[5.264104,50.752128],[5.265724,50.752991],[5.265733,50.752986],[5.26597,50.752888],[5.266178,50.752542],[5.266418,50.752501],[5.266745,50.752344],[5.267069,50.752269],[5.267288,50.752199],[5.267702,50.752154],[5.26799,50.752143],[5.268383,50.752013],[5.268573,50.749994],[5.268575,50.749958],[5.26885,50.749972],[5.269131,50.749997],[5.270567,50.749876],[5.271207,50.749818],[5.271258,50.749848],[5.272472,50.750516],[5.272546,50.750387],[5.272722,50.749999],[5.272761,50.749916],[5.272938,50.749708],[5.273042,50.749513],[5.273063,50.749446],[5.27326,50.749206],[5.273632,50.749148],[5.27392,50.749096],[5.274214,50.749086],[5.274513,50.749116],[5.274718,50.749159],[5.274792,50.749178],[5.27496,50.749262],[5.275067,50.749395],[5.275407,50.749859],[5.275359,50.749873],[5.275509,50.750026],[5.275525,50.75002],[5.275691,50.750206],[5.275971,50.750462],[5.275911,50.750487],[5.275666,50.750632],[5.274901,50.751063],[5.274688,50.751179],[5.274648,50.751201],[5.274251,50.751388],[5.274081,50.751447],[5.273931,50.751493],[5.273488,50.751616],[5.273424,50.751633],[5.272985,50.751751],[5.272711,50.751825],[5.272407,50.751907],[5.272193,50.751963],[5.271179,50.752238],[5.270768,50.752355],[5.270451,50.75246],[5.269966,50.752624],[5.269253,50.752872],[5.269204,50.75289],[5.269027,50.75295],[5.268444,50.753157],[5.268382,50.75318],[5.268203,50.75325],[5.268105,50.753301],[5.268018,50.753347],[5.267783,50.753502],[5.267689,50.753571],[5.267561,50.753688],[5.267465,50.753798],[5.267213,50.7541],[5.266881,50.754503],[5.266698,50.754697],[5.266249,50.755118],[5.266135,50.755227],[5.266053,50.755306],[5.265907,50.755426],[5.26588,50.755519],[5.266003,50.755541],[5.266084,50.755536],[5.266512,50.755489],[5.266815,50.75545],[5.266823,50.755493],[5.26686,50.755572],[5.266877,50.755679],[5.267013,50.756261],[5.267034,50.756583],[5.267037,50.756639],[5.267054,50.756905],[5.266348,50.757067],[5.266355,50.757248],[5.266407,50.757383],[5.266653,50.757496],[5.267049,50.757936],[5.26707,50.757998],[5.267071,50.758],[5.267394,50.758817],[5.26746,50.758971],[5.267475,50.759002],[5.267562,50.759165],[5.267769,50.75959],[5.267724,50.759889],[5.267738,50.760107],[5.267843,50.76032],[5.268203,50.760879],[5.268435,50.761202],[5.268578,50.761595],[5.2687,50.761865],[5.268824,50.762079],[5.268966,50.762198],[5.269128,50.762425],[5.269306,50.762617],[5.269472,50.762975],[5.269629,50.763259],[5.269591,50.763268],[5.269747,50.763573],[5.269853,50.7639],[5.26981,50.764088],[5.269867,50.764166],[5.269902,50.764195],[5.269889,50.764202],[5.269914,50.764223],[5.269923,50.764325],[5.269778,50.764403],[5.269689,50.764453],[5.269522,50.76456],[5.269446,50.764572],[5.26927,50.764664],[5.268914,50.764854],[5.268816,50.764908],[5.268939,50.765031],[5.268994,50.765086],[5.269244,50.765344],[5.269405,50.765513],[5.26955,50.765644],[5.269597,50.765649],[5.269862,50.765826],[5.270381,50.766197],[5.270431,50.766233],[5.270757,50.766508],[5.270901,50.766637],[5.271083,50.766813],[5.271236,50.76704],[5.271408,50.767279],[5.27151,50.767488],[5.271582,50.767643],[5.271634,50.767866],[5.271736,50.768046],[5.271725,50.768243],[5.271743,50.76849],[5.27178,50.768766],[5.271706,50.769117],[5.271669,50.769227],[5.271709,50.769517],[5.271714,50.769558],[5.271501,50.769548],[5.27145,50.769533],[5.271398,50.76953],[5.271295,50.769515],[5.270529,50.76944],[5.270214,50.769746],[5.270215,50.769875],[5.270216,50.769922],[5.270224,50.770175],[5.270375,50.770333],[5.270286,50.770344],[5.269974,50.77038],[5.26962,50.770026],[5.269576,50.769982],[5.269469,50.769996],[5.269159,50.770039],[5.269138,50.770043],[5.269031,50.77006],[5.268754,50.770137],[5.268194,50.770274],[5.268019,50.770318],[5.268002,50.770322],[5.267812,50.770377],[5.26751,50.770496],[5.267476,50.770516],[5.267442,50.770544],[5.267429,50.770606],[5.267568,50.770626],[5.267587,50.770625],[5.267933,50.77062],[5.268078,50.770633],[5.26811,50.77063],[5.268196,50.770642],[5.26837,50.77067],[5.268519,50.770699],[5.268672,50.770749],[5.26884,50.770815],[5.269009,50.770945],[5.269081,50.770986],[5.269238,50.771115],[5.269328,50.771211],[5.269388,50.771268],[5.269498,50.771375],[5.269508,50.771384],[5.269578,50.771448],[5.269999,50.771835],[5.270231,50.772048],[5.270383,50.772181],[5.270683,50.772454],[5.270807,50.772569],[5.270941,50.772691],[5.271204,50.77293],[5.27134,50.773053],[5.271456,50.773159],[5.27166,50.773305],[5.271726,50.773348],[5.271754,50.773367],[5.271934,50.77348],[5.27215,50.773593],[5.272485,50.77375],[5.272588,50.773789],[5.272471,50.773872],[5.272399,50.773932],[5.271632,50.774048],[5.271292,50.774053],[5.271001,50.774039],[5.270727,50.77407],[5.27041,50.774193],[5.27013,50.774309],[5.269973,50.774095],[5.269583,50.77421],[5.269098,50.774356],[5.268972,50.77439],[5.268883,50.774414],[5.268684,50.774466],[5.26836,50.774545],[5.267761,50.774684],[5.267386,50.77476],[5.267215,50.774796],[5.266932,50.774863],[5.266847,50.774884],[5.266739,50.774909],[5.266449,50.77497],[5.266309,50.774967],[5.266205,50.774983],[5.266134,50.775035],[5.266075,50.775054],[5.266003,50.775103],[5.266017,50.775159],[5.266399,50.775522],[5.266461,50.775577],[5.266559,50.775639],[5.266671,50.775711],[5.266916,50.775818],[5.267171,50.77589],[5.267251,50.775907],[5.267838,50.776015],[5.268072,50.776042],[5.268275,50.77605],[5.2686,50.776048],[5.268943,50.776038],[5.269101,50.776039],[5.269287,50.776058],[5.26931,50.776062],[5.269883,50.776216],[5.270615,50.77643],[5.270686,50.776452],[5.270858,50.776505],[5.271569,50.776688],[5.272026,50.776787],[5.272089,50.776807],[5.272215,50.776856],[5.272441,50.776956],[5.272526,50.776986],[5.272541,50.776991],[5.272656,50.777033],[5.27269,50.777001],[5.272796,50.776925],[5.273017,50.776771],[5.273133,50.776823],[5.273624,50.777056],[5.273815,50.77715],[5.273929,50.777223],[5.27393,50.777223],[5.274418,50.777419],[5.274623,50.777236],[5.274662,50.777203],[5.275131,50.777341],[5.275402,50.777421],[5.275469,50.77744],[5.275531,50.777459],[5.275727,50.777518],[5.275853,50.777554],[5.27596,50.777585],[5.27641,50.777714],[5.276534,50.777749],[5.276778,50.777819],[5.27705,50.777898],[5.277329,50.777976],[5.277485,50.77802],[5.277851,50.778126],[5.278458,50.778303],[5.278872,50.778431],[5.278897,50.778434],[5.279212,50.778515],[5.279318,50.778547],[5.279635,50.778619],[5.280104,50.778716],[5.282131,50.779138],[5.282242,50.779201],[5.282388,50.779185],[5.282562,50.779194],[5.283135,50.779084],[5.283435,50.779016],[5.283606,50.778978],[5.28371,50.778955],[5.28425,50.77885],[5.284472,50.778799],[5.284595,50.778771],[5.284657,50.77875],[5.284736,50.778789],[5.285031,50.778896],[5.285291,50.779017],[5.285324,50.779041],[5.285379,50.779126],[5.285425,50.779157],[5.285451,50.779164],[5.285569,50.779142],[5.285667,50.779139],[5.285698,50.779149],[5.285762,50.779345],[5.28581,50.779365],[5.285893,50.779375],[5.28594,50.779389],[5.286,50.779439],[5.28601,50.779499],[5.285986,50.77958],[5.285984,50.779607],[5.286101,50.779784],[5.286125,50.779807],[5.286237,50.779819],[5.286296,50.779847],[5.286296,50.779871],[5.286259,50.779902],[5.286168,50.779956],[5.286144,50.779981],[5.286152,50.780031],[5.286295,50.780177],[5.286359,50.780244],[5.286342,50.780292],[5.286333,50.780308],[5.2863,50.780335],[5.286269,50.780364],[5.286272,50.780404],[5.286459,50.780582],[5.286494,50.780641],[5.286453,50.780795],[5.286452,50.780847],[5.286474,50.780862],[5.286622,50.780889],[5.286662,50.780912],[5.286661,50.781017],[5.28663,50.781082],[5.286553,50.781156],[5.286551,50.781178],[5.286684,50.781235],[5.286722,50.781276],[5.2867,50.781298],[5.28662,50.781332],[5.286592,50.781355],[5.286586,50.781397],[5.286622,50.78161],[5.286662,50.781661],[5.286744,50.78172],[5.28678,50.781745],[5.286811,50.781814],[5.286793,50.781848],[5.28675,50.782009],[5.286696,50.782106],[5.28667,50.782153],[5.286681,50.782186],[5.286825,50.782277],[5.286872,50.78233],[5.286867,50.782368],[5.286819,50.782408],[5.286766,50.78246],[5.286729,50.782514],[5.28672,50.782653],[5.286725,50.782678],[5.286733,50.782709],[5.286743,50.78275],[5.286786,50.78283],[5.286799,50.782889],[5.286768,50.782981],[5.286686,50.783053],[5.286506,50.783061],[5.286473,50.783081],[5.286467,50.783114],[5.286524,50.783194],[5.286593,50.783276],[5.28661,50.783329],[5.286555,50.783436],[5.286528,50.783455],[5.286432,50.783489],[5.286401,50.783498],[5.286342,50.783545],[5.286306,50.7836],[5.28629,50.783634],[5.286267,50.783659],[5.286234,50.783672],[5.286199,50.783671],[5.286117,50.783604],[5.286027,50.783592],[5.286004,50.783595],[5.285865,50.783701],[5.285848,50.78375],[5.285929,50.783781],[5.285981,50.7839],[5.2859,50.783952],[5.285828,50.783976],[5.28548,50.784203],[5.285085,50.784472],[5.284982,50.784566],[5.284914,50.784664],[5.284903,50.784693],[5.284905,50.784793],[5.2846,50.784962],[5.284545,50.784992],[5.283166,50.785841],[5.282444,50.786298],[5.282416,50.786315],[5.28242,50.786366],[5.282509,50.78642],[5.28253,50.786448],[5.282497,50.786598],[5.282324,50.786712],[5.282307,50.786746],[5.2823,50.786785],[5.282326,50.786825],[5.282364,50.786883],[5.282367,50.786911],[5.282309,50.786995],[5.282293,50.787168],[5.282282,50.787198],[5.282269,50.78722],[5.282121,50.787333],[5.282088,50.787375],[5.282047,50.787515],[5.28204,50.787549],[5.282032,50.787598],[5.282045,50.787612],[5.282277,50.787637],[5.282321,50.787728],[5.282346,50.787812],[5.282345,50.787812],[5.282249,50.787848],[5.282267,50.787913],[5.282223,50.788252],[5.282167,50.788396],[5.2821,50.788506],[5.281991,50.788608],[5.281925,50.788667],[5.281856,50.788723],[5.28168,50.788863],[5.281395,50.78909],[5.28132,50.789125],[5.281221,50.789159],[5.280988,50.789235],[5.280813,50.78931],[5.280623,50.789379],[5.280456,50.789468],[5.280316,50.789563],[5.28025,50.78964],[5.280243,50.789815],[5.280136,50.789939],[5.279992,50.790251],[5.279991,50.790541],[5.279963,50.790787],[5.279939,50.790958],[5.279873,50.791202],[5.279825,50.791392],[5.279738,50.791434],[5.279637,50.791834],[5.279645,50.791873],[5.27929,50.791862],[5.278527,50.791881],[5.27838,50.791815],[5.27829,50.791795],[5.27816,50.791755],[5.278049,50.791725],[5.277918,50.791697],[5.277692,50.791659],[5.277691,50.791648],[5.277406,50.791644],[5.276948,50.791631],[5.276345,50.79166],[5.276128,50.791675],[5.275394,50.791705],[5.275057,50.791689],[5.275021,50.791677],[5.274772,50.791614],[5.27451,50.791548],[5.274353,50.791512],[5.274099,50.791495],[5.274011,50.791497],[5.273544,50.791535],[5.273332,50.791544],[5.273119,50.791544],[5.272911,50.791532],[5.272704,50.791512],[5.271782,50.791393],[5.271563,50.791375],[5.271372,50.79137],[5.271162,50.791377],[5.270653,50.791433],[5.270497,50.791456],[5.270102,50.791495],[5.269604,50.791552],[5.269204,50.791598],[5.26908,50.791612],[5.268901,50.791631],[5.268436,50.791663],[5.268347,50.791669],[5.267976,50.791687],[5.267795,50.791693],[5.267545,50.791703],[5.267131,50.791726],[5.266937,50.791759],[5.266654,50.791812],[5.266144,50.791898],[5.265543,50.79202],[5.265304,50.79217],[5.265117,50.792185],[5.26473,50.792193],[5.264388,50.792171],[5.264028,50.792136],[5.26379,50.792112],[5.263682,50.792098],[5.263683,50.79209],[5.263159,50.792055],[5.260803,50.791922],[5.260333,50.791895],[5.260102,50.791882],[5.260095,50.791891],[5.259263,50.791846],[5.258785,50.791826],[5.258583,50.791818],[5.257997,50.791813],[5.257929,50.791812],[5.256851,50.791834],[5.256485,50.791842],[5.255591,50.79186],[5.255559,50.791853],[5.254265,50.791848],[5.252091,50.79183],[5.251946,50.791828],[5.251942,50.79185],[5.25171,50.793003],[5.251983,50.792945],[5.252201,50.793367],[5.252247,50.793457],[5.251459,50.793776],[5.251795,50.794066],[5.250538,50.794877],[5.250754,50.795207],[5.250918,50.795458],[5.25103,50.79586],[5.251102,50.79611],[5.251397,50.797112],[5.251741,50.797328],[5.253012,50.79776],[5.252623,50.798299],[5.252724,50.798332],[5.252295,50.799082],[5.252492,50.799154],[5.251753,50.800203],[5.251688,50.800186],[5.251373,50.800657],[5.251157,50.800968],[5.251143,50.800988],[5.251545,50.801107],[5.252088,50.801266],[5.252078,50.801288],[5.251562,50.802377],[5.251796,50.802403],[5.25191,50.802415],[5.251904,50.802441],[5.251662,50.803432],[5.252016,50.803479],[5.250402,50.807175],[5.250384,50.807219],[5.251332,50.807477],[5.251297,50.807519],[5.25092,50.807959],[5.251081,50.807999],[5.25212,50.80826],[5.252148,50.808267],[5.252063,50.808386],[5.252009,50.808464],[5.252063,50.808461],[5.252311,50.808448],[5.25252,50.808511],[5.253482,50.808684],[5.253788,50.808739],[5.253847,50.808752],[5.254073,50.808788],[5.255308,50.808998],[5.255246,50.809372],[5.255118,50.810181],[5.255082,50.810453],[5.25507,50.810523],[5.255023,50.810919],[5.25501,50.810943],[5.255049,50.810987],[5.255066,50.811293],[5.255055,50.811423],[5.255072,50.811427],[5.255033,50.811631],[5.255021,50.811706],[5.254821,50.811938],[5.254327,50.812464],[5.253786,50.813028],[5.253234,50.8136],[5.253223,50.813649],[5.253273,50.813671],[5.253562,50.813766],[5.253864,50.813867],[5.254151,50.813969],[5.254391,50.814054],[5.254479,50.814085],[5.254893,50.814254],[5.255378,50.814436],[5.255562,50.81449],[5.2556,50.814502],[5.255648,50.814518],[5.256055,50.814638],[5.256461,50.814758],[5.256844,50.814884],[5.257201,50.815002],[5.257817,50.815208],[5.258003,50.815276],[5.258187,50.815354],[5.258406,50.815445],[5.258878,50.815649],[5.259303,50.815843],[5.25947,50.815912],[5.259601,50.815958],[5.259947,50.816067],[5.260448,50.816218],[5.260628,50.816259],[5.260705,50.81626],[5.26118,50.816402],[5.261387,50.816479],[5.262305,50.816861],[5.262771,50.817065],[5.262882,50.817117],[5.263011,50.817177],[5.263278,50.8173],[5.26374,50.817518],[5.263851,50.817567],[5.264088,50.817667],[5.264241,50.817732],[5.264351,50.817771],[5.264571,50.817842],[5.264639,50.817865],[5.264707,50.817884],[5.264961,50.817952],[5.265435,50.818084],[5.26576,50.818287],[5.265754,50.818292],[5.266102,50.818477],[5.266518,50.818669],[5.266947,50.818876],[5.266946,50.818879],[5.26708,50.818944],[5.267297,50.81905],[5.26753,50.819164],[5.267725,50.819259],[5.26815,50.819466],[5.268391,50.819564],[5.268986,50.819905],[5.269145,50.819991],[5.269208,50.820022],[5.269461,50.820146],[5.269739,50.820278],[5.269913,50.82035],[5.270055,50.820402],[5.270211,50.820446],[5.270885,50.820614],[5.270943,50.820631],[5.271143,50.820689],[5.271356,50.820755],[5.271423,50.820777],[5.271617,50.820854],[5.271713,50.820896],[5.271883,50.82097],[5.272224,50.821118],[5.27267,50.821314],[5.27286,50.821408],[5.273441,50.821733],[5.273605,50.821829],[5.273801,50.821933],[5.273923,50.822023],[5.274037,50.822066],[5.274254,50.822149],[5.274433,50.822243],[5.274591,50.822334],[5.274692,50.822391],[5.274634,50.82245],[5.274754,50.822524],[5.275394,50.822869],[5.275443,50.82289],[5.275528,50.82293],[5.275765,50.823036],[5.275995,50.82314],[5.276624,50.823416],[5.276612,50.823429],[5.276611,50.823431],[5.27665,50.823448],[5.276767,50.823497],[5.276811,50.823519],[5.277201,50.823733],[5.277211,50.823723],[5.277282,50.823765],[5.277432,50.823853],[5.277424,50.823869],[5.277159,50.824393],[5.27704,50.824628],[5.277229,50.824707],[5.277441,50.824791],[5.277476,50.824808],[5.277791,50.824995],[5.278088,50.825187],[5.27811,50.825201],[5.278615,50.825506],[5.278664,50.825532],[5.27866,50.82554],[5.278992,50.825704],[5.279313,50.825863],[5.27934,50.825874],[5.279675,50.82599],[5.279711,50.826002],[5.280038,50.826083],[5.280412,50.826184],[5.280557,50.82605],[5.280912,50.825726],[5.281269,50.825402],[5.281446,50.825485],[5.281608,50.825562],[5.281918,50.825712],[5.282055,50.825782],[5.282099,50.825801],[5.282178,50.825833],[5.282287,50.825882],[5.282479,50.825977],[5.282646,50.826069],[5.282792,50.826151],[5.282891,50.826208],[5.282981,50.82626],[5.283009,50.826277],[5.283068,50.826313],[5.283121,50.826346],[5.283188,50.826386],[5.283286,50.82645],[5.283382,50.82652],[5.283728,50.8268],[5.283838,50.826926],[5.28394,50.827045],[5.284095,50.827229],[5.284392,50.827599],[5.28454,50.827788],[5.284627,50.827903],[5.284692,50.827991],[5.284999,50.8284],[5.285055,50.828493],[5.28509,50.828552],[5.285182,50.828685],[5.28526,50.8288],[5.285273,50.828817],[5.28534,50.828906],[5.285413,50.829002],[5.285459,50.829071],[5.285572,50.829228],[5.285646,50.829331],[5.285713,50.829422],[5.286079,50.829926],[5.286388,50.830364],[5.286527,50.830556],[5.286578,50.830625],[5.286652,50.830728],[5.286705,50.830826],[5.286652,50.830833],[5.286521,50.830908],[5.28636,50.83104],[5.286282,50.83109],[5.286189,50.831145],[5.285865,50.831325],[5.285851,50.831315],[5.285752,50.831373],[5.285625,50.831459],[5.285623,50.831468],[5.285547,50.831519],[5.285446,50.831623],[5.284963,50.832322],[5.284871,50.832483],[5.284775,50.832655],[5.284765,50.832673],[5.284672,50.832824],[5.284571,50.832989],[5.28449,50.833127],[5.284403,50.833273],[5.284306,50.833435],[5.284237,50.833552],[5.284113,50.833749],[5.284002,50.833948],[5.283775,50.834329],[5.283658,50.834517],[5.283569,50.834661],[5.283513,50.834748],[5.283426,50.834894],[5.283346,50.835008],[5.283235,50.835169],[5.283174,50.83527],[5.283002,50.835577],[5.282848,50.835809],[5.282714,50.836042],[5.282596,50.836256],[5.282421,50.836554],[5.282417,50.836553],[5.282375,50.83661],[5.282275,50.836751],[5.282241,50.836811],[5.282144,50.836901],[5.282107,50.836945],[5.282123,50.836959],[5.281981,50.837107],[5.281861,50.837165],[5.281608,50.837345],[5.281314,50.83756],[5.281242,50.837614],[5.281158,50.837666],[5.280958,50.837791],[5.28085,50.837854],[5.28064,50.837981],[5.28042,50.838114],[5.280359,50.838149],[5.279976,50.838384],[5.279915,50.838421],[5.279767,50.838512],[5.279591,50.83862],[5.27936,50.838762],[5.279168,50.838874],[5.279064,50.838935],[5.278596,50.839223],[5.278388,50.839351],[5.278087,50.839535],[5.277698,50.839771],[5.277361,50.839976],[5.276982,50.840206],[5.276922,50.840241],[5.276898,50.840235],[5.276881,50.840224],[5.276569,50.840443],[5.276517,50.840417],[5.276393,50.840518],[5.275907,50.84091],[5.276643,50.841311],[5.276714,50.841352],[5.276657,50.841385],[5.275805,50.841807],[5.275693,50.841854],[5.275079,50.842106],[5.274826,50.842221],[5.274461,50.842443],[5.274248,50.842603],[5.274311,50.842637],[5.27422,50.842731],[5.274196,50.842763],[5.274124,50.84289],[5.274008,50.843099],[5.273901,50.843376],[5.273778,50.843373],[5.273732,50.843376],[5.273734,50.843351],[5.273544,50.843359],[5.273323,50.843351],[5.272862,50.843325],[5.272762,50.843312],[5.272616,50.843291],[5.272469,50.843677],[5.272482,50.843679],[5.272453,50.843755],[5.272469,50.843757],[5.272361,50.84401],[5.272344,50.844048],[5.27217,50.844],[5.27202,50.843957],[5.271962,50.843941],[5.271851,50.844025],[5.271739,50.844116],[5.271663,50.844198],[5.271593,50.844281],[5.271485,50.844384],[5.271409,50.844464],[5.271394,50.844474],[5.271345,50.844504],[5.271239,50.844559],[5.27114,50.844602],[5.271081,50.844626],[5.270972,50.844657],[5.270897,50.844676],[5.270774,50.844706],[5.270515,50.844764],[5.270219,50.844833],[5.270114,50.844866],[5.270108,50.844868],[5.26991,50.844946],[5.2699,50.84495],[5.269759,50.845009],[5.270407,50.845354],[5.270076,50.845551],[5.270049,50.845566],[5.269965,50.845521],[5.269691,50.845378],[5.269664,50.845362],[5.269444,50.845496],[5.269188,50.845651],[5.269628,50.845874],[5.269957,50.846042],[5.270247,50.846188],[5.269899,50.846313],[5.269545,50.846171],[5.269084,50.845985],[5.269004,50.846096],[5.268906,50.846234],[5.26938,50.846395],[5.269582,50.846465],[5.269541,50.846483],[5.269429,50.846536],[5.269242,50.84663],[5.269089,50.846708],[5.269097,50.846714],[5.268865,50.846834],[5.268765,50.846888],[5.268735,50.846907],[5.268578,50.847019],[5.268457,50.847128],[5.268414,50.847174],[5.268337,50.847253],[5.268224,50.847381],[5.268172,50.84744],[5.268048,50.847605],[5.267897,50.847828],[5.267831,50.847899],[5.267784,50.847927],[5.267769,50.847947],[5.267515,50.848092],[5.267357,50.848191],[5.267329,50.848237],[5.267255,50.848403],[5.267207,50.848521],[5.267151,50.848704],[5.267078,50.848972],[5.266996,50.849221],[5.26696,50.849291],[5.266857,50.849578],[5.266799,50.849745],[5.266697,50.850055],[5.26666,50.850172],[5.266611,50.850343],[5.266535,50.85068],[5.266477,50.850801],[5.266414,50.850918],[5.266313,50.851116],[5.266046,50.851501],[5.265967,50.851762],[5.265871,50.851947],[5.265781,50.852138],[5.265633,50.852415],[5.265552,50.852577],[5.265528,50.852627],[5.265445,50.852802],[5.265338,50.853038],[5.265241,50.853265],[5.265139,50.853512],[5.264963,50.853936],[5.264914,50.854027],[5.264765,50.854356],[5.264777,50.854431],[5.264647,50.854379],[5.264642,50.854378],[5.264509,50.85441],[5.26382,50.854586],[5.26381,50.854585],[5.26376,50.854606],[5.263623,50.854661],[5.2636,50.85467],[5.263601,50.854674],[5.263401,50.854793],[5.263396,50.854791],[5.263206,50.854904],[5.26308,50.854975],[5.262976,50.855033],[5.262687,50.855204],[5.262642,50.85523],[5.262537,50.855289],[5.262299,50.855416],[5.262203,50.855465],[5.261863,50.855632],[5.261752,50.85569],[5.261591,50.855804],[5.261569,50.85582],[5.26148,50.855919],[5.261265,50.856121],[5.26115,50.856232],[5.261142,50.856242],[5.261018,50.856376],[5.260991,50.856402],[5.260803,50.856604],[5.260746,50.856664],[5.260411,50.857028],[5.260359,50.857084],[5.260135,50.857322],[5.260028,50.857414],[5.259845,50.857534],[5.259707,50.85762],[5.259426,50.857755],[5.25904,50.857932],[5.258919,50.857982],[5.258715,50.858039],[5.258467,50.858033],[5.257956,50.858045],[5.257902,50.858047],[5.257408,50.858109],[5.257298,50.858125],[5.257201,50.858152],[5.256887,50.858267],[5.256676,50.858367],[5.256645,50.858383],[5.256448,50.858532],[5.256129,50.858677],[5.256022,50.858721],[5.255891,50.85872],[5.255736,50.858784],[5.255558,50.858873],[5.255361,50.858971],[5.255144,50.859076],[5.254957,50.859158],[5.254871,50.859216],[5.254678,50.859346],[5.254471,50.859484],[5.254265,50.859577],[5.254075,50.85971],[5.25403,50.859696],[5.253658,50.860123],[5.253512,50.860333],[5.253398,50.860495],[5.253314,50.860613],[5.252956,50.860995],[5.25288,50.861066],[5.252862,50.861156],[5.252739,50.861291],[5.252594,50.861453],[5.252446,50.86158],[5.2522,50.861765],[5.252017,50.861919],[5.251748,50.862139],[5.251582,50.862253],[5.251082,50.862565],[5.251072,50.862558],[5.250853,50.862683],[5.250561,50.862846],[5.250347,50.862945],[5.249946,50.863117],[5.249465,50.863325],[5.248603,50.863687],[5.248411,50.863776],[5.248313,50.863814],[5.248276,50.863839],[5.248234,50.863872],[5.248212,50.863887],[5.248044,50.864023],[5.247984,50.864072],[5.247817,50.864188],[5.247618,50.864325],[5.247439,50.864474],[5.247386,50.864522],[5.247154,50.864726],[5.247043,50.86482],[5.246754,50.865085],[5.246565,50.86526],[5.246263,50.86553],[5.246101,50.865675],[5.246033,50.865655],[5.245755,50.865573],[5.245714,50.86556],[5.245638,50.86566],[5.245582,50.865732],[5.245573,50.865745],[5.24556,50.865758],[5.245154,50.86611],[5.244633,50.866566],[5.244596,50.866598],[5.244505,50.866667],[5.244353,50.866765],[5.244168,50.866881],[5.244151,50.86689],[5.243994,50.866979],[5.243944,50.867026],[5.243863,50.867245],[5.243854,50.867273],[5.243748,50.867671],[5.243323,50.867411],[5.243109,50.86728],[5.242838,50.867115],[5.242789,50.867084],[5.242598,50.866945],[5.242548,50.866911],[5.242333,50.866759],[5.242263,50.866718],[5.242317,50.866673],[5.24236,50.86664],[5.242377,50.866628],[5.242324,50.866608],[5.241741,50.86638],[5.241438,50.866262],[5.241338,50.866227],[5.241412,50.86616],[5.241503,50.866084],[5.241357,50.866006],[5.241207,50.865927],[5.240805,50.865712],[5.240689,50.86565],[5.240388,50.86619],[5.240218,50.866496],[5.240085,50.86647],[5.239821,50.866416],[5.239525,50.866344],[5.239483,50.866332],[5.239316,50.86628],[5.239303,50.866277],[5.23916,50.866271],[5.239157,50.866271],[5.238569,50.866109],[5.238249,50.866024],[5.238163,50.866001],[5.237917,50.865931],[5.237012,50.865661],[5.236456,50.865494],[5.236399,50.86548],[5.236324,50.86566],[5.236256,50.865862],[5.235988,50.866071],[5.235854,50.866156],[5.235763,50.866217],[5.235715,50.86625],[5.235541,50.866393],[5.235319,50.866561],[5.235223,50.866629],[5.235081,50.86673],[5.235044,50.866756],[5.234994,50.86679],[5.234843,50.866889],[5.234662,50.867015],[5.234613,50.867123],[5.234591,50.867247],[5.234575,50.867311],[5.234492,50.867519],[5.234434,50.867654],[5.234338,50.867864],[5.234297,50.867947],[5.234124,50.868262],[5.234095,50.868305],[5.234044,50.868401],[5.233976,50.868512],[5.233807,50.868736],[5.233713,50.868928],[5.23368,50.869081],[5.233669,50.86927],[5.233665,50.869414],[5.233669,50.8695],[5.233613,50.86954],[5.233482,50.869618],[5.233325,50.869731],[5.233291,50.869756],[5.233038,50.869919],[5.232807,50.87007],[5.232746,50.870108],[5.232728,50.870121],[5.232675,50.870157],[5.232577,50.870246],[5.232415,50.870422],[5.232358,50.870531],[5.232291,50.870673],[5.232239,50.870894],[5.232197,50.871069],[5.232211,50.87108],[5.232215,50.871118],[5.232217,50.871159],[5.2323,50.87133],[5.232338,50.87141],[5.232421,50.871565],[5.232383,50.87166],[5.232402,50.871798],[5.23219,50.872198],[5.231777,50.872939],[5.231573,50.87328],[5.231539,50.873337],[5.231169,50.87396],[5.231078,50.874125],[5.231082,50.874126],[5.23101,50.874257],[5.230999,50.87428],[5.230633,50.875031],[5.230364,50.875576],[5.230335,50.875625],[5.230137,50.875768],[5.230121,50.875789],[5.230082,50.875841],[5.230005,50.87595],[5.229956,50.876024],[5.229892,50.876116],[5.229859,50.87618],[5.229731,50.87638],[5.229729,50.876379],[5.229729,50.876385]]]}}
