{"type":"Feature","properties":{"mrgid":2737,"name":"Bocholt","placeType":"Town","source":"Belgium:belgium_municipalities"},"geometry":{"type":"Polygon","coordinates":[[[5.575637,51.218449],[5.575638,51.21849],[5.57515,51.218612],[5.572146,51.21936],[5.572148,51.219384],[5.570637,51.219763],[5.567931,51.220439],[5.564695,51.221252],[5.563471,51.221556],[5.561294,51.222084],[5.560841,51.2222],[5.560512,51.222292],[5.560322,51.22291],[5.558104,51.222518],[5.55738,51.222299],[5.55669,51.222081],[5.555705,51.22178],[5.555257,51.22159],[5.554859,51.221429],[5.554603,51.221329],[5.554513,51.221295],[5.553818,51.221014],[5.553161,51.220775],[5.55079,51.219767],[5.550157,51.219581],[5.547271,51.218839],[5.547206,51.21883],[5.545358,51.218363],[5.545097,51.218331],[5.542945,51.21809],[5.541095,51.217601],[5.539614,51.217128],[5.538932,51.216679],[5.538398,51.216099],[5.536481,51.21476],[5.535906,51.214071],[5.535921,51.214009],[5.536009,51.213916],[5.536124,51.213812],[5.535911,51.213622],[5.535498,51.213297],[5.53503,51.212907],[5.534874,51.212819],[5.534607,51.212596],[5.534073,51.21228],[5.533619,51.211999],[5.533034,51.211627],[5.532548,51.211396],[5.532301,51.211229],[5.531827,51.210877],[5.53138,51.21052],[5.530712,51.21003],[5.528366,51.211834],[5.527555,51.212465],[5.525158,51.214476],[5.524608,51.214912],[5.523712,51.214154],[5.522793,51.213362],[5.522646,51.213409],[5.521978,51.212639],[5.522065,51.212608],[5.522119,51.212588],[5.52134,51.211739],[5.520973,51.211329],[5.52075,51.21104],[5.520636,51.211064],[5.520227,51.211169],[5.519875,51.211259],[5.519532,51.211346],[5.519252,51.211418],[5.518209,51.211682],[5.517894,51.21176],[5.517534,51.211854],[5.517194,51.21194],[5.51688,51.21202],[5.516719,51.21206],[5.516528,51.212103],[5.515856,51.212272],[5.51518,51.212436],[5.514849,51.212517],[5.514735,51.212544],[5.514519,51.212597],[5.514174,51.212682],[5.514044,51.212713],[5.513832,51.212764],[5.513129,51.212935],[5.512534,51.213079],[5.512462,51.213099],[5.512027,51.213207],[5.511775,51.213272],[5.511489,51.213343],[5.511401,51.213365],[5.511087,51.213366],[5.508526,51.213375],[5.508183,51.213374],[5.507832,51.213377],[5.507476,51.213378],[5.507422,51.213375],[5.507114,51.213379],[5.507073,51.213379],[5.5064,51.213384],[5.506039,51.213387],[5.504198,51.213399],[5.504147,51.213399],[5.5038,51.2134],[5.503433,51.213402],[5.503106,51.213404],[5.502844,51.213408],[5.502733,51.21341],[5.5027,51.21341],[5.502368,51.213409],[5.501938,51.213411],[5.501643,51.213413],[5.50128,51.213416],[5.500923,51.213419],[5.500553,51.213422],[5.5003,51.213424],[5.500207,51.213425],[5.499844,51.213427],[5.499463,51.21343],[5.499192,51.213434],[5.499109,51.213433],[5.498699,51.21343],[5.49834,51.213431],[5.498023,51.213434],[5.497955,51.213434],[5.498223,51.212165],[5.498259,51.212004],[5.498532,51.210706],[5.498829,51.209333],[5.499152,51.207896],[5.498226,51.207135],[5.497788,51.207139],[5.497197,51.207061],[5.497203,51.207034],[5.497019,51.206958],[5.496979,51.206938],[5.496845,51.206862],[5.496636,51.206769],[5.49644,51.206725],[5.496377,51.206721],[5.496199,51.206715],[5.495569,51.20672],[5.495344,51.206742],[5.495128,51.20677],[5.495047,51.206811],[5.494965,51.206795],[5.494607,51.206733],[5.493916,51.206596],[5.491144,51.206049],[5.490738,51.206113],[5.490419,51.206237],[5.490237,51.206068],[5.49017,51.206016],[5.490121,51.205928],[5.490114,51.205903],[5.490096,51.205868],[5.490024,51.205734],[5.489904,51.205509],[5.489899,51.205446],[5.48983,51.205285],[5.489797,51.205234],[5.489487,51.204846],[5.489327,51.204641],[5.489319,51.204628],[5.489312,51.204582],[5.489282,51.204477],[5.489246,51.20439],[5.48914,51.204182],[5.489108,51.20411],[5.489075,51.204011],[5.489072,51.20399],[5.489082,51.203926],[5.489095,51.203878],[5.489113,51.203831],[5.489145,51.203757],[5.489165,51.203714],[5.489186,51.203681],[5.489193,51.203671],[5.489213,51.203642],[5.489311,51.203499],[5.489373,51.203411],[5.489418,51.203291],[5.489446,51.203188],[5.489478,51.203071],[5.48949,51.203011],[5.489516,51.202881],[5.489507,51.202796],[5.489499,51.202687],[5.489492,51.202612],[5.489486,51.202563],[5.489477,51.202391],[5.489462,51.20216],[5.489447,51.201966],[5.489449,51.201917],[5.489441,51.201886],[5.489437,51.201861],[5.489431,51.201814],[5.489426,51.201754],[5.489364,51.201636],[5.48933,51.201572],[5.489314,51.201538],[5.489291,51.201426],[5.489255,51.201234],[5.489173,51.200781],[5.489156,51.20074],[5.488967,51.2006],[5.488875,51.200531],[5.488825,51.200493],[5.488784,51.200463],[5.488743,51.200431],[5.488699,51.200399],[5.488658,51.200368],[5.488601,51.200324],[5.488571,51.200226],[5.488523,51.200112],[5.488469,51.200004],[5.48843,51.199922],[5.488401,51.199865],[5.488299,51.199772],[5.488213,51.199691],[5.488189,51.199668],[5.488107,51.199512],[5.488058,51.199392],[5.488034,51.199304],[5.488017,51.199228],[5.488013,51.199199],[5.488009,51.199148],[5.488022,51.19903],[5.488039,51.198989],[5.488064,51.198929],[5.48809,51.198866],[5.488149,51.198774],[5.488187,51.198719],[5.488228,51.198662],[5.488249,51.198635],[5.488243,51.198595],[5.488192,51.19852],[5.487981,51.198231],[5.487823,51.198114],[5.487776,51.198082],[5.487711,51.19804],[5.487563,51.197941],[5.487497,51.197899],[5.487336,51.197769],[5.487295,51.197725],[5.487246,51.197665],[5.487149,51.19753],[5.487016,51.197349],[5.486995,51.197312],[5.486966,51.197249],[5.486937,51.197113],[5.486923,51.197021],[5.486839,51.196904],[5.486807,51.196857],[5.486662,51.196678],[5.486495,51.196475],[5.486315,51.196271],[5.486245,51.196164],[5.486221,51.196023],[5.486215,51.195977],[5.486203,51.195808],[5.4862,51.195681],[5.486219,51.195426],[5.486253,51.194965],[5.486241,51.194833],[5.486231,51.194709],[5.486216,51.194603],[5.486207,51.194531],[5.486174,51.194407],[5.486115,51.194259],[5.486041,51.194148],[5.48594,51.194031],[5.485864,51.193945],[5.485817,51.193902],[5.485755,51.193852],[5.485607,51.193733],[5.485435,51.193525],[5.485364,51.193441],[5.485274,51.193309],[5.485234,51.193257],[5.485217,51.19321],[5.485104,51.193143],[5.485018,51.193069],[5.484979,51.193034],[5.484762,51.192842],[5.484558,51.192682],[5.484351,51.192518],[5.484323,51.192489],[5.484235,51.192399],[5.484092,51.192259],[5.484033,51.192184],[5.484009,51.192054],[5.483995,51.191988],[5.483946,51.191899],[5.483871,51.191789],[5.483731,51.191635],[5.483566,51.191473],[5.483456,51.191365],[5.483371,51.191283],[5.483351,51.191264],[5.483217,51.191176],[5.483203,51.191139],[5.483072,51.191089],[5.482972,51.19105],[5.482795,51.190977],[5.482706,51.190945],[5.482643,51.190918],[5.482519,51.190864],[5.482399,51.190796],[5.482331,51.190757],[5.48217,51.190669],[5.481979,51.190575],[5.481441,51.190388],[5.481267,51.190325],[5.480892,51.190194],[5.480514,51.19006],[5.480186,51.189932],[5.479814,51.189794],[5.479613,51.189698],[5.479129,51.189432],[5.478811,51.189234],[5.478512,51.189046],[5.478298,51.1889],[5.478058,51.188729],[5.477959,51.18866],[5.477822,51.188553],[5.477751,51.188507],[5.477636,51.188401],[5.477568,51.188336],[5.4775,51.188274],[5.477443,51.18822],[5.477635,51.188231],[5.477694,51.188226],[5.477868,51.188217],[5.477902,51.188212],[5.477912,51.18821],[5.478018,51.188153],[5.478393,51.187696],[5.478552,51.187495],[5.478718,51.187298],[5.478837,51.187153],[5.479003,51.186949],[5.479709,51.186091],[5.480201,51.185493],[5.48064,51.184958],[5.480818,51.184741],[5.480946,51.184585],[5.481199,51.184282],[5.481444,51.183989],[5.481654,51.18374],[5.481615,51.18372],[5.481765,51.183541],[5.482866,51.182218],[5.482902,51.182181],[5.482984,51.182108],[5.483049,51.182123],[5.483122,51.182057],[5.483414,51.181802],[5.483564,51.181673],[5.484675,51.180699],[5.484994,51.180422],[5.484998,51.180422],[5.485106,51.180329],[5.485691,51.179815],[5.485732,51.179779],[5.485897,51.179632],[5.48632,51.179266],[5.486537,51.179073],[5.486709,51.178931],[5.48675,51.178951],[5.487375,51.17841],[5.487784,51.178056],[5.487871,51.177972],[5.488293,51.177609],[5.488583,51.177345],[5.488653,51.177344],[5.488653,51.177341],[5.488846,51.177356],[5.489334,51.177393],[5.489834,51.177429],[5.49043,51.17747],[5.490842,51.177497],[5.491414,51.177536],[5.492041,51.177577],[5.492431,51.177602],[5.493493,51.177673],[5.494159,51.177716],[5.494733,51.177753],[5.496264,51.17785],[5.496588,51.177871],[5.496868,51.177894],[5.496919,51.177855],[5.497938,51.177918],[5.498294,51.177942],[5.498767,51.177971],[5.498798,51.177972],[5.49883,51.177973],[5.499066,51.177966],[5.499425,51.177951],[5.500197,51.177924],[5.500655,51.177908],[5.500682,51.177907],[5.500682,51.177913],[5.500759,51.177906],[5.500889,51.177902],[5.501042,51.177904],[5.501099,51.177904],[5.501452,51.177873],[5.501534,51.177864],[5.501943,51.177804],[5.502031,51.177789],[5.502126,51.177774],[5.502468,51.177719],[5.502786,51.177666],[5.503108,51.177614],[5.503461,51.177554],[5.503516,51.177544],[5.503716,51.177501],[5.503842,51.177472],[5.503894,51.17746],[5.504467,51.177324],[5.504512,51.177337],[5.505539,51.177101],[5.506218,51.176947],[5.506972,51.176765],[5.507061,51.176742],[5.508677,51.176342],[5.510666,51.175851],[5.510698,51.175842],[5.510806,51.175815],[5.5108,51.175785],[5.510933,51.175753],[5.510978,51.175742],[5.511521,51.175605],[5.511798,51.175535],[5.512083,51.175463],[5.51238,51.175388],[5.512674,51.175313],[5.512973,51.175235],[5.51326,51.175163],[5.51354,51.175088],[5.513874,51.175008],[5.514067,51.17497],[5.514169,51.174955],[5.514437,51.174924],[5.514849,51.174881],[5.515264,51.174837],[5.51563,51.174798],[5.515994,51.174757],[5.516359,51.174717],[5.516708,51.174677],[5.517149,51.174627],[5.517891,51.174543],[5.518408,51.174484],[5.518989,51.174417],[5.519533,51.174355],[5.520094,51.174291],[5.520625,51.174229],[5.521191,51.174164],[5.521568,51.174123],[5.522023,51.174072],[5.522042,51.174072],[5.522323,51.174041],[5.522697,51.173999],[5.523097,51.173953],[5.523149,51.173947],[5.523482,51.173908],[5.523887,51.173859],[5.524192,51.173822],[5.524218,51.173819],[5.524228,51.173797],[5.52423,51.173805],[5.524543,51.173767],[5.524587,51.173762],[5.524767,51.17374],[5.524918,51.173723],[5.525298,51.17368],[5.525656,51.173639],[5.52574,51.17363],[5.526022,51.173594],[5.526186,51.173573],[5.526379,51.173548],[5.526735,51.173504],[5.527248,51.173438],[5.527439,51.173413],[5.52781,51.173364],[5.528043,51.173334],[5.528162,51.173317],[5.528547,51.173263],[5.528853,51.173216],[5.528947,51.173202],[5.52919,51.173159],[5.529335,51.173171],[5.529414,51.173194],[5.529528,51.173233],[5.529846,51.173341],[5.530173,51.173449],[5.530477,51.173548],[5.530809,51.173651],[5.531125,51.173748],[5.531313,51.173804],[5.531312,51.173805],[5.531504,51.173853],[5.531878,51.17393],[5.532123,51.173981],[5.532466,51.174068],[5.532671,51.174121],[5.532957,51.174204],[5.53301,51.174219],[5.533074,51.174238],[5.533379,51.174365],[5.533411,51.174377],[5.533543,51.174433],[5.533612,51.174455],[5.533657,51.17447],[5.533763,51.1745],[5.533964,51.174574],[5.534037,51.174599],[5.534211,51.174663],[5.534533,51.174785],[5.534564,51.174797],[5.534725,51.174857],[5.534846,51.174908],[5.535109,51.175013],[5.535193,51.175045],[5.535261,51.175065],[5.535351,51.175082],[5.535391,51.175094],[5.535538,51.174943],[5.53573,51.174743],[5.535706,51.174734],[5.535533,51.174668],[5.53551,51.174659],[5.535489,51.17468],[5.5354,51.17475],[5.535331,51.174813],[5.534713,51.174583],[5.534383,51.17446],[5.534363,51.174453],[5.534143,51.17437],[5.534129,51.174343],[5.534096,51.17433],[5.534053,51.174295],[5.533876,51.174217],[5.533678,51.17413],[5.533601,51.174096],[5.533717,51.173902],[5.533891,51.173606],[5.534048,51.173336],[5.534205,51.173066],[5.534352,51.172811],[5.534486,51.17258],[5.534735,51.172148],[5.535066,51.171575],[5.535188,51.171362],[5.535326,51.171124],[5.535408,51.170978],[5.535509,51.170803],[5.535662,51.170534],[5.535795,51.170301],[5.53594,51.170049],[5.536094,51.16978],[5.536305,51.169412],[5.536355,51.169332],[5.536456,51.169157],[5.53646,51.169154],[5.536469,51.169138],[5.536618,51.168878],[5.536736,51.168677],[5.536873,51.168446],[5.536897,51.168404],[5.536997,51.168234],[5.537133,51.168007],[5.537268,51.167786],[5.537363,51.167632],[5.537372,51.167618],[5.537386,51.167591],[5.537405,51.167557],[5.537493,51.167393],[5.537526,51.167335],[5.537621,51.167165],[5.537756,51.166933],[5.537904,51.16668],[5.538044,51.166428],[5.538193,51.166173],[5.538309,51.16597],[5.538443,51.165741],[5.538463,51.165707],[5.538575,51.165517],[5.538696,51.165313],[5.538819,51.165106],[5.538926,51.164931],[5.538984,51.164835],[5.53904,51.164743],[5.539215,51.164443],[5.539186,51.16443],[5.539225,51.164364],[5.539316,51.164197],[5.539371,51.164099],[5.539487,51.163896],[5.539603,51.163686],[5.53967,51.16357],[5.539706,51.163512],[5.539727,51.163478],[5.53985,51.163261],[5.539971,51.163047],[5.540143,51.162745],[5.540178,51.16269],[5.540207,51.162632],[5.540309,51.16246],[5.540418,51.162273],[5.540526,51.162094],[5.540575,51.162013],[5.540531,51.162001],[5.540491,51.161919],[5.540592,51.161505],[5.540603,51.161444],[5.540816,51.16054],[5.540819,51.16054],[5.540955,51.15996],[5.541115,51.159293],[5.541218,51.158849],[5.541275,51.15863],[5.541364,51.158292],[5.541426,51.158066],[5.541439,51.158002],[5.54145,51.157954],[5.541506,51.157734],[5.541537,51.157603],[5.541563,51.157513],[5.541725,51.157002],[5.541878,51.156543],[5.541925,51.156435],[5.541998,51.156296],[5.542057,51.156205],[5.542164,51.156059],[5.542206,51.156008],[5.542233,51.155975],[5.542379,51.155683],[5.542516,51.155357],[5.542607,51.155139],[5.542701,51.154916],[5.54281,51.154655],[5.542855,51.15456],[5.542882,51.154482],[5.543049,51.15409],[5.543069,51.154031],[5.543076,51.154015],[5.543205,51.153793],[5.543466,51.153501],[5.54372,51.153216],[5.544082,51.152824],[5.544267,51.152625],[5.544603,51.152261],[5.544629,51.152234],[5.544742,51.152115],[5.544783,51.152074],[5.544872,51.151981],[5.544891,51.151995],[5.544958,51.151939],[5.544982,51.151942],[5.545058,51.151888],[5.545267,51.151739],[5.545724,51.151414],[5.545826,51.151341],[5.545831,51.151337],[5.546432,51.150859],[5.546605,51.150721],[5.54664,51.150693],[5.546663,51.150676],[5.546731,51.150626],[5.546889,51.15051],[5.547122,51.15034],[5.547358,51.150168],[5.547556,51.150024],[5.547514,51.150003],[5.547498,51.149987],[5.547472,51.149966],[5.54744,51.149951],[5.547402,51.14994],[5.547391,51.149938],[5.547321,51.149935],[5.546791,51.149938],[5.546738,51.149928],[5.546703,51.149909],[5.546679,51.149886],[5.546656,51.149864],[5.546603,51.149804],[5.546334,51.149429],[5.546245,51.149329],[5.546193,51.149285],[5.546115,51.149258],[5.546071,51.149259],[5.545501,51.149263],[5.545404,51.14925],[5.54525,51.149243],[5.545116,51.14924],[5.545028,51.149248],[5.544963,51.149252],[5.544872,51.14925],[5.544762,51.149231],[5.544727,51.149223],[5.544685,51.149209],[5.544665,51.149201],[5.544644,51.149184],[5.544618,51.149143],[5.544578,51.149076],[5.544556,51.149017],[5.544551,51.149005],[5.544506,51.148878],[5.544461,51.148807],[5.544418,51.148765],[5.544253,51.148711],[5.544175,51.14869],[5.544106,51.148669],[5.544085,51.148646],[5.544077,51.148633],[5.544071,51.148608],[5.544078,51.148574],[5.544087,51.148566],[5.544175,51.148526],[5.544242,51.148491],[5.544215,51.148474],[5.544199,51.148461],[5.54412,51.148423],[5.543919,51.148379],[5.54386,51.14837],[5.543814,51.148372],[5.543759,51.14838],[5.543738,51.148391],[5.543576,51.148538],[5.543562,51.14855],[5.543525,51.148567],[5.543456,51.148575],[5.543395,51.148571],[5.543319,51.148533],[5.543276,51.148506],[5.543114,51.148394],[5.543085,51.148345],[5.54308,51.148321],[5.543073,51.148304],[5.543112,51.148278],[5.543118,51.148254],[5.543114,51.148225],[5.543098,51.148212],[5.543058,51.1482],[5.542737,51.148152],[5.542671,51.14813],[5.542557,51.148086],[5.542429,51.148028],[5.542397,51.148013],[5.542373,51.148023],[5.542342,51.148077],[5.5423,51.148162],[5.542244,51.148211],[5.542187,51.148258],[5.54212,51.148316],[5.542051,51.148404],[5.542031,51.148448],[5.542023,51.148476],[5.541973,51.148556],[5.541922,51.148598],[5.541843,51.148634],[5.541775,51.148662],[5.541641,51.148692],[5.541578,51.148699],[5.541537,51.1487],[5.541502,51.148692],[5.541445,51.148634],[5.541425,51.148604],[5.541411,51.148562],[5.541365,51.148457],[5.541346,51.148377],[5.541309,51.148335],[5.541274,51.148313],[5.541211,51.148288],[5.541163,51.148276],[5.541107,51.148275],[5.540933,51.148296],[5.5409,51.1483],[5.5408,51.14832],[5.540773,51.148324],[5.540614,51.148349],[5.540586,51.148344],[5.540521,51.148334],[5.540275,51.148256],[5.540161,51.148205],[5.54007,51.148164],[5.540047,51.148137],[5.540033,51.148055],[5.540021,51.148018],[5.539994,51.147982],[5.539849,51.147963],[5.539581,51.147939],[5.539478,51.14792],[5.539392,51.14789],[5.539336,51.147872],[5.539288,51.147862],[5.539236,51.147876],[5.539072,51.147943],[5.53903,51.147961],[5.538875,51.148008],[5.538847,51.148005],[5.538743,51.147967],[5.538636,51.147899],[5.538576,51.147868],[5.538493,51.147863],[5.538218,51.147863],[5.538055,51.147809],[5.537911,51.147766],[5.53781,51.147761],[5.537721,51.147767],[5.537653,51.147775],[5.537371,51.147836],[5.537273,51.147837],[5.537167,51.14782],[5.537118,51.147799],[5.537082,51.147777],[5.537052,51.147651],[5.537068,51.147611],[5.537135,51.147568],[5.537193,51.147534],[5.537247,51.14749],[5.537237,51.14747],[5.537205,51.147449],[5.53705,51.147423],[5.536924,51.147422],[5.536763,51.147439],[5.536456,51.147479],[5.536295,51.147491],[5.536152,51.147502],[5.536139,51.147502],[5.536076,51.147496],[5.535996,51.147476],[5.535902,51.14745],[5.535683,51.147367],[5.535429,51.147375],[5.53531,51.147348],[5.535241,51.14733],[5.534911,51.147253],[5.534813,51.147246],[5.534816,51.147242],[5.534702,51.147238],[5.534598,51.147254],[5.534469,51.147275],[5.534342,51.147304],[5.534212,51.14731],[5.534134,51.147308],[5.534074,51.147299],[5.533788,51.147232],[5.533668,51.147191],[5.53351,51.147133],[5.533457,51.147115],[5.53338,51.14708],[5.533335,51.147041],[5.533294,51.146997],[5.533253,51.146947],[5.533216,51.146876],[5.53316,51.146801],[5.533069,51.146703],[5.532984,51.146617],[5.532815,51.146396],[5.532323,51.146347],[5.532338,51.14633],[5.532433,51.146231],[5.53267,51.14604],[5.532702,51.146014],[5.532814,51.145923],[5.532841,51.145897],[5.53299,51.145726],[5.533052,51.145654],[5.533195,51.145489],[5.533306,51.145357],[5.533329,51.145342],[5.533432,51.14524],[5.533663,51.144991],[5.533869,51.144767],[5.534085,51.144529],[5.534298,51.144295],[5.534509,51.144062],[5.535124,51.143367],[5.535328,51.143137],[5.535425,51.143005],[5.535715,51.142686],[5.535883,51.142501],[5.535968,51.142407],[5.536182,51.142177],[5.536248,51.142097],[5.536406,51.141923],[5.536632,51.141675],[5.536771,51.141526],[5.536858,51.141433],[5.536909,51.141371],[5.537111,51.141149],[5.537382,51.140853],[5.537621,51.140588],[5.537868,51.140313],[5.53821,51.139933],[5.538372,51.139748],[5.538553,51.139548],[5.538735,51.139347],[5.538914,51.139149],[5.538992,51.139063],[5.539209,51.138826],[5.53945,51.138561],[5.539639,51.138351],[5.539812,51.138161],[5.539865,51.138103],[5.539999,51.137957],[5.540065,51.137886],[5.540184,51.13776],[5.54027,51.137668],[5.540351,51.13757],[5.540553,51.137333],[5.540606,51.137277],[5.540989,51.136846],[5.541142,51.13667],[5.541419,51.136362],[5.541688,51.136056],[5.541863,51.135858],[5.541745,51.135812],[5.541778,51.135767],[5.541957,51.135584],[5.542068,51.13547],[5.542181,51.135506],[5.542277,51.135394],[5.542727,51.134876],[5.542862,51.134719],[5.542998,51.134564],[5.543161,51.134374],[5.543273,51.134245],[5.543366,51.134142],[5.543411,51.134091],[5.543559,51.133918],[5.543767,51.133681],[5.543963,51.133459],[5.544017,51.133401],[5.544027,51.13339],[5.544085,51.13332],[5.544212,51.133172],[5.544373,51.132985],[5.544561,51.132769],[5.544613,51.132707],[5.544729,51.13257],[5.544865,51.132409],[5.545102,51.132128],[5.545154,51.132089],[5.545173,51.132067],[5.545284,51.13194],[5.54553,51.131661],[5.545661,51.131513],[5.545867,51.131282],[5.545909,51.13123],[5.546137,51.13097],[5.546434,51.130631],[5.546452,51.130545],[5.546635,51.130666],[5.546804,51.130777],[5.547104,51.130975],[5.547339,51.13113],[5.547553,51.13127],[5.547724,51.131382],[5.5478,51.131433],[5.547895,51.131497],[5.548401,51.131826],[5.548669,51.132],[5.548918,51.132158],[5.549374,51.132458],[5.549733,51.132694],[5.549848,51.132784],[5.550248,51.133052],[5.550678,51.13334],[5.551811,51.134093],[5.551858,51.134124],[5.551928,51.134166],[5.5521,51.13428],[5.552278,51.134401],[5.552678,51.134666],[5.552867,51.134788],[5.553509,51.135217],[5.553724,51.135356],[5.553796,51.135403],[5.553908,51.135476],[5.55424,51.135698],[5.554398,51.135801],[5.554555,51.135907],[5.554706,51.136004],[5.555167,51.136311],[5.55547,51.136513],[5.55568,51.136653],[5.555838,51.136759],[5.556013,51.136874],[5.55619,51.136996],[5.55631,51.137074],[5.556454,51.137168],[5.556676,51.137317],[5.556998,51.137531],[5.557206,51.137673],[5.557354,51.137774],[5.557524,51.137894],[5.55746,51.138387],[5.557425,51.13863],[5.5577,51.138882],[5.558365,51.139379],[5.558389,51.139405],[5.558962,51.139832],[5.559454,51.140212],[5.559478,51.140228],[5.559517,51.140258],[5.559519,51.140257],[5.560123,51.140723],[5.561046,51.141428],[5.561385,51.141701],[5.561624,51.141886],[5.561672,51.14192],[5.561754,51.14198],[5.562232,51.142247],[5.562934,51.142673],[5.562923,51.142682],[5.563246,51.14288],[5.563477,51.143019],[5.563733,51.143173],[5.563745,51.143165],[5.564068,51.143361],[5.564138,51.143402],[5.565032,51.143434],[5.565861,51.143461],[5.566847,51.144107],[5.567579,51.144582],[5.567684,51.144655],[5.568348,51.145088],[5.568521,51.145201],[5.568593,51.145247],[5.568809,51.145387],[5.569068,51.145553],[5.569333,51.145723],[5.56958,51.14588],[5.569851,51.146051],[5.569985,51.146135],[5.569781,51.146177],[5.570008,51.146323],[5.570283,51.146502],[5.570517,51.146654],[5.570755,51.14681],[5.570998,51.14697],[5.571218,51.147113],[5.571442,51.14726],[5.571656,51.1474],[5.572073,51.14767],[5.57238,51.147869],[5.572589,51.148002],[5.572735,51.148098],[5.573098,51.148331],[5.573181,51.148385],[5.573425,51.148546],[5.573452,51.148563],[5.573666,51.148698],[5.573821,51.1488],[5.573908,51.148859],[5.573958,51.148887],[5.57414,51.149008],[5.574638,51.149333],[5.574877,51.149491],[5.575026,51.14959],[5.575123,51.149654],[5.575402,51.149835],[5.575671,51.15001],[5.57634,51.150445],[5.57674,51.150703],[5.576998,51.150866],[5.576865,51.15098],[5.577274,51.151242],[5.578358,51.151891],[5.578838,51.152188],[5.578683,51.15238],[5.578514,51.152591],[5.578329,51.152822],[5.578198,51.152981],[5.578144,51.153044],[5.578033,51.153176],[5.577857,51.153393],[5.577777,51.15349],[5.577587,51.153721],[5.577547,51.153759],[5.577413,51.153926],[5.577384,51.153964],[5.577349,51.154009],[5.577257,51.154146],[5.577124,51.154344],[5.577093,51.15439],[5.576986,51.154552],[5.576945,51.154614],[5.576843,51.154776],[5.576777,51.154822],[5.576613,51.154927],[5.576419,51.15505],[5.576349,51.155098],[5.576083,51.155266],[5.576035,51.155297],[5.575828,51.155428],[5.57567,51.15553],[5.575331,51.155746],[5.575227,51.155816],[5.575063,51.155919],[5.57496,51.155984],[5.574819,51.156077],[5.574875,51.156135],[5.574919,51.156175],[5.574962,51.156223],[5.575051,51.156305],[5.575093,51.156334],[5.575218,51.156388],[5.5755,51.156462],[5.575586,51.156469],[5.575657,51.156442],[5.575787,51.156318],[5.57588,51.156259],[5.575907,51.156255],[5.575982,51.156258],[5.576044,51.156298],[5.576204,51.156439],[5.57626,51.156465],[5.57631,51.156467],[5.57647,51.15644],[5.576562,51.156441],[5.576634,51.156459],[5.576641,51.156483],[5.576737,51.156809],[5.576789,51.15685],[5.576697,51.156923],[5.57652,51.157085],[5.576375,51.157226],[5.576292,51.157307],[5.57603,51.157561],[5.575937,51.157648],[5.575723,51.157851],[5.575496,51.158032],[5.575269,51.158213],[5.575231,51.158238],[5.575234,51.15824],[5.574609,51.158605],[5.574068,51.158922],[5.574174,51.159008],[5.574701,51.159438],[5.575451,51.160047],[5.576079,51.160557],[5.576117,51.160582],[5.576146,51.160595],[5.576329,51.160702],[5.577132,51.161378],[5.577635,51.161795],[5.578067,51.162153],[5.578728,51.162685],[5.57899,51.162893],[5.579146,51.162997],[5.579206,51.162961],[5.579416,51.162837],[5.579797,51.162607],[5.580067,51.162447],[5.580192,51.162372],[5.580389,51.16225],[5.580433,51.162284],[5.580667,51.162473],[5.580918,51.162678],[5.581162,51.162871],[5.581383,51.163044],[5.581488,51.163121],[5.581643,51.163215],[5.581979,51.163384],[5.582065,51.163301],[5.582254,51.163119],[5.582545,51.162842],[5.582671,51.162722],[5.582868,51.162534],[5.582935,51.162472],[5.583053,51.16236],[5.583219,51.162432],[5.583429,51.162523],[5.583512,51.162559],[5.58373,51.162655],[5.583922,51.162739],[5.584063,51.1628],[5.584202,51.162861],[5.584346,51.162925],[5.584435,51.162965],[5.584523,51.163007],[5.584777,51.163127],[5.584981,51.163219],[5.585229,51.163321],[5.585523,51.163442],[5.585843,51.163575],[5.586106,51.16369],[5.586459,51.163843],[5.586793,51.163981],[5.587162,51.164124],[5.587233,51.164146],[5.587375,51.164192],[5.587708,51.164274],[5.587784,51.164293],[5.587879,51.164313],[5.588078,51.164365],[5.588182,51.164393],[5.588386,51.164446],[5.58853,51.164479],[5.588722,51.164525],[5.588929,51.164573],[5.589069,51.164617],[5.589251,51.164683],[5.589444,51.164737],[5.589819,51.164843],[5.589999,51.164894],[5.59019,51.164948],[5.590302,51.164979],[5.590393,51.164996],[5.590468,51.165018],[5.590695,51.165082],[5.591004,51.165171],[5.591166,51.16522],[5.591169,51.16528],[5.591263,51.165304],[5.591535,51.165373],[5.591729,51.165428],[5.592124,51.165482],[5.592312,51.165538],[5.592361,51.165506],[5.592527,51.165425],[5.592737,51.16532],[5.592768,51.16532],[5.592867,51.165327],[5.593129,51.165346],[5.593175,51.165349],[5.593323,51.165359],[5.593486,51.165469],[5.593559,51.165512],[5.593675,51.165581],[5.593808,51.165664],[5.593865,51.1657],[5.593975,51.165763],[5.594079,51.165813],[5.594251,51.165896],[5.594362,51.165949],[5.594565,51.166045],[5.594608,51.166064],[5.594772,51.166138],[5.594926,51.166201],[5.595234,51.166324],[5.595246,51.166284],[5.595273,51.166291],[5.59534,51.16631],[5.595658,51.166389],[5.595718,51.166405],[5.596061,51.166509],[5.596097,51.166522],[5.596531,51.16669],[5.596885,51.166832],[5.59723,51.166986],[5.597294,51.167014],[5.597469,51.167089],[5.597587,51.167136],[5.597784,51.16721],[5.59798,51.167283],[5.598102,51.167331],[5.598378,51.167443],[5.598473,51.167481],[5.59844,51.167526],[5.598493,51.16755],[5.598573,51.167587],[5.598818,51.167693],[5.599078,51.167808],[5.59938,51.167943],[5.599657,51.168067],[5.599964,51.168207],[5.600263,51.168341],[5.600532,51.168464],[5.600832,51.168602],[5.600877,51.1686],[5.600899,51.168596],[5.600943,51.16858],[5.601175,51.168497],[5.601218,51.168525],[5.601271,51.168564],[5.601301,51.16859],[5.601301,51.168599],[5.601291,51.168616],[5.601253,51.168651],[5.60115,51.168738],[5.601153,51.16878],[5.601183,51.168803],[5.60121,51.168817],[5.601264,51.168836],[5.601444,51.168882],[5.601617,51.168903],[5.601735,51.168934],[5.601952,51.168986],[5.60201,51.169006],[5.602109,51.169049],[5.602356,51.169177],[5.602417,51.169221],[5.602444,51.169249],[5.60244,51.169268],[5.602415,51.16933],[5.602323,51.169515],[5.602326,51.169771],[5.602384,51.169928],[5.60348,51.170299],[5.603617,51.170326],[5.603689,51.170332],[5.603726,51.170333],[5.603744,51.170328],[5.603774,51.170318],[5.603879,51.170272],[5.603889,51.170269],[5.603896,51.17027],[5.604145,51.170325],[5.604299,51.170366],[5.604492,51.170419],[5.6046,51.170441],[5.604655,51.170458],[5.604662,51.170479],[5.604652,51.170489],[5.604517,51.170609],[5.604395,51.170723],[5.604212,51.170887],[5.604184,51.17092],[5.604158,51.17096],[5.604073,51.171003],[5.604031,51.171031],[5.604,51.17108],[5.603991,51.171106],[5.603994,51.171131],[5.604034,51.171166],[5.604137,51.171224],[5.604237,51.171309],[5.604369,51.1714],[5.604419,51.171428],[5.604474,51.171451],[5.604571,51.171482],[5.604674,51.171491],[5.604726,51.17151],[5.604776,51.171535],[5.604816,51.171565],[5.604888,51.171613],[5.604978,51.171661],[5.604966,51.171667],[5.605153,51.171779],[5.605225,51.171831],[5.605266,51.171877],[5.605348,51.171983],[5.605374,51.172012],[5.605408,51.172058],[5.605498,51.172139],[5.605578,51.172229],[5.605668,51.172325],[5.605689,51.172352],[5.605728,51.172388],[5.605804,51.172468],[5.605881,51.172581],[5.606064,51.172765],[5.606144,51.172868],[5.606203,51.172914],[5.606227,51.172921],[5.606281,51.172916],[5.606362,51.1729],[5.606444,51.172896],[5.606501,51.172906],[5.606558,51.172926],[5.606618,51.172936],[5.606725,51.172947],[5.606814,51.17297],[5.606852,51.172984],[5.606888,51.173],[5.606916,51.173009],[5.606962,51.173019],[5.607042,51.173026],[5.607054,51.173023],[5.607108,51.173001],[5.607177,51.172956],[5.607238,51.172924],[5.607305,51.172895],[5.607397,51.172881],[5.607468,51.172861],[5.607597,51.172816],[5.607622,51.172805],[5.607647,51.172787],[5.607718,51.172755],[5.607772,51.172733],[5.607845,51.17271],[5.607888,51.172692],[5.607958,51.172688],[5.607991,51.172705],[5.60803,51.172721],[5.608086,51.172752],[5.608318,51.172893],[5.608431,51.172952],[5.60847,51.172985],[5.608516,51.173029],[5.608573,51.173098],[5.608647,51.173155],[5.608705,51.173205],[5.608726,51.173241],[5.608692,51.173306],[5.608668,51.173327],[5.608628,51.173349],[5.608615,51.17337],[5.60859,51.173413],[5.608508,51.173608],[5.608491,51.173691],[5.608489,51.173725],[5.6085,51.173733],[5.608516,51.173743],[5.608526,51.173751],[5.608548,51.173764],[5.608691,51.17382],[5.608755,51.173854],[5.608891,51.173933],[5.608978,51.173979],[5.609033,51.174],[5.609072,51.174018],[5.609097,51.174032],[5.609153,51.174058],[5.609189,51.174084],[5.609195,51.174099],[5.609205,51.174112],[5.6092,51.174138],[5.60916,51.174156],[5.609126,51.17419],[5.609118,51.174203],[5.60912,51.174228],[5.609178,51.174259],[5.6092,51.174279],[5.609208,51.174304],[5.609218,51.174325],[5.609221,51.174352],[5.609247,51.174376],[5.60928,51.1744],[5.609302,51.17444],[5.609322,51.174452],[5.609337,51.174472],[5.609377,51.174505],[5.609398,51.174522],[5.609431,51.174536],[5.609539,51.17457],[5.609595,51.1746],[5.609625,51.174635],[5.609635,51.174649],[5.609648,51.174671],[5.609665,51.174712],[5.609637,51.174783],[5.609636,51.174811],[5.609627,51.174837],[5.609617,51.174853],[5.609626,51.174878],[5.609654,51.174909],[5.609717,51.174958],[5.609847,51.175058],[5.609916,51.175102],[5.609953,51.175121],[5.609976,51.17513],[5.610002,51.175131],[5.610034,51.175124],[5.610056,51.175112],[5.610083,51.175101],[5.610111,51.175109],[5.610167,51.175149],[5.610185,51.175169],[5.610203,51.175181],[5.610231,51.175197],[5.610289,51.175222],[5.61033,51.175239],[5.61036,51.175263],[5.610377,51.175292],[5.610392,51.17533],[5.610421,51.17537],[5.610436,51.17539],[5.610463,51.1754],[5.610497,51.175404],[5.610525,51.175405],[5.610545,51.175397],[5.61057,51.175383],[5.610618,51.175376],[5.610653,51.175363],[5.610691,51.175349],[5.610719,51.175314],[5.610788,51.175257],[5.610831,51.175243],[5.610868,51.17525],[5.610882,51.175238],[5.610908,51.175213],[5.610928,51.175191],[5.610936,51.17517],[5.610953,51.175146],[5.610975,51.17513],[5.611004,51.175121],[5.611057,51.175116],[5.611078,51.175113],[5.611095,51.175117],[5.611182,51.175175],[5.611197,51.175186],[5.611271,51.175213],[5.611325,51.175212],[5.611398,51.175218],[5.611492,51.175243],[5.611542,51.17526],[5.611604,51.175278],[5.611765,51.175346],[5.611835,51.175382],[5.611872,51.17539],[5.611932,51.175392],[5.611998,51.175411],[5.612057,51.175431],[5.612125,51.175458],[5.612229,51.175519],[5.612285,51.175544],[5.612351,51.175584],[5.612388,51.175609],[5.612418,51.17562],[5.612459,51.175634],[5.612497,51.175644],[5.612529,51.175658],[5.612587,51.175686],[5.612701,51.175735],[5.612752,51.175762],[5.612778,51.175786],[5.612776,51.175803],[5.61275,51.175833],[5.612686,51.17585],[5.612672,51.175861],[5.612663,51.175902],[5.612677,51.175936],[5.612688,51.175946],[5.612709,51.175974],[5.612714,51.176007],[5.612729,51.176015],[5.612759,51.176039],[5.612807,51.176058],[5.612857,51.17609],[5.612885,51.176117],[5.612956,51.176161],[5.613001,51.176194],[5.613017,51.176203],[5.61304,51.176223],[5.613076,51.176244],[5.613205,51.176288],[5.613326,51.176347],[5.613356,51.176348],[5.613489,51.176357],[5.613569,51.17636],[5.613602,51.176349],[5.613621,51.176335],[5.613638,51.17632],[5.613662,51.176317],[5.613722,51.176318],[5.613779,51.176323],[5.613853,51.176347],[5.613869,51.176358],[5.613924,51.176396],[5.613989,51.176447],[5.614118,51.176521],[5.614189,51.176558],[5.614226,51.176579],[5.614388,51.176681],[5.614397,51.176687],[5.614422,51.176695],[5.61445,51.176705],[5.61448,51.176708],[5.614492,51.17671],[5.614537,51.176699],[5.614569,51.176683],[5.614636,51.17668],[5.614674,51.176684],[5.61469,51.176693],[5.614706,51.176704],[5.614717,51.176707],[5.614734,51.176714],[5.614746,51.176728],[5.614771,51.176748],[5.614801,51.176763],[5.614862,51.176788],[5.614875,51.176793],[5.614911,51.17681],[5.614915,51.176826],[5.614919,51.176849],[5.61492,51.176871],[5.614921,51.176877],[5.614944,51.176896],[5.614959,51.176904],[5.614996,51.176921],[5.615041,51.176937],[5.615135,51.176968],[5.615159,51.176967],[5.615201,51.176958],[5.61526,51.17693],[5.615289,51.17692],[5.615331,51.176909],[5.615381,51.176904],[5.615397,51.176905],[5.615521,51.176914],[5.615604,51.176924],[5.615709,51.176951],[5.615738,51.176968],[5.615789,51.177011],[5.615851,51.17706],[5.615882,51.177095],[5.615908,51.177134],[5.615968,51.177187],[5.616059,51.177255],[5.616113,51.177276],[5.616195,51.177288],[5.616379,51.177329],[5.616459,51.17735],[5.616554,51.177374],[5.616644,51.177382],[5.616666,51.177384],[5.616808,51.177352],[5.616879,51.177338],[5.616962,51.177308],[5.617015,51.177286],[5.617084,51.177256],[5.617093,51.177256],[5.61721,51.177287],[5.617267,51.177309],[5.617313,51.177312],[5.617393,51.177315],[5.617632,51.177312],[5.617669,51.177311],[5.617726,51.177313],[5.617796,51.177328],[5.618009,51.177397],[5.618278,51.177473],[5.618538,51.17754],[5.618831,51.177602],[5.618858,51.177611],[5.618883,51.177616],[5.618912,51.177621],[5.618981,51.177645],[5.619012,51.177671],[5.619005,51.177684],[5.618953,51.177708],[5.618905,51.177711],[5.618817,51.177738],[5.618772,51.177765],[5.618768,51.177829],[5.618776,51.177845],[5.61883,51.17787],[5.618917,51.177872],[5.619133,51.177871],[5.619251,51.177876],[5.619332,51.177877],[5.619558,51.177878],[5.619743,51.177888],[5.619817,51.177893],[5.619904,51.177923],[5.619967,51.177975],[5.620052,51.178021],[5.620077,51.178034],[5.620142,51.178047],[5.62022,51.178058],[5.620267,51.178056],[5.620384,51.178056],[5.620579,51.178048],[5.620657,51.178043],[5.620718,51.178042],[5.620775,51.178054],[5.620832,51.17808],[5.620868,51.178103],[5.620886,51.178137],[5.620885,51.178169],[5.620868,51.178208],[5.620836,51.178226],[5.620812,51.17826],[5.62079,51.17829],[5.620809,51.178321],[5.620858,51.178346],[5.620914,51.178359],[5.620965,51.178365],[5.62101,51.178357],[5.621025,51.178352],[5.621043,51.178314],[5.621066,51.178261],[5.621077,51.178193],[5.621091,51.178175],[5.621108,51.178168],[5.621115,51.178151],[5.621178,51.178146],[5.621226,51.178151],[5.621299,51.17818],[5.621339,51.178195],[5.621392,51.178233],[5.62145,51.178288],[5.621553,51.178366],[5.621611,51.178367],[5.621669,51.178373],[5.621693,51.178373],[5.62171,51.178369],[5.621762,51.178349],[5.621795,51.178311],[5.621833,51.178254],[5.621862,51.178229],[5.621875,51.178193],[5.62189,51.178171],[5.621913,51.178164],[5.621969,51.178164],[5.622079,51.178193],[5.622121,51.178179],[5.622154,51.178164],[5.622169,51.17815],[5.6222,51.178129],[5.622214,51.178122],[5.622233,51.178092],[5.622286,51.178077],[5.622339,51.178065],[5.622412,51.178069],[5.622408,51.178078],[5.622443,51.178094],[5.622454,51.178112],[5.622472,51.178178],[5.622473,51.178219],[5.622487,51.178256],[5.622512,51.178274],[5.622542,51.178282],[5.622561,51.17828],[5.622582,51.178271],[5.622628,51.178248],[5.622713,51.178242],[5.622741,51.178253],[5.622763,51.178253],[5.622782,51.178257],[5.622816,51.178267],[5.622938,51.178336],[5.623021,51.178374],[5.62308,51.178391],[5.623189,51.178422],[5.623293,51.17842],[5.623377,51.178418],[5.62349,51.178411],[5.623537,51.178409],[5.623613,51.178415],[5.623664,51.178425],[5.623725,51.178434],[5.623763,51.178443],[5.623815,51.178488],[5.623822,51.178533],[5.623824,51.178605],[5.623841,51.178646],[5.623845,51.178672],[5.623883,51.178696],[5.623935,51.178703],[5.623996,51.178702],[5.624105,51.178708],[5.624197,51.178721],[5.624322,51.178743],[5.624358,51.178746],[5.624454,51.178747],[5.624488,51.178739],[5.624618,51.178701],[5.624648,51.17869],[5.624682,51.178686],[5.624772,51.178693],[5.624802,51.178697],[5.624831,51.17871],[5.624858,51.178711],[5.624911,51.178714],[5.62493,51.178683],[5.625103,51.178561],[5.625152,51.178541],[5.625236,51.178503],[5.625261,51.178507],[5.625326,51.178542],[5.625385,51.178584],[5.625449,51.178661],[5.625483,51.178675],[5.625572,51.178679],[5.625632,51.178684],[5.625747,51.178662],[5.62579,51.178656],[5.625848,51.178655],[5.625877,51.178655],[5.625915,51.178664],[5.625983,51.178687],[5.626006,51.178697],[5.626033,51.178731],[5.626031,51.17878],[5.626024,51.178833],[5.626025,51.178864],[5.626027,51.178891],[5.626051,51.178908],[5.626101,51.178921],[5.626191,51.178918],[5.626249,51.178915],[5.626412,51.178894],[5.626465,51.17889],[5.626501,51.178884],[5.626518,51.178884],[5.626556,51.178906],[5.626568,51.178928],[5.62652,51.178993],[5.626484,51.179039],[5.626447,51.179064],[5.626452,51.179087],[5.626479,51.179115],[5.626571,51.17916],[5.626607,51.179169],[5.626674,51.179183],[5.626752,51.179196],[5.626791,51.179191],[5.626904,51.179179],[5.626934,51.17917],[5.626982,51.179156],[5.627067,51.179169],[5.627145,51.179188],[5.627197,51.179197],[5.627272,51.179233],[5.627314,51.179249],[5.627365,51.179261],[5.627393,51.17925],[5.627446,51.17922],[5.627476,51.179189],[5.627475,51.17918],[5.627533,51.179145],[5.627582,51.179129],[5.627614,51.179106],[5.627657,51.179081],[5.627691,51.179066],[5.627748,51.179069],[5.627802,51.179054],[5.627796,51.17907],[5.627808,51.179074],[5.627851,51.179121],[5.627885,51.179159],[5.627906,51.1792],[5.627963,51.179219],[5.627989,51.179228],[5.628034,51.179211],[5.628066,51.17918],[5.628078,51.179157],[5.628074,51.179145],[5.628076,51.179123],[5.628047,51.179059],[5.628026,51.179015],[5.628008,51.178988],[5.62803,51.178972],[5.628056,51.178953],[5.628102,51.178939],[5.628154,51.178924],[5.628191,51.178926],[5.628226,51.17893],[5.628248,51.178923],[5.62828,51.178916],[5.628353,51.178956],[5.628409,51.178993],[5.628432,51.179015],[5.628491,51.179056],[5.628538,51.179092],[5.628582,51.179112],[5.628637,51.17913],[5.628721,51.179138],[5.628758,51.179135],[5.628826,51.179127],[5.628842,51.179111],[5.628886,51.179078],[5.628937,51.178969],[5.628937,51.17891],[5.628961,51.178865],[5.628977,51.178838],[5.628999,51.178823],[5.629034,51.178818],[5.629127,51.178854],[5.629186,51.17888],[5.629243,51.178898],[5.629312,51.178913],[5.62934,51.178884],[5.62937,51.178852],[5.629419,51.17878],[5.629488,51.178719],[5.629499,51.178709],[5.62958,51.17869],[5.629592,51.178684],[5.62966,51.178672],[5.629717,51.178699],[5.629823,51.178757],[5.629868,51.178777],[5.629936,51.1788],[5.630105,51.178832],[5.630149,51.178839],[5.630279,51.178906],[5.630368,51.178974],[5.630423,51.179021],[5.630458,51.179044],[5.630485,51.179074],[5.63052,51.179145],[5.630575,51.179191],[5.630622,51.179192],[5.630708,51.179194],[5.630738,51.179199],[5.630878,51.179211],[5.630933,51.179217],[5.631068,51.179276],[5.631095,51.179283],[5.631172,51.179326],[5.631261,51.179316],[5.631311,51.179363],[5.631378,51.179441],[5.63145,51.179508],[5.631524,51.179585],[5.631539,51.179592],[5.631608,51.179587],[5.631642,51.179587],[5.631927,51.179574],[5.631954,51.179572],[5.631973,51.179567],[5.632001,51.179557],[5.632064,51.179526],[5.632138,51.179481],[5.632349,51.179332],[5.632389,51.179316],[5.632435,51.179304],[5.632488,51.179309],[5.632553,51.179343],[5.632574,51.179357],[5.632596,51.179373],[5.632608,51.179386],[5.632618,51.1794],[5.632632,51.179436],[5.632643,51.17946],[5.632665,51.179481],[5.632698,51.179505],[5.632731,51.179522],[5.63279,51.179537],[5.632855,51.179546],[5.63293,51.179541],[5.632976,51.17953],[5.633,51.179521],[5.633042,51.179515],[5.633075,51.179513],[5.633125,51.179537],[5.633165,51.179562],[5.633255,51.179633],[5.633285,51.17965],[5.633306,51.17966],[5.633358,51.179663],[5.633412,51.179657],[5.633463,51.179644],[5.633512,51.179635],[5.633562,51.179634],[5.633635,51.179641],[5.633723,51.179652],[5.633851,51.179673],[5.633905,51.179678],[5.63396,51.17968],[5.633991,51.179675],[5.634028,51.179662],[5.634047,51.179648],[5.634083,51.179631],[5.634153,51.179609],[5.63422,51.179592],[5.6344,51.179575],[5.634535,51.179566],[5.634666,51.179529],[5.634704,51.179523],[5.634754,51.179519],[5.634789,51.179516],[5.634822,51.179515],[5.635013,51.179535],[5.635102,51.179527],[5.635165,51.179517],[5.635324,51.179487],[5.635368,51.179491],[5.635428,51.179515],[5.635453,51.179528],[5.635498,51.179551],[5.635561,51.179578],[5.635646,51.17961],[5.635709,51.179629],[5.635738,51.179635],[5.635776,51.179643],[5.635874,51.179649],[5.635961,51.179648],[5.636001,51.179641],[5.636067,51.179616],[5.636158,51.179578],[5.636261,51.179527],[5.636328,51.179509],[5.636394,51.179494],[5.636452,51.179479],[5.6365,51.179459],[5.636573,51.179409],[5.636596,51.179382],[5.63663,51.179334],[5.636686,51.179273],[5.636731,51.179236],[5.636764,51.17922],[5.636791,51.179222],[5.636829,51.179226],[5.636861,51.179232],[5.636873,51.179235],[5.637025,51.179288],[5.637107,51.1793],[5.637166,51.179296],[5.637204,51.17929],[5.637233,51.179281],[5.637268,51.179262],[5.637292,51.179252],[5.637329,51.179232],[5.637356,51.179224],[5.637411,51.179214],[5.637462,51.179218],[5.637487,51.179221],[5.63757,51.179223],[5.637666,51.179224],[5.637759,51.179207],[5.637845,51.179177],[5.637873,51.17916],[5.637882,51.179142],[5.637905,51.179072],[5.637927,51.179035],[5.637946,51.179018],[5.63798,51.178997],[5.638006,51.178996],[5.638052,51.179016],[5.638058,51.179019],[5.638102,51.179051],[5.638145,51.179083],[5.638183,51.179101],[5.638203,51.179104],[5.63822,51.179099],[5.638235,51.179094],[5.638242,51.179086],[5.638262,51.179048],[5.638278,51.178992],[5.638287,51.17896],[5.638304,51.178927],[5.638324,51.178908],[5.638376,51.178878],[5.638442,51.178864],[5.638514,51.178869],[5.638561,51.178886],[5.638625,51.178908],[5.638666,51.178918],[5.638709,51.178921],[5.638804,51.1789],[5.638861,51.178878],[5.638893,51.178867],[5.638915,51.178866],[5.638937,51.178869],[5.638968,51.178877],[5.639047,51.178897],[5.639022,51.179023],[5.638997,51.179139],[5.639257,51.179189],[5.639629,51.179253],[5.639691,51.179263],[5.639754,51.179273],[5.639981,51.179309],[5.640109,51.179329],[5.640356,51.179365],[5.640497,51.179386],[5.640576,51.179396],[5.640728,51.179428],[5.640832,51.179449],[5.64104,51.179486],[5.641082,51.179493],[5.641248,51.17952],[5.641493,51.179555],[5.641611,51.179572],[5.641651,51.17958],[5.641834,51.179614],[5.642013,51.179649],[5.642122,51.179669],[5.642272,51.179695],[5.642448,51.179724],[5.642761,51.179774],[5.642819,51.179783],[5.642919,51.179797],[5.64303,51.179813],[5.64311,51.179829],[5.643464,51.179893],[5.643828,51.179955],[5.644224,51.180022],[5.644569,51.180079],[5.644922,51.180137],[5.645271,51.180194],[5.645315,51.180201],[5.6457,51.180264],[5.646024,51.180314],[5.646099,51.180324],[5.646353,51.180373],[5.646713,51.180439],[5.646797,51.180456],[5.646892,51.180475],[5.647167,51.180525],[5.64754,51.180589],[5.647971,51.180663],[5.648299,51.180719],[5.648577,51.180766],[5.648654,51.18078],[5.648744,51.180798],[5.64899,51.180844],[5.649361,51.180907],[5.649753,51.180974],[5.650104,51.181036],[5.650333,51.181077],[5.650433,51.181092],[5.650518,51.181105],[5.65091,51.181172],[5.651245,51.181229],[5.651696,51.181306],[5.651887,51.181337],[5.651927,51.181344],[5.65226,51.181399],[5.652516,51.181441],[5.652648,51.181464],[5.652703,51.181473],[5.65293,51.181508],[5.653054,51.181529],[5.653428,51.181593],[5.653794,51.181653],[5.653877,51.181667],[5.654108,51.181706],[5.65441,51.181756],[5.654682,51.181801],[5.65479,51.181819],[5.655191,51.181883],[5.655867,51.181998],[5.656068,51.182036],[5.656606,51.182128],[5.657014,51.182197],[5.657347,51.182255],[5.657499,51.182283],[5.6577,51.182317],[5.658104,51.182387],[5.658172,51.182401],[5.658489,51.182455],[5.658884,51.182529],[5.659127,51.182574],[5.65946,51.182636],[5.659232,51.182794],[5.659031,51.182997],[5.658811,51.183211],[5.658696,51.183323],[5.658542,51.183472],[5.658514,51.183509],[5.658486,51.183764],[5.658489,51.18378],[5.658471,51.183944],[5.658358,51.184173],[5.658245,51.184405],[5.658192,51.184497],[5.658151,51.184571],[5.658102,51.184664],[5.658011,51.184763],[5.657844,51.184937],[5.657668,51.185125],[5.657484,51.185313],[5.657329,51.18548],[5.657162,51.185661],[5.656986,51.185852],[5.656748,51.186105],[5.656679,51.186162],[5.656529,51.186316],[5.656355,51.186509],[5.65613,51.186748],[5.655943,51.186949],[5.65573,51.187178],[5.655535,51.187378],[5.655332,51.187599],[5.655119,51.187831],[5.65492,51.188046],[5.654722,51.188255],[5.654657,51.188326],[5.654539,51.18846],[5.654323,51.188703],[5.65414,51.188905],[5.653953,51.18911],[5.653689,51.189396],[5.653535,51.18956],[5.653325,51.189778],[5.653014,51.190091],[5.652905,51.190208],[5.652741,51.19039],[5.652559,51.190586],[5.652378,51.190779],[5.652186,51.190981],[5.651955,51.191225],[5.651799,51.191389],[5.651653,51.191544],[5.651489,51.191717],[5.651184,51.192037],[5.651147,51.192076],[5.650794,51.192458],[5.650431,51.19285],[5.650247,51.193048],[5.649875,51.193448],[5.649767,51.19358],[5.649735,51.193614],[5.65046,51.193703],[5.650592,51.19372],[5.650797,51.193746],[5.651149,51.19379],[5.651341,51.193814],[5.651519,51.193846],[5.65184,51.193904],[5.652208,51.193956],[5.652572,51.194007],[5.652914,51.194055],[5.65326,51.194105],[5.653597,51.194159],[5.653928,51.194214],[5.654079,51.194238],[5.653969,51.194498],[5.653871,51.194733],[5.653783,51.194949],[5.653752,51.195024],[5.653691,51.195174],[5.653602,51.195394],[5.653492,51.195688],[5.653329,51.196083],[5.653141,51.196587],[5.653053,51.196821],[5.652957,51.197076],[5.652868,51.197303],[5.652776,51.197538],[5.652728,51.197657],[5.652531,51.197727],[5.652225,51.197835],[5.651915,51.197943],[5.651608,51.198051],[5.651417,51.198117],[5.651408,51.198125],[5.65098,51.198282],[5.65067,51.198396],[5.650439,51.198481],[5.650344,51.198511],[5.650053,51.198624],[5.649731,51.198732],[5.649445,51.19884],[5.649126,51.198954],[5.648807,51.199071],[5.647972,51.199382],[5.647604,51.199515],[5.64733,51.199619],[5.647123,51.199693],[5.646677,51.19986],[5.646493,51.199923],[5.646426,51.199952],[5.64544,51.20023],[5.644459,51.200507],[5.643815,51.200688],[5.643048,51.200905],[5.642728,51.201002],[5.642419,51.201092],[5.641771,51.201281],[5.641133,51.201467],[5.640805,51.201563],[5.640478,51.201658],[5.639831,51.201848],[5.639493,51.201937],[5.63918,51.202031],[5.638866,51.202124],[5.638608,51.202207],[5.638229,51.202319],[5.637918,51.202411],[5.637605,51.202504],[5.637253,51.202609],[5.636928,51.202707],[5.636704,51.202775],[5.636548,51.202811],[5.636487,51.202828],[5.63612,51.202929],[5.635808,51.203015],[5.635456,51.203109],[5.635103,51.203202],[5.634773,51.203289],[5.634434,51.203377],[5.634119,51.203459],[5.633783,51.203547],[5.633438,51.203636],[5.633078,51.20373],[5.632338,51.203922],[5.631954,51.204017],[5.631361,51.204173],[5.631221,51.204213],[5.630071,51.204513],[5.629769,51.204595],[5.62752,51.205169],[5.62645,51.205443],[5.625782,51.205614],[5.624698,51.205891],[5.623981,51.206074],[5.623279,51.206254],[5.62223,51.206523],[5.621834,51.206616],[5.621446,51.206713],[5.621098,51.206801],[5.620749,51.206891],[5.620407,51.206979],[5.620046,51.20707],[5.619701,51.207156],[5.619348,51.207249],[5.61899,51.207339],[5.618629,51.207432],[5.617932,51.207609],[5.617488,51.207722],[5.617154,51.20781],[5.616805,51.2079],[5.616455,51.207988],[5.616117,51.208081],[5.615731,51.208178],[5.615356,51.208272],[5.614997,51.208361],[5.614637,51.20845],[5.614287,51.208536],[5.61393,51.208623],[5.613589,51.208704],[5.613243,51.208786],[5.612876,51.208871],[5.61251,51.208961],[5.612149,51.209062],[5.611926,51.209129],[5.611809,51.20916],[5.611448,51.209256],[5.611103,51.209355],[5.610716,51.209458],[5.610355,51.209553],[5.60995,51.209658],[5.609568,51.209757],[5.609262,51.209836],[5.609028,51.209902],[5.608876,51.209931],[5.608487,51.210028],[5.608125,51.210116],[5.607806,51.2102],[5.607465,51.210285],[5.607084,51.21038],[5.60673,51.210468],[5.606365,51.210559],[5.605672,51.210733],[5.605339,51.21081],[5.604645,51.210984],[5.604298,51.211075],[5.603151,51.211365],[5.602468,51.211538],[5.601806,51.211711],[5.601445,51.2118],[5.601129,51.211884],[5.600787,51.211963],[5.600658,51.212003],[5.600522,51.212035],[5.600211,51.212122],[5.599856,51.212212],[5.599527,51.212295],[5.599164,51.212387],[5.598856,51.212465],[5.598519,51.21255],[5.598493,51.212561],[5.598247,51.212623],[5.598186,51.212639],[5.597846,51.212728],[5.597522,51.212805],[5.597446,51.212828],[5.597183,51.212891],[5.596837,51.212969],[5.596667,51.213005],[5.596513,51.213052],[5.596191,51.213142],[5.595855,51.213232],[5.595509,51.213323],[5.59544,51.213341],[5.595146,51.213416],[5.594803,51.213504],[5.59447,51.213592],[5.594132,51.213678],[5.593793,51.213763],[5.593471,51.213844],[5.593133,51.213928],[5.592808,51.214007],[5.592456,51.214092],[5.592138,51.214166],[5.591803,51.214239],[5.591731,51.214257],[5.591458,51.214339],[5.591116,51.214435],[5.590773,51.214534],[5.590376,51.214641],[5.59032,51.21466],[5.589982,51.21475],[5.589632,51.214836],[5.589346,51.214913],[5.588927,51.215019],[5.588914,51.215024],[5.58854,51.215119],[5.588032,51.215247],[5.587859,51.215287],[5.587498,51.21538],[5.587142,51.215472],[5.586759,51.21557],[5.586378,51.215668],[5.586302,51.215683],[5.585962,51.215772],[5.585611,51.215855],[5.585287,51.215937],[5.584951,51.21602],[5.584744,51.216072],[5.584626,51.216101],[5.584283,51.216185],[5.58396,51.216263],[5.583608,51.216341],[5.583519,51.216359],[5.582541,51.216714],[5.581684,51.216937],[5.580588,51.217222],[5.579144,51.217607],[5.57899,51.217645],[5.577934,51.217902],[5.576202,51.218338],[5.575906,51.218423],[5.575877,51.218358],[5.57569,51.218386],[5.575611,51.218384],[5.575637,51.218449]]]}}
