{"type":"Feature","properties":{"mrgid":2750,"name":"Alken","placeType":"Town","source":"Belgium:belgium_municipalities"},"geometry":{"type":"Polygon","coordinates":[[[5.275143,50.910222],[5.27496,50.910344],[5.274921,50.910365],[5.274892,50.910381],[5.274854,50.910386],[5.274789,50.91037],[5.274669,50.910317],[5.27452,50.91021],[5.274442,50.910164],[5.274119,50.91023],[5.273956,50.910263],[5.273867,50.910268],[5.273188,50.910283],[5.273143,50.910251],[5.27303,50.910175],[5.272989,50.910148],[5.272911,50.910102],[5.272667,50.909973],[5.272504,50.909895],[5.27241,50.909853],[5.272346,50.909824],[5.271589,50.909506],[5.271345,50.909302],[5.271084,50.909073],[5.27075,50.908798],[5.270505,50.90861],[5.270469,50.908549],[5.270424,50.908476],[5.270362,50.908385],[5.270294,50.908308],[5.270158,50.90821],[5.270072,50.908148],[5.269862,50.908008],[5.26966,50.907878],[5.269633,50.907866],[5.269612,50.90787],[5.269432,50.907953],[5.26933,50.907996],[5.269282,50.908021],[5.269249,50.90803],[5.269185,50.908035],[5.269101,50.908028],[5.269042,50.908019],[5.269004,50.908016],[5.268903,50.908004],[5.268874,50.908005],[5.268802,50.907996],[5.268756,50.907986],[5.268709,50.907969],[5.268637,50.907941],[5.268587,50.907936],[5.268516,50.907931],[5.26846,50.907916],[5.268436,50.907911],[5.268369,50.907906],[5.26834,50.907909],[5.268252,50.907923],[5.268223,50.90792],[5.268186,50.907911],[5.268155,50.907907],[5.268092,50.907903],[5.268066,50.907896],[5.267976,50.907875],[5.267945,50.907876],[5.267874,50.907882],[5.267843,50.907869],[5.267827,50.907855],[5.26781,50.907836],[5.267785,50.907829],[5.267691,50.907799],[5.267547,50.907823],[5.267545,50.907815],[5.267529,50.907777],[5.267519,50.907755],[5.267507,50.907737],[5.267497,50.907731],[5.267479,50.907727],[5.267461,50.907718],[5.267427,50.907713],[5.267407,50.907712],[5.267351,50.907716],[5.26729,50.907701],[5.267262,50.907693],[5.267231,50.907686],[5.267204,50.907673],[5.267149,50.907669],[5.267126,50.907668],[5.267096,50.907663],[5.267058,50.907656],[5.267026,50.907641],[5.266986,50.907643],[5.266959,50.90762],[5.266936,50.907593],[5.266912,50.907577],[5.26691,50.907571],[5.266929,50.907553],[5.266927,50.907526],[5.266884,50.907486],[5.266868,50.907479],[5.26686,50.907452],[5.266866,50.907397],[5.266853,50.907354],[5.266806,50.907306],[5.266751,50.90726],[5.266773,50.907243],[5.266805,50.907228],[5.26685,50.907201],[5.26689,50.907159],[5.266891,50.907135],[5.266843,50.907088],[5.266844,50.907063],[5.266843,50.907049],[5.266748,50.906949],[5.266709,50.906924],[5.266692,50.906894],[5.26663,50.90682],[5.26662,50.906791],[5.266597,50.906765],[5.266598,50.906753],[5.266586,50.906717],[5.266555,50.906692],[5.266528,50.906676],[5.266491,50.906661],[5.266554,50.906614],[5.266594,50.906585],[5.266588,50.906566],[5.26652,50.906547],[5.266483,50.906527],[5.266458,50.906518],[5.26643,50.906517],[5.266405,50.906527],[5.266378,50.906535],[5.266342,50.906525],[5.266297,50.90651],[5.266265,50.906494],[5.26625,50.906491],[5.266204,50.906491],[5.26619,50.906472],[5.266197,50.906458],[5.266205,50.906445],[5.26621,50.906431],[5.266205,50.906418],[5.266157,50.906403],[5.266135,50.906398],[5.266113,50.906389],[5.266106,50.906375],[5.266111,50.906368],[5.266133,50.906345],[5.266168,50.906326],[5.26618,50.906307],[5.266184,50.906285],[5.266184,50.906258],[5.266169,50.906215],[5.266157,50.9062],[5.266147,50.906186],[5.266128,50.906175],[5.266095,50.906158],[5.266052,50.906145],[5.265995,50.906109],[5.265966,50.906103],[5.265924,50.906109],[5.265907,50.906113],[5.265851,50.906123],[5.265831,50.906122],[5.2658,50.90612],[5.265781,50.906114],[5.265768,50.906107],[5.265743,50.906087],[5.265674,50.906032],[5.265637,50.906012],[5.265568,50.905973],[5.265521,50.905954],[5.265482,50.905946],[5.26545,50.905941],[5.265432,50.90593],[5.26542,50.905905],[5.265375,50.905879],[5.265325,50.905861],[5.265287,50.905844],[5.265213,50.905803],[5.26519,50.905778],[5.265152,50.905734],[5.265136,50.905722],[5.265109,50.905715],[5.265049,50.905715],[5.265004,50.905705],[5.264985,50.905691],[5.264964,50.905663],[5.264956,50.905648],[5.264917,50.905607],[5.264895,50.905585],[5.264865,50.905586],[5.264839,50.905589],[5.264824,50.905592],[5.264794,50.905616],[5.264774,50.905621],[5.264767,50.905624],[5.264752,50.905626],[5.264736,50.905628],[5.264707,50.905638],[5.264673,50.905649],[5.264659,50.905645],[5.264495,50.905601],[5.264468,50.905603],[5.264451,50.905616],[5.264409,50.905636],[5.264388,50.905641],[5.264374,50.905641],[5.264353,50.905631],[5.26431,50.905618],[5.264247,50.905594],[5.264241,50.905567],[5.264227,50.905546],[5.264198,50.905536],[5.264177,50.905538],[5.264161,50.905536],[5.264128,50.905529],[5.264101,50.905517],[5.264095,50.905512],[5.264088,50.905496],[5.264072,50.905468],[5.26407,50.905459],[5.264057,50.905424],[5.264043,50.90539],[5.26417,50.905292],[5.264177,50.90525],[5.263945,50.90517],[5.26392,50.905164],[5.263835,50.905148],[5.263568,50.905103],[5.263509,50.90509],[5.263417,50.905071],[5.263389,50.905064],[5.263347,50.905049],[5.263279,50.905018],[5.263211,50.904986],[5.263155,50.904974],[5.263093,50.904966],[5.263061,50.904963],[5.262963,50.904952],[5.262939,50.904947],[5.262832,50.904939],[5.262784,50.904937],[5.262767,50.904943],[5.262738,50.904957],[5.262716,50.90498],[5.262666,50.905022],[5.262643,50.905025],[5.262591,50.905012],[5.262571,50.904978],[5.262531,50.904967],[5.262499,50.904944],[5.262498,50.904907],[5.262488,50.904864],[5.26246,50.904823],[5.262441,50.904748],[5.262423,50.904705],[5.2624,50.904665],[5.262392,50.904629],[5.262348,50.904583],[5.262331,50.904539],[5.262295,50.904552],[5.262284,50.904551],[5.262251,50.904536],[5.262173,50.904534],[5.262125,50.904545],[5.262003,50.904578],[5.26196,50.90459],[5.261837,50.904585],[5.261792,50.904581],[5.261677,50.904566],[5.26163,50.904567],[5.261602,50.90457],[5.261543,50.904556],[5.261465,50.904557],[5.261412,50.904546],[5.261344,50.90454],[5.261286,50.904532],[5.261203,50.904508],[5.261125,50.904509],[5.261021,50.904512],[5.260923,50.904489],[5.260858,50.904478],[5.26079,50.904457],[5.260721,50.904455],[5.260658,50.904449],[5.26057,50.904437],[5.260554,50.904436],[5.260539,50.904435],[5.260498,50.904429],[5.260462,50.904421],[5.260428,50.904419],[5.260402,50.904419],[5.260379,50.904427],[5.260276,50.904422],[5.260234,50.904415],[5.260207,50.904411],[5.260176,50.904405],[5.26009,50.904375],[5.260059,50.904352],[5.260033,50.904326],[5.260017,50.90429],[5.260009,50.904268],[5.259908,50.904213],[5.259896,50.904208],[5.259869,50.904195],[5.25986,50.90418],[5.259857,50.904166],[5.259825,50.904145],[5.259787,50.904125],[5.259734,50.904108],[5.259658,50.904094],[5.259591,50.904087],[5.259407,50.90409],[5.259371,50.904087],[5.259244,50.904069],[5.259214,50.90407],[5.259088,50.904063],[5.259053,50.904064],[5.258941,50.904058],[5.25881,50.904024],[5.258736,50.904048],[5.258698,50.904104],[5.258675,50.904125],[5.258652,50.90413],[5.258524,50.904106],[5.258465,50.904092],[5.258436,50.904085],[5.258373,50.904063],[5.258271,50.90403],[5.258207,50.904006],[5.258053,50.903961],[5.257907,50.903935],[5.257866,50.903931],[5.257768,50.903919],[5.257716,50.903906],[5.257707,50.903899],[5.257546,50.903858],[5.257467,50.903842],[5.257341,50.903809],[5.25721,50.903779],[5.257102,50.903753],[5.256951,50.903709],[5.256891,50.903693],[5.256783,50.903661],[5.256716,50.903636],[5.25647,50.903567],[5.256356,50.903544],[5.256312,50.903541],[5.256245,50.903531],[5.256207,50.903527],[5.256161,50.903521],[5.256119,50.903523],[5.255771,50.903479],[5.255697,50.903461],[5.255553,50.903415],[5.255457,50.903373],[5.255418,50.903352],[5.255293,50.903279],[5.255272,50.90327],[5.25523,50.903253],[5.25518,50.903245],[5.255142,50.903234],[5.255113,50.903222],[5.255012,50.903156],[5.254974,50.903138],[5.25486,50.903121],[5.25479,50.903105],[5.254734,50.903088],[5.254687,50.903068],[5.25449,50.902963],[5.254348,50.902881],[5.254338,50.902875],[5.254279,50.90284],[5.2542,50.902791],[5.254083,50.902733],[5.25407,50.902717],[5.254068,50.902708],[5.254077,50.902689],[5.254138,50.902621],[5.254146,50.902611],[5.254131,50.902602],[5.254117,50.902595],[5.253941,50.90253],[5.253786,50.902523],[5.253687,50.902515],[5.253602,50.902503],[5.253563,50.902497],[5.253548,50.902494],[5.253522,50.902475],[5.253518,50.902454],[5.253523,50.902411],[5.253522,50.902364],[5.253481,50.902319],[5.253445,50.902295],[5.253414,50.902285],[5.253314,50.902226],[5.253249,50.902209],[5.253202,50.902203],[5.253139,50.902198],[5.2531,50.902192],[5.253007,50.902171],[5.252977,50.902155],[5.252939,50.90214],[5.252911,50.902133],[5.252866,50.902122],[5.252841,50.90212],[5.252633,50.90211],[5.252563,50.902117],[5.252488,50.902155],[5.252461,50.902177],[5.252388,50.902152],[5.252304,50.902125],[5.252217,50.902091],[5.252177,50.902071],[5.25214,50.902051],[5.252078,50.90201],[5.252005,50.901968],[5.251957,50.901943],[5.251881,50.901918],[5.251783,50.901897],[5.251698,50.901884],[5.251666,50.901844],[5.251508,50.901782],[5.25144,50.901739],[5.251424,50.901714],[5.251395,50.901681],[5.251341,50.901652],[5.251288,50.901633],[5.251145,50.901591],[5.251125,50.901582],[5.25109,50.901551],[5.251043,50.901533],[5.250971,50.901526],[5.250902,50.901527],[5.250887,50.901524],[5.250881,50.901506],[5.250889,50.901482],[5.250935,50.901421],[5.250915,50.9013],[5.250905,50.901277],[5.250882,50.901248],[5.250862,50.901239],[5.250759,50.901232],[5.250639,50.901184],[5.250602,50.901175],[5.250438,50.901122],[5.250436,50.901116],[5.250437,50.901106],[5.250444,50.90107],[5.250434,50.90104],[5.250381,50.900979],[5.250344,50.900931],[5.250326,50.900904],[5.250168,50.900797],[5.250149,50.900782],[5.250115,50.900738],[5.250079,50.900677],[5.250021,50.90063],[5.249991,50.900609],[5.249914,50.900572],[5.249708,50.900486],[5.249584,50.90035],[5.249524,50.900282],[5.249447,50.900151],[5.249383,50.900037],[5.249317,50.899952],[5.249287,50.899886],[5.249246,50.899783],[5.249222,50.899724],[5.249205,50.899656],[5.249217,50.899553],[5.249233,50.899509],[5.249279,50.899414],[5.249349,50.899304],[5.249387,50.899231],[5.249409,50.899181],[5.249436,50.899078],[5.249458,50.898948],[5.249474,50.898859],[5.249476,50.898689],[5.249483,50.898625],[5.249489,50.898484],[5.249522,50.898257],[5.249541,50.897935],[5.249547,50.897824],[5.249553,50.89769],[5.249555,50.897539],[5.249552,50.897489],[5.249543,50.89741],[5.249475,50.896908],[5.249426,50.896543],[5.249416,50.896467],[5.24936,50.896063],[5.24929,50.895618],[5.24928,50.895552],[5.249211,50.895136],[5.249129,50.8947],[5.249103,50.894524],[5.249197,50.894254],[5.249283,50.894214],[5.249351,50.894079],[5.249493,50.893939],[5.249667,50.893746],[5.249733,50.893676],[5.249815,50.893597],[5.249922,50.893497],[5.249977,50.893446],[5.250029,50.893403],[5.250067,50.893366],[5.250087,50.893321],[5.250195,50.893245],[5.250227,50.893236],[5.250341,50.893204],[5.250407,50.893188],[5.250564,50.893142],[5.250627,50.893126],[5.250705,50.893102],[5.250778,50.893078],[5.250986,50.892996],[5.251054,50.892975],[5.251136,50.892959],[5.251238,50.892955],[5.251326,50.892956],[5.251458,50.892954],[5.251557,50.892956],[5.251623,50.89295],[5.251734,50.892939],[5.251821,50.892926],[5.251898,50.892916],[5.252187,50.892871],[5.252313,50.892854],[5.252465,50.892812],[5.252536,50.8928],[5.252637,50.892779],[5.252831,50.892738],[5.253036,50.892697],[5.253081,50.892692],[5.253126,50.892695],[5.253197,50.892695],[5.253271,50.892703],[5.253444,50.892735],[5.253566,50.892744],[5.253656,50.892743],[5.25372,50.892747],[5.253805,50.892758],[5.253827,50.892759],[5.254009,50.892788],[5.254158,50.892802],[5.254229,50.892805],[5.254354,50.892833],[5.254551,50.892878],[5.254592,50.892883],[5.254659,50.892886],[5.254701,50.89288],[5.25474,50.892878],[5.254808,50.892872],[5.254949,50.892892],[5.254998,50.892904],[5.25505,50.892923],[5.255138,50.892938],[5.255242,50.892933],[5.255324,50.892941],[5.255443,50.892932],[5.255524,50.892913],[5.255569,50.892903],[5.255642,50.892894],[5.255723,50.892874],[5.255787,50.892866],[5.255849,50.892862],[5.255905,50.892861],[5.255979,50.892858],[5.256052,50.892853],[5.256123,50.892837],[5.256136,50.892833],[5.256154,50.892815],[5.256175,50.892804],[5.256237,50.89276],[5.256281,50.892737],[5.256401,50.892714],[5.256439,50.892721],[5.256502,50.892749],[5.256557,50.892758],[5.256584,50.89277],[5.256613,50.892774],[5.256651,50.892783],[5.256715,50.892809],[5.256747,50.892813],[5.256768,50.892814],[5.256874,50.892822],[5.256899,50.892822],[5.256962,50.892825],[5.257055,50.892841],[5.25711,50.892857],[5.257189,50.892887],[5.257281,50.892912],[5.257425,50.892946],[5.25756,50.892962],[5.257663,50.892969],[5.257732,50.892972],[5.257821,50.892964],[5.257879,50.892957],[5.257947,50.892952],[5.258003,50.892943],[5.258112,50.892907],[5.258245,50.892859],[5.258305,50.89283],[5.258437,50.892781],[5.258488,50.892765],[5.258611,50.892726],[5.258666,50.892706],[5.258877,50.892643],[5.258945,50.892611],[5.25901,50.892579],[5.259085,50.892549],[5.259204,50.892507],[5.259264,50.892492],[5.259335,50.892468],[5.25942,50.892434],[5.25952,50.892379],[5.259756,50.892247],[5.259881,50.892174],[5.259981,50.892144],[5.260167,50.892128],[5.260264,50.892126],[5.260462,50.892121],[5.260641,50.892115],[5.260657,50.892114],[5.260921,50.892078],[5.261105,50.892051],[5.261234,50.892057],[5.261268,50.892065],[5.261404,50.892096],[5.261435,50.892103],[5.261578,50.89213],[5.261733,50.892173],[5.261769,50.892181],[5.261869,50.892203],[5.261977,50.892219],[5.262048,50.89222],[5.262091,50.892224],[5.262121,50.892225],[5.26216,50.892225],[5.262223,50.892229],[5.262267,50.892229],[5.262379,50.892234],[5.262433,50.892242],[5.262473,50.892242],[5.262514,50.892233],[5.262577,50.892228],[5.262599,50.892221],[5.262619,50.892221],[5.26272,50.892178],[5.262791,50.892165],[5.262844,50.89215],[5.262961,50.8921],[5.263099,50.892044],[5.263147,50.892015],[5.263196,50.891988],[5.263352,50.891916],[5.263415,50.891882],[5.263464,50.891847],[5.263498,50.891802],[5.263509,50.891788],[5.263555,50.891738],[5.263568,50.891726],[5.263576,50.891705],[5.263558,50.891686],[5.263493,50.89164],[5.263443,50.891594],[5.263351,50.891482],[5.263304,50.891446],[5.263284,50.891436],[5.263251,50.891413],[5.263172,50.891355],[5.263138,50.891324],[5.263133,50.891307],[5.263159,50.891301],[5.263185,50.891287],[5.263207,50.891282],[5.263232,50.891271],[5.263245,50.891249],[5.263274,50.891248],[5.263285,50.891234],[5.263293,50.891217],[5.263283,50.891206],[5.263235,50.891169],[5.263221,50.891152],[5.26319,50.891139],[5.263135,50.891133],[5.263124,50.891133],[5.263089,50.891128],[5.26303,50.891109],[5.262896,50.891067],[5.262877,50.891063],[5.262832,50.891044],[5.262817,50.891041],[5.262782,50.891024],[5.262759,50.891009],[5.262724,50.890995],[5.262702,50.890989],[5.262682,50.890992],[5.262646,50.890986],[5.262634,50.890979],[5.262586,50.890981],[5.262557,50.890974],[5.262513,50.890957],[5.262453,50.890923],[5.26246,50.890884],[5.262479,50.890828],[5.262461,50.890793],[5.262377,50.89074],[5.262367,50.890726],[5.262348,50.890706],[5.26235,50.890648],[5.262359,50.890595],[5.262392,50.890562],[5.262425,50.890518],[5.262454,50.890469],[5.262457,50.890455],[5.262445,50.890437],[5.262417,50.890429],[5.262377,50.890408],[5.262246,50.890371],[5.262291,50.890307],[5.262312,50.890281],[5.262273,50.89023],[5.26225,50.890208],[5.262218,50.890181],[5.262195,50.890158],[5.262143,50.890125],[5.262135,50.890123],[5.262108,50.890104],[5.262084,50.89008],[5.262052,50.890064],[5.262041,50.890025],[5.262047,50.890013],[5.262053,50.889975],[5.262018,50.889931],[5.261999,50.889926],[5.261915,50.88983],[5.26187,50.889791],[5.261814,50.889721],[5.261791,50.88969],[5.261727,50.889593],[5.261706,50.88956],[5.261692,50.889539],[5.261683,50.889525],[5.261655,50.889482],[5.261624,50.889458],[5.2616,50.889431],[5.261598,50.889401],[5.261622,50.889401],[5.261682,50.889398],[5.261733,50.889384],[5.261753,50.889369],[5.261766,50.889359],[5.261792,50.889316],[5.261791,50.889299],[5.2618,50.889286],[5.261808,50.88925],[5.261819,50.88923],[5.261824,50.889206],[5.261824,50.889183],[5.26183,50.88916],[5.26182,50.889101],[5.261821,50.889077],[5.261857,50.889023],[5.261889,50.889003],[5.261959,50.88892],[5.261985,50.888847],[5.261983,50.888818],[5.261993,50.88874],[5.262,50.888713],[5.262005,50.888671],[5.262012,50.888664],[5.262077,50.888638],[5.2621,50.888631],[5.262126,50.888626],[5.26214,50.888625],[5.262218,50.888629],[5.262237,50.888626],[5.262266,50.88862],[5.262312,50.8886],[5.262323,50.888577],[5.262332,50.888563],[5.262337,50.888554],[5.262363,50.888554],[5.262379,50.888546],[5.262414,50.888528],[5.26242,50.88851],[5.262426,50.888502],[5.262429,50.888493],[5.262361,50.888368],[5.262279,50.88823],[5.262253,50.888204],[5.262211,50.888175],[5.262149,50.888157],[5.262125,50.888137],[5.262131,50.888116],[5.262166,50.888093],[5.262194,50.88808],[5.262218,50.888071],[5.262272,50.888056],[5.262369,50.888036],[5.262371,50.888023],[5.262364,50.887996],[5.26234,50.887966],[5.262281,50.88793],[5.262251,50.88791],[5.262221,50.887898],[5.262204,50.887889],[5.262149,50.887862],[5.262079,50.88785],[5.261976,50.887815],[5.261942,50.887812],[5.261897,50.887817],[5.26186,50.887817],[5.261824,50.887808],[5.261785,50.887801],[5.261765,50.887804],[5.261698,50.887829],[5.261685,50.887822],[5.261656,50.887816],[5.261625,50.887799],[5.261578,50.887749],[5.261538,50.887732],[5.261489,50.887714],[5.261449,50.887666],[5.2614,50.887649],[5.261386,50.887641],[5.261344,50.887624],[5.26133,50.887595],[5.261308,50.887554],[5.261297,50.887542],[5.261238,50.887526],[5.261206,50.887504],[5.261165,50.88746],[5.261113,50.887379],[5.261088,50.887356],[5.261029,50.887266],[5.26104,50.887224],[5.26104,50.887189],[5.261015,50.887159],[5.260996,50.887146],[5.260975,50.887126],[5.260946,50.887099],[5.260932,50.887077],[5.260904,50.887045],[5.260895,50.887028],[5.260852,50.886973],[5.260836,50.886925],[5.260812,50.886889],[5.26082,50.886829],[5.26081,50.886781],[5.260722,50.886734],[5.260705,50.886711],[5.260734,50.886651],[5.260731,50.88663],[5.260699,50.886593],[5.260686,50.886582],[5.260673,50.886564],[5.260699,50.88652],[5.26071,50.886487],[5.260696,50.886454],[5.26065,50.886436],[5.260608,50.886428],[5.260504,50.886428],[5.260493,50.886434],[5.260468,50.886421],[5.260425,50.886419],[5.260356,50.886406],[5.260285,50.886367],[5.260266,50.886345],[5.260233,50.886326],[5.260207,50.886319],[5.26018,50.886309],[5.260167,50.886301],[5.260142,50.886294],[5.260122,50.886271],[5.260066,50.886252],[5.25997,50.886204],[5.25995,50.886166],[5.259945,50.886158],[5.259914,50.886122],[5.259869,50.886093],[5.259829,50.886067],[5.259797,50.886037],[5.259788,50.886027],[5.259757,50.885983],[5.259727,50.885954],[5.259706,50.885935],[5.259661,50.885902],[5.259603,50.885831],[5.25955,50.885819],[5.259502,50.885775],[5.259483,50.88571],[5.259472,50.885709],[5.259444,50.885712],[5.25943,50.885716],[5.259397,50.88572],[5.259384,50.885718],[5.259359,50.885719],[5.259338,50.885715],[5.259315,50.885705],[5.2593,50.885701],[5.259293,50.885696],[5.25928,50.885688],[5.259264,50.885688],[5.259246,50.885688],[5.259226,50.88569],[5.259203,50.885684],[5.25918,50.88568],[5.25914,50.885692],[5.259056,50.885698],[5.258931,50.885679],[5.258863,50.885681],[5.258837,50.885684],[5.258758,50.885689],[5.258717,50.885687],[5.258689,50.88567],[5.258661,50.885661],[5.258646,50.885656],[5.258626,50.885637],[5.258636,50.885608],[5.258602,50.885607],[5.258598,50.885593],[5.258567,50.885585],[5.258541,50.885573],[5.258522,50.88557],[5.258505,50.885561],[5.258498,50.885554],[5.25846,50.88555],[5.258443,50.88549],[5.258429,50.885484],[5.258408,50.885487],[5.258371,50.885481],[5.258342,50.885504],[5.258299,50.885586],[5.258275,50.885608],[5.258217,50.885622],[5.258132,50.885617],[5.258064,50.88559],[5.258025,50.885578],[5.25799,50.885558],[5.257959,50.885529],[5.257933,50.885517],[5.257909,50.885494],[5.257865,50.885459],[5.257802,50.885433],[5.257774,50.885414],[5.257765,50.885409],[5.257765,50.885389],[5.25775,50.88537],[5.257743,50.885349],[5.257733,50.885343],[5.257724,50.885328],[5.257724,50.885289],[5.257703,50.885265],[5.257619,50.885256],[5.257588,50.885243],[5.257553,50.885223],[5.257507,50.885126],[5.257412,50.885094],[5.257375,50.885066],[5.257298,50.885036],[5.257268,50.885028],[5.257236,50.885],[5.257201,50.884994],[5.257186,50.884977],[5.257199,50.884954],[5.257179,50.88492],[5.257162,50.884904],[5.257119,50.884876],[5.257088,50.884867],[5.257016,50.884854],[5.25698,50.884844],[5.256958,50.884826],[5.256928,50.884816],[5.256927,50.88479],[5.256881,50.884762],[5.256859,50.884748],[5.256835,50.884741],[5.256804,50.884729],[5.256778,50.884661],[5.256769,50.88464],[5.256756,50.884604],[5.256713,50.88454],[5.256667,50.884539],[5.256632,50.884541],[5.256544,50.884573],[5.256503,50.884592],[5.256461,50.884605],[5.256374,50.884633],[5.256228,50.88468],[5.256122,50.884715],[5.256073,50.884712],[5.255985,50.884671],[5.255951,50.88465],[5.255896,50.884608],[5.255862,50.884589],[5.255757,50.884557],[5.255708,50.884545],[5.255693,50.884536],[5.255686,50.884527],[5.255685,50.884514],[5.25573,50.884493],[5.255744,50.884469],[5.255744,50.884462],[5.255762,50.884433],[5.25576,50.884423],[5.255767,50.884407],[5.255744,50.884387],[5.255676,50.884361],[5.255646,50.884342],[5.255635,50.884332],[5.25556,50.884286],[5.25553,50.884273],[5.255519,50.88426],[5.255507,50.884212],[5.255444,50.884178],[5.255379,50.884156],[5.255329,50.884129],[5.255307,50.884114],[5.255296,50.884101],[5.25525,50.884065],[5.255203,50.884005],[5.255129,50.883981],[5.255106,50.883957],[5.255084,50.883945],[5.255066,50.88392],[5.255058,50.883899],[5.255046,50.883883],[5.255035,50.883877],[5.255009,50.883877],[5.254992,50.883879],[5.254965,50.883878],[5.254957,50.883877],[5.254941,50.883859],[5.254926,50.883849],[5.25492,50.883835],[5.254907,50.883835],[5.254841,50.883839],[5.254805,50.883842],[5.25473,50.883815],[5.254714,50.8838],[5.254659,50.883782],[5.254648,50.883776],[5.254618,50.883762],[5.254555,50.883746],[5.254494,50.883724],[5.254453,50.883712],[5.254404,50.883701],[5.254339,50.883671],[5.254313,50.883662],[5.254242,50.883643],[5.254187,50.883619],[5.254109,50.883598],[5.254057,50.883579],[5.253993,50.883564],[5.253915,50.883542],[5.253871,50.883535],[5.253841,50.883523],[5.253743,50.883493],[5.253635,50.883485],[5.253587,50.883468],[5.253567,50.883446],[5.253563,50.883432],[5.253527,50.883406],[5.253433,50.883366],[5.253398,50.883347],[5.253364,50.883322],[5.253354,50.88328],[5.253373,50.883258],[5.253393,50.883203],[5.253385,50.883195],[5.253332,50.883161],[5.2533,50.883146],[5.253225,50.883115],[5.253157,50.883064],[5.253041,50.883035],[5.253019,50.883031],[5.252965,50.883015],[5.252939,50.883],[5.252905,50.882985],[5.252839,50.882898],[5.252809,50.882878],[5.252782,50.882877],[5.252771,50.882884],[5.252759,50.882902],[5.252718,50.882914],[5.252648,50.882923],[5.252631,50.882921],[5.252594,50.882914],[5.252556,50.882913],[5.252528,50.882906],[5.2525,50.882896],[5.252461,50.882869],[5.252409,50.882806],[5.252385,50.88278],[5.252362,50.882772],[5.252345,50.882764],[5.252315,50.882754],[5.252271,50.882735],[5.252205,50.882698],[5.252172,50.882681],[5.252108,50.882628],[5.252075,50.882589],[5.25205,50.882571],[5.252027,50.882554],[5.251971,50.88254],[5.25194,50.882521],[5.251914,50.882507],[5.251883,50.882482],[5.25185,50.88247],[5.2518,50.882464],[5.251701,50.882433],[5.25168,50.882425],[5.251655,50.882415],[5.251634,50.882401],[5.25156,50.882363],[5.251472,50.882337],[5.25136,50.882267],[5.2513,50.882238],[5.251262,50.882221],[5.251227,50.882198],[5.251207,50.882181],[5.251186,50.882151],[5.251146,50.882122],[5.251126,50.882103],[5.251119,50.882077],[5.251093,50.882041],[5.251045,50.88201],[5.250968,50.881998],[5.250925,50.881988],[5.250889,50.881976],[5.250776,50.881916],[5.250702,50.881897],[5.250622,50.881852],[5.250579,50.881837],[5.250542,50.881832],[5.250475,50.881815],[5.250444,50.881806],[5.250411,50.881785],[5.250377,50.881773],[5.250312,50.88176],[5.250283,50.88175],[5.250224,50.881706],[5.25013,50.881684],[5.250109,50.881672],[5.25011,50.881657],[5.250096,50.88165],[5.250075,50.881637],[5.250059,50.881625],[5.250058,50.881619],[5.250063,50.881614],[5.250054,50.881603],[5.250037,50.881586],[5.250004,50.881573],[5.249961,50.881549],[5.24995,50.881536],[5.249956,50.881513],[5.249958,50.881436],[5.249946,50.881322],[5.249928,50.881263],[5.249852,50.881138],[5.249813,50.881065],[5.249697,50.880815],[5.24965,50.880721],[5.249552,50.880706],[5.249493,50.880635],[5.249403,50.880562],[5.249196,50.88043],[5.249143,50.880399],[5.249108,50.880382],[5.249048,50.880353],[5.248921,50.880303],[5.248865,50.880278],[5.248849,50.880265],[5.248828,50.88025],[5.248772,50.880204],[5.24877,50.880192],[5.248748,50.880162],[5.248795,50.879795],[5.248808,50.879689],[5.248868,50.879223],[5.248827,50.879216],[5.248861,50.878882],[5.248864,50.878855],[5.248896,50.878494],[5.248854,50.878487],[5.24882,50.877947],[5.248778,50.877278],[5.248775,50.877238],[5.24872,50.876539],[5.249333,50.876393],[5.249702,50.876312],[5.249718,50.876285],[5.249762,50.876198],[5.24935,50.875686],[5.249229,50.875536],[5.249219,50.875524],[5.24922,50.875523],[5.248776,50.874967],[5.248415,50.875056],[5.248376,50.875112],[5.248296,50.875233],[5.248245,50.875311],[5.248216,50.875264],[5.248179,50.875204],[5.248176,50.875198],[5.248131,50.875136],[5.247996,50.874946],[5.247948,50.874876],[5.247888,50.874726],[5.247873,50.874711],[5.247803,50.874667],[5.247776,50.874653],[5.247698,50.874613],[5.247681,50.874602],[5.247606,50.874548],[5.247453,50.874438],[5.247409,50.874412],[5.247264,50.874337],[5.247108,50.874264],[5.247022,50.874232],[5.246837,50.87417],[5.246462,50.874045],[5.246304,50.87403],[5.246206,50.874022],[5.246045,50.874006],[5.245941,50.873978],[5.245869,50.873947],[5.245761,50.87388],[5.245563,50.873741],[5.245464,50.873669],[5.245418,50.873641],[5.245374,50.873614],[5.245299,50.873574],[5.245221,50.873546],[5.245208,50.873541],[5.245125,50.873519],[5.245057,50.873499],[5.245049,50.873497],[5.245047,50.873336],[5.245045,50.873105],[5.245041,50.872877],[5.24504,50.872848],[5.245002,50.872646],[5.244869,50.872247],[5.244844,50.872179],[5.244778,50.872025],[5.244707,50.871935],[5.244634,50.871836],[5.24455,50.871727],[5.244441,50.871594],[5.244425,50.8716],[5.24436,50.871503],[5.244213,50.871288],[5.243909,50.870831],[5.243773,50.870628],[5.243624,50.870405],[5.243618,50.870396],[5.243578,50.870332],[5.243555,50.870268],[5.24347,50.869956],[5.243405,50.869689],[5.243401,50.869642],[5.243406,50.869597],[5.243497,50.868662],[5.243469,50.868646],[5.2434,50.868607],[5.242987,50.868404],[5.242766,50.868293],[5.242525,50.868168],[5.242127,50.867974],[5.242276,50.867741],[5.242413,50.867526],[5.242429,50.8675],[5.242528,50.867343],[5.242571,50.867276],[5.242646,50.867156],[5.242723,50.867036],[5.242789,50.867084],[5.242838,50.867115],[5.243109,50.86728],[5.243323,50.867411],[5.243748,50.867671],[5.243854,50.867273],[5.243863,50.867245],[5.243944,50.867026],[5.243994,50.866979],[5.244151,50.86689],[5.244168,50.866881],[5.244353,50.866765],[5.244505,50.866667],[5.244596,50.866598],[5.244633,50.866566],[5.245154,50.86611],[5.24556,50.865758],[5.245573,50.865745],[5.245582,50.865732],[5.245638,50.86566],[5.245714,50.86556],[5.245755,50.865573],[5.246033,50.865655],[5.246101,50.865675],[5.246263,50.86553],[5.246565,50.86526],[5.246754,50.865085],[5.247043,50.86482],[5.247154,50.864726],[5.247386,50.864522],[5.247439,50.864474],[5.247618,50.864325],[5.247817,50.864188],[5.247984,50.864072],[5.248044,50.864023],[5.248212,50.863887],[5.248234,50.863872],[5.248276,50.863839],[5.248313,50.863814],[5.248411,50.863776],[5.248603,50.863687],[5.249465,50.863325],[5.249946,50.863117],[5.250347,50.862945],[5.250561,50.862846],[5.250853,50.862683],[5.251072,50.862558],[5.251082,50.862565],[5.251582,50.862253],[5.251748,50.862139],[5.252017,50.861919],[5.2522,50.861765],[5.252446,50.86158],[5.252594,50.861453],[5.252739,50.861291],[5.252862,50.861156],[5.25288,50.861066],[5.252956,50.860995],[5.253314,50.860613],[5.253398,50.860495],[5.253512,50.860333],[5.253658,50.860123],[5.25403,50.859696],[5.254075,50.85971],[5.254265,50.859577],[5.254471,50.859484],[5.254678,50.859346],[5.254871,50.859216],[5.254957,50.859158],[5.255144,50.859076],[5.255361,50.858971],[5.255558,50.858873],[5.255736,50.858784],[5.255891,50.85872],[5.256022,50.858721],[5.256129,50.858677],[5.256448,50.858532],[5.256645,50.858383],[5.256676,50.858367],[5.256887,50.858267],[5.257201,50.858152],[5.257298,50.858125],[5.257408,50.858109],[5.257902,50.858047],[5.257956,50.858045],[5.258467,50.858033],[5.258715,50.858039],[5.258919,50.857982],[5.25904,50.857932],[5.259426,50.857755],[5.259707,50.85762],[5.259845,50.857534],[5.260028,50.857414],[5.260135,50.857322],[5.260359,50.857084],[5.260411,50.857028],[5.260746,50.856664],[5.260803,50.856604],[5.260991,50.856402],[5.261018,50.856376],[5.261142,50.856242],[5.26115,50.856232],[5.261265,50.856121],[5.26148,50.855919],[5.261569,50.85582],[5.261591,50.855804],[5.261752,50.85569],[5.261863,50.855632],[5.262203,50.855465],[5.262299,50.855416],[5.262537,50.855289],[5.262642,50.85523],[5.262687,50.855204],[5.262976,50.855033],[5.26308,50.854975],[5.263206,50.854904],[5.263396,50.854791],[5.263401,50.854793],[5.263601,50.854674],[5.2636,50.85467],[5.263623,50.854661],[5.26376,50.854606],[5.26381,50.854585],[5.26382,50.854586],[5.264509,50.85441],[5.264642,50.854378],[5.264647,50.854379],[5.264777,50.854431],[5.264878,50.854483],[5.265142,50.854486],[5.265358,50.854492],[5.265504,50.854497],[5.265716,50.854479],[5.265829,50.854473],[5.266101,50.854451],[5.26625,50.854429],[5.266511,50.854392],[5.266676,50.854362],[5.266803,50.85434],[5.2671,50.854287],[5.267342,50.854245],[5.267984,50.854144],[5.268107,50.854127],[5.268764,50.854052],[5.269153,50.854012],[5.269819,50.853945],[5.270188,50.85392],[5.270308,50.853915],[5.270823,50.853913],[5.271434,50.853917],[5.271942,50.853906],[5.273218,50.853897],[5.273225,50.853909],[5.273282,50.853986],[5.273501,50.853972],[5.273944,50.853964],[5.2751,50.853924],[5.275291,50.853916],[5.276004,50.853877],[5.276004,50.853876],[5.276366,50.85387],[5.276384,50.853874],[5.276837,50.853859],[5.276836,50.853863],[5.277769,50.853833],[5.277868,50.853827],[5.279325,50.853789],[5.280926,50.853734],[5.280974,50.853733],[5.282091,50.853691],[5.282472,50.853676],[5.282738,50.853668],[5.28282,50.853667],[5.282944,50.853666],[5.28299,50.853669],[5.283183,50.85369],[5.283375,50.853723],[5.28358,50.853769],[5.283763,50.853818],[5.283948,50.853848],[5.28457,50.853891],[5.284569,50.853892],[5.284635,50.853895],[5.285137,50.85393],[5.285444,50.85396],[5.286525,50.854056],[5.286777,50.854082],[5.286892,50.854106],[5.286895,50.8541],[5.287692,50.854437],[5.287949,50.854509],[5.28835,50.854583],[5.289015,50.854715],[5.289125,50.854731],[5.289297,50.854753],[5.289404,50.854773],[5.289466,50.854782],[5.290588,50.85504],[5.290774,50.855064],[5.290861,50.855076],[5.290884,50.855043],[5.291091,50.855063],[5.291132,50.855068],[5.291421,50.855085],[5.292248,50.855107],[5.29231,50.855013],[5.293452,50.855305],[5.293457,50.855296],[5.293501,50.855307],[5.293524,50.855285],[5.294188,50.855419],[5.294272,50.855437],[5.294771,50.855542],[5.295115,50.854957],[5.295933,50.85518],[5.295782,50.855423],[5.295787,50.855454],[5.296359,50.855585],[5.296529,50.855626],[5.29673,50.855664],[5.297163,50.855751],[5.297364,50.85578],[5.297466,50.855794],[5.297717,50.855812],[5.297786,50.855816],[5.298138,50.855851],[5.298912,50.855912],[5.299554,50.855957],[5.300349,50.856007],[5.300629,50.855981],[5.30068,50.856012],[5.300877,50.856137],[5.300987,50.856235],[5.301035,50.856264],[5.301173,50.856314],[5.30123,50.856331],[5.301442,50.856383],[5.301494,50.856404],[5.301806,50.856589],[5.302006,50.856728],[5.30216,50.856839],[5.302328,50.856971],[5.302548,50.85712],[5.30265,50.857161],[5.302848,50.857233],[5.302868,50.857234],[5.303718,50.857525],[5.304258,50.857689],[5.304814,50.857863],[5.305172,50.857936],[5.305462,50.857929],[5.306026,50.857922],[5.306137,50.857929],[5.306406,50.857978],[5.306581,50.858023],[5.306732,50.858075],[5.306745,50.858066],[5.306842,50.85811],[5.306931,50.858205],[5.306948,50.858225],[5.30701,50.858254],[5.307051,50.858264],[5.30713,50.85828],[5.307227,50.858311],[5.307278,50.858364],[5.307342,50.858475],[5.307512,50.858601],[5.307703,50.858786],[5.307842,50.858881],[5.307945,50.858929],[5.308022,50.85896],[5.308326,50.859073],[5.308629,50.859193],[5.30875,50.859248],[5.308817,50.859297],[5.308886,50.859367],[5.309083,50.859533],[5.309327,50.859718],[5.309362,50.859724],[5.309487,50.859714],[5.309552,50.85973],[5.309709,50.859783],[5.309807,50.859829],[5.310012,50.860001],[5.31023,50.860208],[5.31035,50.860402],[5.310528,50.860754],[5.310517,50.860784],[5.310442,50.860824],[5.310329,50.860915],[5.310453,50.861071],[5.310535,50.861198],[5.310874,50.861652],[5.311026,50.861838],[5.311087,50.861922],[5.311139,50.861966],[5.311279,50.861964],[5.311312,50.861975],[5.311469,50.862123],[5.31162,50.862155],[5.312023,50.862433],[5.31202,50.862566],[5.312037,50.862682],[5.312092,50.862904],[5.312111,50.862959],[5.312221,50.863146],[5.312281,50.863226],[5.312274,50.86332],[5.312278,50.863444],[5.312307,50.863594],[5.312355,50.863674],[5.312456,50.863802],[5.312483,50.863829],[5.312585,50.863898],[5.312621,50.863914],[5.312837,50.863989],[5.312966,50.864042],[5.313195,50.864166],[5.313279,50.864207],[5.3138,50.864527],[5.314523,50.864935],[5.31462,50.864985],[5.314881,50.86511],[5.315277,50.865269],[5.315343,50.865289],[5.31538,50.865299],[5.31566,50.86536],[5.315796,50.865382],[5.315963,50.865418],[5.316101,50.865444],[5.316123,50.865428],[5.316802,50.865539],[5.317111,50.865633],[5.317255,50.86567],[5.317328,50.865684],[5.317932,50.865772],[5.318127,50.865794],[5.318464,50.865815],[5.318876,50.865851],[5.318895,50.865851],[5.318967,50.865839],[5.319026,50.865841],[5.319402,50.865859],[5.320417,50.865914],[5.320471,50.86592],[5.320659,50.865946],[5.320674,50.865933],[5.32162,50.866031],[5.321743,50.866016],[5.321893,50.86603],[5.322238,50.866065],[5.322365,50.866078],[5.322405,50.866021],[5.322406,50.866021],[5.322494,50.866015],[5.322568,50.866007],[5.322711,50.866014],[5.322905,50.866025],[5.323009,50.866035],[5.323166,50.866066],[5.323206,50.866051],[5.323269,50.866025],[5.323315,50.866015],[5.323373,50.866021],[5.323463,50.866069],[5.323525,50.866065],[5.323628,50.866056],[5.323664,50.866048],[5.323778,50.866029],[5.324116,50.866026],[5.32417,50.866024],[5.324276,50.866023],[5.324344,50.866065],[5.324395,50.866056],[5.324483,50.865965],[5.324524,50.865953],[5.324555,50.865952],[5.324657,50.865947],[5.324674,50.865961],[5.324652,50.866082],[5.324672,50.866117],[5.324712,50.866121],[5.324904,50.866071],[5.324962,50.86607],[5.325092,50.866108],[5.325186,50.866138],[5.325231,50.866146],[5.325286,50.866121],[5.325359,50.866068],[5.325394,50.866062],[5.325468,50.866058],[5.325545,50.866059],[5.325578,50.866064],[5.32562,50.866086],[5.325676,50.866149],[5.325708,50.866174],[5.325744,50.866186],[5.325758,50.866186],[5.325818,50.866157],[5.325879,50.866132],[5.325942,50.866124],[5.325984,50.866116],[5.326055,50.866132],[5.326194,50.866154],[5.326414,50.866141],[5.326442,50.866142],[5.327646,50.866364],[5.327872,50.866388],[5.328199,50.866442],[5.3287,50.866525],[5.328855,50.866603],[5.328913,50.866632],[5.328999,50.866636],[5.329064,50.866627],[5.329138,50.866604],[5.329196,50.866564],[5.329266,50.866541],[5.329342,50.866511],[5.329437,50.866495],[5.3296,50.866454],[5.329728,50.86644],[5.329943,50.866389],[5.330059,50.866361],[5.330091,50.866359],[5.330145,50.866352],[5.330197,50.866337],[5.330225,50.866314],[5.330243,50.866298],[5.330279,50.866294],[5.330345,50.866292],[5.330406,50.866295],[5.330564,50.866306],[5.33067,50.866317],[5.330733,50.866315],[5.330894,50.866306],[5.330955,50.866308],[5.331097,50.866306],[5.331183,50.8663],[5.331259,50.866313],[5.331319,50.866301],[5.331587,50.866268],[5.331721,50.866308],[5.331882,50.866345],[5.331976,50.866361],[5.332122,50.866404],[5.332181,50.866418],[5.33228,50.866434],[5.332389,50.866435],[5.33256,50.866433],[5.332668,50.866442],[5.332755,50.866451],[5.332854,50.866489],[5.332877,50.866488],[5.332936,50.866483],[5.333056,50.866475],[5.333155,50.866451],[5.333164,50.866443],[5.33324,50.866409],[5.333292,50.866394],[5.333312,50.866386],[5.333366,50.866391],[5.333399,50.86642],[5.333433,50.866457],[5.333452,50.86646],[5.3336,50.866462],[5.333647,50.866483],[5.333715,50.866507],[5.333925,50.866621],[5.334076,50.866709],[5.334264,50.866805],[5.334389,50.866822],[5.334447,50.866831],[5.334583,50.866853],[5.334769,50.866887],[5.334806,50.866874],[5.335138,50.866944],[5.335217,50.866963],[5.335839,50.867022],[5.336176,50.866937],[5.336376,50.866912],[5.336545,50.866913],[5.336737,50.866975],[5.337137,50.867072],[5.337202,50.867071],[5.337959,50.866973],[5.33923,50.866797],[5.339267,50.86677],[5.33982,50.866711],[5.340269,50.866664],[5.340424,50.866675],[5.340626,50.866697],[5.341115,50.866728],[5.341327,50.866752],[5.341765,50.866792],[5.34184,50.866814],[5.341985,50.866851],[5.342813,50.86692],[5.342814,50.866928],[5.343006,50.866946],[5.343185,50.866939],[5.34338,50.866891],[5.343684,50.866829],[5.34455,50.866775],[5.344675,50.866768],[5.345028,50.866758],[5.345399,50.86671],[5.345517,50.866688],[5.345774,50.866657],[5.346272,50.866617],[5.346635,50.866612],[5.347279,50.866649],[5.348278,50.866804],[5.348536,50.866865],[5.348862,50.866889],[5.349063,50.866933],[5.349515,50.86702],[5.350561,50.867215],[5.35084,50.867252],[5.351981,50.867541],[5.351871,50.867838],[5.351785,50.868072],[5.351623,50.868513],[5.351617,50.868528],[5.35153,50.868752],[5.351442,50.868974],[5.351346,50.869231],[5.351215,50.869538],[5.351201,50.869883],[5.351197,50.869963],[5.351145,50.869958],[5.35112,50.870216],[5.351068,50.870214],[5.351016,50.870579],[5.350984,50.870809],[5.350938,50.871141],[5.350914,50.871182],[5.350814,50.871464],[5.350871,50.871473],[5.35078,50.871728],[5.350729,50.871872],[5.350695,50.871957],[5.350669,50.87202],[5.350598,50.872184],[5.350545,50.87231],[5.350508,50.872413],[5.350415,50.872633],[5.350311,50.87288],[5.350266,50.872984],[5.350218,50.873085],[5.349982,50.873645],[5.349752,50.874164],[5.349459,50.874828],[5.349423,50.87484],[5.349278,50.875004],[5.349236,50.875068],[5.349121,50.875207],[5.349102,50.875236],[5.349047,50.875312],[5.348983,50.875403],[5.348951,50.875451],[5.348947,50.875458],[5.348875,50.875564],[5.348854,50.875596],[5.348803,50.875667],[5.348737,50.875743],[5.348731,50.87582],[5.34873,50.875834],[5.348718,50.875848],[5.348681,50.875893],[5.348598,50.875974],[5.348415,50.876172],[5.348269,50.876332],[5.348106,50.876497],[5.34796,50.876645],[5.347905,50.876702],[5.347809,50.8768],[5.347719,50.876892],[5.347655,50.876943],[5.347601,50.876983],[5.347564,50.877025],[5.347402,50.877229],[5.347374,50.877264],[5.347322,50.877329],[5.347184,50.877495],[5.347093,50.877606],[5.34708,50.877626],[5.347019,50.877752],[5.346957,50.87791],[5.346943,50.877955],[5.34693,50.877988],[5.346898,50.878101],[5.346874,50.87908],[5.346875,50.879158],[5.346878,50.879356],[5.346884,50.879549],[5.346897,50.879736],[5.346903,50.879815],[5.346926,50.880005],[5.346949,50.880166],[5.346961,50.880253],[5.346982,50.88052],[5.34702,50.881205],[5.347031,50.881352],[5.347045,50.88151],[5.347047,50.881536],[5.346967,50.881553],[5.346972,50.881682],[5.346978,50.881745],[5.347001,50.88186],[5.347007,50.881973],[5.347027,50.882092],[5.347027,50.882189],[5.347031,50.882262],[5.347041,50.882379],[5.347059,50.882599],[5.347068,50.882696],[5.347071,50.882732],[5.347092,50.88297],[5.347106,50.88313],[5.347115,50.883227],[5.347143,50.883336],[5.347149,50.883411],[5.347155,50.883479],[5.34715,50.88355],[5.347154,50.883599],[5.347173,50.883722],[5.347183,50.883778],[5.347192,50.883847],[5.347207,50.883959],[5.347211,50.883988],[5.347237,50.884042],[5.347254,50.884078],[5.347278,50.88411],[5.347189,50.884162],[5.347124,50.884199],[5.347067,50.884249],[5.347036,50.884302],[5.347009,50.884348],[5.346971,50.884419],[5.346742,50.885008],[5.346368,50.884981],[5.345674,50.884931],[5.345633,50.8852],[5.345859,50.885219],[5.346275,50.885253],[5.34658,50.885279],[5.346616,50.885281],[5.346631,50.885282],[5.346464,50.885689],[5.346457,50.885738],[5.346444,50.885778],[5.346423,50.885781],[5.346316,50.885779],[5.346196,50.885777],[5.346024,50.885766],[5.345796,50.885767],[5.345578,50.88576],[5.345431,50.885753],[5.345199,50.885749],[5.345121,50.885744],[5.344776,50.885721],[5.344606,50.885706],[5.344501,50.885695],[5.344327,50.885691],[5.343871,50.88567],[5.34378,50.885659],[5.343675,50.885656],[5.343599,50.885659],[5.34346,50.885675],[5.343389,50.885685],[5.343227,50.885704],[5.343198,50.885715],[5.343133,50.885742],[5.343079,50.885784],[5.343043,50.885817],[5.342978,50.885866],[5.342945,50.885884],[5.342917,50.885893],[5.34283,50.885931],[5.342766,50.885963],[5.342703,50.88598],[5.342539,50.885961],[5.342426,50.885959],[5.342384,50.885961],[5.342292,50.88596],[5.342262,50.885957],[5.342214,50.885955],[5.342104,50.88594],[5.342046,50.88593],[5.341903,50.885899],[5.341814,50.885885],[5.341704,50.885875],[5.341607,50.885869],[5.341505,50.885869],[5.341469,50.885868],[5.341375,50.885868],[5.341241,50.885859],[5.341226,50.885855],[5.341186,50.88584],[5.341122,50.885821],[5.341009,50.885793],[5.340977,50.885788],[5.340922,50.885787],[5.340776,50.885801],[5.340713,50.885805],[5.340605,50.885815],[5.340557,50.885814],[5.340461,50.885802],[5.340425,50.885792],[5.340386,50.885782],[5.340281,50.885763],[5.340215,50.885755],[5.340141,50.885749],[5.339996,50.885734],[5.33993,50.885732],[5.339866,50.885726],[5.339814,50.885725],[5.339748,50.885719],[5.339661,50.885703],[5.339627,50.885693],[5.339572,50.88569],[5.33951,50.885698],[5.339525,50.885826],[5.339525,50.885916],[5.339516,50.88604],[5.339495,50.886163],[5.339484,50.88619],[5.339456,50.886213],[5.339431,50.886222],[5.339387,50.886217],[5.339263,50.886165],[5.339204,50.886151],[5.339151,50.886171],[5.339115,50.886185],[5.339087,50.886204],[5.339029,50.886265],[5.338944,50.886338],[5.338818,50.886368],[5.338643,50.88638],[5.338591,50.88638],[5.338531,50.886376],[5.338359,50.886373],[5.338298,50.886359],[5.338266,50.886339],[5.338155,50.886278],[5.338099,50.886243],[5.338055,50.886219],[5.338009,50.886217],[5.337961,50.88622],[5.337904,50.886232],[5.337845,50.886248],[5.337761,50.886274],[5.337673,50.886305],[5.337633,50.886321],[5.337552,50.886356],[5.337503,50.886386],[5.337501,50.886392],[5.337509,50.886422],[5.337511,50.886446],[5.337516,50.88647],[5.337517,50.886496],[5.337517,50.886517],[5.337507,50.886545],[5.337496,50.886562],[5.337449,50.886601],[5.337343,50.886635],[5.337281,50.886657],[5.337191,50.886694],[5.337124,50.886752],[5.337079,50.886806],[5.337048,50.886837],[5.33699,50.886882],[5.336878,50.886948],[5.336845,50.886964],[5.336801,50.886974],[5.336711,50.886988],[5.33661,50.88699],[5.33652,50.886979],[5.336493,50.886983],[5.336477,50.886991],[5.336452,50.887002],[5.336436,50.887011],[5.336384,50.887055],[5.336316,50.887103],[5.336259,50.88713],[5.336212,50.887142],[5.336124,50.887143],[5.336017,50.887138],[5.335972,50.887133],[5.335803,50.887115],[5.335768,50.88711],[5.335594,50.887083],[5.335477,50.887063],[5.335419,50.887058],[5.335332,50.887054],[5.335202,50.887069],[5.335034,50.8871],[5.334897,50.887118],[5.334842,50.887121],[5.334763,50.887099],[5.334743,50.887093],[5.334727,50.887074],[5.334629,50.886989],[5.334595,50.886961],[5.334532,50.886962],[5.334464,50.886986],[5.3344,50.887001],[5.334328,50.887009],[5.334245,50.886975],[5.334213,50.886962],[5.334143,50.88693],[5.334096,50.886908],[5.333974,50.886868],[5.333914,50.886847],[5.333879,50.886838],[5.333846,50.886822],[5.333747,50.88674],[5.333706,50.886679],[5.333679,50.886645],[5.33367,50.886619],[5.333672,50.886581],[5.333693,50.886506],[5.333702,50.886449],[5.33369,50.886376],[5.333599,50.88634],[5.333558,50.886339],[5.333521,50.886342],[5.333441,50.886354],[5.333368,50.886373],[5.333285,50.886393],[5.333177,50.886404],[5.333115,50.886409],[5.333046,50.886413],[5.332959,50.886427],[5.332941,50.88643],[5.332889,50.886437],[5.332835,50.886449],[5.332758,50.886473],[5.332728,50.886479],[5.332666,50.886492],[5.332605,50.886511],[5.332305,50.886586],[5.332166,50.886603],[5.332099,50.886611],[5.332025,50.886618],[5.331915,50.886626],[5.331863,50.886627],[5.331827,50.886626],[5.331653,50.886615],[5.331626,50.886614],[5.331596,50.886613],[5.331369,50.886606],[5.331306,50.886606],[5.331257,50.886604],[5.331055,50.886596],[5.330989,50.886598],[5.330944,50.886624],[5.330938,50.886629],[5.330914,50.886662],[5.330901,50.886671],[5.330889,50.886678],[5.330862,50.88669],[5.330836,50.886689],[5.330802,50.886681],[5.330682,50.88667],[5.330639,50.886672],[5.330434,50.886688],[5.330313,50.886697],[5.330276,50.886703],[5.33008,50.886774],[5.329796,50.886885],[5.329718,50.88692],[5.32966,50.886924],[5.329633,50.886913],[5.329608,50.886902],[5.329504,50.886875],[5.329434,50.88687],[5.329377,50.88687],[5.329284,50.886864],[5.329218,50.886859],[5.329153,50.886773],[5.329058,50.886682],[5.328962,50.886627],[5.328871,50.88661],[5.328822,50.886601],[5.328589,50.886566],[5.32852,50.886563],[5.328414,50.886564],[5.328401,50.886567],[5.32836,50.886573],[5.32831,50.886581],[5.328286,50.886583],[5.328275,50.886586],[5.328205,50.886617],[5.328128,50.88665],[5.328019,50.886684],[5.327952,50.8867],[5.327878,50.88671],[5.327798,50.886725],[5.327725,50.886736],[5.327642,50.886738],[5.327626,50.886739],[5.327469,50.886765],[5.32743,50.886771],[5.327398,50.886778],[5.327372,50.886787],[5.327346,50.886802],[5.327304,50.886834],[5.327281,50.886855],[5.327256,50.886885],[5.32713,50.886982],[5.32706,50.887017],[5.327029,50.887018],[5.327,50.887021],[5.326872,50.887016],[5.326805,50.886999],[5.326772,50.886988],[5.326745,50.886971],[5.326699,50.886937],[5.326675,50.886923],[5.326615,50.886859],[5.326582,50.886834],[5.326567,50.886834],[5.326533,50.88684],[5.326491,50.886856],[5.326467,50.886877],[5.32645,50.886897],[5.326433,50.886948],[5.32643,50.88702],[5.32643,50.887072],[5.326423,50.887078],[5.326431,50.887092],[5.326409,50.887128],[5.326404,50.887139],[5.32631,50.887143],[5.32622,50.887112],[5.326185,50.887095],[5.326155,50.887095],[5.326134,50.887091],[5.326114,50.887087],[5.326038,50.887081],[5.325906,50.887075],[5.325912,50.887093],[5.325934,50.887153],[5.326156,50.887745],[5.325864,50.887822],[5.325878,50.887843],[5.325876,50.887846],[5.325817,50.887843],[5.325642,50.88782],[5.325619,50.887821],[5.325542,50.887829],[5.325474,50.887836],[5.324127,50.888077],[5.324075,50.888082],[5.323142,50.888244],[5.322456,50.888364],[5.321911,50.888452],[5.321856,50.888454],[5.32179,50.888439],[5.321757,50.888423],[5.321669,50.888371],[5.321588,50.888334],[5.321537,50.888314],[5.32149,50.888308],[5.321469,50.888304],[5.321433,50.888302],[5.321311,50.888304],[5.321253,50.888318],[5.321208,50.888334],[5.321153,50.888368],[5.321109,50.888395],[5.321064,50.888422],[5.321007,50.888453],[5.320965,50.888472],[5.320821,50.888522],[5.320656,50.888559],[5.320565,50.888585],[5.320519,50.88861],[5.320481,50.888636],[5.320454,50.888656],[5.320427,50.888677],[5.320379,50.88871],[5.320333,50.88874],[5.320256,50.888771],[5.320188,50.8888],[5.320133,50.888822],[5.320081,50.88884],[5.320057,50.888852],[5.319942,50.88892],[5.319793,50.888918],[5.319707,50.88892],[5.319626,50.888924],[5.319544,50.88892],[5.319491,50.888897],[5.319405,50.888855],[5.319372,50.888844],[5.319326,50.888835],[5.319274,50.888843],[5.319099,50.88886],[5.319034,50.888863],[5.318853,50.888854],[5.318825,50.888854],[5.31879,50.88886],[5.318752,50.888869],[5.318727,50.888872],[5.318708,50.888881],[5.318579,50.888976],[5.318545,50.888998],[5.318517,50.889018],[5.318489,50.889032],[5.318443,50.889043],[5.318369,50.889035],[5.318288,50.889019],[5.318169,50.889012],[5.318122,50.889018],[5.318085,50.889026],[5.318067,50.889036],[5.318036,50.889063],[5.317797,50.889255],[5.317729,50.889302],[5.317618,50.889363],[5.317554,50.889408],[5.317551,50.889435],[5.317597,50.889557],[5.317602,50.889574],[5.317601,50.889597],[5.317408,50.889648],[5.317333,50.889654],[5.31723,50.889665],[5.317194,50.889663],[5.317032,50.889658],[5.316911,50.889651],[5.316902,50.889654],[5.316875,50.889696],[5.316835,50.889783],[5.316813,50.889846],[5.316799,50.889871],[5.316756,50.889943],[5.316671,50.889998],[5.316452,50.89002],[5.316396,50.890032],[5.316324,50.890057],[5.316274,50.890101],[5.316179,50.890203],[5.316154,50.890222],[5.316108,50.890245],[5.315874,50.890339],[5.315775,50.890396],[5.315709,50.890471],[5.315642,50.890554],[5.315568,50.890624],[5.315504,50.890666],[5.315398,50.890735],[5.315333,50.890789],[5.31531,50.890816],[5.315277,50.890848],[5.315239,50.89088],[5.315139,50.890948],[5.315132,50.890957],[5.315118,50.890979],[5.315077,50.891045],[5.31455,50.890956],[5.314517,50.890958],[5.314514,50.890971],[5.314506,50.891016],[5.314469,50.891053],[5.31445,50.891064],[5.314307,50.891109],[5.314261,50.891132],[5.314182,50.891195],[5.314138,50.891236],[5.314098,50.891262],[5.314007,50.891303],[5.313908,50.891335],[5.313621,50.891388],[5.313567,50.891402],[5.313493,50.891422],[5.313412,50.891464],[5.313299,50.891551],[5.313121,50.891645],[5.312997,50.891703],[5.312965,50.891725],[5.312915,50.891777],[5.312884,50.891828],[5.312876,50.891845],[5.312857,50.891894],[5.31285,50.891918],[5.312842,50.891987],[5.312822,50.892056],[5.312792,50.892103],[5.312759,50.892099],[5.312526,50.892039],[5.31239,50.892024],[5.312334,50.892033],[5.312301,50.892046],[5.312281,50.892078],[5.312084,50.892543],[5.312072,50.892557],[5.312054,50.892569],[5.311987,50.892594],[5.311919,50.892617],[5.311898,50.892627],[5.311888,50.892663],[5.311884,50.89269],[5.311887,50.892715],[5.311882,50.89274],[5.311867,50.892766],[5.311845,50.892776],[5.311759,50.892794],[5.311675,50.89283],[5.311621,50.892877],[5.311597,50.892901],[5.311597,50.892921],[5.311577,50.892988],[5.311576,50.89307],[5.311594,50.893103],[5.311669,50.89321],[5.311699,50.893258],[5.311668,50.893278],[5.311609,50.89329],[5.311401,50.893259],[5.311386,50.893259],[5.311176,50.893465],[5.311078,50.893579],[5.310978,50.893738],[5.310924,50.893887],[5.310918,50.893934],[5.310935,50.893979],[5.310961,50.894019],[5.311066,50.894139],[5.311114,50.894204],[5.311129,50.894237],[5.31112,50.894282],[5.311088,50.89432],[5.311024,50.894352],[5.310508,50.894453],[5.310429,50.894477],[5.310322,50.894505],[5.310277,50.894529],[5.310255,50.894566],[5.310226,50.894597],[5.310208,50.894626],[5.310091,50.894825],[5.309886,50.895014],[5.309679,50.895189],[5.309584,50.895228],[5.309505,50.895244],[5.308972,50.895328],[5.308827,50.895358],[5.308752,50.895376],[5.308672,50.895459],[5.308595,50.895581],[5.308521,50.895636],[5.308344,50.895725],[5.307833,50.895967],[5.307589,50.896127],[5.307526,50.896169],[5.307139,50.896254],[5.307072,50.896332],[5.307032,50.896385],[5.306921,50.896508],[5.306361,50.896737],[5.306332,50.89673],[5.306263,50.896711],[5.306219,50.896691],[5.306037,50.896599],[5.305904,50.896549],[5.305862,50.896539],[5.305807,50.89655],[5.305834,50.896569],[5.305887,50.896669],[5.305807,50.896728],[5.305656,50.896818],[5.305614,50.896825],[5.305478,50.896786],[5.305296,50.896723],[5.305224,50.896709],[5.305177,50.896702],[5.305096,50.896692],[5.305069,50.896694],[5.304974,50.896704],[5.304858,50.896729],[5.304563,50.896869],[5.304512,50.896905],[5.304238,50.897034],[5.30407,50.897092],[5.303918,50.897127],[5.303649,50.89714],[5.30353,50.897134],[5.303449,50.897116],[5.303297,50.897086],[5.303237,50.897088],[5.303196,50.89711],[5.303166,50.897182],[5.303122,50.897244],[5.303047,50.897324],[5.302985,50.897347],[5.302618,50.897432],[5.302488,50.897526],[5.302398,50.897581],[5.302374,50.89758],[5.302329,50.897564],[5.302275,50.897529],[5.302141,50.897413],[5.302076,50.897377],[5.302,50.897407],[5.301887,50.897471],[5.301839,50.897486],[5.301737,50.897503],[5.301538,50.897558],[5.301167,50.897664],[5.301159,50.897682],[5.301143,50.897706],[5.301126,50.897729],[5.301128,50.897783],[5.301136,50.897811],[5.30115,50.897833],[5.301155,50.897866],[5.301119,50.897955],[5.301074,50.898007],[5.301027,50.898018],[5.301,50.898017],[5.300975,50.898009],[5.300905,50.897982],[5.30085,50.89794],[5.300806,50.89791],[5.300762,50.89789],[5.300688,50.897862],[5.300627,50.897837],[5.300494,50.897785],[5.300363,50.897744],[5.300283,50.897707],[5.300235,50.89769],[5.300158,50.897659],[5.300039,50.897631],[5.299998,50.897623],[5.299875,50.897602],[5.299791,50.897586],[5.299662,50.89757],[5.299581,50.897635],[5.299476,50.89775],[5.29945,50.897769],[5.299392,50.89779],[5.299244,50.897799],[5.299144,50.897813],[5.299047,50.897862],[5.299,50.89787],[5.298859,50.897777],[5.298788,50.89774],[5.298727,50.89777],[5.298658,50.897806],[5.298569,50.897821],[5.29851,50.897818],[5.298458,50.897724],[5.298446,50.89763],[5.29842,50.897569],[5.298383,50.897535],[5.298239,50.897517],[5.29815,50.89751],[5.298111,50.897521],[5.298087,50.897531],[5.298048,50.89755],[5.297962,50.897587],[5.297869,50.897624],[5.297855,50.897653],[5.2979,50.897692],[5.297946,50.897723],[5.297974,50.897761],[5.297934,50.897827],[5.297844,50.897855],[5.29776,50.897882],[5.297716,50.897918],[5.297702,50.897961],[5.297541,50.898155],[5.297512,50.898161],[5.297396,50.898143],[5.297314,50.898138],[5.297232,50.898168],[5.297149,50.898227],[5.297031,50.898307],[5.296902,50.898381],[5.296871,50.898379],[5.29626,50.8982],[5.295948,50.89811],[5.295913,50.898088],[5.295896,50.898073],[5.295774,50.897956],[5.295728,50.897916],[5.295681,50.897918],[5.295669,50.89792],[5.295647,50.89794],[5.295639,50.897966],[5.295631,50.898012],[5.295649,50.898163],[5.295633,50.898198],[5.295533,50.898278],[5.295492,50.898332],[5.295469,50.898353],[5.295433,50.898359],[5.295394,50.898354],[5.295182,50.898287],[5.295075,50.898254],[5.29467,50.898111],[5.294393,50.898008],[5.294195,50.897936],[5.294008,50.897936],[5.293801,50.897945],[5.29364,50.897951],[5.29357,50.897949],[5.293486,50.897941],[5.293463,50.897935],[5.293446,50.897923],[5.29344,50.897888],[5.293439,50.89785],[5.293506,50.897536],[5.293488,50.897436],[5.293353,50.897439],[5.293307,50.89747],[5.293231,50.897526],[5.293121,50.897642],[5.293063,50.897715],[5.29302,50.897828],[5.29296,50.897953],[5.292932,50.897986],[5.292873,50.898026],[5.292832,50.898046],[5.292702,50.898084],[5.292662,50.898087],[5.292603,50.89808],[5.292439,50.898058],[5.2922,50.89803],[5.291596,50.898153],[5.291493,50.898217],[5.291433,50.898254],[5.291333,50.898296],[5.2912,50.898337],[5.290979,50.898405],[5.290872,50.898447],[5.290544,50.89859],[5.290408,50.898645],[5.290061,50.898754],[5.289825,50.898842],[5.289696,50.898888],[5.289598,50.898925],[5.289556,50.898943],[5.289463,50.898985],[5.289424,50.899003],[5.289368,50.899036],[5.289327,50.899074],[5.289315,50.899093],[5.28929,50.899134],[5.289247,50.899169],[5.289202,50.89919],[5.289156,50.899196],[5.288994,50.899199],[5.288906,50.899217],[5.288822,50.899242],[5.288749,50.899249],[5.288689,50.89924],[5.288439,50.899187],[5.288333,50.899168],[5.288001,50.899109],[5.287819,50.899064],[5.287718,50.899032],[5.287223,50.898876],[5.28718,50.8989],[5.287139,50.898901],[5.287038,50.898937],[5.286941,50.898981],[5.286854,50.899028],[5.286808,50.89907],[5.286746,50.899128],[5.286685,50.899192],[5.286659,50.899249],[5.286651,50.899272],[5.286741,50.899376],[5.286768,50.899443],[5.286756,50.899461],[5.286741,50.899491],[5.286694,50.899544],[5.286556,50.899656],[5.286492,50.899698],[5.286327,50.899801],[5.286302,50.89982],[5.286252,50.899866],[5.286305,50.899924],[5.286414,50.900016],[5.286556,50.900112],[5.286546,50.900136],[5.286363,50.900164],[5.286259,50.9002],[5.286176,50.900233],[5.286115,50.900266],[5.28601,50.900337],[5.285905,50.900398],[5.285893,50.900409],[5.285827,50.900443],[5.285765,50.900448],[5.285742,50.90044],[5.285677,50.900405],[5.285594,50.900308],[5.285505,50.900259],[5.28547,50.900243],[5.285407,50.900221],[5.285241,50.900207],[5.285081,50.900219],[5.285046,50.900235],[5.284881,50.900304],[5.28473,50.900388],[5.284615,50.900469],[5.284544,50.900528],[5.28459,50.900578],[5.284606,50.900592],[5.284617,50.900607],[5.2846,50.900633],[5.284553,50.900684],[5.284315,50.900859],[5.284287,50.90087],[5.284076,50.900887],[5.283981,50.900897],[5.283883,50.900918],[5.283724,50.90096],[5.283549,50.90103],[5.283414,50.901115],[5.283295,50.901201],[5.283226,50.901258],[5.283193,50.901286],[5.283217,50.901364],[5.283241,50.901402],[5.283248,50.901421],[5.28325,50.901432],[5.283229,50.90146],[5.283185,50.901492],[5.283153,50.901513],[5.283061,50.901512],[5.282759,50.901488],[5.282621,50.901476],[5.282588,50.901508],[5.282573,50.901618],[5.282602,50.901659],[5.282766,50.90181],[5.282849,50.902093],[5.282848,50.902111],[5.282838,50.902133],[5.282801,50.902174],[5.282487,50.9024],[5.282423,50.902444],[5.28215,50.902621],[5.28208,50.902734],[5.282074,50.902764],[5.282082,50.902803],[5.282118,50.902837],[5.282185,50.902873],[5.28256,50.902958],[5.282653,50.902983],[5.282776,50.903025],[5.283111,50.903175],[5.283311,50.903236],[5.283388,50.90325],[5.283437,50.903254],[5.283478,50.903253],[5.283565,50.903236],[5.283809,50.903136],[5.283827,50.903136],[5.283833,50.903142],[5.283852,50.903161],[5.284067,50.903382],[5.284068,50.903409],[5.284043,50.903438],[5.284004,50.903477],[5.28393,50.903549],[5.283891,50.903595],[5.283861,50.903672],[5.283815,50.904057],[5.283811,50.90408],[5.283784,50.904095],[5.283674,50.904096],[5.283468,50.904114],[5.283412,50.904117],[5.283386,50.904135],[5.283377,50.904197],[5.283405,50.904232],[5.28344,50.904265],[5.283687,50.904424],[5.283792,50.904489],[5.283841,50.904521],[5.283891,50.904578],[5.283906,50.904616],[5.283901,50.904677],[5.283882,50.904731],[5.28383,50.904793],[5.283761,50.904833],[5.283698,50.904863],[5.283482,50.90494],[5.283433,50.90495],[5.283341,50.904975],[5.283265,50.905002],[5.2832,50.905071],[5.283094,50.905232],[5.283073,50.90531],[5.282903,50.905579],[5.28288,50.905603],[5.282858,50.905622],[5.282664,50.905663],[5.28251,50.905688],[5.282411,50.905698],[5.282349,50.905709],[5.282262,50.905733],[5.282238,50.90578],[5.282228,50.905824],[5.282232,50.905933],[5.282222,50.906028],[5.282196,50.906083],[5.282041,50.906113],[5.281847,50.906164],[5.281788,50.906174],[5.281768,50.906199],[5.281777,50.906245],[5.28178,50.906332],[5.281826,50.90655],[5.28182,50.906689],[5.281814,50.906856],[5.281812,50.906878],[5.28174,50.906911],[5.281633,50.906945],[5.281338,50.907015],[5.281203,50.907061],[5.281159,50.907083],[5.28114,50.907115],[5.281056,50.907396],[5.281016,50.907441],[5.280965,50.907464],[5.280857,50.907465],[5.280765,50.907451],[5.280701,50.90743],[5.280641,50.907402],[5.280557,50.90737],[5.280478,50.907346],[5.280405,50.907335],[5.280306,50.907323],[5.280134,50.907312],[5.279816,50.907305],[5.279771,50.90735],[5.279726,50.907385],[5.279641,50.907508],[5.279383,50.907923],[5.279215,50.908163],[5.279177,50.908216],[5.279076,50.908291],[5.278939,50.908367],[5.278742,50.908445],[5.278599,50.908501],[5.278541,50.90851],[5.278403,50.908496],[5.278286,50.908477],[5.278126,50.908465],[5.278085,50.908518],[5.278012,50.908573],[5.277875,50.90875],[5.277767,50.908893],[5.277597,50.909146],[5.277552,50.909215],[5.277478,50.909315],[5.277412,50.909397],[5.27736,50.909463],[5.277342,50.909512],[5.277335,50.909591],[5.277352,50.909696],[5.277383,50.90979],[5.277392,50.909834],[5.277376,50.909852],[5.277351,50.909864],[5.277056,50.909944],[5.276956,50.909934],[5.276713,50.909883],[5.276378,50.909895],[5.276279,50.909893],[5.276069,50.909806],[5.275986,50.909776],[5.275828,50.909828],[5.275765,50.909851],[5.275691,50.909872],[5.275627,50.90991],[5.275538,50.90996],[5.275449,50.910019],[5.275143,50.910222]]]}}
