{"type":"Feature","properties":{"mrgid":2753,"name":"Heers","placeType":"Town","source":"Belgium:belgium_municipalities"},"geometry":{"type":"Polygon","coordinates":[[[5.281858,50.79175],[5.28169,50.791763],[5.281227,50.791791],[5.281035,50.7918],[5.280808,50.791809],[5.279899,50.791856],[5.279645,50.791873],[5.279637,50.791834],[5.279738,50.791434],[5.279825,50.791392],[5.279873,50.791202],[5.279939,50.790958],[5.279963,50.790787],[5.279991,50.790541],[5.279992,50.790251],[5.280136,50.789939],[5.280243,50.789815],[5.28025,50.78964],[5.280316,50.789563],[5.280456,50.789468],[5.280623,50.789379],[5.280813,50.78931],[5.280988,50.789235],[5.281221,50.789159],[5.28132,50.789125],[5.281395,50.78909],[5.28168,50.788863],[5.281856,50.788723],[5.281925,50.788667],[5.281991,50.788608],[5.2821,50.788506],[5.282167,50.788396],[5.282223,50.788252],[5.282267,50.787913],[5.282249,50.787848],[5.282345,50.787812],[5.282346,50.787812],[5.282321,50.787728],[5.282277,50.787637],[5.282045,50.787612],[5.282032,50.787598],[5.28204,50.787549],[5.282047,50.787515],[5.282088,50.787375],[5.282121,50.787333],[5.282269,50.78722],[5.282282,50.787198],[5.282293,50.787168],[5.282309,50.786995],[5.282367,50.786911],[5.282364,50.786883],[5.282326,50.786825],[5.2823,50.786785],[5.282307,50.786746],[5.282324,50.786712],[5.282497,50.786598],[5.28253,50.786448],[5.282509,50.78642],[5.28242,50.786366],[5.282416,50.786315],[5.282444,50.786298],[5.283166,50.785841],[5.284545,50.784992],[5.2846,50.784962],[5.284905,50.784793],[5.284903,50.784693],[5.284914,50.784664],[5.284982,50.784566],[5.285085,50.784472],[5.28548,50.784203],[5.285828,50.783976],[5.2859,50.783952],[5.285981,50.7839],[5.285929,50.783781],[5.285848,50.78375],[5.285865,50.783701],[5.286004,50.783595],[5.286027,50.783592],[5.286117,50.783604],[5.286199,50.783671],[5.286234,50.783672],[5.286267,50.783659],[5.28629,50.783634],[5.286306,50.7836],[5.286342,50.783545],[5.286401,50.783498],[5.286432,50.783489],[5.286528,50.783455],[5.286555,50.783436],[5.28661,50.783329],[5.286593,50.783276],[5.286524,50.783194],[5.286467,50.783114],[5.286473,50.783081],[5.286506,50.783061],[5.286686,50.783053],[5.286768,50.782981],[5.286799,50.782889],[5.286786,50.78283],[5.286743,50.78275],[5.286733,50.782709],[5.286725,50.782678],[5.28672,50.782653],[5.286729,50.782514],[5.286766,50.78246],[5.286819,50.782408],[5.286867,50.782368],[5.286872,50.78233],[5.286825,50.782277],[5.286681,50.782186],[5.28667,50.782153],[5.286696,50.782106],[5.28675,50.782009],[5.286793,50.781848],[5.286811,50.781814],[5.28678,50.781745],[5.286744,50.78172],[5.286662,50.781661],[5.286622,50.78161],[5.286586,50.781397],[5.286592,50.781355],[5.28662,50.781332],[5.2867,50.781298],[5.286722,50.781276],[5.286684,50.781235],[5.286551,50.781178],[5.286553,50.781156],[5.28663,50.781082],[5.286661,50.781017],[5.286662,50.780912],[5.286622,50.780889],[5.286474,50.780862],[5.286452,50.780847],[5.286453,50.780795],[5.286494,50.780641],[5.286459,50.780582],[5.286272,50.780404],[5.286269,50.780364],[5.2863,50.780335],[5.286333,50.780308],[5.286342,50.780292],[5.286359,50.780244],[5.286295,50.780177],[5.286152,50.780031],[5.286144,50.779981],[5.286168,50.779956],[5.286259,50.779902],[5.286296,50.779871],[5.286296,50.779847],[5.286237,50.779819],[5.286125,50.779807],[5.286101,50.779784],[5.285984,50.779607],[5.285986,50.77958],[5.28601,50.779499],[5.286,50.779439],[5.28594,50.779389],[5.285893,50.779375],[5.28581,50.779365],[5.285762,50.779345],[5.285698,50.779149],[5.285667,50.779139],[5.285569,50.779142],[5.285451,50.779164],[5.285425,50.779157],[5.285379,50.779126],[5.285324,50.779041],[5.285291,50.779017],[5.285031,50.778896],[5.284736,50.778789],[5.284657,50.77875],[5.284595,50.778771],[5.284472,50.778799],[5.28425,50.77885],[5.28371,50.778955],[5.283606,50.778978],[5.283435,50.779016],[5.283135,50.779084],[5.282562,50.779194],[5.282388,50.779185],[5.282242,50.779201],[5.282131,50.779138],[5.280104,50.778716],[5.279635,50.778619],[5.279318,50.778547],[5.279212,50.778515],[5.278897,50.778434],[5.278872,50.778431],[5.278458,50.778303],[5.277851,50.778126],[5.277485,50.77802],[5.277329,50.777976],[5.27705,50.777898],[5.276778,50.777819],[5.276534,50.777749],[5.27641,50.777714],[5.27596,50.777585],[5.275853,50.777554],[5.275727,50.777518],[5.275531,50.777459],[5.275469,50.77744],[5.275402,50.777421],[5.275131,50.777341],[5.274662,50.777203],[5.274623,50.777236],[5.274418,50.777419],[5.27393,50.777223],[5.273929,50.777223],[5.273815,50.77715],[5.273624,50.777056],[5.273133,50.776823],[5.273017,50.776771],[5.272796,50.776925],[5.27269,50.777001],[5.272656,50.777033],[5.272541,50.776991],[5.272526,50.776986],[5.272441,50.776956],[5.272215,50.776856],[5.272089,50.776807],[5.272026,50.776787],[5.271569,50.776688],[5.270858,50.776505],[5.270686,50.776452],[5.270615,50.77643],[5.269883,50.776216],[5.26931,50.776062],[5.269287,50.776058],[5.269101,50.776039],[5.268943,50.776038],[5.2686,50.776048],[5.268275,50.77605],[5.268072,50.776042],[5.267838,50.776015],[5.267251,50.775907],[5.267171,50.77589],[5.266916,50.775818],[5.266671,50.775711],[5.266559,50.775639],[5.266461,50.775577],[5.266399,50.775522],[5.266017,50.775159],[5.266003,50.775103],[5.266075,50.775054],[5.266134,50.775035],[5.266205,50.774983],[5.266309,50.774967],[5.266449,50.77497],[5.266739,50.774909],[5.266847,50.774884],[5.266932,50.774863],[5.267215,50.774796],[5.267386,50.77476],[5.267761,50.774684],[5.26836,50.774545],[5.268684,50.774466],[5.268883,50.774414],[5.268972,50.77439],[5.269098,50.774356],[5.269583,50.77421],[5.269973,50.774095],[5.27013,50.774309],[5.27041,50.774193],[5.270727,50.77407],[5.271001,50.774039],[5.271292,50.774053],[5.271632,50.774048],[5.272399,50.773932],[5.272471,50.773872],[5.272588,50.773789],[5.272485,50.77375],[5.27215,50.773593],[5.271934,50.77348],[5.271754,50.773367],[5.271726,50.773348],[5.27166,50.773305],[5.271456,50.773159],[5.27134,50.773053],[5.271204,50.77293],[5.270941,50.772691],[5.270807,50.772569],[5.270683,50.772454],[5.270383,50.772181],[5.270231,50.772048],[5.269999,50.771835],[5.269578,50.771448],[5.269508,50.771384],[5.269498,50.771375],[5.269388,50.771268],[5.269328,50.771211],[5.269238,50.771115],[5.269081,50.770986],[5.269009,50.770945],[5.26884,50.770815],[5.268672,50.770749],[5.268519,50.770699],[5.26837,50.77067],[5.268196,50.770642],[5.26811,50.77063],[5.268078,50.770633],[5.267933,50.77062],[5.267587,50.770625],[5.267568,50.770626],[5.267429,50.770606],[5.267442,50.770544],[5.267476,50.770516],[5.26751,50.770496],[5.267812,50.770377],[5.268002,50.770322],[5.268019,50.770318],[5.268194,50.770274],[5.268754,50.770137],[5.269031,50.77006],[5.269138,50.770043],[5.269159,50.770039],[5.269469,50.769996],[5.269576,50.769982],[5.26962,50.770026],[5.269974,50.77038],[5.270286,50.770344],[5.270375,50.770333],[5.270224,50.770175],[5.270216,50.769922],[5.270215,50.769875],[5.270214,50.769746],[5.270529,50.76944],[5.271295,50.769515],[5.271398,50.76953],[5.27145,50.769533],[5.271501,50.769548],[5.271714,50.769558],[5.271709,50.769517],[5.271669,50.769227],[5.271706,50.769117],[5.27178,50.768766],[5.271743,50.76849],[5.271725,50.768243],[5.271736,50.768046],[5.271634,50.767866],[5.271582,50.767643],[5.27151,50.767488],[5.271408,50.767279],[5.271236,50.76704],[5.271083,50.766813],[5.270901,50.766637],[5.270757,50.766508],[5.270431,50.766233],[5.270381,50.766197],[5.269862,50.765826],[5.269597,50.765649],[5.26955,50.765644],[5.269405,50.765513],[5.269244,50.765344],[5.268994,50.765086],[5.268939,50.765031],[5.268816,50.764908],[5.268914,50.764854],[5.26927,50.764664],[5.269446,50.764572],[5.269522,50.76456],[5.269689,50.764453],[5.269778,50.764403],[5.269923,50.764325],[5.269914,50.764223],[5.269889,50.764202],[5.269902,50.764195],[5.269867,50.764166],[5.26981,50.764088],[5.269853,50.7639],[5.269747,50.763573],[5.269591,50.763268],[5.269629,50.763259],[5.269472,50.762975],[5.269306,50.762617],[5.269128,50.762425],[5.268966,50.762198],[5.268824,50.762079],[5.2687,50.761865],[5.268578,50.761595],[5.268435,50.761202],[5.268203,50.760879],[5.267843,50.76032],[5.267738,50.760107],[5.267724,50.759889],[5.267769,50.75959],[5.267562,50.759165],[5.267475,50.759002],[5.26746,50.758971],[5.267394,50.758817],[5.267071,50.758],[5.26707,50.757998],[5.267049,50.757936],[5.266653,50.757496],[5.266407,50.757383],[5.266355,50.757248],[5.266348,50.757067],[5.267054,50.756905],[5.267037,50.756639],[5.267034,50.756583],[5.267013,50.756261],[5.266877,50.755679],[5.26686,50.755572],[5.266823,50.755493],[5.266815,50.75545],[5.266512,50.755489],[5.266084,50.755536],[5.266003,50.755541],[5.26588,50.755519],[5.265907,50.755426],[5.266053,50.755306],[5.266135,50.755227],[5.266249,50.755118],[5.266698,50.754697],[5.266881,50.754503],[5.267213,50.7541],[5.267465,50.753798],[5.267561,50.753688],[5.267689,50.753571],[5.267783,50.753502],[5.268018,50.753347],[5.268105,50.753301],[5.268203,50.75325],[5.268382,50.75318],[5.268444,50.753157],[5.269027,50.75295],[5.269204,50.75289],[5.269253,50.752872],[5.269966,50.752624],[5.270451,50.75246],[5.270768,50.752355],[5.271179,50.752238],[5.272193,50.751963],[5.272407,50.751907],[5.272711,50.751825],[5.272985,50.751751],[5.273424,50.751633],[5.273488,50.751616],[5.273931,50.751493],[5.274081,50.751447],[5.274251,50.751388],[5.274648,50.751201],[5.274688,50.751179],[5.274901,50.751063],[5.275666,50.750632],[5.275911,50.750487],[5.275971,50.750462],[5.275691,50.750206],[5.275525,50.75002],[5.275509,50.750026],[5.275359,50.749873],[5.275407,50.749859],[5.275067,50.749395],[5.27496,50.749262],[5.274792,50.749178],[5.274718,50.749159],[5.274513,50.749116],[5.274214,50.749086],[5.27392,50.749096],[5.273632,50.749148],[5.27326,50.749206],[5.273063,50.749446],[5.273042,50.749513],[5.272938,50.749708],[5.272761,50.749916],[5.272722,50.749999],[5.272546,50.750387],[5.272472,50.750516],[5.271258,50.749848],[5.271207,50.749818],[5.270567,50.749876],[5.269131,50.749997],[5.26885,50.749972],[5.268575,50.749958],[5.268573,50.749994],[5.268383,50.752013],[5.26799,50.752143],[5.267702,50.752154],[5.267288,50.752199],[5.267069,50.752269],[5.266745,50.752344],[5.266418,50.752501],[5.266178,50.752542],[5.26597,50.752888],[5.265733,50.752986],[5.265724,50.752991],[5.264104,50.752128],[5.264061,50.752108],[5.263952,50.752164],[5.263812,50.752301],[5.263724,50.752405],[5.263574,50.752401],[5.263335,50.752489],[5.263289,50.752558],[5.263159,50.752594],[5.262947,50.752784],[5.26281,50.752801],[5.262414,50.7527],[5.262231,50.752623],[5.261417,50.752337],[5.261057,50.75224],[5.260916,50.752212],[5.260723,50.75214],[5.260574,50.752067],[5.260044,50.751709],[5.259988,50.751697],[5.259336,50.751325],[5.259146,50.751181],[5.258891,50.75095],[5.258843,50.750828],[5.258763,50.750722],[5.258632,50.750556],[5.258551,50.750471],[5.258554,50.75043],[5.2584,50.750213],[5.25836,50.750217],[5.258279,50.750106],[5.258163,50.749933],[5.258027,50.749728],[5.257868,50.749639],[5.257526,50.749733],[5.25748,50.749724],[5.257439,50.74972],[5.256985,50.74992],[5.256814,50.749993],[5.25652,50.750116],[5.256286,50.75022],[5.256326,50.750293],[5.256665,50.750732],[5.256686,50.750756],[5.256613,50.750775],[5.256427,50.750821],[5.256294,50.750886],[5.255626,50.751198],[5.255187,50.750859],[5.254999,50.750716],[5.254825,50.75058],[5.254614,50.750418],[5.254295,50.750594],[5.254025,50.750397],[5.25349,50.75],[5.253305,50.749861],[5.253251,50.749824],[5.252258,50.750415],[5.252021,50.750247],[5.25158,50.750574],[5.251091,50.750226],[5.250574,50.750547],[5.249547,50.749935],[5.249264,50.750154],[5.249059,50.750309],[5.248114,50.749852],[5.247432,50.750218],[5.247267,50.750304],[5.246902,50.750063],[5.246981,50.750003],[5.246928,50.74998],[5.246895,50.749966],[5.246813,50.749925],[5.246597,50.749805],[5.246362,50.749673],[5.246117,50.749515],[5.2459,50.749379],[5.245796,50.749313],[5.245738,50.749276],[5.245645,50.749216],[5.24561,50.749194],[5.245546,50.749242],[5.245369,50.749385],[5.244634,50.749969],[5.24364,50.749373],[5.243182,50.749642],[5.242472,50.749243],[5.24225,50.749393],[5.242128,50.74931],[5.241939,50.749177],[5.241516,50.748888],[5.241792,50.748717],[5.24194,50.748621],[5.242224,50.74844],[5.242368,50.748364],[5.242634,50.748198],[5.242659,50.748182],[5.242868,50.748029],[5.243052,50.747898],[5.243395,50.747654],[5.243181,50.747466],[5.242928,50.74724],[5.243968,50.746942],[5.243159,50.746195],[5.243447,50.746062],[5.242997,50.745638],[5.242441,50.745114],[5.242824,50.744921],[5.24345,50.744604],[5.243031,50.744352],[5.2427,50.744151],[5.242518,50.744064],[5.242614,50.744006],[5.242833,50.743873],[5.243013,50.743764],[5.242962,50.743719],[5.2428,50.743575],[5.242644,50.743434],[5.242444,50.743258],[5.242067,50.742921],[5.241975,50.74284],[5.241917,50.742869],[5.241875,50.742891],[5.241824,50.742916],[5.241651,50.743004],[5.241427,50.743117],[5.24121,50.743228],[5.241134,50.743265],[5.240948,50.743121],[5.240747,50.742966],[5.240541,50.742807],[5.240429,50.742722],[5.240382,50.742685],[5.240331,50.742629],[5.240171,50.742457],[5.240075,50.742354],[5.239788,50.742048],[5.239998,50.74196],[5.240241,50.741857],[5.240511,50.741743],[5.240778,50.741631],[5.241045,50.741517],[5.241308,50.741408],[5.241383,50.741376],[5.241304,50.741291],[5.241104,50.741073],[5.240993,50.740951],[5.24092,50.740965],[5.240442,50.741054],[5.240406,50.740996],[5.240315,50.740845],[5.24002,50.740358],[5.239989,50.740308],[5.239833,50.740053],[5.239682,50.739806],[5.239594,50.739659],[5.239552,50.739593],[5.239986,50.739471],[5.240125,50.739434],[5.239841,50.739246],[5.239863,50.739231],[5.239819,50.739205],[5.239629,50.73909],[5.239389,50.738944],[5.239172,50.738811],[5.239079,50.738754],[5.238925,50.738659],[5.238705,50.738522],[5.238483,50.738387],[5.238323,50.73829],[5.238303,50.738274],[5.238331,50.738239],[5.238447,50.738108],[5.238585,50.737948],[5.238622,50.737905],[5.238686,50.737823],[5.238642,50.737781],[5.238619,50.737759],[5.238509,50.737648],[5.23836,50.737502],[5.238063,50.737207],[5.237895,50.737039],[5.23773,50.736877],[5.237569,50.736719],[5.237406,50.736557],[5.237289,50.736442],[5.237092,50.736248],[5.236977,50.736133],[5.237022,50.736044],[5.237192,50.735697],[5.237277,50.735527],[5.237306,50.735468],[5.237419,50.73524],[5.236604,50.735193],[5.236256,50.735173],[5.235917,50.735154],[5.235577,50.735134],[5.235241,50.735114],[5.234926,50.735096],[5.234363,50.735063],[5.234494,50.734662],[5.234557,50.734465],[5.234713,50.733911],[5.234746,50.733729],[5.234836,50.733277],[5.234862,50.733167],[5.234923,50.73297],[5.235037,50.732756],[5.235079,50.732688],[5.235269,50.732386],[5.235487,50.731929],[5.235506,50.731889],[5.235688,50.731504],[5.235769,50.731328],[5.235779,50.731303],[5.235902,50.731009],[5.236276,50.729755],[5.23629,50.72958],[5.236298,50.729444],[5.236314,50.729246],[5.236319,50.72919],[5.236492,50.72848],[5.236684,50.727689],[5.236718,50.727583],[5.236766,50.727479],[5.236837,50.727373],[5.236912,50.727274],[5.237124,50.727012],[5.237243,50.726801],[5.237316,50.72659],[5.237355,50.72635],[5.237373,50.726075],[5.237394,50.725802],[5.237417,50.725553],[5.237439,50.725414],[5.237455,50.725356],[5.237506,50.725209],[5.237563,50.725072],[5.237624,50.724928],[5.237785,50.724561],[5.237775,50.724342],[5.237821,50.724195],[5.23791,50.724007],[5.237923,50.723971],[5.238036,50.723844],[5.23829,50.723506],[5.238617,50.723067],[5.238655,50.723081],[5.238694,50.72303],[5.238753,50.722916],[5.238823,50.722842],[5.238851,50.722754],[5.23886,50.722616],[5.238825,50.722498],[5.238805,50.722447],[5.238706,50.722309],[5.23852,50.72214],[5.238442,50.722065],[5.238256,50.721903],[5.238238,50.721873],[5.238076,50.721722],[5.238054,50.721687],[5.238027,50.721619],[5.238038,50.721521],[5.238059,50.721438],[5.238125,50.721281],[5.238194,50.721147],[5.238312,50.720961],[5.238422,50.720787],[5.238692,50.720356],[5.238821,50.720128],[5.238928,50.719947],[5.239204,50.719588],[5.239781,50.719067],[5.239904,50.71894],[5.240097,50.718705],[5.2402,50.71856],[5.24034,50.718318],[5.240464,50.718044],[5.240511,50.717915],[5.240583,50.717624],[5.240611,50.71753],[5.240641,50.71745],[5.240718,50.717284],[5.240838,50.717106],[5.241064,50.716809],[5.241133,50.716728],[5.241307,50.716732],[5.241523,50.716738],[5.241966,50.71676],[5.242241,50.716769],[5.243002,50.716778],[5.24328,50.716773],[5.243492,50.716754],[5.243656,50.716727],[5.243759,50.716706],[5.244631,50.7165],[5.245039,50.716403],[5.24529,50.716357],[5.245753,50.716301],[5.245926,50.71628],[5.246435,50.716254],[5.246957,50.716237],[5.248153,50.716211],[5.248588,50.716191],[5.24899,50.716147],[5.24993,50.716008],[5.250197,50.715964],[5.251434,50.715737],[5.251807,50.715666],[5.25209,50.715615],[5.252505,50.715542],[5.252752,50.715507],[5.253208,50.715443],[5.25485,50.71523],[5.255229,50.715175],[5.255688,50.715128],[5.255838,50.715116],[5.25607,50.715109],[5.256238,50.71511],[5.257095,50.715132],[5.2574,50.715129],[5.257402,50.715169],[5.257526,50.715796],[5.257661,50.715886],[5.257801,50.715927],[5.257991,50.71597],[5.258328,50.716],[5.258516,50.716022],[5.258606,50.716051],[5.258734,50.716102],[5.258994,50.716228],[5.259204,50.716328],[5.259348,50.716387],[5.259514,50.716437],[5.259657,50.716464],[5.259757,50.716473],[5.260138,50.716494],[5.260139,50.716484],[5.260165,50.716321],[5.261623,50.71641],[5.261599,50.716549],[5.261762,50.716557],[5.26192,50.71658],[5.262329,50.716652],[5.262781,50.71675],[5.262996,50.716811],[5.263268,50.716904],[5.263501,50.716992],[5.263827,50.71712],[5.264037,50.717202],[5.264265,50.717294],[5.264496,50.717391],[5.264622,50.717449],[5.265044,50.717654],[5.265083,50.717687],[5.26503,50.717699],[5.264041,50.717934],[5.264777,50.718463],[5.264379,50.718653],[5.26435,50.718634],[5.264088,50.718761],[5.264773,50.719364],[5.264339,50.71957],[5.26607,50.720657],[5.266088,50.720645],[5.266233,50.720547],[5.267183,50.720986],[5.266809,50.721279],[5.26879,50.722424],[5.268602,50.722678],[5.270317,50.722774],[5.270339,50.724594],[5.270114,50.725302],[5.270086,50.725389],[5.270068,50.72544],[5.269974,50.725703],[5.270505,50.725771],[5.270605,50.725765],[5.270969,50.725803],[5.271575,50.725864],[5.27317,50.726032],[5.273179,50.726033],[5.273715,50.726114],[5.273865,50.726157],[5.273988,50.726233],[5.274,50.726243],[5.274168,50.72642],[5.274184,50.726446],[5.274274,50.726645],[5.274312,50.726719],[5.274374,50.726825],[5.274672,50.72717],[5.274708,50.727211],[5.275124,50.727652],[5.275391,50.727792],[5.275414,50.727807],[5.275905,50.727415],[5.275926,50.72743],[5.276283,50.72767],[5.276313,50.727692],[5.276279,50.728089],[5.27628,50.728143],[5.27632,50.728605],[5.276322,50.728679],[5.276282,50.729041],[5.277505,50.728699],[5.278272,50.728485],[5.278846,50.728325],[5.279918,50.728024],[5.279913,50.728019],[5.281638,50.727538],[5.281462,50.727392],[5.281327,50.727244],[5.282603,50.726774],[5.2825,50.726687],[5.283436,50.726313],[5.283079,50.725969],[5.283011,50.725899],[5.284185,50.725486],[5.284782,50.725276],[5.28432,50.724753],[5.284755,50.724617],[5.286524,50.724084],[5.286641,50.72426],[5.286694,50.724333],[5.286858,50.72454],[5.287106,50.724833],[5.288231,50.724639],[5.289029,50.725068],[5.289749,50.724553],[5.290939,50.725073],[5.291224,50.725193],[5.291963,50.723829],[5.292425,50.723928],[5.294269,50.724298],[5.295233,50.72297],[5.295448,50.723121],[5.29554,50.723162],[5.295682,50.723224],[5.295909,50.723318],[5.296169,50.723424],[5.296518,50.723563],[5.297055,50.722946],[5.297064,50.72295],[5.298072,50.72208],[5.297281,50.721649],[5.29787,50.721205],[5.299238,50.721926],[5.300669,50.720613],[5.299625,50.720083],[5.300882,50.718865],[5.300752,50.718811],[5.301379,50.717996],[5.30164,50.718057],[5.301662,50.718036],[5.303162,50.716648],[5.303678,50.716165],[5.303791,50.716064],[5.303906,50.715941],[5.304048,50.715988],[5.304105,50.716012],[5.30419,50.716135],[5.304199,50.716195],[5.304209,50.716258],[5.304193,50.716284],[5.304044,50.716432],[5.304739,50.71682],[5.305206,50.716951],[5.305422,50.717053],[5.305573,50.717111],[5.305866,50.717219],[5.306024,50.717604],[5.306028,50.717616],[5.306113,50.717986],[5.306165,50.718011],[5.30649,50.718001],[5.306819,50.718101],[5.306992,50.718101],[5.306922,50.717942],[5.306986,50.717731],[5.306978,50.717615],[5.307022,50.717515],[5.307109,50.717453],[5.307298,50.717412],[5.307594,50.71751],[5.307758,50.717568],[5.307729,50.717703],[5.307712,50.717775],[5.307664,50.717878],[5.307658,50.717916],[5.307664,50.717945],[5.307681,50.717959],[5.307988,50.71808],[5.308037,50.718217],[5.308183,50.718259],[5.308195,50.718261],[5.308276,50.718269],[5.308299,50.718259],[5.308346,50.718237],[5.308392,50.718206],[5.308456,50.718131],[5.308518,50.71807],[5.308663,50.71803],[5.308884,50.718127],[5.309103,50.718022],[5.309304,50.718081],[5.309455,50.718146],[5.309797,50.718465],[5.309784,50.71851],[5.310026,50.718871],[5.31018,50.719042],[5.310313,50.719166],[5.310162,50.719262],[5.310152,50.71927],[5.309889,50.719501],[5.309062,50.720449],[5.309034,50.720481],[5.309405,50.720758],[5.309538,50.72085],[5.309675,50.720931],[5.309767,50.720982],[5.30989,50.721046],[5.309972,50.721083],[5.310044,50.721099],[5.308971,50.722351],[5.30877,50.722578],[5.308413,50.722993],[5.308715,50.7231],[5.30808,50.723813],[5.308362,50.723966],[5.308823,50.724213],[5.309133,50.724362],[5.309399,50.724488],[5.309807,50.72521],[5.309853,50.725268],[5.310796,50.72605],[5.310808,50.72606],[5.311251,50.726404],[5.31226,50.72751],[5.312728,50.728022],[5.313852,50.729251],[5.314638,50.728928],[5.314639,50.728929],[5.31596,50.728384],[5.31614,50.728309],[5.316191,50.728284],[5.316247,50.728253],[5.316954,50.728576],[5.319752,50.729852],[5.319808,50.729877],[5.324938,50.732216],[5.324995,50.73224],[5.328093,50.73339],[5.329878,50.734053],[5.331665,50.734718],[5.33325,50.735307],[5.333691,50.735486],[5.334903,50.736264],[5.337307,50.737807],[5.337403,50.737845],[5.338706,50.738717],[5.340211,50.739724],[5.340264,50.739759],[5.342019,50.740932],[5.343432,50.741877],[5.343509,50.741927],[5.346566,50.74394],[5.348899,50.745477],[5.350296,50.746396],[5.350441,50.746401],[5.352176,50.746458],[5.355635,50.746568],[5.356753,50.746604],[5.362626,50.746795],[5.362907,50.746804],[5.362968,50.746807],[5.362977,50.746807],[5.367,50.746937],[5.36802,50.74697],[5.368445,50.746734],[5.368749,50.746568],[5.370029,50.746676],[5.370306,50.746618],[5.370697,50.746521],[5.370935,50.746416],[5.371425,50.746298],[5.371635,50.746224],[5.371852,50.746162],[5.371943,50.746045],[5.372422,50.745681],[5.372977,50.745276],[5.37323,50.745089],[5.373498,50.74487],[5.373816,50.744515],[5.374002,50.744357],[5.374429,50.744057],[5.374631,50.743875],[5.37474,50.743735],[5.374792,50.743655],[5.374895,50.743456],[5.375039,50.743145],[5.375161,50.742851],[5.375202,50.742781],[5.375379,50.742583],[5.375454,50.742513],[5.375656,50.742341],[5.376074,50.742026],[5.377777,50.742852],[5.377986,50.742948],[5.379498,50.743681],[5.381994,50.744892],[5.382408,50.745074],[5.382746,50.745212],[5.383219,50.745407],[5.384914,50.746067],[5.385205,50.74618],[5.387969,50.747257],[5.388558,50.747493],[5.389039,50.747696],[5.38961,50.747954],[5.389481,50.74807],[5.388976,50.748757],[5.39064,50.74927],[5.390247,50.749709],[5.390876,50.749904],[5.391385,50.750076],[5.391317,50.750141],[5.392278,50.750509],[5.392553,50.750615],[5.392585,50.750626],[5.393073,50.750067],[5.393033,50.750053],[5.392752,50.74995],[5.39216,50.749734],[5.392502,50.749449],[5.392566,50.749396],[5.394401,50.750241],[5.394728,50.750363],[5.394849,50.750399],[5.394796,50.750458],[5.394018,50.751272],[5.393861,50.751199],[5.393709,50.751329],[5.393454,50.751546],[5.39372,50.751951],[5.394255,50.752224],[5.396545,50.753006],[5.396658,50.753055],[5.397266,50.75337],[5.397379,50.753426],[5.398267,50.753894],[5.398009,50.754108],[5.398351,50.754273],[5.398552,50.754357],[5.39929,50.754668],[5.399853,50.754879],[5.399486,50.755155],[5.400408,50.755529],[5.400738,50.755663],[5.400815,50.755623],[5.401528,50.756106],[5.400967,50.756403],[5.400481,50.756665],[5.400288,50.756743],[5.399608,50.756236],[5.398932,50.756608],[5.39837,50.756917],[5.398952,50.757338],[5.398114,50.757711],[5.399106,50.758709],[5.399026,50.758796],[5.399886,50.759576],[5.399533,50.759752],[5.399679,50.759974],[5.399725,50.760081],[5.399776,50.760182],[5.39993,50.7604],[5.400021,50.760475],[5.400104,50.760564],[5.400209,50.760653],[5.400507,50.760879],[5.40049,50.760888],[5.400313,50.762312],[5.401075,50.763187],[5.401335,50.763061],[5.402165,50.763735],[5.40204,50.763875],[5.401939,50.763964],[5.401755,50.76411],[5.40158,50.764212],[5.401369,50.764304],[5.401149,50.764372],[5.400931,50.764412],[5.400477,50.764463],[5.400441,50.764271],[5.400414,50.764126],[5.400305,50.763532],[5.399954,50.763875],[5.399841,50.763986],[5.398775,50.76348],[5.398613,50.763628],[5.398526,50.763702],[5.398108,50.764082],[5.397976,50.764211],[5.397902,50.764284],[5.398704,50.764804],[5.398626,50.765029],[5.398585,50.765261],[5.398241,50.765257],[5.39754,50.764818],[5.397682,50.764714],[5.39724,50.764442],[5.396857,50.764207],[5.396053,50.764858],[5.395784,50.765079],[5.395402,50.764905],[5.39454,50.76542],[5.394261,50.765338],[5.394014,50.76548],[5.393934,50.765528],[5.393837,50.765587],[5.393427,50.765723],[5.393095,50.765848],[5.392764,50.765973],[5.392605,50.766033],[5.392551,50.766054],[5.391767,50.76656],[5.392152,50.766816],[5.392284,50.766913],[5.392419,50.767014],[5.392584,50.767166],[5.391785,50.767816],[5.392558,50.768142],[5.392151,50.768505],[5.391716,50.768268],[5.390425,50.769235],[5.3891,50.769981],[5.389049,50.77001],[5.384504,50.769742],[5.384437,50.769737],[5.380855,50.769457],[5.380472,50.770058],[5.378798,50.774172],[5.378622,50.774293],[5.378074,50.774667],[5.373813,50.778278],[5.373655,50.778357],[5.373635,50.778344],[5.373391,50.7785],[5.371406,50.779872],[5.371293,50.779936],[5.369705,50.780857],[5.368431,50.781596],[5.368441,50.781603],[5.368291,50.78169],[5.368059,50.781857],[5.367879,50.782052],[5.367449,50.782395],[5.367089,50.782631],[5.366331,50.78311],[5.365601,50.783417],[5.365266,50.783547],[5.365066,50.783633],[5.364224,50.784012],[5.363574,50.784279],[5.363123,50.784483],[5.362469,50.78477],[5.361802,50.785047],[5.361499,50.785188],[5.361311,50.785295],[5.361069,50.785203],[5.361065,50.784893],[5.361082,50.784789],[5.361136,50.784566],[5.361192,50.784375],[5.361212,50.784303],[5.36126,50.784121],[5.36134,50.78375],[5.361362,50.783655],[5.36145,50.783448],[5.361394,50.783429],[5.361469,50.783264],[5.359542,50.782691],[5.359743,50.782446],[5.359699,50.782119],[5.35955,50.781827],[5.359414,50.781602],[5.359352,50.781482],[5.359235,50.781214],[5.359102,50.780877],[5.359049,50.780698],[5.359084,50.780604],[5.359197,50.780515],[5.3594,50.780388],[5.359524,50.780319],[5.359701,50.780226],[5.359757,50.780178],[5.359796,50.780132],[5.360027,50.779801],[5.359879,50.77981],[5.359734,50.779812],[5.359593,50.779808],[5.359464,50.779801],[5.358994,50.779762],[5.35816,50.779676],[5.357219,50.779486],[5.356258,50.779294],[5.356065,50.779255],[5.355665,50.779196],[5.355481,50.779161],[5.355279,50.779125],[5.354766,50.779103],[5.354688,50.779102],[5.350248,50.779024],[5.350237,50.778745],[5.349069,50.778576],[5.348632,50.778512],[5.348367,50.778961],[5.348339,50.779008],[5.348147,50.779435],[5.347868,50.779352],[5.347425,50.779204],[5.347179,50.779079],[5.34697,50.77895],[5.347022,50.778904],[5.347045,50.778891],[5.347136,50.778824],[5.346952,50.778772],[5.346488,50.778532],[5.346301,50.778434],[5.345496,50.778002],[5.345395,50.777946],[5.344839,50.777628],[5.344686,50.777565],[5.344519,50.777458],[5.344401,50.777401],[5.344277,50.777353],[5.343671,50.777151],[5.343833,50.776927],[5.343708,50.776891],[5.34302,50.776693],[5.34273,50.776633],[5.341229,50.776303],[5.340857,50.775393],[5.339653,50.775055],[5.339543,50.775018],[5.339466,50.775011],[5.339431,50.774994],[5.337926,50.774471],[5.337458,50.774294],[5.337267,50.774217],[5.337217,50.774201],[5.337127,50.774314],[5.337108,50.774767],[5.337103,50.774962],[5.337049,50.775264],[5.337035,50.775292],[5.33704,50.77536],[5.336886,50.775459],[5.336594,50.775653],[5.336577,50.775692],[5.336436,50.775883],[5.336415,50.775999],[5.336406,50.776121],[5.336306,50.776293],[5.336232,50.776358],[5.335824,50.776657],[5.335813,50.776665],[5.335171,50.777108],[5.334974,50.777324],[5.334118,50.77825],[5.333745,50.778717],[5.333707,50.778906],[5.333569,50.77916],[5.333307,50.779435],[5.33317,50.779528],[5.332902,50.779648],[5.332096,50.779828],[5.33138,50.78003],[5.33113,50.7801],[5.331019,50.780101],[5.330876,50.780156],[5.330748,50.780216],[5.33064,50.780291],[5.330259,50.780462],[5.330239,50.780514],[5.330198,50.7807],[5.329434,50.781175],[5.33013,50.781619],[5.330105,50.781702],[5.329782,50.781923],[5.328042,50.782955],[5.328034,50.782987],[5.327986,50.783008],[5.327704,50.782732],[5.32748,50.782772],[5.327187,50.782804],[5.326375,50.782829],[5.326132,50.782859],[5.325939,50.782894],[5.325741,50.782932],[5.325076,50.78309],[5.325025,50.783093],[5.324923,50.783063],[5.324872,50.783005],[5.324817,50.78297],[5.324745,50.783094],[5.324542,50.783247],[5.324489,50.783281],[5.3239,50.783658],[5.323578,50.78394],[5.323321,50.784166],[5.323281,50.784201],[5.323177,50.784323],[5.323158,50.784341],[5.322784,50.784704],[5.322735,50.784725],[5.322607,50.784777],[5.322648,50.784819],[5.322607,50.784832],[5.321983,50.784975],[5.321897,50.78502],[5.321841,50.785054],[5.321677,50.78523],[5.321654,50.785262],[5.321552,50.785382],[5.321417,50.78547],[5.321212,50.785592],[5.321191,50.785609],[5.321177,50.785619],[5.321146,50.785626],[5.321087,50.785657],[5.321056,50.785669],[5.321039,50.785674],[5.320945,50.785696],[5.320915,50.785709],[5.320835,50.785787],[5.320667,50.785916],[5.320599,50.785962],[5.32051,50.785985],[5.320329,50.786022],[5.320283,50.78605],[5.320187,50.786114],[5.32009,50.786193],[5.320035,50.78623],[5.319948,50.786265],[5.319816,50.786297],[5.319756,50.786315],[5.319654,50.786371],[5.319391,50.786552],[5.319024,50.786745],[5.318968,50.786767],[5.318929,50.786774],[5.3189,50.786777],[5.318809,50.786801],[5.318535,50.78695],[5.318456,50.786984],[5.31841,50.786989],[5.318392,50.786983],[5.318372,50.786971],[5.318321,50.786926],[5.318292,50.786897],[5.31826,50.786858],[5.318229,50.786846],[5.318155,50.786848],[5.318082,50.786856],[5.317992,50.786865],[5.317977,50.786871],[5.317977,50.786851],[5.318051,50.78677],[5.318063,50.786735],[5.318111,50.786632],[5.318153,50.786586],[5.318156,50.786583],[5.317311,50.785981],[5.317149,50.786058],[5.315998,50.78496],[5.315746,50.785065],[5.315343,50.785232],[5.313834,50.785853],[5.313063,50.786173],[5.312547,50.785703],[5.311036,50.786309],[5.310872,50.786108],[5.310764,50.785943],[5.310218,50.785334],[5.310302,50.785289],[5.311015,50.784915],[5.311407,50.784709],[5.31163,50.784872],[5.311846,50.784878],[5.312467,50.784581],[5.312245,50.784374],[5.312116,50.784285],[5.311924,50.784131],[5.311598,50.784291],[5.310876,50.783679],[5.310212,50.783969],[5.309221,50.783164],[5.309126,50.783217],[5.30865,50.783483],[5.307998,50.782854],[5.306206,50.783815],[5.30641,50.78394],[5.304453,50.785157],[5.30429,50.785045],[5.303366,50.78552],[5.30428,50.786261],[5.304224,50.786296],[5.303963,50.786457],[5.303786,50.786553],[5.303565,50.786655],[5.303093,50.786836],[5.301616,50.787406],[5.301491,50.787528],[5.301196,50.787689],[5.300918,50.787828],[5.300148,50.788232],[5.300028,50.788326],[5.299544,50.788866],[5.299558,50.788872],[5.299347,50.789096],[5.29931,50.789119],[5.299191,50.789282],[5.298186,50.789061],[5.297743,50.790427],[5.297301,50.790371],[5.297075,50.790703],[5.296863,50.791016],[5.29568,50.791045],[5.295652,50.791287],[5.295654,50.791309],[5.294961,50.791336],[5.294877,50.791339],[5.294246,50.791348],[5.293818,50.791352],[5.293381,50.791356],[5.2925,50.791375],[5.291384,50.7914],[5.29112,50.791413],[5.290542,50.791418],[5.290314,50.791427],[5.289856,50.791445],[5.289716,50.791446],[5.289492,50.791447],[5.288901,50.79146],[5.288621,50.791469],[5.28795,50.791528],[5.287022,50.791565],[5.286935,50.791563],[5.286439,50.791575],[5.285967,50.791589],[5.285143,50.79161],[5.285069,50.79162],[5.284565,50.791635],[5.284183,50.791649],[5.283769,50.791674],[5.282971,50.791698],[5.282782,50.7917],[5.281858,50.79175]]]}}
