{"type":"Feature","properties":{"mrgid":2852,"name":"Walhain","placeType":"Commune","source":"Belgium:belgium_municipalities"},"geometry":{"type":"Polygon","coordinates":[[[4.70798,50.663895],[4.707973,50.663898],[4.707877,50.663973],[4.706499,50.665018],[4.705707,50.664648],[4.70515,50.664387],[4.705803,50.663754],[4.706321,50.663241],[4.70616,50.663166],[4.704836,50.662555],[4.703646,50.662008],[4.703135,50.661771],[4.702912,50.661668],[4.701898,50.660482],[4.701768,50.660331],[4.701735,50.660291],[4.701235,50.659645],[4.699945,50.659642],[4.698549,50.659662],[4.697532,50.658707],[4.696944,50.658155],[4.694526,50.656856],[4.693652,50.656395],[4.693471,50.656415],[4.693393,50.656423],[4.692694,50.657038],[4.692139,50.65668],[4.692119,50.656667],[4.692168,50.656651],[4.692206,50.656637],[4.691087,50.65601],[4.690866,50.656221],[4.688346,50.654965],[4.687554,50.654568],[4.687546,50.654564],[4.686788,50.654153],[4.686002,50.653621],[4.685463,50.653182],[4.68441,50.652312],[4.684349,50.652333],[4.683532,50.652602],[4.682504,50.65295],[4.682085,50.653092],[4.681922,50.653147],[4.680943,50.653478],[4.678999,50.654136],[4.67883,50.654196],[4.677296,50.654785],[4.676487,50.654362],[4.674912,50.65354],[4.674579,50.653459],[4.674004,50.653291],[4.673374,50.65311],[4.673262,50.653081],[4.672518,50.652913],[4.67176,50.652804],[4.67092,50.652685],[4.670015,50.652559],[4.669256,50.653238],[4.668074,50.652646],[4.667312,50.65322],[4.666276,50.652503],[4.666289,50.65249],[4.665025,50.651697],[4.664836,50.651797],[4.664435,50.651459],[4.665455,50.651059],[4.664378,50.650201],[4.664673,50.650093],[4.664467,50.649892],[4.664464,50.649891],[4.664462,50.649889],[4.664295,50.649723],[4.664209,50.64964],[4.663968,50.649418],[4.663945,50.649384],[4.662835,50.648301],[4.662795,50.648263],[4.664473,50.647159],[4.664473,50.647155],[4.663966,50.646896],[4.663957,50.646891],[4.663937,50.646882],[4.66411,50.646744],[4.664237,50.646643],[4.662742,50.645742],[4.662783,50.645706],[4.663156,50.645378],[4.662193,50.644992],[4.661975,50.644904],[4.66316,50.643869],[4.663729,50.643373],[4.664192,50.642969],[4.662655,50.64236],[4.661336,50.641837],[4.661327,50.641835],[4.660781,50.641693],[4.660307,50.641569],[4.65939,50.641387],[4.659394,50.641174],[4.656175,50.640474],[4.655702,50.640371],[4.655677,50.640412],[4.65562,50.640506],[4.654709,50.640132],[4.653104,50.639472],[4.653065,50.639458],[4.653012,50.639502],[4.652708,50.639785],[4.65265,50.639841],[4.652434,50.640053],[4.652401,50.640089],[4.65226,50.640261],[4.652229,50.6403],[4.651158,50.6397],[4.650351,50.639248],[4.649896,50.639573],[4.649406,50.639252],[4.649376,50.63923],[4.649308,50.639186],[4.649081,50.639025],[4.649077,50.639022],[4.64871,50.638711],[4.64835,50.638854],[4.648048,50.638977],[4.648016,50.638991],[4.647389,50.639263],[4.64726,50.639119],[4.647528,50.639024],[4.64659,50.63819],[4.645567,50.638663],[4.644358,50.637754],[4.644335,50.637795],[4.644319,50.637818],[4.644312,50.637829],[4.644263,50.63783],[4.644225,50.637835],[4.644187,50.637841],[4.644156,50.637845],[4.644143,50.637858],[4.644139,50.63787],[4.644131,50.637893],[4.64411,50.637887],[4.644092,50.637881],[4.64399,50.637861],[4.643957,50.63786],[4.643926,50.637862],[4.643909,50.637864],[4.643892,50.637857],[4.643875,50.637852],[4.643843,50.637834],[4.643809,50.637815],[4.643748,50.637784],[4.643735,50.637781],[4.643708,50.637777],[4.64367,50.637772],[4.64367,50.637763],[4.64367,50.637755],[4.643684,50.637741],[4.6437,50.637723],[4.643706,50.637713],[4.643688,50.637709],[4.643656,50.637704],[4.643625,50.637701],[4.643629,50.637682],[4.643629,50.637664],[4.643623,50.637654],[4.64359,50.637639],[4.643565,50.637628],[4.643549,50.637617],[4.643527,50.637595],[4.643507,50.637576],[4.643471,50.637535],[4.643465,50.637529],[4.643463,50.637516],[4.64346,50.637497],[4.643462,50.637478],[4.643464,50.637448],[4.643418,50.637441],[4.643361,50.637434],[4.643322,50.637429],[4.643266,50.637388],[4.643229,50.637361],[4.643205,50.637344],[4.6432,50.637303],[4.643191,50.63725],[4.643104,50.637242],[4.64302,50.637234],[4.642969,50.637189],[4.642938,50.637161],[4.642908,50.637136],[4.642903,50.637077],[4.642898,50.63703],[4.642859,50.637022],[4.642801,50.637014],[4.642804,50.636998],[4.642798,50.636986],[4.642757,50.63695],[4.642723,50.63692],[4.642695,50.636887],[4.642673,50.636864],[4.642622,50.636851],[4.642571,50.636837],[4.64256,50.636805],[4.642553,50.636782],[4.642514,50.636768],[4.642473,50.63676],[4.642461,50.636756],[4.64243,50.636739],[4.642396,50.636721],[4.642382,50.63669],[4.642368,50.636664],[4.64226,50.636639],[4.642174,50.636619],[4.64203,50.636593],[4.64192,50.636572],[4.640488,50.637537],[4.640461,50.637553],[4.639907,50.637844],[4.639503,50.637965],[4.639,50.638554],[4.63901,50.638422],[4.639017,50.638263],[4.639017,50.638239],[4.639004,50.6382],[4.638992,50.638163],[4.638635,50.637347],[4.638611,50.637358],[4.63861,50.637357],[4.638599,50.637363],[4.637982,50.637633],[4.637254,50.637952],[4.637454,50.638118],[4.635656,50.638964],[4.635587,50.638902],[4.635499,50.638819],[4.635387,50.638705],[4.635217,50.638524],[4.635115,50.638418],[4.634949,50.638482],[4.634545,50.638636],[4.633272,50.639123],[4.632952,50.639246],[4.632086,50.639578],[4.632152,50.639674],[4.632287,50.639871],[4.632437,50.640102],[4.632581,50.640336],[4.631992,50.640194],[4.631688,50.640422],[4.631652,50.640449],[4.631521,50.640432],[4.631223,50.640396],[4.630601,50.640323],[4.630216,50.640274],[4.630069,50.640236],[4.629939,50.640199],[4.629766,50.640132],[4.629557,50.640044],[4.629475,50.640008],[4.629346,50.639945],[4.629241,50.639884],[4.629141,50.639822],[4.62852,50.63943],[4.628312,50.639298],[4.628721,50.639057],[4.629197,50.638776],[4.6292,50.638775],[4.628804,50.638469],[4.628098,50.637925],[4.627657,50.637583],[4.627496,50.637458],[4.62741,50.637393],[4.627307,50.637314],[4.627315,50.637289],[4.62736,50.637157],[4.627372,50.637117],[4.62727,50.636911],[4.627065,50.636679],[4.627012,50.636548],[4.627004,50.63653],[4.627278,50.63634],[4.627625,50.636185],[4.628013,50.636123],[4.627832,50.635715],[4.62784,50.635702],[4.627845,50.635692],[4.627913,50.635577],[4.628095,50.635413],[4.62819,50.635356],[4.628466,50.635305],[4.629248,50.635215],[4.629287,50.63521],[4.629293,50.63517],[4.629294,50.635132],[4.629297,50.635068],[4.629288,50.635012],[4.629278,50.634978],[4.629263,50.634945],[4.629223,50.634886],[4.62916,50.63481],[4.629133,50.63478],[4.629075,50.634721],[4.629017,50.634663],[4.629008,50.634655],[4.628961,50.634619],[4.628931,50.634597],[4.628883,50.634566],[4.628853,50.634549],[4.628796,50.634535],[4.62876,50.634525],[4.628718,50.634524],[4.628694,50.634523],[4.628642,50.634522],[4.628532,50.634526],[4.628363,50.634532],[4.628235,50.634534],[4.628146,50.634535],[4.628044,50.634549],[4.627974,50.634558],[4.627889,50.634565],[4.627848,50.634566],[4.627778,50.634563],[4.627689,50.634558],[4.627619,50.634543],[4.627538,50.634527],[4.627494,50.634514],[4.627461,50.63449],[4.627471,50.634439],[4.627506,50.634372],[4.627554,50.6343],[4.62766,50.634168],[4.627703,50.63409],[4.627764,50.633971],[4.627795,50.633901],[4.627821,50.633847],[4.627832,50.633819],[4.627861,50.633775],[4.627886,50.63373],[4.627923,50.63367],[4.62795,50.633621],[4.627976,50.633576],[4.628,50.633541],[4.628025,50.633509],[4.628066,50.633463],[4.628089,50.633438],[4.62814,50.633407],[4.628223,50.633359],[4.628283,50.633328],[4.628413,50.633279],[4.62876,50.633161],[4.628856,50.63313],[4.62903,50.633075],[4.629026,50.633047],[4.629028,50.633001],[4.628993,50.632912],[4.62897,50.632855],[4.628914,50.632703],[4.628894,50.632633],[4.62888,50.632579],[4.628859,50.632492],[4.628841,50.632417],[4.628823,50.632368],[4.628781,50.632307],[4.628764,50.632285],[4.628711,50.632242],[4.628659,50.632204],[4.628543,50.632153],[4.628459,50.632117],[4.62839,50.632082],[4.628364,50.632063],[4.628339,50.632028],[4.628326,50.632006],[4.628329,50.631957],[4.628337,50.631877],[4.628351,50.631808],[4.628363,50.631785],[4.628448,50.631806],[4.628723,50.631836],[4.62899,50.631855],[4.629219,50.631843],[4.629264,50.631841],[4.629427,50.631712],[4.629463,50.631679],[4.629574,50.631599],[4.62972,50.631554],[4.629776,50.631576],[4.629878,50.631615],[4.629938,50.631643],[4.630067,50.631702],[4.630196,50.631726],[4.630306,50.631723],[4.630599,50.631742],[4.630751,50.631851],[4.631061,50.632167],[4.63114,50.632221],[4.631235,50.63226],[4.631421,50.632171],[4.631504,50.632131],[4.631759,50.632025],[4.631977,50.631886],[4.63235,50.631527],[4.632503,50.631464],[4.632655,50.631345],[4.632779,50.631296],[4.632892,50.631264],[4.632944,50.631175],[4.633005,50.631111],[4.633088,50.63103],[4.633138,50.63093],[4.633112,50.630856],[4.633094,50.630578],[4.633077,50.630508],[4.633092,50.630471],[4.633201,50.630275],[4.633173,50.6301],[4.633224,50.629952],[4.633283,50.62984],[4.633293,50.629811],[4.633247,50.629579],[4.633252,50.629525],[4.633244,50.629489],[4.633285,50.62945],[4.633365,50.629407],[4.633495,50.629367],[4.633524,50.629439],[4.633563,50.629501],[4.633596,50.629544],[4.633605,50.629591],[4.633796,50.629913],[4.633852,50.630026],[4.633897,50.630145],[4.633937,50.630395],[4.633953,50.630533],[4.633967,50.630613],[4.634012,50.630679],[4.634224,50.630926],[4.634294,50.630975],[4.634543,50.63111],[4.634639,50.631129],[4.634739,50.63124],[4.63489,50.63125],[4.63502,50.631267],[4.635119,50.631281],[4.635199,50.631279],[4.635274,50.631244],[4.635279,50.631238],[4.635412,50.631065],[4.635451,50.631016],[4.635496,50.630952],[4.635698,50.630652],[4.634911,50.63016],[4.634468,50.629449],[4.634464,50.629186],[4.63479,50.629005],[4.635612,50.628397],[4.635878,50.628535],[4.636658,50.628292],[4.637888,50.627947],[4.638834,50.627523],[4.638895,50.627493],[4.639215,50.627347],[4.640364,50.627706],[4.640467,50.627595],[4.642303,50.62822],[4.64258,50.628363],[4.642903,50.628483],[4.64299,50.628502],[4.643187,50.628582],[4.643336,50.628681],[4.643456,50.628745],[4.643478,50.628812],[4.643346,50.62896],[4.644424,50.629548],[4.644459,50.629567],[4.644499,50.629488],[4.644518,50.629411],[4.644528,50.629312],[4.644529,50.629236],[4.644527,50.629125],[4.644521,50.629044],[4.644515,50.628989],[4.644528,50.628857],[4.644506,50.628811],[4.644507,50.628806],[4.64451,50.628798],[4.644404,50.628446],[4.644403,50.628411],[4.644398,50.628376],[4.644389,50.628328],[4.644399,50.628306],[4.644352,50.628252],[4.64428,50.628116],[4.644193,50.627965],[4.643929,50.627726],[4.64375,50.627544],[4.643503,50.627254],[4.643235,50.626967],[4.643203,50.626925],[4.642825,50.626595],[4.642668,50.626458],[4.642628,50.626375],[4.642595,50.626237],[4.64258,50.626145],[4.642557,50.626019],[4.642584,50.625959],[4.642854,50.625981],[4.643056,50.626064],[4.643336,50.626174],[4.644216,50.626526],[4.644453,50.626628],[4.644757,50.626761],[4.645168,50.626936],[4.645395,50.627031],[4.645793,50.627175],[4.646052,50.627268],[4.646269,50.627333],[4.646514,50.627407],[4.647008,50.627555],[4.647434,50.62768],[4.647785,50.627785],[4.648011,50.627855],[4.648304,50.62795],[4.648889,50.628183],[4.649175,50.628308],[4.649487,50.628445],[4.649843,50.628556],[4.650047,50.62861],[4.650338,50.628688],[4.650677,50.628785],[4.65084,50.628761],[4.650893,50.628281],[4.650897,50.628101],[4.650924,50.627904],[4.650934,50.627732],[4.650948,50.627551],[4.650965,50.627386],[4.651027,50.627089],[4.65104,50.626922],[4.65118,50.626751],[4.651242,50.626599],[4.651289,50.626529],[4.65127,50.626434],[4.651352,50.626218],[4.651463,50.625977],[4.651586,50.625794],[4.651739,50.625631],[4.651938,50.625434],[4.65222,50.625127],[4.652323,50.625005],[4.652406,50.624849],[4.652511,50.624513],[4.652559,50.624337],[4.652648,50.624123],[4.65295,50.624325],[4.653078,50.624379],[4.653132,50.624399],[4.653233,50.624431],[4.653451,50.624497],[4.653646,50.62452],[4.653721,50.624479],[4.654778,50.62425],[4.655168,50.624211],[4.655627,50.624072],[4.655658,50.624061],[4.655815,50.623992],[4.65583,50.623985],[4.656625,50.623584],[4.656618,50.62358],[4.656596,50.623569],[4.656591,50.623566],[4.65666,50.623523],[4.656669,50.623515],[4.656899,50.623104],[4.657747,50.623241],[4.658701,50.622281],[4.658989,50.621995],[4.659607,50.621376],[4.659979,50.621042],[4.660284,50.620764],[4.660065,50.620627],[4.661172,50.619779],[4.660891,50.619665],[4.66178,50.618696],[4.66184,50.618736],[4.662242,50.618865],[4.662478,50.618494],[4.66272,50.618118],[4.662976,50.617707],[4.663006,50.617639],[4.663297,50.617179],[4.663599,50.616712],[4.66318,50.616707],[4.662989,50.616686],[4.662786,50.616663],[4.662684,50.616628],[4.662406,50.616594],[4.662227,50.61658],[4.662005,50.616581],[4.661983,50.616582],[4.661849,50.616597],[4.66168,50.616612],[4.661471,50.616587],[4.661035,50.616485],[4.660546,50.616379],[4.660369,50.616339],[4.660367,50.616303],[4.660616,50.616012],[4.660658,50.615884],[4.66083,50.615469],[4.659809,50.615117],[4.659731,50.615091],[4.659173,50.614897],[4.659118,50.614861],[4.65887,50.614369],[4.658789,50.614252],[4.658444,50.613865],[4.658401,50.613816],[4.65833,50.613772],[4.657259,50.613411],[4.656813,50.613236],[4.656802,50.613232],[4.656104,50.612943],[4.655004,50.612489],[4.654349,50.612192],[4.654356,50.612142],[4.654088,50.612005],[4.653935,50.611947],[4.653778,50.611861],[4.653651,50.611806],[4.653443,50.611705],[4.652992,50.611485],[4.652834,50.61141],[4.652691,50.611337],[4.652548,50.611327],[4.652439,50.611384],[4.651779,50.61171],[4.651631,50.611719],[4.651578,50.611703],[4.651566,50.611696],[4.651463,50.61161],[4.651441,50.611587],[4.651389,50.611512],[4.651388,50.611509],[4.65144,50.611392],[4.65144,50.611384],[4.651421,50.611296],[4.651419,50.611291],[4.651358,50.61122],[4.651321,50.61118],[4.651308,50.611164],[4.651264,50.611086],[4.651262,50.611084],[4.651155,50.611012],[4.65111,50.61099],[4.651048,50.610977],[4.650988,50.610983],[4.650831,50.610906],[4.650805,50.610895],[4.650729,50.610869],[4.650602,50.610829],[4.650574,50.610819],[4.650543,50.610808],[4.650514,50.610816],[4.65046,50.610833],[4.650396,50.610873],[4.65036,50.610892],[4.650294,50.610921],[4.650252,50.610921],[4.650184,50.610924],[4.650158,50.610926],[4.650128,50.610931],[4.650095,50.610937],[4.650044,50.610947],[4.649964,50.610961],[4.649889,50.610973],[4.649785,50.610992],[4.649761,50.611012],[4.64968,50.61102],[4.649318,50.610605],[4.649191,50.610453],[4.649143,50.610345],[4.649794,50.609494],[4.650086,50.609208],[4.650324,50.609032],[4.650746,50.608729],[4.651176,50.608416],[4.651523,50.608158],[4.651729,50.607993],[4.651866,50.607909],[4.651965,50.607831],[4.651665,50.60716],[4.651626,50.607072],[4.651451,50.606679],[4.651284,50.606301],[4.651196,50.606107],[4.651024,50.605718],[4.650937,50.605523],[4.650836,50.605297],[4.650834,50.605292],[4.652389,50.604953],[4.652574,50.605185],[4.653022,50.605276],[4.653186,50.605389],[4.653375,50.605519],[4.65351,50.605434],[4.653615,50.605305],[4.65414,50.604702],[4.654216,50.604587],[4.654289,50.604508],[4.654887,50.603824],[4.65538,50.603298],[4.655429,50.602806],[4.656095,50.602136],[4.656462,50.601814],[4.656946,50.601713],[4.65722,50.602456],[4.659271,50.602043],[4.659595,50.602729],[4.659787,50.603139],[4.660013,50.603642],[4.660082,50.6038],[4.660412,50.604499],[4.660864,50.604354],[4.660971,50.604458],[4.662517,50.604457],[4.662589,50.604458],[4.66267,50.604458],[4.662951,50.604452],[4.662936,50.604512],[4.662895,50.604678],[4.662859,50.604821],[4.665588,50.605474],[4.665383,50.606155],[4.665928,50.606227],[4.666488,50.606303],[4.668011,50.60667],[4.669341,50.606884],[4.669404,50.606875],[4.669689,50.606979],[4.669889,50.607018],[4.669861,50.607062],[4.672611,50.608126],[4.672716,50.608029],[4.673561,50.607329],[4.674397,50.606712],[4.674555,50.606609],[4.674771,50.606417],[4.674945,50.606255],[4.675241,50.605953],[4.675707,50.605494],[4.676614,50.604536],[4.67731,50.603972],[4.677692,50.603662],[4.678403,50.603217],[4.678582,50.603106],[4.678684,50.603058],[4.678773,50.603097],[4.679882,50.603916],[4.680139,50.604138],[4.680331,50.604361],[4.680365,50.604336],[4.681607,50.603498],[4.682761,50.602901],[4.683652,50.602445],[4.685025,50.601745],[4.68883,50.600104],[4.689254,50.599941],[4.689321,50.5999],[4.690467,50.59944],[4.690969,50.600158],[4.695119,50.59803],[4.697033,50.59909],[4.697569,50.598791],[4.69791,50.598597],[4.69777,50.598498],[4.70031,50.596579],[4.700363,50.596541],[4.701119,50.596074],[4.702611,50.595303],[4.704754,50.594222],[4.704839,50.594276],[4.705486,50.594686],[4.705164,50.594885],[4.703863,50.595701],[4.7049,50.595565],[4.705079,50.595554],[4.705752,50.59554],[4.70643,50.595544],[4.70718,50.595547],[4.707957,50.595592],[4.708721,50.59573],[4.70906,50.595773],[4.709227,50.595783],[4.710122,50.59573],[4.710606,50.595706],[4.71074,50.595711],[4.711963,50.596206],[4.711932,50.597107],[4.711847,50.59806],[4.711805,50.598154],[4.711719,50.598132],[4.711567,50.598094],[4.711564,50.598093],[4.710891,50.598688],[4.71081,50.598758],[4.709582,50.599838],[4.709686,50.599909],[4.71141,50.601239],[4.709747,50.60178],[4.709098,50.601991],[4.708254,50.60227],[4.707412,50.603999],[4.70864,50.604519],[4.710139,50.605153],[4.71012,50.605181],[4.710275,50.605313],[4.710773,50.605733],[4.711229,50.606093],[4.71198,50.606694],[4.713469,50.607888],[4.714151,50.608429],[4.715565,50.607742],[4.715656,50.607696],[4.715911,50.607583],[4.716201,50.607793],[4.716291,50.607856],[4.716417,50.607947],[4.716875,50.608113],[4.717037,50.608069],[4.717475,50.607859],[4.71789,50.608238],[4.717839,50.608261],[4.717768,50.608303],[4.717946,50.608355],[4.718064,50.608429],[4.718296,50.608658],[4.719414,50.60984],[4.721367,50.609144],[4.723229,50.608463],[4.723242,50.608483],[4.723816,50.609276],[4.724277,50.609053],[4.724728,50.609902],[4.724821,50.610096],[4.724897,50.610325],[4.724978,50.610705],[4.724998,50.610822],[4.725003,50.610852],[4.725017,50.61096],[4.725023,50.611005],[4.725118,50.611414],[4.726122,50.611153],[4.726844,50.610965],[4.726876,50.610958],[4.727119,50.611353],[4.727221,50.611359],[4.72808,50.610507],[4.728201,50.610386],[4.729173,50.609683],[4.730437,50.608795],[4.730788,50.608552],[4.730905,50.608788],[4.730924,50.608843],[4.731249,50.609587],[4.731346,50.609732],[4.731827,50.610298],[4.732695,50.610704],[4.732863,50.610732],[4.733348,50.610768],[4.733521,50.610753],[4.734505,50.610643],[4.735907,50.611307],[4.735918,50.611302],[4.73598,50.611335],[4.73591,50.611386],[4.735866,50.611416],[4.736869,50.611903],[4.7369,50.611882],[4.7379,50.612319],[4.740535,50.613547],[4.741799,50.614151],[4.741824,50.61416],[4.742487,50.614464],[4.742739,50.614572],[4.743081,50.614734],[4.743367,50.614896],[4.744069,50.615301],[4.744725,50.616124],[4.744013,50.616494],[4.744352,50.617874],[4.744402,50.618127],[4.744434,50.618425],[4.744305,50.619087],[4.744268,50.619181],[4.744236,50.619268],[4.743943,50.619782],[4.743833,50.619976],[4.743338,50.620682],[4.743258,50.622018],[4.743352,50.622784],[4.743501,50.622772],[4.743547,50.622808],[4.743543,50.623149],[4.743537,50.623367],[4.743532,50.623547],[4.743527,50.624015],[4.743521,50.624544],[4.743573,50.624543],[4.743611,50.624542],[4.743712,50.624544],[4.743891,50.624544],[4.743919,50.62492],[4.743942,50.625238],[4.743952,50.625383],[4.743871,50.625596],[4.743867,50.625607],[4.743808,50.62574],[4.743773,50.62581],[4.743671,50.625996],[4.743669,50.626],[4.743531,50.626189],[4.743436,50.626317],[4.743422,50.626335],[4.743077,50.626756],[4.742282,50.62772],[4.742222,50.627793],[4.74214,50.627749],[4.742096,50.627786],[4.742085,50.627797],[4.742065,50.627817],[4.742048,50.627845],[4.742034,50.627877],[4.741981,50.627951],[4.741932,50.628017],[4.7419,50.628066],[4.74185,50.628113],[4.741796,50.628195],[4.741696,50.628314],[4.741552,50.628473],[4.741424,50.628606],[4.741323,50.628709],[4.741253,50.628771],[4.741025,50.628961],[4.740821,50.629126],[4.740712,50.62921],[4.740636,50.629268],[4.74046,50.629403],[4.740112,50.629665],[4.739996,50.629744],[4.739965,50.629772],[4.739951,50.629785],[4.739875,50.629863],[4.73981,50.62993],[4.739705,50.630038],[4.73966,50.630077],[4.739631,50.630128],[4.739603,50.630175],[4.739527,50.630328],[4.739472,50.630442],[4.739443,50.630505],[4.739395,50.630647],[4.739378,50.6307],[4.739335,50.630889],[4.739286,50.631115],[4.739249,50.631268],[4.739134,50.631781],[4.739104,50.631917],[4.739091,50.631986],[4.739085,50.632035],[4.739121,50.63204],[4.739199,50.63205],[4.739271,50.632062],[4.739328,50.632072],[4.739543,50.632081],[4.739499,50.632486],[4.739085,50.632918],[4.738526,50.633184],[4.73844,50.633224],[4.738258,50.633309],[4.738192,50.633279],[4.737762,50.633398],[4.736615,50.633438],[4.736532,50.633656],[4.736215,50.6337],[4.735957,50.6337],[4.735417,50.633635],[4.734754,50.633576],[4.734356,50.633508],[4.733837,50.63424],[4.733487,50.634732],[4.734276,50.635036],[4.734483,50.635034],[4.734714,50.635158],[4.734824,50.635188],[4.735044,50.635253],[4.735394,50.63533],[4.735385,50.635408],[4.73564,50.635554],[4.735735,50.635585],[4.73605,50.635687],[4.736237,50.635164],[4.737085,50.635199],[4.737399,50.635213],[4.7374,50.635213],[4.737454,50.635218],[4.73852,50.635367],[4.739038,50.63544],[4.739708,50.635536],[4.740264,50.635613],[4.740528,50.635738],[4.740852,50.63589],[4.740875,50.63601],[4.740974,50.636253],[4.74103,50.636387],[4.741302,50.636718],[4.741468,50.636898],[4.741656,50.637098],[4.742129,50.63756],[4.742222,50.63765],[4.742443,50.637916],[4.742546,50.638033],[4.742661,50.638123],[4.742991,50.638507],[4.743212,50.638764],[4.743632,50.639253],[4.743734,50.639374],[4.743852,50.639518],[4.743946,50.639637],[4.744409,50.640217],[4.744488,50.640316],[4.744578,50.64043],[4.744392,50.640505],[4.744516,50.641646],[4.74454,50.641728],[4.74453,50.641765],[4.744557,50.64226],[4.744556,50.642287],[4.744498,50.642789],[4.74449,50.642872],[4.744439,50.643401],[4.743097,50.642776],[4.743002,50.642783],[4.74224,50.642899],[4.742173,50.642913],[4.741715,50.643013],[4.742266,50.643288],[4.742003,50.643534],[4.741891,50.643642],[4.740852,50.644615],[4.740845,50.644623],[4.74056,50.644901],[4.740399,50.645059],[4.73966,50.645812],[4.739232,50.646246],[4.739086,50.6464],[4.739055,50.646434],[4.737987,50.647739],[4.738503,50.647928],[4.739509,50.648326],[4.739514,50.648328],[4.739611,50.648364],[4.74058,50.648725],[4.740681,50.648767],[4.741205,50.64898],[4.741221,50.648986],[4.742032,50.649269],[4.74268,50.649611],[4.742704,50.649621],[4.743934,50.650041],[4.744532,50.650244],[4.744462,50.650527],[4.744456,50.65055],[4.744194,50.651332],[4.744048,50.651767],[4.743809,50.652471],[4.743808,50.652475],[4.743263,50.653509],[4.743143,50.653654],[4.742492,50.654509],[4.743271,50.654845],[4.743254,50.654932],[4.743258,50.654958],[4.743076,50.65582],[4.743419,50.655928],[4.744252,50.656185],[4.744903,50.656387],[4.745596,50.656599],[4.745872,50.657009],[4.746207,50.657513],[4.746226,50.657645],[4.746292,50.658083],[4.74632,50.658266],[4.74639,50.65874],[4.745534,50.658754],[4.745181,50.658756],[4.743889,50.658764],[4.743293,50.658766],[4.742939,50.658769],[4.7426,50.658773],[4.742192,50.658828],[4.741103,50.658977],[4.740747,50.659069],[4.740738,50.659056],[4.740642,50.659076],[4.740589,50.659088],[4.740922,50.65953],[4.741122,50.659795],[4.741361,50.660113],[4.741564,50.660383],[4.741838,50.660764],[4.742109,50.661132],[4.742451,50.661552],[4.742364,50.661585],[4.739724,50.662617],[4.738496,50.663293],[4.737762,50.663453],[4.737387,50.663524],[4.736324,50.663741],[4.735969,50.66357],[4.73583,50.663501],[4.735578,50.663372],[4.735563,50.663364],[4.735272,50.663174],[4.734924,50.662938],[4.734162,50.662419],[4.733758,50.662136],[4.732842,50.661828],[4.731852,50.662219],[4.731798,50.662239],[4.731788,50.662242],[4.731788,50.662242],[4.731199,50.662452],[4.730672,50.661997],[4.729768,50.661216],[4.72961,50.661085],[4.729578,50.661059],[4.729386,50.661171],[4.729191,50.661305],[4.729145,50.661409],[4.729139,50.661423],[4.728993,50.661917],[4.728677,50.66187],[4.728293,50.662218],[4.728254,50.662256],[4.728031,50.662484],[4.728029,50.662487],[4.72784,50.662645],[4.727834,50.66265],[4.727691,50.662803],[4.727675,50.662818],[4.727481,50.662976],[4.727472,50.662981],[4.726668,50.663486],[4.72663,50.663511],[4.72659,50.663541],[4.726385,50.663663],[4.726004,50.663889],[4.72587,50.663969],[4.725838,50.663955],[4.724024,50.66321],[4.723747,50.663101],[4.723201,50.662884],[4.722847,50.662719],[4.721619,50.662129],[4.718449,50.660604],[4.718376,50.660692],[4.718205,50.660874],[4.718068,50.661018],[4.717891,50.661158],[4.717608,50.661374],[4.717544,50.661423],[4.717323,50.661594],[4.717223,50.661678],[4.716765,50.662087],[4.716503,50.662332],[4.716166,50.662641],[4.715869,50.662911],[4.715634,50.663165],[4.715313,50.663477],[4.715066,50.663627],[4.715045,50.663642],[4.71503,50.663655],[4.713268,50.664994],[4.71326,50.66499],[4.712116,50.664392],[4.71211,50.66439],[4.711607,50.664206],[4.711563,50.664191],[4.71028,50.663763],[4.709817,50.664176],[4.709278,50.664039],[4.709249,50.664031],[4.708198,50.663729],[4.70798,50.663895]]]}}
