{"type":"Feature","properties":{"mrgid":2876,"name":"Seneffe","placeType":"Commune","source":"Belgium:belgium_municipalities"},"geometry":{"type":"MultiPolygon","coordinates":[[[[4.260664,50.501425],[4.260109,50.501976],[4.259321,50.501428],[4.260358,50.500879],[4.260664,50.501425]]],[[[4.241233,50.601459],[4.241024,50.60155],[4.240861,50.601599],[4.240769,50.601618],[4.240714,50.601623],[4.240625,50.601581],[4.240564,50.601503],[4.240521,50.601427],[4.240437,50.601385],[4.240343,50.601358],[4.240225,50.601355],[4.240078,50.601359],[4.23987,50.601351],[4.239817,50.601341],[4.239728,50.601297],[4.239692,50.601244],[4.23969,50.601107],[4.239635,50.600973],[4.23957,50.600874],[4.23944,50.600802],[4.239286,50.600785],[4.23924,50.600787],[4.239156,50.600806],[4.239139,50.600817],[4.239086,50.600854],[4.238944,50.600986],[4.238921,50.601006],[4.238862,50.601029],[4.238811,50.601045],[4.238749,50.601038],[4.2387,50.601023],[4.238651,50.601],[4.238609,50.600963],[4.238551,50.600901],[4.238451,50.600727],[4.238282,50.600375],[4.238228,50.60037],[4.238123,50.600347],[4.238034,50.600258],[4.23774,50.600037],[4.237532,50.599917],[4.237505,50.599908],[4.237426,50.599914],[4.237216,50.599992],[4.237123,50.600033],[4.237047,50.600052],[4.236959,50.600053],[4.236783,50.600034],[4.236681,50.600031],[4.236587,50.600052],[4.236444,50.600093],[4.23631,50.600133],[4.235895,50.60025],[4.235719,50.600302],[4.235497,50.600371],[4.235372,50.600388],[4.235196,50.600393],[4.23508,50.600386],[4.23493,50.600372],[4.234695,50.600461],[4.234331,50.600463],[4.233986,50.600448],[4.233883,50.60043],[4.233592,50.60037],[4.233428,50.600384],[4.233296,50.600397],[4.233113,50.600432],[4.232987,50.60047],[4.232759,50.600562],[4.232721,50.60058],[4.232538,50.600611],[4.232346,50.600618],[4.232125,50.600599],[4.231711,50.60062],[4.231581,50.60064],[4.231392,50.600656],[4.230932,50.600611],[4.230812,50.600585],[4.230624,50.600558],[4.230461,50.600527],[4.230202,50.600461],[4.230056,50.600404],[4.229903,50.600364],[4.229799,50.600401],[4.229703,50.600452],[4.229701,50.600493],[4.229768,50.60059],[4.229849,50.600666],[4.230005,50.600812],[4.230067,50.600888],[4.230064,50.600913],[4.230009,50.600961],[4.229912,50.601007],[4.229848,50.60102],[4.229749,50.601045],[4.229621,50.600998],[4.229317,50.600944],[4.229268,50.600972],[4.229247,50.600968],[4.229239,50.600929],[4.229187,50.600918],[4.229114,50.600917],[4.229105,50.600911],[4.229115,50.600891],[4.229112,50.60085],[4.229032,50.600825],[4.228978,50.600828],[4.228959,50.600852],[4.228941,50.600849],[4.228911,50.600801],[4.228916,50.600665],[4.228955,50.600617],[4.228951,50.600518],[4.229066,50.600486],[4.229087,50.600453],[4.229075,50.600412],[4.228978,50.600309],[4.228979,50.600298],[4.229206,50.600276],[4.229267,50.60025],[4.229324,50.600169],[4.22928,50.600117],[4.229288,50.600108],[4.229398,50.600075],[4.229394,50.600035],[4.2293,50.599991],[4.229284,50.599958],[4.229288,50.599897],[4.229352,50.599812],[4.229375,50.599731],[4.229369,50.599644],[4.229391,50.599621],[4.229442,50.599592],[4.229449,50.599557],[4.229435,50.599471],[4.229461,50.599392],[4.229585,50.599317],[4.229617,50.599291],[4.229638,50.599242],[4.229573,50.599201],[4.229422,50.599054],[4.229327,50.598997],[4.229188,50.598959],[4.229097,50.598916],[4.229072,50.598887],[4.229071,50.598835],[4.229091,50.598742],[4.228998,50.598748],[4.228982,50.598722],[4.229009,50.598481],[4.228843,50.5985],[4.228828,50.59848],[4.228884,50.598407],[4.228818,50.598377],[4.228814,50.59836],[4.228844,50.598308],[4.22886,50.598233],[4.228893,50.598195],[4.228907,50.598164],[4.228889,50.598141],[4.228802,50.598116],[4.22876,50.598088],[4.228743,50.598059],[4.228755,50.598013],[4.22871,50.597963],[4.228708,50.597942],[4.228744,50.597842],[4.22871,50.597787],[4.228716,50.597765],[4.228772,50.597692],[4.228779,50.597659],[4.22874,50.597625],[4.228739,50.597513],[4.228665,50.597396],[4.228664,50.597295],[4.228634,50.597269],[4.228475,50.597263],[4.228459,50.597238],[4.228466,50.597218],[4.228605,50.597186],[4.228677,50.59709],[4.228676,50.597058],[4.228634,50.597012],[4.22858,50.596871],[4.22854,50.596805],[4.22856,50.596743],[4.22853,50.596686],[4.228493,50.596664],[4.228344,50.596605],[4.228325,50.596589],[4.228371,50.596462],[4.228425,50.596413],[4.228426,50.596386],[4.228447,50.596361],[4.228498,50.596345],[4.228539,50.596346],[4.228702,50.596392],[4.228904,50.596394],[4.228978,50.596345],[4.229097,50.59622],[4.229219,50.596032],[4.22934,50.596001],[4.229343,50.595939],[4.229294,50.595855],[4.229195,50.595817],[4.229199,50.595802],[4.229411,50.595721],[4.229532,50.595631],[4.229579,50.595556],[4.229797,50.595436],[4.229752,50.595312],[4.229755,50.595304],[4.229899,50.595322],[4.230028,50.595225],[4.230108,50.595188],[4.230282,50.595117],[4.230341,50.595057],[4.230428,50.595001],[4.230543,50.594861],[4.230604,50.594751],[4.230601,50.594701],[4.230717,50.594608],[4.230837,50.594591],[4.230888,50.594556],[4.23093,50.594544],[4.231072,50.594536],[4.231118,50.594507],[4.231116,50.594474],[4.231159,50.59446],[4.231185,50.594442],[4.231282,50.594419],[4.231357,50.594415],[4.231402,50.594405],[4.231693,50.594365],[4.231752,50.594382],[4.231788,50.594363],[4.231841,50.594356],[4.231971,50.594286],[4.232067,50.594276],[4.232144,50.594254],[4.232253,50.594247],[4.232297,50.594259],[4.232363,50.594301],[4.232425,50.594304],[4.232496,50.594282],[4.232569,50.594243],[4.232622,50.594232],[4.232682,50.594227],[4.232723,50.594211],[4.23283,50.594132],[4.232917,50.594127],[4.23297,50.594136],[4.233081,50.59418],[4.23313,50.594177],[4.233289,50.59408],[4.233334,50.594035],[4.2334,50.594016],[4.233625,50.593921],[4.233684,50.593872],[4.233818,50.593797],[4.2339,50.593701],[4.233976,50.593678],[4.234183,50.593525],[4.234213,50.593391],[4.234224,50.59322],[4.234234,50.593086],[4.234292,50.593004],[4.234189,50.592921],[4.234281,50.592814],[4.234248,50.592731],[4.234228,50.592626],[4.234263,50.592599],[4.234224,50.59243],[4.234188,50.59239],[4.234229,50.592331],[4.234231,50.592213],[4.234361,50.592173],[4.23444,50.592082],[4.234468,50.591999],[4.23453,50.591883],[4.234746,50.591829],[4.234813,50.591822],[4.234813,50.591774],[4.234839,50.591703],[4.234896,50.591575],[4.234934,50.591465],[4.234972,50.591384],[4.234995,50.591269],[4.234977,50.591207],[4.235023,50.59107],[4.23503,50.591005],[4.235068,50.590848],[4.235068,50.590768],[4.235092,50.590716],[4.235087,50.590637],[4.235024,50.590512],[4.234934,50.590372],[4.234859,50.590238],[4.234799,50.590087],[4.234738,50.589959],[4.234682,50.589892],[4.234576,50.589798],[4.234119,50.589461],[4.234079,50.589425],[4.233551,50.589452],[4.233537,50.589429],[4.233366,50.589265],[4.233306,50.589179],[4.233223,50.589123],[4.233191,50.589094],[4.233106,50.588965],[4.233042,50.58889],[4.232925,50.5888],[4.232804,50.588735],[4.23268,50.588681],[4.232496,50.588622],[4.232329,50.588593],[4.232187,50.588591],[4.232086,50.588602],[4.231884,50.588609],[4.231785,50.588626],[4.231775,50.588626],[4.231775,50.588626],[4.231776,50.588565],[4.231579,50.588427],[4.231554,50.588338],[4.2312,50.588085],[4.231059,50.587938],[4.230842,50.587766],[4.230323,50.587371],[4.229592,50.586823],[4.228572,50.586058],[4.228212,50.58559],[4.228202,50.585584],[4.227921,50.585258],[4.22771,50.585053],[4.227185,50.584485],[4.22713,50.584371],[4.226943,50.584159],[4.226751,50.583865],[4.226767,50.58386],[4.226723,50.583786],[4.226654,50.58371],[4.226658,50.583694],[4.226547,50.583519],[4.226546,50.583361],[4.226527,50.583341],[4.226075,50.582898],[4.226069,50.58289],[4.226052,50.582887],[4.225938,50.582805],[4.225673,50.582525],[4.225433,50.582296],[4.225061,50.581881],[4.22496,50.581707],[4.224927,50.58156],[4.224865,50.581466],[4.224847,50.581284],[4.224783,50.581152],[4.224618,50.580524],[4.224643,50.58048],[4.22452,50.580306],[4.224367,50.580125],[4.2242,50.579977],[4.224031,50.579749],[4.223819,50.579286],[4.223792,50.579182],[4.223698,50.579028],[4.22358,50.578756],[4.223465,50.578665],[4.223375,50.578625],[4.223259,50.578431],[4.223148,50.578372],[4.223146,50.57837],[4.223122,50.578335],[4.223956,50.577288],[4.222241,50.576252],[4.222231,50.576241],[4.222232,50.576241],[4.222459,50.576182],[4.22295,50.576057],[4.223247,50.575967],[4.22335,50.575929],[4.223604,50.575781],[4.223795,50.575668],[4.223951,50.575588],[4.22406,50.575535],[4.224265,50.575451],[4.224368,50.57541],[4.224559,50.575331],[4.224791,50.575248],[4.22501,50.575172],[4.225223,50.575102],[4.22538,50.575057],[4.225681,50.574977],[4.225851,50.574917],[4.226039,50.574846],[4.226191,50.57479],[4.226319,50.574737],[4.226443,50.574685],[4.226651,50.574607],[4.226653,50.574608],[4.226643,50.574594],[4.226619,50.574568],[4.227391,50.57402],[4.227691,50.573786],[4.228331,50.573205],[4.228535,50.573015],[4.228772,50.573082],[4.229179,50.573175],[4.229432,50.572959],[4.229226,50.572878],[4.228954,50.572742],[4.22887,50.572726],[4.228494,50.572565],[4.228439,50.572553],[4.228054,50.572384],[4.228021,50.572354],[4.228003,50.572261],[4.227968,50.572202],[4.227983,50.572152],[4.227944,50.572121],[4.227894,50.572143],[4.227853,50.572088],[4.227632,50.571911],[4.227291,50.571701],[4.227177,50.571451],[4.227181,50.571284],[4.227149,50.571266],[4.227091,50.57122],[4.226985,50.571174],[4.226859,50.571171],[4.226634,50.571064],[4.22662,50.571023],[4.227065,50.570702],[4.226358,50.570213],[4.226222,50.570043],[4.226171,50.570004],[4.226111,50.569946],[4.226054,50.569783],[4.225972,50.569683],[4.225834,50.569536],[4.225739,50.569345],[4.225542,50.569184],[4.225484,50.56903],[4.225202,50.568792],[4.225156,50.568739],[4.225081,50.568656],[4.223773,50.567396],[4.223602,50.567134],[4.223582,50.567118],[4.222954,50.56679],[4.220983,50.566663],[4.220831,50.566601],[4.220806,50.56656],[4.220469,50.566417],[4.220054,50.566173],[4.218093,50.565548],[4.218037,50.565534],[4.217959,50.565501],[4.217915,50.565479],[4.217872,50.56547],[4.217866,50.56545],[4.217835,50.565429],[4.217771,50.565406],[4.217696,50.565388],[4.217665,50.565365],[4.217557,50.565323],[4.217551,50.565285],[4.217503,50.565257],[4.217442,50.565195],[4.217476,50.565169],[4.217529,50.565139],[4.217522,50.565108],[4.217453,50.565026],[4.21735,50.56501],[4.217315,50.564969],[4.217177,50.564925],[4.217146,50.564897],[4.217149,50.564878],[4.217068,50.564816],[4.217037,50.56474],[4.217,50.564674],[4.216914,50.564613],[4.216856,50.564385],[4.216765,50.564313],[4.217184,50.563426],[4.217364,50.563054],[4.217406,50.562979],[4.217411,50.562957],[4.21741,50.562896],[4.217395,50.562847],[4.217283,50.56269],[4.217053,50.562376],[4.21698,50.56231],[4.216906,50.562234],[4.216608,50.561994],[4.216603,50.561768],[4.216593,50.561636],[4.216678,50.561405],[4.21674,50.561276],[4.216767,50.5612],[4.216781,50.561095],[4.216845,50.560957],[4.217046,50.560691],[4.217264,50.560419],[4.217486,50.560276],[4.21784,50.560011],[4.218232,50.559718],[4.218259,50.559687],[4.218289,50.559625],[4.218445,50.559621],[4.218499,50.559623],[4.218774,50.559654],[4.2189,50.559658],[4.21904,50.559667],[4.219252,50.559687],[4.219409,50.559688],[4.219734,50.559681],[4.221514,50.559256],[4.221625,50.559171],[4.221789,50.559037],[4.221833,50.559004],[4.221843,50.559007],[4.221867,50.558995],[4.22196,50.55895],[4.222024,50.558916],[4.222131,50.558864],[4.222254,50.558809],[4.222295,50.558771],[4.222304,50.558744],[4.222292,50.558676],[4.222309,50.558407],[4.222313,50.55831],[4.222319,50.558269],[4.222795,50.557398],[4.221923,50.557075],[4.222524,50.556338],[4.222777,50.555997],[4.223288,50.555411],[4.224861,50.554006],[4.225552,50.553308],[4.225491,50.552742],[4.225127,50.552645],[4.224935,50.552557],[4.224613,50.552406],[4.223766,50.551977],[4.223762,50.551653],[4.224314,50.549882],[4.224666,50.54926],[4.224958,50.548728],[4.225119,50.548206],[4.225225,50.54752],[4.223252,50.546965],[4.223197,50.546416],[4.223186,50.546314],[4.223148,50.546164],[4.222994,50.545739],[4.22298,50.545665],[4.22309,50.544198],[4.222894,50.544106],[4.222602,50.543988],[4.222491,50.543944],[4.220331,50.543212],[4.219836,50.54303],[4.219307,50.54285],[4.219221,50.54282],[4.218899,50.542708],[4.217651,50.542084],[4.217305,50.541916],[4.216958,50.541779],[4.216792,50.541595],[4.216683,50.541462],[4.216652,50.541405],[4.216117,50.540993],[4.216018,50.5409],[4.21584,50.540711],[4.215466,50.540498],[4.215232,50.540367],[4.215146,50.54032],[4.214622,50.540192],[4.214589,50.540187],[4.21443,50.54021],[4.214152,50.540338],[4.213911,50.540376],[4.213802,50.540408],[4.213298,50.540308],[4.213068,50.540252],[4.212936,50.54025],[4.212574,50.540279],[4.212382,50.54024],[4.212078,50.540151],[4.211892,50.540119],[4.210899,50.539992],[4.21013,50.539848],[4.210147,50.539767],[4.210003,50.539718],[4.209937,50.539717],[4.209215,50.539471],[4.208882,50.539342],[4.207916,50.539134],[4.206431,50.539111],[4.20626,50.539098],[4.206016,50.53908],[4.205353,50.539081],[4.205162,50.539064],[4.205182,50.53913],[4.205076,50.539143],[4.204984,50.539182],[4.204663,50.539391],[4.204589,50.539472],[4.204431,50.539523],[4.204437,50.539539],[4.204331,50.539626],[4.204292,50.53962],[4.204212,50.539605],[4.204073,50.539603],[4.204046,50.539615],[4.20401,50.539812],[4.203951,50.539837],[4.20389,50.539918],[4.203861,50.539951],[4.203842,50.540014],[4.203852,50.540055],[4.203904,50.540102],[4.203985,50.540151],[4.203946,50.540202],[4.203882,50.540255],[4.20377,50.540317],[4.203706,50.540321],[4.20363,50.540263],[4.203609,50.540218],[4.203493,50.540167],[4.203409,50.540142],[4.203248,50.540182],[4.203064,50.540184],[4.202898,50.540205],[4.202728,50.54019],[4.202681,50.540152],[4.202572,50.540116],[4.202462,50.540241],[4.202312,50.540231],[4.202273,50.540306],[4.202239,50.540291],[4.202196,50.540255],[4.202153,50.540237],[4.202049,50.540239],[4.202,50.540266],[4.202016,50.540298],[4.202007,50.540351],[4.202017,50.540376],[4.202015,50.540376],[4.201839,50.540436],[4.20168,50.540502],[4.201551,50.540537],[4.201442,50.540548],[4.201326,50.540548],[4.201183,50.540537],[4.201081,50.540512],[4.200964,50.540482],[4.200853,50.54045],[4.200777,50.540428],[4.200687,50.540394],[4.200595,50.540373],[4.200475,50.540373],[4.200331,50.540366],[4.200218,50.540372],[4.200198,50.540393],[4.20019,50.540446],[4.200153,50.540514],[4.2001,50.540581],[4.199974,50.540638],[4.199882,50.540663],[4.199758,50.540686],[4.199741,50.540663],[4.199641,50.540577],[4.199542,50.540516],[4.199177,50.540588],[4.199139,50.540587],[4.198886,50.540568],[4.198802,50.54056],[4.19872,50.540552],[4.198659,50.540544],[4.198598,50.540535],[4.198537,50.540526],[4.198496,50.540518],[4.198414,50.540502],[4.198372,50.540491],[4.198331,50.54048],[4.198223,50.540448],[4.198088,50.540409],[4.19783,50.540339],[4.197566,50.540267],[4.197436,50.54023],[4.19717,50.540149],[4.197039,50.540106],[4.196701,50.539992],[4.196614,50.539963],[4.196526,50.539934],[4.196438,50.539906],[4.196336,50.539876],[4.196129,50.539818],[4.195963,50.539776],[4.195878,50.539758],[4.195776,50.539741],[4.195515,50.539701],[4.195385,50.539681],[4.195292,50.539667],[4.195106,50.539641],[4.194777,50.539787],[4.194613,50.539861],[4.194532,50.5399],[4.194451,50.539938],[4.19437,50.539977],[4.194271,50.540023],[4.194171,50.540069],[4.193958,50.540168],[4.193731,50.540276],[4.193449,50.540409],[4.193272,50.540487],[4.193243,50.540451],[4.193183,50.540378],[4.193139,50.540326],[4.193095,50.540275],[4.193048,50.540225],[4.192987,50.540167],[4.192922,50.540111],[4.192856,50.540055],[4.192766,50.539977],[4.192674,50.539899],[4.192581,50.539823],[4.19245,50.539716],[4.192296,50.539594],[4.192209,50.539524],[4.192059,50.539404],[4.191934,50.539304],[4.191871,50.539253],[4.191809,50.539202],[4.191505,50.538821],[4.192582,50.538106],[4.191851,50.537621],[4.191708,50.537529],[4.191742,50.537476],[4.191677,50.537403],[4.191682,50.537369],[4.190819,50.537055],[4.190494,50.536651],[4.190327,50.536442],[4.190187,50.536268],[4.190076,50.53613],[4.190357,50.535959],[4.191194,50.535536],[4.191079,50.535315],[4.190946,50.535015],[4.190909,50.534933],[4.190776,50.534547],[4.190722,50.534473],[4.190676,50.534357],[4.19053,50.53406],[4.190524,50.534048],[4.190403,50.533836],[4.19031,50.533635],[4.190244,50.533492],[4.190173,50.533354],[4.18987,50.532759],[4.189731,50.532474],[4.189613,50.53227],[4.189548,50.532189],[4.189539,50.532173],[4.188715,50.530326],[4.188339,50.529463],[4.188036,50.529248],[4.187922,50.52914],[4.187808,50.528998],[4.18753,50.528615],[4.187509,50.528582],[4.187396,50.528388],[4.187359,50.528009],[4.187321,50.527394],[4.187109,50.527157],[4.18676,50.52673],[4.18677,50.52653],[4.186787,50.526391],[4.18679,50.526297],[4.186791,50.525998],[4.186785,50.525872],[4.186765,50.525708],[4.186649,50.52546],[4.186607,50.525397],[4.186555,50.525332],[4.186328,50.525083],[4.186108,50.524896],[4.187043,50.524703],[4.187794,50.524453],[4.188526,50.524227],[4.189503,50.523909],[4.190409,50.523596],[4.191198,50.523263],[4.192105,50.522801],[4.19312,50.522172],[4.194126,50.521474],[4.194845,50.520973],[4.195804,50.520278],[4.197007,50.519433],[4.197952,50.51878],[4.199032,50.518172],[4.199864,50.517752],[4.200253,50.517624],[4.200822,50.517364],[4.201699,50.516966],[4.202715,50.516513],[4.203589,50.516114],[4.204759,50.515572],[4.205733,50.515081],[4.206684,50.514584],[4.207496,50.514113],[4.208526,50.513496],[4.209137,50.513081],[4.209506,50.512838],[4.210098,50.512415],[4.210567,50.512071],[4.210896,50.511793],[4.211095,50.511611],[4.211438,50.51142],[4.21151,50.511358],[4.211724,50.51095],[4.212667,50.511491],[4.21413,50.512522],[4.217496,50.51392],[4.22245,50.516328],[4.225919,50.516689],[4.229538,50.516385],[4.233417,50.516817],[4.238013,50.518203],[4.241918,50.520372],[4.24243,50.520659],[4.242672,50.52077],[4.24297,50.520882],[4.243172,50.520938],[4.243481,50.521012],[4.245474,50.521394],[4.245589,50.52141],[4.245663,50.521409],[4.245791,50.521397],[4.245859,50.521378],[4.246,50.521287],[4.246081,50.521224],[4.24732,50.520363],[4.24781,50.519946],[4.246986,50.518789],[4.246237,50.519136],[4.246235,50.51913],[4.246033,50.519224],[4.245717,50.519364],[4.245505,50.519481],[4.244733,50.519701],[4.244849,50.520226],[4.244483,50.520291],[4.244283,50.520277],[4.243805,50.519638],[4.244429,50.519482],[4.24444,50.519346],[4.24442,50.519306],[4.244132,50.518927],[4.24401,50.51854],[4.244318,50.518453],[4.244265,50.518391],[4.244108,50.51802],[4.244588,50.517883],[4.245644,50.517588],[4.245991,50.51749],[4.246006,50.517386],[4.245234,50.516434],[4.245284,50.516422],[4.245878,50.516167],[4.246554,50.515832],[4.246772,50.515731],[4.247103,50.515561],[4.24738,50.515416],[4.247305,50.515343],[4.247153,50.515194],[4.247268,50.515138],[4.248853,50.514364],[4.248899,50.514405],[4.249406,50.514171],[4.249784,50.513998],[4.249729,50.513941],[4.24967,50.513881],[4.249946,50.513762],[4.250013,50.51373],[4.250312,50.513365],[4.250434,50.513305],[4.250923,50.513079],[4.252348,50.512569],[4.252597,50.512909],[4.252663,50.512878],[4.25438,50.512084],[4.255612,50.511623],[4.255898,50.511517],[4.255828,50.51144],[4.2558,50.511431],[4.255739,50.511409],[4.25558,50.511374],[4.255505,50.511323],[4.255466,50.511297],[4.25544,50.511277],[4.255351,50.511232],[4.255136,50.511106],[4.254917,50.510996],[4.254718,50.510796],[4.254597,50.510655],[4.254483,50.510585],[4.254313,50.510464],[4.254295,50.510422],[4.254295,50.510301],[4.254351,50.510141],[4.25439,50.510019],[4.254331,50.509873],[4.254323,50.509691],[4.254317,50.509634],[4.254246,50.509519],[4.254182,50.509265],[4.254079,50.509139],[4.254057,50.50897],[4.25402,50.508856],[4.253922,50.50862],[4.253881,50.508445],[4.253805,50.508363],[4.253787,50.50832],[4.253833,50.508246],[4.253916,50.508161],[4.253935,50.508109],[4.253915,50.507812],[4.253933,50.507592],[4.253857,50.507484],[4.253831,50.507426],[4.253856,50.507341],[4.253816,50.507258],[4.255093,50.506965],[4.255265,50.506962],[4.256641,50.506941],[4.256952,50.506938],[4.257458,50.506931],[4.257647,50.506929],[4.257936,50.506924],[4.259038,50.506909],[4.258952,50.506272],[4.258892,50.505956],[4.25828,50.504984],[4.258048,50.504608],[4.257975,50.504441],[4.257247,50.503576],[4.25773,50.50328],[4.258571,50.50279],[4.258937,50.502622],[4.259054,50.50257],[4.259159,50.502604],[4.259892,50.502272],[4.260178,50.502024],[4.260343,50.50214],[4.261389,50.501618],[4.261734,50.501414],[4.262061,50.501178],[4.262386,50.500944],[4.262529,50.500846],[4.264018,50.500362],[4.264662,50.499883],[4.265391,50.499581],[4.265717,50.499307],[4.266021,50.499036],[4.266448,50.499372],[4.266584,50.499516],[4.266643,50.499582],[4.267099,50.499327],[4.267474,50.49959],[4.267664,50.499736],[4.267643,50.499749],[4.268121,50.500052],[4.268453,50.500263],[4.269303,50.500802],[4.269758,50.501088],[4.271195,50.500391],[4.272557,50.499499],[4.27263,50.499481],[4.272911,50.499616],[4.273478,50.499948],[4.274139,50.500345],[4.274586,50.500614],[4.27482,50.500743],[4.274978,50.500797],[4.275147,50.500798],[4.275353,50.500687],[4.275496,50.500627],[4.275764,50.500529],[4.276181,50.500353],[4.276648,50.500157],[4.276884,50.50005],[4.277029,50.499964],[4.277152,50.499875],[4.277461,50.499597],[4.278123,50.498973],[4.278253,50.498852],[4.278383,50.498753],[4.278446,50.498684],[4.278722,50.498315],[4.278917,50.498086],[4.2793,50.497727],[4.279658,50.49712],[4.279682,50.497077],[4.279885,50.497097],[4.280329,50.497164],[4.280429,50.497171],[4.280506,50.497142],[4.280687,50.497033],[4.28101,50.496809],[4.281428,50.496516],[4.281639,50.496338],[4.281698,50.496295],[4.281724,50.496306],[4.282456,50.496651],[4.283112,50.496907],[4.283224,50.496982],[4.283262,50.497084],[4.283333,50.497304],[4.283292,50.497437],[4.283214,50.497632],[4.282958,50.498018],[4.282784,50.498528],[4.282751,50.498671],[4.282724,50.49877],[4.282713,50.498829],[4.282706,50.499021],[4.282737,50.499141],[4.282785,50.499309],[4.282906,50.499666],[4.283061,50.500209],[4.283222,50.50084],[4.283253,50.500966],[4.28329,50.501048],[4.283223,50.501105],[4.283125,50.501429],[4.28308,50.50156],[4.283056,50.501865],[4.283234,50.502079],[4.283379,50.502213],[4.283564,50.502452],[4.283983,50.503006],[4.284387,50.503326],[4.284617,50.503502],[4.28483,50.503746],[4.28513,50.50401],[4.285213,50.504091],[4.28528,50.504122],[4.285546,50.504267],[4.286195,50.50454],[4.286235,50.504522],[4.286355,50.50463],[4.286501,50.504706],[4.286505,50.50473],[4.286563,50.504915],[4.286641,50.504974],[4.286659,50.505063],[4.286419,50.50567],[4.286359,50.505776],[4.286354,50.505818],[4.286321,50.505899],[4.286325,50.505958],[4.286349,50.506031],[4.286448,50.506156],[4.286682,50.50639],[4.286886,50.506728],[4.28692,50.506815],[4.286971,50.507054],[4.286996,50.507313],[4.287021,50.507655],[4.286991,50.5079],[4.286935,50.508001],[4.287451,50.508284],[4.287839,50.508486],[4.288086,50.508576],[4.289139,50.508987],[4.290098,50.509311],[4.290222,50.509355],[4.291446,50.509694],[4.291291,50.510292],[4.290977,50.510697],[4.29096,50.51071],[4.291,50.510725],[4.291078,50.510699],[4.291135,50.510746],[4.291425,50.510923],[4.29163,50.511059],[4.291732,50.511124],[4.292084,50.511356],[4.292387,50.511511],[4.2926,50.51159],[4.293273,50.511792],[4.293657,50.511849],[4.294639,50.51199],[4.295221,50.512076],[4.295326,50.51209],[4.295588,50.51212],[4.295942,50.512208],[4.296224,50.512274],[4.296629,50.512367],[4.296817,50.512414],[4.297099,50.512499],[4.29724,50.512584],[4.297389,50.512693],[4.297494,50.512785],[4.297712,50.512986],[4.297929,50.513178],[4.298142,50.513373],[4.298355,50.513566],[4.298571,50.513766],[4.298791,50.513969],[4.299021,50.514179],[4.299232,50.514375],[4.299441,50.514573],[4.299639,50.514753],[4.299835,50.514946],[4.300053,50.515156],[4.300254,50.515362],[4.300454,50.51556],[4.300656,50.515765],[4.300826,50.515932],[4.300942,50.516049],[4.301009,50.516121],[4.30112,50.516245],[4.301174,50.516309],[4.301303,50.516469],[4.301418,50.516622],[4.301507,50.516824],[4.301545,50.516927],[4.301559,50.517058],[4.301575,50.517238],[4.301581,50.517268],[4.301596,50.517318],[4.301628,50.517443],[4.301636,50.517463],[4.301691,50.517636],[4.301732,50.517778],[4.301789,50.517955],[4.301868,50.518144],[4.301942,50.518338],[4.302023,50.518528],[4.302101,50.518717],[4.302133,50.518775],[4.302175,50.518787],[4.302691,50.519015],[4.303126,50.519208],[4.303289,50.5193],[4.303718,50.51963],[4.304101,50.519941],[4.304853,50.520439],[4.304617,50.520575],[4.304849,50.520769],[4.305091,50.520974],[4.305328,50.521175],[4.305865,50.521628],[4.306048,50.521784],[4.306423,50.521556],[4.306849,50.521908],[4.308399,50.52306],[4.308551,50.523169],[4.309375,50.523611],[4.310233,50.523794],[4.310265,50.523806],[4.310294,50.523826],[4.31085,50.523946],[4.311102,50.524002],[4.311531,50.524096],[4.31189,50.524175],[4.312028,50.524204],[4.31209,50.524219],[4.312579,50.524359],[4.312695,50.524402],[4.312886,50.524466],[4.313213,50.524587],[4.313501,50.524699],[4.313594,50.524737],[4.313759,50.524816],[4.313925,50.524878],[4.314103,50.524949],[4.314126,50.524957],[4.315038,50.525272],[4.31555,50.525465],[4.316242,50.525738],[4.316277,50.525756],[4.317227,50.526417],[4.317349,50.526521],[4.31757,50.526613],[4.318094,50.526736],[4.318348,50.526805],[4.318506,50.526899],[4.31881,50.527077],[4.318941,50.52714],[4.319111,50.527201],[4.31939,50.527286],[4.319792,50.527399],[4.319917,50.527444],[4.320001,50.5275],[4.320225,50.527698],[4.320518,50.527961],[4.32063,50.528048],[4.320948,50.528296],[4.321197,50.528436],[4.32139,50.528565],[4.321663,50.528755],[4.32174,50.528822],[4.321963,50.529067],[4.322132,50.529218],[4.322423,50.529456],[4.322579,50.529571],[4.322798,50.529741],[4.32274,50.529772],[4.322539,50.529859],[4.322127,50.530027],[4.321844,50.530123],[4.321466,50.530245],[4.321145,50.530343],[4.320715,50.530427],[4.32055,50.530458],[4.320513,50.530473],[4.320325,50.53058],[4.319939,50.530838],[4.319762,50.530948],[4.319536,50.531075],[4.319244,50.531154],[4.318869,50.531239],[4.318614,50.531297],[4.31818,50.531398],[4.318015,50.531459],[4.31771,50.531636],[4.317504,50.531744],[4.317224,50.531887],[4.317031,50.531985],[4.316909,50.532044],[4.316753,50.532118],[4.316646,50.532168],[4.316594,50.53219],[4.316516,50.532225],[4.316487,50.532236],[4.316415,50.532266],[4.316107,50.532384],[4.315109,50.532833],[4.314911,50.532925],[4.314366,50.533208],[4.313585,50.533599],[4.313344,50.533708],[4.313204,50.533782],[4.312987,50.533952],[4.312563,50.534277],[4.312507,50.534329],[4.312145,50.534756],[4.311852,50.535165],[4.311361,50.535894],[4.311244,50.53608],[4.31112,50.536251],[4.311072,50.536303],[4.310728,50.536585],[4.310559,50.536703],[4.310112,50.537018],[4.309776,50.537334],[4.309373,50.537706],[4.309241,50.537789],[4.308936,50.537704],[4.308133,50.537452],[4.307972,50.537478],[4.307812,50.537615],[4.307645,50.537788],[4.3075,50.537935],[4.307415,50.538036],[4.307386,50.538152],[4.307378,50.538211],[4.307382,50.538263],[4.307436,50.538462],[4.307478,50.538681],[4.307516,50.53887],[4.307521,50.538897],[4.307545,50.53908],[4.30756,50.539162],[4.307583,50.539253],[4.307625,50.539417],[4.307671,50.539599],[4.307714,50.539764],[4.307764,50.539944],[4.307813,50.540131],[4.30782,50.540277],[4.307824,50.54047],[4.307829,50.540577],[4.307838,50.540661],[4.307875,50.540731],[4.307897,50.540858],[4.307901,50.540908],[4.30791,50.540998],[4.307903,50.541061],[4.307977,50.541465],[4.308009,50.541523],[4.308387,50.541981],[4.308573,50.542189],[4.308936,50.542522],[4.30948,50.543056],[4.309727,50.543318],[4.309886,50.5435],[4.309913,50.543545],[4.309917,50.543866],[4.309875,50.543977],[4.309624,50.544554],[4.309536,50.544772],[4.309361,50.545276],[4.309311,50.545397],[4.30918,50.545777],[4.309004,50.546086],[4.308825,50.546305],[4.308761,50.546374],[4.308725,50.546552],[4.308714,50.546824],[4.308735,50.546978],[4.30878,50.54713],[4.30876,50.547215],[4.308745,50.547251],[4.308777,50.547264],[4.308964,50.54732],[4.309182,50.547436],[4.309206,50.547453],[4.309233,50.547498],[4.309226,50.54752],[4.309152,50.547578],[4.309144,50.547582],[4.309061,50.547606],[4.30903,50.547625],[4.309055,50.547657],[4.309072,50.547672],[4.309105,50.547725],[4.309108,50.547728],[4.309172,50.547747],[4.30922,50.547754],[4.309266,50.547767],[4.309451,50.547849],[4.30956,50.547827],[4.309703,50.547876],[4.309795,50.547896],[4.309913,50.547879],[4.309977,50.547874],[4.310087,50.547868],[4.310117,50.547851],[4.310131,50.547781],[4.310159,50.547748],[4.310281,50.54778],[4.310365,50.547792],[4.310465,50.547794],[4.310559,50.547805],[4.310615,50.547803],[4.310709,50.547791],[4.310793,50.547812],[4.310897,50.547821],[4.310946,50.548034],[4.311035,50.54804],[4.311069,50.548048],[4.311088,50.548045],[4.311129,50.548031],[4.311227,50.548047],[4.311266,50.548051],[4.311324,50.548043],[4.311396,50.548047],[4.311461,50.548057],[4.311489,50.548057],[4.311495,50.548056],[4.311535,50.548057],[4.311574,50.548053],[4.311736,50.548069],[4.311877,50.548077],[4.311921,50.548082],[4.312054,50.548088],[4.312092,50.548093],[4.312123,50.548099],[4.312135,50.548102],[4.312223,50.548115],[4.312254,50.548126],[4.312403,50.54817],[4.312492,50.548178],[4.312607,50.548174],[4.312693,50.548182],[4.312735,50.548189],[4.312785,50.548189],[4.312827,50.548182],[4.312859,50.548186],[4.3129,50.548196],[4.312976,50.548224],[4.313032,50.548237],[4.313122,50.548292],[4.313286,50.548376],[4.313373,50.548413],[4.313435,50.548432],[4.313539,50.548454],[4.31367,50.548465],[4.313742,50.548445],[4.313768,50.548441],[4.313845,50.548456],[4.314077,50.548522],[4.314149,50.548546],[4.314221,50.548562],[4.314403,50.548551],[4.314741,50.548588],[4.314879,50.548596],[4.31506,50.548612],[4.315375,50.548667],[4.315597,50.5487],[4.315838,50.548746],[4.315908,50.548764],[4.316085,50.548841],[4.316335,50.548965],[4.317307,50.549525],[4.317739,50.549774],[4.317815,50.54981],[4.318542,50.550097],[4.319055,50.550319],[4.319495,50.550164],[4.319633,50.549961],[4.319945,50.54974],[4.320276,50.54948],[4.320746,50.549157],[4.320825,50.54915],[4.321498,50.54874],[4.321648,50.548651],[4.32187,50.54852],[4.322522,50.548159],[4.323002,50.547843],[4.323032,50.547857],[4.323411,50.548028],[4.324194,50.548477],[4.324566,50.548682],[4.32548,50.549177],[4.325157,50.549393],[4.325703,50.5496],[4.325937,50.549659],[4.326372,50.549799],[4.326821,50.550011],[4.327123,50.550122],[4.327388,50.550195],[4.327693,50.550238],[4.327895,50.550239],[4.328391,50.550278],[4.329476,50.550375],[4.329666,50.55042],[4.330694,50.550538],[4.331192,50.550949],[4.331215,50.550968],[4.331964,50.551428],[4.331892,50.551718],[4.33189,50.551835],[4.331946,50.552077],[4.331911,50.552193],[4.331773,50.552374],[4.3315,50.552731],[4.331544,50.552868],[4.331682,50.553311],[4.332122,50.553477],[4.332338,50.553775],[4.332342,50.554005],[4.332395,50.554137],[4.332691,50.554651],[4.333101,50.555102],[4.334895,50.555159],[4.33449,50.556164],[4.334476,50.556164],[4.33432,50.556271],[4.334201,50.556427],[4.334009,50.556785],[4.333923,50.556899],[4.333635,50.55703],[4.333449,50.557134],[4.333201,50.557231],[4.332553,50.557511],[4.332541,50.557509],[4.332097,50.55774],[4.331764,50.558089],[4.331681,50.558918],[4.331708,50.558976],[4.331773,50.559019],[4.331827,50.559045],[4.331957,50.559047],[4.332022,50.559073],[4.332236,50.559226],[4.332345,50.559323],[4.332557,50.559554],[4.332774,50.559802],[4.332718,50.559864],[4.332476,50.55982],[4.332129,50.559774],[4.331672,50.559753],[4.33163,50.559781],[4.330864,50.560333],[4.331119,50.560616],[4.331536,50.561057],[4.331502,50.561197],[4.331499,50.561212],[4.331429,50.561613],[4.331376,50.561667],[4.332007,50.562393],[4.332145,50.56257],[4.333348,50.563401],[4.333556,50.563565],[4.333751,50.563808],[4.334295,50.564084],[4.334467,50.564577],[4.33491,50.564868],[4.335299,50.565212],[4.335635,50.565733],[4.3361,50.566274],[4.336154,50.566476],[4.336466,50.566815],[4.33574,50.567508],[4.334382,50.568928],[4.331904,50.56927],[4.331578,50.569312],[4.32876,50.569701],[4.328674,50.569698],[4.326927,50.569404],[4.323618,50.568838],[4.323418,50.568803],[4.321708,50.568513],[4.32115,50.568416],[4.321116,50.567876],[4.319998,50.567727],[4.319382,50.567698],[4.318336,50.567693],[4.318047,50.567685],[4.316646,50.56742],[4.316505,50.567887],[4.316315,50.568209],[4.316131,50.568462],[4.316046,50.568473],[4.314273,50.5677],[4.313998,50.567494],[4.313884,50.567353],[4.313836,50.567195],[4.313749,50.566994],[4.312824,50.566996],[4.312753,50.567008],[4.312718,50.567161],[4.312496,50.567201],[4.312133,50.567148],[4.312087,50.567768],[4.312133,50.568125],[4.312247,50.568758],[4.31224,50.568841],[4.312175,50.568913],[4.311961,50.568977],[4.311146,50.569079],[4.310903,50.568258],[4.310898,50.567553],[4.310869,50.567545],[4.310796,50.567514],[4.310707,50.567494],[4.3106,50.567499],[4.310505,50.567475],[4.310447,50.567449],[4.310379,50.567449],[4.310299,50.567472],[4.310257,50.567471],[4.310212,50.567461],[4.310203,50.567416],[4.310182,50.567402],[4.310118,50.567382],[4.310089,50.567372],[4.309989,50.567374],[4.309918,50.56735],[4.309876,50.567354],[4.309826,50.567373],[4.309785,50.567374],[4.309733,50.567356],[4.309679,50.567314],[4.30961,50.567303],[4.309468,50.567307],[4.30935,50.567302],[4.309207,50.567299],[4.309094,50.5673],[4.308952,50.567276],[4.308828,50.567267],[4.308643,50.567244],[4.308517,50.567218],[4.308378,50.567181],[4.308318,50.567164],[4.308229,50.567139],[4.308106,50.567115],[4.307971,50.567084],[4.307882,50.567059],[4.30783,50.567038],[4.307638,50.566996],[4.307283,50.566934],[4.307188,50.56695],[4.307123,50.566958],[4.307039,50.566978],[4.306808,50.567012],[4.306592,50.567057],[4.306375,50.5671],[4.306322,50.567104],[4.306174,50.567135],[4.30567,50.567237],[4.305443,50.567208],[4.305203,50.567171],[4.305203,50.567198],[4.305185,50.567196],[4.305203,50.567199],[4.305203,50.567303],[4.305209,50.567435],[4.303445,50.567527],[4.303523,50.567827],[4.303614,50.568108],[4.303656,50.568298],[4.303705,50.568373],[4.303728,50.568451],[4.303709,50.568485],[4.30364,50.568492],[4.303579,50.568388],[4.303304,50.568243],[4.303072,50.568133],[4.302825,50.567832],[4.302605,50.567669],[4.30233,50.567625],[4.30234,50.567688],[4.302345,50.567927],[4.302321,50.568259],[4.302261,50.569005],[4.302218,50.569644],[4.302231,50.570068],[4.300924,50.573038],[4.299766,50.573894],[4.299102,50.574122],[4.298083,50.575205],[4.296894,50.57621],[4.298949,50.577026],[4.298583,50.577279],[4.297806,50.577826],[4.297147,50.578298],[4.296478,50.578779],[4.296544,50.579052],[4.296004,50.578929],[4.29578,50.578878],[4.294755,50.579432],[4.294719,50.579628],[4.294184,50.580073],[4.292521,50.581451],[4.29161,50.582162],[4.290892,50.58276],[4.290267,50.583067],[4.289873,50.583288],[4.289631,50.58347],[4.28949,50.583409],[4.289408,50.583411],[4.289366,50.583452],[4.28919,50.583675],[4.28917,50.583704],[4.289127,50.583748],[4.289096,50.583778],[4.289087,50.583802],[4.289044,50.583827],[4.288998,50.583868],[4.288939,50.58391],[4.288884,50.583951],[4.288833,50.583989],[4.288734,50.584107],[4.28868,50.584103],[4.288646,50.584069],[4.288593,50.584078],[4.288593,50.584077],[4.288516,50.584122],[4.288468,50.584144],[4.288346,50.58418],[4.288225,50.584217],[4.288037,50.584282],[4.287915,50.584317],[4.287692,50.584373],[4.287496,50.584436],[4.287285,50.584508],[4.287115,50.584575],[4.286956,50.584625],[4.286733,50.584701],[4.286581,50.584745],[4.286474,50.584781],[4.28645,50.584787],[4.285954,50.584926],[4.285888,50.584945],[4.285878,50.585025],[4.285858,50.585059],[4.28584,50.585096],[4.285799,50.585128],[4.28579,50.585211],[4.28577,50.585252],[4.285773,50.585281],[4.285747,50.585318],[4.285734,50.585331],[4.285723,50.585357],[4.285719,50.585453],[4.285636,50.585497],[4.285532,50.585505],[4.285501,50.58549],[4.285472,50.585492],[4.285428,50.585476],[4.285419,50.585468],[4.285407,50.58544],[4.285387,50.58543],[4.285343,50.585424],[4.285311,50.585398],[4.285297,50.585396],[4.285254,50.585407],[4.285211,50.585426],[4.285143,50.585434],[4.285032,50.585498],[4.285006,50.58552],[4.284932,50.585554],[4.284913,50.585585],[4.284876,50.585609],[4.284836,50.585654],[4.284786,50.585682],[4.284752,50.585726],[4.284716,50.585754],[4.284685,50.585795],[4.284621,50.585858],[4.284601,50.58589],[4.284575,50.585907],[4.284553,50.585944],[4.284488,50.585979],[4.284448,50.586046],[4.28443,50.586073],[4.284359,50.586112],[4.284342,50.58613],[4.284296,50.586154],[4.284278,50.586176],[4.284223,50.586208],[4.284139,50.586298],[4.2841,50.586326],[4.284085,50.586346],[4.284095,50.586363],[4.284139,50.586401],[4.284146,50.586481],[4.284184,50.586513],[4.284197,50.586538],[4.284196,50.586582],[4.284213,50.586644],[4.284233,50.586669],[4.284244,50.586733],[4.284273,50.586758],[4.284297,50.58682],[4.284317,50.586848],[4.284313,50.586904],[4.284335,50.586929],[4.284333,50.586975],[4.284344,50.587006],[4.284384,50.587065],[4.284391,50.587153],[4.284409,50.587174],[4.284414,50.587193],[4.284443,50.587233],[4.284442,50.587293],[4.284466,50.58737],[4.284496,50.587433],[4.284487,50.587456],[4.284504,50.58747],[4.284522,50.587547],[4.284551,50.587596],[4.284581,50.587679],[4.28454,50.587735],[4.284493,50.587815],[4.284511,50.587855],[4.284507,50.587872],[4.284422,50.587958],[4.284299,50.588004],[4.284273,50.588016],[4.284262,50.588029],[4.284209,50.588092],[4.284194,50.588107],[4.284167,50.588128],[4.284148,50.588169],[4.284048,50.588217],[4.283939,50.588236],[4.283864,50.588233],[4.283814,50.588238],[4.283722,50.588268],[4.283635,50.588269],[4.283516,50.588314],[4.283486,50.588372],[4.283475,50.588393],[4.28326,50.588373],[4.283213,50.588425],[4.283344,50.588469],[4.28336,50.588485],[4.283355,50.588505],[4.283341,50.588524],[4.283257,50.58855],[4.283225,50.58858],[4.2832,50.588605],[4.283168,50.588606],[4.283122,50.588614],[4.28311,50.588636],[4.283148,50.588694],[4.283174,50.588721],[4.283191,50.588736],[4.283199,50.588749],[4.283197,50.588758],[4.28319,50.588778],[4.283122,50.588784],[4.283093,50.588791],[4.28303,50.588821],[4.283022,50.588849],[4.283016,50.588969],[4.282985,50.589021],[4.282981,50.589036],[4.282978,50.589125],[4.282938,50.589178],[4.282929,50.589204],[4.282924,50.589241],[4.282896,50.589296],[4.282881,50.589373],[4.2829,50.589509],[4.282934,50.589569],[4.282922,50.589586],[4.282892,50.589627],[4.282811,50.589634],[4.282761,50.589666],[4.282696,50.589755],[4.282693,50.589802],[4.282629,50.589846],[4.282606,50.589868],[4.282577,50.589907],[4.282543,50.589949],[4.282517,50.589996],[4.282505,50.590007],[4.282472,50.590022],[4.282436,50.590034],[4.282402,50.590023],[4.282374,50.590017],[4.282393,50.590046],[4.282371,50.590057],[4.282299,50.590078],[4.282253,50.59009],[4.282211,50.590073],[4.282147,50.590062],[4.282109,50.590071],[4.282061,50.590096],[4.281979,50.590141],[4.281845,50.590231],[4.281795,50.590313],[4.281808,50.590381],[4.28181,50.590399],[4.281803,50.590415],[4.281809,50.59044],[4.281801,50.590458],[4.281769,50.590471],[4.281675,50.59046],[4.281654,50.59046],[4.28164,50.590468],[4.281633,50.590487],[4.28164,50.590535],[4.281631,50.59055],[4.281599,50.590567],[4.281555,50.59058],[4.28152,50.590583],[4.281459,50.590579],[4.281363,50.59056],[4.281317,50.590562],[4.281298,50.590574],[4.281298,50.590585],[4.28132,50.590611],[4.281321,50.590618],[4.281308,50.590628],[4.281246,50.590627],[4.281187,50.59062],[4.281151,50.590618],[4.28109,50.590624],[4.281039,50.590639],[4.281028,50.590654],[4.281028,50.590662],[4.281036,50.590671],[4.281106,50.590682],[4.281123,50.590691],[4.28113,50.590699],[4.281126,50.590711],[4.281092,50.590728],[4.280985,50.590756],[4.280974,50.590765],[4.280969,50.590776],[4.280969,50.590794],[4.280958,50.590807],[4.280942,50.59084],[4.280926,50.590858],[4.28089,50.590877],[4.280849,50.590883],[4.280825,50.590887],[4.280793,50.590896],[4.280793,50.590909],[4.2809,50.590968],[4.280912,50.590986],[4.280921,50.591015],[4.280922,50.591048],[4.280907,50.591086],[4.280824,50.59114],[4.280784,50.591175],[4.280761,50.59121],[4.280768,50.591233],[4.280813,50.591274],[4.280817,50.591285],[4.280802,50.5913],[4.280778,50.591297],[4.280722,50.591267],[4.280709,50.591265],[4.280703,50.591275],[4.280704,50.591294],[4.280712,50.591308],[4.280707,50.59132],[4.280673,50.591328],[4.280665,50.591336],[4.280665,50.591344],[4.280669,50.591355],[4.280655,50.591364],[4.280629,50.591369],[4.280598,50.591376],[4.280585,50.591385],[4.280582,50.591399],[4.280607,50.591433],[4.280607,50.591449],[4.280598,50.591463],[4.280556,50.591506],[4.280542,50.591529],[4.280533,50.591554],[4.280543,50.591577],[4.280551,50.591603],[4.280541,50.591614],[4.280506,50.591615],[4.280434,50.591609],[4.280381,50.591605],[4.280351,50.591609],[4.280331,50.591622],[4.280337,50.59165],[4.280336,50.591667],[4.28032,50.591688],[4.280328,50.591703],[4.280338,50.59171],[4.28039,50.591727],[4.280409,50.591741],[4.280415,50.591758],[4.280416,50.591771],[4.280403,50.591787],[4.280367,50.591809],[4.280308,50.591827],[4.280268,50.591836],[4.280227,50.591854],[4.280165,50.591909],[4.280135,50.591926],[4.280092,50.591926],[4.280053,50.591922],[4.280028,50.59191],[4.279998,50.591894],[4.279973,50.591869],[4.279975,50.591858],[4.279984,50.591843],[4.279997,50.591844],[4.280061,50.591856],[4.280083,50.59185],[4.280081,50.591837],[4.280038,50.591785],[4.279981,50.591733],[4.279964,50.591724],[4.279931,50.591719],[4.279908,50.591722],[4.27989,50.59174],[4.279895,50.591765],[4.279899,50.591784],[4.279881,50.591794],[4.279863,50.591794],[4.27985,50.591791],[4.279815,50.591773],[4.279744,50.591756],[4.279728,50.591734],[4.279731,50.591717],[4.27974,50.591696],[4.279735,50.591679],[4.279713,50.591669],[4.279684,50.591664],[4.279614,50.591672],[4.279534,50.591658],[4.279515,50.591661],[4.279499,50.591674],[4.279503,50.591695],[4.279514,50.591709],[4.27951,50.591722],[4.279486,50.591729],[4.279463,50.591727],[4.279436,50.59173],[4.279424,50.59174],[4.279416,50.59176],[4.279419,50.591791],[4.279414,50.591812],[4.279401,50.591831],[4.279381,50.591842],[4.279366,50.591843],[4.279345,50.59184],[4.279321,50.591823],[4.27931,50.591804],[4.279296,50.591789],[4.279278,50.591788],[4.279215,50.591796],[4.279067,50.591844],[4.279035,50.591844],[4.278964,50.591844],[4.278862,50.591832],[4.278838,50.59182],[4.278828,50.591807],[4.278837,50.591793],[4.278861,50.591789],[4.278905,50.591789],[4.278939,50.591783],[4.278955,50.591773],[4.278959,50.591762],[4.278946,50.591747],[4.278906,50.591732],[4.278847,50.591729],[4.278791,50.591713],[4.278751,50.591704],[4.27864,50.591703],[4.278628,50.591709],[4.278622,50.591722],[4.278628,50.59173],[4.278647,50.591742],[4.278665,50.591761],[4.278659,50.591774],[4.278635,50.59178],[4.278598,50.591781],[4.278528,50.59176],[4.27849,50.591755],[4.278474,50.591763],[4.278473,50.59177],[4.27849,50.591789],[4.278513,50.591804],[4.278533,50.591828],[4.278522,50.591847],[4.278489,50.591862],[4.278458,50.591875],[4.278415,50.591912],[4.278385,50.59193],[4.278352,50.591932],[4.278322,50.591922],[4.278283,50.591886],[4.278237,50.591855],[4.27819,50.591837],[4.278053,50.591805],[4.278034,50.591804],[4.27802,50.591809],[4.278015,50.591819],[4.27805,50.59185],[4.278055,50.591857],[4.278052,50.591869],[4.278026,50.59187],[4.277912,50.591849],[4.277806,50.591854],[4.277737,50.59184],[4.277696,50.591822],[4.277678,50.591804],[4.277667,50.591778],[4.27765,50.591747],[4.277623,50.591737],[4.277602,50.591735],[4.277583,50.591741],[4.277469,50.591807],[4.277378,50.591846],[4.277319,50.591865],[4.277228,50.591877],[4.277162,50.591859],[4.277115,50.591833],[4.277093,50.59179],[4.277077,50.591738],[4.277061,50.591729],[4.277045,50.591732],[4.277005,50.591746],[4.276974,50.591764],[4.276868,50.591774],[4.276829,50.591765],[4.276785,50.591738],[4.276733,50.591716],[4.2767,50.591718],[4.276655,50.591745],[4.276617,50.591788],[4.276579,50.591817],[4.27646,50.591844],[4.276434,50.591854],[4.276431,50.591869],[4.27646,50.591893],[4.276491,50.591927],[4.276473,50.591948],[4.276443,50.59196],[4.276382,50.591964],[4.276322,50.591961],[4.276292,50.591964],[4.276278,50.591973],[4.276269,50.591995],[4.2763,50.592051],[4.276289,50.592065],[4.276263,50.592073],[4.276086,50.59207],[4.276056,50.592079],[4.27604,50.592102],[4.276036,50.592169],[4.27599,50.592206],[4.275913,50.592207],[4.275832,50.592181],[4.27577,50.592165],[4.275726,50.592162],[4.275673,50.592172],[4.275629,50.592191],[4.275597,50.592202],[4.275503,50.592184],[4.275395,50.592164],[4.275354,50.592179],[4.27534,50.592193],[4.275329,50.592212],[4.275337,50.592254],[4.275332,50.592319],[4.275364,50.5924],[4.27537,50.592444],[4.27535,50.592482],[4.275306,50.59255],[4.275326,50.592613],[4.275322,50.592638],[4.275303,50.592648],[4.275276,50.592649],[4.275243,50.592642],[4.27517,50.592614],[4.27513,50.592609],[4.275078,50.592617],[4.275038,50.592647],[4.274996,50.592698],[4.274989,50.592732],[4.275015,50.592764],[4.275023,50.592787],[4.275018,50.592816],[4.275026,50.592864],[4.275023,50.592898],[4.274999,50.592932],[4.274958,50.592936],[4.274925,50.592929],[4.274903,50.592916],[4.274879,50.5929],[4.274868,50.592875],[4.274856,50.592844],[4.274836,50.59283],[4.274815,50.592838],[4.274779,50.592895],[4.274731,50.592953],[4.274731,50.592963],[4.274751,50.593017],[4.274736,50.593058],[4.274699,50.593107],[4.274685,50.593139],[4.274684,50.593184],[4.27473,50.593217],[4.274789,50.593235],[4.274821,50.593247],[4.274833,50.593263],[4.274852,50.59332],[4.274854,50.593333],[4.274844,50.593352],[4.27482,50.593361],[4.274726,50.593358],[4.274684,50.593358],[4.274638,50.593361],[4.274625,50.593367],[4.274617,50.593375],[4.27465,50.593487],[4.274645,50.593505],[4.274632,50.593521],[4.274564,50.593579],[4.274547,50.593603],[4.274542,50.593616],[4.274591,50.593657],[4.274601,50.593674],[4.274591,50.593686],[4.274551,50.593704],[4.274548,50.593718],[4.274619,50.593754],[4.274626,50.59377],[4.274625,50.593788],[4.274607,50.593856],[4.274611,50.593876],[4.274637,50.593902],[4.27465,50.593927],[4.274637,50.593952],[4.274611,50.593961],[4.274579,50.593958],[4.274552,50.59395],[4.274496,50.593926],[4.274477,50.593931],[4.274466,50.593954],[4.274458,50.594007],[4.274445,50.594045],[4.274416,50.594061],[4.274383,50.594074],[4.274299,50.594096],[4.274286,50.594113],[4.274269,50.594147],[4.27426,50.594186],[4.274255,50.594231],[4.27425,50.594253],[4.274169,50.59432],[4.274143,50.594362],[4.274124,50.59446],[4.2741,50.594503],[4.274052,50.594553],[4.274039,50.594569],[4.274034,50.594603],[4.274062,50.594634],[4.274111,50.594661],[4.274137,50.594715],[4.274177,50.594762],[4.274163,50.59481],[4.274177,50.594829],[4.274202,50.594842],[4.274237,50.594853],[4.274276,50.594878],[4.274286,50.594913],[4.274288,50.594946],[4.274301,50.594964],[4.274346,50.594979],[4.274387,50.594986],[4.274399,50.594999],[4.274401,50.595022],[4.274363,50.59508],[4.274358,50.595109],[4.274422,50.595161],[4.274434,50.595252],[4.274439,50.595271],[4.27446,50.595315],[4.274493,50.595341],[4.274538,50.595355],[4.274643,50.595379],[4.274678,50.5954],[4.274714,50.595431],[4.27471,50.595455],[4.274685,50.595511],[4.274701,50.595533],[4.274721,50.595542],[4.274835,50.595562],[4.274898,50.59559],[4.274931,50.595615],[4.274942,50.595633],[4.274954,50.595653],[4.274955,50.595673],[4.274941,50.595765],[4.274962,50.595811],[4.275034,50.595862],[4.274965,50.595875],[4.274871,50.595887],[4.274622,50.595906],[4.274487,50.595948],[4.274378,50.595973],[4.274284,50.59599],[4.274214,50.595991],[4.274112,50.595965],[4.274058,50.595958],[4.274017,50.595961],[4.273994,50.595975],[4.273972,50.595992],[4.273927,50.596032],[4.273888,50.596047],[4.273852,50.596051],[4.273813,50.596045],[4.273767,50.596023],[4.273726,50.595993],[4.273673,50.595924],[4.273626,50.59589],[4.273541,50.595868],[4.27346,50.595883],[4.273338,50.595929],[4.273275,50.595935],[4.27323,50.595925],[4.273162,50.595895],[4.27305,50.595814],[4.272975,50.595776],[4.272898,50.595749],[4.272671,50.595727],[4.272563,50.595701],[4.272521,50.595688],[4.27245,50.595642],[4.272296,50.59547],[4.272266,50.595438],[4.272222,50.595366],[4.272199,50.595319],[4.272162,50.595287],[4.272105,50.595267],[4.272062,50.595269],[4.271983,50.595294],[4.271893,50.595345],[4.271844,50.595365],[4.271813,50.595366],[4.271773,50.59535],[4.27174,50.595323],[4.271584,50.595132],[4.271551,50.595071],[4.271545,50.595038],[4.271547,50.594986],[4.271579,50.594943],[4.271707,50.594898],[4.271742,50.594885],[4.271766,50.59486],[4.27175,50.594822],[4.271696,50.594785],[4.271549,50.594724],[4.271528,50.594705],[4.271513,50.594658],[4.271513,50.594625],[4.271531,50.594572],[4.271566,50.594535],[4.271577,50.594528],[4.271749,50.594457],[4.271806,50.594427],[4.271829,50.594392],[4.271841,50.594346],[4.271828,50.594296],[4.271786,50.594249],[4.271726,50.594215],[4.271684,50.594198],[4.271634,50.594184],[4.271438,50.594141],[4.271268,50.594126],[4.271154,50.594169],[4.271077,50.594161],[4.270874,50.594078],[4.270717,50.594033],[4.270607,50.594015],[4.270345,50.594021],[4.270289,50.594021],[4.270087,50.593975],[4.270026,50.59397],[4.26998,50.59398],[4.269872,50.594005],[4.269753,50.594046],[4.2697,50.594055],[4.269668,50.594052],[4.269638,50.594041],[4.269608,50.59402],[4.269592,50.593988],[4.269562,50.593821],[4.26953,50.593777],[4.269491,50.593753],[4.26943,50.593744],[4.269371,50.593745],[4.269324,50.593754],[4.269236,50.593774],[4.269044,50.593854],[4.268727,50.593975],[4.268632,50.594005],[4.268415,50.594074],[4.26838,50.59408],[4.268313,50.594088],[4.268286,50.594079],[4.268148,50.59402],[4.268035,50.59398],[4.267944,50.593956],[4.267915,50.593941],[4.267702,50.593806],[4.267445,50.593708],[4.267304,50.593639],[4.267215,50.593614],[4.26702,50.59371],[4.266868,50.593765],[4.266735,50.593791],[4.266531,50.593809],[4.2664,50.593818],[4.266238,50.593813],[4.266169,50.593844],[4.26618,50.593874],[4.266256,50.593941],[4.266296,50.594013],[4.266275,50.594052],[4.266206,50.594079],[4.266113,50.594086],[4.265949,50.594081],[4.265797,50.594041],[4.265703,50.593999],[4.26564,50.593956],[4.265559,50.593893],[4.265492,50.593839],[4.265442,50.59377],[4.265379,50.593694],[4.265232,50.593525],[4.26516,50.59341],[4.265066,50.59334],[4.264995,50.593304],[4.264945,50.593289],[4.264817,50.593324],[4.264733,50.59336],[4.26462,50.593398],[4.264365,50.59346],[4.264155,50.593503],[4.263951,50.593545],[4.263826,50.593576],[4.263472,50.593661],[4.263295,50.593689],[4.263172,50.593663],[4.263012,50.593519],[4.262958,50.593459],[4.262818,50.593323],[4.262728,50.593219],[4.262673,50.593082],[4.262598,50.592966],[4.262561,50.592945],[4.262509,50.59294],[4.262418,50.592944],[4.26228,50.592972],[4.262147,50.592988],[4.262025,50.592982],[4.261516,50.592875],[4.261165,50.59283],[4.261058,50.592817],[4.260906,50.592835],[4.260842,50.592854],[4.260584,50.592913],[4.26048,50.592969],[4.260476,50.59299],[4.260486,50.593089],[4.26049,50.593122],[4.260483,50.593148],[4.260447,50.593192],[4.260397,50.593243],[4.260365,50.593264],[4.260317,50.593277],[4.26021,50.593272],[4.260094,50.593239],[4.260013,50.593192],[4.259944,50.593138],[4.259848,50.593068],[4.259741,50.593055],[4.259719,50.593077],[4.259697,50.59312],[4.259686,50.593284],[4.259651,50.593331],[4.25954,50.593371],[4.259356,50.5934],[4.259176,50.593398],[4.259035,50.593375],[4.25899,50.593373],[4.258933,50.593392],[4.258889,50.59343],[4.258763,50.593617],[4.2586,50.593723],[4.258453,50.59381],[4.258352,50.593851],[4.258268,50.593855],[4.258082,50.593813],[4.257747,50.593682],[4.257406,50.593584],[4.25727,50.593533],[4.256777,50.593308],[4.256687,50.593306],[4.256407,50.59333],[4.256215,50.593345],[4.255497,50.593389],[4.255192,50.59341],[4.254834,50.593432],[4.254144,50.593524],[4.253936,50.593554],[4.253597,50.593549],[4.253526,50.593573],[4.253463,50.593672],[4.253438,50.593773],[4.253369,50.593806],[4.253158,50.593815],[4.252829,50.593876],[4.252191,50.594234],[4.251979,50.594311],[4.251867,50.59433],[4.251588,50.594333],[4.251448,50.594416],[4.251419,50.594608],[4.251365,50.594665],[4.251288,50.594689],[4.251218,50.594692],[4.251069,50.594673],[4.250962,50.594677],[4.250871,50.59473],[4.250774,50.594989],[4.250817,50.595126],[4.250779,50.595217],[4.250692,50.595254],[4.250468,50.595257],[4.250353,50.595275],[4.250276,50.595335],[4.250233,50.595402],[4.250233,50.595457],[4.250328,50.595649],[4.250404,50.595807],[4.250456,50.595981],[4.250456,50.596197],[4.250245,50.596443],[4.249756,50.596674],[4.249278,50.596737],[4.248537,50.596813],[4.247939,50.59684],[4.247193,50.596757],[4.247089,50.596586],[4.247087,50.596369],[4.247066,50.596299],[4.247109,50.59619],[4.247083,50.596101],[4.246974,50.595996],[4.246534,50.595815],[4.246143,50.595825],[4.245882,50.595845],[4.245767,50.595848],[4.245339,50.595915],[4.244866,50.595959],[4.244773,50.595886],[4.244771,50.595612],[4.244396,50.595412],[4.244312,50.5954],[4.244102,50.595405],[4.243694,50.595464],[4.243536,50.59546],[4.24341,50.595436],[4.24276,50.595125],[4.242637,50.595119],[4.242431,50.595192],[4.242303,50.595299],[4.24206,50.595701],[4.241862,50.595854],[4.241844,50.596067],[4.242096,50.596124],[4.242255,50.596206],[4.242478,50.596279],[4.242411,50.596359],[4.242234,50.596288],[4.242154,50.596223],[4.241953,50.59614],[4.241646,50.59607],[4.24139,50.596294],[4.241164,50.59669],[4.240906,50.597091],[4.240782,50.597463],[4.240645,50.597796],[4.240687,50.598134],[4.240781,50.598371],[4.240918,50.598619],[4.241256,50.599103],[4.241429,50.599409],[4.241293,50.599566],[4.241045,50.59984],[4.240818,50.599972],[4.241027,50.600298],[4.241034,50.600353],[4.241061,50.600418],[4.241077,50.600481],[4.241079,50.600516],[4.241055,50.600596],[4.241008,50.600711],[4.24098,50.600779],[4.240942,50.600885],[4.240969,50.600944],[4.241023,50.600952],[4.241288,50.600977],[4.241459,50.601001],[4.241501,50.601036],[4.241501,50.601132],[4.241444,50.60128],[4.241401,50.601329],[4.241233,50.601459]]]]}}
