{"type":"Feature","properties":{"mrgid":2914,"name":"Antoing","placeType":"Commune","source":"Belgium:belgium_municipalities"},"geometry":{"type":"Polygon","coordinates":[[[3.463828,50.586008],[3.463812,50.586026],[3.463529,50.586285],[3.46328,50.586484],[3.463235,50.586518],[3.462901,50.586755],[3.462396,50.587101],[3.462278,50.587161],[3.461962,50.587333],[3.4619,50.587365],[3.46158,50.587519],[3.460831,50.58722],[3.460406,50.587045],[3.460229,50.586936],[3.460207,50.586923],[3.460001,50.586811],[3.459938,50.586775],[3.459595,50.586563],[3.459414,50.586457],[3.45922,50.58638],[3.459168,50.58636],[3.458921,50.586268],[3.458668,50.586173],[3.458642,50.586164],[3.458506,50.586124],[3.45836,50.586066],[3.45831,50.586048],[3.458128,50.585987],[3.458057,50.585803],[3.458039,50.585738],[3.458031,50.585709],[3.458002,50.585616],[3.457995,50.585583],[3.457985,50.585492],[3.457837,50.585454],[3.457813,50.585447],[3.4578,50.585448],[3.457616,50.585388],[3.457538,50.585418],[3.457521,50.585414],[3.457477,50.585369],[3.457413,50.585326],[3.457413,50.585325],[3.457383,50.585342],[3.457372,50.585341],[3.457298,50.585284],[3.457196,50.585253],[3.457107,50.585212],[3.457087,50.58519],[3.457034,50.585166],[3.456984,50.585136],[3.456847,50.585059],[3.45666,50.584937],[3.456567,50.584915],[3.45653,50.584904],[3.456517,50.584895],[3.45645,50.584823],[3.456441,50.584809],[3.456424,50.584794],[3.456343,50.584772],[3.456283,50.584765],[3.456073,50.584664],[3.456019,50.584628],[3.455978,50.584608],[3.455923,50.584592],[3.455878,50.584553],[3.455851,50.584541],[3.45579,50.584536],[3.455687,50.584508],[3.455666,50.584486],[3.455662,50.584484],[3.455611,50.584466],[3.455586,50.58446],[3.455338,50.584402],[3.455289,50.584375],[3.455176,50.584371],[3.454929,50.584314],[3.454863,50.584268],[3.454711,50.584224],[3.45463,50.584212],[3.454593,50.584209],[3.454539,50.584213],[3.454483,50.584225],[3.454391,50.584225],[3.454329,50.584201],[3.45425,50.584201],[3.454191,50.584207],[3.453869,50.584193],[3.45378,50.584196],[3.45372,50.584193],[3.453664,50.5842],[3.453602,50.584224],[3.453558,50.584227],[3.453463,50.584264],[3.453107,50.584249],[3.453085,50.584237],[3.453079,50.584233],[3.453029,50.584233],[3.452977,50.584208],[3.452966,50.584209],[3.452928,50.584211],[3.452772,50.584131],[3.452722,50.58408],[3.45272,50.584071],[3.452692,50.584053],[3.452654,50.584023],[3.452619,50.58399],[3.452614,50.583915],[3.452552,50.583908],[3.452501,50.583849],[3.452488,50.583838],[3.452383,50.583764],[3.452157,50.583642],[3.452133,50.583632],[3.452096,50.583621],[3.452064,50.583615],[3.452045,50.583613],[3.451903,50.583614],[3.451886,50.583612],[3.451736,50.583592],[3.451709,50.583556],[3.451635,50.583493],[3.451549,50.583434],[3.451521,50.583406],[3.451508,50.583407],[3.451468,50.583384],[3.451375,50.583305],[3.451349,50.583286],[3.451283,50.583243],[3.451188,50.583183],[3.450907,50.583107],[3.450886,50.583103],[3.450804,50.583093],[3.450728,50.583086],[3.450684,50.583083],[3.450513,50.583077],[3.450316,50.583056],[3.449939,50.583047],[3.449921,50.583047],[3.44981,50.583053],[3.449723,50.583059],[3.449622,50.583071],[3.449397,50.583127],[3.449383,50.583131],[3.449262,50.583173],[3.449204,50.58319],[3.449193,50.583191],[3.448993,50.583189],[3.448841,50.583188],[3.448743,50.583179],[3.448721,50.583174],[3.448713,50.583178],[3.448554,50.583181],[3.448341,50.583052],[3.448256,50.582997],[3.448207,50.582968],[3.447691,50.582722],[3.447517,50.58265],[3.44745,50.582617],[3.447398,50.582604],[3.446406,50.582354],[3.445603,50.582151],[3.445565,50.58212],[3.445561,50.582114],[3.445479,50.581837],[3.445521,50.581771],[3.445476,50.581759],[3.445213,50.581694],[3.445084,50.581662],[3.444957,50.581557],[3.444719,50.581372],[3.44471,50.581365],[3.444531,50.581248],[3.443789,50.581212],[3.443054,50.58117],[3.443024,50.581167],[3.442678,50.581127],[3.442514,50.581041],[3.442382,50.580971],[3.441488,50.58073],[3.441471,50.580729],[3.441259,50.58074],[3.441273,50.580923],[3.441274,50.580954],[3.441273,50.581083],[3.441271,50.581129],[3.441267,50.581182],[3.441254,50.581297],[3.441232,50.581376],[3.441223,50.581399],[3.441179,50.581482],[3.441148,50.581534],[3.441124,50.581567],[3.44106,50.581646],[3.441046,50.581663],[3.440964,50.581746],[3.440878,50.581827],[3.440839,50.58186],[3.440737,50.58194],[3.4407,50.581966],[3.44065,50.581996],[3.440545,50.582056],[3.440498,50.58208],[3.440442,50.582104],[3.440335,50.582149],[3.440306,50.582159],[3.440141,50.582214],[3.440069,50.582236],[3.440024,50.582249],[3.439406,50.582405],[3.43926,50.58244],[3.438709,50.582566],[3.438702,50.582567],[3.438348,50.582658],[3.438334,50.582662],[3.438087,50.582744],[3.43795,50.582792],[3.437677,50.582895],[3.437529,50.582955],[3.437486,50.582974],[3.437221,50.583089],[3.43703,50.583176],[3.437024,50.583179],[3.437023,50.583178],[3.434864,50.583986],[3.43466,50.584103],[3.43263,50.58527],[3.430557,50.586387],[3.430179,50.586077],[3.430019,50.585769],[3.429853,50.585584],[3.429524,50.585348],[3.429333,50.58523],[3.429266,50.585183],[3.42928,50.585093],[3.429294,50.584997],[3.428915,50.584713],[3.428608,50.58446],[3.427624,50.583641],[3.426712,50.582807],[3.426529,50.582685],[3.42541,50.581822],[3.424478,50.581074],[3.424024,50.580792],[3.423845,50.580786],[3.423843,50.580749],[3.42374,50.580647],[3.423737,50.580643],[3.423604,50.580451],[3.423598,50.580438],[3.423519,50.580374],[3.423427,50.580299],[3.423425,50.580296],[3.423305,50.58018],[3.423292,50.580169],[3.423213,50.580115],[3.423102,50.579989],[3.422994,50.57987],[3.422609,50.57945],[3.422527,50.579471],[3.422508,50.579468],[3.42238,50.579291],[3.422378,50.579289],[3.422291,50.579232],[3.422198,50.579144],[3.421965,50.578995],[3.421918,50.578901],[3.421821,50.578656],[3.421782,50.578581],[3.421681,50.578438],[3.4217,50.578434],[3.422023,50.578306],[3.422394,50.578586],[3.423424,50.578216],[3.423277,50.578075],[3.423017,50.57783],[3.42283,50.577583],[3.422732,50.577454],[3.422725,50.577446],[3.422181,50.576946],[3.422164,50.576931],[3.421753,50.576577],[3.421089,50.576015],[3.421001,50.575946],[3.420953,50.575904],[3.421743,50.575391],[3.42058,50.574671],[3.42091,50.574008],[3.421408,50.573024],[3.421581,50.572664],[3.422143,50.572139],[3.42204,50.57208],[3.423159,50.571263],[3.423669,50.570893],[3.42265,50.570379],[3.423001,50.570062],[3.423121,50.569952],[3.420738,50.569037],[3.419946,50.569399],[3.419493,50.569598],[3.419051,50.56984],[3.418722,50.570048],[3.418569,50.570134],[3.418403,50.570218],[3.417926,50.570432],[3.417683,50.570553],[3.417597,50.570496],[3.416647,50.570156],[3.416382,50.570045],[3.415987,50.5698],[3.415756,50.569641],[3.415604,50.569565],[3.415482,50.569518],[3.415221,50.569463],[3.415145,50.569505],[3.414466,50.569288],[3.411997,50.568427],[3.410079,50.567861],[3.409526,50.567433],[3.409704,50.567045],[3.408332,50.566627],[3.409112,50.564243],[3.407922,50.564191],[3.408176,50.563522],[3.409599,50.563766],[3.410566,50.564047],[3.411438,50.56435],[3.412408,50.563134],[3.412773,50.562706],[3.413699,50.561676],[3.413798,50.561594],[3.415072,50.560653],[3.416327,50.559593],[3.416576,50.559689],[3.417277,50.559107],[3.416672,50.558894],[3.417789,50.556182],[3.41865,50.55637],[3.418756,50.556341],[3.418879,50.556234],[3.41894,50.556178],[3.418995,50.556116],[3.419127,50.555945],[3.419197,50.555848],[3.419267,50.555739],[3.419398,50.555551],[3.41962,50.555235],[3.419977,50.554731],[3.420044,50.554592],[3.420085,50.55441],[3.420094,50.554237],[3.420269,50.553721],[3.42047,50.553426],[3.420978,50.552997],[3.421063,50.552897],[3.421131,50.552837],[3.421528,50.55248],[3.421893,50.552149],[3.422056,50.55201],[3.422066,50.552001],[3.42232,50.551767],[3.422441,50.551648],[3.422707,50.551428],[3.422724,50.551415],[3.422809,50.551347],[3.423045,50.551149],[3.423079,50.551121],[3.423358,50.550883],[3.423433,50.550818],[3.425734,50.548813],[3.42576,50.54879],[3.425859,50.548709],[3.425931,50.548657],[3.425944,50.548649],[3.426339,50.548443],[3.427448,50.547862],[3.427621,50.547771],[3.42776,50.547673],[3.427825,50.547659],[3.427867,50.547667],[3.427955,50.54769],[3.428122,50.547735],[3.428245,50.547778],[3.428372,50.547845],[3.428464,50.547883],[3.428619,50.547863],[3.429132,50.547922],[3.429742,50.547944],[3.429958,50.547952],[3.430106,50.547927],[3.430419,50.547886],[3.432837,50.547529],[3.435713,50.547107],[3.436118,50.547098],[3.437119,50.547227],[3.437375,50.545815],[3.437334,50.545161],[3.436695,50.544502],[3.436247,50.54387],[3.436101,50.543416],[3.436573,50.543015],[3.437185,50.542232],[3.438336,50.541749],[3.438736,50.541656],[3.438715,50.541422],[3.438516,50.541179],[3.438218,50.541074],[3.436723,50.540685],[3.436815,50.54056],[3.437013,50.54026],[3.436982,50.540028],[3.436895,50.539854],[3.43667,50.539546],[3.436578,50.539307],[3.43654,50.539067],[3.436542,50.538905],[3.436582,50.538549],[3.436674,50.538301],[3.43674,50.538234],[3.436892,50.538186],[3.436946,50.538179],[3.437189,50.53815],[3.437343,50.538106],[3.437477,50.538067],[3.437655,50.538043],[3.437698,50.538038],[3.438631,50.537885],[3.438632,50.537856],[3.438841,50.537293],[3.438883,50.537156],[3.438906,50.537107],[3.439186,50.536493],[3.439352,50.536034],[3.439392,50.535922],[3.43951,50.535593],[3.439618,50.535288],[3.439652,50.535201],[3.439693,50.535094],[3.439711,50.535047],[3.439745,50.5348],[3.439795,50.534437],[3.440829,50.53411],[3.440873,50.534094],[3.441117,50.534086],[3.441924,50.533007],[3.442328,50.532856],[3.443436,50.532529],[3.44422,50.532272],[3.445186,50.533228],[3.445296,50.533303],[3.446066,50.533345],[3.446147,50.533381],[3.446945,50.53358],[3.447107,50.533636],[3.447247,50.533707],[3.447395,50.533794],[3.447871,50.534136],[3.448181,50.534381],[3.448288,50.534438],[3.44873,50.534547],[3.448951,50.534589],[3.450175,50.534792],[3.450308,50.534807],[3.45083,50.53484],[3.450885,50.534842],[3.451306,50.534833],[3.451297,50.534842],[3.451028,50.535734],[3.45038,50.535882],[3.450283,50.535873],[3.449022,50.535742],[3.448428,50.536122],[3.448303,50.536202],[3.448018,50.536385],[3.447747,50.536301],[3.447644,50.536502],[3.447631,50.536526],[3.447536,50.536739],[3.447495,50.536828],[3.447418,50.537001],[3.447302,50.53726],[3.447353,50.537271],[3.44874,50.537571],[3.448804,50.537597],[3.449087,50.537801],[3.449859,50.538358],[3.449207,50.538629],[3.449104,50.538673],[3.449065,50.538694],[3.448861,50.538827],[3.448582,50.539014],[3.448664,50.539138],[3.448683,50.539168],[3.448942,50.539487],[3.449037,50.539583],[3.449211,50.539577],[3.44924,50.539642],[3.449337,50.539834],[3.449377,50.539851],[3.44948,50.539875],[3.44953,50.539883],[3.449567,50.539888],[3.449726,50.53991],[3.44997,50.539959],[3.450406,50.540033],[3.450423,50.540037],[3.450452,50.540045],[3.450569,50.540089],[3.450564,50.540174],[3.45047,50.540216],[3.450485,50.540228],[3.450486,50.540227],[3.450486,50.540227],[3.450494,50.540223],[3.45059,50.54018],[3.450647,50.540077],[3.451424,50.540092],[3.451886,50.540035],[3.452973,50.53968],[3.453221,50.539598],[3.453328,50.539583],[3.45383,50.539656],[3.454195,50.539745],[3.454386,50.539499],[3.455004,50.538592],[3.456043,50.53698],[3.456701,50.536017],[3.456317,50.535617],[3.456695,50.535456],[3.456784,50.535431],[3.457133,50.535344],[3.45712,50.535175],[3.457107,50.534979],[3.457159,50.534869],[3.457251,50.534694],[3.457289,50.534622],[3.457313,50.534545],[3.457363,50.534457],[3.457433,50.534336],[3.45757,50.534125],[3.457597,50.534088],[3.458065,50.533728],[3.45823,50.533585],[3.458604,50.533225],[3.458824,50.532992],[3.458838,50.532976],[3.45909,50.532858],[3.459215,50.532143],[3.459214,50.532126],[3.459899,50.531498],[3.460013,50.531388],[3.460487,50.530896],[3.461255,50.530952],[3.461339,50.53096],[3.461587,50.530991],[3.462368,50.531099],[3.462391,50.531103],[3.462491,50.531119],[3.462866,50.531177],[3.463535,50.531348],[3.463824,50.531398],[3.464198,50.531457],[3.464731,50.531539],[3.465278,50.531632],[3.465366,50.53165],[3.465377,50.531652],[3.46588,50.531769],[3.466233,50.531849],[3.466535,50.531918],[3.466963,50.531984],[3.467228,50.531937],[3.467442,50.531901],[3.467574,50.531873],[3.467578,50.531873],[3.467725,50.531898],[3.467758,50.531913],[3.467812,50.531921],[3.467916,50.53193],[3.468228,50.531961],[3.468734,50.531996],[3.468795,50.531999],[3.468857,50.532002],[3.468952,50.532015],[3.46906,50.532016],[3.469366,50.532035],[3.469534,50.532021],[3.469615,50.532018],[3.47042,50.532595],[3.471683,50.532729],[3.473489,50.532673],[3.474261,50.533455],[3.474382,50.53354],[3.475252,50.532994],[3.475388,50.532931],[3.476822,50.532354],[3.477637,50.532119],[3.477979,50.531817],[3.478215,50.531652],[3.478524,50.531512],[3.478804,50.531397],[3.479078,50.531353],[3.479632,50.531305],[3.479877,50.531296],[3.481052,50.531035],[3.481192,50.530987],[3.481393,50.530851],[3.481604,50.530675],[3.481911,50.530379],[3.482331,50.530383],[3.48297,50.530566],[3.483768,50.530699],[3.484643,50.530565],[3.484908,50.530431],[3.485089,50.530305],[3.485243,50.530142],[3.485493,50.530034],[3.485674,50.529971],[3.485942,50.529917],[3.486623,50.52973],[3.487374,50.529527],[3.487563,50.529507],[3.487955,50.529534],[3.488799,50.52906],[3.489943,50.528551],[3.490338,50.528851],[3.490521,50.528744],[3.491311,50.527633],[3.49334,50.528917],[3.493668,50.529022],[3.493883,50.529062],[3.494371,50.529121],[3.494999,50.529339],[3.495258,50.529416],[3.495492,50.52947],[3.49715,50.529693],[3.4978,50.529771],[3.498464,50.528992],[3.499132,50.529193],[3.498677,50.529847],[3.499816,50.530411],[3.499884,50.530445],[3.50006,50.530534],[3.500338,50.530697],[3.500953,50.531085],[3.502041,50.530999],[3.502843,50.5312],[3.506837,50.532403],[3.507207,50.532713],[3.507359,50.532832],[3.507477,50.532924],[3.507623,50.533019],[3.507692,50.533057],[3.507961,50.533205],[3.508145,50.533304],[3.508364,50.533422],[3.508701,50.533674],[3.508812,50.533695],[3.508885,50.533702],[3.509011,50.533707],[3.509283,50.533715],[3.509409,50.533719],[3.509429,50.533724],[3.509473,50.533746],[3.509594,50.533804],[3.509604,50.533809],[3.509776,50.533899],[3.509813,50.533917],[3.510073,50.534043],[3.510339,50.534171],[3.510674,50.534336],[3.510783,50.534289],[3.510936,50.534371],[3.511214,50.53452],[3.51141,50.534627],[3.511775,50.534828],[3.511862,50.53487],[3.513355,50.534361],[3.513536,50.534479],[3.513787,50.534643],[3.513969,50.534772],[3.514059,50.534839],[3.514561,50.535192],[3.514766,50.535323],[3.515008,50.535455],[3.515349,50.535657],[3.514208,50.536227],[3.513835,50.536417],[3.513884,50.536483],[3.514213,50.536932],[3.514155,50.537048],[3.512898,50.537484],[3.512988,50.53755],[3.513355,50.537776],[3.513612,50.537933],[3.513914,50.538119],[3.514977,50.538769],[3.515699,50.53921],[3.516199,50.539514],[3.516461,50.539673],[3.516583,50.539748],[3.516829,50.539898],[3.517041,50.540029],[3.517631,50.539847],[3.518183,50.540495],[3.518821,50.541301],[3.518843,50.541335],[3.519616,50.540965],[3.520247,50.540664],[3.520583,50.541028],[3.520737,50.541188],[3.520779,50.541223],[3.520926,50.541335],[3.521064,50.541429],[3.52112,50.541457],[3.521136,50.541464],[3.521278,50.541518],[3.521506,50.541403],[3.521758,50.541275],[3.52229,50.541472],[3.522465,50.541407],[3.522709,50.541327],[3.52287,50.541294],[3.523191,50.541296],[3.523455,50.541311],[3.523486,50.541313],[3.523621,50.541329],[3.523641,50.541332],[3.523854,50.541387],[3.523913,50.541409],[3.523995,50.541452],[3.524069,50.541498],[3.524112,50.541533],[3.524186,50.541618],[3.523987,50.541659],[3.523557,50.54175],[3.523348,50.541794],[3.523324,50.541802],[3.522893,50.541952],[3.522914,50.541973],[3.523171,50.542325],[3.523232,50.542387],[3.523388,50.542514],[3.524295,50.543254],[3.524172,50.543584],[3.524167,50.543598],[3.524149,50.543661],[3.524142,50.543715],[3.524151,50.543752],[3.524201,50.543811],[3.524314,50.543964],[3.524319,50.543972],[3.524426,50.544128],[3.524551,50.544312],[3.524803,50.544689],[3.524755,50.544731],[3.524426,50.545058],[3.5262,50.54583],[3.526242,50.54582],[3.526604,50.545883],[3.52666,50.545897],[3.526962,50.546007],[3.526991,50.546018],[3.527681,50.546318],[3.527736,50.546343],[3.527938,50.546437],[3.528036,50.546489],[3.528308,50.546665],[3.528346,50.54669],[3.528365,50.5467],[3.528661,50.546875],[3.528188,50.547251],[3.527789,50.547568],[3.527664,50.547668],[3.527645,50.547682],[3.527144,50.547992],[3.527092,50.548019],[3.526744,50.548138],[3.526458,50.547934],[3.526222,50.547786],[3.526029,50.54795],[3.525859,50.548105],[3.525437,50.548488],[3.525439,50.548492],[3.524771,50.549057],[3.52395,50.549754],[3.521075,50.550074],[3.520543,50.55068],[3.518652,50.551054],[3.517024,50.551365],[3.516715,50.551603],[3.517044,50.551901],[3.517839,50.552659],[3.516071,50.553286],[3.516974,50.554885],[3.514901,50.554982],[3.514647,50.555001],[3.514387,50.555038],[3.514179,50.55508],[3.513734,50.555192],[3.512329,50.555559],[3.512338,50.556267],[3.512512,50.556362],[3.512996,50.556635],[3.513108,50.556714],[3.513152,50.556737],[3.513197,50.556757],[3.513276,50.556821],[3.513414,50.556951],[3.51357,50.55708],[3.513732,50.557176],[3.514032,50.557299],[3.514469,50.557424],[3.515207,50.557706],[3.515352,50.557747],[3.515436,50.557759],[3.51556,50.557756],[3.516116,50.558037],[3.519517,50.559917],[3.520173,50.560294],[3.51774,50.561597],[3.517559,50.561474],[3.515976,50.562438],[3.51571,50.562293],[3.515585,50.562236],[3.515355,50.562117],[3.514802,50.561709],[3.514142,50.561334],[3.513677,50.561024],[3.513407,50.560851],[3.512642,50.560566],[3.512698,50.56031],[3.51262,50.560301],[3.512551,50.560275],[3.51221,50.560276],[3.512054,50.560251],[3.51195,50.560227],[3.511652,50.560131],[3.511621,50.560126],[3.511529,50.56016],[3.511317,50.560309],[3.510498,50.560237],[3.509372,50.560152],[3.509208,50.560425],[3.507927,50.560285],[3.506932,50.560315],[3.506242,50.560355],[3.506219,50.560456],[3.505916,50.560412],[3.505417,50.560548],[3.505421,50.560834],[3.50493,50.560957],[3.504764,50.560718],[3.50444,50.560254],[3.502909,50.560424],[3.502435,50.560478],[3.502048,50.560511],[3.501822,50.560517],[3.501765,50.560514],[3.501743,50.560744],[3.501495,50.560693],[3.50141,50.560704],[3.50106,50.56072],[3.50023,50.560748],[3.499164,50.560782],[3.498844,50.560802],[3.49875,50.560318],[3.497515,50.560346],[3.496734,50.560223],[3.496299,50.559893],[3.495804,50.559539],[3.495379,50.559826],[3.495283,50.559801],[3.494786,50.559638],[3.494249,50.559475],[3.493699,50.559462],[3.4935,50.559449],[3.493121,50.559365],[3.49263,50.55959],[3.492473,50.55968],[3.492443,50.559684],[3.492024,50.559434],[3.491327,50.559641],[3.491283,50.559515],[3.491211,50.559384],[3.491171,50.559286],[3.491129,50.559216],[3.491052,50.559119],[3.490929,50.558987],[3.490859,50.558916],[3.49078,50.558823],[3.490743,50.558763],[3.490546,50.558814],[3.490391,50.558861],[3.490243,50.558904],[3.490129,50.558932],[3.489889,50.558983],[3.490065,50.559417],[3.490198,50.559791],[3.490299,50.559927],[3.490317,50.560011],[3.490059,50.560073],[3.489803,50.56017],[3.489649,50.560257],[3.48959,50.560346],[3.489582,50.560384],[3.489714,50.56102],[3.489751,50.561138],[3.489807,50.56145],[3.490151,50.561858],[3.490338,50.562093],[3.490394,50.562203],[3.49049,50.562522],[3.490819,50.56326],[3.492811,50.562783],[3.492997,50.563175],[3.493334,50.56337],[3.4935,50.563473],[3.493537,50.563513],[3.493597,50.563613],[3.49359,50.563929],[3.493677,50.564032],[3.493199,50.564153],[3.492546,50.56433],[3.492078,50.564428],[3.491879,50.56447],[3.491572,50.564582],[3.491163,50.564722],[3.4908,50.564849],[3.489804,50.56428],[3.488677,50.564544],[3.488394,50.564518],[3.488185,50.564519],[3.488077,50.564527],[3.48785,50.564168],[3.48742,50.564277],[3.486997,50.563732],[3.486216,50.564042],[3.486601,50.564552],[3.485256,50.564904],[3.485432,50.565209],[3.484382,50.565557],[3.484276,50.565612],[3.483515,50.566298],[3.483669,50.566401],[3.48389,50.566555],[3.484241,50.566819],[3.484375,50.566915],[3.484756,50.567197],[3.484889,50.567299],[3.484998,50.567379],[3.483689,50.567948],[3.484205,50.568862],[3.484363,50.569168],[3.483238,50.569404],[3.48347,50.569858],[3.482305,50.570121],[3.482445,50.570368],[3.482799,50.570947],[3.483045,50.571392],[3.483237,50.571497],[3.483277,50.57149],[3.483537,50.572268],[3.4835,50.57226],[3.484003,50.573493],[3.483788,50.57352],[3.484302,50.574706],[3.484326,50.574764],[3.484429,50.574982],[3.484437,50.575017],[3.484197,50.57504],[3.483548,50.575092],[3.483064,50.575062],[3.482956,50.575068],[3.482957,50.575218],[3.482957,50.575249],[3.482891,50.57566],[3.482701,50.576022],[3.482462,50.57606],[3.482139,50.576085],[3.481982,50.576098],[3.481816,50.576129],[3.481634,50.576163],[3.481475,50.576217],[3.481744,50.576892],[3.481136,50.577067],[3.481103,50.577074],[3.48103,50.577081],[3.481028,50.577081],[3.480819,50.577075],[3.480743,50.577071],[3.480452,50.577052],[3.480444,50.577052],[3.48031,50.577067],[3.479972,50.577167],[3.479849,50.577204],[3.479402,50.577348],[3.479359,50.577363],[3.478959,50.577505],[3.478956,50.577506],[3.47884,50.577525],[3.478773,50.577496],[3.478771,50.577495],[3.478371,50.577099],[3.477904,50.577145],[3.477713,50.577166],[3.477589,50.577184],[3.477429,50.577211],[3.477369,50.577223],[3.477208,50.577262],[3.476998,50.57736],[3.476858,50.577421],[3.476356,50.577629],[3.476327,50.577636],[3.476239,50.577646],[3.476132,50.577645],[3.475884,50.577664],[3.475393,50.577713],[3.474627,50.577852],[3.474566,50.577861],[3.474539,50.577864],[3.47429,50.577873],[3.474212,50.577874],[3.474162,50.577871],[3.474049,50.577854],[3.474038,50.577939],[3.473955,50.578195],[3.473929,50.57829],[3.473931,50.578328],[3.473971,50.578475],[3.474043,50.578609],[3.474099,50.578697],[3.474147,50.578763],[3.47438,50.579053],[3.474451,50.579149],[3.474533,50.579287],[3.474564,50.579349],[3.474974,50.580195],[3.474988,50.580222],[3.475225,50.580659],[3.475318,50.580796],[3.475399,50.580893],[3.475491,50.580956],[3.475548,50.580989],[3.475064,50.581114],[3.474498,50.581269],[3.474318,50.581316],[3.473987,50.5814],[3.473847,50.581434],[3.472462,50.581755],[3.472364,50.581778],[3.471679,50.581953],[3.471659,50.581959],[3.471412,50.582046],[3.47139,50.582052],[3.468698,50.582489],[3.468903,50.582835],[3.468916,50.582859],[3.46905,50.583116],[3.468362,50.583261],[3.468233,50.583287],[3.467608,50.583418],[3.467875,50.583831],[3.467332,50.58398],[3.467142,50.584032],[3.465967,50.584342],[3.465781,50.584366],[3.464826,50.584483],[3.464347,50.585156],[3.464261,50.585314],[3.464246,50.585352],[3.464194,50.585439],[3.463828,50.586008]]]}}
