{"type":"Feature","properties":{"mrgid":2917,"name":"Estaimpuis","placeType":"Commune","source":"Belgium:belgium_municipalities"},"geometry":{"type":"Polygon","coordinates":[[[3.326504,50.720562],[3.326541,50.720599],[3.326446,50.720664],[3.326,50.72097],[3.325562,50.721271],[3.324834,50.721769],[3.324012,50.72233],[3.323969,50.722351],[3.323932,50.722318],[3.323825,50.722229],[3.323742,50.722186],[3.323554,50.722128],[3.323054,50.722036],[3.322673,50.72193],[3.32248,50.721891],[3.321583,50.72163],[3.321466,50.721583],[3.320998,50.721357],[3.32081,50.721271],[3.320706,50.721206],[3.320665,50.721112],[3.320634,50.721019],[3.320593,50.720876],[3.32053,50.720747],[3.320159,50.720555],[3.320013,50.720482],[3.319916,50.720459],[3.319856,50.720452],[3.318808,50.720659],[3.318677,50.72067],[3.31853,50.720659],[3.318431,50.72064],[3.318318,50.720618],[3.318043,50.720608],[3.31776,50.720585],[3.317473,50.720527],[3.317216,50.720476],[3.316969,50.720415],[3.316911,50.720451],[3.316869,50.72049],[3.316797,50.720629],[3.316582,50.720978],[3.316245,50.721186],[3.31611,50.721264],[3.316051,50.721295],[3.315849,50.721226],[3.315609,50.721109],[3.315269,50.720971],[3.315177,50.720943],[3.314971,50.720861],[3.314802,50.720773],[3.314384,50.720575],[3.314213,50.720541],[3.313952,50.720407],[3.313864,50.720352],[3.31361,50.720161],[3.31352,50.720119],[3.313301,50.720058],[3.312867,50.719952],[3.312689,50.719895],[3.312712,50.719872],[3.312983,50.719582],[3.312987,50.719552],[3.31278,50.719436],[3.312753,50.719414],[3.31275,50.719392],[3.312756,50.719368],[3.312867,50.71928],[3.312868,50.719263],[3.312866,50.719253],[3.312339,50.718987],[3.3122,50.719054],[3.311699,50.718818],[3.311134,50.718544],[3.310917,50.718587],[3.310741,50.718686],[3.310569,50.718755],[3.309988,50.719014],[3.309482,50.719163],[3.30936,50.719236],[3.309298,50.719302],[3.309153,50.719475],[3.30909,50.719515],[3.309057,50.719525],[3.309048,50.719552],[3.30889,50.719569],[3.308689,50.719577],[3.308419,50.719584],[3.308258,50.719585],[3.308097,50.71958],[3.308104,50.719561],[3.307913,50.719536],[3.307752,50.719496],[3.30769,50.719479],[3.307494,50.719399],[3.307264,50.7193],[3.305745,50.71907],[3.305043,50.718973],[3.304636,50.718914],[3.304634,50.718918],[3.304556,50.718907],[3.304581,50.718862],[3.304581,50.718846],[3.304562,50.718765],[3.304517,50.718695],[3.304521,50.718684],[3.304366,50.718614],[3.30345,50.718266],[3.30318,50.718157],[3.302987,50.718042],[3.302861,50.717921],[3.302657,50.717715],[3.302605,50.717646],[3.302759,50.717563],[3.303125,50.717401],[3.303319,50.717285],[3.303461,50.717191],[3.303897,50.716801],[3.304176,50.716745],[3.304415,50.716586],[3.304765,50.716341],[3.304855,50.716273],[3.304662,50.715756],[3.305324,50.715319],[3.305995,50.714889],[3.305927,50.714777],[3.305768,50.714608],[3.305635,50.714465],[3.3054,50.714602],[3.304916,50.714887],[3.304484,50.714643],[3.304094,50.714424],[3.303201,50.715084],[3.303751,50.715339],[3.302649,50.716047],[3.302357,50.716267],[3.302193,50.716389],[3.301891,50.716224],[3.301554,50.716046],[3.301167,50.715824],[3.301019,50.71574],[3.300714,50.715555],[3.300307,50.71531],[3.300194,50.715394],[3.299856,50.715667],[3.299388,50.716071],[3.299099,50.716314],[3.29895,50.716435],[3.298756,50.716603],[3.298669,50.716621],[3.298041,50.716909],[3.2975,50.717197],[3.297335,50.717399],[3.29731,50.717598],[3.296966,50.717758],[3.295759,50.718168],[3.294472,50.718505],[3.294452,50.718514],[3.294164,50.718657],[3.293531,50.719019],[3.29328,50.71917],[3.291913,50.72002],[3.29135,50.720569],[3.290901,50.721004],[3.290281,50.720908],[3.289649,50.7208],[3.288327,50.72005],[3.287514,50.719607],[3.287015,50.719347],[3.28698,50.719332],[3.28629,50.718477],[3.286126,50.718277],[3.286062,50.718141],[3.285987,50.717945],[3.285933,50.717847],[3.285856,50.717733],[3.285476,50.717299],[3.285455,50.717266],[3.28426,50.717651],[3.284218,50.717618],[3.283118,50.716774],[3.282913,50.71685],[3.282612,50.716966],[3.282563,50.71698],[3.281685,50.717312],[3.281651,50.717279],[3.281632,50.717265],[3.280946,50.716658],[3.280665,50.716519],[3.280045,50.716786],[3.27947,50.717],[3.279305,50.717029],[3.27925,50.717042],[3.279008,50.717115],[3.27895,50.717142],[3.27859,50.717368],[3.278494,50.717392],[3.278281,50.717402],[3.278048,50.717448],[3.277952,50.717483],[3.277902,50.717513],[3.277745,50.717645],[3.277548,50.717789],[3.277463,50.717862],[3.277288,50.718057],[3.277142,50.718257],[3.277068,50.718317],[3.276995,50.718403],[3.276777,50.718627],[3.276709,50.718653],[3.276524,50.718672],[3.276413,50.718693],[3.276278,50.718683],[3.276101,50.718656],[3.275862,50.718555],[3.275531,50.718414],[3.275081,50.718167],[3.274242,50.718072],[3.273788,50.718021],[3.273529,50.718025],[3.273495,50.718027],[3.273428,50.71803],[3.273361,50.718032],[3.272987,50.718045],[3.272791,50.718068],[3.272625,50.718033],[3.272278,50.717964],[3.271893,50.717879],[3.271514,50.717806],[3.271157,50.717728],[3.270906,50.717667],[3.270629,50.717503],[3.270422,50.717396],[3.27033,50.717359],[3.270255,50.717344],[3.270135,50.717342],[3.270108,50.717342],[3.270044,50.717335],[3.270038,50.717335],[3.27,50.717331],[3.269894,50.71732],[3.269539,50.717327],[3.269091,50.71732],[3.268731,50.717195],[3.268468,50.717068],[3.268088,50.716884],[3.267956,50.716793],[3.267868,50.716755],[3.26762,50.716654],[3.267564,50.71663],[3.26744,50.716614],[3.267051,50.716561],[3.266652,50.716484],[3.266381,50.71644],[3.266193,50.716427],[3.265924,50.716428],[3.265819,50.71642],[3.265516,50.716345],[3.265474,50.716345],[3.265268,50.716349],[3.265171,50.716314],[3.265012,50.716266],[3.264943,50.716284],[3.264833,50.716343],[3.264018,50.716414],[3.263811,50.716448],[3.26372,50.716377],[3.263707,50.716311],[3.263677,50.716223],[3.263647,50.716142],[3.263641,50.716124],[3.263508,50.716136],[3.263369,50.716155],[3.263233,50.716168],[3.263093,50.716174],[3.262952,50.716181],[3.262811,50.716192],[3.262666,50.7162],[3.262524,50.716203],[3.262386,50.716189],[3.262242,50.716175],[3.262107,50.71616],[3.261967,50.716146],[3.261825,50.716128],[3.261689,50.71611],[3.261553,50.716081],[3.261422,50.716056],[3.261283,50.716032],[3.261144,50.716009],[3.261011,50.715983],[3.260876,50.715958],[3.260733,50.715936],[3.260598,50.715917],[3.260457,50.715892],[3.260314,50.715865],[3.260184,50.715833],[3.260048,50.715814],[3.259906,50.715812],[3.259765,50.715827],[3.259623,50.715849],[3.25946,50.715879],[3.259378,50.715892],[3.259254,50.715886],[3.25915,50.715869],[3.258959,50.715814],[3.258828,50.715756],[3.258029,50.715359],[3.257808,50.715234],[3.257693,50.715183],[3.257598,50.715153],[3.257536,50.715144],[3.257471,50.715125],[3.257395,50.715125],[3.257231,50.715163],[3.257167,50.715197],[3.257103,50.71523],[3.256959,50.715247],[3.256816,50.715242],[3.256693,50.715209],[3.256559,50.715185],[3.256416,50.715172],[3.256132,50.715187],[3.25585,50.715208],[3.255572,50.71523],[3.255291,50.715252],[3.255016,50.715281],[3.254873,50.715263],[3.254734,50.715224],[3.254611,50.715183],[3.254487,50.715149],[3.254355,50.7151],[3.254238,50.715056],[3.254115,50.715015],[3.253996,50.714968],[3.25386,50.714925],[3.25374,50.714885],[3.2536,50.714855],[3.253473,50.714826],[3.253327,50.714802],[3.253184,50.714786],[3.252918,50.71473],[3.2526,50.714642],[3.252512,50.714629],[3.252092,50.714563],[3.251683,50.714505],[3.251258,50.714462],[3.251168,50.714454],[3.251061,50.714449],[3.250901,50.714442],[3.25084,50.71443],[3.250708,50.714391],[3.250587,50.714343],[3.250531,50.714317],[3.250522,50.714312],[3.250484,50.714295],[3.250381,50.714248],[3.250174,50.714161],[3.248998,50.713728],[3.24883,50.713667],[3.248678,50.713647],[3.247995,50.71355],[3.247338,50.713386],[3.247037,50.713323],[3.246508,50.713239],[3.245643,50.713107],[3.245472,50.713081],[3.245246,50.713047],[3.245407,50.712926],[3.245574,50.712872],[3.245809,50.712813],[3.24588,50.712782],[3.245952,50.712738],[3.245999,50.712696],[3.246199,50.712473],[3.246446,50.712216],[3.246638,50.711997],[3.246702,50.711932],[3.246902,50.711766],[3.247167,50.711582],[3.247367,50.711451],[3.247691,50.711237],[3.247841,50.711112],[3.247953,50.71101],[3.248052,50.710913],[3.248593,50.710299],[3.248862,50.710026],[3.248941,50.70997],[3.249568,50.709668],[3.249095,50.709504],[3.248708,50.70934],[3.248721,50.709326],[3.249325,50.70878],[3.249783,50.708324],[3.25011,50.708039],[3.250583,50.707686],[3.250653,50.707707],[3.251268,50.707228],[3.251501,50.707116],[3.2516,50.707011],[3.252133,50.706617],[3.252188,50.706571],[3.252009,50.706377],[3.25087,50.705351],[3.251417,50.705102],[3.251832,50.704874],[3.252117,50.704727],[3.252479,50.704593],[3.252688,50.704474],[3.252876,50.704343],[3.252962,50.704258],[3.253102,50.704166],[3.253421,50.704029],[3.253725,50.703916],[3.253839,50.70385],[3.254298,50.703719],[3.254448,50.703541],[3.254514,50.703512],[3.254705,50.703463],[3.254924,50.703409],[3.255073,50.703372],[3.255883,50.703079],[3.256418,50.703028],[3.256686,50.702972],[3.257047,50.702919],[3.25714,50.702899],[3.257578,50.702857],[3.257786,50.702808],[3.258193,50.702709],[3.259005,50.702475],[3.259194,50.702433],[3.259701,50.702341],[3.260181,50.702263],[3.260502,50.70219],[3.260627,50.70213],[3.260616,50.702047],[3.260606,50.701795],[3.260713,50.701595],[3.260804,50.701479],[3.260941,50.701393],[3.261108,50.70134],[3.261038,50.701125],[3.261018,50.700864],[3.260981,50.700754],[3.260816,50.700372],[3.260411,50.699178],[3.260088,50.698438],[3.259995,50.69842],[3.25953,50.698441],[3.259235,50.698423],[3.25879,50.698375],[3.259215,50.697845],[3.259103,50.697303],[3.258991,50.697168],[3.258763,50.696817],[3.258745,50.696703],[3.258615,50.696328],[3.25856,50.696084],[3.258871,50.696013],[3.258833,50.695714],[3.258896,50.695575],[3.259038,50.695388],[3.25943,50.695212],[3.259253,50.694862],[3.259347,50.694176],[3.259558,50.693375],[3.25993,50.69306],[3.260391,50.693156],[3.26095,50.692597],[3.261411,50.692095],[3.261489,50.692031],[3.261492,50.691861],[3.261483,50.691749],[3.261449,50.691592],[3.261473,50.691397],[3.261171,50.691337],[3.261106,50.691388],[3.260971,50.691528],[3.260835,50.691614],[3.260658,50.691625],[3.260503,50.691556],[3.260435,50.691389],[3.260349,50.69126],[3.259795,50.691226],[3.259763,50.691323],[3.259756,50.691461],[3.259653,50.691544],[3.259447,50.691525],[3.259296,50.69144],[3.259136,50.691372],[3.25891,50.691301],[3.258807,50.691212],[3.258215,50.691202],[3.258172,50.691277],[3.258184,50.691413],[3.258226,50.691544],[3.258185,50.691694],[3.258054,50.691831],[3.257846,50.691798],[3.2576,50.691731],[3.25721,50.691611],[3.256883,50.691486],[3.256159,50.691384],[3.255795,50.691407],[3.255564,50.69135],[3.255221,50.691302],[3.253999,50.691202],[3.253632,50.691172],[3.253835,50.690691],[3.253687,50.690581],[3.253325,50.690377],[3.252871,50.689928],[3.252825,50.689842],[3.252804,50.689759],[3.25287,50.689683],[3.253776,50.688783],[3.254798,50.687798],[3.255014,50.687593],[3.255245,50.687373],[3.255311,50.68727],[3.254983,50.687027],[3.254744,50.686888],[3.254881,50.686789],[3.255052,50.68663],[3.255189,50.686513],[3.255436,50.686389],[3.255693,50.686278],[3.255913,50.686204],[3.256245,50.686105],[3.256397,50.686066],[3.256576,50.686002],[3.256718,50.685942],[3.256891,50.685885],[3.257172,50.685759],[3.257681,50.685592],[3.258045,50.685497],[3.258536,50.685284],[3.258576,50.685269],[3.258413,50.685005],[3.258362,50.684748],[3.257733,50.683696],[3.25767,50.683589],[3.25768,50.683535],[3.257737,50.683467],[3.258315,50.683257],[3.258716,50.683048],[3.258717,50.683035],[3.259141,50.682709],[3.25917,50.682687],[3.259707,50.682142],[3.259825,50.681975],[3.258802,50.681582],[3.259225,50.681164],[3.259479,50.680779],[3.259554,50.680664],[3.259935,50.680806],[3.259938,50.680803],[3.260781,50.679598],[3.260827,50.679534],[3.26087,50.679472],[3.261143,50.679016],[3.261123,50.679008],[3.264571,50.67777],[3.265262,50.677149],[3.265299,50.677118],[3.265236,50.677071],[3.26503,50.676896],[3.264824,50.676745],[3.264486,50.676596],[3.264038,50.67644],[3.263545,50.676278],[3.263073,50.676177],[3.262886,50.676155],[3.262339,50.6761],[3.262008,50.676068],[3.261513,50.675996],[3.261019,50.676],[3.260812,50.676016],[3.260647,50.676037],[3.260323,50.675958],[3.26009,50.675872],[3.259763,50.675762],[3.259513,50.675684],[3.259208,50.675493],[3.25883,50.675237],[3.25806,50.67493],[3.257813,50.674858],[3.257088,50.674718],[3.256017,50.674454],[3.255469,50.674293],[3.254922,50.674101],[3.25459,50.674204],[3.254373,50.67425],[3.254208,50.674338],[3.253689,50.674316],[3.253222,50.674279],[3.252901,50.67429],[3.252743,50.674214],[3.252156,50.67387],[3.250577,50.673231],[3.249479,50.672738],[3.248311,50.672129],[3.24834,50.672053],[3.247931,50.671405],[3.247825,50.671275],[3.247703,50.67118],[3.247574,50.671133],[3.247418,50.671086],[3.244778,50.670419],[3.244151,50.670209],[3.241676,50.669095],[3.241703,50.669072],[3.241286,50.668888],[3.241123,50.668789],[3.241059,50.668679],[3.24119,50.668298],[3.241244,50.668161],[3.241359,50.667957],[3.241514,50.667725],[3.241625,50.667525],[3.241977,50.666901],[3.242036,50.666837],[3.242368,50.666634],[3.242434,50.666558],[3.242566,50.666222],[3.242621,50.665889],[3.242617,50.665738],[3.242589,50.665659],[3.242468,50.665543],[3.242225,50.665354],[3.241869,50.665064],[3.24182,50.664993],[3.241908,50.664664],[3.242052,50.664268],[3.242102,50.663768],[3.242091,50.66344],[3.242096,50.663158],[3.242181,50.662693],[3.24226,50.6625],[3.242218,50.662331],[3.241634,50.662148],[3.241513,50.662091],[3.24145,50.662036],[3.241446,50.661977],[3.241401,50.661632],[3.241306,50.661051],[3.241251,50.66086],[3.241227,50.660561],[3.241229,50.66043],[3.241216,50.660229],[3.241211,50.659751],[3.24119,50.659698],[3.24082,50.659264],[3.24075,50.659221],[3.240661,50.659187],[3.24051,50.659146],[3.240221,50.659077],[3.240127,50.65905],[3.240083,50.659024],[3.240024,50.658963],[3.240006,50.658898],[3.240026,50.65885],[3.240098,50.658751],[3.240116,50.658695],[3.240093,50.65864],[3.240187,50.658494],[3.240391,50.658279],[3.240678,50.657989],[3.241163,50.657508],[3.242412,50.656314],[3.242956,50.655797],[3.243658,50.655151],[3.243699,50.655121],[3.244361,50.654504],[3.24632,50.652663],[3.246875,50.653153],[3.247102,50.65332],[3.247687,50.653649],[3.247807,50.653706],[3.24798,50.653794],[3.248206,50.653948],[3.248328,50.654034],[3.248514,50.654197],[3.248773,50.654375],[3.248863,50.654403],[3.249124,50.654565],[3.249565,50.654857],[3.25019,50.654351],[3.251038,50.654611],[3.251336,50.654703],[3.251996,50.655017],[3.252381,50.655302],[3.253147,50.655865],[3.253768,50.656332],[3.253898,50.656289],[3.254004,50.656232],[3.254702,50.656793],[3.255113,50.657111],[3.255271,50.65724],[3.255328,50.657284],[3.255402,50.657348],[3.255539,50.657447],[3.255826,50.65766],[3.255957,50.657748],[3.256354,50.657912],[3.256465,50.657688],[3.256596,50.657463],[3.256662,50.657352],[3.25684,50.657048],[3.257049,50.657064],[3.258167,50.657126],[3.259507,50.657209],[3.259754,50.657173],[3.259955,50.657116],[3.260008,50.657099],[3.260213,50.657412],[3.260246,50.657496],[3.260255,50.657645],[3.260346,50.657937],[3.260385,50.658113],[3.260493,50.658106],[3.261323,50.658031],[3.261572,50.658042],[3.26196,50.65806],[3.26244,50.658069],[3.262894,50.658055],[3.263123,50.658069],[3.263385,50.65812],[3.263478,50.658063],[3.263612,50.658068],[3.263829,50.658067],[3.263875,50.658037],[3.263902,50.657976],[3.264996,50.658079],[3.26502,50.658075],[3.265721,50.658134],[3.266227,50.658177],[3.266294,50.658169],[3.266351,50.658109],[3.266387,50.658114],[3.266448,50.658148],[3.266506,50.658195],[3.266519,50.658259],[3.266503,50.658317],[3.266717,50.658381],[3.2671,50.658512],[3.267189,50.658545],[3.267551,50.658698],[3.268108,50.658925],[3.268163,50.658952],[3.268312,50.658848],[3.268351,50.65883],[3.268524,50.658806],[3.268624,50.658701],[3.268753,50.658626],[3.268926,50.658542],[3.26902,50.658491],[3.269053,50.65847],[3.269105,50.658433],[3.269151,50.658405],[3.269197,50.658261],[3.269221,50.658088],[3.269248,50.658048],[3.269601,50.658055],[3.269749,50.658046],[3.269956,50.65801],[3.270164,50.65804],[3.270343,50.6581],[3.270408,50.658126],[3.270837,50.6583],[3.271347,50.658506],[3.27147,50.658556],[3.27173,50.658654],[3.271848,50.658711],[3.271876,50.658728],[3.271937,50.658764],[3.272116,50.658879],[3.272154,50.658904],[3.272212,50.658927],[3.272447,50.658979],[3.272787,50.659065],[3.273102,50.659131],[3.273169,50.659147],[3.273385,50.659198],[3.273862,50.65931],[3.273937,50.659383],[3.274037,50.659516],[3.274111,50.659621],[3.274224,50.659742],[3.27442,50.659957],[3.274603,50.660084],[3.27464,50.660112],[3.274707,50.660169],[3.275026,50.660541],[3.27529,50.660836],[3.27536,50.660913],[3.275485,50.661052],[3.275617,50.661199],[3.275698,50.661295],[3.275887,50.661491],[3.276163,50.6618],[3.276357,50.662021],[3.276554,50.662243],[3.276578,50.662279],[3.276537,50.662364],[3.276887,50.662489],[3.277533,50.66269],[3.27749,50.662788],[3.277534,50.662795],[3.277587,50.662805],[3.277799,50.662846],[3.277875,50.662862],[3.278136,50.662915],[3.278387,50.662967],[3.278494,50.662996],[3.278546,50.66301],[3.27875,50.663082],[3.278962,50.663158],[3.279377,50.663207],[3.279674,50.663257],[3.279809,50.663282],[3.280137,50.663355],[3.280175,50.663362],[3.281075,50.663509],[3.281253,50.663535],[3.28127,50.663509],[3.281308,50.663383],[3.281331,50.663324],[3.281417,50.663094],[3.281804,50.66315],[3.282117,50.663206],[3.282152,50.663213],[3.282333,50.663241],[3.282673,50.663283],[3.282984,50.663334],[3.283203,50.663396],[3.283408,50.663461],[3.283649,50.663547],[3.283806,50.663609],[3.283861,50.663571],[3.283883,50.663549],[3.28394,50.663497],[3.284003,50.663451],[3.284169,50.663435],[3.284246,50.663427],[3.284385,50.663407],[3.284473,50.663412],[3.284793,50.663525],[3.285036,50.663611],[3.285103,50.663627],[3.285205,50.663646],[3.285363,50.66367],[3.285411,50.663676],[3.285483,50.663693],[3.285593,50.663726],[3.28586,50.663797],[3.285923,50.663817],[3.285987,50.663843],[3.285961,50.663891],[3.285942,50.663916],[3.285873,50.664013],[3.285719,50.664165],[3.285643,50.664253],[3.285675,50.664276],[3.285753,50.664302],[3.285862,50.664327],[3.286033,50.66439],[3.286182,50.664472],[3.286318,50.664559],[3.286463,50.66466],[3.286504,50.664689],[3.286555,50.664725],[3.286592,50.664739],[3.286698,50.664771],[3.286805,50.664783],[3.287147,50.664815],[3.288222,50.665065],[3.288327,50.665088],[3.288481,50.665133],[3.288491,50.665136],[3.288632,50.665173],[3.288651,50.665177],[3.288804,50.665218],[3.288879,50.665274],[3.289005,50.665381],[3.289049,50.665319],[3.289239,50.665188],[3.28926,50.665171],[3.289294,50.665222],[3.289299,50.665301],[3.289314,50.665337],[3.289346,50.665384],[3.289369,50.665405],[3.289435,50.665458],[3.289512,50.665521],[3.289564,50.66556],[3.28963,50.665614],[3.289714,50.665687],[3.289826,50.665792],[3.289972,50.665983],[3.290035,50.666052],[3.290081,50.666089],[3.290178,50.66615],[3.290217,50.666176],[3.290486,50.666268],[3.291101,50.666601],[3.291494,50.666359],[3.291817,50.666573],[3.292532,50.66707],[3.292631,50.667123],[3.292691,50.667155],[3.292815,50.667202],[3.29307,50.667202],[3.29347,50.667377],[3.293583,50.667419],[3.293701,50.667472],[3.293832,50.6676],[3.293997,50.667765],[3.294189,50.667964],[3.294399,50.668126],[3.294591,50.668248],[3.294718,50.668319],[3.294732,50.668327],[3.294801,50.668361],[3.294967,50.668449],[3.295214,50.668516],[3.295279,50.668529],[3.295352,50.668538],[3.295395,50.668543],[3.295404,50.66852],[3.295868,50.668133],[3.296346,50.667706],[3.296976,50.667162],[3.296685,50.666921],[3.296192,50.66646],[3.296164,50.666419],[3.296118,50.666329],[3.296132,50.666308],[3.296146,50.666288],[3.296813,50.665859],[3.297163,50.665642],[3.29744,50.665482],[3.297618,50.665376],[3.297797,50.665269],[3.298168,50.665035],[3.298557,50.664788],[3.298832,50.664725],[3.29905,50.664687],[3.299172,50.664662],[3.29933,50.664687],[3.29951,50.664718],[3.299609,50.664715],[3.300308,50.66455],[3.301486,50.664261],[3.303172,50.663933],[3.303258,50.663893],[3.303347,50.663818],[3.303383,50.663737],[3.30338,50.663659],[3.303188,50.663353],[3.302925,50.662936],[3.302914,50.662876],[3.302935,50.662798],[3.303114,50.662608],[3.30331,50.662491],[3.303719,50.662297],[3.304085,50.6621],[3.304571,50.661733],[3.304844,50.661495],[3.305115,50.661265],[3.305452,50.661008],[3.305495,50.661038],[3.306476,50.661716],[3.306633,50.661808],[3.306912,50.661622],[3.307329,50.661254],[3.30742,50.661295],[3.30748,50.661364],[3.307621,50.66148],[3.30802,50.661848],[3.308029,50.661858],[3.308266,50.661851],[3.30843,50.66203],[3.308682,50.662278],[3.308685,50.662314],[3.308672,50.662556],[3.309018,50.662787],[3.309087,50.662824],[3.309342,50.662897],[3.309432,50.662895],[3.30955,50.662908],[3.309702,50.662983],[3.309792,50.663006],[3.309943,50.663125],[3.310174,50.663275],[3.310247,50.663318],[3.310562,50.66348],[3.310716,50.663555],[3.310802,50.663584],[3.311356,50.663454],[3.311924,50.663296],[3.312224,50.663197],[3.312286,50.663176],[3.312442,50.663103],[3.312748,50.662924],[3.312886,50.662829],[3.312907,50.66281],[3.312928,50.662778],[3.313041,50.662607],[3.313086,50.662593],[3.313155,50.662582],[3.313197,50.662573],[3.313625,50.66257],[3.313981,50.662564],[3.314527,50.662502],[3.314613,50.662438],[3.314633,50.662421],[3.314647,50.662409],[3.31489,50.662195],[3.315016,50.662083],[3.315049,50.662056],[3.315082,50.662034],[3.315431,50.662077],[3.31625,50.661691],[3.316395,50.661625],[3.31651,50.661573],[3.317273,50.661222],[3.317447,50.661142],[3.317799,50.660988],[3.318254,50.660781],[3.318687,50.660582],[3.318733,50.660562],[3.319168,50.660357],[3.317511,50.659361],[3.317865,50.659125],[3.318049,50.659002],[3.318209,50.658888],[3.318745,50.658508],[3.318683,50.658484],[3.319148,50.657967],[3.319369,50.657722],[3.319403,50.6577],[3.320518,50.657871],[3.320745,50.657917],[3.321057,50.657925],[3.321683,50.65812],[3.322745,50.658401],[3.322861,50.658199],[3.32295,50.657965],[3.322977,50.657893],[3.323312,50.657395],[3.323398,50.657266],[3.323634,50.656912],[3.325671,50.65737],[3.325736,50.657151],[3.327224,50.657398],[3.327254,50.657403],[3.327655,50.657457],[3.329135,50.657579],[3.32929,50.657289],[3.329429,50.657035],[3.329463,50.656976],[3.329537,50.656827],[3.329612,50.65668],[3.329819,50.656285],[3.330424,50.656395],[3.333225,50.656679],[3.333972,50.656124],[3.33412,50.656017],[3.334261,50.656033],[3.335771,50.656231],[3.335836,50.656239],[3.335227,50.658349],[3.335216,50.658389],[3.336316,50.658634],[3.336231,50.660158],[3.336115,50.662403],[3.336092,50.662807],[3.336067,50.663285],[3.336031,50.664149],[3.336028,50.664208],[3.336071,50.664205],[3.336044,50.664597],[3.336022,50.665049],[3.335988,50.665875],[3.337048,50.665801],[3.337111,50.666089],[3.337244,50.66651],[3.337249,50.66653],[3.33729,50.666639],[3.337375,50.666869],[3.337523,50.667264],[3.337586,50.667442],[3.337832,50.668049],[3.338023,50.668478],[3.338241,50.668828],[3.338363,50.669061],[3.338417,50.669144],[3.338525,50.669286],[3.338658,50.669463],[3.338865,50.669445],[3.338925,50.669598],[3.339039,50.669897],[3.339083,50.67],[3.339298,50.670376],[3.339357,50.670453],[3.339426,50.670564],[3.339799,50.671115],[3.339808,50.671128],[3.339333,50.671251],[3.338656,50.671414],[3.338139,50.67154],[3.338134,50.671535],[3.33802,50.671364],[3.337885,50.671179],[3.337836,50.671113],[3.337722,50.670943],[3.337694,50.670909],[3.337587,50.670793],[3.337353,50.670519],[3.336133,50.670598],[3.335833,50.670632],[3.335718,50.670634],[3.335688,50.670633],[3.335304,50.670639],[3.335231,50.670632],[3.33512,50.670634],[3.334813,50.670645],[3.334473,50.670666],[3.334382,50.670673],[3.333972,50.670708],[3.333829,50.670715],[3.334354,50.672339],[3.334455,50.672662],[3.333485,50.672932],[3.333484,50.673151],[3.333476,50.673216],[3.333366,50.673291],[3.333284,50.673359],[3.333153,50.673329],[3.332954,50.67327],[3.332928,50.673267],[3.332911,50.673319],[3.332878,50.673365],[3.332733,50.673721],[3.33266,50.673924],[3.332573,50.674074],[3.332559,50.674216],[3.332003,50.674008],[3.331914,50.674002],[3.331573,50.673897],[3.331021,50.673771],[3.330825,50.673736],[3.330576,50.673671],[3.330337,50.673492],[3.330211,50.673395],[3.330067,50.673328],[3.329953,50.673305],[3.329834,50.67327],[3.329703,50.673185],[3.329457,50.673119],[3.329151,50.673074],[3.328955,50.673002],[3.328788,50.672974],[3.328636,50.672947],[3.328561,50.672942],[3.328133,50.672994],[3.327997,50.673026],[3.327872,50.673064],[3.327684,50.673144],[3.327509,50.6732],[3.327274,50.673243],[3.327078,50.673301],[3.32676,50.673354],[3.326548,50.673373],[3.326434,50.673406],[3.326257,50.673457],[3.325877,50.673523],[3.325309,50.673747],[3.325141,50.673798],[3.325033,50.673799],[3.324943,50.67381],[3.324881,50.673837],[3.324828,50.673937],[3.3248,50.674017],[3.324765,50.674076],[3.324671,50.674199],[3.324639,50.674262],[3.324589,50.67436],[3.324554,50.674449],[3.324458,50.67454],[3.324393,50.674623],[3.324279,50.674782],[3.324249,50.674827],[3.324236,50.674863],[3.324154,50.675047],[3.324043,50.675245],[3.323969,50.675354],[3.323818,50.675607],[3.323798,50.675632],[3.323393,50.676081],[3.3233,50.676173],[3.323202,50.676269],[3.323117,50.676371],[3.323045,50.676441],[3.322747,50.676767],[3.322658,50.676856],[3.322577,50.676928],[3.322393,50.677115],[3.32221,50.677316],[3.322156,50.677414],[3.322121,50.677583],[3.322089,50.677605],[3.322076,50.677619],[3.322012,50.67778],[3.321952,50.678054],[3.321896,50.67832],[3.321853,50.678444],[3.321727,50.678651],[3.321673,50.678728],[3.321588,50.678898],[3.32154,50.679013],[3.321353,50.67944],[3.321187,50.679827],[3.321084,50.680054],[3.320881,50.680269],[3.320598,50.680583],[3.320362,50.680672],[3.320019,50.680809],[3.319691,50.680958],[3.319531,50.68107],[3.319353,50.681255],[3.319358,50.68127],[3.31988,50.681308],[3.319885,50.681323],[3.320011,50.68145],[3.320021,50.681541],[3.320041,50.681719],[3.32003,50.681853],[3.320029,50.681884],[3.320039,50.682037],[3.320015,50.682217],[3.320254,50.682293],[3.320312,50.682312],[3.320362,50.682419],[3.320269,50.682785],[3.320255,50.682861],[3.320243,50.682945],[3.320293,50.683015],[3.320531,50.683068],[3.320544,50.683161],[3.320476,50.683287],[3.320438,50.683348],[3.320304,50.683539],[3.320267,50.683585],[3.320154,50.683721],[3.320134,50.683747],[3.320036,50.683897],[3.319888,50.684168],[3.319799,50.68438],[3.319781,50.68443],[3.319767,50.68449],[3.319744,50.684643],[3.31971,50.684686],[3.319596,50.68469],[3.31953,50.684704],[3.319107,50.684732],[3.318777,50.684717],[3.318697,50.684716],[3.318564,50.684695],[3.318487,50.684741],[3.318417,50.6849],[3.318372,50.685034],[3.318302,50.685211],[3.318155,50.68561],[3.31812,50.685698],[3.318071,50.685815],[3.318012,50.685968],[3.317961,50.686129],[3.317894,50.686278],[3.317778,50.686625],[3.317352,50.686854],[3.317034,50.686994],[3.316552,50.687237],[3.316533,50.687246],[3.316522,50.687202],[3.316505,50.687125],[3.316453,50.686944],[3.316433,50.686801],[3.316367,50.68666],[3.316266,50.68654],[3.316314,50.686494],[3.316373,50.686471],[3.316387,50.686435],[3.316362,50.686386],[3.316342,50.686366],[3.316096,50.686195],[3.315979,50.686128],[3.31586,50.68609],[3.315693,50.686052],[3.31557,50.686045],[3.315108,50.686079],[3.315005,50.686074],[3.31491,50.686057],[3.314797,50.686026],[3.314732,50.686014],[3.314712,50.686007],[3.314667,50.685986],[3.31458,50.685924],[3.314558,50.685858],[3.314559,50.685538],[3.314456,50.685342],[3.314439,50.685347],[3.314426,50.685352],[3.313361,50.686317],[3.313184,50.686471],[3.312944,50.686695],[3.312889,50.686748],[3.312847,50.686787],[3.312784,50.68683],[3.312616,50.686929],[3.31255,50.686977],[3.312501,50.687018],[3.312462,50.687045],[3.312434,50.68708],[3.312383,50.687094],[3.31208,50.687288],[3.312277,50.68741],[3.311793,50.687905],[3.311542,50.688013],[3.311283,50.688139],[3.310681,50.688394],[3.310602,50.688428],[3.309552,50.688884],[3.309296,50.688703],[3.30911,50.688597],[3.308321,50.688897],[3.308224,50.688923],[3.30821,50.688928],[3.307262,50.689126],[3.307157,50.68915],[3.306728,50.689236],[3.306571,50.689421],[3.305989,50.689406],[3.305742,50.689402],[3.305439,50.689397],[3.305279,50.689394],[3.304826,50.689446],[3.304669,50.68946],[3.304511,50.689467],[3.304358,50.68949],[3.304088,50.689547],[3.303695,50.689631],[3.303435,50.689723],[3.303112,50.689804],[3.303568,50.690167],[3.303829,50.690369],[3.304088,50.690569],[3.304333,50.69076],[3.304587,50.690957],[3.304623,50.690985],[3.305668,50.691793],[3.306148,50.692164],[3.306542,50.692485],[3.306567,50.692509],[3.306404,50.692588],[3.306219,50.692639],[3.306232,50.692663],[3.306287,50.693109],[3.306345,50.693485],[3.30636,50.693645],[3.306402,50.69409],[3.306423,50.694116],[3.306618,50.694217],[3.306765,50.69429],[3.307297,50.694519],[3.307835,50.694752],[3.308299,50.694954],[3.30858,50.694992],[3.308678,50.695028],[3.30894,50.695141],[3.309329,50.69532],[3.30947,50.695382],[3.310013,50.695602],[3.310045,50.695615],[3.310395,50.695777],[3.310732,50.695932],[3.31138,50.696231],[3.311598,50.696324],[3.311907,50.696459],[3.312153,50.696579],[3.312414,50.696711],[3.312664,50.696824],[3.312864,50.696918],[3.313391,50.697169],[3.313996,50.697459],[3.31471,50.69779],[3.314986,50.697924],[3.315721,50.698287],[3.315765,50.698325],[3.315528,50.698471],[3.315561,50.698509],[3.316806,50.699993],[3.317052,50.699907],[3.317854,50.701011],[3.31846,50.700793],[3.318674,50.700723],[3.318834,50.700698],[3.319031,50.700693],[3.319135,50.700694],[3.319498,50.700707],[3.319615,50.700734],[3.319707,50.700784],[3.319831,50.700882],[3.319978,50.701013],[3.320115,50.701142],[3.320426,50.70099],[3.320519,50.700947],[3.320732,50.700862],[3.320919,50.701153],[3.321384,50.701872],[3.3214,50.701894],[3.321408,50.701905],[3.32152,50.702101],[3.321947,50.702885],[3.322009,50.702973],[3.322711,50.703452],[3.322676,50.703476],[3.32408,50.704029],[3.324523,50.70426],[3.324555,50.704368],[3.32647,50.70529],[3.326453,50.705302],[3.326279,50.705502],[3.326381,50.705906],[3.326557,50.706609],[3.326822,50.707654],[3.326826,50.707667],[3.326829,50.707682],[3.327074,50.708655],[3.327256,50.709401],[3.327247,50.709452],[3.326796,50.709653],[3.326376,50.71001],[3.326367,50.710086],[3.326384,50.71013],[3.327095,50.710783],[3.327234,50.710973],[3.327822,50.711438],[3.328332,50.711936],[3.328387,50.711974],[3.328432,50.71201],[3.328916,50.712181],[3.329125,50.712264],[3.329295,50.712344],[3.329254,50.71238],[3.328616,50.712933],[3.328507,50.713032],[3.327516,50.713891],[3.327153,50.714297],[3.327198,50.714427],[3.327261,50.71449],[3.327331,50.71453],[3.327579,50.714601],[3.327992,50.714709],[3.328121,50.714781],[3.328168,50.714855],[3.328143,50.714961],[3.328085,50.715102],[3.327905,50.71526],[3.327899,50.715269],[3.327894,50.715275],[3.327641,50.716106],[3.327625,50.716146],[3.327614,50.716153],[3.327392,50.716264],[3.327334,50.716303],[3.327247,50.716448],[3.327244,50.716458],[3.327211,50.71667],[3.327199,50.716706],[3.32718,50.716738],[3.32711,50.716828],[3.327054,50.716894],[3.326947,50.716993],[3.326854,50.717073],[3.326734,50.717164],[3.326448,50.717348],[3.326502,50.71751],[3.326548,50.71761],[3.326509,50.717654],[3.325768,50.718111],[3.325675,50.718176],[3.325674,50.718177],[3.325647,50.718212],[3.325642,50.718223],[3.325606,50.718354],[3.325589,50.718442],[3.325587,50.718491],[3.325588,50.718511],[3.325625,50.71869],[3.325655,50.718977],[3.325674,50.719079],[3.325782,50.719508],[3.32579,50.719531],[3.325438,50.71959],[3.325452,50.719614],[3.325713,50.719844],[3.326152,50.720244],[3.326504,50.720562]]]}}
