{"type":"Feature","properties":{"mrgid":2926,"name":"Burdinne","placeType":"Commune","source":"Belgium:belgium_municipalities"},"geometry":{"type":"Polygon","coordinates":[[[5.155117,50.598703],[5.154979,50.598751],[5.154811,50.598815],[5.154758,50.598845],[5.154586,50.59895],[5.154407,50.599059],[5.154228,50.599217],[5.154085,50.599332],[5.153948,50.599443],[5.153723,50.599615],[5.15325,50.599961],[5.152595,50.600421],[5.152081,50.600771],[5.151749,50.600982],[5.15138,50.60117],[5.151124,50.601307],[5.150948,50.601402],[5.150659,50.601575],[5.150464,50.601688],[5.150207,50.601832],[5.149011,50.602446],[5.14892,50.602492],[5.148745,50.60257],[5.148279,50.602741],[5.148062,50.602828],[5.147539,50.603013],[5.147262,50.603136],[5.146988,50.603259],[5.146525,50.603461],[5.146286,50.603568],[5.146029,50.603679],[5.145647,50.60384],[5.145484,50.603908],[5.144801,50.604264],[5.144508,50.604414],[5.144088,50.604623],[5.143699,50.60482],[5.142694,50.605308],[5.142625,50.605337],[5.142529,50.605375],[5.142436,50.605416],[5.142142,50.605544],[5.1419,50.605653],[5.1416,50.605809],[5.141315,50.605957],[5.140969,50.606161],[5.140811,50.606252],[5.140557,50.606387],[5.140323,50.60649],[5.139859,50.606667],[5.139443,50.606837],[5.138707,50.60711],[5.138194,50.607307],[5.137763,50.607438],[5.137161,50.607607],[5.136948,50.607663],[5.136658,50.607723],[5.136483,50.607766],[5.136219,50.607842],[5.135901,50.607945],[5.135601,50.608038],[5.13523,50.608186],[5.135213,50.608193],[5.135155,50.608202],[5.135137,50.60815],[5.1351,50.608082],[5.134978,50.607883],[5.134928,50.607809],[5.134762,50.607578],[5.134277,50.606934],[5.134133,50.606751],[5.134078,50.606681],[5.133976,50.606551],[5.13387,50.606414],[5.133853,50.606374],[5.13379,50.60631],[5.133695,50.606223],[5.133648,50.606195],[5.133553,50.60612],[5.133471,50.606052],[5.133392,50.60603],[5.13328,50.605961],[5.132697,50.605636],[5.132184,50.605347],[5.132117,50.605308],[5.132038,50.605254],[5.131938,50.605184],[5.131782,50.605058],[5.131695,50.60497],[5.131605,50.604878],[5.131524,50.604794],[5.131373,50.604637],[5.131408,50.604621],[5.131353,50.604571],[5.131272,50.6045],[5.131188,50.604444],[5.131103,50.604391],[5.130997,50.604334],[5.130865,50.604272],[5.130787,50.604238],[5.130277,50.604117],[5.13021,50.604082],[5.130038,50.604032],[5.129883,50.603987],[5.129671,50.603919],[5.12953,50.60387],[5.129386,50.603816],[5.129179,50.603728],[5.128598,50.60348],[5.127687,50.603089],[5.127509,50.603014],[5.127233,50.602896],[5.126918,50.60277],[5.12686,50.602733],[5.126628,50.602641],[5.126444,50.602583],[5.126244,50.602509],[5.12589,50.602381],[5.125377,50.602207],[5.125169,50.602137],[5.124946,50.602063],[5.12413,50.601805],[5.123795,50.601698],[5.123139,50.601485],[5.122996,50.601425],[5.122774,50.60132],[5.122582,50.601213],[5.122413,50.601103],[5.122232,50.600983],[5.121726,50.600646],[5.121281,50.600361],[5.120382,50.599802],[5.119879,50.599489],[5.119827,50.599443],[5.119578,50.599288],[5.119481,50.599242],[5.119409,50.599198],[5.119252,50.599103],[5.119024,50.598972],[5.118858,50.598886],[5.118669,50.598793],[5.11851,50.598719],[5.118174,50.598573],[5.117857,50.598436],[5.117732,50.598386],[5.11763,50.598346],[5.117562,50.59832],[5.117397,50.598267],[5.11724,50.598223],[5.117176,50.598205],[5.11704,50.598176],[5.116922,50.598152],[5.116611,50.598102],[5.116438,50.598074],[5.11631,50.59805],[5.11606,50.598],[5.115647,50.597899],[5.115455,50.597851],[5.115086,50.597761],[5.114864,50.597711],[5.114639,50.597646],[5.112872,50.597142],[5.111899,50.596146],[5.111372,50.595581],[5.110833,50.594994],[5.110342,50.594459],[5.10934,50.593376],[5.108093,50.593926],[5.107643,50.594199],[5.106804,50.594759],[5.106483,50.594587],[5.106281,50.594478],[5.105478,50.594085],[5.104399,50.593574],[5.103125,50.594616],[5.102909,50.59479],[5.102149,50.595403],[5.102037,50.595492],[5.101296,50.59609],[5.100339,50.596859],[5.100052,50.597089],[5.098657,50.598193],[5.098206,50.598541],[5.09812,50.598624],[5.098052,50.598695],[5.095632,50.599071],[5.093322,50.5989],[5.092162,50.598815],[5.087509,50.598472],[5.087072,50.59844],[5.086972,50.598432],[5.085252,50.598305],[5.082947,50.598136],[5.083117,50.598883],[5.083235,50.599605],[5.083254,50.599692],[5.082884,50.599637],[5.079166,50.599038],[5.075726,50.598484],[5.075368,50.59858],[5.074552,50.598755],[5.074397,50.598792],[5.073853,50.598913],[5.073503,50.598982],[5.073299,50.599021],[5.073092,50.599058],[5.072716,50.599106],[5.072547,50.599404],[5.072343,50.599583],[5.072333,50.599599],[5.071871,50.600307],[5.071849,50.60034],[5.071693,50.600587],[5.07168,50.600609],[5.071642,50.600684],[5.071607,50.600734],[5.071453,50.600953],[5.071257,50.601291],[5.071101,50.60155],[5.070871,50.60195],[5.070762,50.602139],[5.07074,50.602184],[5.070697,50.602231],[5.07047,50.602606],[5.070449,50.602633],[5.070416,50.602665],[5.070384,50.602696],[5.070353,50.602697],[5.068584,50.602746],[5.0678,50.602767],[5.067748,50.60243],[5.067675,50.601928],[5.067638,50.601679],[5.067595,50.601418],[5.067506,50.600887],[5.067346,50.600041],[5.067339,50.600017],[5.067156,50.600073],[5.066947,50.600135],[5.066772,50.600188],[5.066625,50.600234],[5.066491,50.600274],[5.066406,50.600299],[5.066257,50.600352],[5.06584,50.600533],[5.065097,50.600886],[5.064937,50.600957],[5.064762,50.60103],[5.064476,50.60115],[5.064246,50.601248],[5.063472,50.601634],[5.063117,50.601812],[5.062579,50.602094],[5.062284,50.60226],[5.062123,50.602351],[5.061852,50.602508],[5.061805,50.60257],[5.061709,50.602436],[5.061094,50.601532],[5.060247,50.600366],[5.059676,50.599587],[5.059279,50.599046],[5.05927,50.599034],[5.059425,50.598931],[5.059965,50.598689],[5.060246,50.598305],[5.060268,50.598269],[5.060304,50.598205],[5.060341,50.598137],[5.060379,50.598068],[5.0604,50.598012],[5.060421,50.597955],[5.060446,50.597885],[5.06054,50.597626],[5.060553,50.597592],[5.060605,50.597444],[5.0607,50.597174],[5.060723,50.59712],[5.060687,50.597112],[5.059736,50.596899],[5.059339,50.5967],[5.058742,50.596399],[5.058037,50.596045],[5.057018,50.59552],[5.056618,50.595141],[5.056214,50.594752],[5.055728,50.594299],[5.055296,50.593897],[5.055284,50.593885],[5.055257,50.593859],[5.055542,50.593691],[5.055235,50.593407],[5.055118,50.593296],[5.055097,50.593277],[5.055075,50.593255],[5.055327,50.593187],[5.055433,50.593158],[5.055124,50.592635],[5.054714,50.591952],[5.054568,50.591985],[5.054524,50.591994],[5.054442,50.592009],[5.054228,50.591963],[5.054003,50.59195],[5.053911,50.591964],[5.052749,50.590501],[5.052472,50.590154],[5.052072,50.589649],[5.052592,50.589507],[5.053207,50.58934],[5.05345,50.589277],[5.054679,50.588948],[5.054583,50.588852],[5.054537,50.588812],[5.054157,50.588514],[5.054083,50.588454],[5.053564,50.588025],[5.052885,50.588265],[5.052651,50.588346],[5.052526,50.588389],[5.052319,50.588458],[5.052166,50.588509],[5.052084,50.58854],[5.051943,50.588593],[5.051784,50.588652],[5.051199,50.588865],[5.051166,50.588877],[5.050604,50.589054],[5.049882,50.58928],[5.049542,50.589321],[5.049336,50.589354],[5.049189,50.589371],[5.048713,50.589389],[5.048154,50.589389],[5.048068,50.589382],[5.048007,50.589371],[5.045797,50.588984],[5.045222,50.588891],[5.045167,50.588882],[5.045117,50.589004],[5.04505,50.589173],[5.044978,50.589346],[5.044786,50.589531],[5.044634,50.589722],[5.044555,50.589814],[5.043899,50.590552],[5.04374,50.590731],[5.043665,50.590801],[5.043596,50.590913],[5.043513,50.590918],[5.040253,50.591141],[5.039489,50.591192],[5.039047,50.591201],[5.039045,50.591201],[5.038998,50.591201],[5.038814,50.591181],[5.038595,50.591217],[5.037264,50.591213],[5.036816,50.591213],[5.036566,50.591216],[5.036398,50.591221],[5.036076,50.591233],[5.034571,50.591382],[5.034432,50.5914],[5.034337,50.591418],[5.034218,50.591511],[5.034041,50.591618],[5.033148,50.591802],[5.032473,50.591942],[5.031882,50.592063],[5.031469,50.592148],[5.031,50.592249],[5.030848,50.59228],[5.030711,50.592308],[5.030423,50.592369],[5.030104,50.592437],[5.030096,50.592412],[5.029985,50.592034],[5.029735,50.591209],[5.029651,50.590932],[5.029621,50.590834],[5.029538,50.59059],[5.029422,50.59015],[5.029364,50.589967],[5.029231,50.589714],[5.029218,50.589692],[5.029007,50.589305],[5.028867,50.589053],[5.028672,50.588703],[5.028619,50.588607],[5.028401,50.588149],[5.028252,50.587857],[5.028098,50.587554],[5.027838,50.587044],[5.027835,50.587033],[5.027711,50.586637],[5.027618,50.586338],[5.027606,50.5863],[5.02747,50.585842],[5.027466,50.585814],[5.027463,50.585352],[5.027456,50.585281],[5.027484,50.585246],[5.027539,50.584811],[5.027552,50.58451],[5.02987,50.583995],[5.030685,50.583815],[5.030727,50.583806],[5.032107,50.58355],[5.032349,50.583497],[5.032808,50.583463],[5.03296,50.583327],[5.033775,50.582748],[5.034375,50.582323],[5.034403,50.582312],[5.033973,50.581857],[5.033356,50.581244],[5.032933,50.580851],[5.032659,50.580582],[5.032519,50.58045],[5.032267,50.580267],[5.032084,50.580147],[5.03175,50.579969],[5.031595,50.579895],[5.031487,50.579853],[5.030976,50.579688],[5.030896,50.579659],[5.030509,50.579646],[5.030331,50.579595],[5.03021,50.579557],[5.030213,50.579544],[5.030322,50.57885],[5.030424,50.578462],[5.030519,50.577968],[5.030535,50.577833],[5.030621,50.577357],[5.030751,50.576614],[5.030756,50.576585],[5.030935,50.575641],[5.030991,50.575323],[5.03116,50.574363],[5.031905,50.574638],[5.032112,50.574126],[5.032568,50.573015],[5.033418,50.570974],[5.033474,50.570831],[5.033479,50.570817],[5.033487,50.5708],[5.033566,50.570612],[5.03625,50.569452],[5.037057,50.569104],[5.039736,50.567963],[5.040382,50.567451],[5.040361,50.567383],[5.040479,50.567291],[5.040592,50.567266],[5.040604,50.567256],[5.041712,50.566383],[5.043087,50.565307],[5.043118,50.565282],[5.044222,50.564417],[5.044818,50.563967],[5.044938,50.563846],[5.046899,50.562366],[5.046942,50.562328],[5.04856,50.561103],[5.044289,50.55773],[5.044208,50.557674],[5.04433,50.557529],[5.044484,50.557382],[5.044828,50.557226],[5.046307,50.556766],[5.047767,50.556312],[5.048859,50.555961],[5.050059,50.555593],[5.051149,50.555346],[5.051235,50.555367],[5.051378,50.555423],[5.051432,50.555508],[5.051736,50.555983],[5.05206,50.556478],[5.052089,50.556522],[5.052436,50.55706],[5.052777,50.557581],[5.053028,50.557956],[5.053159,50.558155],[5.053284,50.558344],[5.053404,50.558527],[5.053883,50.559266],[5.054325,50.559917],[5.054333,50.559951],[5.054328,50.560062],[5.054327,50.560103],[5.054349,50.560622],[5.054275,50.560982],[5.054208,50.56124],[5.054124,50.561423],[5.053936,50.561601],[5.053753,50.561783],[5.053753,50.561787],[5.053749,50.561797],[5.053774,50.561817],[5.053872,50.561848],[5.053925,50.561868],[5.053968,50.561878],[5.054048,50.561876],[5.054085,50.561887],[5.053994,50.562009],[5.053946,50.562121],[5.053917,50.562303],[5.053921,50.562348],[5.053895,50.562415],[5.053871,50.562455],[5.053838,50.562585],[5.053752,50.562845],[5.05367,50.56296],[5.05363,50.56306],[5.053607,50.563091],[5.053584,50.56316],[5.05355,50.563219],[5.053517,50.563349],[5.053487,50.563396],[5.053441,50.563459],[5.053422,50.563493],[5.053424,50.563504],[5.053527,50.563765],[5.053675,50.564137],[5.053673,50.564291],[5.05368,50.564336],[5.053758,50.564522],[5.053818,50.56458],[5.053896,50.564633],[5.054173,50.564898],[5.0542,50.565007],[5.054276,50.565208],[5.054426,50.565631],[5.054708,50.565927],[5.054887,50.566097],[5.055227,50.566397],[5.055495,50.566634],[5.055623,50.566845],[5.055644,50.566887],[5.055692,50.567016],[5.05616,50.56689],[5.056738,50.567787],[5.05676,50.567823],[5.058812,50.567204],[5.059854,50.566903],[5.060744,50.566719],[5.061631,50.566468],[5.062174,50.566279],[5.062851,50.566111],[5.063118,50.566017],[5.063618,50.565925],[5.064207,50.565839],[5.064491,50.565792],[5.065475,50.565538],[5.066036,50.565338],[5.066009,50.565205],[5.066451,50.564949],[5.066625,50.564879],[5.067707,50.564319],[5.067979,50.564143],[5.068575,50.563786],[5.069203,50.563504],[5.069508,50.563386],[5.070099,50.563254],[5.071097,50.563178],[5.071306,50.563194],[5.071643,50.563223],[5.07176,50.563228],[5.072011,50.563217],[5.072247,50.563201],[5.072279,50.563198],[5.072322,50.563193],[5.072345,50.563191],[5.072898,50.563134],[5.073584,50.563048],[5.074614,50.562678],[5.074943,50.562521],[5.074997,50.562497],[5.075187,50.562405],[5.076628,50.561668],[5.076817,50.561566],[5.077071,50.561418],[5.077167,50.561418],[5.077752,50.561121],[5.07853,50.560554],[5.078887,50.560259],[5.079176,50.560006],[5.079842,50.559391],[5.080606,50.558687],[5.080678,50.55864],[5.08069,50.558634],[5.080851,50.558436],[5.08089,50.558401],[5.080922,50.558382],[5.080982,50.558351],[5.081028,50.55833],[5.081142,50.558292],[5.081391,50.558263],[5.081768,50.558316],[5.082164,50.558755],[5.082364,50.558894],[5.082485,50.55897],[5.082582,50.559024],[5.082911,50.559203],[5.083213,50.559363],[5.083304,50.559418],[5.08357,50.55962],[5.083627,50.559657],[5.084166,50.559985],[5.084577,50.560211],[5.085095,50.560501],[5.085158,50.560532],[5.08517,50.560537],[5.085111,50.560638],[5.085098,50.560704],[5.085098,50.560743],[5.085103,50.560776],[5.085133,50.560817],[5.08514,50.560824],[5.085161,50.560844],[5.085177,50.560854],[5.085191,50.560861],[5.085221,50.560883],[5.085228,50.56089],[5.085235,50.560903],[5.085239,50.560912],[5.08524,50.560933],[5.085219,50.560995],[5.085215,50.561009],[5.085218,50.561035],[5.085227,50.561055],[5.085247,50.56108],[5.085287,50.561108],[5.085331,50.561127],[5.085372,50.561129],[5.085382,50.561139],[5.085386,50.561157],[5.085379,50.561173],[5.08537,50.561185],[5.085357,50.561206],[5.085353,50.561215],[5.085355,50.561243],[5.085362,50.561256],[5.085372,50.561268],[5.085386,50.561283],[5.085409,50.56132],[5.085433,50.56137],[5.08544,50.561411],[5.085427,50.561442],[5.085395,50.56147],[5.085379,50.561492],[5.085372,50.561506],[5.085371,50.561519],[5.085373,50.561538],[5.085379,50.561554],[5.085387,50.56157],[5.085408,50.561592],[5.085414,50.561599],[5.085431,50.561624],[5.08544,50.561634],[5.08546,50.561649],[5.085492,50.561669],[5.085501,50.561678],[5.085523,50.561711],[5.085559,50.561764],[5.085563,50.561776],[5.085561,50.561815],[5.085553,50.561848],[5.085543,50.561884],[5.085522,50.561962],[5.08552,50.561969],[5.085524,50.561987],[5.08552,50.562033],[5.085535,50.562071],[5.085553,50.562102],[5.085561,50.562128],[5.085572,50.562151],[5.085583,50.56216],[5.085625,50.562176],[5.085663,50.562195],[5.085689,50.562224],[5.085707,50.562239],[5.085715,50.562249],[5.085737,50.56227],[5.085776,50.56229],[5.085796,50.562293],[5.085849,50.562298],[5.085876,50.562315],[5.085882,50.562337],[5.085872,50.562358],[5.085864,50.562384],[5.085773,50.562628],[5.085775,50.562668],[5.08579,50.562709],[5.085796,50.562761],[5.085798,50.562968],[5.085806,50.563135],[5.085806,50.563338],[5.085815,50.563406],[5.085846,50.563481],[5.085944,50.563625],[5.086006,50.56372],[5.086045,50.563798],[5.086055,50.563818],[5.086109,50.563946],[5.086138,50.563994],[5.086209,50.564084],[5.086277,50.564207],[5.08628,50.564231],[5.086288,50.564278],[5.086306,50.564341],[5.086363,50.564375],[5.086281,50.564633],[5.086364,50.564774],[5.086408,50.564783],[5.086603,50.564889],[5.086595,50.564923],[5.086622,50.564958],[5.086741,50.564951],[5.086809,50.56499],[5.086861,50.565042],[5.086931,50.565093],[5.087067,50.565224],[5.087139,50.565265],[5.087239,50.565283],[5.087275,50.565347],[5.08747,50.565455],[5.087532,50.565501],[5.087666,50.565575],[5.087795,50.565694],[5.087878,50.565716],[5.08801,50.565876],[5.088186,50.565943],[5.088281,50.566011],[5.088527,50.566015],[5.08848,50.566145],[5.088733,50.566277],[5.088734,50.56633],[5.088534,50.566399],[5.088546,50.566511],[5.088704,50.566579],[5.088919,50.566482],[5.089036,50.566517],[5.088933,50.566673],[5.088956,50.566718],[5.08906,50.566688],[5.08912,50.566747],[5.088943,50.567015],[5.088903,50.567105],[5.088952,50.567265],[5.08903,50.56727],[5.08914,50.56732],[5.089212,50.567398],[5.089258,50.567399],[5.089316,50.567445],[5.089325,50.567485],[5.089444,50.567556],[5.089463,50.567578],[5.089582,50.567665],[5.089558,50.567679],[5.089569,50.567721],[5.0897,50.567831],[5.089778,50.56788],[5.089867,50.568179],[5.08996,50.568126],[5.090024,50.568143],[5.089999,50.568312],[5.090091,50.568326],[5.090189,50.568446],[5.090362,50.568416],[5.090372,50.568375],[5.090467,50.568386],[5.090496,50.568507],[5.090417,50.568527],[5.090383,50.568568],[5.090456,50.56861],[5.09059,50.568619],[5.09076,50.56862],[5.090807,50.568654],[5.090694,50.569024],[5.090652,50.569063],[5.090567,50.569074],[5.090347,50.569004],[5.09055,50.569155],[5.090561,50.569179],[5.090657,50.56916],[5.090675,50.569171],[5.090751,50.569304],[5.090796,50.569319],[5.090824,50.569226],[5.090887,50.569232],[5.090954,50.56933],[5.090807,50.569448],[5.090764,50.569469],[5.090691,50.56956],[5.090544,50.569583],[5.090517,50.569556],[5.090531,50.569536],[5.090503,50.56947],[5.090449,50.56946],[5.09041,50.569479],[5.090437,50.569549],[5.090361,50.569594],[5.090377,50.569662],[5.0903,50.569719],[5.090325,50.569748],[5.090475,50.569678],[5.090506,50.569723],[5.090551,50.569757],[5.09053,50.569784],[5.090419,50.569779],[5.090434,50.56981],[5.090396,50.569828],[5.090267,50.569815],[5.090212,50.569854],[5.090155,50.569872],[5.090177,50.569909],[5.090305,50.569974],[5.090328,50.569905],[5.090524,50.569878],[5.09055,50.569919],[5.090609,50.5699],[5.090642,50.569925],[5.090569,50.570141],[5.090501,50.570235],[5.090368,50.570294],[5.090536,50.57038],[5.090495,50.570428],[5.090249,50.570344],[5.090188,50.570369],[5.090341,50.57052],[5.090195,50.57053],[5.090185,50.57056],[5.090643,50.570725],[5.090679,50.570869],[5.090727,50.570931],[5.090566,50.571085],[5.090639,50.571137],[5.090588,50.571219],[5.090632,50.571266],[5.090769,50.571249],[5.090811,50.571321],[5.090799,50.571381],[5.090562,50.571609],[5.090508,50.571641],[5.090505,50.571684],[5.090554,50.571701],[5.090612,50.57166],[5.090683,50.571669],[5.090744,50.571695],[5.09071,50.571765],[5.090802,50.571821],[5.090809,50.571874],[5.090781,50.571933],[5.090723,50.571959],[5.090725,50.572008],[5.090823,50.572095],[5.090813,50.572132],[5.090722,50.572153],[5.090653,50.57226],[5.090402,50.572336],[5.090341,50.572376],[5.090649,50.572504],[5.090693,50.572543],[5.090721,50.57266],[5.090709,50.572668],[5.090635,50.572659],[5.090512,50.572697],[5.090367,50.572618],[5.090271,50.572629],[5.09043,50.572703],[5.090423,50.572715],[5.09039,50.572728],[5.090349,50.57278],[5.09026,50.572834],[5.090262,50.572894],[5.09024,50.572954],[5.090248,50.573018],[5.090337,50.5731],[5.090317,50.573124],[5.090278,50.573125],[5.090345,50.573265],[5.090388,50.573302],[5.090389,50.573327],[5.090361,50.573348],[5.090374,50.573434],[5.090362,50.573496],[5.090331,50.573543],[5.090181,50.57366],[5.090117,50.573743],[5.090083,50.573881],[5.090124,50.574058],[5.090145,50.574063],[5.09047,50.574171],[5.09085,50.574298],[5.091814,50.574627],[5.091954,50.574689],[5.092014,50.574703],[5.092647,50.575087],[5.094249,50.576064],[5.094259,50.57607],[5.094765,50.576414],[5.095302,50.576949],[5.095839,50.577485],[5.095846,50.577492],[5.096288,50.577951],[5.096224,50.577975],[5.096283,50.578051],[5.09718,50.579188],[5.098176,50.578795],[5.098237,50.578855],[5.098339,50.578824],[5.098568,50.578773],[5.099355,50.578636],[5.099927,50.578503],[5.100448,50.578368],[5.101379,50.578072],[5.101527,50.578016],[5.101912,50.57785],[5.102639,50.57749],[5.102904,50.577352],[5.103388,50.577208],[5.103634,50.577098],[5.104235,50.576712],[5.104871,50.576301],[5.105425,50.57592],[5.10592,50.575581],[5.106638,50.57507],[5.106736,50.574999],[5.106859,50.574942],[5.106988,50.574879],[5.107528,50.574614],[5.10762,50.57457],[5.10843,50.574169],[5.109531,50.57362],[5.11028,50.573245],[5.111247,50.572762],[5.111511,50.572626],[5.11183,50.572465],[5.11243,50.57251],[5.112435,50.5725],[5.112447,50.572499],[5.112491,50.572487],[5.112508,50.572484],[5.112517,50.572435],[5.112564,50.572375],[5.112542,50.572331],[5.112485,50.5723],[5.112526,50.572269],[5.112535,50.572238],[5.112534,50.572228],[5.112521,50.57221],[5.112565,50.572132],[5.112549,50.572094],[5.112551,50.572079],[5.112571,50.572056],[5.112683,50.571847],[5.112741,50.571702],[5.112836,50.571542],[5.113015,50.571163],[5.11319,50.570794],[5.113278,50.570621],[5.113313,50.570554],[5.1134,50.570588],[5.11351,50.570545],[5.113489,50.570505],[5.113569,50.570482],[5.113602,50.570451],[5.113654,50.570438],[5.113707,50.570426],[5.113756,50.570362],[5.113827,50.570334],[5.113834,50.570272],[5.113793,50.570256],[5.113791,50.570249],[5.113811,50.570231],[5.113825,50.570224],[5.113891,50.570218],[5.113996,50.570218],[5.114051,50.570189],[5.114192,50.570172],[5.114255,50.570123],[5.114296,50.570084],[5.114324,50.570061],[5.114493,50.569961],[5.114652,50.569865],[5.114709,50.569817],[5.114735,50.56981],[5.114754,50.569815],[5.114818,50.569818],[5.114849,50.569811],[5.114875,50.569798],[5.114872,50.569764],[5.114878,50.569749],[5.114921,50.569729],[5.114984,50.569724],[5.115038,50.569709],[5.115061,50.569694],[5.115119,50.569631],[5.115117,50.56962],[5.115241,50.569559],[5.115254,50.569523],[5.115232,50.569489],[5.115181,50.569429],[5.115169,50.5694],[5.115178,50.569357],[5.115169,50.569313],[5.115163,50.569249],[5.115167,50.569202],[5.115179,50.569171],[5.115221,50.569106],[5.115278,50.569047],[5.115349,50.568951],[5.115421,50.568915],[5.115431,50.568904],[5.115467,50.56887],[5.1155,50.568827],[5.115484,50.568686],[5.115504,50.568643],[5.115547,50.568595],[5.115595,50.568516],[5.115605,50.568496],[5.115632,50.568454],[5.115636,50.568432],[5.115618,50.568415],[5.11563,50.568369],[5.115637,50.568365],[5.115654,50.568365],[5.115692,50.568352],[5.115719,50.568323],[5.115737,50.568277],[5.115745,50.56823],[5.115762,50.568181],[5.115749,50.568161],[5.115727,50.568105],[5.115726,50.568087],[5.115791,50.568006],[5.115798,50.567985],[5.115801,50.567941],[5.115795,50.567895],[5.115803,50.567832],[5.115804,50.567815],[5.115807,50.567753],[5.115819,50.567712],[5.115832,50.567634],[5.115862,50.567565],[5.115878,50.567514],[5.1159,50.567404],[5.11592,50.567332],[5.115934,50.567239],[5.115989,50.567098],[5.115992,50.567079],[5.115967,50.567063],[5.115965,50.567054],[5.115973,50.567013],[5.11601,50.566982],[5.116014,50.56695],[5.116012,50.566938],[5.116007,50.566915],[5.115991,50.566891],[5.116,50.566861],[5.116065,50.566832],[5.116078,50.566814],[5.116076,50.566736],[5.116075,50.566728],[5.116131,50.566595],[5.116161,50.566563],[5.116229,50.566473],[5.116211,50.56646],[5.116245,50.56643],[5.116277,50.566392],[5.116282,50.566384],[5.116303,50.566359],[5.11632,50.566332],[5.116315,50.566276],[5.116321,50.566232],[5.116324,50.566225],[5.116335,50.566152],[5.116341,50.566136],[5.116366,50.566107],[5.116369,50.566099],[5.116394,50.566087],[5.116447,50.566074],[5.116496,50.566077],[5.116529,50.566086],[5.116541,50.566069],[5.116544,50.566051],[5.116573,50.565962],[5.116612,50.565956],[5.116653,50.565932],[5.116652,50.565917],[5.11663,50.565905],[5.116645,50.565814],[5.116663,50.565763],[5.116728,50.565719],[5.11675,50.565718],[5.11683,50.565714],[5.11688,50.565708],[5.116917,50.565673],[5.116943,50.565622],[5.116949,50.565604],[5.116993,50.565588],[5.117096,50.565571],[5.117129,50.56556],[5.117186,50.565491],[5.1172,50.565456],[5.117211,50.565439],[5.117484,50.565486],[5.117539,50.56547],[5.11757,50.565441],[5.117638,50.565356],[5.117695,50.565355],[5.117772,50.565362],[5.117806,50.565383],[5.117868,50.565442],[5.11794,50.565359],[5.117973,50.565299],[5.118038,50.565206],[5.118161,50.565269],[5.118364,50.565391],[5.118421,50.56562],[5.118424,50.56567],[5.118408,50.565759],[5.118418,50.565817],[5.118504,50.56585],[5.118643,50.565889],[5.118656,50.565891],[5.118793,50.565903],[5.118949,50.565909],[5.119311,50.56591],[5.119682,50.565898],[5.120262,50.566716],[5.120358,50.566709],[5.120401,50.566638],[5.120505,50.566506],[5.120883,50.56617],[5.121519,50.565532],[5.121661,50.565401],[5.121832,50.56524],[5.122484,50.564591],[5.123262,50.563867],[5.123432,50.563706],[5.123954,50.563207],[5.124217,50.562948],[5.124325,50.562905],[5.124579,50.562952],[5.125597,50.563101],[5.12576,50.56312],[5.127075,50.563211],[5.129763,50.563209],[5.129872,50.563205],[5.130742,50.563172],[5.13142,50.563098],[5.131672,50.563069],[5.132103,50.562999],[5.133041,50.562792],[5.133083,50.562788],[5.133124,50.562805],[5.133332,50.563347],[5.133591,50.563836],[5.133673,50.563964],[5.133717,50.564045],[5.133795,50.564213],[5.133891,50.564449],[5.133926,50.564492],[5.133999,50.564571],[5.134206,50.564696],[5.134458,50.564832],[5.134614,50.564934],[5.13478,50.565074],[5.135238,50.565552],[5.135341,50.565637],[5.135408,50.565703],[5.135423,50.565765],[5.135482,50.5658],[5.135519,50.565796],[5.135747,50.565776],[5.138404,50.565623],[5.138551,50.565612],[5.139339,50.565552],[5.139516,50.56554],[5.139577,50.565527],[5.139792,50.56548],[5.139968,50.565441],[5.140249,50.565363],[5.140359,50.565314],[5.140637,50.565223],[5.140932,50.565138],[5.141038,50.565113],[5.141106,50.565092],[5.141575,50.565578],[5.14301,50.565787],[5.146637,50.566317],[5.146486,50.566951],[5.146426,50.567227],[5.14649,50.567234],[5.146574,50.567221],[5.146631,50.56747],[5.146883,50.567482],[5.147225,50.567486],[5.147267,50.567491],[5.147572,50.567551],[5.147903,50.567601],[5.148044,50.567618],[5.148101,50.567623],[5.148321,50.567632],[5.149125,50.567666],[5.149674,50.56773],[5.149772,50.567746],[5.149906,50.567761],[5.149942,50.567764],[5.151196,50.56779],[5.151106,50.568012],[5.151164,50.568658],[5.151166,50.568686],[5.151165,50.568694],[5.151086,50.569135],[5.151027,50.569448],[5.151433,50.569492],[5.151934,50.569538],[5.152046,50.569545],[5.152357,50.569558],[5.152444,50.569562],[5.152923,50.569592],[5.153933,50.569682],[5.153856,50.569997],[5.154028,50.570237],[5.154206,50.570283],[5.155219,50.570152],[5.15593,50.57025],[5.157259,50.570118],[5.157897,50.570055],[5.157912,50.570533],[5.158517,50.570572],[5.159636,50.570645],[5.160394,50.570595],[5.16043,50.570594],[5.161028,50.570603],[5.16105,50.570604],[5.161526,50.570621],[5.161392,50.571002],[5.16116,50.571653],[5.160609,50.571543],[5.160122,50.571668],[5.160168,50.571791],[5.160205,50.571818],[5.160363,50.571848],[5.160374,50.571854],[5.160347,50.572019],[5.16043,50.572078],[5.160427,50.572166],[5.160417,50.572173],[5.160313,50.572173],[5.160119,50.572231],[5.160047,50.572283],[5.159981,50.572368],[5.159995,50.572414],[5.160006,50.572575],[5.160018,50.572711],[5.160196,50.573166],[5.160217,50.573369],[5.160447,50.573731],[5.161123,50.574272],[5.161387,50.57477],[5.161652,50.575069],[5.161761,50.575404],[5.16183,50.576003],[5.161731,50.576311],[5.161705,50.576356],[5.161394,50.576787],[5.161046,50.577119],[5.160779,50.577306],[5.16019,50.577694],[5.160737,50.577595],[5.161276,50.577551],[5.162572,50.577471],[5.162781,50.577347],[5.162864,50.577195],[5.163234,50.577167],[5.16352,50.577209],[5.163522,50.577198],[5.164251,50.577329],[5.16478,50.577639],[5.165623,50.578388],[5.166187,50.578621],[5.16652,50.578892],[5.166916,50.579052],[5.166871,50.579174],[5.166742,50.579661],[5.166821,50.580336],[5.16659,50.58045],[5.166003,50.58067],[5.165508,50.580806],[5.164798,50.581217],[5.164616,50.581378],[5.164546,50.581457],[5.164497,50.58173],[5.164162,50.582128],[5.163938,50.58222],[5.16401,50.582404],[5.163173,50.583197],[5.162934,50.583366],[5.163499,50.58355],[5.163638,50.583598],[5.164072,50.583741],[5.164232,50.583811],[5.164446,50.583967],[5.164466,50.583985],[5.16458,50.584094],[5.164792,50.584584],[5.16489,50.58476],[5.165085,50.584972],[5.165644,50.585484],[5.165638,50.585504],[5.165488,50.585922],[5.165461,50.585999],[5.165457,50.586007],[5.165429,50.586095],[5.165419,50.586119],[5.165414,50.58614],[5.164855,50.587601],[5.164804,50.587739],[5.164633,50.588222],[5.164629,50.588243],[5.164639,50.588918],[5.164635,50.58895],[5.164549,50.589233],[5.164534,50.58928],[5.164464,50.589517],[5.164363,50.589906],[5.164307,50.590116],[5.164199,50.590531],[5.164151,50.590716],[5.164066,50.59104],[5.163955,50.591445],[5.163843,50.59185],[5.163809,50.591975],[5.163807,50.591989],[5.163816,50.592369],[5.163705,50.592567],[5.163616,50.592733],[5.163504,50.592923],[5.164356,50.593112],[5.164155,50.593396],[5.163525,50.594288],[5.163502,50.594353],[5.162785,50.594805],[5.162727,50.594846],[5.162881,50.595053],[5.163065,50.595303],[5.162978,50.595395],[5.162862,50.595465],[5.162701,50.595563],[5.162536,50.595665],[5.162378,50.595761],[5.162223,50.595875],[5.162097,50.595974],[5.161953,50.596088],[5.161672,50.596307],[5.161431,50.596479],[5.161163,50.596672],[5.161027,50.596763],[5.160768,50.596881],[5.160479,50.597001],[5.160182,50.597118],[5.159919,50.597207],[5.159387,50.597347],[5.159289,50.597364],[5.15903,50.597488],[5.158806,50.597676],[5.158599,50.597854],[5.158424,50.598009],[5.158336,50.598065],[5.158234,50.59811],[5.158091,50.598164],[5.158031,50.598186],[5.157845,50.598244],[5.157743,50.598267],[5.15758,50.598304],[5.157163,50.598365],[5.157086,50.598379],[5.156959,50.598404],[5.156778,50.598443],[5.156576,50.598486],[5.156416,50.598518],[5.155719,50.598617],[5.155389,50.59866],[5.155294,50.598672],[5.15521,50.59867],[5.155117,50.598703]]]}}
