{"type":"Feature","properties":{"mrgid":2988,"name":"Theux","placeType":"Commune","source":"Belgium:belgium_municipalities"},"geometry":{"type":"Polygon","coordinates":[[[5.91005,50.566997],[5.909913,50.567127],[5.909495,50.567501],[5.909362,50.567631],[5.907934,50.567074],[5.90735,50.566839],[5.907062,50.566714],[5.906652,50.566558],[5.906332,50.566472],[5.905899,50.566424],[5.905626,50.566424],[5.905329,50.566452],[5.905172,50.566464],[5.905018,50.56649],[5.904718,50.566578],[5.904228,50.566697],[5.90409,50.566728],[5.903916,50.566775],[5.902722,50.567081],[5.902261,50.567156],[5.901712,50.566609],[5.901511,50.566344],[5.901564,50.566328],[5.901273,50.565999],[5.900977,50.565726],[5.900898,50.565643],[5.90059,50.565339],[5.900756,50.565034],[5.900766,50.565018],[5.900646,50.564774],[5.900561,50.56466],[5.900613,50.56463],[5.900261,50.564345],[5.899888,50.564121],[5.899484,50.563916],[5.899446,50.563897],[5.899372,50.56389],[5.899229,50.563801],[5.898937,50.563528],[5.898508,50.563108],[5.898229,50.562827],[5.897924,50.562335],[5.897829,50.562235],[5.897799,50.562153],[5.897784,50.562023],[5.897739,50.56194],[5.897663,50.561621],[5.897483,50.561138],[5.897383,50.560962],[5.897319,50.560787],[5.89717,50.560625],[5.896801,50.560377],[5.896683,50.560381],[5.896565,50.560336],[5.896575,50.560326],[5.895671,50.559776],[5.895563,50.559724],[5.895425,50.559547],[5.894967,50.559014],[5.894903,50.558922],[5.894745,50.558562],[5.894848,50.558199],[5.8949,50.557952],[5.894939,50.557794],[5.894283,50.557796],[5.89409,50.55779],[5.893679,50.5577],[5.893307,50.557569],[5.893133,50.557486],[5.892521,50.557087],[5.891808,50.556588],[5.891563,50.556442],[5.891207,50.556229],[5.890821,50.556046],[5.89054,50.555905],[5.89023,50.555872],[5.890009,50.555846],[5.889457,50.555768],[5.889198,50.555738],[5.888651,50.555653],[5.888355,50.555613],[5.888035,50.555564],[5.887737,50.555519],[5.887422,50.555472],[5.887116,50.555429],[5.886801,50.555399],[5.886465,50.555366],[5.886173,50.555339],[5.886119,50.555335],[5.88584,50.555323],[5.885557,50.555312],[5.885262,50.555311],[5.884966,50.555315],[5.884579,50.555317],[5.88413,50.555323],[5.883999,50.55534],[5.883965,50.555343],[5.883844,50.555351],[5.883455,50.555406],[5.882739,50.555503],[5.882669,50.555512],[5.881341,50.555707],[5.881263,50.55573],[5.880555,50.555768],[5.880251,50.555766],[5.879949,50.555754],[5.879516,50.555744],[5.879044,50.555724],[5.878889,50.555719],[5.878898,50.555683],[5.87809,50.555692],[5.878003,50.555695],[5.877767,50.555656],[5.877517,50.555603],[5.877125,50.555526],[5.876686,50.555454],[5.876364,50.555396],[5.875916,50.555318],[5.875473,50.555238],[5.875071,50.55517],[5.874897,50.55514],[5.874697,50.555103],[5.874628,50.555091],[5.874323,50.555014],[5.874128,50.555039],[5.873712,50.554963],[5.872069,50.554661],[5.86896,50.554023],[5.868628,50.553933],[5.865594,50.552725],[5.864432,50.552306],[5.864364,50.552275],[5.864343,50.552285],[5.861006,50.551032],[5.860871,50.550975],[5.859746,50.550893],[5.858505,50.550776],[5.856843,50.55074],[5.856132,50.550629],[5.85423,50.550331],[5.853474,50.550122],[5.853125,50.550049],[5.852707,50.549972],[5.852628,50.549975],[5.852581,50.549974],[5.850572,50.549879],[5.850512,50.549996],[5.850384,50.550003],[5.84983,50.549896],[5.847542,50.549446],[5.846695,50.549258],[5.847112,50.549501],[5.849696,50.550998],[5.849978,50.55116],[5.851377,50.551958],[5.85495,50.553993],[5.856496,50.554873],[5.856617,50.554953],[5.860405,50.557086],[5.860781,50.55736],[5.861099,50.557649],[5.861514,50.558131],[5.861988,50.558789],[5.8624,50.559369],[5.864423,50.562147],[5.864368,50.562213],[5.864307,50.562206],[5.864225,50.562199],[5.863956,50.562193],[5.863109,50.562121],[5.862836,50.562095],[5.861674,50.562008],[5.861384,50.561989],[5.860777,50.561941],[5.85964,50.561857],[5.85953,50.561848],[5.859507,50.561847],[5.85941,50.561826],[5.85939,50.561822],[5.859375,50.561819],[5.859118,50.56177],[5.859076,50.561762],[5.858799,50.561708],[5.858332,50.561618],[5.858137,50.561579],[5.857072,50.561372],[5.855762,50.561119],[5.855037,50.560977],[5.854858,50.560396],[5.854898,50.560097],[5.854667,50.559691],[5.854649,50.559679],[5.854076,50.559367],[5.853446,50.559159],[5.853115,50.55904],[5.852833,50.558964],[5.852473,50.558887],[5.852146,50.558823],[5.851665,50.558818],[5.850913,50.558779],[5.850522,50.558797],[5.850032,50.558709],[5.849309,50.558673],[5.848976,50.558641],[5.848179,50.558603],[5.847692,50.558629],[5.846496,50.558592],[5.84584,50.558479],[5.844956,50.558542],[5.844603,50.558464],[5.844255,50.558449],[5.843665,50.558228],[5.843191,50.558068],[5.842913,50.557965],[5.84261,50.557835],[5.842065,50.557679],[5.841912,50.557642],[5.841599,50.557551],[5.841294,50.557443],[5.84118,50.557382],[5.840959,50.557217],[5.840599,50.556896],[5.840233,50.556537],[5.84015,50.556387],[5.840053,50.556187],[5.839958,50.556048],[5.839843,50.555901],[5.83979,50.555859],[5.839592,50.555731],[5.839494,50.555682],[5.839286,50.555576],[5.838916,50.555405],[5.83859,50.555244],[5.838512,50.555213],[5.838089,50.555089],[5.837936,50.555053],[5.83753,50.554978],[5.837176,50.554943],[5.836736,50.554937],[5.836406,50.55494],[5.83555,50.554991],[5.834997,50.555033],[5.834773,50.555035],[5.834394,50.555019],[5.834046,50.555007],[5.833836,50.554966],[5.83369,50.554933],[5.833388,50.554827],[5.833328,50.554795],[5.833306,50.554782],[5.833246,50.554733],[5.832828,50.554285],[5.832753,50.554211],[5.832649,50.554126],[5.831594,50.553723],[5.831507,50.553696],[5.831284,50.553698],[5.83118,50.553719],[5.830838,50.553987],[5.830704,50.554055],[5.830007,50.55433],[5.829964,50.554345],[5.829846,50.554361],[5.829769,50.554371],[5.829413,50.554349],[5.829049,50.554354],[5.828952,50.554352],[5.828544,50.554304],[5.828368,50.554287],[5.827963,50.554216],[5.826696,50.554269],[5.826223,50.554215],[5.825649,50.554214],[5.82555,50.554226],[5.825277,50.554285],[5.825143,50.554317],[5.823725,50.554588],[5.823409,50.554584],[5.82313,50.554531],[5.822885,50.55448],[5.822782,50.554468],[5.822627,50.55445],[5.822343,50.554441],[5.822149,50.554462],[5.82191,50.55451],[5.821848,50.554493],[5.821901,50.554368],[5.822024,50.554049],[5.822137,50.553939],[5.822362,50.553929],[5.822657,50.553895],[5.822815,50.553833],[5.822981,50.553777],[5.823094,50.553727],[5.823462,50.55355],[5.823617,50.553359],[5.823794,50.553033],[5.823802,50.552926],[5.823822,50.552781],[5.823799,50.55271],[5.823614,50.552507],[5.823606,50.552389],[5.823558,50.552244],[5.823499,50.552106],[5.823471,50.552026],[5.823465,50.552008],[5.823419,50.551896],[5.823387,50.551728],[5.82326,50.55174],[5.823187,50.551775],[5.823059,50.551813],[5.822937,50.551816],[5.822782,50.551835],[5.82264,50.551857],[5.822386,50.551903],[5.822299,50.551918],[5.822205,50.551883],[5.822125,50.551881],[5.822034,50.551911],[5.821986,50.551931],[5.821855,50.551936],[5.8217,50.551886],[5.821643,50.551876],[5.821581,50.551872],[5.821364,50.551875],[5.8213,50.551873],[5.821111,50.551788],[5.821077,50.551786],[5.820963,50.551782],[5.820872,50.551793],[5.820782,50.551813],[5.82075,50.551828],[5.820735,50.551819],[5.820496,50.551536],[5.82046,50.551466],[5.820419,50.551421],[5.82028,50.551314],[5.820179,50.551255],[5.820101,50.551228],[5.82001,50.551204],[5.819908,50.551181],[5.819775,50.55117],[5.819577,50.551166],[5.81924,50.551191],[5.818931,50.551255],[5.818693,50.55129],[5.818111,50.551354],[5.81809,50.551354],[5.81809,50.551317],[5.818087,50.55122],[5.818077,50.551195],[5.818073,50.551157],[5.81802,50.551145],[5.817827,50.551145],[5.81752,50.551085],[5.81744,50.551099],[5.817287,50.55114],[5.817116,50.551202],[5.817021,50.551243],[5.816909,50.551326],[5.816813,50.551357],[5.816334,50.551413],[5.816202,50.551432],[5.815994,50.55148],[5.815638,50.551555],[5.815525,50.55155],[5.815146,50.551485],[5.815108,50.551475],[5.814882,50.551355],[5.814511,50.551208],[5.81443,50.551174],[5.814047,50.551094],[5.813794,50.551051],[5.813261,50.550847],[5.812831,50.550874],[5.812548,50.550932],[5.812209,50.550937],[5.81209,50.550974],[5.811775,50.551127],[5.811121,50.55144],[5.81092,50.551516],[5.810633,50.551641],[5.81047,50.551735],[5.810179,50.55196],[5.810065,50.552033],[5.809962,50.552073],[5.809869,50.552098],[5.809832,50.552109],[5.809489,50.552089],[5.809387,50.552078],[5.809346,50.552068],[5.809196,50.552023],[5.809069,50.551995],[5.808958,50.55198],[5.808896,50.551983],[5.808863,50.551995],[5.80851,50.552131],[5.808469,50.552156],[5.808437,50.552179],[5.808255,50.55234],[5.808135,50.552421],[5.807982,50.552416],[5.807595,50.552381],[5.807489,50.552374],[5.807426,50.552377],[5.807392,50.552371],[5.807359,50.552369],[5.807277,50.552365],[5.807202,50.552407],[5.807168,50.552491],[5.807146,50.552591],[5.807127,50.552642],[5.807094,50.552687],[5.807054,50.55273],[5.806983,50.552766],[5.806526,50.553003],[5.806359,50.553018],[5.806215,50.553179],[5.80618,50.553313],[5.806177,50.553436],[5.806252,50.553901],[5.806464,50.554455],[5.806477,50.554473],[5.806213,50.554573],[5.805995,50.554618],[5.805932,50.554632],[5.805307,50.55427],[5.805146,50.554234],[5.804736,50.554243],[5.80467,50.554226],[5.804423,50.553854],[5.80425,50.553195],[5.804142,50.552957],[5.804112,50.552444],[5.803923,50.55201],[5.803769,50.551797],[5.80332,50.551528],[5.803268,50.551451],[5.803375,50.551388],[5.803369,50.551339],[5.80324,50.551276],[5.802932,50.551234],[5.802904,50.551162],[5.80308,50.551134],[5.803126,50.551107],[5.803135,50.551086],[5.803038,50.55102],[5.802764,50.550914],[5.802364,50.550793],[5.801678,50.55062],[5.801418,50.550393],[5.801434,50.550105],[5.801369,50.549767],[5.801165,50.549329],[5.801083,50.549135],[5.800979,50.548979],[5.800808,50.548987],[5.800481,50.548857],[5.800059,50.548835],[5.799909,50.548909],[5.799143,50.549287],[5.798595,50.549278],[5.797704,50.549064],[5.797683,50.54906],[5.79708,50.548969],[5.796887,50.548939],[5.796804,50.548937],[5.796122,50.548999],[5.795695,50.549134],[5.795083,50.549328],[5.795051,50.54934],[5.794402,50.549504],[5.793811,50.549654],[5.793701,50.549687],[5.793113,50.549894],[5.792707,50.55004],[5.792723,50.550118],[5.792754,50.550224],[5.792781,50.550307],[5.792796,50.550347],[5.792539,50.551002],[5.792054,50.551592],[5.791224,50.552278],[5.790968,50.552506],[5.79113,50.552607],[5.791045,50.552707],[5.791023,50.552914],[5.790932,50.552992],[5.790908,50.553107],[5.790785,50.552878],[5.790819,50.553],[5.79081,50.553185],[5.790788,50.553261],[5.790761,50.553307],[5.790218,50.554021],[5.78999,50.55394],[5.789899,50.553899],[5.789485,50.553678],[5.789209,50.553518],[5.787799,50.55287],[5.786558,50.552319],[5.786268,50.552191],[5.786084,50.552129],[5.785176,50.55191],[5.784365,50.551705],[5.784217,50.551652],[5.784086,50.551621],[5.783274,50.551429],[5.783155,50.551356],[5.782928,50.551236],[5.782319,50.55074],[5.781572,50.550137],[5.781091,50.549879],[5.78097,50.549814],[5.780942,50.549797],[5.780812,50.5497],[5.780742,50.54964],[5.780686,50.54958],[5.780673,50.549553],[5.780512,50.548994],[5.780797,50.548088],[5.780712,50.547972],[5.780628,50.547905],[5.780337,50.547799],[5.779682,50.547568],[5.778228,50.546982],[5.778091,50.546935],[5.777888,50.546886],[5.775142,50.545579],[5.773399,50.544754],[5.773309,50.544714],[5.772634,50.544396],[5.771562,50.543994],[5.770341,50.543541],[5.769386,50.543179],[5.768823,50.542961],[5.767797,50.542546],[5.766816,50.542144],[5.765597,50.541653],[5.764528,50.541226],[5.763846,50.540957],[5.763425,50.5408],[5.760751,50.539826],[5.760364,50.539699],[5.760246,50.539662],[5.759828,50.539534],[5.759502,50.539461],[5.758812,50.539355],[5.756514,50.539108],[5.756097,50.539035],[5.755501,50.538996],[5.755432,50.538991],[5.753282,50.538927],[5.752361,50.538935],[5.752385,50.53889],[5.752636,50.538508],[5.753002,50.537886],[5.753697,50.536731],[5.755275,50.53416],[5.755328,50.534075],[5.755355,50.53403],[5.756617,50.531969],[5.756745,50.531975],[5.757762,50.530317],[5.75789,50.530099],[5.758482,50.529124],[5.759626,50.527222],[5.759909,50.526802],[5.761135,50.524756],[5.762724,50.522088],[5.763095,50.521442],[5.763124,50.521457],[5.765865,50.51691],[5.764904,50.513267],[5.763256,50.507146],[5.763241,50.507085],[5.763205,50.506923],[5.763166,50.506797],[5.762356,50.503799],[5.761693,50.501348],[5.761131,50.499272],[5.76109,50.49921],[5.761023,50.498925],[5.760752,50.497857],[5.760478,50.496787],[5.759919,50.494727],[5.759518,50.493195],[5.759378,50.492751],[5.759255,50.492385],[5.759243,50.492338],[5.758846,50.490911],[5.758762,50.490573],[5.756027,50.490944],[5.755614,50.490998],[5.754416,50.491162],[5.75405,50.491213],[5.75064,50.491693],[5.750627,50.491706],[5.748665,50.493516],[5.747955,50.494148],[5.747441,50.494606],[5.747467,50.494636],[5.747414,50.494683],[5.747321,50.494773],[5.747293,50.494799],[5.747162,50.494919],[5.747007,50.495006],[5.746411,50.495204],[5.746287,50.495255],[5.745916,50.495453],[5.7459,50.495457],[5.745654,50.495489],[5.745151,50.495433],[5.744798,50.495385],[5.744577,50.495352],[5.74182,50.494922],[5.741444,50.494989],[5.739779,50.495267],[5.738972,50.495557],[5.738882,50.495589],[5.738715,50.495651],[5.739196,50.49473],[5.739499,50.494135],[5.739891,50.493373],[5.73995,50.493258],[5.740151,50.492865],[5.740229,50.492706],[5.740266,50.492621],[5.740273,50.492608],[5.740401,50.492652],[5.740534,50.492705],[5.740658,50.492745],[5.74075,50.492778],[5.740816,50.492797],[5.740903,50.492813],[5.74093,50.492821],[5.741071,50.492872],[5.741092,50.492923],[5.7411,50.49296],[5.741126,50.492989],[5.741213,50.493033],[5.741398,50.492834],[5.741803,50.492402],[5.741882,50.492319],[5.742105,50.492084],[5.742154,50.492038],[5.742156,50.492036],[5.742168,50.492024],[5.742207,50.491982],[5.744153,50.489873],[5.744882,50.489062],[5.744892,50.489054],[5.745318,50.488578],[5.745755,50.488092],[5.746199,50.487609],[5.746213,50.487594],[5.746372,50.487423],[5.746482,50.487306],[5.746535,50.487253],[5.746895,50.486866],[5.747208,50.48652],[5.747235,50.486493],[5.747585,50.486134],[5.748431,50.485277],[5.748489,50.485151],[5.748573,50.485022],[5.748613,50.484959],[5.748639,50.48493],[5.748639,50.48493],[5.748667,50.484898],[5.749399,50.484077],[5.753314,50.479686],[5.753408,50.479576],[5.756223,50.476434],[5.756634,50.475973],[5.757602,50.474889],[5.757778,50.474692],[5.75995,50.472267],[5.761261,50.470807],[5.761971,50.470019],[5.762938,50.468942],[5.763967,50.467791],[5.764423,50.467274],[5.765099,50.466522],[5.765238,50.466368],[5.76582,50.465726],[5.76626,50.46524],[5.767995,50.463305],[5.769108,50.462064],[5.769294,50.461862],[5.769344,50.461811],[5.770032,50.461045],[5.772556,50.458248],[5.77258,50.458218],[5.772599,50.458196],[5.772806,50.45797],[5.773183,50.457555],[5.773314,50.457412],[5.773393,50.457324],[5.773893,50.45676],[5.773875,50.456727],[5.77522,50.455332],[5.775283,50.455264],[5.778207,50.452001],[5.779067,50.451051],[5.779087,50.45103],[5.779208,50.450904],[5.779549,50.450509],[5.78003,50.449988],[5.78141,50.448444],[5.783886,50.445734],[5.787202,50.442237],[5.787293,50.442151],[5.789964,50.439046],[5.79079,50.438088],[5.791622,50.437127],[5.792568,50.436036],[5.792701,50.435891],[5.792958,50.435584],[5.793224,50.435272],[5.793271,50.435279],[5.793452,50.435316],[5.793669,50.435337],[5.79422,50.435382],[5.794364,50.435399],[5.794423,50.435422],[5.794504,50.435468],[5.794562,50.435467],[5.794848,50.435355],[5.795043,50.435359],[5.795543,50.435473],[5.795622,50.435488],[5.795738,50.435496],[5.795823,50.435515],[5.795922,50.435601],[5.796001,50.435605],[5.79604,50.4356],[5.796108,50.435554],[5.796126,50.435547],[5.796194,50.435544],[5.796251,50.435587],[5.796282,50.435608],[5.796364,50.435642],[5.796387,50.435642],[5.797198,50.435415],[5.797298,50.435414],[5.797479,50.435425],[5.797634,50.435421],[5.797702,50.435409],[5.797811,50.435379],[5.797859,50.435363],[5.80108,50.435251],[5.803909,50.435153],[5.806947,50.435296],[5.808241,50.435378],[5.809003,50.435376],[5.80912,50.435366],[5.810551,50.435125],[5.814031,50.434476],[5.814089,50.434462],[5.815126,50.43427],[5.815366,50.434218],[5.816218,50.434069],[5.818443,50.433636],[5.81769,50.436435],[5.817674,50.436489],[5.817593,50.436776],[5.817445,50.437293],[5.817323,50.437718],[5.81716,50.43828],[5.817012,50.438755],[5.81699,50.438847],[5.816829,50.439305],[5.816372,50.440564],[5.815957,50.441696],[5.81607,50.441753],[5.816157,50.441788],[5.816201,50.441815],[5.816243,50.441864],[5.816239,50.441914],[5.816098,50.442079],[5.816034,50.44217],[5.81603,50.44221],[5.816047,50.442276],[5.816046,50.442309],[5.816069,50.442413],[5.816078,50.442537],[5.816074,50.442609],[5.816086,50.442701],[5.816063,50.442846],[5.816033,50.442958],[5.815987,50.443013],[5.815985,50.443067],[5.815956,50.443094],[5.815958,50.443137],[5.815921,50.443177],[5.815927,50.443223],[5.815852,50.443399],[5.815849,50.443443],[5.815815,50.443528],[5.815778,50.443572],[5.815775,50.443643],[5.815756,50.443665],[5.815766,50.443688],[5.815737,50.44374],[5.815734,50.443778],[5.815692,50.443864],[5.815629,50.443985],[5.815633,50.444663],[5.815619,50.444734],[5.815622,50.444776],[5.815593,50.445277],[5.81558,50.445347],[5.815558,50.445393],[5.815522,50.445525],[5.815504,50.445642],[5.815493,50.445692],[5.81542,50.44597],[5.815382,50.446155],[5.815362,50.446314],[5.815382,50.446429],[5.815437,50.446595],[5.815489,50.446805],[5.815572,50.446973],[5.815639,50.447238],[5.816269,50.448463],[5.816483,50.448817],[5.816584,50.449021],[5.817077,50.450148],[5.817117,50.450304],[5.817418,50.451077],[5.817491,50.451329],[5.81756,50.451499],[5.817706,50.451764],[5.817783,50.451963],[5.817863,50.452238],[5.817924,50.452297],[5.818234,50.452407],[5.818282,50.452475],[5.818312,50.452531],[5.818395,50.45298],[5.818409,50.453127],[5.818436,50.453289],[5.818429,50.45333],[5.818451,50.453431],[5.818451,50.453518],[5.818485,50.453589],[5.818573,50.453676],[5.819195,50.4542],[5.819254,50.454296],[5.819319,50.454377],[5.819538,50.454783],[5.819605,50.454945],[5.819687,50.455356],[5.819827,50.455988],[5.819846,50.456126],[5.820024,50.457042],[5.820117,50.457313],[5.820078,50.45744],[5.819906,50.457661],[5.819841,50.457781],[5.820049,50.458387],[5.820053,50.458836],[5.820087,50.45899],[5.820096,50.459072],[5.820132,50.459247],[5.820138,50.459361],[5.820159,50.459431],[5.820178,50.459533],[5.820222,50.459645],[5.820414,50.459893],[5.820448,50.459951],[5.820709,50.460291],[5.820737,50.460714],[5.820728,50.460954],[5.820735,50.461065],[5.820762,50.461153],[5.820775,50.461167],[5.821189,50.461317],[5.821425,50.46143],[5.82185,50.461663],[5.821963,50.461763],[5.822033,50.461903],[5.822088,50.462155],[5.822077,50.462181],[5.822044,50.462206],[5.821986,50.462288],[5.821888,50.462326],[5.821762,50.462354],[5.821686,50.462364],[5.82165,50.462387],[5.821635,50.462427],[5.821545,50.462523],[5.821535,50.462573],[5.821545,50.46262],[5.821587,50.46272],[5.821627,50.46285],[5.821758,50.463082],[5.821784,50.463169],[5.821818,50.463273],[5.821816,50.463352],[5.821827,50.46337],[5.822174,50.46343],[5.822356,50.463481],[5.822412,50.463537],[5.822486,50.463812],[5.822562,50.46404],[5.822575,50.464101],[5.822506,50.46422],[5.822308,50.464454],[5.822121,50.464789],[5.822137,50.464815],[5.822165,50.464896],[5.822201,50.464965],[5.822175,50.465022],[5.82212,50.465087],[5.822052,50.465129],[5.821975,50.465405],[5.822009,50.465447],[5.822031,50.465522],[5.822072,50.465571],[5.82178,50.465707],[5.821661,50.46575],[5.821436,50.46581],[5.821137,50.465815],[5.820902,50.465824],[5.820635,50.465986],[5.820465,50.466082],[5.820211,50.46615],[5.819953,50.466198],[5.819905,50.466196],[5.819737,50.466167],[5.819671,50.466184],[5.819529,50.46623],[5.819431,50.466272],[5.819253,50.466374],[5.81899,50.466545],[5.818748,50.466725],[5.818535,50.466941],[5.818296,50.467228],[5.818205,50.467325],[5.818179,50.467349],[5.818036,50.46738],[5.817949,50.467454],[5.817753,50.467834],[5.81766,50.468187],[5.817651,50.46834],[5.817683,50.46852],[5.817717,50.468612],[5.817731,50.468646],[5.817805,50.468739],[5.817892,50.468822],[5.818023,50.468925],[5.818104,50.468987],[5.818147,50.469029],[5.818293,50.469195],[5.818315,50.469218],[5.818308,50.469326],[5.818288,50.4694],[5.818175,50.469584],[5.818136,50.469754],[5.81808,50.47004],[5.818062,50.470246],[5.81807,50.470288],[5.81805,50.470483],[5.818024,50.470637],[5.818011,50.470822],[5.818039,50.470995],[5.818038,50.471102],[5.818048,50.471243],[5.818077,50.471304],[5.818208,50.471493],[5.818316,50.471677],[5.818299,50.471966],[5.818348,50.472162],[5.81835,50.472251],[5.81831,50.472391],[5.818326,50.472505],[5.818307,50.472819],[5.818382,50.473024],[5.818432,50.473431],[5.818497,50.473554],[5.818756,50.473661],[5.818843,50.473769],[5.818805,50.473819],[5.818629,50.473986],[5.818615,50.474056],[5.818623,50.474296],[5.818612,50.474648],[5.818688,50.474771],[5.818813,50.474918],[5.818906,50.475048],[5.818889,50.475282],[5.818734,50.475403],[5.818723,50.475442],[5.818861,50.475589],[5.818997,50.475663],[5.819259,50.475944],[5.819438,50.476091],[5.819544,50.476152],[5.819846,50.476295],[5.819919,50.476402],[5.81992,50.476444],[5.819757,50.476671],[5.819725,50.476783],[5.819729,50.476826],[5.819774,50.476871],[5.819757,50.477004],[5.819778,50.477187],[5.819782,50.477296],[5.819746,50.477369],[5.819562,50.477425],[5.819525,50.477448],[5.819571,50.477532],[5.819735,50.477708],[5.819893,50.477831],[5.820024,50.477958],[5.820102,50.477998],[5.82005,50.478087],[5.820028,50.478219],[5.820199,50.478547],[5.820355,50.47873],[5.820421,50.478786],[5.82061,50.478882],[5.820968,50.479024],[5.821295,50.479079],[5.821658,50.479116],[5.821753,50.479139],[5.821937,50.479203],[5.822078,50.479248],[5.822142,50.479278],[5.822337,50.479348],[5.8226,50.479414],[5.822691,50.479449],[5.822743,50.479504],[5.82284,50.479621],[5.822877,50.479855],[5.822879,50.479892],[5.822873,50.479951],[5.822885,50.48003],[5.823082,50.480138],[5.823435,50.480257],[5.82362,50.480431],[5.823789,50.480554],[5.82402,50.480649],[5.824114,50.480705],[5.824279,50.480772],[5.825495,50.481155],[5.825698,50.48126],[5.825795,50.4813],[5.825869,50.481349],[5.826162,50.48141],[5.826273,50.481457],[5.826442,50.481544],[5.826619,50.481597],[5.827007,50.481776],[5.827223,50.482091],[5.827427,50.482334],[5.827614,50.482469],[5.827773,50.482543],[5.827879,50.482603],[5.828297,50.4829],[5.828373,50.482977],[5.828445,50.483065],[5.828633,50.483212],[5.828816,50.483333],[5.829033,50.483465],[5.829158,50.483556],[5.829211,50.483601],[5.829359,50.483758],[5.829401,50.483808],[5.829441,50.483877],[5.829439,50.483928],[5.829339,50.484159],[5.829329,50.484243],[5.829346,50.484319],[5.829356,50.484443],[5.829335,50.484713],[5.829304,50.484834],[5.8293,50.48491],[5.829306,50.484936],[5.829335,50.485037],[5.829355,50.485165],[5.82938,50.485266],[5.829396,50.485311],[5.829393,50.485324],[5.829414,50.485399],[5.829396,50.485595],[5.829384,50.485683],[5.829377,50.485944],[5.829366,50.486029],[5.829282,50.486378],[5.82917,50.486477],[5.829137,50.486502],[5.829002,50.486672],[5.828966,50.48673],[5.828978,50.48689],[5.829003,50.487054],[5.828996,50.487139],[5.829005,50.487277],[5.828963,50.487364],[5.828803,50.487547],[5.828593,50.487757],[5.828575,50.487764],[5.828729,50.488125],[5.828849,50.48847],[5.828882,50.48853],[5.828957,50.488697],[5.829158,50.488931],[5.829205,50.488974],[5.829326,50.489099],[5.829519,50.489358],[5.829707,50.489529],[5.829808,50.489695],[5.829833,50.489786],[5.829895,50.489863],[5.829948,50.489934],[5.830927,50.490427],[5.83109,50.490461],[5.831399,50.490072],[5.831666,50.489777],[5.831797,50.489798],[5.831944,50.490011],[5.832013,50.49001],[5.832117,50.490132],[5.832258,50.490236],[5.832372,50.490159],[5.83241,50.490005],[5.832558,50.489697],[5.83266,50.489605],[5.832762,50.489526],[5.832852,50.489498],[5.832911,50.489508],[5.832886,50.489569],[5.832819,50.489744],[5.832898,50.489849],[5.833008,50.48987],[5.833117,50.489819],[5.833335,50.489625],[5.833388,50.489643],[5.833312,50.489947],[5.833403,50.490012],[5.833538,50.489982],[5.833843,50.489839],[5.833875,50.489848],[5.833874,50.489976],[5.833814,50.490323],[5.833817,50.490412],[5.833831,50.490492],[5.833879,50.490562],[5.834003,50.490589],[5.834093,50.490573],[5.834328,50.490417],[5.834469,50.490385],[5.835291,50.490856],[5.835398,50.490894],[5.835488,50.490844],[5.835531,50.490665],[5.835546,50.49043],[5.835613,50.490419],[5.836331,50.491013],[5.836482,50.491032],[5.836608,50.490977],[5.836697,50.490626],[5.836768,50.490571],[5.837374,50.490603],[5.837958,50.490681],[5.838375,50.490751],[5.83995,50.491034],[5.840384,50.491108],[5.840664,50.49114],[5.841376,50.491359],[5.841496,50.491433],[5.842305,50.491897],[5.842902,50.492182],[5.843177,50.492393],[5.843507,50.492582],[5.843639,50.492684],[5.844161,50.493095],[5.844418,50.493241],[5.844593,50.493303],[5.845379,50.493565],[5.845663,50.4937],[5.845989,50.49391],[5.846148,50.493973],[5.846367,50.493998],[5.847246,50.494019],[5.8476,50.494051],[5.849138,50.494381],[5.849894,50.494733],[5.849966,50.494766],[5.850248,50.494892],[5.850824,50.49508],[5.85121,50.495234],[5.852398,50.495782],[5.852981,50.495987],[5.854841,50.496672],[5.854996,50.496725],[5.855559,50.496883],[5.856201,50.497148],[5.856737,50.497469],[5.857085,50.497652],[5.857402,50.497721],[5.858243,50.497925],[5.859949,50.497936],[5.860292,50.497941],[5.860668,50.497972],[5.860995,50.498047],[5.86161,50.498232],[5.86194,50.498297],[5.862376,50.498318],[5.86273,50.498306],[5.863932,50.498045],[5.864071,50.497982],[5.864369,50.497814],[5.86509,50.498092],[5.865501,50.498186],[5.865589,50.498259],[5.865941,50.498391],[5.86663,50.49855],[5.866959,50.4993],[5.867065,50.499541],[5.867136,50.499744],[5.867444,50.500067],[5.867743,50.500396],[5.867787,50.500605],[5.867595,50.501006],[5.867564,50.501051],[5.867553,50.501472],[5.86766,50.501724],[5.867615,50.501833],[5.867376,50.501907],[5.867509,50.50216],[5.867679,50.502483],[5.867536,50.502687],[5.867502,50.502761],[5.867515,50.502836],[5.867532,50.502884],[5.867565,50.503017],[5.867598,50.503178],[5.86758,50.503179],[5.865204,50.503667],[5.864918,50.50374],[5.864736,50.503839],[5.864479,50.504007],[5.864073,50.50437],[5.863591,50.504855],[5.863567,50.504935],[5.863598,50.504993],[5.863555,50.505042],[5.863555,50.505122],[5.863596,50.505254],[5.86394,50.505503],[5.864191,50.505744],[5.864218,50.505811],[5.864216,50.50585],[5.864389,50.505964],[5.865154,50.506552],[5.865732,50.506788],[5.866433,50.506864],[5.86702,50.507071],[5.867612,50.507033],[5.868155,50.507133],[5.868101,50.507316],[5.867823,50.507305],[5.867581,50.507317],[5.867098,50.507353],[5.865671,50.507498],[5.865176,50.508286],[5.865148,50.508339],[5.864241,50.509275],[5.866297,50.509786],[5.866647,50.510203],[5.867618,50.510467],[5.86783,50.510416],[5.868104,50.50991],[5.868707,50.510041],[5.869269,50.51017],[5.870088,50.510376],[5.87185,50.511272],[5.87223,50.5111],[5.873063,50.510889],[5.873268,50.51098],[5.873383,50.511016],[5.874153,50.511194],[5.874858,50.511217],[5.875649,50.511151],[5.877678,50.510656],[5.878662,50.51041],[5.879023,50.510313],[5.879104,50.510264],[5.879151,50.510257],[5.879273,50.51046],[5.879535,50.510857],[5.879738,50.511359],[5.879861,50.511579],[5.879956,50.51177],[5.880158,50.512102],[5.880388,50.512529],[5.880832,50.513359],[5.880905,50.51354],[5.880934,50.513615],[5.881451,50.514928],[5.881615,50.515346],[5.881785,50.515779],[5.881896,50.516102],[5.881943,50.516237],[5.882173,50.516434],[5.882507,50.51658],[5.882629,50.516632],[5.882766,50.516694],[5.883,50.51682],[5.882029,50.518065],[5.881862,50.518312],[5.881742,50.518539],[5.881646,50.518697],[5.881586,50.518873],[5.881579,50.518931],[5.881596,50.519135],[5.88161,50.519186],[5.881626,50.519316],[5.881662,50.519474],[5.881669,50.519594],[5.881667,50.519655],[5.881678,50.519998],[5.881721,50.520394],[5.881747,50.520619],[5.881777,50.520761],[5.881752,50.520956],[5.881738,50.521422],[5.881723,50.521517],[5.881632,50.522311],[5.881007,50.524067],[5.881192,50.52492],[5.881199,50.525037],[5.881136,50.525731],[5.881136,50.525756],[5.881149,50.525969],[5.881164,50.526111],[5.881182,50.526217],[5.881178,50.526262],[5.881177,50.526286],[5.881177,50.526303],[5.881179,50.526341],[5.881267,50.526547],[5.881332,50.526598],[5.881358,50.526636],[5.88131,50.528652],[5.881305,50.528692],[5.881252,50.528923],[5.881244,50.528964],[5.881314,50.528992],[5.881366,50.529036],[5.88139,50.529085],[5.881417,50.529131],[5.881465,50.529175],[5.88191,50.529814],[5.881933,50.529847],[5.881937,50.529854],[5.881955,50.52989],[5.881974,50.529918],[5.882135,50.530171],[5.882154,50.530188],[5.882066,50.53025],[5.881864,50.530399],[5.881722,50.5305],[5.881672,50.530545],[5.88155,50.530702],[5.881502,50.5308],[5.881367,50.530849],[5.881349,50.530868],[5.881308,50.530922],[5.881302,50.530933],[5.881273,50.530962],[5.881248,50.530981],[5.881213,50.531078],[5.88118,50.531101],[5.881155,50.531112],[5.881131,50.531129],[5.881028,50.531229],[5.880952,50.531362],[5.880943,50.531424],[5.880918,50.531464],[5.880859,50.531491],[5.880853,50.531529],[5.880839,50.531554],[5.880805,50.531575],[5.880519,50.531705],[5.880399,50.53175],[5.880332,50.531788],[5.880291,50.531818],[5.880241,50.531863],[5.880135,50.531946],[5.880033,50.532026],[5.880035,50.532043],[5.880018,50.532165],[5.880006,50.532227],[5.879957,50.532405],[5.879941,50.532432],[5.879859,50.532499],[5.87982,50.532536],[5.879941,50.53262],[5.880208,50.532734],[5.880217,50.532758],[5.880176,50.53281],[5.879688,50.533291],[5.879612,50.533339],[5.879559,50.53338],[5.879507,50.533442],[5.87948,50.533488],[5.879149,50.533782],[5.879227,50.53394],[5.879243,50.533984],[5.879262,50.534049],[5.879239,50.534075],[5.879217,50.534118],[5.879116,50.534244],[5.879066,50.534299],[5.879009,50.534343],[5.878844,50.534489],[5.878687,50.534607],[5.878667,50.534627],[5.87854,50.534789],[5.878459,50.534854],[5.878376,50.53489],[5.87828,50.534943],[5.878223,50.534969],[5.878189,50.534984],[5.878133,50.53501],[5.878121,50.535047],[5.878105,50.535139],[5.878095,50.53516],[5.878057,50.535188],[5.877993,50.535219],[5.877957,50.535228],[5.877897,50.535237],[5.877866,50.535254],[5.877846,50.53528],[5.877875,50.535286],[5.87825,50.535568],[5.878445,50.535745],[5.878665,50.536042],[5.879008,50.536349],[5.879327,50.536667],[5.879746,50.537011],[5.880317,50.537272],[5.880364,50.53731],[5.880403,50.53733],[5.880551,50.537416],[5.88091,50.537584],[5.8811,50.537723],[5.88129,50.537898],[5.881393,50.538008],[5.88143,50.538071],[5.881466,50.538099],[5.881525,50.538149],[5.88163,50.53822],[5.881668,50.538265],[5.881771,50.538321],[5.881944,50.538399],[5.882186,50.53853],[5.882399,50.538622],[5.882573,50.538662],[5.882779,50.538715],[5.88288,50.538744],[5.882955,50.538763],[5.883129,50.538804],[5.883312,50.538873],[5.883497,50.539005],[5.883599,50.539098],[5.883635,50.539123],[5.88388,50.539281],[5.883953,50.539326],[5.884031,50.539374],[5.884113,50.539431],[5.884153,50.539454],[5.88419,50.539477],[5.884247,50.539514],[5.884553,50.539667],[5.884603,50.539695],[5.884647,50.539718],[5.884708,50.539754],[5.884925,50.539885],[5.885267,50.540007],[5.885835,50.540146],[5.886174,50.540318],[5.886275,50.540586],[5.886453,50.540766],[5.886694,50.540848],[5.886725,50.540882],[5.886926,50.540932],[5.886989,50.540942],[5.887163,50.540988],[5.887409,50.540987],[5.88764,50.541007],[5.887739,50.541018],[5.888069,50.541017],[5.888556,50.541061],[5.889262,50.541231],[5.889637,50.54135],[5.889844,50.541423],[5.890046,50.541498],[5.890641,50.541699],[5.890837,50.541755],[5.891186,50.541772],[5.891395,50.54175],[5.891596,50.541727],[5.891678,50.541703],[5.891774,50.54164],[5.891861,50.541503],[5.891973,50.541316],[5.89207,50.541315],[5.89239,50.541247],[5.892801,50.541279],[5.89321,50.541359],[5.893768,50.541547],[5.8943,50.541718],[5.894431,50.541803],[5.894761,50.541901],[5.894832,50.541904],[5.895057,50.541898],[5.895215,50.541846],[5.895367,50.54181],[5.89561,50.541775],[5.895801,50.541799],[5.895987,50.541828],[5.896192,50.541872],[5.896308,50.54194],[5.896353,50.541994],[5.896386,50.542073],[5.89646,50.54217],[5.896509,50.542306],[5.896663,50.542379],[5.896766,50.542416],[5.896927,50.542421],[5.897072,50.54241],[5.897435,50.542306],[5.897504,50.542283],[5.897665,50.542204],[5.897976,50.542024],[5.898132,50.541925],[5.898383,50.541697],[5.898463,50.541565],[5.898498,50.541487],[5.898584,50.54143],[5.899238,50.541153],[5.899957,50.541024],[5.900278,50.540936],[5.900543,50.540821],[5.900882,50.540692],[5.901094,50.540661],[5.901402,50.540702],[5.901687,50.540867],[5.902219,50.541269],[5.902466,50.541438],[5.902563,50.541505],[5.903086,50.541693],[5.90326,50.541731],[5.904202,50.541801],[5.904884,50.541753],[5.905303,50.541655],[5.905478,50.541632],[5.905621,50.5416],[5.906112,50.541521],[5.906338,50.541492],[5.906457,50.541449],[5.906568,50.541422],[5.907195,50.541293],[5.907442,50.541248],[5.907668,50.541247],[5.90885,50.541209],[5.909426,50.541283],[5.910095,50.541406],[5.91036,50.541422],[5.910913,50.541437],[5.911164,50.541383],[5.911226,50.541367],[5.911312,50.541351],[5.91135,50.541428],[5.91141,50.541511],[5.911373,50.541634],[5.911352,50.541765],[5.911351,50.541776],[5.911373,50.541783],[5.911503,50.541854],[5.911551,50.541872],[5.91162,50.541904],[5.911706,50.541944],[5.911608,50.542135],[5.911564,50.542215],[5.911587,50.542295],[5.911592,50.54234],[5.911541,50.542474],[5.91149,50.542567],[5.91147,50.542594],[5.911312,50.542738],[5.911174,50.542902],[5.911128,50.542974],[5.911189,50.543196],[5.911189,50.543218],[5.911206,50.543267],[5.911258,50.543348],[5.911264,50.543377],[5.911254,50.54343],[5.911229,50.543508],[5.911228,50.543591],[5.911321,50.543608],[5.91133,50.543609],[5.911352,50.543617],[5.911358,50.543632],[5.91135,50.543674],[5.91126,50.54371],[5.911143,50.543776],[5.911075,50.54384],[5.911026,50.543916],[5.910888,50.544043],[5.91086,50.544085],[5.910842,50.544198],[5.910861,50.544285],[5.910845,50.544343],[5.910854,50.544379],[5.910881,50.544398],[5.910979,50.544452],[5.911054,50.54448],[5.911078,50.544497],[5.911108,50.544527],[5.911113,50.544571],[5.911082,50.54473],[5.911083,50.544755],[5.91107,50.544822],[5.911045,50.544855],[5.911003,50.544962],[5.910874,50.545209],[5.91087,50.545274],[5.910853,50.545349],[5.910852,50.545358],[5.910816,50.545525],[5.910794,50.545559],[5.910817,50.545606],[5.910824,50.545656],[5.910809,50.545717],[5.910781,50.54575],[5.910734,50.545798],[5.910793,50.545923],[5.910816,50.545967],[5.910863,50.546022],[5.910874,50.546044],[5.910942,50.546079],[5.910972,50.546107],[5.91099,50.546155],[5.911011,50.5463],[5.911065,50.546313],[5.911132,50.546321],[5.911231,50.54646],[5.9113,50.546597],[5.911301,50.546637],[5.911221,50.546827],[5.91119,50.546918],[5.911188,50.546952],[5.911217,50.547048],[5.911262,50.547157],[5.911274,50.547208],[5.91128,50.547263],[5.911311,50.54737],[5.911323,50.5474],[5.911383,50.5475],[5.911462,50.54758],[5.911536,50.547686],[5.911604,50.547801],[5.911739,50.547879],[5.911962,50.547991],[5.912036,50.548039],[5.912068,50.54805],[5.91215,50.548061],[5.91221,50.548066],[5.912245,50.548073],[5.912338,50.548111],[5.912387,50.548145],[5.91255,50.548172],[5.912559,50.548173],[5.912656,50.54825],[5.912709,50.548312],[5.912748,50.548339],[5.912827,50.548366],[5.912855,50.548384],[5.912995,50.548445],[5.913121,50.548477],[5.913183,50.548571],[5.913185,50.548596],[5.913141,50.548631],[5.913116,50.548677],[5.913114,50.548691],[5.913187,50.548706],[5.913244,50.548709],[5.913327,50.548767],[5.913388,50.548782],[5.913456,50.548822],[5.91349,50.548864],[5.913616,50.548896],[5.913626,50.548927],[5.913687,50.548998],[5.91381,50.548996],[5.913903,50.548985],[5.914002,50.548971],[5.914071,50.548965],[5.91409,50.548963],[5.914111,50.548976],[5.914119,50.549028],[5.914191,50.549099],[5.914233,50.549113],[5.914285,50.54912],[5.914318,50.549145],[5.91447,50.549171],[5.914595,50.549184],[5.914671,50.549183],[5.914722,50.549188],[5.914783,50.549254],[5.91488,50.549392],[5.914954,50.549396],[5.914967,50.549404],[5.914952,50.549434],[5.914954,50.54946],[5.915175,50.549496],[5.915195,50.549501],[5.915196,50.54952],[5.915168,50.549574],[5.91517,50.549581],[5.915176,50.549608],[5.915176,50.549625],[5.915172,50.549637],[5.915091,50.549652],[5.915108,50.549696],[5.915149,50.54975],[5.915168,50.549779],[5.915183,50.549851],[5.915189,50.54986],[5.915271,50.549905],[5.91533,50.549887],[5.915368,50.549908],[5.915389,50.54993],[5.915407,50.549973],[5.915405,50.549992],[5.915483,50.550026],[5.915532,50.550041],[5.915627,50.550046],[5.915624,50.5501],[5.915641,50.550119],[5.915687,50.550134],[5.915717,50.550151],[5.915737,50.550175],[5.915754,50.550228],[5.915751,50.550294],[5.915778,50.550302],[5.915805,50.550278],[5.915859,50.550269],[5.916062,50.550205],[5.916105,50.550199],[5.916114,50.550202],[5.916245,50.550257],[5.916297,50.550273],[5.916303,50.550282],[5.916297,50.550324],[5.916296,50.550391],[5.916359,50.550401],[5.916525,50.550399],[5.916561,50.55038],[5.916579,50.550382],[5.916599,50.550397],[5.916607,50.550419],[5.916728,50.550413],[5.916874,50.550424],[5.916909,50.550429],[5.916952,50.550443],[5.916942,50.550489],[5.917012,50.550497],[5.917113,50.550525],[5.917136,50.550569],[5.917155,50.550582],[5.917168,50.550599],[5.917249,50.5506],[5.917258,50.550598],[5.917316,50.550596],[5.917331,50.550603],[5.917435,50.550632],[5.917501,50.550644],[5.917555,50.550643],[5.917616,50.550641],[5.917684,50.550656],[5.917702,50.550674],[5.917711,50.550686],[5.91777,50.550723],[5.917781,50.550754],[5.917833,50.550766],[5.917983,50.550748],[5.918006,50.550749],[5.918121,50.550799],[5.918284,50.550914],[5.918373,50.550952],[5.918439,50.550957],[5.918447,50.550974],[5.918481,50.550992],[5.918561,50.550998],[5.918564,50.55115],[5.91857,50.551174],[5.918656,50.551276],[5.918717,50.551316],[5.918753,50.551317],[5.918832,50.551349],[5.918976,50.551398],[5.918996,50.551411],[5.91909,50.5515],[5.91907,50.551581],[5.919069,50.551667],[5.919265,50.551767],[5.91936,50.551833],[5.919367,50.551873],[5.919424,50.551907],[5.919467,50.551927],[5.919508,50.551927],[5.91953,50.551954],[5.91962,50.551948],[5.919714,50.551931],[5.919809,50.551942],[5.919873,50.551973],[5.919926,50.552025],[5.919932,50.552047],[5.919928,50.55208],[5.91998,50.552113],[5.919988,50.552215],[5.920037,50.552275],[5.920043,50.552299],[5.920068,50.552314],[5.920071,50.552368],[5.920092,50.552474],[5.920178,50.552483],[5.920206,50.552547],[5.920217,50.552599],[5.920251,50.552598],[5.920276,50.552643],[5.920315,50.552642],[5.920362,50.552684],[5.920382,50.552747],[5.920416,50.552749],[5.920442,50.552896],[5.920339,50.552933],[5.92026,50.552953],[5.920183,50.552963],[5.92013,50.552961],[5.920112,50.552966],[5.919983,50.553005],[5.919969,50.55302],[5.919996,50.553034],[5.920009,50.553085],[5.920181,50.553341],[5.920207,50.553393],[5.920235,50.553434],[5.920243,50.553454],[5.920262,50.553573],[5.920244,50.553636],[5.920246,50.553653],[5.920269,50.553745],[5.920302,50.553818],[5.920323,50.553852],[5.920388,50.553959],[5.920414,50.553978],[5.920505,50.554057],[5.920512,50.554086],[5.920487,50.554156],[5.92046,50.554212],[5.920505,50.554342],[5.920591,50.554409],[5.920665,50.554444],[5.920706,50.55445],[5.920742,50.554458],[5.920776,50.554459],[5.9209,50.554523],[5.920993,50.554581],[5.921001,50.554588],[5.921044,50.554619],[5.921069,50.554653],[5.921107,50.554749],[5.921102,50.55478],[5.921103,50.5548],[5.921084,50.55487],[5.921133,50.55487],[5.921157,50.554936],[5.921098,50.555029],[5.921087,50.555058],[5.921069,50.555085],[5.920899,50.555054],[5.920735,50.555057],[5.920511,50.555067],[5.920351,50.55509],[5.920285,50.555112],[5.920136,50.555172],[5.920113,50.555185],[5.919962,50.555282],[5.919843,50.555364],[5.919752,50.55542],[5.919695,50.555435],[5.919405,50.555596],[5.91938,50.5556],[5.919354,50.555618],[5.919346,50.555628],[5.919298,50.555679],[5.919223,50.555748],[5.919115,50.555881],[5.918922,50.556025],[5.918907,50.556038],[5.918858,50.556102],[5.918836,50.556139],[5.918815,50.556185],[5.918794,50.556215],[5.918764,50.556269],[5.918754,50.556302],[5.918753,50.556315],[5.918754,50.55632],[5.91876,50.556344],[5.918747,50.556394],[5.918743,50.556399],[5.918695,50.556474],[5.918654,50.556515],[5.918618,50.55656],[5.918588,50.556586],[5.918516,50.556668],[5.918489,50.556713],[5.918464,50.556764],[5.918421,50.556823],[5.918414,50.556838],[5.918386,50.556882],[5.918356,50.556946],[5.918347,50.556958],[5.918314,50.557005],[5.918281,50.557036],[5.91825,50.55707],[5.91821,50.557179],[5.918181,50.557248],[5.918139,50.557329],[5.918066,50.557444],[5.918022,50.557487],[5.917969,50.557523],[5.917914,50.557565],[5.917901,50.557578],[5.917865,50.557645],[5.917839,50.55771],[5.917802,50.557778],[5.917725,50.557862],[5.917717,50.557873],[5.917709,50.557899],[5.917634,50.558003],[5.91755,50.558126],[5.917484,50.558207],[5.917472,50.55832],[5.917431,50.558377],[5.917388,50.558468],[5.91737,50.558498],[5.917334,50.558541],[5.917249,50.558623],[5.917231,50.558654],[5.917121,50.558703],[5.917093,50.558747],[5.917072,50.558758],[5.916985,50.558837],[5.916984,50.558872],[5.916977,50.558891],[5.916965,50.558911],[5.916945,50.558964],[5.916927,50.558999],[5.916899,50.559092],[5.916851,50.559185],[5.916847,50.559255],[5.91682,50.559317],[5.916783,50.559401],[5.916631,50.559683],[5.916632,50.559769],[5.91662,50.559792],[5.916388,50.560238],[5.916127,50.560613],[5.915479,50.561537],[5.915124,50.562044],[5.914579,50.562818],[5.914321,50.563095],[5.914279,50.563132],[5.912982,50.564326],[5.912932,50.564376],[5.912871,50.564431],[5.911034,50.566107],[5.91005,50.566997]]]}}
