{"type":"Feature","properties":{"mrgid":30289,"name":"Vema Fan Drift","placeType":"Drift","source":"World:drifts"},"geometry":{"type":"Polygon","coordinates":[[[-38.308,-27.369884],[-38.320517,-27.527248],[-38.345553,-27.580895],[-38.377741,-27.638119],[-38.522588,-27.784754],[-38.544046,-27.836612],[-38.501129,-27.852706],[-38.240047,-27.8992],[-37.717884,-27.902777],[-37.471108,-27.915294],[-37.283343,-27.872377],[-37.227908,-27.845553],[-37.142073,-27.797271],[-37.11525,-27.770448],[-37.099155,-27.732895],[-37.083061,-27.650636],[-37.052661,-27.38419],[-37.127767,-27.173178],[-37.30659,-27.056943],[-37.481837,-26.980049],[-37.878824,-26.899579],[-37.957507,-26.928191],[-37.996848,-26.956802],[-38.191765,-27.200002],[-38.238259,-27.248284],[-38.308,-27.369884]]]}}
