{"type":"Feature","properties":{"mrgid":30309,"name":"Northern Valentin Feilberg Terrace Drift","placeType":"Drift","source":"World:drifts"},"geometry":{"type":"MultiPolygon","coordinates":[[[[-57.281135,-47.076194],[-57.245371,-47.033276],[-57.088006,-46.91883],[-56.85196,-46.804383],[-56.55869,-46.840147],[-56.186738,-46.790077],[-56.02222,-46.725701],[-55.872009,-46.689936],[-55.821938,-46.718548],[-55.80048,-46.711395],[-55.779021,-46.668477],[-55.786174,-46.532572],[-55.836244,-46.425278],[-55.857703,-46.33229],[-55.857703,-46.246455],[-55.879162,-46.16062],[-55.929232,-46.046173],[-55.979303,-45.960338],[-56.115208,-45.838738],[-56.150973,-45.79582],[-56.329796,-45.674221],[-56.387019,-45.616997],[-56.472855,-45.581233],[-56.587301,-45.509703],[-56.637372,-45.388104],[-56.637372,-45.273657],[-56.601607,-45.20928],[-56.60876,-45.15921],[-56.651678,-45.123445],[-56.701748,-45.123445],[-56.766125,-45.137751],[-56.794736,-45.180669],[-56.816195,-45.237892],[-56.866266,-45.287963],[-56.894877,-45.366645],[-56.894877,-45.473939],[-56.930642,-45.50255],[-56.966406,-45.545468],[-57.037936,-45.695679],[-57.180994,-46.081937],[-57.166688,-46.146314],[-57.180994,-46.232149],[-57.223912,-46.275066],[-57.266829,-46.360901],[-57.231065,-46.489654],[-57.252523,-46.589795],[-57.245371,-46.704242],[-57.259676,-46.782924],[-57.3169,-46.832995],[-57.3169,-46.890218],[-57.273982,-46.976053],[-57.281135,-47.076194]]],[[[-57.567252,-47.691346],[-57.502876,-47.669887],[-57.517182,-47.605511],[-57.545793,-47.548287],[-57.595864,-47.50537],[-57.595864,-47.226405],[-57.552946,-47.061888],[-57.574405,-46.897371],[-57.538641,-46.8473],[-57.545793,-46.79723],[-57.567252,-46.754312],[-57.588711,-46.682783],[-57.581558,-46.582642],[-57.531488,-46.482501],[-57.510029,-46.418125],[-57.495723,-46.024714],[-57.445652,-45.931726],[-57.338359,-45.767209],[-57.281135,-45.616997],[-57.231065,-45.380951],[-57.173841,-45.259351],[-57.109465,-45.237892],[-56.980712,-45.123445],[-56.844807,-45.044763],[-56.630219,-44.880246],[-56.60876,-44.808717],[-56.572996,-44.74434],[-56.465702,-44.615588],[-56.458549,-44.508294],[-56.472855,-44.393847],[-56.594454,-44.10773],[-56.587301,-44.057659],[-56.422784,-44.000436],[-56.329796,-43.98613],[-56.236808,-43.98613],[-55.979303,-44.021895],[-55.929232,-43.978977],[-55.950691,-43.943213],[-56.015067,-43.914601],[-56.050832,-43.907448],[-56.108055,-43.86453],[-56.236808,-43.857377],[-56.372714,-43.793001],[-56.565843,-43.785848],[-56.687442,-43.800154],[-56.73036,-43.81446],[-56.909183,-43.98613],[-57.037936,-44.129189],[-57.223912,-44.308012],[-57.309747,-44.443917],[-57.402735,-44.544058],[-57.48857,-44.658505],[-57.495723,-44.758646],[-57.524335,-44.86594],[-57.560099,-44.958928],[-57.603017,-45.03761],[-57.624476,-45.109139],[-57.746075,-45.15921],[-57.839063,-45.216433],[-57.881981,-45.28081],[-57.874828,-45.545468],[-57.932051,-45.774362],[-57.917746,-45.86735],[-57.896287,-45.938879],[-57.896287,-46.153467],[-57.910593,-46.275066],[-57.946357,-46.418125],[-57.95351,-46.496807],[-57.939204,-46.575489],[-57.939204,-46.661324],[-57.967816,-46.782924],[-57.967816,-46.875912],[-57.989275,-47.040429],[-57.967816,-47.154876],[-57.910593,-47.340852],[-57.881981,-47.519675],[-57.824758,-47.598358],[-57.738922,-47.612663],[-57.66024,-47.648428],[-57.617323,-47.712804],[-57.524335,-47.712804],[-57.567252,-47.691346]]]]}}
