{"type":"Feature","properties":{"mrgid":30399,"name":"North Weddell Sea Drift","placeType":"Drift","source":"World:drifts"},"geometry":{"type":"Polygon","coordinates":[[[-53.170071,-64.279908],[-52.990116,-64.285532],[-52.827031,-64.246166],[-52.52898,-64.234919],[-52.275918,-64.234919],[-51.713559,-64.139318],[-51.544851,-64.099953],[-51.432379,-64.038093],[-51.336777,-64.021222],[-51.331154,-63.993104],[-51.376143,-63.953739],[-51.488615,-63.936868],[-51.634828,-63.897503],[-51.730429,-63.852515],[-51.781042,-63.801902],[-51.758547,-63.745666],[-51.556098,-63.700677],[-51.550474,-63.638818],[-51.511109,-63.560087],[-51.454873,-63.503851],[-51.376143,-63.447615],[-51.426755,-63.425121],[-51.522356,-63.402627],[-51.561721,-63.385756],[-51.826031,-63.318273],[-51.932879,-63.318273],[-52.135328,-63.335143],[-52.37152,-63.436368],[-52.461497,-63.503851],[-52.523357,-63.582582],[-52.59084,-63.644441],[-52.686441,-63.678183],[-52.81016,-63.683807],[-53.040728,-63.740043],[-53.130705,-63.790655],[-53.170071,-63.89188],[-53.186941,-64.009975],[-53.186941,-64.156189],[-53.170071,-64.279908]]]}}
