{"type":"Feature","properties":{"mrgid":3081,"name":"Sambreville","placeType":"Commune","source":"Belgium:belgium_municipalities"},"geometry":{"type":"Polygon","coordinates":[[[4.626899,50.488701],[4.626585,50.48877],[4.626452,50.488798],[4.626411,50.488824],[4.626255,50.488912],[4.626197,50.488945],[4.626127,50.489065],[4.626091,50.48915],[4.62607,50.489213],[4.626071,50.489259],[4.626058,50.489294],[4.62602,50.489335],[4.625871,50.489473],[4.625834,50.489524],[4.625802,50.489606],[4.625843,50.48981],[4.625905,50.490007],[4.625909,50.490036],[4.625881,50.490082],[4.625884,50.490121],[4.625917,50.490205],[4.625962,50.490302],[4.625976,50.490351],[4.625984,50.490369],[4.626052,50.490552],[4.626079,50.490628],[4.62611,50.490681],[4.626343,50.490801],[4.626467,50.49088],[4.6265,50.490914],[4.626537,50.490947],[4.626617,50.491089],[4.626988,50.491438],[4.627221,50.491669],[4.627217,50.491715],[4.627168,50.491857],[4.627138,50.491878],[4.626821,50.492034],[4.626104,50.492387],[4.625778,50.492612],[4.623808,50.492359],[4.622457,50.492137],[4.620877,50.491845],[4.618042,50.491213],[4.616468,50.490821],[4.613628,50.490143],[4.611551,50.489553],[4.609857,50.489069],[4.608726,50.488742],[4.605415,50.487859],[4.603871,50.487396],[4.600431,50.486454],[4.596609,50.4854],[4.592386,50.484205],[4.592404,50.484193],[4.592698,50.483868],[4.592728,50.483849],[4.592761,50.483829],[4.594215,50.482946],[4.59451,50.482765],[4.594755,50.482598],[4.594957,50.482458],[4.59527,50.482137],[4.595493,50.481871],[4.595526,50.481828],[4.595794,50.481492],[4.596262,50.480903],[4.596377,50.480741],[4.59643,50.480695],[4.597119,50.480093],[4.59743,50.480221],[4.597648,50.480277],[4.598055,50.480417],[4.598129,50.480429],[4.598172,50.480438],[4.598252,50.48043],[4.598268,50.480334],[4.598332,50.480285],[4.598451,50.4803],[4.598705,50.4801],[4.598829,50.480032],[4.598998,50.479931],[4.599043,50.479888],[4.598725,50.479799],[4.598228,50.479647],[4.598601,50.479054],[4.598527,50.479027],[4.598191,50.478905],[4.598109,50.47888],[4.598584,50.47847],[4.599123,50.478019],[4.599352,50.477826],[4.59926,50.477771],[4.600027,50.477253],[4.599983,50.477215],[4.600713,50.476718],[4.60074,50.476703],[4.600593,50.476543],[4.600468,50.476395],[4.600317,50.476221],[4.600215,50.476134],[4.599733,50.475733],[4.599322,50.475395],[4.599074,50.475189],[4.59896,50.475066],[4.598917,50.475028],[4.598866,50.474944],[4.598834,50.474847],[4.598907,50.474781],[4.599072,50.474703],[4.599305,50.474637],[4.599769,50.474427],[4.599703,50.474227],[4.59949,50.473994],[4.599125,50.47361],[4.599028,50.473424],[4.598881,50.473232],[4.598556,50.472833],[4.598377,50.472622],[4.598301,50.472579],[4.598266,50.472541],[4.598226,50.472489],[4.598098,50.472422],[4.597968,50.472424],[4.597732,50.472488],[4.597608,50.472447],[4.597295,50.471893],[4.597203,50.471582],[4.597061,50.471116],[4.596822,50.47038],[4.596709,50.470059],[4.596474,50.469614],[4.596371,50.469475],[4.596083,50.469157],[4.595662,50.468686],[4.595269,50.468229],[4.594959,50.467796],[4.5949,50.467693],[4.594859,50.467578],[4.594809,50.467473],[4.594633,50.467346],[4.594306,50.467164],[4.594051,50.466977],[4.593373,50.466476],[4.592758,50.466015],[4.591378,50.465043],[4.590876,50.464709],[4.590245,50.464244],[4.590102,50.464137],[4.590061,50.463858],[4.589145,50.463606],[4.587561,50.463193],[4.587147,50.463021],[4.587198,50.462974],[4.587943,50.462267],[4.588611,50.461675],[4.588719,50.461581],[4.588667,50.461391],[4.588607,50.461163],[4.588565,50.461018],[4.588544,50.460943],[4.588542,50.460934],[4.588493,50.460793],[4.588485,50.460764],[4.588298,50.460166],[4.588122,50.459692],[4.588014,50.45945],[4.588001,50.459407],[4.587989,50.459392],[4.588005,50.459311],[4.588084,50.459173],[4.588121,50.459065],[4.588127,50.458899],[4.588141,50.458846],[4.588298,50.458634],[4.588331,50.458472],[4.588306,50.45835],[4.588398,50.458276],[4.588512,50.458134],[4.588527,50.45806],[4.588691,50.457804],[4.588832,50.457678],[4.588896,50.457493],[4.588836,50.457433],[4.588642,50.45734],[4.588215,50.457028],[4.587564,50.456515],[4.586948,50.456074],[4.586848,50.455871],[4.586733,50.455776],[4.586344,50.455527],[4.586078,50.455337],[4.585939,50.455249],[4.585959,50.45518],[4.585832,50.45508],[4.58535,50.454883],[4.584786,50.45457],[4.584627,50.454454],[4.584519,50.454422],[4.584519,50.454391],[4.584438,50.454355],[4.584412,50.454347],[4.584448,50.454425],[4.584468,50.454507],[4.58443,50.454589],[4.584408,50.454709],[4.58437,50.454755],[4.584355,50.454763],[4.584329,50.454772],[4.584037,50.454801],[4.58387,50.454823],[4.583774,50.454827],[4.583755,50.454826],[4.583727,50.454819],[4.583634,50.454786],[4.583613,50.454789],[4.583592,50.454796],[4.583438,50.454864],[4.583352,50.454888],[4.58329,50.454887],[4.583174,50.454858],[4.583032,50.454857],[4.582991,50.454864],[4.582963,50.454869],[4.582859,50.454904],[4.582778,50.454907],[4.582599,50.454892],[4.58242,50.45488],[4.58238,50.454876],[4.582216,50.454848],[4.582114,50.454823],[4.581996,50.454762],[4.58195,50.454757],[4.581879,50.454764],[4.581839,50.454766],[4.581795,50.454766],[4.581726,50.454751],[4.581662,50.454736],[4.581588,50.454718],[4.581547,50.454716],[4.581517,50.45472],[4.581498,50.454725],[4.581444,50.454754],[4.581405,50.454762],[4.581392,50.454763],[4.581355,50.454759],[4.581205,50.454713],[4.581144,50.45469],[4.580934,50.45458],[4.580871,50.454562],[4.580833,50.454555],[4.58082,50.454555],[4.580813,50.454559],[4.580796,50.45457],[4.580774,50.454588],[4.580715,50.454598],[4.580697,50.454604],[4.580686,50.454614],[4.580669,50.454662],[4.580639,50.454686],[4.580573,50.454695],[4.580488,50.454661],[4.580466,50.454632],[4.580478,50.454538],[4.580411,50.454491],[4.580327,50.45447],[4.580299,50.454469],[4.580284,50.45447],[4.580237,50.454484],[4.580164,50.454516],[4.580155,50.454529],[4.580153,50.454558],[4.580149,50.454572],[4.580124,50.454581],[4.580097,50.454583],[4.580025,50.454576],[4.579967,50.454564],[4.579852,50.454556],[4.579821,50.454546],[4.579823,50.454452],[4.579748,50.454413],[4.579738,50.45441],[4.579704,50.454417],[4.579649,50.454463],[4.579546,50.454478],[4.579522,50.454479],[4.579485,50.454475],[4.579452,50.454479],[4.579316,50.454511],[4.579145,50.454534],[4.579021,50.454602],[4.578823,50.454614],[4.578454,50.454619],[4.578242,50.454518],[4.578232,50.454473],[4.578181,50.454465],[4.578118,50.454489],[4.578118,50.454492],[4.578095,50.454499],[4.578023,50.4545],[4.577904,50.454487],[4.577804,50.454465],[4.57773,50.454441],[4.577615,50.454446],[4.577566,50.454466],[4.577517,50.454472],[4.577451,50.454465],[4.577347,50.454418],[4.577236,50.454379],[4.577146,50.454372],[4.577051,50.454354],[4.576976,50.454327],[4.576883,50.454311],[4.576815,50.454292],[4.576731,50.454246],[4.576681,50.45423],[4.576597,50.454228],[4.576481,50.454203],[4.57629,50.454181],[4.576228,50.454167],[4.576163,50.454131],[4.576092,50.454116],[4.576035,50.454123],[4.575967,50.454105],[4.575871,50.454095],[4.575695,50.454025],[4.575634,50.454022],[4.575598,50.454017],[4.575557,50.454004],[4.57545,50.453997],[4.575288,50.453963],[4.575166,50.453944],[4.575037,50.45392],[4.574591,50.453827],[4.57449,50.453812],[4.573953,50.453808],[4.573863,50.453838],[4.573683,50.453898],[4.573446,50.453976],[4.57334,50.454014],[4.573244,50.454042],[4.573195,50.454051],[4.573119,50.454054],[4.573089,50.454016],[4.573077,50.453821],[4.573078,50.4537],[4.573081,50.453677],[4.573088,50.453668],[4.573153,50.453537],[4.573216,50.4535],[4.573929,50.453246],[4.574046,50.453204],[4.574428,50.453065],[4.574659,50.452981],[4.574738,50.452955],[4.575065,50.452847],[4.575512,50.452701],[4.575653,50.452567],[4.575795,50.452466],[4.575898,50.452393],[4.576015,50.452326],[4.576282,50.452224],[4.576961,50.45206],[4.577609,50.451802],[4.577713,50.451739],[4.577812,50.451527],[4.577831,50.451401],[4.578092,50.451179],[4.578374,50.450967],[4.578675,50.450789],[4.578936,50.450643],[4.579371,50.450396],[4.579622,50.449978],[4.579847,50.449548],[4.579926,50.449437],[4.580089,50.449285],[4.580696,50.44881],[4.581026,50.448569],[4.581545,50.448344],[4.581757,50.448242],[4.582009,50.448175],[4.582172,50.448109],[4.582311,50.448055],[4.582419,50.447944],[4.582695,50.447624],[4.582808,50.447498],[4.583104,50.447137],[4.583251,50.446947],[4.583394,50.446709],[4.583713,50.446247],[4.584038,50.445782],[4.583929,50.445696],[4.583583,50.445546],[4.581532,50.444658],[4.581343,50.444608],[4.581327,50.444602],[4.581372,50.444389],[4.581458,50.444273],[4.581471,50.444147],[4.581485,50.444024],[4.581491,50.443967],[4.581507,50.443756],[4.581518,50.443646],[4.581539,50.44343],[4.581547,50.443321],[4.581556,50.44321],[4.581576,50.442965],[4.581578,50.442941],[4.581641,50.442294],[4.581654,50.442164],[4.581512,50.442128],[4.581295,50.442071],[4.580577,50.441861],[4.578526,50.441292],[4.578401,50.441283],[4.576878,50.44165],[4.576175,50.441831],[4.575261,50.44201],[4.574414,50.442167],[4.573905,50.442281],[4.573789,50.442317],[4.572892,50.442573],[4.572883,50.442536],[4.572816,50.442227],[4.572754,50.442199],[4.572715,50.442156],[4.572676,50.441908],[4.573098,50.441666],[4.573573,50.441355],[4.574449,50.440672],[4.575054,50.440078],[4.575561,50.439573],[4.576601,50.438711],[4.577573,50.43853],[4.578369,50.438358],[4.57852,50.438347],[4.579019,50.438313],[4.579546,50.438298],[4.579835,50.438292],[4.580275,50.438321],[4.580583,50.438373],[4.581522,50.438626],[4.582057,50.438693],[4.5823,50.43871],[4.582761,50.438758],[4.582936,50.438755],[4.583178,50.438656],[4.583735,50.438587],[4.583933,50.4385],[4.584075,50.438389],[4.584431,50.437772],[4.584521,50.437599],[4.584614,50.437331],[4.584653,50.437093],[4.58465,50.437021],[4.584657,50.436958],[4.584671,50.436774],[4.584703,50.436633],[4.58474,50.436515],[4.58475,50.436271],[4.584728,50.435788],[4.584719,50.435595],[4.584699,50.435269],[4.584658,50.435085],[4.584226,50.434588],[4.584005,50.434159],[4.583845,50.433967],[4.583501,50.43375],[4.583357,50.433721],[4.583052,50.433625],[4.581751,50.433432],[4.581582,50.433359],[4.581485,50.43326],[4.581366,50.433146],[4.581328,50.432974],[4.581333,50.432894],[4.581399,50.432766],[4.581484,50.432651],[4.581592,50.432544],[4.581685,50.432477],[4.581762,50.432427],[4.582083,50.432328],[4.582633,50.432164],[4.582664,50.432158],[4.583263,50.432002],[4.583546,50.431972],[4.584159,50.431966],[4.584809,50.431666],[4.584979,50.431577],[4.585854,50.431017],[4.586881,50.43087],[4.587005,50.430866],[4.58735,50.430917],[4.587753,50.431111],[4.587811,50.431288],[4.587868,50.431676],[4.587894,50.431818],[4.587925,50.432048],[4.587939,50.432182],[4.58834,50.432481],[4.588787,50.43269],[4.589846,50.432924],[4.590127,50.432996],[4.590717,50.432949],[4.59096,50.432834],[4.592666,50.431855],[4.592887,50.431634],[4.593097,50.431374],[4.593372,50.430913],[4.593815,50.430179],[4.594015,50.429827],[4.594378,50.429528],[4.594512,50.429285],[4.594931,50.428731],[4.595316,50.428536],[4.596016,50.428353],[4.596666,50.428241],[4.598646,50.427893],[4.600332,50.427682],[4.60222,50.427243],[4.603062,50.426982],[4.603336,50.426761],[4.604848,50.426329],[4.605254,50.426283],[4.605579,50.426302],[4.606373,50.426482],[4.606831,50.42665],[4.607539,50.427108],[4.608389,50.427779],[4.61056,50.429193],[4.611202,50.429612],[4.611918,50.429899],[4.613482,50.430328],[4.613607,50.430125],[4.61382,50.429904],[4.613883,50.429817],[4.613893,50.429803],[4.61395,50.429737],[4.614005,50.429666],[4.614158,50.42949],[4.614255,50.429386],[4.614381,50.429238],[4.6144,50.429216],[4.614455,50.429148],[4.614474,50.429127],[4.614512,50.429075],[4.614532,50.429041],[4.614581,50.428975],[4.614597,50.428955],[4.614609,50.428938],[4.614636,50.428895],[4.614681,50.428825],[4.614765,50.428699],[4.614802,50.428643],[4.614841,50.428582],[4.614962,50.428389],[4.615051,50.428233],[4.615109,50.428119],[4.615119,50.428099],[4.615132,50.428065],[4.615138,50.42805],[4.615151,50.428025],[4.615173,50.427984],[4.615241,50.427876],[4.615263,50.427844],[4.615258,50.427842],[4.615346,50.427705],[4.6155,50.427404],[4.615513,50.427393],[4.61603,50.426548],[4.616071,50.4265],[4.616107,50.426459],[4.616615,50.425881],[4.61664,50.425852],[4.616705,50.425781],[4.617233,50.425174],[4.617206,50.425118],[4.617169,50.425056],[4.617117,50.424954],[4.616855,50.424439],[4.616692,50.424336],[4.616523,50.424285],[4.615966,50.424121],[4.615393,50.424025],[4.615332,50.424012],[4.614677,50.423868],[4.614105,50.423802],[4.612817,50.422988],[4.612612,50.422862],[4.612494,50.42279],[4.612324,50.422686],[4.612261,50.422647],[4.612024,50.422558],[4.611513,50.422356],[4.611029,50.422145],[4.61083,50.422056],[4.610667,50.421847],[4.610646,50.421813],[4.61039,50.42028],[4.610373,50.420206],[4.609921,50.416966],[4.609512,50.414212],[4.609365,50.413628],[4.609258,50.413293],[4.609153,50.41277],[4.609088,50.412555],[4.608967,50.412233],[4.608538,50.411505],[4.608566,50.411422],[4.608739,50.410994],[4.608714,50.410897],[4.608582,50.410362],[4.608445,50.410466],[4.608121,50.41029],[4.607508,50.409839],[4.607588,50.409777],[4.607444,50.409608],[4.607433,50.409501],[4.607402,50.409154],[4.607805,50.4087],[4.607875,50.408612],[4.607976,50.408387],[4.608037,50.408255],[4.608333,50.407533],[4.608606,50.406856],[4.608619,50.406818],[4.608671,50.406617],[4.608723,50.406418],[4.608833,50.405956],[4.608941,50.405532],[4.608959,50.405441],[4.60915,50.404393],[4.609318,50.403417],[4.609377,50.403066],[4.609393,50.403056],[4.609982,50.402835],[4.610185,50.402758],[4.611043,50.402306],[4.611066,50.402295],[4.611013,50.402126],[4.611035,50.402115],[4.611204,50.402008],[4.611821,50.401642],[4.611874,50.401577],[4.611935,50.401536],[4.612024,50.401504],[4.612098,50.401448],[4.612427,50.400961],[4.612658,50.400717],[4.612814,50.400543],[4.612832,50.400505],[4.612849,50.400498],[4.612996,50.400395],[4.613042,50.400373],[4.613076,50.400362],[4.613091,50.400357],[4.613159,50.400349],[4.613212,50.400349],[4.613488,50.400432],[4.613671,50.400482],[4.613786,50.4005],[4.613896,50.400517],[4.614059,50.400549],[4.61421,50.400582],[4.614448,50.400679],[4.614577,50.400724],[4.614748,50.400737],[4.614817,50.400742],[4.615187,50.400817],[4.615489,50.400856],[4.615623,50.400922],[4.616078,50.401138],[4.616228,50.401204],[4.616537,50.401342],[4.616983,50.401561],[4.617164,50.401647],[4.617467,50.401722],[4.617847,50.40195],[4.617862,50.401958],[4.618219,50.402155],[4.618495,50.402286],[4.618644,50.402345],[4.619001,50.402443],[4.619134,50.402532],[4.619406,50.402642],[4.619568,50.402716],[4.619847,50.402847],[4.620269,50.40306],[4.620533,50.403179],[4.620623,50.403214],[4.620851,50.403297],[4.621017,50.403375],[4.62154,50.403736],[4.621519,50.403841],[4.621891,50.404056],[4.621999,50.404155],[4.622166,50.404225],[4.622292,50.4043],[4.622338,50.404332],[4.622457,50.404424],[4.622543,50.404479],[4.622629,50.404541],[4.6228,50.404642],[4.622915,50.404722],[4.623079,50.404932],[4.623185,50.404996],[4.623309,50.405181],[4.623478,50.405514],[4.62351,50.405667],[4.623645,50.405715],[4.623733,50.405754],[4.623782,50.405786],[4.62379,50.405854],[4.623767,50.406064],[4.62396,50.406163],[4.625026,50.405953],[4.625239,50.40609],[4.625585,50.406308],[4.625757,50.406331],[4.626161,50.406347],[4.626304,50.406352],[4.626334,50.406347],[4.626459,50.406325],[4.626526,50.406305],[4.626605,50.406294],[4.62664,50.406289],[4.626747,50.406255],[4.626783,50.406246],[4.626824,50.406242],[4.626943,50.406205],[4.627018,50.406188],[4.627204,50.40614],[4.627241,50.406146],[4.627433,50.406171],[4.627982,50.406269],[4.628217,50.406443],[4.628408,50.406588],[4.628566,50.406714],[4.628826,50.406885],[4.629534,50.40722],[4.629793,50.407457],[4.630041,50.407557],[4.630385,50.407701],[4.630907,50.407928],[4.631265,50.408151],[4.631646,50.408261],[4.632191,50.408578],[4.632506,50.408747],[4.632649,50.408933],[4.632752,50.409055],[4.633248,50.409308],[4.63351,50.40937],[4.634086,50.409763],[4.634178,50.410021],[4.634672,50.41024],[4.635029,50.410526],[4.635357,50.410723],[4.635641,50.410909],[4.636132,50.411181],[4.636418,50.411403],[4.637164,50.411806],[4.637512,50.412016],[4.637794,50.412194],[4.638029,50.412331],[4.638418,50.412535],[4.638914,50.41278],[4.639715,50.413203],[4.640888,50.413785],[4.641309,50.413977],[4.64166,50.414195],[4.642227,50.414472],[4.642644,50.414685],[4.643183,50.414947],[4.643758,50.415236],[4.644042,50.415442],[4.644183,50.415543],[4.644306,50.415609],[4.644555,50.41572],[4.644955,50.415978],[4.645193,50.416149],[4.645717,50.416552],[4.646001,50.416791],[4.6462,50.417053],[4.646308,50.417328],[4.646361,50.417498],[4.646411,50.417715],[4.646453,50.417962],[4.646497,50.418194],[4.646677,50.418787],[4.646902,50.419516],[4.64733,50.420941],[4.647751,50.421061],[4.647842,50.421081],[4.648054,50.421128],[4.648291,50.421173],[4.648527,50.421224],[4.648769,50.421276],[4.649361,50.421411],[4.649725,50.421471],[4.64984,50.421452],[4.649955,50.421619],[4.650131,50.421846],[4.650202,50.421908],[4.650049,50.422033],[4.649842,50.422256],[4.649757,50.422374],[4.649551,50.42263],[4.649387,50.422803],[4.649221,50.423001],[4.649101,50.423155],[4.648979,50.423286],[4.648866,50.423407],[4.648752,50.42353],[4.648626,50.423664],[4.648504,50.423793],[4.648252,50.424041],[4.648101,50.42419],[4.647988,50.424323],[4.64782,50.424524],[4.647692,50.424712],[4.64763,50.424865],[4.647623,50.424889],[4.647618,50.424889],[4.647608,50.424916],[4.647601,50.424963],[4.64763,50.42497],[4.647813,50.425022],[4.647934,50.425048],[4.647964,50.425056],[4.64818,50.425114],[4.648299,50.42514],[4.648423,50.425167],[4.648534,50.425191],[4.648828,50.425254],[4.649423,50.425375],[4.650314,50.425558],[4.650441,50.425586],[4.650554,50.425577],[4.65076,50.425564],[4.651086,50.425571],[4.651118,50.425502],[4.65116,50.425393],[4.651417,50.424776],[4.651609,50.424475],[4.651827,50.423878],[4.652341,50.423174],[4.653674,50.422865],[4.653999,50.422637],[4.654099,50.422561],[4.654209,50.422448],[4.654355,50.422291],[4.65443,50.422189],[4.654613,50.421967],[4.654685,50.421897],[4.654763,50.421834],[4.654889,50.421763],[4.655219,50.421577],[4.655658,50.421342],[4.656095,50.421112],[4.656279,50.421026],[4.656405,50.420975],[4.656552,50.420929],[4.656905,50.420763],[4.657057,50.420675],[4.657533,50.420566],[4.657721,50.420523],[4.657802,50.4205],[4.658213,50.420345],[4.658328,50.420302],[4.658454,50.42022],[4.65865,50.420089],[4.659257,50.419877],[4.659257,50.419848],[4.659195,50.419231],[4.659182,50.419085],[4.659051,50.418703],[4.65904,50.41867],[4.658991,50.418485],[4.658961,50.418329],[4.658957,50.418261],[4.659001,50.418196],[4.659524,50.417294],[4.659549,50.41723],[4.659593,50.417142],[4.660015,50.41694],[4.660251,50.416802],[4.66031,50.416819],[4.66145,50.416943],[4.661541,50.416935],[4.661604,50.416933],[4.661808,50.416941],[4.662015,50.416961],[4.66215,50.416974],[4.662548,50.417012],[4.663741,50.416929],[4.663923,50.41697],[4.663983,50.417161],[4.664458,50.417257],[4.664988,50.417348],[4.666606,50.417596],[4.666676,50.417656],[4.667142,50.417719],[4.66769,50.417782],[4.66776,50.41777],[4.668073,50.41776],[4.668089,50.417762],[4.668307,50.41779],[4.668847,50.417893],[4.669068,50.417922],[4.669334,50.417966],[4.670283,50.41816],[4.670282,50.418189],[4.670266,50.418941],[4.670264,50.419007],[4.670216,50.419504],[4.670214,50.419879],[4.670149,50.420875],[4.670147,50.420904],[4.670123,50.420979],[4.670101,50.420976],[4.669797,50.421497],[4.669772,50.421543],[4.669742,50.421592],[4.669414,50.422204],[4.669089,50.422597],[4.669069,50.42265],[4.668896,50.422817],[4.668777,50.42307],[4.668728,50.423285],[4.668668,50.423626],[4.668523,50.42393],[4.668078,50.424649],[4.66757,50.425116],[4.667248,50.425335],[4.666574,50.425888],[4.666394,50.426162],[4.666373,50.426195],[4.666249,50.42641],[4.665806,50.426844],[4.665168,50.427634],[4.664888,50.428052],[4.664604,50.428505],[4.664359,50.428978],[4.664133,50.429564],[4.664105,50.429666],[4.664005,50.430119],[4.663851,50.430415],[4.66381,50.430531],[4.66375,50.430752],[4.663766,50.43085],[4.663608,50.431019],[4.663454,50.431184],[4.663355,50.431311],[4.663099,50.431725],[4.662984,50.431967],[4.662903,50.432165],[4.662881,50.43222],[4.662774,50.432538],[4.662728,50.432662],[4.662759,50.432697],[4.662658,50.432858],[4.662572,50.432993],[4.662472,50.433204],[4.662335,50.433464],[4.662204,50.433729],[4.662074,50.433987],[4.662035,50.434052],[4.661818,50.434342],[4.661728,50.434591],[4.661624,50.434823],[4.661479,50.435141],[4.661162,50.435806],[4.66081,50.436521],[4.660357,50.437649],[4.660252,50.43778],[4.659308,50.439091],[4.659205,50.439194],[4.658757,50.439883],[4.658742,50.440192],[4.658743,50.440288],[4.658721,50.440532],[4.658718,50.440546],[4.658504,50.440859],[4.6585,50.440858],[4.658278,50.441008],[4.659659,50.441761],[4.661061,50.44239],[4.661758,50.442742],[4.661633,50.442843],[4.661138,50.443165],[4.661137,50.443166],[4.660764,50.443479],[4.659872,50.444027],[4.65987,50.444028],[4.659609,50.44415],[4.659607,50.444151],[4.659535,50.444158],[4.65953,50.444156],[4.658638,50.443709],[4.658438,50.443731],[4.658096,50.443874],[4.658005,50.443817],[4.657999,50.443812],[4.657896,50.443698],[4.657893,50.443695],[4.657828,50.443719],[4.657797,50.443695],[4.657514,50.443786],[4.657113,50.443932],[4.656735,50.444071],[4.656361,50.44422],[4.65584,50.444415],[4.655557,50.444508],[4.654805,50.444787],[4.65434,50.444959],[4.654155,50.445044],[4.653712,50.445204],[4.652232,50.445742],[4.651848,50.446011],[4.651783,50.44611],[4.651639,50.446226],[4.65161,50.446289],[4.651562,50.4465],[4.651432,50.446624],[4.651247,50.446762],[4.651036,50.446915],[4.650936,50.446982],[4.650737,50.447075],[4.650647,50.447118],[4.650521,50.44717],[4.650296,50.44727],[4.650102,50.447357],[4.649889,50.44744],[4.649512,50.447599],[4.649115,50.447757],[4.648662,50.447919],[4.64857,50.447949],[4.648198,50.448043],[4.648121,50.44806],[4.648069,50.448071],[4.647936,50.448089],[4.647804,50.448107],[4.64766,50.448121],[4.647576,50.448139],[4.64738,50.448165],[4.647081,50.448213],[4.64708,50.448217],[4.646492,50.448287],[4.646239,50.44833],[4.646082,50.448393],[4.645889,50.448467],[4.645621,50.448568],[4.645457,50.448631],[4.645109,50.448766],[4.644892,50.448946],[4.644687,50.449093],[4.644563,50.449162],[4.644476,50.449271],[4.644404,50.449362],[4.644389,50.449423],[4.644393,50.449457],[4.644296,50.449523],[4.644135,50.449672],[4.64412,50.449689],[4.644015,50.449847],[4.643912,50.45001],[4.643858,50.450084],[4.643808,50.450156],[4.64373,50.450302],[4.64369,50.450381],[4.643635,50.450538],[4.643617,50.450576],[4.643616,50.450578],[4.643616,50.450578],[4.64361,50.450589],[4.643573,50.450789],[4.643549,50.45095],[4.643515,50.451113],[4.643504,50.451208],[4.64346,50.451404],[4.64344,50.451489],[4.643424,50.45158],[4.643405,50.451671],[4.643366,50.451764],[4.643288,50.451854],[4.643184,50.451949],[4.642975,50.452134],[4.642773,50.45232],[4.642503,50.452567],[4.64235,50.452691],[4.642187,50.452833],[4.642088,50.452925],[4.641925,50.453074],[4.64185,50.453125],[4.641741,50.453194],[4.641467,50.453351],[4.641252,50.453482],[4.641058,50.453644],[4.640815,50.453784],[4.640665,50.453906],[4.640507,50.454024],[4.640406,50.454098],[4.640218,50.454213],[4.639955,50.454366],[4.639817,50.454451],[4.639649,50.45456],[4.639591,50.454614],[4.639504,50.45468],[4.639431,50.454757],[4.639301,50.454889],[4.639215,50.454992],[4.639073,50.455119],[4.638882,50.455286],[4.638779,50.455368],[4.638654,50.455471],[4.638447,50.45562],[4.638329,50.455755],[4.638014,50.455999],[4.637893,50.456101],[4.637824,50.456274],[4.637691,50.456464],[4.637679,50.456525],[4.637546,50.456717],[4.637381,50.457035],[4.637295,50.457212],[4.637177,50.457442],[4.637109,50.457577],[4.637022,50.457755],[4.636959,50.457862],[4.636831,50.458062],[4.636688,50.458245],[4.636628,50.458314],[4.636432,50.458491],[4.6363,50.458606],[4.636156,50.458732],[4.635875,50.458973],[4.635747,50.459085],[4.635567,50.45926],[4.635455,50.459511],[4.63539,50.459679],[4.635273,50.459925],[4.635162,50.460102],[4.635055,50.46026],[4.634832,50.460584],[4.634693,50.460804],[4.634518,50.461176],[4.634454,50.46131],[4.634229,50.461753],[4.634026,50.462084],[4.63373,50.462566],[4.633533,50.462889],[4.633489,50.462995],[4.633441,50.463699],[4.633417,50.464244],[4.633382,50.464626],[4.633343,50.464822],[4.633314,50.465184],[4.63326,50.466036],[4.633234,50.466563],[4.633277,50.466608],[4.633569,50.46681],[4.633862,50.467],[4.63422,50.467229],[4.634479,50.467399],[4.634698,50.46756],[4.635159,50.46797],[4.635419,50.468407],[4.635458,50.468503],[4.635465,50.468574],[4.635514,50.468663],[4.635616,50.468826],[4.635823,50.469219],[4.636071,50.469715],[4.636125,50.469818],[4.636181,50.469901],[4.636188,50.469951],[4.636463,50.470535],[4.636516,50.470647],[4.636596,50.470804],[4.636638,50.470864],[4.636693,50.470942],[4.636825,50.471089],[4.636919,50.471195],[4.63714,50.471404],[4.637509,50.471753],[4.638104,50.47229],[4.638212,50.472378],[4.638936,50.472893],[4.639552,50.47332],[4.640388,50.473906],[4.640857,50.474375],[4.641534,50.475193],[4.641652,50.475352],[4.64182,50.475559],[4.642093,50.475642],[4.642512,50.475772],[4.642781,50.475858],[4.642948,50.475919],[4.642981,50.475945],[4.642993,50.475978],[4.643037,50.476067],[4.643225,50.476493],[4.643241,50.476528],[4.643278,50.476631],[4.643314,50.47673],[4.643384,50.476924],[4.643441,50.477098],[4.643455,50.477154],[4.643458,50.477185],[4.64343,50.477345],[4.643408,50.477383],[4.642858,50.478012],[4.642732,50.478153],[4.642605,50.478303],[4.642397,50.478572],[4.642156,50.47887],[4.641672,50.479376],[4.641556,50.479492],[4.64128,50.47977],[4.641232,50.479824],[4.640899,50.480216],[4.640809,50.480291],[4.640306,50.480764],[4.639396,50.481601],[4.638948,50.48203],[4.638855,50.482092],[4.638597,50.482314],[4.638496,50.482395],[4.638273,50.482605],[4.637795,50.483018],[4.637308,50.483415],[4.636943,50.483675],[4.636214,50.484252],[4.635542,50.484753],[4.635053,50.485151],[4.634395,50.485776],[4.634258,50.486107],[4.634135,50.486216],[4.634051,50.48634],[4.633913,50.486642],[4.633739,50.486784],[4.633554,50.486948],[4.633409,50.486966],[4.633267,50.486972],[4.633061,50.48699],[4.632976,50.487017],[4.632625,50.487187],[4.632428,50.487295],[4.632331,50.487344],[4.63221,50.487447],[4.632153,50.48752],[4.632079,50.487599],[4.631878,50.487748],[4.631655,50.487875],[4.630829,50.488284],[4.630837,50.488347],[4.630795,50.48839],[4.630007,50.489203],[4.629358,50.489015],[4.629038,50.488988],[4.629008,50.488985],[4.628798,50.488956],[4.6288,50.48895],[4.627219,50.488695],[4.626899,50.488701]]]}}
