{"type":"Feature","properties":{"mrgid":31,"name":"Blankenberge","placeType":"Town","source":"Belgium:belgium_municipalities"},"geometry":{"type":"MultiPolygon","coordinates":[[[[3.155896,51.319432],[3.155806,51.319784],[3.155745,51.320021],[3.155647,51.320402],[3.155552,51.320767],[3.155535,51.320829],[3.155424,51.321249],[3.155422,51.321256],[3.155344,51.321631],[3.155091,51.322592],[3.154902,51.323327],[3.153788,51.327702],[3.144327,51.324704],[3.139921,51.323505],[3.136818,51.322941],[3.135528,51.322622],[3.134434,51.3222],[3.132018,51.321094],[3.130021,51.320416],[3.127951,51.319835],[3.125989,51.319395],[3.119482,51.318263],[3.11718,51.317722],[3.113375,51.316458],[3.109594,51.314953],[3.109588,51.314962],[3.109539,51.315039],[3.109481,51.31513],[3.10945,51.315171],[3.109427,51.315195],[3.109407,51.315215],[3.109391,51.315225],[3.109358,51.315231],[3.10933,51.315232],[3.107153,51.314959],[3.10715,51.314959],[3.107147,51.314958],[3.107145,51.314956],[3.107144,51.314954],[3.107144,51.314952],[3.107145,51.31495],[3.107221,51.314838],[3.107247,51.314826],[3.110033,51.312762],[3.110962,51.311855],[3.110962,51.311855],[3.110988,51.31183],[3.111066,51.311753],[3.111143,51.311678],[3.111221,51.311601],[3.111299,51.311526],[3.11135,51.311477],[3.111437,51.311389],[3.112137,51.310704],[3.112817,51.310031],[3.113268,51.309591],[3.113819,51.309057],[3.113869,51.309014],[3.11382,51.309001],[3.113726,51.308976],[3.114149,51.308258],[3.114244,51.308112],[3.114338,51.307983],[3.1146,51.307655],[3.114748,51.307431],[3.114969,51.307138],[3.115139,51.306898],[3.115243,51.306707],[3.115239,51.306496],[3.11518,51.306311],[3.115062,51.30611],[3.114868,51.305941],[3.114681,51.305807],[3.114549,51.305714],[3.11438,51.305564],[3.114233,51.305368],[3.11417,51.305147],[3.114191,51.304985],[3.11429,51.304441],[3.11436,51.304171],[3.114464,51.303693],[3.114451,51.303348],[3.114353,51.302942],[3.114272,51.302599],[3.114237,51.302342],[3.11425,51.302104],[3.11426,51.30192],[3.114244,51.301802],[3.114237,51.301727],[3.113997,51.301599],[3.113815,51.301544],[3.113347,51.301358],[3.113018,51.30137],[3.112868,51.301369],[3.112724,51.301344],[3.112658,51.301323],[3.112602,51.301295],[3.112582,51.301255],[3.112598,51.301219],[3.112611,51.301211],[3.112713,51.301171],[3.11291,51.301098],[3.112959,51.301057],[3.112961,51.30103],[3.112845,51.301003],[3.112712,51.300971],[3.112586,51.300932],[3.112454,51.300894],[3.112366,51.300871],[3.111939,51.300782],[3.111457,51.300584],[3.111181,51.30049],[3.110878,51.300344],[3.110529,51.300176],[3.110426,51.30013],[3.110178,51.300071],[3.109249,51.299873],[3.109076,51.299845],[3.10853,51.299773],[3.108493,51.299755],[3.108427,51.299693],[3.108237,51.299532],[3.108007,51.299497],[3.107863,51.299449],[3.107801,51.299309],[3.107647,51.298991],[3.107523,51.298739],[3.107424,51.298501],[3.107347,51.298141],[3.10726,51.297795],[3.107197,51.297462],[3.107137,51.29732],[3.107151,51.297198],[3.107193,51.297104],[3.107218,51.297041],[3.107248,51.296983],[3.107357,51.296862],[3.107691,51.296599],[3.107735,51.296551],[3.107802,51.2965],[3.107765,51.296362],[3.107707,51.296108],[3.107667,51.295923],[3.107635,51.295734],[3.107586,51.295501],[3.107527,51.295238],[3.107467,51.295133],[3.107357,51.295034],[3.10723,51.294962],[3.107166,51.294857],[3.107125,51.294769],[3.107089,51.294696],[3.106963,51.294662],[3.106846,51.294631],[3.106753,51.294565],[3.106523,51.294384],[3.106448,51.294317],[3.106418,51.294215],[3.106374,51.294071],[3.106346,51.294048],[3.106139,51.293956],[3.106088,51.293931],[3.106071,51.293898],[3.106109,51.293683],[3.106145,51.293473],[3.106117,51.293328],[3.106037,51.293188],[3.10596,51.293181],[3.105798,51.293165],[3.105584,51.293149],[3.105108,51.29309],[3.104841,51.29304],[3.104793,51.293011],[3.104695,51.292902],[3.104554,51.292722],[3.104357,51.292429],[3.104315,51.292376],[3.10436,51.292301],[3.104454,51.292121],[3.104605,51.291835],[3.104823,51.29146],[3.105063,51.291036],[3.105165,51.290844],[3.105255,51.290683],[3.105342,51.290549],[3.105317,51.290451],[3.105185,51.290364],[3.104932,51.290208],[3.104895,51.290021],[3.10488,51.289915],[3.10491,51.28989],[3.104982,51.289828],[3.105202,51.289669],[3.105271,51.289632],[3.105363,51.289658],[3.105818,51.289785],[3.105867,51.289787],[3.105906,51.289768],[3.105909,51.289724],[3.105875,51.289492],[3.105868,51.289352],[3.105872,51.2893],[3.105897,51.289144],[3.105926,51.289001],[3.105977,51.288757],[3.105992,51.288699],[3.106045,51.288481],[3.10609,51.288483],[3.106108,51.288229],[3.106137,51.287938],[3.106201,51.287376],[3.10625,51.286957],[3.106268,51.286804],[3.106274,51.286486],[3.106333,51.286028],[3.106368,51.285766],[3.106408,51.285394],[3.107775,51.285694],[3.107819,51.285692],[3.108409,51.284486],[3.109359,51.284884],[3.110055,51.285177],[3.109833,51.285277],[3.110047,51.285377],[3.110732,51.284923],[3.110793,51.284871],[3.110669,51.284782],[3.110963,51.284646],[3.111535,51.284395],[3.110816,51.284124],[3.110229,51.283898],[3.110067,51.28384],[3.109509,51.283629],[3.109659,51.283443],[3.109214,51.283226],[3.109021,51.283127],[3.108407,51.282822],[3.108755,51.282646],[3.108799,51.282633],[3.108839,51.282638],[3.108899,51.282616],[3.109388,51.282342],[3.110219,51.281891],[3.110549,51.281713],[3.111013,51.28146],[3.111022,51.281451],[3.111034,51.281417],[3.11106,51.281207],[3.111336,51.281253],[3.111927,51.281398],[3.112079,51.281155],[3.112086,51.281143],[3.112109,51.281095],[3.112141,51.281006],[3.112165,51.280914],[3.112174,51.280627],[3.112144,51.280141],[3.112142,51.280084],[3.112127,51.279872],[3.112112,51.279625],[3.112083,51.279178],[3.112087,51.279147],[3.112095,51.279122],[3.112122,51.279116],[3.112177,51.279111],[3.112226,51.279113],[3.112257,51.27911],[3.112317,51.279107],[3.112347,51.279111],[3.112415,51.279129],[3.113215,51.279372],[3.113247,51.279381],[3.113759,51.279521],[3.113888,51.279164],[3.113923,51.279055],[3.114167,51.278244],[3.114186,51.278161],[3.114239,51.277903],[3.114254,51.277841],[3.114358,51.277413],[3.114389,51.277282],[3.114413,51.277182],[3.114414,51.277174],[3.114476,51.276867],[3.114485,51.276817],[3.114524,51.276831],[3.114884,51.276898],[3.115092,51.2769],[3.115322,51.276882],[3.115809,51.276832],[3.11602,51.276786],[3.116093,51.276789],[3.116381,51.276798],[3.116714,51.276822],[3.117925,51.276884],[3.118437,51.276906],[3.119031,51.276929],[3.119279,51.27693],[3.119615,51.276929],[3.119836,51.276919],[3.120126,51.276928],[3.12046,51.276944],[3.120711,51.276955],[3.12105,51.276965],[3.121291,51.27697],[3.121446,51.276973],[3.12165,51.276988],[3.122027,51.276989],[3.122223,51.276988],[3.122408,51.276982],[3.122563,51.276967],[3.122748,51.276941],[3.123136,51.276933],[3.123473,51.276926],[3.123791,51.276913],[3.123981,51.276908],[3.124166,51.276865],[3.124255,51.27682],[3.124452,51.276675],[3.124646,51.276548],[3.124851,51.276502],[3.125097,51.276463],[3.125313,51.276427],[3.125528,51.276429],[3.125578,51.276519],[3.125632,51.276596],[3.125622,51.276701],[3.125713,51.276797],[3.125816,51.27691],[3.125951,51.277058],[3.126108,51.277131],[3.126213,51.277217],[3.126285,51.277237],[3.126357,51.277281],[3.126458,51.277325],[3.126615,51.277383],[3.126703,51.277414],[3.126748,51.277434],[3.126987,51.277567],[3.127342,51.277763],[3.127365,51.277777],[3.127618,51.277872],[3.127627,51.277876],[3.127897,51.277985],[3.128075,51.278051],[3.128181,51.278086],[3.128483,51.278175],[3.128823,51.278269],[3.128907,51.278285],[3.129424,51.278295],[3.130141,51.278303],[3.130169,51.278299],[3.130381,51.278268],[3.13068,51.278218],[3.130702,51.278214],[3.131268,51.278112],[3.131371,51.278094],[3.131402,51.27809],[3.131599,51.278071],[3.131801,51.278068],[3.131903,51.278076],[3.132121,51.278077],[3.132172,51.278079],[3.132284,51.278091],[3.132543,51.278131],[3.132604,51.278148],[3.132727,51.278183],[3.13319,51.278343],[3.133481,51.278449],[3.133685,51.278509],[3.134099,51.278628],[3.134269,51.278684],[3.134397,51.278731],[3.134645,51.278871],[3.134718,51.278926],[3.134825,51.279154],[3.134912,51.279395],[3.134961,51.279505],[3.134904,51.279631],[3.134934,51.279737],[3.134911,51.279796],[3.134816,51.279856],[3.134596,51.280022],[3.134393,51.280176],[3.133981,51.280473],[3.133911,51.280583],[3.133729,51.280702],[3.133647,51.28078],[3.133503,51.280938],[3.133569,51.280949],[3.134456,51.281119],[3.13517,51.281257],[3.136384,51.281531],[3.136448,51.281541],[3.137685,51.281738],[3.139386,51.282052],[3.139393,51.282053],[3.141039,51.281986],[3.142096,51.281948],[3.142283,51.281941],[3.143717,51.28189],[3.144094,51.28188],[3.144135,51.281879],[3.144188,51.281743],[3.144213,51.281677],[3.144242,51.281682],[3.146355,51.282131],[3.146879,51.281491],[3.146971,51.281327],[3.147136,51.281383],[3.14757,51.28154],[3.147663,51.281574],[3.147959,51.281679],[3.148325,51.281815],[3.148361,51.281828],[3.14884,51.282023],[3.14909,51.282125],[3.149096,51.282127],[3.149185,51.282154],[3.149214,51.282158],[3.149617,51.282225],[3.149886,51.282271],[3.15033,51.282346],[3.150659,51.282403],[3.151238,51.282501],[3.151882,51.282609],[3.152345,51.282664],[3.153374,51.283033],[3.15324,51.282315],[3.153139,51.281024],[3.153145,51.280925],[3.15316,51.280764],[3.153181,51.280659],[3.15319,51.28063],[3.153304,51.280646],[3.15532,51.280927],[3.15544,51.280942],[3.156052,51.281114],[3.156174,51.281154],[3.156221,51.28118],[3.156124,51.28172],[3.156097,51.281859],[3.156078,51.281985],[3.156069,51.282119],[3.156086,51.282318],[3.156103,51.282441],[3.156107,51.282697],[3.156098,51.282897],[3.156103,51.283064],[3.156129,51.283354],[3.15614,51.283634],[3.156147,51.283823],[3.156135,51.283983],[3.156097,51.284156],[3.156002,51.284353],[3.155977,51.284454],[3.156003,51.284707],[3.156035,51.284956],[3.156051,51.284991],[3.1561,51.285025],[3.156168,51.28508],[3.156487,51.28532],[3.156504,51.285331],[3.156555,51.285363],[3.156723,51.285458],[3.156958,51.285574],[3.157146,51.285661],[3.15729,51.285714],[3.157711,51.285847],[3.157774,51.285894],[3.157899,51.286024],[3.157941,51.286085],[3.157988,51.286158],[3.158016,51.286215],[3.158059,51.286343],[3.158071,51.286491],[3.158086,51.286708],[3.158084,51.286844],[3.158065,51.287151],[3.158064,51.287182],[3.158085,51.28735],[3.158089,51.287377],[3.158095,51.287454],[3.158125,51.287588],[3.158126,51.287624],[3.158123,51.28777],[3.158114,51.287896],[3.15815,51.287981],[3.158209,51.288095],[3.158366,51.288323],[3.158443,51.288432],[3.158517,51.288544],[3.158542,51.288577],[3.158714,51.288783],[3.158843,51.288932],[3.158878,51.28893],[3.158967,51.288949],[3.159098,51.288975],[3.159749,51.289102],[3.160136,51.289138],[3.161037,51.289296],[3.161569,51.289388],[3.163027,51.289639],[3.163759,51.289762],[3.164431,51.289875],[3.16519,51.290002],[3.165914,51.290124],[3.166269,51.290184],[3.167088,51.290328],[3.168056,51.290498],[3.168296,51.29054],[3.168496,51.290575],[3.168702,51.29061],[3.169072,51.290677],[3.169156,51.29068],[3.169313,51.290691],[3.169387,51.290843],[3.169378,51.290958],[3.169354,51.291079],[3.169313,51.291217],[3.169152,51.291483],[3.169038,51.291654],[3.16888,51.29192],[3.16878,51.292066],[3.168709,51.292144],[3.168531,51.292369],[3.16839,51.292626],[3.168363,51.292773],[3.16831,51.292947],[3.16823,51.293027],[3.168076,51.293151],[3.167834,51.293315],[3.167532,51.293529],[3.167314,51.293743],[3.167078,51.29391],[3.166826,51.294106],[3.166676,51.294249],[3.166439,51.294592],[3.166138,51.294883],[3.165951,51.295226],[3.165891,51.295486],[3.165776,51.296012],[3.16577,51.296046],[3.165893,51.296072],[3.166128,51.296132],[3.166426,51.296208],[3.166773,51.296305],[3.166933,51.296362],[3.166976,51.296383],[3.167058,51.296423],[3.167126,51.296459],[3.167255,51.296534],[3.167394,51.296639],[3.167529,51.29677],[3.167587,51.296858],[3.167638,51.296927],[3.167681,51.296987],[3.167796,51.297103],[3.167883,51.297189],[3.168079,51.297277],[3.168487,51.297467],[3.168826,51.297634],[3.169195,51.297824],[3.169888,51.298131],[3.170137,51.298245],[3.170407,51.298373],[3.170589,51.29847],[3.170986,51.298685],[3.171418,51.298917],[3.171719,51.299078],[3.172331,51.29939],[3.172538,51.299494],[3.173007,51.29973],[3.173105,51.29978],[3.17387,51.300179],[3.174058,51.300282],[3.174138,51.300318],[3.174122,51.300343],[3.17403,51.300488],[3.173895,51.300695],[3.173739,51.300938],[3.173637,51.301101],[3.173622,51.301268],[3.173595,51.301627],[3.173545,51.301957],[3.173485,51.302209],[3.17342,51.302401],[3.173324,51.302688],[3.173197,51.303085],[3.173143,51.303334],[3.173056,51.303646],[3.173035,51.30379],[3.173052,51.304079],[3.173063,51.304353],[3.173356,51.304903],[3.173587,51.305331],[3.173626,51.305468],[3.173647,51.305571],[3.173647,51.305752],[3.173643,51.305778],[3.173552,51.30641],[3.173511,51.306677],[3.173481,51.30677],[3.173318,51.307134],[3.172423,51.308904],[3.172372,51.308981],[3.172298,51.309062],[3.172002,51.309327],[3.171905,51.309434],[3.171847,51.309543],[3.171799,51.309662],[3.171704,51.309952],[3.171616,51.310337],[3.171582,51.310584],[3.171624,51.310619],[3.171666,51.310634],[3.171728,51.310655],[3.171817,51.3107],[3.171887,51.310739],[3.171967,51.310786],[3.17204,51.310832],[3.172081,51.310863],[3.172262,51.311015],[3.172281,51.311032],[3.172454,51.311203],[3.172558,51.311315],[3.172741,51.311536],[3.172797,51.311617],[3.172951,51.311908],[3.173054,51.312119],[3.173011,51.312142],[3.172616,51.312335],[3.172351,51.312465],[3.172306,51.312499],[3.172306,51.312554],[3.172526,51.312906],[3.172569,51.312973],[3.17263,51.313076],[3.17271,51.313221],[3.172749,51.313318],[3.172807,51.313436],[3.17285,51.313606],[3.172924,51.313785],[3.172972,51.313873],[3.17303,51.31393],[3.173081,51.313945],[3.173167,51.313962],[3.173279,51.313974],[3.173416,51.313982],[3.173474,51.313995],[3.173487,51.314104],[3.17351,51.314203],[3.173573,51.31446],[3.173594,51.314531],[3.173602,51.314559],[3.173643,51.314681],[3.173787,51.31497],[3.173799,51.315004],[3.173821,51.315102],[3.173833,51.31516],[3.173839,51.315215],[3.173799,51.315311],[3.17372,51.315433],[3.173551,51.315669],[3.173488,51.315799],[3.173524,51.315856],[3.173612,51.315927],[3.173679,51.315971],[3.174099,51.316243],[3.174221,51.316325],[3.174342,51.316412],[3.175316,51.317114],[3.175321,51.317119],[3.175356,51.317149],[3.175384,51.317161],[3.175559,51.317237],[3.175823,51.317392],[3.175959,51.317482],[3.176021,51.317555],[3.176073,51.317687],[3.176114,51.317779],[3.176147,51.317829],[3.176212,51.317863],[3.176464,51.317961],[3.176538,51.318026],[3.176646,51.318228],[3.176798,51.318429],[3.17703,51.318852],[3.175869,51.319816],[3.175886,51.319842],[3.175792,51.319891],[3.17569,51.319971],[3.175135,51.320403],[3.174455,51.320968],[3.174256,51.321134],[3.173769,51.321545],[3.173606,51.321683],[3.172693,51.322457],[3.1723,51.322789],[3.172085,51.322971],[3.17117,51.322747],[3.169059,51.322252],[3.169021,51.322244],[3.168947,51.322225],[3.168026,51.321989],[3.167963,51.321959],[3.167122,51.321782],[3.166912,51.321725],[3.166804,51.321709],[3.166364,51.321627],[3.166192,51.321584],[3.163707,51.320967],[3.163017,51.320799],[3.162775,51.32074],[3.162513,51.320677],[3.162182,51.320597],[3.161896,51.320528],[3.161148,51.320345],[3.160113,51.320098],[3.159266,51.319896],[3.15852,51.319716],[3.158263,51.319655],[3.157956,51.319582],[3.157623,51.319503],[3.157291,51.319423],[3.157117,51.319383],[3.157,51.319354],[3.15674,51.319287],[3.155999,51.319095],[3.155984,51.319087],[3.155896,51.319432]]],[[[3.15423,51.32635],[3.1094,51.31418],[3.11515,51.30629],[3.10597,51.28517],[3.12511,51.27644],[3.1697,51.2903],[3.17707,51.31825],[3.15423,51.32635]]]]}}
