{"type":"Feature","properties":{"mrgid":3239,"name":"Tamar Estuary","placeType":"Estuary","source":"MarineRegions:world_estuary_delta"},"geometry":{"type":"Polygon","coordinates":[[[-4.23729,50.46499],[-4.21875,50.47433],[-4.236988,50.467227],[-4.239509,50.460521],[-4.229658,50.455679],[-4.216767,50.46429],[-4.198933,50.437155],[-4.204115,50.429052],[-4.227139,50.428922],[-4.221923,50.425062],[-4.209636,50.425625],[-4.211609,50.399326],[-4.228242,50.393191],[-4.234828,50.400598],[-4.231811,50.393851],[-4.254448,50.382732],[-4.268017,50.386558],[-4.273391,50.376155],[-4.288916,50.394066],[-4.301251,50.390908],[-4.303589,50.399316],[-4.302458,50.388359],[-4.27554,50.374292],[-4.250158,50.37588],[-4.232105,50.390163],[-4.209707,50.392699],[-4.192817,50.373473],[-4.23407,50.364119],[-4.217653,50.362795],[-4.214089,50.354904],[-4.196665,50.359119],[-4.203908,50.347128],[-4.180595,50.360308],[-4.170701,50.35815],[-4.166494,50.345544],[-4.199667,50.333337],[-4.188617,50.317456],[-4.11956,50.320275],[-4.121002,50.335773],[-4.128799,50.338867],[-4.12187,50.349637],[-4.132554,50.360078],[-4.11135,50.360702],[-4.099684,50.379432],[-4.084703,50.386475],[-4.102159,50.382041],[-4.115838,50.361074],[-4.132519,50.366009],[-4.165415,50.358545],[-4.166436,50.366494],[-4.182016,50.364573],[-4.192289,50.391076],[-4.204655,50.399375],[-4.192748,50.424171],[-4.179099,50.423121],[-4.190339,50.428782],[-4.166836,50.441946],[-4.155213,50.460124],[-4.186694,50.433817],[-4.215706,50.467713],[-4.223437,50.467188],[-4.229693,50.456579],[-4.23729,50.46499]],[[-4.154867,50.353667],[-4.157571,50.355756],[-4.150413,50.355402],[-4.154867,50.353667]],[[-4.135815,50.333897],[-4.14354,50.332387],[-4.151447,50.333504],[-4.135815,50.333897]],[[-4.156937,50.332888],[-4.159901,50.334707],[-4.152256,50.333337],[-4.156937,50.332888]]]}}
