{"type":"Feature","properties":{"mrgid":32490,"name":"Chignik Bay","placeType":"Bay","source":"MarineRegions:world_bay_gulf"},"geometry":{"type":"Polygon","coordinates":[[[-158.120504,56.469696],[-158.130251,56.459983],[-158.166067,56.465526],[-158.181533,56.455485],[-158.199891,56.462362],[-158.241066,56.46105],[-158.288261,56.479323],[-158.328946,56.482194],[-158.372875,56.459551],[-158.408896,56.45159],[-158.449085,56.409605],[-158.502364,56.380041],[-158.507491,56.369547],[-158.48734,56.334489],[-158.430843,56.342561],[-158.436036,56.333527],[-158.430336,56.326271],[-158.44947,56.297154],[-158.423658,56.312359],[-158.41652,56.33228],[-158.399565,56.325781],[-158.410922,56.301771],[-158.398359,56.293937],[-158.378148,56.300798],[-158.382119,56.31079],[-158.330393,56.326106],[-158.316637,56.315685],[-158.293541,56.315444],[-158.284742,56.304029],[-158.253568,56.305325],[-158.240372,56.293847],[-158.196666,56.286883],[-158.120504,56.469696]],[[-158.427487,56.325657],[-158.422805,56.324433],[-158.42378,56.322893],[-158.427487,56.325657]]]}}
