{"type":"Feature","properties":{"mrgid":32914,"name":"Romsdalsfjord","placeType":"Fjord","source":"MarineRegions:world_bay_gulf"},"geometry":{"type":"Polygon","coordinates":[[[7.381032,62.657654],[7.274902,62.647884],[7.236353,62.651496],[7.221498,62.664929],[7.079098,62.635954],[7.096033,62.630446],[7.090696,62.625886],[7.09937,62.620242],[7.094861,62.614047],[7.108111,62.583317],[7.124785,62.576009],[7.133806,62.55735],[7.125633,62.546996],[7.134468,62.535577],[7.129093,62.526889],[7.139931,62.523561],[7.153571,62.567311],[7.126912,62.605446],[7.146768,62.615352],[7.147575,62.628714],[7.167487,62.631929],[7.230016,62.61068],[7.244131,62.61298],[7.242942,62.6216],[7.261031,62.623214],[7.289083,62.608173],[7.359046,62.607744],[7.378443,62.572703],[7.415042,62.562369],[7.447699,62.532831],[7.472098,62.535815],[7.477431,62.545711],[7.517087,62.542872],[7.508101,62.535557],[7.525756,62.532891],[7.548926,62.497783],[7.565456,62.498974],[7.56039,62.531154],[7.568666,62.536974],[7.658466,62.548963],[7.663387,62.556577],[7.702525,62.553395],[7.692661,62.556735],[7.667367,62.558277],[7.673885,62.561415],[7.665271,62.56407],[7.6844,62.569673],[7.785396,62.573682],[7.727379,62.584884],[7.548808,62.554328],[7.475952,62.566345],[7.454855,62.577846],[7.468706,62.585185],[7.445249,62.584541],[7.415433,62.598274],[7.381032,62.657654]],[[7.301381,62.644986],[7.302107,62.644869],[7.301584,62.644263],[7.301381,62.644986]],[[7.162978,62.635863],[7.154752,62.633687],[7.156777,62.635753],[7.162978,62.635863]],[[7.108841,62.633252],[7.098449,62.631351],[7.102083,62.635966],[7.108841,62.633252]]]}}
