{"type":"Feature","properties":{"mrgid":32977,"name":"Tale Sap","placeType":"Lagoon","source":"MarineRegions:world_bay_gulf"},"geometry":{"type":"Polygon","coordinates":[[[100.442385,7.25059],[100.412453,7.26744],[100.431533,7.278093],[100.431533,7.308157],[100.424899,7.319152],[100.425322,7.359771],[100.404552,7.382117],[100.410732,7.406901],[100.403899,7.462485],[100.412153,7.459414],[100.403545,7.473144],[100.407959,7.495862],[100.395281,7.558594],[100.362368,7.576979],[100.325159,7.578197],[100.294095,7.528916],[100.293596,7.505018],[100.266578,7.52889],[100.264259,7.555844],[100.28004,7.57124],[100.28895,7.595096],[100.306768,7.584718],[100.317124,7.604926],[100.321665,7.663324],[100.311494,7.727451],[100.279611,7.801683],[100.248916,7.78128],[100.210454,7.785126],[100.19048,7.758244],[100.145838,7.727542],[100.148113,7.655109],[100.160427,7.625164],[100.163773,7.586098],[100.17445,7.568734],[100.178176,7.513776],[100.196889,7.505196],[100.206334,7.490246],[100.227405,7.497308],[100.225198,7.467015],[100.254795,7.393618],[100.298447,7.35393],[100.298868,7.339713],[100.313936,7.340454],[100.325954,7.354012],[100.346051,7.342097],[100.361131,7.345094],[100.374255,7.3257],[100.38432,7.275591],[100.400116,7.262201],[100.442385,7.25059]],[[100.395628,7.332755],[100.426451,7.307844],[100.424257,7.286521],[100.41009,7.280297],[100.401141,7.26321],[100.384378,7.278649],[100.381213,7.325861],[100.35217,7.353786],[100.326206,7.355567],[100.321482,7.370434],[100.329757,7.418077],[100.344693,7.424771],[100.340235,7.431678],[100.335108,7.428191],[100.340903,7.46169],[100.334275,7.484408],[100.364427,7.490371],[100.375137,7.504858],[100.388413,7.500767],[100.372923,7.48354],[100.355398,7.482401],[100.351037,7.474725],[100.355729,7.45785],[100.366892,7.459712],[100.369328,7.437368],[100.361307,7.423072],[100.364359,7.409224],[100.346936,7.398019],[100.346665,7.367756],[100.34923,7.359551],[100.364026,7.357867],[100.355696,7.361733],[100.362107,7.388475],[100.389786,7.404288],[100.397114,7.383395],[100.395628,7.332755]],[[100.284468,7.408427],[100.291772,7.400604],[100.289271,7.395797],[100.28189,7.40136],[100.284468,7.408427]],[[100.302124,7.412246],[100.300837,7.412052],[100.300675,7.414236],[100.302124,7.412246]],[[100.297095,7.4243],[100.299056,7.429605],[100.299799,7.429107],[100.297095,7.4243]],[[100.299319,7.431368],[100.29692,7.430129],[100.29681,7.437999],[100.299319,7.431368]],[[100.29196,7.450961],[100.302869,7.479735],[100.305964,7.469002],[100.29196,7.450961]],[[100.386068,7.426679],[100.389263,7.426709],[100.390066,7.42314],[100.386068,7.426679]],[[100.379828,7.40869],[100.382727,7.40819],[100.383063,7.40693],[100.379828,7.40869]],[[100.381828,7.528652],[100.378983,7.526814],[100.377612,7.527772],[100.381828,7.528652]]]}}
