{"type":"Feature","properties":{"mrgid":336,"name":"Eythorne and Shepherdswell","placeType":"Ward","source":"SAIL:sailcommunes"},"geometry":{"type":"Polygon","coordinates":[[[1.231779,51.195392],[1.215659,51.20121],[1.192281,51.183763],[1.153604,51.190879],[1.143773,51.16567],[1.190725,51.153976],[1.203054,51.155083],[1.198652,51.161349],[1.207923,51.170988],[1.240587,51.172347],[1.263299,51.163364],[1.284934,51.171675],[1.275455,51.17824],[1.279362,51.184946],[1.269938,51.187028],[1.286912,51.208697],[1.267657,51.215957],[1.25524,51.207106],[1.240834,51.214068],[1.231779,51.195392]]]}}
