{"type":"Feature","properties":{"mrgid":33865,"name":"Orokolo Bay","placeType":"Gulf","source":"MarineRegions:world_bay_gulf"},"geometry":{"type":"Polygon","coordinates":[[[145.415943,-7.949856],[145.43048,-7.940501],[145.43936,-7.918357],[145.433962,-7.915254],[145.420198,-7.918175],[145.407913,-7.913685],[145.404253,-7.895158],[145.426633,-7.881019],[145.433672,-7.854076],[145.443481,-7.869347],[145.447084,-7.865974],[145.447088,-7.855635],[145.44515,-7.85513],[145.443512,-7.857853],[145.444054,-7.867966],[145.440779,-7.853991],[145.4333,-7.852042],[145.420996,-7.883261],[145.402709,-7.894925],[145.40098,-7.90401],[145.40792,-7.917667],[145.415313,-7.920171],[145.431778,-7.918605],[145.436139,-7.92588],[145.404099,-7.945469],[145.389993,-7.922595],[145.394068,-7.917471],[145.387887,-7.899685],[145.367918,-7.878773],[145.331636,-7.859721],[145.279952,-7.849988],[145.226745,-7.85885],[145.223175,-7.842454],[145.213266,-7.824863],[145.199151,-7.813507],[145.195313,-7.799944],[145.190462,-7.797778],[145.184187,-7.806223],[145.168718,-7.793201],[145.179049,-7.847531],[145.172674,-7.849697],[145.246434,-7.908684],[145.341945,-7.940284],[145.415943,-7.949856]],[[145.424957,-7.943016],[145.418875,-7.942373],[145.427169,-7.93879],[145.424957,-7.943016]],[[145.421885,-7.940237],[145.418816,-7.940966],[145.419526,-7.939764],[145.421885,-7.940237]],[[145.437791,-7.917854],[145.437739,-7.919854],[145.436622,-7.919535],[145.437791,-7.917854]],[[145.392172,-7.91478],[145.37071,-7.900539],[145.362631,-7.87815],[145.386406,-7.899471],[145.392172,-7.91478]],[[145.188056,-7.858333],[145.181111,-7.827778],[145.191667,-7.799444],[145.21,-7.845278],[145.217222,-7.850278],[145.188056,-7.858333]],[[145.183281,-7.816776],[145.180504,-7.820964],[145.181268,-7.810362],[145.183281,-7.816776]],[[145.210572,-7.835041],[145.203953,-7.825486],[145.204152,-7.822391],[145.213402,-7.827694],[145.210572,-7.835041]]]}}
