{"type":"Feature","properties":{"mrgid":33873,"name":"Kerema Bay","placeType":"Bay","source":"MarineRegions:world_bay_gulf"},"geometry":{"type":"Polygon","coordinates":[[[145.784242,-7.98669],[145.776127,-7.970263],[145.759297,-7.960693],[145.782882,-7.954556],[145.799524,-7.960513],[145.796319,-7.975768],[145.817059,-7.985375],[145.797778,-7.974863],[145.801893,-7.959945],[145.775331,-7.940027],[145.793834,-7.927117],[145.812787,-7.900137],[145.789255,-7.914712],[145.768927,-7.94157],[145.746309,-7.933087],[145.75543,-7.925654],[145.753221,-7.911551],[145.749785,-7.915478],[145.753842,-7.925446],[145.734363,-7.930053],[145.726623,-7.94406],[145.695721,-7.940855],[145.718511,-7.948676],[145.731531,-7.946797],[145.743406,-7.938367],[145.751889,-7.939952],[145.757805,-7.948197],[145.709025,-7.958972],[145.784242,-7.98669]],[[145.787469,-7.925136],[145.790309,-7.923601],[145.789886,-7.925879],[145.787469,-7.925136]],[[145.738976,-7.938363],[145.735917,-7.938654],[145.738406,-7.936159],[145.738976,-7.938363]],[[145.732379,-7.94166],[145.734638,-7.943061],[145.73153,-7.945562],[145.732379,-7.94166]]]}}
