{"type":"Feature","properties":{"mrgid":3444,"name":"Menorca","placeType":"Island","source":"Europe:europeislands"},"geometry":{"type":"Polygon","coordinates":[[[3.9236,40.0464],[3.9005,40.0602],[3.8787,40.053],[3.8695,40.0584],[3.8278,40.0533],[3.8093,40.0342],[3.8121,40.0277],[3.7939,40.0207],[3.8008,39.9989],[3.836,40.0019],[3.8271,39.9972],[3.837,39.9951],[3.8347,39.9939],[3.8293,39.9936],[3.8327,39.9807],[3.8408,39.9791],[3.8327,39.9753],[3.8359,39.9612],[3.8268,39.9529],[3.8239,39.9241],[3.9017,39.9232],[3.9391,39.9388],[3.9911,39.9314],[4.065,39.904],[4.0992,39.879],[4.1481,39.8649],[4.2091,39.8255],[4.2201,39.8289],[4.2388,39.8145],[4.2702,39.8096],[4.2888,39.8152],[4.2942,39.8292],[4.3046,39.8322],[4.2996,39.8414],[4.3095,39.85],[4.3067,39.8636],[4.2999,39.8641],[4.3084,39.8657],[4.2974,39.8818],[4.2586,39.8964],[4.2971,39.8913],[4.3115,39.8706],[4.3286,39.8769],[4.3116,39.8809],[4.3094,39.8991],[4.3,39.8975],[4.2871,39.913],[4.2919,39.9171],[4.2754,39.9362],[4.2852,39.9453],[4.2819,39.9517],[4.2667,39.9469],[4.2656,39.9528],[4.2737,39.9547],[4.2712,39.9598],[4.2564,39.9646],[4.268,39.9824],[4.2566,39.9932],[4.2711,39.9972],[4.2213,39.9973],[4.2088,40.0134],[4.2021,40.0065],[4.2068,39.9936],[4.1993,40.0069],[4.2032,40.0142],[4.1945,40.01],[4.2043,40.0193],[4.1949,40.0241],[4.1966,40.0327],[4.189,40.0336],[4.1835,40.0225],[4.1708,40.0278],[4.1727,40.0367],[4.1624,40.0349],[4.1602,40.0462],[4.1679,40.0448],[4.1666,40.0582],[4.1743,40.061],[4.1572,40.0686],[4.1388,40.0673],[4.1425,40.0355],[4.1299,40.0268],[4.1218,40.0366],[4.1352,40.0638],[4.1047,40.0456],[4.0945,40.06],[4.1013,40.085],[4.0942,40.0897],[4.0833,40.0894],[4.0921,40.0823],[4.0905,40.069],[4.0862,40.0746],[4.0781,40.0597],[4.0552,40.0523],[4.034,40.0658],[4.0177,40.0562],[3.9959,40.0593],[3.9807,40.0515],[3.9357,40.0634],[3.9219,40.0577],[3.9236,40.0464]]]}}
