{"type":"Feature","properties":{"mrgid":358,"name":"Headcorn","placeType":"Ward","source":"SAIL:sailcommunes"},"geometry":{"type":"Polygon","coordinates":[[[0.60216,51.189275],[0.56773,51.172967],[0.5932,51.165673],[0.593517,51.153243],[0.601857,51.158955],[0.617113,51.148252],[0.640341,51.152413],[0.632547,51.145234],[0.641184,51.141241],[0.664553,51.171287],[0.68495,51.178634],[0.683362,51.190629],[0.723882,51.211353],[0.71114,51.224332],[0.698874,51.215939],[0.668384,51.214901],[0.670133,51.222713],[0.654941,51.223393],[0.653384,51.229923],[0.66418,51.239062],[0.646007,51.245456],[0.636738,51.221906],[0.602446,51.221383],[0.60216,51.189275]]]}}
