{"type":"Feature","properties":{"mrgid":3607,"name":"Po","placeType":"Stream","source":"Europe:europemajorwater"},"geometry":{"type":"MultiPolygon","coordinates":[[[[7.8728,45.1819],[7.8407,45.1655],[7.8311,45.1534],[7.8328,45.1482],[7.8115,45.1331],[7.7788,45.1291],[7.7702,45.1228],[7.7607,45.1013],[7.7206,45.0911],[7.7197,45.0854],[7.7256,45.0719],[7.6951,45.062],[7.6781,45.04],[7.6729,45.0267],[7.6728,45.0187],[7.6818,45.0066],[7.675,44.9947],[7.6857,44.9883],[7.7044,44.9516],[7.6931,44.952],[7.6804,44.9483],[7.6839,44.9303],[7.6771,44.9206],[7.6903,44.9061],[7.6815,44.8982],[7.6813,44.895],[7.6953,44.8892],[7.6842,44.8807],[7.6882,44.8742],[7.6763,44.8742],[7.6725,44.8721],[7.6778,44.8599],[7.665,44.8629],[7.6597,44.8617],[7.6592,44.8586],[7.6639,44.8562],[7.6599,44.8529],[7.6539,44.8549],[7.6504,44.8538],[7.6512,44.8418],[7.6313,44.829],[7.5877,44.8117],[7.5819,44.8179],[7.5615,44.812],[7.5602,44.8078],[7.5653,44.8045],[7.5623,44.7973],[7.5363,44.7934],[7.5345,44.7854],[7.5144,44.782],[7.4811,44.7483],[7.4492,44.7391],[7.4473,44.7231],[7.461,44.7131],[7.4534,44.7009],[7.4526,44.6856],[7.456,44.673],[7.4506,44.6679],[7.4509,44.6779],[7.4476,44.657],[7.4284,44.6449],[7.4183,44.6328],[7.3509,44.6369],[7.3372,44.6492],[7.3232,44.6553],[7.337,44.649],[7.3495,44.637],[7.3509,44.6365],[7.3911,44.6294],[7.401,44.6297],[7.4185,44.6324],[7.4226,44.6351],[7.4288,44.6447],[7.4411,44.6514],[7.448,44.6568],[7.4567,44.6707],[7.4575,44.6798],[7.4538,44.6855],[7.456,44.69],[7.4556,44.6982],[7.4542,44.701],[7.4619,44.713],[7.4604,44.7156],[7.4484,44.7233],[7.4495,44.7258],[7.4498,44.7386],[7.482,44.7478],[7.5049,44.7653],[7.516,44.782],[7.5258,44.7801],[7.5343,44.7843],[7.5374,44.793],[7.5467,44.7903],[7.5632,44.7963],[7.566,44.8042],[7.5612,44.8102],[7.5675,44.8105],[7.5816,44.8174],[7.5811,44.812],[7.5876,44.8106],[7.6316,44.8281],[7.6527,44.8424],[7.6526,44.8543],[7.6628,44.8472],[7.6786,44.8505],[7.6822,44.8529],[7.6875,44.8603],[7.6826,44.868],[7.6849,44.8686],[7.6914,44.8767],[7.6879,44.8814],[7.6973,44.8892],[7.6822,44.8963],[7.6921,44.907],[7.6785,44.9213],[7.6857,44.9292],[7.6825,44.9476],[7.6888,44.9484],[7.6938,44.951],[7.7048,44.9494],[7.7072,44.9513],[7.6875,44.9891],[7.6769,44.9945],[7.6834,45.0069],[7.6736,45.0239],[7.6799,45.0396],[7.6961,45.0612],[7.7263,45.0711],[7.726,45.077],[7.7206,45.0864],[7.721,45.0901],[7.7351,45.0886],[7.7616,45.1002],[7.7739,45.1246],[7.812,45.1318],[7.8338,45.1469],[7.8352,45.1533],[7.8395,45.1574],[7.8417,45.1647],[7.8668,45.1752],[7.8731,45.1809],[7.8871,45.1802],[7.878,45.175],[7.9196,45.1808],[7.9336,45.171],[7.9659,45.1676],[8.0047,45.1754],[8.034,45.1683],[8.062,45.1683],[8.0709,45.1748],[8.0866,45.1717],[8.0943,45.1769],[8.1163,45.1694],[8.1732,45.165],[8.1825,45.1671],[8.1977,45.1752],[8.2146,45.1623],[8.2341,45.1656],[8.2591,45.1772],[8.2763,45.1795],[8.2946,45.1722],[8.3069,45.1529],[8.3257,45.1543],[8.3311,45.1457],[8.3373,45.1443],[8.3727,45.1546],[8.3886,45.1496],[8.3983,45.1377],[8.4075,45.1344],[8.4267,45.14],[8.4367,45.1354],[8.4425,45.1352],[8.4592,45.1452],[8.5025,45.1446],[8.5181,45.151],[8.5215,45.1451],[8.5366,45.1392],[8.5319,45.1367],[8.5213,45.1421],[8.5096,45.1305],[8.5049,45.1388],[8.4908,45.1374],[8.4954,45.1347],[8.5048,45.1379],[8.5058,45.1322],[8.5086,45.13],[8.5113,45.1306],[8.5219,45.1415],[8.533,45.1359],[8.5453,45.1438],[8.5617,45.1376],[8.5615,45.1239],[8.5817,45.1158],[8.585,45.1092],[8.5762,45.1147],[8.5789,45.1084],[8.582,45.1074],[8.5919,45.1085],[8.6042,45.0934],[8.6235,45.082],[8.6094,45.0755],[8.6329,45.0617],[8.6268,45.0568],[8.6284,45.043],[8.653,45.0184],[8.6812,45.0255],[8.717,45.0079],[8.7608,45.018],[8.7635,45.0038],[8.7739,45.0001],[8.7824,45.0014],[8.7853,45.0045],[8.7819,45.0162],[8.8121,45.0192],[8.816,45.0219],[8.8175,45.0335],[8.8423,45.0409],[8.8455,45.0457],[8.8593,45.0432],[8.9173,45.0645],[8.9284,45.0603],[8.9418,45.072],[8.9667,45.0766],[8.9812,45.087],[9.0081,45.0862],[9.0105,45.0767],[9.0006,45.076],[9.0072,45.0732],[9.0125,45.0758],[9.0166,45.0891],[9.0452,45.0786],[9.0555,45.0825],[9.0653,45.1057],[9.0897,45.0978],[9.1218,45.1063],[9.1279,45.0997],[9.1329,45.0975],[9.1367,45.0978],[9.1411,45.1046],[9.134,45.0981],[9.1236,45.1058],[9.1479,45.1121],[9.1729,45.1366],[9.2191,45.1403],[9.2536,45.125],[9.3039,45.1219],[9.3404,45.104],[9.2994,45.1034],[9.4229,45.0906],[9.4991,45.1001],[9.5114,45.094],[9.5177,45.0789],[9.5304,45.0753],[9.5526,45.0921],[9.5374,45.1185],[9.5416,45.1293],[9.5536,45.1275],[9.5697,45.1023],[9.5874,45.0984],[9.6136,45.1088],[9.6217,45.1336],[9.6371,45.1179],[9.628,45.0895],[9.6351,45.0815],[9.6735,45.0767],[9.7183,45.0566],[9.7616,45.0888],[9.7559,45.1046],[9.761,45.1098],[9.774,45.0895],[9.813,45.0754],[9.823,45.0538],[9.8095,45.0585],[9.8215,45.053],[9.8275,45.0537],[9.8363,45.0613],[9.8391,45.0935],[9.8592,45.0916],[9.867,45.0778],[9.8746,45.0727],[9.8835,45.0722],[9.8964,45.078],[9.9048,45.0915],[9.9915,45.1256],[10.0443,45.0672],[10.0508,45.0357],[10.0596,45.0308],[10.0816,45.0264],[10.083,45.0196],[10.1122,45.0159],[10.1744,45.0417],[10.1857,45.0332],[10.1735,45.0318],[10.1847,45.0307],[10.191,45.0339],[10.2363,45.0195],[10.2558,45.0024],[10.2529,45.0084],[10.2727,45.0002],[10.277,44.9877],[10.3186,44.9827],[10.3194,44.9751],[10.3266,44.9695],[10.3662,44.9623],[10.3908,44.984],[10.3877,44.9769],[10.4021,44.9755],[10.413,44.9786],[10.4327,44.9371],[10.4572,44.934],[10.4661,44.9277],[10.5012,44.9208],[10.5326,44.9051],[10.5942,44.9092],[10.5888,44.9061],[10.5691,44.9065],[10.5885,44.904],[10.6368,44.9264],[10.6371,44.9303],[10.6493,44.9297],[10.6622,44.9354],[10.6645,44.952],[10.6925,44.975],[10.7045,44.9984],[10.6928,45.0179],[10.6758,45.032],[10.6778,45.0444],[10.692,45.0404],[10.7209,45.0475],[10.7379,45.0372],[10.7581,45.043],[10.7709,45.0399],[10.7916,45.0375],[10.8366,45.039],[10.8545,45.0507],[10.8648,45.049],[10.8792,45.0536],[10.9119,45.0457],[10.9111,45.0623],[10.9285,45.0731],[10.9531,45.0629],[10.9974,45.0665],[11.0173,45.054],[11.0456,45.044],[11.0704,45.0407],[11.1015,45.045],[11.1271,45.0655],[11.1391,45.0499],[11.1595,45.0425],[11.2118,45.0559],[11.24,45.0375],[11.2532,45.0411],[11.2588,45.0518],[11.2667,45.052],[11.2641,45.0193],[11.2974,45.0113],[11.3361,44.9874],[11.4154,44.9644],[11.425,44.9532],[11.4233,44.9246],[11.4854,44.9341],[11.5345,44.9323],[11.5574,44.9176],[11.5802,44.9124],[11.5894,44.8898],[11.5961,44.8863],[11.6275,44.8848],[11.6433,44.8912],[11.6679,44.9144],[11.7364,44.9291],[11.7447,44.9343],[11.7402,44.9504],[11.7475,44.9592],[11.7826,44.9637],[11.8015,44.9769],[11.9266,44.9757],[11.967,44.9866],[12.0557,44.9767],[11.9661,44.99],[11.9253,44.9793],[11.8042,44.9801],[11.7816,44.9665],[11.7431,44.9605],[11.7376,44.9513],[11.7409,44.9387],[11.7347,44.9318],[11.6718,44.9194],[11.6286,44.8925],[11.6031,44.8888],[11.5911,44.8941],[11.5844,44.9154],[11.529,44.9397],[11.4314,44.93],[11.4294,44.9615],[11.3397,44.9888],[11.3048,45.0167],[11.2769,45.0179],[11.2656,45.0308],[11.274,45.0463],[11.2718,45.0569],[11.2682,45.0591],[11.2423,45.0463],[11.2188,45.0573],[11.1909,45.0609],[11.1626,45.0459],[11.1243,45.0692],[11.0788,45.0482],[11.0407,45.0487],[11.0239,45.0608],[11.0016,45.068],[10.987,45.071],[10.953,45.0684],[10.9139,45.0787],[10.9053,45.0531],[10.8707,45.062],[10.8366,45.0439],[10.7994,45.0412],[10.6994,45.0536],[10.6703,45.049],[10.6569,45.027],[10.6678,45.0189],[10.658,45.0272],[10.6629,45.0345],[10.6886,44.9985],[10.6618,44.9737],[10.6346,44.9364],[10.6112,44.9226],[10.5455,44.9162],[10.5401,44.9134],[10.5057,44.9234],[10.5052,44.9209],[10.4931,44.9324],[10.4983,44.9273],[10.486,44.9338],[10.4906,44.926],[10.4856,44.9266],[10.4809,44.9331],[10.4336,44.9604],[10.4331,44.9521],[10.4364,44.9567],[10.4454,44.9482],[10.4327,44.9504],[10.4251,44.973],[10.4095,44.9888],[10.3922,44.9878],[10.3763,44.976],[10.3421,44.9788],[10.3499,44.9689],[10.3335,44.9828],[10.3025,44.9929],[10.3029,44.9872],[10.2944,44.9993],[10.2801,45.001],[10.2664,45.0164],[10.2503,45.0258],[10.2487,45.0195],[10.2084,45.0407],[10.2042,45.041],[10.1928,45.0366],[10.1545,45.0481],[10.1631,45.0429],[10.1468,45.0314],[10.1149,45.0319],[10.0939,45.0248],[10.0868,45.044],[10.0862,45.0333],[10.0907,45.0258],[10.0688,45.0305],[10.0533,45.0428],[10.0509,45.0521],[10.0579,45.0501],[10.0315,45.0991],[9.9982,45.1272],[9.9751,45.1322],[9.9636,45.1223],[9.9326,45.1263],[9.9342,45.1215],[9.9126,45.141],[9.8998,45.1406],[9.8956,45.1392],[9.8747,45.123],[9.8755,45.1122],[9.8973,45.0934],[9.8939,45.08],[9.8809,45.0754],[9.8698,45.0886],[9.8602,45.095],[9.8385,45.0973],[9.8313,45.0898],[9.8262,45.0559],[9.8147,45.0771],[9.7795,45.0899],[9.7683,45.1084],[9.7585,45.1125],[9.7479,45.1124],[9.7443,45.1086],[9.7571,45.0923],[9.7497,45.081],[9.7145,45.0588],[9.704,45.0632],[9.7035,45.0723],[9.7016,45.0656],[9.6675,45.0819],[9.635,45.0861],[9.6434,45.1189],[9.6228,45.1353],[9.6133,45.1334],[9.6045,45.1083],[9.5814,45.1027],[9.5498,45.1343],[9.5391,45.1323],[9.5335,45.1198],[9.5484,45.0909],[9.53,45.0793],[9.5012,45.1058],[9.428,45.0934],[9.3632,45.1061],[9.3429,45.1063],[9.3118,45.1224],[9.3183,45.1403],[9.3054,45.1246],[9.257,45.1276],[9.2385,45.1412],[9.22,45.1444],[9.1763,45.1415],[9.1599,45.1364],[9.1486,45.1292],[9.1449,45.116],[9.1057,45.1088],[9.0968,45.1029],[9.0751,45.1098],[9.0597,45.1065],[9.0498,45.0831],[9.0271,45.0919],[8.974,45.0904],[8.9617,45.085],[8.9303,45.0931],[8.9188,45.0856],[8.9173,45.0833],[8.9182,45.0806],[8.9235,45.0789],[8.9384,45.0855],[8.9421,45.0783],[8.9281,45.0618],[8.9163,45.0675],[8.8938,45.0623],[8.8576,45.0456],[8.8222,45.0473],[8.8164,45.0418],[8.8078,45.0235],[8.7803,45.026],[8.7652,45.0242],[8.7581,45.0185],[8.7428,45.018],[8.7296,45.0244],[8.7237,45.0253],[8.7157,45.0367],[8.7111,45.0379],[8.7043,45.0339],[8.7022,45.0309],[8.7037,45.0164],[8.6832,45.0285],[8.6553,45.0198],[8.6536,45.0358],[8.6435,45.0305],[8.6319,45.0446],[8.6331,45.0573],[8.6507,45.0601],[8.6555,45.0628],[8.646,45.0644],[8.6486,45.0727],[8.6387,45.0766],[8.6399,45.086],[8.6358,45.0823],[8.6374,45.0769],[8.64,45.0742],[8.6476,45.0727],[8.6451,45.0657],[8.6457,45.0634],[8.6539,45.0622],[8.6379,45.0597],[8.6171,45.0734],[8.6251,45.0789],[8.6251,45.0837],[8.6151,45.0876],[8.6119,45.0962],[8.6049,45.0982],[8.5954,45.1166],[8.5811,45.1254],[8.5645,45.125],[8.5673,45.1325],[8.5655,45.1378],[8.5466,45.145],[8.5337,45.1423],[8.5181,45.1527],[8.5053,45.153],[8.4998,45.1458],[8.4603,45.1473],[8.4395,45.1379],[8.4248,45.1413],[8.4074,45.1359],[8.3979,45.1489],[8.3872,45.1564],[8.4002,45.1436],[8.3914,45.1503],[8.3839,45.1537],[8.3697,45.1567],[8.3354,45.1451],[8.3268,45.1556],[8.3165,45.1575],[8.3083,45.1537],[8.2945,45.1734],[8.2756,45.1813],[8.2572,45.1781],[8.2285,45.1663],[8.2194,45.1719],[8.2011,45.1777],[8.183,45.1715],[8.1594,45.1756],[8.134,45.1757],[8.1179,45.1709],[8.1028,45.1772],[8.0786,45.1825],[8.0784,45.1775],[8.0868,45.173],[8.0714,45.177],[8.0402,45.1697],[8.0353,45.1733],[8.0239,45.1781],[8.0119,45.1756],[8.0049,45.1791],[7.9859,45.1793],[7.9646,45.1699],[7.9589,45.1732],[7.9527,45.1743],[7.9342,45.1726],[7.9269,45.1792],[7.9189,45.1822],[7.9114,45.1799],[7.8979,45.1826],[7.8728,45.1819]],[[7.84,45.1639],[7.8411,45.1642],[7.8409,45.1629],[7.84,45.1639]],[[7.8325,45.1525],[7.8341,45.1544],[7.8338,45.1515],[7.8325,45.1525]],[[7.6798,44.8728],[7.6857,44.8597],[7.6695,44.8564],[7.6802,44.8598],[7.6737,44.8709],[7.6798,44.8728]],[[7.6687,44.8556],[7.6785,44.8518],[7.6608,44.8487],[7.6653,44.8571],[7.6603,44.8611],[7.6687,44.8556]],[[7.9546,45.1732],[7.9571,45.1724],[7.9567,45.1717],[7.9546,45.1732]],[[7.9904,45.1751],[7.9847,45.1731],[7.9785,45.1744],[7.986,45.1787],[7.9904,45.1751]],[[8.0019,45.178],[8.0068,45.1779],[8.0065,45.1772],[8.0019,45.178]],[[8.0258,45.1761],[8.0275,45.1753],[8.027,45.1748],[8.0258,45.1761]],[[8.0336,45.1707],[8.0317,45.1731],[8.0366,45.1712],[8.0336,45.1707]],[[8.0563,45.1705],[8.0631,45.1695],[8.0601,45.1689],[8.0563,45.1705]],[[8.0819,45.1773],[8.0791,45.18],[8.0938,45.1781],[8.0819,45.1773]],[[8.1272,45.1702],[8.1267,45.1707],[8.1333,45.1738],[8.1272,45.1702]],[[8.1368,45.1744],[8.1836,45.1695],[8.1737,45.1668],[8.1368,45.1744]],[[8.2077,45.1727],[8.2072,45.1743],[8.2143,45.171],[8.2077,45.1727]],[[8.2191,45.1714],[8.2232,45.1656],[8.2157,45.1636],[8.2191,45.1714]],[[8.2251,45.1654],[8.228,45.1653],[8.2275,45.1646],[8.2251,45.1654]],[[8.3932,45.1473],[8.3934,45.1477],[8.3948,45.1468],[8.3932,45.1473]],[[8.3959,45.1437],[8.3956,45.1462],[8.3981,45.1429],[8.3959,45.1437]],[[8.3978,45.1393],[8.3976,45.141],[8.4009,45.1394],[8.3978,45.1393]],[[8.4378,45.136],[8.4436,45.139],[8.4452,45.1389],[8.443,45.1365],[8.4378,45.136]],[[8.5331,45.1415],[8.5368,45.1413],[8.5358,45.1407],[8.5331,45.1415]],[[8.5631,45.1374],[8.5638,45.1376],[8.5652,45.1338],[8.5631,45.1374]],[[8.5623,45.1315],[8.5636,45.1316],[8.5638,45.1302],[8.5623,45.1315]],[[8.5753,45.1239],[8.5766,45.1236],[8.5763,45.1232],[8.5753,45.1239]],[[8.5793,45.1249],[8.5809,45.1238],[8.5806,45.1237],[8.5793,45.1249]],[[8.582,45.1217],[8.5834,45.1187],[8.5729,45.12],[8.582,45.1217]],[[8.5837,45.1176],[8.5917,45.1166],[8.5932,45.1099],[8.5856,45.1108],[8.5837,45.1176]],[[8.5937,45.1145],[8.5939,45.116],[8.5959,45.1139],[8.5937,45.1145]],[[8.6057,45.0959],[8.6055,45.0966],[8.6116,45.0947],[8.6057,45.0959]],[[8.6276,45.056],[8.6287,45.0569],[8.6298,45.0553],[8.6276,45.056]],[[8.6498,45.0233],[8.6501,45.0241],[8.6511,45.0233],[8.6498,45.0233]],[[8.7085,45.0156],[8.703,45.0311],[8.7123,45.0372],[8.7198,45.028],[8.7085,45.0156]],[[8.7196,45.0246],[8.7192,45.026],[8.7277,45.024],[8.7196,45.0246]],[[8.7192,45.0227],[8.7297,45.0222],[8.7387,45.016],[8.7172,45.0094],[8.7192,45.0227]],[[8.7676,45.0109],[8.7645,45.0172],[8.7911,45.0205],[8.7791,45.0182],[8.7676,45.0109]],[[8.7653,45.0215],[8.7736,45.0241],[8.77,45.0214],[8.7653,45.0215]],[[8.7746,45.023],[8.7784,45.0224],[8.7764,45.0197],[8.7746,45.023]],[[8.7955,45.0245],[8.7966,45.0231],[8.7943,45.021],[8.7955,45.0245]],[[8.8126,45.0262],[8.814,45.0273],[8.815,45.0248],[8.8126,45.0262]],[[8.7785,45.0147],[8.782,45.0076],[8.7746,45.0083],[8.7785,45.0147]],[[8.7713,45.0071],[8.7652,45.0084],[8.7717,45.0096],[8.7713,45.0071]],[[8.7824,45.0047],[8.7652,45.0054],[8.7663,45.0058],[8.7824,45.0047]],[[8.8381,45.0456],[8.8289,45.0381],[8.8164,45.037],[8.8226,45.0467],[8.8381,45.0456]],[[8.877,45.0506],[8.8751,45.0507],[8.8755,45.0514],[8.877,45.0506]],[[8.8934,45.0579],[8.8912,45.0574],[8.8918,45.0592],[8.8934,45.0579]],[[8.9062,45.0612],[8.8967,45.0618],[8.9078,45.0639],[8.9062,45.0612]],[[8.9108,45.0651],[8.9134,45.0649],[8.9132,45.0641],[8.9108,45.0651]],[[8.9403,45.0737],[8.943,45.076],[8.9481,45.0764],[8.9403,45.0737]],[[8.9565,45.0775],[8.9676,45.0824],[8.9613,45.0771],[8.9565,45.0775]],[[8.949,45.0777],[8.9409,45.0867],[8.9656,45.0841],[8.949,45.0777]],[[8.9451,45.0771],[8.9437,45.0768],[8.9439,45.078],[8.9451,45.0771]],[[8.9448,45.08],[8.9434,45.0794],[8.9433,45.0808],[8.9448,45.08]],[[8.9181,45.0829],[8.9288,45.0916],[8.9383,45.0873],[8.9181,45.0829]],[[8.9684,45.0816],[8.9694,45.0815],[8.9682,45.0789],[8.9684,45.0816]],[[8.9769,45.086],[8.9733,45.0851],[8.9736,45.0866],[8.9769,45.086]],[[8.9717,45.0885],[8.9779,45.0891],[8.9774,45.0888],[8.9717,45.0885]],[[9.1119,45.1071],[9.1071,45.1069],[9.1123,45.1092],[9.1119,45.1071]],[[9.1335,45.11],[9.1354,45.1096],[9.1352,45.1092],[9.1335,45.11]],[[9.1576,45.1334],[9.1532,45.1281],[9.1506,45.1226],[9.1508,45.1288],[9.1576,45.1334]],[[9.1666,45.136],[9.1626,45.1359],[9.1685,45.1382],[9.1666,45.136]],[[9.2368,45.1396],[9.2368,45.1403],[9.2387,45.1397],[9.2368,45.1396]],[[9.2312,45.1366],[9.2324,45.1362],[9.2319,45.1357],[9.2312,45.1366]],[[9.247,45.1295],[9.2466,45.1308],[9.2489,45.1293],[9.247,45.1295]],[[9.2515,45.1268],[9.2514,45.1277],[9.2544,45.1266],[9.2515,45.1268]],[[9.3535,45.1046],[9.3748,45.1],[9.3665,45.1003],[9.3535,45.1046]],[[9.5178,45.0824],[9.5178,45.086],[9.5215,45.08],[9.5178,45.0824]],[[9.7463,45.1075],[9.7462,45.1092],[9.7493,45.1112],[9.7463,45.1075]],[[9.8336,45.0683],[9.8326,45.0667],[9.8328,45.072],[9.8336,45.0683]],[[9.8643,45.0896],[9.8643,45.0904],[9.8677,45.0878],[9.8643,45.0896]],[[9.868,45.0791],[9.8668,45.0828],[9.8712,45.0765],[9.868,45.0791]],[[9.9602,45.1199],[9.9041,45.0923],[9.8793,45.118],[9.8865,45.1289],[9.9187,45.1312],[9.9313,45.1205],[9.9602,45.1199]],[[9.9556,45.1219],[9.9571,45.1215],[9.9553,45.1211],[9.9556,45.1219]],[[9.9739,45.1248],[9.9901,45.1282],[9.9896,45.1273],[9.9739,45.1248]],[[10.0083,45.117],[10.0126,45.1147],[10.0149,45.1111],[10.0083,45.117]],[[10.0124,45.1123],[10.0148,45.1066],[10.0077,45.1114],[10.0124,45.1123]],[[10.0246,45.0946],[10.0243,45.0954],[10.0267,45.0943],[10.0246,45.0946]],[[10.0547,45.0346],[10.0539,45.0366],[10.0604,45.0343],[10.0547,45.0346]],[[10.1085,45.0295],[10.1158,45.0281],[10.1022,45.0243],[10.1085,45.0295]],[[10.1292,45.0277],[10.1308,45.0272],[10.1295,45.0266],[10.1292,45.0277]],[[10.1082,45.0257],[10.1104,45.0255],[10.105,45.0228],[10.1082,45.0257]],[[10.1178,45.0232],[10.114,45.0184],[10.1073,45.0176],[10.1088,45.0195],[10.1178,45.0232]],[[10.094,45.0231],[10.0904,45.0239],[10.091,45.0246],[10.094,45.0231]],[[10.198,45.0351],[10.2083,45.0401],[10.2267,45.0271],[10.2194,45.0273],[10.2119,45.0325],[10.198,45.0351]],[[10.2134,45.0308],[10.2163,45.0272],[10.2058,45.031],[10.2134,45.0308]],[[10.2351,45.0232],[10.2361,45.0215],[10.2352,45.0206],[10.2351,45.0232]],[[10.2384,45.0216],[10.2393,45.0194],[10.2383,45.0193],[10.2384,45.0216]],[[10.2567,45.02],[10.2618,45.0171],[10.261,45.0169],[10.2567,45.02]],[[10.2613,45.0158],[10.2621,45.0118],[10.272,45.0042],[10.2543,45.0099],[10.2613,45.0158]],[[10.2633,45.0137],[10.2688,45.0106],[10.268,45.0105],[10.2633,45.0137]],[[10.2514,45.0118],[10.2402,45.0182],[10.2417,45.0192],[10.2514,45.0118]],[[10.2771,44.9992],[10.2766,44.9961],[10.2759,44.9963],[10.2771,44.9992]],[[10.2925,44.9974],[10.2952,44.994],[10.2907,44.9956],[10.2925,44.9974]],[[10.2975,44.9897],[10.2814,44.9966],[10.2859,44.9975],[10.2975,44.9897]],[[10.2838,44.9901],[10.284,44.9896],[10.2813,44.9891],[10.2838,44.9901]],[[10.3239,44.9815],[10.3268,44.9798],[10.3257,44.9795],[10.3239,44.9815]],[[10.322,44.9798],[10.3336,44.9757],[10.3341,44.9728],[10.3262,44.9712],[10.322,44.9798]],[[10.3622,44.9666],[10.3693,44.9664],[10.3628,44.9639],[10.3622,44.9666]],[[10.3754,44.9751],[10.3649,44.9689],[10.3475,44.9754],[10.3635,44.9762],[10.3754,44.9751]],[[10.3944,44.9826],[10.4108,44.9861],[10.4155,44.9797],[10.4054,44.9833],[10.3944,44.9826]],[[10.4101,44.9796],[10.3947,44.9805],[10.401,44.982],[10.4101,44.9796]],[[10.394,44.9783],[10.3945,44.9774],[10.3895,44.9782],[10.394,44.9783]],[[10.4243,44.968],[10.4243,44.9689],[10.4264,44.9678],[10.4243,44.968]],[[10.425,44.9627],[10.4267,44.9654],[10.4274,44.9616],[10.425,44.9627]],[[10.4343,44.9395],[10.433,44.9477],[10.4556,44.9349],[10.4343,44.9395]],[[10.4593,44.9407],[10.4692,44.9362],[10.4653,44.9355],[10.4593,44.9407]],[[10.4662,44.9399],[10.4662,44.9406],[10.4683,44.94],[10.4662,44.9399]],[[10.4701,44.9374],[10.4714,44.937],[10.4713,44.9362],[10.4701,44.9374]],[[10.4762,44.9303],[10.4662,44.9301],[10.4668,44.9312],[10.4762,44.9303]],[[10.5092,44.9197],[10.5094,44.9207],[10.5119,44.9193],[10.5092,44.9197]],[[10.5173,44.9193],[10.5222,44.9166],[10.5172,44.9163],[10.5173,44.9193]],[[10.5227,44.9179],[10.5266,44.9151],[10.5255,44.915],[10.5227,44.9179]],[[10.5184,44.9142],[10.5184,44.9137],[10.516,44.9141],[10.5184,44.9142]],[[10.5442,44.9135],[10.5596,44.9154],[10.5533,44.9137],[10.5508,44.911],[10.5442,44.9135]],[[10.5969,44.9198],[10.6034,44.9194],[10.6025,44.9162],[10.5969,44.9198]],[[10.6198,44.9241],[10.6202,44.9243],[10.6199,44.9201],[10.6198,44.9241]],[[10.6247,44.9262],[10.6291,44.9261],[10.624,44.9232],[10.6247,44.9262]],[[10.5568,44.914],[10.5578,44.9135],[10.5574,44.9127],[10.5568,44.914]],[[10.5877,44.9137],[10.5945,44.9115],[10.5859,44.9118],[10.5877,44.9137]],[[10.5857,44.9104],[10.5814,44.9105],[10.5822,44.9114],[10.5857,44.9104]],[[10.5238,44.9096],[10.5226,44.9111],[10.5243,44.9113],[10.5238,44.9096]],[[10.529,44.9118],[10.529,44.9125],[10.532,44.9129],[10.529,44.9118]],[[10.5342,44.9131],[10.5397,44.913],[10.5342,44.9114],[10.5342,44.9131]],[[10.6428,44.9304],[10.6392,44.9373],[10.6454,44.9341],[10.6458,44.9432],[10.6594,44.9542],[10.6588,44.9477],[10.6784,44.9711],[10.6772,44.9644],[10.6633,44.9529],[10.6612,44.9371],[10.6428,44.9304]],[[10.6353,44.9332],[10.6316,44.9309],[10.6355,44.9351],[10.6353,44.9332]],[[10.6648,44.9604],[10.6586,44.9583],[10.6693,44.9689],[10.6648,44.9604]],[[10.6549,44.9589],[10.6539,44.9587],[10.6555,44.9624],[10.6549,44.9589]],[[10.6634,44.9678],[10.6622,44.9676],[10.6627,44.9687],[10.6634,44.9678]],[[10.6707,44.9674],[10.672,44.9673],[10.6724,44.9659],[10.6707,44.9674]],[[10.671,44.9698],[10.6698,44.9697],[10.6711,44.9717],[10.671,44.9698]],[[10.6673,44.9729],[10.6718,44.9791],[10.6756,44.9779],[10.6725,44.9735],[10.6673,44.9729]],[[10.6806,44.9734],[10.688,44.9867],[10.6952,44.9921],[10.6914,44.9758],[10.6806,44.9734]],[[10.6758,44.9793],[10.6738,44.9799],[10.6757,44.9828],[10.6758,44.9793]],[[10.6904,44.9975],[10.6944,44.9985],[10.6952,44.9961],[10.6904,44.9975]],[[10.6901,45.0034],[10.7026,44.9991],[10.6962,44.9935],[10.6955,44.9983],[10.6935,44.9991],[10.6901,45.0034]],[[10.6919,45.0176],[10.6936,45.0125],[10.6894,45.0164],[10.6919,45.0176]],[[10.6879,45.0174],[10.6835,45.0218],[10.6853,45.0221],[10.6879,45.0174]],[[10.6734,45.022],[10.6659,45.0333],[10.6734,45.0263],[10.6734,45.022]],[[10.6674,45.038],[10.6661,45.0342],[10.664,45.0383],[10.6674,45.038]],[[10.689,45.0469],[10.706,45.0509],[10.6975,45.0447],[10.689,45.0469]],[[10.6974,45.053],[10.7036,45.0522],[10.7033,45.0518],[10.6974,45.053]],[[10.7065,45.0474],[10.7113,45.0499],[10.7163,45.0489],[10.7145,45.0482],[10.7065,45.0474]],[[10.7393,45.0442],[10.7498,45.0422],[10.742,45.0412],[10.7393,45.0442]],[[10.7714,45.0417],[10.7795,45.0409],[10.7771,45.0401],[10.7714,45.0417]],[[10.8277,45.0416],[10.8295,45.0413],[10.829,45.0407],[10.8277,45.0416]],[[10.8587,45.0526],[10.8685,45.0582],[10.8825,45.0554],[10.8824,45.0548],[10.8587,45.0526]],[[10.9138,45.0714],[10.9125,45.0723],[10.9233,45.0757],[10.9138,45.0714]],[[10.9584,45.0663],[10.954,45.0652],[10.9544,45.0658],[10.9584,45.0663]],[[11.0228,45.0553],[11.0205,45.0576],[11.0277,45.056],[11.0228,45.0553]],[[11.0909,45.0473],[11.1066,45.0555],[11.1091,45.055],[11.1011,45.0473],[11.0909,45.0473]],[[11.0432,45.0457],[11.0478,45.045],[11.0475,45.0446],[11.0432,45.0457]],[[11.1901,45.0571],[11.2009,45.0588],[11.198,45.0572],[11.1901,45.0571]],[[11.2416,45.0435],[11.252,45.0456],[11.2497,45.0416],[11.2416,45.0435]],[[11.3161,45.0033],[11.3046,45.0086],[11.3021,45.0108],[11.3131,45.0075],[11.3161,45.0033]],[[11.5433,44.9284],[11.5488,44.9263],[11.5541,44.9217],[11.5433,44.9284]],[[11.6389,44.8912],[11.6349,44.8907],[11.6388,44.8942],[11.6389,44.8912]],[[11.271,45.0558],[11.271,45.0538],[11.2658,45.0576],[11.271,45.0558]],[[9.9081,45.1386],[9.8927,45.135],[9.8977,45.1395],[9.9081,45.1386]],[[8.024,45.1763],[8.0199,45.1765],[8.0206,45.1772],[8.024,45.1763]],[[7.8977,45.1816],[7.8964,45.1818],[7.8969,45.1823],[7.8977,45.1816]]],[[[12.4896,44.9633],[12.4522,44.963],[12.4501,44.9523],[12.4388,44.9477],[12.4513,44.9499],[12.4562,44.962],[12.4896,44.9633]]],[[[12.4339,44.9441],[12.4345,44.9196],[12.4618,44.9062],[12.4638,44.8853],[12.4659,44.9064],[12.4353,44.9217],[12.4339,44.9441]]],[[[12.0809,44.975],[12.0528,44.9738],[12.0645,44.9706],[12.0787,44.9746],[12.0839,44.9688],[12.0868,44.9683],[12.0979,44.972],[12.0999,44.964],[12.1139,44.9605],[12.1159,44.9479],[12.1275,44.9355],[12.142,44.9293],[12.1586,44.932],[12.1698,44.9428],[12.1861,44.9282],[12.2292,44.9261],[12.2406,44.9372],[12.2545,44.937],[12.2571,44.944],[12.2627,44.9391],[12.2796,44.9435],[12.2937,44.9284],[12.2811,44.9128],[12.2849,44.8786],[12.2882,44.8714],[12.2992,44.8591],[12.3394,44.8514],[12.3521,44.8216],[12.3404,44.8523],[12.3239,44.8575],[12.3003,44.8598],[12.2892,44.872],[12.2864,44.8792],[12.2859,44.9026],[12.2827,44.9127],[12.2941,44.9255],[12.2952,44.9303],[12.2815,44.9437],[12.2745,44.9456],[12.2622,44.9402],[12.2609,44.9448],[12.2576,44.9452],[12.2536,44.9424],[12.2535,44.9375],[12.2401,44.938],[12.2242,44.9267],[12.2096,44.9297],[12.1871,44.9294],[12.1704,44.9444],[12.159,44.9397],[12.1576,44.9329],[12.1486,44.9332],[12.1412,44.9308],[12.1359,44.9347],[12.1286,44.9361],[12.1268,44.9434],[12.1168,44.9486],[12.118,44.9543],[12.1149,44.9608],[12.1106,44.9634],[12.1015,44.9643],[12.0999,44.9723],[12.0936,44.973],[12.085,44.9693],[12.0809,44.975]]],[[[12.1861,45.026],[12.1573,45.0315],[12.1218,45.0216],[12.0743,45.0206],[12.0658,45.0155],[12.0654,45.0092],[12.083,44.9922],[12.0557,44.9767],[12.0795,44.9816],[12.0889,44.99],[12.0873,44.9965],[12.0715,45.0068],[12.0706,45.0176],[12.129,45.018],[12.1694,45.0285],[12.2329,45.0076],[12.256,44.9691],[12.2742,44.9586],[12.3065,44.954],[12.4053,44.9607],[12.4339,44.9441],[12.4388,44.9477],[12.4056,44.9633],[12.3029,44.9573],[12.2727,44.9657],[12.2819,44.9597],[12.2762,44.9609],[12.2553,44.9801],[12.2415,45.0104],[12.1861,45.026]],[[12.2429,45.0001],[12.2396,45.0055],[12.2405,45.0054],[12.2429,45.0001]],[[12.1444,45.0272],[12.146,45.0267],[12.14,45.0242],[12.1444,45.0272]],[[12.2409,45.0084],[12.24,45.0098],[12.2408,45.01],[12.2409,45.0084]]]]}}
