{"type":"Feature","id":"ices_areas.25","geometry_name":"the_geom","properties":{"ices_area":"VIIa","language":"en","area_km2":50111.12159,"placetype":"ICES Areas","placetypei":352,"parent":"ICES Statistical Areas","parentid":36328,"source":"ICES","sourceid":378,"lon_min":-7.64509993612,"lon_max":-2.7870999316,"lat_min":51.995500034,"lat_max":55.0290000369,"longitude":-4.91647374562,"latitude":53.4581588562,"mrgid":36354,"name":"VIIa"},"geometry":{"type":"Polygon","coordinates":[[[-5.078794,52.0],[-5.0712,52.0049],[-5.0779,52.0048],[-5.079,52.0087],[-5.0769,52.011],[-5.0831,52.0111],[-5.0882,52.0138],[-5.0881,52.0156],[-5.0836,52.0217],[-5.0771,52.0233],[-5.0729,52.0266],[-5.0743,52.0286],[-5.08,52.0285],[-5.0754,52.0309],[-5.0699,52.0303],[-5.0655,52.0318],[-5.0586,52.0297],[-5.0589,52.0273],[-5.0552,52.0279],[-5.0547,52.0254],[-5.0517,52.0273],[-5.04,52.0276],[-5.0255,52.0253],[-5.0232,52.0208],[-5.0211,52.0204],[-5.0175,52.0239],[-5.0099,52.023],[-5.0044,52.024],[-5.0041,52.0258],[-4.9999,52.0231],[-4.9971,52.0246],[-4.9948,52.0228],[-4.9907,52.0254],[-4.9867,52.0222],[-4.9873,52.0154],[-4.9682,52.0137],[-4.982,52.0134],[-4.9927,52.0038],[-4.989,52.0022],[-4.9801,52.0048],[-4.9901,52.0007],[-4.9851,51.9989],[-4.978,52.0011],[-4.9764,51.9983],[-4.9729,51.9974],[-4.9725,51.9955],[-4.9711,51.9986],[-4.9668,52.0013],[-4.9585,52.0004],[-4.9558,52.0024],[-4.9444,52.0039],[-4.9392,52.0073],[-4.9347,52.007],[-4.9329,52.0089],[-4.9279,52.0094],[-4.9267,52.0115],[-4.9184,52.0098],[-4.9195,52.0128],[-4.9185,52.0148],[-4.9144,52.0147],[-4.9119,52.021],[-4.9076,52.0221],[-4.9157,52.0255],[-4.9138,52.0265],[-4.9152,52.0273],[-4.9135,52.0282],[-4.9148,52.0298],[-4.9095,52.0313],[-4.9091,52.0351],[-4.9003,52.034],[-4.8984,52.0316],[-4.8925,52.0299],[-4.8937,52.0271],[-4.892,52.0248],[-4.8945,52.0233],[-4.8914,52.0219],[-4.8881,52.0233],[-4.8864,52.02],[-4.8799,52.0192],[-4.8679,52.0219],[-4.8269,52.0201],[-4.8262,52.0217],[-4.8405,52.0251],[-4.8383,52.0292],[-4.8381,52.034],[-4.8478,52.0371],[-4.8454,52.0423],[-4.8402,52.0469],[-4.8341,52.048],[-4.8372,52.05],[-4.8307,52.0509],[-4.8274,52.0541],[-4.798,52.0575],[-4.7876,52.0605],[-4.7841,52.0632],[-4.7844,52.0658],[-4.783,52.0669],[-4.7735,52.0688],[-4.7661,52.0771],[-4.7614,52.0787],[-4.7586,52.0777],[-4.7593,52.0818],[-4.7524,52.089],[-4.7521,52.0926],[-4.7485,52.0934],[-4.7414,52.0994],[-4.744,52.1025],[-4.7488,52.1043],[-4.7364,52.1094],[-4.7342,52.112],[-4.7334,52.1175],[-4.7295,52.118],[-4.7206,52.1117],[-4.6926,52.1035],[-4.6874,52.1103],[-4.6902,52.1142],[-4.69,52.1172],[-4.6932,52.1193],[-4.6901,52.122],[-4.689,52.1289],[-4.6751,52.1294],[-4.6712,52.1323],[-4.6614,52.1331],[-4.6593,52.1351],[-4.6468,52.1338],[-4.6396,52.1348],[-4.6437,52.1367],[-4.6413,52.1382],[-4.6206,52.138],[-4.6068,52.1408],[-4.5848,52.1369],[-4.576,52.1425],[-4.5634,52.1454],[-4.5653,52.1439],[-4.557,52.1423],[-4.5575,52.1396],[-4.5501,52.1389],[-4.5465,52.1351],[-4.5424,52.1366],[-4.5344,52.1353],[-4.5187,52.1362],[-4.4965,52.1445],[-4.4917,52.1478],[-4.4914,52.1517],[-4.4683,52.1632],[-4.4673,52.1677],[-4.4687,52.1703],[-4.4642,52.1684],[-4.4542,52.1678],[-4.4511,52.1698],[-4.446,52.1703],[-4.4416,52.1742],[-4.4326,52.1778],[-4.4182,52.1889],[-4.4096,52.192],[-4.4085,52.1945],[-4.4032,52.1952],[-4.4027,52.1976],[-4.398,52.199],[-4.3921,52.2041],[-4.3836,52.208],[-4.3785,52.2148],[-4.3623,52.2186],[-4.3569,52.216],[-4.3553,52.2115],[-4.35,52.2102],[-4.3449,52.2106],[-4.3359,52.2154],[-4.3311,52.2132],[-4.3191,52.2159],[-4.2686,52.2417],[-4.2678,52.2437],[-4.2634,52.2432],[-4.2641,52.2447],[-4.2544,52.2488],[-4.2342,52.2519],[-4.2145,52.2628],[-4.2078,52.264],[-4.1992,52.2738],[-4.1927,52.2777],[-4.1881,52.2882],[-4.172,52.294],[-4.1654,52.3057],[-4.1591,52.3072],[-4.1526,52.3112],[-4.1492,52.3161],[-4.1457,52.3169],[-4.1386,52.3234],[-4.1371,52.3311],[-4.1342,52.3355],[-4.1279,52.3396],[-4.1248,52.3448],[-4.1202,52.3604],[-4.1161,52.3673],[-4.1125,52.3697],[-4.1087,52.3784],[-4.1041,52.3815],[-4.0938,52.3955],[-4.0903,52.3979],[-4.0901,52.4021],[-4.0945,52.4066],[-4.0915,52.4066],[-4.09,52.4107],[-4.0909,52.4118],[-4.0933,52.4077],[-4.0941,52.4145],[-4.0907,52.4196],[-4.0904,52.4258],[-4.0827,52.4336],[-4.0848,52.4364],[-4.084,52.4401],[-4.0678,52.4694],[-4.0641,52.4731],[-4.0646,52.4748],[-4.0586,52.4798],[-4.053,52.4814],[-4.0516,52.4872],[-4.0529,52.5003],[-4.0552,52.5053],[-4.057,52.5188],[-4.0596,52.5239],[-4.0588,52.5352],[-4.0612,52.5391],[-4.0652,52.5434],[-4.0722,52.545],[-4.077,52.5487],[-4.0945,52.5761],[-4.1157,52.5984],[-4.1267,52.6069],[-4.1036,52.6001],[-4.0911,52.6007],[-4.0908,52.6047],[-4.0977,52.6071],[-4.1119,52.605],[-4.1183,52.6057],[-4.1308,52.6105],[-4.131,52.6146],[-4.1198,52.6311],[-4.1076,52.6552],[-4.0979,52.6644],[-4.096,52.6682],[-4.0819,52.6744],[-4.0577,52.6884],[-4.0562,52.6905],[-4.0562,52.6968],[-4.0594,52.7081],[-4.0526,52.7146],[-4.0605,52.717],[-4.0567,52.7178],[-4.0639,52.7215],[-4.0717,52.7302],[-4.0846,52.751],[-4.1084,52.7715],[-4.1356,52.7918],[-4.1479,52.8029],[-4.1538,52.8115],[-4.1531,52.8157],[-4.1475,52.8195],[-4.1379,52.8245],[-4.1316,52.8259],[-4.139,52.822],[-4.1407,52.8168],[-4.1354,52.8196],[-4.1355,52.8228],[-4.1296,52.8245],[-4.1269,52.8236],[-4.121,52.826],[-4.1185,52.831],[-4.1307,52.8274],[-4.127,52.8398],[-4.1217,52.8463],[-4.1213,52.8491],[-4.1241,52.8558],[-4.1478,52.8874],[-4.1495,52.8958],[-4.1424,52.9011],[-4.1378,52.9007],[-4.1226,52.894],[-4.1056,52.8988],[-4.0879,52.9017],[-4.0844,52.9032],[-4.0767,52.9126],[-4.0714,52.9155],[-4.0605,52.9165],[-4.058,52.9214],[-4.0459,52.9257],[-4.0364,52.9346],[-4.023,52.9355],[-4.0187,52.9377],[-4.037,52.9364],[-4.0396,52.9355],[-4.048,52.927],[-4.0526,52.9264],[-4.063,52.9203],[-4.074,52.9231],[-4.0793,52.922],[-4.1029,52.9096],[-4.111,52.9119],[-4.1112,52.9139],[-4.1081,52.9167],[-4.1165,52.9204],[-4.115,52.9233],[-4.1072,52.9213],[-4.1064,52.9252],[-4.1206,52.9261],[-4.1237,52.9274],[-4.1245,52.9295],[-4.127,52.9287],[-4.1269,52.9272],[-4.1155,52.9235],[-4.1166,52.9205],[-4.1242,52.9222],[-4.1277,52.9183],[-4.1279,52.9224],[-4.13,52.9229],[-4.1333,52.917],[-4.1368,52.9172],[-4.1374,52.9142],[-4.1438,52.9112],[-4.1512,52.911],[-4.1539,52.9068],[-4.172,52.9064],[-4.1846,52.9104],[-4.219,52.9171],[-4.2295,52.9161],[-4.2321,52.9141],[-4.241,52.9148],[-4.2533,52.9131],[-4.2646,52.9095],[-4.2934,52.9103],[-4.3188,52.9086],[-4.326,52.9045],[-4.3272,52.8966],[-4.3255,52.8919],[-4.3424,52.8942],[-4.3798,52.8955],[-4.395,52.894],[-4.4015,52.8912],[-4.401,52.8858],[-4.397,52.8869],[-4.3944,52.885],[-4.397,52.8819],[-4.424,52.8795],[-4.4634,52.8683],[-4.4636,52.8642],[-4.47,52.8614],[-4.4774,52.8542],[-4.4681,52.8492],[-4.4692,52.8468],[-4.4812,52.8439],[-4.4853,52.8408],[-4.4922,52.8402],[-4.5032,52.8286],[-4.503,52.8267],[-4.4957,52.8259],[-4.4994,52.8212],[-4.4994,52.8127],[-4.4869,52.8126],[-4.4867,52.8097],[-4.4822,52.8036],[-4.4847,52.8005],[-4.4855,52.7953],[-4.4887,52.794],[-4.4901,52.791],[-4.4968,52.7948],[-4.5138,52.7932],[-4.5181,52.7866],[-4.518,52.7822],[-4.5296,52.7778],[-4.5317,52.7811],[-4.541,52.7878],[-4.5408,52.7942],[-4.5362,52.7995],[-4.5427,52.8041],[-4.5682,52.8162],[-4.6039,52.8252],[-4.61,52.8239],[-4.6135,52.8212],[-4.6239,52.8097],[-4.6454,52.7992],[-4.6489,52.7995],[-4.6515,52.8037],[-4.6591,52.8054],[-4.6674,52.804],[-4.6728,52.8009],[-4.6774,52.8012],[-4.6831,52.7958],[-4.6853,52.7961],[-4.6885,52.7934],[-4.692,52.7948],[-4.6935,52.7991],[-4.6973,52.8007],[-4.7174,52.8033],[-4.7268,52.7948],[-4.7255,52.7937],[-4.7265,52.7914],[-4.7343,52.7821],[-4.7395,52.7848],[-4.7466,52.784],[-4.7539,52.7897],[-4.7591,52.7889],[-4.7692,52.7962],[-4.7682,52.7982],[-4.7559,52.8042],[-4.7538,52.8067],[-4.7525,52.8149],[-4.7555,52.817],[-4.7419,52.8205],[-4.738,52.824],[-4.7386,52.8261],[-4.7359,52.8275],[-4.7364,52.8289],[-4.7226,52.8351],[-4.723,52.8409],[-4.7256,52.8462],[-4.7254,52.8488],[-4.7236,52.8495],[-4.7259,52.8501],[-4.7246,52.8513],[-4.7259,52.8532],[-4.7211,52.8548],[-4.7151,52.8537],[-4.7052,52.8583],[-4.6933,52.8601],[-4.6906,52.8634],[-4.6919,52.8696],[-4.6898,52.8735],[-4.683,52.8754],[-4.6777,52.8743],[-4.6685,52.8767],[-4.6635,52.8845],[-4.6666,52.8876],[-4.6601,52.8911],[-4.6494,52.9019],[-4.6491,52.9048],[-4.633,52.9043],[-4.6233,52.9146],[-4.6227,52.9179],[-4.6182,52.9226],[-4.6065,52.9266],[-4.598,52.9263],[-4.592,52.9286],[-4.5804,52.9376],[-4.5705,52.9402],[-4.5673,52.9486],[-4.5643,52.9462],[-4.5676,52.9434],[-4.566,52.9391],[-4.5531,52.937],[-4.5397,52.9394],[-4.5362,52.9416],[-4.5352,52.9383],[-4.5266,52.9378],[-4.5129,52.9437],[-4.5041,52.9499],[-4.4949,52.9523],[-4.4864,52.9586],[-4.4816,52.9661],[-4.4704,52.9676],[-4.4608,52.9789],[-4.4601,52.9824],[-4.4428,52.9901],[-4.4369,52.9972],[-4.4316,52.9992],[-4.4218,52.9998],[-4.4229,52.9983],[-4.4217,52.9977],[-4.4184,52.9986],[-4.4139,52.9974],[-4.3939,53.009],[-4.3905,53.013],[-4.383,53.0159],[-4.3623,53.0312],[-4.3543,53.0326],[-4.3517,53.0345],[-4.3489,53.0438],[-4.3396,53.052],[-4.3375,53.057],[-4.3371,53.082],[-4.3468,53.1074],[-4.3467,53.1147],[-4.3363,53.1236],[-4.3289,53.1238],[-4.3295,53.1219],[-4.3242,53.1216],[-4.317,53.1228],[-4.326,53.1199],[-4.3335,53.1143],[-4.3292,53.1133],[-4.3228,53.1013],[-4.3199,53.1005],[-4.3146,53.1027],[-4.3128,53.1065],[-4.3143,53.1071],[-4.3112,53.1123],[-4.3109,53.1213],[-4.3124,53.1234],[-4.3114,53.1262],[-4.2678,53.1483],[-4.2577,53.1611],[-4.2515,53.1623],[-4.2431,53.169],[-4.2235,53.1768],[-4.2126,53.1838],[-4.2087,53.1908],[-4.2086,53.2029],[-4.1989,53.2104],[-4.1767,53.2187],[-4.1591,53.2215],[-4.1229,53.2377],[-4.1141,53.2321],[-4.1111,53.2334],[-4.1124,53.2379],[-4.1098,53.2377],[-4.1066,53.2328],[-4.0994,53.2353],[-4.0901,53.2351],[-4.0819,53.229],[-4.0764,53.2291],[-4.0634,53.233],[-4.0332,53.2358],[-4.0233,53.2424],[-4.0082,53.244],[-4.0052,53.2473],[-3.9987,53.2498],[-3.9994,53.2526],[-3.9819,53.2612],[-3.9557,53.2682],[-3.9336,53.2692],[-3.9017,53.2807],[-3.8851,53.2898],[-3.864,53.2891],[-3.8601,53.2899],[-3.8499,53.2967],[-3.8403,53.2944],[-3.8384,53.2932],[-3.8403,53.2921],[-3.8394,53.291],[-3.8352,53.2903],[-3.8298,53.2856],[-3.8231,53.2829],[-3.8213,53.2793],[-3.8135,53.2746],[-3.8146,53.2704],[-3.8091,53.2666],[-3.8098,53.265],[-3.8222,53.2614],[-3.8267,53.2553],[-3.8271,53.2513],[-3.8119,53.242],[-3.8116,53.2369],[-3.8161,53.2316],[-3.8097,53.2336],[-3.8081,53.2356],[-3.8086,53.2412],[-3.8199,53.2508],[-3.8202,53.2533],[-3.8168,53.2582],[-3.8021,53.2647],[-3.7984,53.2753],[-3.7989,53.2775],[-3.8087,53.2774],[-3.8254,53.2866],[-3.8238,53.2894],[-3.825,53.2902],[-3.8376,53.2953],[-3.8453,53.3202],[-3.8582,53.3245],[-3.8644,53.3293],[-3.8731,53.3312],[-3.8776,53.3338],[-3.8788,53.3392],[-3.8716,53.3414],[-3.8529,53.3416],[-3.8429,53.337],[-3.8321,53.3379],[-3.8327,53.3344],[-3.8278,53.3305],[-3.8199,53.3323],[-3.8284,53.329],[-3.8298,53.3263],[-3.8162,53.3226],[-3.798,53.3239],[-3.7812,53.3287],[-3.7744,53.329],[-3.7737,53.3263],[-3.767,53.32],[-3.7589,53.3176],[-3.7397,53.3159],[-3.7379,53.3146],[-3.7356,53.3046],[-3.7104,53.2955],[-3.6842,53.2996],[-3.673,53.2967],[-3.6468,53.2939],[-3.6363,53.2947],[-3.6155,53.2908],[-3.5982,53.2929],[-3.5334,53.309],[-3.5118,53.3175],[-3.5066,53.3092],[-3.4904,53.2986],[-3.4886,53.3],[-3.4904,53.3022],[-3.5059,53.3118],[-3.5067,53.315],[-3.4822,53.3288],[-3.4613,53.3306],[-3.4232,53.342],[-3.3887,53.3494],[-3.3697,53.3507],[-3.3214,53.3578],[-3.3125,53.3572],[-3.3109,53.3534],[-3.3076,53.3527],[-3.3092,53.3448],[-3.3071,53.3399],[-3.2938,53.3317],[-3.2882,53.3309],[-3.2717,53.3221],[-3.2688,53.3232],[-3.2688,53.3209],[-3.2622,53.3265],[-3.2652,53.3215],[-3.2605,53.319],[-3.2603,53.3166],[-3.2566,53.3141],[-3.2475,53.3126],[-3.2314,53.3055],[-3.2012,53.2953],[-3.1987,53.2918],[-3.1818,53.283],[-3.1748,53.2776],[-3.1705,53.2778],[-3.1473,53.2622],[-3.1413,53.26],[-3.1313,53.2593],[-3.1139,53.2476],[-3.0973,53.2398],[-3.0753,53.2332],[-3.058,53.223],[-3.044,53.221],[-3.0339,53.2168],[-3.0298,53.2167],[-3.0424,53.222],[-3.0574,53.2247],[-3.0696,53.2322],[-3.0906,53.2402],[-3.091,53.2414],[-3.0846,53.2424],[-3.0717,53.236],[-3.0673,53.2388],[-3.0738,53.2389],[-3.0745,53.2419],[-3.0637,53.2435],[-3.0606,53.2418],[-3.0589,53.242],[-3.0589,53.2435],[-3.0602,53.2451],[-3.0663,53.2461],[-3.078,53.2432],[-3.083,53.2461],[-3.0937,53.2486],[-3.0986,53.2527],[-3.0976,53.2539],[-3.0899,53.2557],[-3.0847,53.2524],[-3.076,53.2523],[-3.0719,53.2568],[-3.0761,53.2564],[-3.078,53.2541],[-3.0835,53.2557],[-3.0887,53.2598],[-3.0923,53.2595],[-3.0992,53.2619],[-3.1119,53.2616],[-3.114,53.2666],[-3.1136,53.2701],[-3.1062,53.2708],[-3.1063,53.2741],[-3.0998,53.2734],[-3.0978,53.2708],[-3.0936,53.2703],[-3.094,53.2665],[-3.0915,53.2645],[-3.0898,53.2713],[-3.0877,53.2708],[-3.0857,53.2726],[-3.0902,53.2735],[-3.0936,53.2765],[-3.0867,53.2758],[-3.092,53.2773],[-3.0931,53.279],[-3.0905,53.2794],[-3.0812,53.276],[-3.0765,53.278],[-3.063,53.2744],[-3.0654,53.2766],[-3.0722,53.2775],[-3.0741,53.2796],[-3.0897,53.2834],[-3.088,53.2891],[-3.0933,53.2876],[-3.0991,53.289],[-3.0998,53.2927],[-3.0967,53.2942],[-3.1026,53.2945],[-3.0988,53.2966],[-3.1033,53.2968],[-3.1086,53.2997],[-3.1099,53.3033],[-3.1162,53.3083],[-3.1212,53.3179],[-3.118,53.3172],[-3.1161,53.3185],[-3.1042,53.309],[-3.0957,53.305],[-3.0972,53.3065],[-3.1077,53.3151],[-3.1418,53.335],[-3.1481,53.3408],[-3.1715,53.3534],[-3.1717,53.3564],[-3.1796,53.3636],[-3.1844,53.3645],[-3.1992,53.3743],[-3.2008,53.3868],[-3.1932,53.39],[-3.1919,53.3926],[-3.1831,53.3952],[-3.1798,53.3998],[-3.165,53.4055],[-3.1401,53.4132],[-3.1228,53.4159],[-3.1027,53.4217],[-3.0609,53.4404],[-3.0392,53.442],[-3.0302,53.4576],[-3.0374,53.4631],[-3.0393,53.4662],[-3.0366,53.4683],[-3.0479,53.4803],[-3.0583,53.4967],[-3.0629,53.5066],[-3.0653,53.5156],[-3.0653,53.5225],[-3.0666,53.5238],[-3.0721,53.5228],[-3.0741,53.5195],[-3.0762,53.519],[-3.091,53.5346],[-3.0975,53.5363],[-3.1016,53.5397],[-3.1066,53.5497],[-3.1074,53.5546],[-3.1059,53.5634],[-3.0957,53.5798],[-3.0529,53.618],[-3.0435,53.6368],[-3.0374,53.6455],[-3.0302,53.646],[-3.0257,53.6516],[-3.02,53.6539],[-3.0251,53.656],[-3.0191,53.6549],[-3.015,53.6598],[-3.0084,53.6639],[-3.0075,53.6698],[-3.0125,53.6672],[-3.0174,53.6719],[-3.0157,53.6777],[-3.0138,53.6792],[-3.0029,53.678],[-2.992,53.6823],[-2.9912,53.6834],[-2.9925,53.6847],[-2.9899,53.6874],[-2.9841,53.6868],[-2.9751,53.6969],[-2.9663,53.6977],[-2.9635,53.6925],[-2.9583,53.6899],[-2.9539,53.6913],[-2.9586,53.6917],[-2.9614,53.695],[-2.9512,53.6991],[-2.9543,53.7038],[-2.9471,53.7065],[-2.9383,53.704],[-2.9287,53.7049],[-2.9376,53.7058],[-2.942,53.7103],[-2.9506,53.7133],[-2.95,53.7169],[-2.9442,53.723],[-2.9358,53.7235],[-2.9357,53.733],[-2.9425,53.7351],[-2.9372,53.7388],[-2.9373,53.7407],[-2.9546,53.7349],[-2.9732,53.7331],[-2.9933,53.7365],[-3.0054,53.7362],[-3.0233,53.7413],[-3.0311,53.7453],[-3.0375,53.7512],[-3.0476,53.7544],[-3.0538,53.76],[-3.0575,53.769],[-3.0583,53.7937],[-3.0568,53.7994],[-3.0582,53.8327],[-3.0578,53.843],[-3.0501,53.8689],[-3.0477,53.8906],[-3.0517,53.919],[-3.0501,53.922],[-3.0461,53.9244],[-3.0284,53.9273],[-3.0201,53.9267],[-3.0097,53.9297],[-3.0059,53.9267],[-2.9996,53.9277],[-2.9963,53.9318],[-2.9264,53.9508],[-2.9123,53.9479],[-2.9245,53.9478],[-2.9317,53.9459],[-2.9178,53.9468],[-2.9046,53.9408],[-2.8897,53.9406],[-2.8809,53.9456],[-2.8802,53.9482],[-2.8766,53.951],[-2.8783,53.9546],[-2.8857,53.9559],[-2.8844,53.9597],[-2.8784,53.9577],[-2.8672,53.963],[-2.8513,53.9637],[-2.8505,53.965],[-2.8452,53.9649],[-2.8374,53.9621],[-2.8365,53.963],[-2.8557,53.9682],[-2.8719,53.9706],[-2.8761,53.9795],[-2.8781,53.9799],[-2.8699,53.9839],[-2.869,53.9929],[-2.8508,54.0007],[-2.8511,54.0062],[-2.8618,54.0052],[-2.8645,54.0105],[-2.8691,54.0121],[-2.8664,54.0061],[-2.8736,54.0028],[-2.8762,53.9927],[-2.8799,53.9905],[-2.8845,53.9948],[-2.8885,53.9925],[-2.8979,53.9938],[-2.8998,53.995],[-2.9013,54.0018],[-2.9065,54.0083],[-2.908,54.0203],[-2.9195,54.0279],[-2.9232,54.0341],[-2.9143,54.0341],[-2.9148,54.0353],[-2.9226,54.0351],[-2.9077,54.0399],[-2.9079,54.0483],[-2.9009,54.05],[-2.8914,54.0633],[-2.8798,54.0691],[-2.8765,54.0731],[-2.8804,54.0757],[-2.8746,54.0736],[-2.8592,54.0777],[-2.8389,54.0803],[-2.8171,54.093],[-2.8145,54.1053],[-2.8074,54.1112],[-2.8061,54.122],[-2.802,54.1254],[-2.8021,54.1271],[-2.8079,54.128],[-2.8132,54.1254],[-2.8166,54.1291],[-2.8268,54.1292],[-2.8315,54.1356],[-2.8285,54.1401],[-2.8375,54.1428],[-2.8428,54.1495],[-2.8388,54.1518],[-2.848,54.1538],[-2.849,54.1579],[-2.8508,54.1553],[-2.8536,54.1549],[-2.8541,54.1574],[-2.8624,54.1619],[-2.8618,54.1643],[-2.8705,54.1762],[-2.8665,54.1783],[-2.8576,54.1778],[-2.865,54.1808],[-2.8637,54.1908],[-2.8547,54.1924],[-2.8493,54.1969],[-2.8313,54.204],[-2.8275,54.2077],[-2.8278,54.2092],[-2.8249,54.21],[-2.8248,54.2118],[-2.8015,54.2202],[-2.7888,54.2277],[-2.7874,54.2308],[-2.7945,54.2356],[-2.7976,54.2436],[-2.8053,54.2466],[-2.8138,54.2459],[-2.8149,54.2447],[-2.8133,54.243],[-2.8065,54.2431],[-2.8039,54.2409],[-2.8029,54.2381],[-2.8046,54.2333],[-2.8042,54.2271],[-2.8307,54.2194],[-2.8415,54.2057],[-2.8757,54.1974],[-2.879,54.1973],[-2.8793,54.1992],[-2.8871,54.1935],[-2.8882,54.1932],[-2.8892,54.1968],[-2.905,54.191],[-2.9176,54.1786],[-2.9295,54.1625],[-2.9295,54.1512],[-2.9321,54.1527],[-2.9338,54.157],[-2.9454,54.1579],[-2.9402,54.1567],[-2.939,54.155],[-2.9589,54.1532],[-2.9643,54.1513],[-2.9661,54.1474],[-2.97,54.146],[-2.9942,54.1528],[-3.0023,54.158],[-3.0033,54.1648],[-2.9934,54.1732],[-3.0057,54.1742],[-3.016,54.1853],[-3.0241,54.1892],[-3.0304,54.1949],[-3.0303,54.196],[-3.024,54.1969],[-3.0226,54.2009],[-3.0157,54.2026],[-3.0148,54.2069],[-3.0177,54.211],[-3.0205,54.2113],[-3.0218,54.217],[-3.0261,54.2196],[-3.0321,54.2284],[-3.0437,54.2275],[-3.0487,54.2291],[-3.0484,54.2351],[-3.0373,54.2373],[-3.0322,54.2424],[-3.0292,54.2426],[-3.0303,54.2373],[-3.0267,54.2386],[-3.0253,54.241],[-3.0264,54.2435],[-3.0296,54.2457],[-3.034,54.246],[-3.0364,54.2403],[-3.0475,54.2391],[-3.052,54.2314],[-3.054,54.2202],[-3.0531,54.2182],[-3.0382,54.217],[-3.0357,54.2147],[-3.0355,54.212],[-3.0379,54.2078],[-3.0391,54.21],[-3.0401,54.2094],[-3.038,54.2044],[-3.0393,54.2023],[-3.0436,54.1993],[-3.0528,54.1983],[-3.0516,54.189],[-3.0559,54.1879],[-3.0554,54.1852],[-3.0578,54.1822],[-3.0614,54.1858],[-3.062,54.1804],[-3.0579,54.1768],[-3.0629,54.1624],[-3.079,54.1541],[-3.0791,54.1513],[-3.0849,54.1459],[-3.0855,54.1408],[-3.0887,54.137],[-3.1009,54.1287],[-3.1006,54.125],[-3.1031,54.1236],[-3.1038,54.1191],[-3.1178,54.1143],[-3.1203,54.1095],[-3.1268,54.106],[-3.1276,54.1019],[-3.1547,54.0906],[-3.164,54.0841],[-3.1711,54.0832],[-3.1716,54.0818],[-3.1638,54.0751],[-3.153,54.0678],[-3.1516,54.0704],[-3.1504,54.0641],[-3.1524,54.0643],[-3.1549,54.068],[-3.1709,54.0791],[-3.1727,54.0789],[-3.1729,54.0765],[-3.171,54.0753],[-3.1713,54.0733],[-3.1757,54.0725],[-3.1773,54.0738],[-3.1742,54.0813],[-3.1746,54.0839],[-3.1872,54.09],[-3.1879,54.0927],[-3.1863,54.0942],[-3.1927,54.1043],[-3.2159,54.0976],[-3.2185,54.0963],[-3.2196,54.0933],[-3.2223,54.095],[-3.2199,54.098],[-3.2114,54.1009],[-3.2139,54.1053],[-3.2167,54.1044],[-3.2148,54.1014],[-3.2263,54.0988],[-3.2213,54.0983],[-3.2254,54.0944],[-3.2297,54.0966],[-3.2324,54.1007],[-3.2388,54.1039],[-3.2407,54.1069],[-3.2465,54.1063],[-3.2429,54.0993],[-3.2498,54.0982],[-3.2481,54.0946],[-3.2368,54.0869],[-3.2302,54.0889],[-3.2285,54.088],[-3.2311,54.0841],[-3.2205,54.0816],[-3.2275,54.0777],[-3.2273,54.0717],[-3.2217,54.0675],[-3.2114,54.0662],[-3.2046,54.0597],[-3.2052,54.0536],[-3.2029,54.0513],[-3.1995,54.0497],[-3.191,54.0498],[-3.1832,54.0539],[-3.1769,54.0548],[-3.1762,54.0496],[-3.1734,54.0492],[-3.173,54.0553],[-3.1701,54.0545],[-3.1697,54.0516],[-3.1732,54.0475],[-3.1909,54.0467],[-3.1966,54.0451],[-3.2041,54.0462],[-3.2112,54.0492],[-3.2236,54.0619],[-3.2371,54.0727],[-3.2577,54.0942],[-3.2692,54.1091],[-3.2708,54.1209],[-3.2763,54.1362],[-3.2768,54.1444],[-3.2744,54.1473],[-3.2586,54.1534],[-3.2533,54.152],[-3.2659,54.1475],[-3.2675,54.1447],[-3.2662,54.142],[-3.2675,54.141],[-3.2654,54.1414],[-3.265,54.1402],[-3.2667,54.1375],[-3.2648,54.1383],[-3.2657,54.1358],[-3.2643,54.1342],[-3.2637,54.1365],[-3.2599,54.135],[-3.2521,54.1272],[-3.2497,54.1233],[-3.2504,54.1146],[-3.2465,54.1106],[-3.2469,54.1077],[-3.2422,54.1093],[-3.2449,54.1259],[-3.2442,54.1387],[-3.2412,54.147],[-3.2426,54.1491],[-3.2392,54.1528],[-3.2385,54.1559],[-3.2452,54.1586],[-3.2481,54.1553],[-3.2522,54.1557],[-3.2541,54.1608],[-3.2618,54.163],[-3.2624,54.1681],[-3.2609,54.1704],[-3.2559,54.172],[-3.2337,54.1714],[-3.2189,54.1803],[-3.216,54.1864],[-3.2262,54.1887],[-3.2265,54.1899],[-3.2193,54.1903],[-3.2173,54.1921],[-3.2117,54.2089],[-3.2086,54.2104],[-3.2055,54.2202],[-3.1998,54.2216],[-3.1946,54.229],[-3.1876,54.2335],[-3.1872,54.2367],[-3.1955,54.231],[-3.1972,54.2282],[-3.2003,54.2283],[-3.2015,54.2388],[-3.2128,54.2459],[-3.2131,54.2512],[-3.2159,54.2567],[-3.2235,54.26],[-3.2265,54.2726],[-3.2304,54.2691],[-3.2295,54.2665],[-3.2323,54.263],[-3.2316,54.2585],[-3.2228,54.2517],[-3.2249,54.2484],[-3.2321,54.2488],[-3.2262,54.2464],[-3.2267,54.2406],[-3.229,54.2405],[-3.2349,54.2309],[-3.2361,54.2309],[-3.2361,54.2353],[-3.2373,54.2327],[-3.2405,54.2329],[-3.2385,54.2313],[-3.2391,54.2303],[-3.2441,54.2318],[-3.2387,54.2293],[-3.241,54.226],[-3.2466,54.2248],[-3.2491,54.2198],[-3.2518,54.2184],[-3.2504,54.2266],[-3.2519,54.2258],[-3.252,54.2229],[-3.2538,54.2219],[-3.252,54.2213],[-3.2541,54.2203],[-3.2569,54.213],[-3.2569,54.2112],[-3.2546,54.2103],[-3.2454,54.2094],[-3.24,54.2047],[-3.2451,54.2022],[-3.2456,54.1988],[-3.2488,54.1959],[-3.2536,54.1923],[-3.2562,54.1929],[-3.2622,54.1908],[-3.2722,54.1915],[-3.2795,54.1966],[-3.2849,54.1974],[-3.2879,54.1946],[-3.299,54.1908],[-3.3124,54.1894],[-3.3247,54.1915],[-3.3315,54.1964],[-3.3673,54.2335],[-3.3873,54.247],[-3.3877,54.2498],[-3.3933,54.2517],[-3.4059,54.2678],[-3.4201,54.2821],[-3.4202,54.2865],[-3.4234,54.2932],[-3.4163,54.2974],[-3.4156,54.3069],[-3.4189,54.3171],[-3.4256,54.3299],[-3.4245,54.3371],[-3.4159,54.3446],[-3.4136,54.3504],[-3.4113,54.3509],[-3.41,54.3477],[-3.4126,54.3369],[-3.4108,54.3361],[-3.4,54.3362],[-3.39,54.3406],[-3.388,54.345],[-3.39,54.3452],[-3.3922,54.3415],[-3.4051,54.3388],[-3.4073,54.341],[-3.4063,54.3511],[-3.414,54.354],[-3.4134,54.3561],[-3.4055,54.3625],[-3.4065,54.3636],[-3.4158,54.3634],[-3.4141,54.3572],[-3.4236,54.3593],[-3.4295,54.3569],[-3.4331,54.3576],[-3.4379,54.3613],[-3.4359,54.3648],[-3.4387,54.3665],[-3.4407,54.366],[-3.4431,54.3605],[-3.4231,54.35],[-3.4263,54.3445],[-3.4287,54.3433],[-3.4362,54.3444],[-3.4684,54.372],[-3.4758,54.3848],[-3.487,54.3932],[-3.4954,54.402],[-3.5048,54.408],[-3.507,54.41],[-3.5065,54.4112],[-3.5161,54.4161],[-3.5446,54.4409],[-3.5549,54.4466],[-3.5636,54.4491],[-3.5691,54.4576],[-3.5754,54.4604],[-3.5857,54.4726],[-3.5971,54.4825],[-3.6093,54.4899],[-3.6174,54.4893],[-3.6218,54.491],[-3.6307,54.5026],[-3.6375,54.5059],[-3.6415,54.5134],[-3.6414,54.5175],[-3.6181,54.5241],[-3.6095,54.5291],[-3.604,54.5446],[-3.5996,54.549],[-3.6017,54.552],[-3.5944,54.5482],[-3.592,54.5509],[-3.598,54.5523],[-3.5903,54.5533],[-3.5899,54.5587],[-3.5846,54.5657],[-3.5837,54.5712],[-3.5816,54.573],[-3.582,54.5817],[-3.5799,54.5894],[-3.5702,54.6039],[-3.5694,54.612],[-3.5669,54.6141],[-3.5692,54.6187],[-3.5691,54.626],[-3.5736,54.637],[-3.572,54.6425],[-3.5749,54.6506],[-3.5634,54.6482],[-3.5559,54.6492],[-3.5628,54.6489],[-3.5656,54.6504],[-3.5661,54.6534],[-3.5613,54.6632],[-3.5506,54.6731],[-3.529,54.685],[-3.5218,54.6921],[-3.5128,54.7067],[-3.5124,54.7178],[-3.503,54.7178],[-3.4981,54.7245],[-3.492,54.7293],[-3.4598,54.7416],[-3.4494,54.7524],[-3.4394,54.7593],[-3.4365,54.7636],[-3.4341,54.7807],[-3.4366,54.7887],[-3.4413,54.796],[-3.4414,54.8006],[-3.427,54.8219],[-3.422,54.8262],[-3.4204,54.8307],[-3.4116,54.8393],[-3.4023,54.8601],[-3.4013,54.8676],[-3.3996,54.869],[-3.3923,54.8665],[-3.3973,54.8696],[-3.3922,54.8709],[-3.3863,54.875],[-3.3818,54.8792],[-3.3804,54.8827],[-3.3699,54.8903],[-3.3545,54.8968],[-3.3404,54.8993],[-3.3388,54.8981],[-3.3595,54.8911],[-3.3558,54.89],[-3.3558,54.8918],[-3.3494,54.8924],[-3.3513,54.8891],[-3.3441,54.8865],[-3.3432,54.8881],[-3.3501,54.8901],[-3.3473,54.8918],[-3.3483,54.8941],[-3.3428,54.8951],[-3.3378,54.8918],[-3.3123,54.8873],[-3.3006,54.8832],[-3.2951,54.8775],[-3.2858,54.8759],[-3.2836,54.8742],[-3.2832,54.872],[-3.2861,54.8658],[-3.2833,54.8628],[-3.2836,54.861],[-3.2817,54.8614],[-3.2804,54.8639],[-3.2832,54.8673],[-3.2805,54.8706],[-3.2808,54.8778],[-3.2852,54.8808],[-3.2879,54.8853],[-3.2868,54.8884],[-3.2891,54.8922],[-3.2762,54.892],[-3.2772,54.8905],[-3.2753,54.8902],[-3.2653,54.8918],[-3.2588,54.8963],[-3.2557,54.9014],[-3.2534,54.9024],[-3.252,54.9002],[-3.2512,54.9037],[-3.2553,54.9051],[-3.2561,54.909],[-3.2522,54.911],[-3.2364,54.9094],[-3.2227,54.9023],[-3.2231,54.9039],[-3.2335,54.9105],[-3.247,54.9128],[-3.26,54.9104],[-3.2645,54.9059],[-3.2715,54.9029],[-3.2802,54.9028],[-3.2862,54.9064],[-3.3048,54.9084],[-3.3147,54.914],[-3.315,54.9184],[-3.31,54.923],[-3.2982,54.9297],[-3.2937,54.9361],[-3.2835,54.9407],[-3.247,54.9435],[-3.2285,54.9512],[-3.2129,54.9543],[-3.2038,54.9547],[-3.1991,54.953],[-3.1866,54.9523],[-3.184,54.9502],[-3.1849,54.9491],[-3.1787,54.9444],[-3.1605,54.9404],[-3.1509,54.9329],[-3.1436,54.9319],[-3.1416,54.9294],[-3.127,54.9303],[-3.1175,54.928],[-3.1067,54.9288],[-3.0689,54.9408],[-3.0639,54.948],[-3.0498,54.947],[-3.032,54.9423],[-3.0202,54.9455],[-3.008,54.9456],[-3.0022,54.9364],[-3.0033,54.9325],[-3.0075,54.9294],[-3.0049,54.9296],[-2.9989,54.9339],[-2.9985,54.9364],[-3.0046,54.9458],[-3.0075,54.9467],[-3.0369,54.9453],[-3.0585,54.9555],[-3.0538,54.9524],[-3.0702,54.9509],[-3.0762,54.9516],[-3.076,54.9535],[-3.0796,54.949],[-3.0864,54.9467],[-3.0904,54.9469],[-3.099,54.9513],[-3.0936,54.9608],[-3.0875,54.96],[-3.0884,54.9617],[-3.0859,54.9638],[-3.0782,54.9637],[-3.0751,54.9662],[-3.0737,54.9705],[-3.0686,54.9723],[-3.0636,54.9784],[-3.0564,54.9819],[-3.0513,54.9806],[-3.0469,54.9763],[-3.0401,54.9749],[-3.0393,54.9687],[-3.0378,54.9672],[-3.0113,54.972],[-3.0128,54.9734],[-3.0362,54.9683],[-3.038,54.9745],[-3.0442,54.9773],[-3.0469,54.9831],[-3.0537,54.9862],[-3.0593,54.9867],[-3.0823,54.9782],[-3.0881,54.9775],[-3.0913,54.9752],[-3.1016,54.9786],[-3.1129,54.9778],[-3.1211,54.9755],[-3.1287,54.9703],[-3.1453,54.9646],[-3.15,54.9647],[-3.1664,54.9704],[-3.2053,54.9757],[-3.2347,54.9713],[-3.242,54.9672],[-3.2485,54.9713],[-3.2683,54.9689],[-3.2715,54.9701],[-3.2769,54.9758],[-3.2767,54.9783],[-3.273,54.9786],[-3.2732,54.9806],[-3.2754,54.9804],[-3.279,54.9775],[-3.2788,54.9754],[-3.2727,54.969],[-3.266,54.9657],[-3.2705,54.9645],[-3.2968,54.9688],[-3.3075,54.9738],[-3.3293,54.9785],[-3.332,54.9758],[-3.3416,54.973],[-3.3553,54.9736],[-3.3671,54.9701],[-3.3752,54.9706],[-3.384,54.9736],[-3.4057,54.9743],[-3.4179,54.9782],[-3.4336,54.9923],[-3.4363,54.9929],[-3.4424,54.9916],[-3.4499,54.9926],[-3.4565,54.9901],[-3.4586,54.9875],[-3.4582,54.9826],[-3.4611,54.982],[-3.4686,54.9856],[-3.469,54.9874],[-3.4723,54.9879],[-3.47,54.9845],[-3.4621,54.9804],[-3.4545,54.9839],[-3.4553,54.9879],[-3.4494,54.9909],[-3.4379,54.9896],[-3.4375,54.9873],[-3.4393,54.9872],[-3.4395,54.9848],[-3.4457,54.9816],[-3.4506,54.9766],[-3.4647,54.971],[-3.4936,54.9651],[-3.5275,54.9649],[-3.5501,54.9727],[-3.5587,54.9787],[-3.5595,54.9818],[-3.574,54.9983],[-3.5742,55.0068],[-3.5782,55.015],[-3.5915,55.0262],[-3.6015,55.029],[-3.6001,55.0267],[-3.5909,55.0231],[-3.5823,55.0153],[-3.581,55.0106],[-3.5783,55.009],[-3.5792,55.0068],[-3.5875,55.006],[-3.5918,55.0],[-3.5909,54.9965],[-3.5789,54.985],[-3.5769,54.9791],[-3.585,54.9751],[-3.5833,54.9663],[-3.5778,54.9621],[-3.5778,54.9589],[-3.5882,54.9422],[-3.5875,54.9295],[-3.5848,54.9263],[-3.5722,54.9231],[-3.5695,54.9149],[-3.5644,54.9071],[-3.5663,54.9031],[-3.5704,54.9017],[-3.5771,54.8915],[-3.594,54.8872],[-3.5976,54.8847],[-3.5942,54.8769],[-3.594,54.8727],[-3.6077,54.8729],[-3.6102,54.8756],[-3.6154,54.8771],[-3.6369,54.8801],[-3.6643,54.8812],[-3.6866,54.8791],[-3.6958,54.8867],[-3.718,54.8796],[-3.7256,54.8797],[-3.7301,54.8777],[-3.7306,54.8759],[-3.7266,54.8747],[-3.7407,54.868],[-3.7428,54.8633],[-3.7492,54.8634],[-3.7626,54.8574],[-3.7663,54.8581],[-3.7834,54.8554],[-3.7927,54.8636],[-3.7982,54.864],[-3.8123,54.8723],[-3.8142,54.8787],[-3.8178,54.882],[-3.8162,54.8889],[-3.8174,54.8908],[-3.8226,54.8905],[-3.8233,54.8891],[-3.8269,54.8889],[-3.8269,54.8876],[-3.8242,54.8861],[-3.819,54.8872],[-3.823,54.8804],[-3.8173,54.8724],[-3.8208,54.8727],[-3.8231,54.8762],[-3.829,54.8748],[-3.8228,54.8682],[-3.8249,54.8642],[-3.8242,54.8604],[-3.8166,54.8574],[-3.8133,54.8531],[-3.8109,54.853],[-3.8103,54.8548],[-3.8083,54.8541],[-3.8053,54.8502],[-3.807,54.8494],[-3.8064,54.8463],[-3.811,54.8449],[-3.8207,54.8471],[-3.8258,54.8505],[-3.8255,54.8528],[-3.8297,54.8539],[-3.8378,54.86],[-3.8369,54.8617],[-3.8384,54.8647],[-3.8421,54.8649],[-3.8483,54.8648],[-3.8517,54.8619],[-3.8472,54.8573],[-3.8432,54.857],[-3.8402,54.8542],[-3.8418,54.8535],[-3.8479,54.8561],[-3.8481,54.8544],[-3.8386,54.8507],[-3.8351,54.8464],[-3.8554,54.8507],[-3.8603,54.8498],[-3.862,54.8478],[-3.8577,54.8425],[-3.84,54.8359],[-3.8352,54.8278],[-3.8263,54.8284],[-3.8234,54.8263],[-3.8244,54.8247],[-3.8403,54.8163],[-3.8553,54.8172],[-3.864,54.8151],[-3.8673,54.8082],[-3.8742,54.8042],[-3.8987,54.7989],[-3.9066,54.7962],[-3.9085,54.7938],[-3.9248,54.7891],[-3.9417,54.7868],[-3.943,54.7843],[-3.9584,54.7778],[-3.9605,54.7722],[-3.9678,54.7695],[-3.9841,54.7679],[-4.0068,54.7729],[-4.0083,54.7708],[-4.0114,54.7701],[-4.0282,54.7719],[-4.0464,54.7695],[-4.0486,54.7724],[-4.055,54.7738],[-4.056,54.7758],[-4.0647,54.7806],[-4.064,54.7933],[-4.058,54.7978],[-4.058,54.8006],[-4.0463,54.8146],[-4.0497,54.8189],[-4.0494,54.8216],[-4.0527,54.8253],[-4.0559,54.8261],[-4.0598,54.8247],[-4.0635,54.8201],[-4.0664,54.8126],[-4.0713,54.8124],[-4.0713,54.8153],[-4.0664,54.8232],[-4.0611,54.8272],[-4.0632,54.8369],[-4.0616,54.8384],[-4.0608,54.837],[-4.051,54.8385],[-4.0437,54.8453],[-4.0441,54.8485],[-4.049,54.8502],[-4.0507,54.8529],[-4.0422,54.8569],[-4.0495,54.859],[-4.0495,54.8619],[-4.0524,54.862],[-4.0512,54.8583],[-4.0524,54.8502],[-4.0468,54.8455],[-4.0542,54.8389],[-4.0577,54.8388],[-4.0584,54.8405],[-4.0609,54.841],[-4.0641,54.8389],[-4.069,54.8324],[-4.0688,54.8299],[-4.0707,54.8297],[-4.0778,54.82],[-4.0889,54.8133],[-4.0864,54.801],[-4.0915,54.7937],[-4.0921,54.7886],[-4.0905,54.7819],[-4.1039,54.7804],[-4.105,54.7783],[-4.101,54.7764],[-4.0945,54.777],[-4.0904,54.7753],[-4.0901,54.7732],[-4.0948,54.7662],[-4.1081,54.7689],[-4.1095,54.7703],[-4.1091,54.7742],[-4.1118,54.7777],[-4.1175,54.777],[-4.1234,54.779],[-4.1224,54.7826],[-4.1178,54.7861],[-4.1213,54.7882],[-4.124,54.7883],[-4.132,54.7792],[-4.1373,54.7761],[-4.152,54.778],[-4.1551,54.7806],[-4.1585,54.7795],[-4.1603,54.7819],[-4.16,54.7845],[-4.1637,54.7873],[-4.1701,54.7867],[-4.1734,54.7897],[-4.1783,54.7909],[-4.1864,54.8025],[-4.1801,54.8075],[-4.1856,54.8065],[-4.1871,54.8079],[-4.1903,54.8076],[-4.1924,54.8097],[-4.1936,54.8075],[-4.1961,54.8075],[-4.1979,54.8098],[-4.201,54.81],[-4.203,54.8129],[-4.21,54.8141],[-4.2094,54.819],[-4.2077,54.8204],[-4.2159,54.8222],[-4.2188,54.825],[-4.2167,54.8292],[-4.2199,54.8296],[-4.2141,54.8364],[-4.2186,54.8371],[-4.2162,54.8378],[-4.2165,54.8391],[-4.2207,54.8387],[-4.2203,54.8399],[-4.2244,54.8413],[-4.2196,54.8444],[-4.2196,54.8468],[-4.2227,54.8485],[-4.2224,54.8501],[-4.2139,54.8551],[-4.2121,54.8594],[-4.208,54.8599],[-4.2051,54.8622],[-4.203,54.8654],[-4.2037,54.8682],[-4.2108,54.8657],[-4.2261,54.8645],[-4.228,54.863],[-4.2299,54.8565],[-4.2357,54.8532],[-4.2403,54.8526],[-4.2462,54.8462],[-4.2555,54.8439],[-4.2591,54.8407],[-4.2589,54.8378],[-4.2677,54.8346],[-4.2748,54.8366],[-4.2798,54.8401],[-4.3061,54.8427],[-4.3142,54.8467],[-4.3242,54.8482],[-4.3632,54.8624],[-4.3712,54.8745],[-4.3764,54.8772],[-4.3836,54.8771],[-4.3803,54.8787],[-4.3826,54.8795],[-4.3827,54.8859],[-4.3856,54.8905],[-4.3921,54.8926],[-4.4081,54.8924],[-4.415,54.8891],[-4.4275,54.8861],[-4.4305,54.8834],[-4.4302,54.8805],[-4.4365,54.8703],[-4.4325,54.8651],[-4.4335,54.8619],[-4.4271,54.8626],[-4.4222,54.8549],[-4.4224,54.8482],[-4.4178,54.8378],[-4.4135,54.8336],[-4.4151,54.832],[-4.4087,54.8249],[-4.3983,54.8246],[-4.3919,54.8217],[-4.3777,54.8208],[-4.3713,54.8162],[-4.3664,54.8168],[-4.3561,54.8147],[-4.3461,54.8057],[-4.3437,54.7988],[-4.3454,54.7939],[-4.3483,54.7916],[-4.355,54.7911],[-4.3576,54.7939],[-4.3659,54.7971],[-4.3703,54.794],[-4.3745,54.7939],[-4.3761,54.7917],[-4.3754,54.7906],[-4.3693,54.7913],[-4.375,54.7884],[-4.3622,54.7866],[-4.363,54.7845],[-4.3607,54.7775],[-4.3693,54.7756],[-4.3716,54.7725],[-4.3654,54.7693],[-4.3558,54.7686],[-4.3578,54.7625],[-4.3558,54.7577],[-4.3591,54.7553],[-4.358,54.7513],[-4.367,54.74],[-4.3635,54.735],[-4.3674,54.728],[-4.3644,54.7251],[-4.3662,54.7207],[-4.363,54.7198],[-4.3636,54.7174],[-4.362,54.7148],[-4.3518,54.7149],[-4.3523,54.7125],[-4.3499,54.7083],[-4.3513,54.7034],[-4.3544,54.7004],[-4.3591,54.6991],[-4.3599,54.6974],[-4.3581,54.6935],[-4.3591,54.6926],[-4.3647,54.6949],[-4.3635,54.6972],[-4.3662,54.6971],[-4.3655,54.6882],[-4.3703,54.6846],[-4.3777,54.682],[-4.3818,54.6786],[-4.3943,54.6751],[-4.4068,54.6754],[-4.4233,54.6806],[-4.4358,54.6884],[-4.4554,54.695],[-4.484,54.699],[-4.5189,54.7128],[-4.5301,54.722],[-4.5441,54.7233],[-4.5446,54.7249],[-4.5418,54.7271],[-4.5465,54.733],[-4.5555,54.7354],[-4.5724,54.7368],[-4.5778,54.7433],[-4.579,54.7514],[-4.5889,54.7584],[-4.5887,54.7602],[-4.5852,54.7609],[-4.5878,54.7668],[-4.5946,54.7703],[-4.5989,54.7748],[-4.6068,54.7753],[-4.6072,54.7781],[-4.6138,54.7808],[-4.6215,54.7804],[-4.6303,54.7825],[-4.644,54.7896],[-4.6828,54.8028],[-4.7127,54.8238],[-4.7413,54.8252],[-4.7472,54.8274],[-4.7613,54.825],[-4.7788,54.8303],[-4.7862,54.836],[-4.7916,54.846],[-4.8021,54.8496],[-4.8092,54.8604],[-4.8131,54.8621],[-4.8116,54.8669],[-4.8131,54.8678],[-4.8206,54.8627],[-4.8362,54.8629],[-4.8458,54.8676],[-4.8574,54.8705],[-4.8593,54.8691],[-4.8557,54.8681],[-4.8507,54.8627],[-4.8553,54.8573],[-4.8929,54.8468],[-4.9116,54.8386],[-4.9352,54.8315],[-4.9388,54.8294],[-4.9425,54.822],[-4.9545,54.8144],[-4.9602,54.808],[-4.9593,54.803],[-4.9488,54.7962],[-4.9406,54.7767],[-4.9381,54.7756],[-4.9391,54.7643],[-4.9313,54.7603],[-4.9257,54.7499],[-4.9185,54.7453],[-4.9176,54.7422],[-4.9188,54.7375],[-4.9129,54.7346],[-4.9136,54.728],[-4.9104,54.7267],[-4.9036,54.7124],[-4.9062,54.7038],[-4.9046,54.7003],[-4.8987,54.6982],[-4.8941,54.6905],[-4.8951,54.6887],[-4.8905,54.6913],[-4.8857,54.6915],[-4.8838,54.6863],[-4.8808,54.6844],[-4.8722,54.6837],[-4.866,54.6812],[-4.8661,54.6799],[-4.8785,54.6734],[-4.8821,54.6693],[-4.8809,54.6636],[-4.8843,54.6532],[-4.8793,54.6477],[-4.8765,54.6387],[-4.8664,54.637],[-4.8518,54.6388],[-4.8512,54.6362],[-4.8564,54.6332],[-4.8687,54.633],[-4.8794,54.6335],[-4.8833,54.636],[-4.8827,54.6387],[-4.9011,54.6391],[-4.9084,54.6425],[-4.9175,54.6415],[-4.9335,54.6479],[-4.9576,54.6628],[-4.9655,54.6639],[-4.9626,54.6647],[-4.9679,54.6716],[-4.9632,54.6758],[-4.9695,54.6764],[-4.9752,54.6823],[-4.9731,54.6887],[-4.9473,54.6982],[-4.9585,54.7055],[-4.9635,54.7121],[-4.9631,54.7136],[-4.9663,54.7163],[-4.9663,54.7185],[-4.9633,54.7215],[-4.9579,54.7228],[-4.9563,54.7249],[-4.9591,54.7289],[-4.9803,54.7324],[-4.9869,54.731],[-4.9912,54.7333],[-4.9923,54.7356],[-4.9904,54.7379],[-4.9909,54.7418],[-4.989,54.7448],[-4.9903,54.7457],[-4.9878,54.7502],[-5.0003,54.7528],[-5.0035,54.7548],[-5.0038,54.7586],[-5.0061,54.7591],[-5.0064,54.7619],[-5.0017,54.7619],[-4.9996,54.7646],[-5.0012,54.7719],[-5.0056,54.7747],[-5.0091,54.7798],[-5.007,54.7822],[-5.0164,54.7813],[-5.0269,54.7887],[-5.0378,54.7902],[-5.0411,54.7933],[-5.0378,54.7978],[-5.0403,54.8009],[-5.0515,54.8051],[-5.0551,54.8092],[-5.0646,54.8106],[-5.0754,54.8145],[-5.0838,54.8205],[-5.0845,54.8243],[-5.0913,54.8284],[-5.0965,54.8278],[-5.104,54.8297],[-5.1067,54.832],[-5.1068,54.8343],[-5.1091,54.8343],[-5.1166,54.8391],[-5.1177,54.8413],[-5.1162,54.8421],[-5.118,54.8443],[-5.1216,54.8432],[-5.1199,54.8408],[-5.1291,54.8466],[-5.1313,54.8508],[-5.1366,54.85],[-5.141,54.8532],[-5.1426,54.8574],[-5.1462,54.8576],[-5.1477,54.8594],[-5.1461,54.862],[-5.1467,54.8712],[-5.1555,54.8809],[-5.1654,54.8964],[-5.1729,54.9012],[-5.1747,54.9057],[-5.1824,54.91],[-5.1859,54.9166],[-5.1852,54.9267],[-5.1875,54.9307],[-5.1857,54.9356],[-5.1881,54.9509],[-5.1845,54.9574],[-5.1818,54.9592],[-5.1818,54.9622],[-5.1795,54.9655],[-5.1809,54.9701],[-5.1793,54.9723],[-5.1868,54.9753],[-5.1713,54.992],[-5.1726,54.9952],[-5.1688,54.9974],[-5.16763,55.0],[-5.981324,55.0],[-5.9838,54.9923],[-5.9888,54.987],[-5.9864,54.9813],[-5.9802,54.9785],[-5.9642,54.9796],[-5.9582,54.9762],[-5.9558,54.9718],[-5.9508,54.9677],[-5.9417,54.9694],[-5.9327,54.9686],[-5.9157,54.96],[-5.9058,54.9493],[-5.8963,54.9418],[-5.8895,54.932],[-5.8824,54.9165],[-5.8743,54.9057],[-5.858,54.8983],[-5.843,54.8998],[-5.8388,54.898],[-5.8365,54.8933],[-5.8373,54.8883],[-5.8328,54.8801],[-5.8308,54.878],[-5.816,54.8738],[-5.8056,54.8644],[-5.8044,54.8608],[-5.7923,54.8489],[-5.7797,54.8532],[-5.7815,54.8548],[-5.7786,54.8569],[-5.7634,54.8519],[-5.7612,54.8534],[-5.7626,54.8574],[-5.7592,54.8583],[-5.7486,54.8558],[-5.7434,54.8562],[-5.7427,54.8547],[-5.7313,54.8506],[-5.7285,54.8478],[-5.7223,54.8469],[-5.7179,54.8436],[-5.7033,54.8261],[-5.6904,54.8089],[-5.6876,54.801],[-5.6922,54.7721],[-5.6856,54.7665],[-5.7027,54.7537],[-5.7071,54.7445],[-5.7202,54.7372],[-5.7302,54.7348],[-5.7443,54.7244],[-5.7877,54.7185],[-5.8003,54.7125],[-5.8009,54.7094],[-5.8037,54.7089],[-5.8061,54.7104],[-5.8199,54.709],[-5.8369,54.7032],[-5.8369,54.7013],[-5.8414,54.6981],[-5.8445,54.698],[-5.8451,54.6948],[-5.8492,54.6949],[-5.8602,54.6898],[-5.8651,54.685],[-5.8846,54.6773],[-5.8889,54.674],[-5.8907,54.672],[-5.8922,54.663],[-5.9015,54.653],[-5.8968,54.646],[-5.8933,54.6456],[-5.895,54.6356],[-5.901,54.6355],[-5.901,54.6332],[-5.8917,54.6311],[-5.8795,54.6356],[-5.876,54.6333],[-5.9142,54.6138],[-5.9133,54.612],[-5.9007,54.6195],[-5.8951,54.621],[-5.9057,54.6141],[-5.9097,54.609],[-5.917,54.6036],[-5.9158,54.6026],[-5.9109,54.6039],[-5.9089,54.6077],[-5.8931,54.6172],[-5.8888,54.6214],[-5.8872,54.6181],[-5.8894,54.614],[-5.896,54.6096],[-5.8906,54.6077],[-5.8891,54.6115],[-5.885,54.6102],[-5.8811,54.6232],[-5.8658,54.6346],[-5.7997,54.6598],[-5.7792,54.6637],[-5.7692,54.6683],[-5.7405,54.6765],[-5.7339,54.6765],[-5.7312,54.6701],[-5.7252,54.6674],[-5.7078,54.6692],[-5.6956,54.6686],[-5.6916,54.6667],[-5.6767,54.6684],[-5.6692,54.6636],[-5.6537,54.6701],[-5.6482,54.6673],[-5.6489,54.6648],[-5.6336,54.6677],[-5.6305,54.67],[-5.6325,54.6724],[-5.6355,54.671],[-5.6363,54.6756],[-5.6303,54.6808],[-5.6185,54.6797],[-5.6085,54.6739],[-5.6024,54.6748],[-5.6045,54.6762],[-5.6004,54.6781],[-5.5897,54.6798],[-5.5905,54.6778],[-5.5868,54.6757],[-5.5788,54.6766],[-5.5737,54.6745],[-5.5634,54.6632],[-5.5479,54.655],[-5.5382,54.6532],[-5.5375,54.6488],[-5.533,54.6432],[-5.5297,54.6431],[-5.5277,54.645],[-5.5249,54.644],[-5.5262,54.642],[-5.526,54.6327],[-5.5278,54.6325],[-5.5292,54.626],[-5.529,54.621],[-5.526,54.6195],[-5.5289,54.6168],[-5.5216,54.6073],[-5.5156,54.5953],[-5.5035,54.5897],[-5.4986,54.5789],[-5.4937,54.5765],[-5.4871,54.5766],[-5.4743,54.5633],[-5.4734,54.5601],[-5.4812,54.5464],[-5.4794,54.5423],[-5.476,54.5423],[-5.4799,54.5404],[-5.4791,54.5344],[-5.4748,54.5287],[-5.4674,54.5242],[-5.4685,54.515],[-5.465,54.5123],[-5.4594,54.4963],[-5.4528,54.4921],[-5.4477,54.4918],[-5.4393,54.4883],[-5.4271,54.4883],[-5.427,54.4909],[-5.4255,54.4914],[-5.4232,54.4901],[-5.4321,54.4815],[-5.4335,54.4764],[-5.4372,54.4734],[-5.4326,54.4684],[-5.4371,54.4574],[-5.4333,54.4547],[-5.4452,54.4506],[-5.4522,54.437],[-5.4571,54.4377],[-5.4673,54.4346],[-5.475,54.4272],[-5.473,54.423],[-5.4683,54.4229],[-5.4673,54.4177],[-5.4639,54.4174],[-5.4606,54.4136],[-5.4617,54.3976],[-5.4559,54.3909],[-5.4575,54.3843],[-5.459,54.381],[-5.468,54.3799],[-5.471,54.3823],[-5.4785,54.3814],[-5.4819,54.3789],[-5.4849,54.3746],[-5.4832,54.3713],[-5.4887,54.3682],[-5.4897,54.3649],[-5.4884,54.3628],[-5.4813,54.3638],[-5.4791,54.3616],[-5.4785,54.3581],[-5.4806,54.3556],[-5.4878,54.3563],[-5.491,54.3497],[-5.4942,54.3499],[-5.4935,54.3454],[-5.4954,54.3428],[-5.4926,54.3407],[-5.4962,54.3388],[-5.4933,54.3328],[-5.5028,54.3302],[-5.5088,54.3367],[-5.5109,54.3428],[-5.5206,54.34],[-5.5257,54.3422],[-5.5294,54.3532],[-5.5282,54.3597],[-5.5294,54.3614],[-5.5372,54.3639],[-5.5384,54.3652],[-5.5377,54.3679],[-5.5472,54.3777],[-5.5615,54.3897],[-5.5718,54.3915],[-5.5744,54.3968],[-5.5789,54.3987],[-5.5802,54.401],[-5.576,54.4072],[-5.5758,54.4111],[-5.5692,54.4198],[-5.5628,54.4253],[-5.562,54.4285],[-5.5532,54.4281],[-5.5489,54.4322],[-5.5461,54.4328],[-5.5439,54.4313],[-5.5475,54.428],[-5.5448,54.427],[-5.5442,54.4288],[-5.5401,54.4285],[-5.5433,54.426],[-5.5391,54.4246],[-5.5355,54.4276],[-5.5394,54.4314],[-5.5331,54.4305],[-5.5346,54.4337],[-5.5419,54.4333],[-5.5446,54.4364],[-5.5391,54.4371],[-5.5371,54.4352],[-5.5331,54.4364],[-5.5328,54.4384],[-5.5347,54.4405],[-5.5302,54.4509],[-5.5333,54.4517],[-5.5342,54.4538],[-5.5316,54.4566],[-5.5384,54.4601],[-5.5498,54.4559],[-5.5498,54.4541],[-5.5514,54.4536],[-5.5531,54.4545],[-5.5515,54.4563],[-5.5555,54.4569],[-5.554,54.4584],[-5.5477,54.4577],[-5.5425,54.4595],[-5.5361,54.4661],[-5.531,54.4674],[-5.5317,54.4697],[-5.5383,54.4732],[-5.5303,54.4756],[-5.5324,54.4766],[-5.5383,54.4754],[-5.5372,54.4774],[-5.5331,54.4774],[-5.5341,54.4814],[-5.5401,54.4831],[-5.5348,54.4877],[-5.5375,54.4905],[-5.5384,54.4942],[-5.5439,54.4935],[-5.5455,54.4965],[-5.5448,54.5024],[-5.5489,54.5052],[-5.5468,54.5097],[-5.551,54.5112],[-5.5487,54.5167],[-5.5523,54.5191],[-5.5555,54.5278],[-5.5594,54.5317],[-5.5656,54.5343],[-5.5678,54.5325],[-5.5718,54.5328],[-5.5716,54.531],[-5.5772,54.5309],[-5.5748,54.5246],[-5.5826,54.5232],[-5.5776,54.5264],[-5.5801,54.5289],[-5.5792,54.5315],[-5.5853,54.5387],[-5.592,54.54],[-5.5921,54.5441],[-5.5945,54.5475],[-5.602,54.5489],[-5.6117,54.5562],[-5.6238,54.558],[-5.6554,54.5682],[-5.6764,54.5821],[-5.6809,54.5813],[-5.6953,54.567],[-5.6948,54.564],[-5.6963,54.5631],[-5.6944,54.5597],[-5.6956,54.557],[-5.6939,54.5542],[-5.6956,54.5477],[-5.6944,54.5449],[-5.7037,54.5424],[-5.7131,54.5371],[-5.7172,54.5378],[-5.7252,54.5427],[-5.7324,54.5444],[-5.7321,54.5426],[-5.7112,54.5349],[-5.7044,54.536],[-5.6996,54.5322],[-5.6888,54.5305],[-5.6827,54.5312],[-5.6857,54.529],[-5.6845,54.5274],[-5.6856,54.5261],[-5.6808,54.5242],[-5.6817,54.5227],[-5.6783,54.521],[-5.6763,54.5178],[-5.6704,54.5196],[-5.6569,54.5165],[-5.6525,54.5179],[-5.6507,54.5174],[-5.6517,54.5167],[-5.65,54.5145],[-5.6453,54.5131],[-5.6379,54.5138],[-5.6367,54.5159],[-5.6297,54.5149],[-5.6349,54.5124],[-5.6356,54.5106],[-5.6399,54.5097],[-5.6351,54.5082],[-5.6344,54.5055],[-5.6396,54.5058],[-5.6413,54.5039],[-5.642,54.498],[-5.632,54.4998],[-5.6259,54.5044],[-5.6164,54.5057],[-5.6267,54.4972],[-5.641,54.4942],[-5.647,54.4956],[-5.6491,54.4984],[-5.6468,54.5001],[-5.6483,54.503],[-5.6436,54.508],[-5.6444,54.511],[-5.6501,54.5106],[-5.6539,54.5132],[-5.6634,54.5076],[-5.671,54.5084],[-5.6724,54.5072],[-5.6718,54.5025],[-5.6737,54.5007],[-5.6735,54.4979],[-5.6751,54.4977],[-5.6685,54.4941],[-5.6684,54.4917],[-5.6633,54.4908],[-5.6615,54.4935],[-5.653,54.4957],[-5.6446,54.4894],[-5.6449,54.4878],[-5.6385,54.4886],[-5.6363,54.4873],[-5.6387,54.4843],[-5.6471,54.4855],[-5.6494,54.483],[-5.6431,54.4803],[-5.6429,54.4776],[-5.6497,54.4731],[-5.649,54.4717],[-5.6447,54.4722],[-5.6431,54.4708],[-5.6507,54.4666],[-5.65,54.4645],[-5.6374,54.4645],[-5.6366,54.4634],[-5.6381,54.4597],[-5.636,54.4583],[-5.6366,54.4569],[-5.6419,54.4567],[-5.636,54.4548],[-5.6388,54.453],[-5.6453,54.4533],[-5.6448,54.4521],[-5.6359,54.4504],[-5.6317,54.4513],[-5.6331,54.4539],[-5.6272,54.454],[-5.6284,54.4586],[-5.6249,54.4624],[-5.623,54.4556],[-5.6302,54.4483],[-5.6307,54.4459],[-5.634,54.4447],[-5.6389,54.4481],[-5.635,54.4429],[-5.6373,54.4396],[-5.6315,54.4392],[-5.627,54.4365],[-5.6274,54.4345],[-5.6256,54.4333],[-5.6274,54.428],[-5.6313,54.4299],[-5.6298,54.4323],[-5.6311,54.4335],[-5.6353,54.4285],[-5.6392,54.4287],[-5.6389,54.4268],[-5.6347,54.4264],[-5.6389,54.424],[-5.6381,54.4216],[-5.6431,54.4181],[-5.6408,54.4139],[-5.6456,54.4123],[-5.646,54.4104],[-5.6401,54.4105],[-5.6382,54.4087],[-5.6393,54.4054],[-5.638,54.4003],[-5.6419,54.3963],[-5.6464,54.396],[-5.6452,54.393],[-5.6473,54.389],[-5.6546,54.3839],[-5.652,54.3808],[-5.6589,54.3797],[-5.6615,54.3812],[-5.672,54.3751],[-5.6757,54.3752],[-5.6767,54.3713],[-5.6784,54.3737],[-5.6817,54.3717],[-5.6785,54.3678],[-5.6707,54.3674],[-5.6631,54.3633],[-5.6596,54.3667],[-5.6524,54.367],[-5.6492,54.3642],[-5.6441,54.3652],[-5.6436,54.3687],[-5.6389,54.3694],[-5.6383,54.372],[-5.6335,54.3703],[-5.6127,54.3783],[-5.6087,54.3786],[-5.6017,54.3761],[-5.595,54.3804],[-5.5892,54.382],[-5.5846,54.383],[-5.5804,54.3811],[-5.5718,54.383],[-5.5674,54.3814],[-5.5659,54.3787],[-5.5726,54.3721],[-5.5653,54.3687],[-5.5647,54.3646],[-5.5591,54.3674],[-5.5633,54.3712],[-5.5608,54.3751],[-5.5533,54.3761],[-5.5463,54.3695],[-5.5451,54.3651],[-5.5466,54.3598],[-5.5461,54.352],[-5.5442,54.3477],[-5.545,54.3431],[-5.5408,54.341],[-5.5378,54.3367],[-5.5409,54.3307],[-5.5393,54.3269],[-5.5372,54.3266],[-5.5393,54.3219],[-5.539,54.3184],[-5.5224,54.3127],[-5.5237,54.3091],[-5.535,54.3113],[-5.5405,54.3067],[-5.5474,54.3042],[-5.5549,54.2944],[-5.558,54.2853],[-5.5695,54.278],[-5.5729,54.2736],[-5.5847,54.2691],[-5.5873,54.2639],[-5.5921,54.2609],[-5.5964,54.2606],[-5.6063,54.264],[-5.6063,54.2622],[-5.6011,54.2586],[-5.6079,54.2481],[-5.6178,54.2458],[-5.6193,54.2473],[-5.6187,54.2523],[-5.6202,54.2535],[-5.6262,54.2534],[-5.6287,54.2496],[-5.6332,54.2514],[-5.6296,54.2535],[-5.63,54.2579],[-5.6355,54.2595],[-5.6425,54.2568],[-5.6427,54.2543],[-5.6371,54.251],[-5.6355,54.2409],[-5.6377,54.239],[-5.641,54.2396],[-5.65,54.2289],[-5.6598,54.224],[-5.662,54.2247],[-5.6673,54.234],[-5.6707,54.2321],[-5.6725,54.233],[-5.6733,54.2353],[-5.6715,54.2367],[-5.6742,54.2375],[-5.6799,54.247],[-5.688,54.2496],[-5.7147,54.2495],[-5.7218,54.2471],[-5.7235,54.2511],[-5.7268,54.2517],[-5.7479,54.2503],[-5.7559,54.2457],[-5.7653,54.246],[-5.7757,54.2434],[-5.7816,54.2453],[-5.8186,54.2415],[-5.833,54.255],[-5.8318,54.2561],[-5.8199,54.2553],[-5.8159,54.2571],[-5.8155,54.2592],[-5.8199,54.2656],[-5.8198,54.2694],[-5.8146,54.2817],[-5.8168,54.2814],[-5.8256,54.2753],[-5.825,54.2733],[-5.8277,54.2687],[-5.8329,54.2649],[-5.838,54.2566],[-5.853,54.2497],[-5.8564,54.2383],[-5.854,54.2387],[-5.8488,54.248],[-5.8404,54.2488],[-5.8365,54.2516],[-5.8327,54.2504],[-5.8283,54.2462],[-5.8275,54.2437],[-5.8289,54.2398],[-5.8538,54.2289],[-5.8738,54.2179],[-5.8837,54.2111],[-5.8874,54.2056],[-5.8861,54.2002],[-5.8755,54.1909],[-5.8679,54.175],[-5.8691,54.1644],[-5.8734,54.1523],[-5.8873,54.1324],[-5.8881,54.1295],[-5.8851,54.1256],[-5.8845,54.1201],[-5.8899,54.1163],[-5.8913,54.1089],[-5.894,54.1041],[-5.9108,54.0935],[-5.9481,54.077],[-5.9542,54.072],[-5.9556,54.0671],[-5.961,54.0663],[-5.9626,54.0625],[-5.9901,54.0588],[-5.9985,54.0559],[-6.0052,54.0525],[-6.0141,54.0432],[-6.0197,54.0401],[-6.0492,54.0302],[-6.0605,54.0238],[-6.0646,54.0244],[-6.0655,54.0285],[-6.0823,54.0299],[-6.0892,54.0362],[-6.1069,54.0412],[-6.1011,54.0446],[-6.0981,54.049],[-6.0933,54.0498],[-6.0815,54.0464],[-6.0769,54.0485],[-6.0851,54.0575],[-6.0963,54.0631],[-6.1131,54.0626],[-6.1256,54.0665],[-6.1342,54.0656],[-6.1392,54.0627],[-6.1508,54.0663],[-6.1642,54.0666],[-6.1747,54.0723],[-6.1822,54.0739],[-6.1917,54.0855],[-6.1941,54.0938],[-6.2007,54.0971],[-6.2108,54.097],[-6.2182,54.0999],[-6.2266,54.0999],[-6.2511,54.0967],[-6.2814,54.1098],[-6.2809,54.1079],[-6.2714,54.1025],[-6.2607,54.091],[-6.2511,54.0856],[-6.2427,54.075],[-6.2147,54.0661],[-6.2045,54.061],[-6.1961,54.0555],[-6.1855,54.0428],[-6.1722,54.0404],[-6.1679,54.0358],[-6.16,54.0327],[-6.1543,54.0276],[-6.1455,54.027],[-6.1384,54.0317],[-6.1339,54.0327],[-6.1311,54.0316],[-6.1278,54.018],[-6.1148,54.0088],[-6.1112,54.0081],[-6.1098,54.0045],[-6.1051,54.002],[-6.104,53.9993],[-6.133,53.9865],[-6.1407,53.9808],[-6.1475,53.9814],[-6.1583,53.9781],[-6.1703,53.9772],[-6.1732,53.9798],[-6.177,53.9804],[-6.1871,53.9787],[-6.2005,53.9798],[-6.2056,53.9821],[-6.2264,53.9857],[-6.2379,53.9848],[-6.2517,53.9877],[-6.2557,53.9912],[-6.2687,53.9944],[-6.2805,54.0002],[-6.2873,54.0011],[-6.2926,54.0056],[-6.3084,54.0114],[-6.3218,54.0137],[-6.3519,54.0112],[-6.3487,54.0135],[-6.3491,54.0149],[-6.3586,54.0191],[-6.3643,54.0274],[-6.3638,54.0307],[-6.3671,54.0305],[-6.3689,54.0284],[-6.3643,54.0227],[-6.3665,54.0219],[-6.3661,54.0208],[-6.3602,54.0157],[-6.3604,54.0134],[-6.3673,54.0121],[-6.3888,54.0129],[-6.3917,54.0106],[-6.3874,54.0077],[-6.3666,54.0063],[-6.3484,54.0076],[-6.3426,54.0028],[-6.3403,53.9978],[-6.3432,53.9928],[-6.35,53.9874],[-6.3592,53.9862],[-6.3609,53.9828],[-6.3653,53.9807],[-6.3628,53.9775],[-6.3608,53.9681],[-6.3676,53.9573],[-6.3759,53.9566],[-6.379,53.9528],[-6.3795,53.9447],[-6.3765,53.943],[-6.3738,53.9442],[-6.3722,53.9402],[-6.3733,53.9337],[-6.3713,53.9301],[-6.376,53.9221],[-6.3673,53.9008],[-6.3476,53.8843],[-6.3446,53.884],[-6.3329,53.8768],[-6.3163,53.8754],[-6.304,53.8778],[-6.2971,53.876],[-6.29,53.8707],[-6.2672,53.8702],[-6.2556,53.863],[-6.2458,53.8639],[-6.2386,53.8603],[-6.2504,53.8509],[-6.2552,53.8373],[-6.2588,53.8324],[-6.2612,53.8258],[-6.2604,53.8076],[-6.2546,53.8039],[-6.2503,53.8037],[-6.2451,53.7998],[-6.2325,53.8002],[-6.2272,53.7978],[-6.2207,53.798],[-6.2168,53.7955],[-6.223,53.79],[-6.2313,53.7896],[-6.2358,53.7869],[-6.2383,53.7773],[-6.2478,53.7586],[-6.2545,53.7313],[-6.261,53.7312],[-6.2456,53.7195],[-6.2436,53.7],[-6.2412,53.6911],[-6.2366,53.6823],[-6.2367,53.6769],[-6.2255,53.6552],[-6.2221,53.6537],[-6.2127,53.6337],[-6.1957,53.6302],[-6.1879,53.6302],[-6.1894,53.6274],[-6.1881,53.626],[-6.1885,53.6212],[-6.1852,53.616],[-6.1762,53.6091],[-6.1667,53.6083],[-6.166,53.6044],[-6.1565,53.5923],[-6.1487,53.5863],[-6.1354,53.5876],[-6.1104,53.5817],[-6.107,53.5822],[-6.1051,53.5856],[-6.0997,53.5857],[-6.0996,53.5844],[-6.1033,53.5844],[-6.1057,53.5811],[-6.0996,53.5721],[-6.0992,53.5666],[-6.0978,53.5648],[-6.091,53.5641],[-6.0822,53.5588],[-6.0792,53.5461],[-6.0831,53.5459],[-6.0844,53.5434],[-6.0822,53.542],[-6.0785,53.5425],[-6.0775,53.5409],[-6.079,53.5389],[-6.0846,53.5375],[-6.084,53.5353],[-6.0862,53.5336],[-6.0849,53.5324],[-6.0876,53.5311],[-6.0841,53.5243],[-6.0759,53.5217],[-6.0788,53.5182],[-6.0963,53.5169],[-6.1098,53.5098],[-6.1191,53.5106],[-6.1215,53.5135],[-6.1248,53.5141],[-6.1403,53.5099],[-6.1504,53.5093],[-6.1622,53.5054],[-6.1624,53.5026],[-6.1656,53.5007],[-6.1654,53.4991],[-6.159,53.4983],[-6.1447,53.5005],[-6.1221,53.4985],[-6.1285,53.5045],[-6.1309,53.5101],[-6.1288,53.5105],[-6.1154,53.5087],[-6.1109,53.4955],[-6.108,53.4937],[-6.0979,53.4927],[-6.0975,53.4892],[-6.1052,53.4838],[-6.1119,53.4823],[-6.1175,53.477],[-6.1219,53.4719],[-6.1292,53.4575],[-6.1346,53.4534],[-6.1478,53.4553],[-6.1435,53.4585],[-6.1426,53.4619],[-6.1332,53.4668],[-6.1327,53.4686],[-6.144,53.4743],[-6.1517,53.4755],[-6.1518,53.4718],[-6.148,53.4709],[-6.1539,53.4683],[-6.1714,53.4691],[-6.1952,53.4639],[-6.205,53.4654],[-6.1769,53.4567],[-6.1569,53.4543],[-6.1507,53.4518],[-6.1397,53.4513],[-6.1335,53.4468],[-6.1231,53.4433],[-6.1213,53.4379],[-6.1241,53.4302],[-6.1136,53.4065],[-6.1171,53.4016],[-6.1208,53.4012],[-6.1321,53.4195],[-6.14,53.4186],[-6.1396,53.4173],[-6.1363,53.4177],[-6.1374,53.415],[-6.1356,53.4093],[-6.1303,53.4027],[-6.1219,53.3947],[-6.1156,53.3922],[-6.1135,53.3924],[-6.1154,53.3951],[-6.1141,53.3959],[-6.1036,53.3923],[-6.0963,53.3922],[-6.0945,53.3935],[-6.0636,53.3891],[-6.0621,53.3866],[-6.046,53.3852],[-6.0449,53.3798],[-6.046,53.3752],[-6.0543,53.3691],[-6.0518,53.362],[-6.0652,53.3642],[-6.071,53.3633],[-6.0756,53.3605],[-6.0811,53.3616],[-6.0972,53.37],[-6.1033,53.3792],[-6.1032,53.3857],[-6.1087,53.3881],[-6.1282,53.3873],[-6.1447,53.3836],[-6.1615,53.3757],[-6.1717,53.3668],[-6.1805,53.3611],[-6.1885,53.3582],[-6.194,53.3574],[-6.2201,53.3616],[-6.2322,53.3577],[-6.2114,53.3564],[-6.2108,53.3537],[-6.1956,53.3529],[-6.1948,53.3502],[-6.19,53.35],[-6.1908,53.3467],[-6.1925,53.3475],[-6.1938,53.3455],[-6.1985,53.3452],[-6.1993,53.348],[-6.2015,53.3455],[-6.2046,53.3452],[-6.2058,53.3474],[-6.2129,53.3472],[-6.2119,53.3455],[-6.2134,53.3454],[-6.2173,53.3482],[-6.2253,53.3485],[-6.2253,53.3471],[-6.2178,53.3457],[-6.232,53.3454],[-6.2292,53.3441],[-6.1992,53.3422],[-6.2028,53.3411],[-6.2018,53.3404],[-6.1806,53.3406],[-6.1809,53.3391],[-6.1925,53.3374],[-6.1959,53.3353],[-6.2094,53.3367],[-6.2134,53.3358],[-6.2094,53.3323],[-6.2033,53.3156],[-6.1797,53.3036],[-6.1642,53.3009],[-6.1539,53.2963],[-6.1342,53.296],[-6.1222,53.2884],[-6.113,53.2888],[-6.0995,53.2816],[-6.0914,53.2725],[-6.091,53.2705],[-6.0924,53.2696],[-6.1058,53.2655],[-6.1121,53.2582],[-6.1114,53.2371],[-6.1081,53.2322],[-6.104,53.2122],[-6.1023,53.2083],[-6.0926,53.1973],[-6.0794,53.1925],[-6.0759,53.1876],[-6.0742,53.1753],[-6.0767,53.1679],[-6.0764,53.164],[-6.0687,53.1518],[-6.0603,53.1472],[-6.0583,53.1414],[-6.0445,53.1247],[-6.0372,53.0931],[-6.0345,53.0696],[-6.0477,53.0322],[-6.05,53.0136],[-6.0486,52.9971],[-6.0451,52.9877],[-6.0396,52.9817],[-6.0342,52.9805],[-6.0318,52.9817],[-6.0277,52.9781],[-6.0234,52.9768],[-6.0193,52.9724],[-6.0075,52.9722],[-5.9977,52.9659],[-6.0,52.961],[-6.0146,52.9523],[-6.0167,52.9449],[-6.0151,52.9419],[-6.0172,52.935],[-6.0225,52.9303],[-6.021,52.9278],[-6.0216,52.9247],[-6.0304,52.9214],[-6.0387,52.9147],[-6.0409,52.9053],[-6.0383,52.9019],[-6.041,52.8977],[-6.0486,52.8939],[-6.0554,52.886],[-6.0638,52.8687],[-6.0627,52.8643],[-6.0578,52.8602],[-6.0577,52.8573],[-6.0865,52.8474],[-6.1054,52.8375],[-6.1155,52.8265],[-6.1208,52.8157],[-6.1398,52.8],[-6.1411,52.7947],[-6.1399,52.7917],[-6.1458,52.7807],[-6.1429,52.7753],[-6.1452,52.7641],[-6.1441,52.7605],[-6.139,52.7575],[-6.1469,52.7422],[-6.1412,52.7341],[-6.156,52.7235],[-6.1595,52.7156],[-6.1725,52.7089],[-6.1863,52.6981],[-6.1896,52.693],[-6.198,52.6855],[-6.2084,52.6712],[-6.21,52.6668],[-6.225,52.648],[-6.2259,52.6445],[-6.2247,52.6398],[-6.2285,52.6331],[-6.2283,52.6228],[-6.2202,52.6104],[-6.2098,52.6018],[-6.2119,52.5958],[-6.2114,52.5882],[-6.2082,52.583],[-6.2038,52.5807],[-6.2024,52.5694],[-6.1907,52.5625],[-6.1949,52.5605],[-6.2184,52.5301],[-6.2483,52.5058],[-6.2539,52.4983],[-6.2838,52.4723],[-6.3215,52.4345],[-6.3413,52.4209],[-6.3547,52.4067],[-6.3632,52.3885],[-6.3653,52.3735],[-6.3623,52.3579],[-6.3572,52.3489],[-6.3555,52.3483],[-6.356,52.3468],[-6.3751,52.3447],[-6.373,52.3461],[-6.3731,52.3494],[-6.3844,52.3551],[-6.4356,52.3564],[-6.4609,52.3406],[-6.4461,52.3267],[-6.4481,52.3127],[-6.445,52.3062],[-6.4294,52.3063],[-6.4092,52.2956],[-6.3981,52.2959],[-6.3961,52.3026],[-6.3887,52.3054],[-6.3884,52.3081],[-6.3849,52.3101],[-6.3686,52.334],[-6.3699,52.3292],[-6.3867,52.3037],[-6.389,52.2929],[-6.3888,52.279],[-6.3749,52.2591],[-6.3639,52.2519],[-6.3565,52.251],[-6.3359,52.2525],[-6.3286,52.2463],[-6.3141,52.2397],[-6.3223,52.2342],[-6.324,52.2279],[-6.328,52.223],[-6.3426,52.2128],[-6.3456,52.2063],[-6.351,52.2009],[-6.3502,52.1978],[-6.347,52.196],[-6.348,52.1933],[-6.3467,52.19],[-6.3578,52.1831],[-6.3588,52.1764],[-6.3637,52.1729],[-6.3697,52.1757],[-6.3897,52.1776],[-6.4025,52.1832],[-6.4213,52.1865],[-6.4543,52.1899],[-6.4981,52.1907],[-6.5078,52.1871],[-6.5384,52.1849],[-6.5625,52.1771],[-6.5942,52.1723],[-6.5955,52.1758],[-6.6006,52.1808],[-6.6105,52.1873],[-6.6477,52.2031],[-6.67,52.2092],[-6.7085,52.216],[-6.7075,52.2172],[-6.7007,52.2156],[-6.6853,52.2165],[-6.6702,52.2114],[-6.6592,52.2109],[-6.6441,52.2037],[-6.633,52.2031],[-6.6296,52.2048],[-6.634,52.207],[-6.6452,52.2079],[-6.648,52.2095],[-6.6498,52.2166],[-6.6483,52.2187],[-6.6516,52.2219],[-6.6528,52.2219],[-6.6519,52.2195],[-6.656,52.2153],[-6.6521,52.2134],[-6.6637,52.2156],[-6.6761,52.2146],[-6.6823,52.218],[-6.6929,52.2169],[-6.707,52.2183],[-6.7153,52.215],[-6.7319,52.2139],[-6.7402,52.2115],[-6.7556,52.2132],[-6.7626,52.209],[-6.7727,52.2061],[-6.7818,52.2061],[-6.7848,52.2042],[-6.7982,52.2104],[-6.8039,52.2115],[-6.8092,52.2174],[-6.8075,52.2191],[-6.7974,52.2233],[-6.799,52.216],[-6.7962,52.2144],[-6.7896,52.2142],[-6.7901,52.2203],[-6.7866,52.2283],[-6.7809,52.2305],[-6.7629,52.2433],[-6.7541,52.247],[-6.7568,52.2557],[-6.7594,52.2569],[-6.762,52.2636],[-6.765,52.2582],[-6.7623,52.2542],[-6.7715,52.2471],[-6.7767,52.2441],[-6.7883,52.2411],[-6.7953,52.2443],[-6.8014,52.2444],[-6.7959,52.2397],[-6.8132,52.23],[-6.8193,52.2279],[-6.8258,52.2282],[-6.8304,52.2259],[-6.8292,52.2237],[-6.8305,52.2205],[-6.8365,52.2165],[-6.8398,52.2108],[-6.8526,52.206],[-6.849,52.2057],[-6.8434,52.2089],[-6.8259,52.2139],[-6.8235,52.2139],[-6.8192,52.2103],[-6.8149,52.2136],[-6.8096,52.213],[-6.8098,52.2116],[-6.8223,52.205],[-6.8299,52.1965],[-6.8305,52.1921],[-6.836,52.19],[-6.8357,52.1886],[-6.8315,52.1888],[-6.8229,52.1921],[-6.8204,52.1913],[-6.8198,52.1903],[-6.8294,52.1847],[-6.8319,52.1805],[-6.8299,52.1753],[-6.826,52.1742],[-6.8309,52.1717],[-6.8342,52.1745],[-6.8422,52.1741],[-6.8468,52.1718],[-6.8477,52.1698],[-6.8537,52.1677],[-6.881,52.1611],[-6.8824,52.1579],[-6.8887,52.1548],[-6.8891,52.1513],[-6.891,52.1499],[-6.9018,52.1465],[-6.9024,52.1421],[-6.9102,52.1349],[-6.9073,52.1328],[-6.9084,52.1311],[-6.9181,52.1256],[-6.9245,52.1257],[-6.9254,52.1241],[-6.9315,52.1236],[-6.9306,52.1296],[-6.9344,52.13],[-6.9315,52.1351],[-6.9126,52.1459],[-6.9116,52.1499],[-6.9058,52.1516],[-6.8999,52.1557],[-6.8987,52.1625],[-6.8996,52.1695],[-6.8973,52.1738],[-6.9132,52.1908],[-6.9034,52.1959],[-6.9047,52.2007],[-6.9091,52.2019],[-6.9133,52.209],[-6.9215,52.2125],[-6.9232,52.2155],[-6.9221,52.2176],[-6.939,52.2198],[-6.9361,52.2221],[-6.9371,52.2257],[-6.9529,52.2408],[-6.9652,52.2402],[-6.968,52.2443],[-6.9716,52.2396],[-6.9703,52.239],[-6.9681,52.2264],[-6.9692,52.2231],[-6.9757,52.2159],[-6.9754,52.2114],[-6.9704,52.2066],[-6.9799,52.1982],[-6.9832,52.1913],[-6.9825,52.1865],[-6.9735,52.1844],[-6.9741,52.1806],[-6.9704,52.1772],[-6.953,52.1794],[-6.9509,52.1782],[-6.9518,52.1768],[-6.9625,52.1753],[-6.9718,52.1716],[-6.9745,52.1688],[-6.9756,52.1624],[-6.9853,52.1575],[-6.9856,52.1551],[-6.993,52.1551],[-6.9929,52.1501],[-6.9897,52.1452],[-6.9948,52.1439],[-7.0006,52.1399],[-7.0159,52.1382],[-7.0187,52.135],[-7.0225,52.1336],[-7.0279,52.1344],[-7.0345,52.1323],[-7.0349,52.134],[-7.0413,52.1357],[-7.0414,52.1372],[-7.0442,52.1356],[-7.0508,52.1383],[-7.0729,52.1342],[-7.0825,52.1345],[-7.0952,52.1289],[-7.1029,52.1299],[-7.1033,52.1286],[-7.1069,52.1284],[-7.1076,52.1341],[-7.0913,52.1425],[-7.0926,52.1466],[-7.0797,52.1541],[-7.0773,52.1578],[-7.0635,52.1596],[-7.0732,52.1589],[-7.0769,52.1603],[-7.0696,52.1697],[-7.082,52.1612],[-7.0879,52.1624],[-7.0994,52.1687],[-7.116,52.1694],[-7.1228,52.1687],[-7.123,52.167],[-7.1259,52.166],[-7.1271,52.1666],[-7.126,52.1679],[-7.1301,52.1687],[-7.1371,52.1596],[-7.1183,52.1574],[-7.1108,52.1535],[-7.0976,52.1543],[-7.0903,52.1526],[-7.0885,52.1504],[-7.099,52.1493],[-7.1352,52.1579],[-7.1509,52.1581],[-7.1532,52.1558],[-7.1566,52.1556],[-7.1624,52.1483],[-7.163,52.1451],[-7.1717,52.1387],[-7.1722,52.1359],[-7.1779,52.1368],[-7.1872,52.1333],[-7.1902,52.1333],[-7.192,52.1351],[-7.1995,52.1342],[-7.2072,52.1357],[-7.2168,52.1338],[-7.2192,52.1316],[-7.2369,52.1345],[-7.2454,52.1327],[-7.2481,52.1348],[-7.2706,52.1378],[-7.2731,52.1396],[-7.2797,52.1387],[-7.29,52.1407],[-7.2973,52.1399],[-7.3026,52.1375],[-7.3027,52.1358],[-7.3081,52.132],[-7.3092,52.1351],[-7.3184,52.1358],[-7.3202,52.1384],[-7.3246,52.135],[-7.3284,52.1368],[-7.3638,52.1382],[-7.3714,52.1373],[-7.3746,52.1334],[-7.3945,52.1283],[-7.3962,52.1295],[-7.3995,52.1288],[-7.4044,52.1315],[-7.4196,52.1291],[-7.4249,52.1305],[-7.441,52.1269],[-7.4464,52.1226],[-7.4578,52.1194],[-7.4593,52.1193],[-7.459,52.1234],[-7.4607,52.1237],[-7.4627,52.1202],[-7.4682,52.1167],[-7.4671,52.1154],[-7.4686,52.1138],[-7.4735,52.1112],[-7.4801,52.1115],[-7.4855,52.1064],[-7.4902,52.1064],[-7.4912,52.1035],[-7.4933,52.1026],[-7.4949,52.1038],[-7.4986,52.1023],[-7.5037,52.1029],[-7.5088,52.1051],[-7.5191,52.1045],[-7.5349,52.0992],[-7.5424,52.0954],[-7.5475,52.0876],[-7.5472,52.0841],[-7.5516,52.0796],[-7.5515,52.0777],[-7.5534,52.0771],[-7.5555,52.0789],[-7.5699,52.0821],[-7.57,52.0871],[-7.5741,52.0917],[-7.5798,52.0931],[-7.5846,52.0992],[-7.5869,52.0991],[-7.5933,52.0962],[-7.597,52.0913],[-7.6115,52.0872],[-7.6157,52.0881],[-7.6172,52.0861],[-7.6214,52.0859],[-7.6229,52.0824],[-7.6319,52.084],[-7.6354,52.0799],[-7.6322,52.0759],[-7.6352,52.0762],[-7.6357,52.0749],[-7.6339,52.0723],[-7.6348,52.0701],[-7.6287,52.0655],[-7.6349,52.0659],[-7.6388,52.0626],[-7.6451,52.062],[-7.6409,52.0595],[-7.6337,52.0596],[-7.6322,52.0599],[-7.6333,52.0629],[-7.6258,52.0615],[-7.6208,52.0642],[-7.619,52.0606],[-7.618,52.0625],[-7.6096,52.0645],[-7.6052,52.0634],[-7.6116,52.0804],[-7.6102,52.0842],[-7.6027,52.0593],[-7.5956,52.0571],[-7.5894,52.0509],[-7.5767,52.0501],[-7.5621,52.051],[-7.5519,52.0537],[-7.5369,52.0535],[-7.5398,52.0478],[-7.5437,52.0469],[-7.5462,52.0444],[-7.5665,52.0402],[-7.5684,52.0372],[-7.5753,52.0332],[-7.5769,52.0306],[-7.575,52.0268],[-7.5766,52.0234],[-7.5824,52.0222],[-7.5863,52.0176],[-7.5812,52.0102],[-7.5779,52.0082],[-7.5802,52.0018],[-7.583333,52.0],[-5.078794,52.0]],[[-6.0897,53.5851],[-6.0881,53.5857],[-6.0879,53.5854],[-6.0897,53.5851]],[[-4.2421,54.821],[-4.2414,54.8219],[-4.2402,54.8209],[-4.2404,54.8205],[-4.2421,54.821]],[[-5.665,54.5059],[-5.6656,54.5068],[-5.6629,54.5054],[-5.665,54.5059]],[[-5.6106,54.4605],[-5.6122,54.4604],[-5.6134,54.4616],[-5.6127,54.4621],[-5.6106,54.4605]],[[-4.4663,52.1735],[-4.4646,52.1736],[-4.4654,52.1714],[-4.4663,52.1735]],[[-5.6043,54.4715],[-5.6061,54.4711],[-5.6062,54.4733],[-5.6047,54.4729],[-5.6043,54.4715]],[[-5.607,54.4631],[-5.6087,54.4655],[-5.6073,54.466],[-5.607,54.4631]],[[-5.0896,52.0133],[-5.0913,52.0146],[-5.0894,52.0158],[-5.0896,52.0133]],[[-4.695,52.7853],[-4.6926,52.7848],[-4.6946,52.7831],[-4.695,52.7853]],[[-3.228,54.2661],[-3.227,54.2673],[-3.2255,54.2659],[-3.2268,54.2645],[-3.228,54.2661]],[[-4.471,52.7981],[-4.4689,52.7993],[-4.4689,52.7966],[-4.471,52.7981]],[[-5.6102,54.4774],[-5.6073,54.4777],[-5.6083,54.4754],[-5.6102,54.4774]],[[-4.6673,52.8006],[-4.6679,52.8023],[-4.6657,52.8026],[-4.6651,52.8006],[-4.6673,52.8006]],[[-5.6155,54.4779],[-5.6176,54.4776],[-5.6191,54.4794],[-5.6164,54.4795],[-5.6155,54.4779]],[[-4.5538,53.4154],[-4.5544,53.4177],[-4.5517,53.4178],[-4.5538,53.4154]],[[-5.6367,54.3853],[-5.634,54.3861],[-5.6335,54.3839],[-5.6367,54.3853]],[[-5.6512,54.5095],[-5.653,54.507],[-5.6546,54.507],[-5.6536,54.5097],[-5.6512,54.5095]],[[-4.2437,54.824],[-4.2422,54.8257],[-4.2404,54.8252],[-4.2415,54.8229],[-4.2437,54.824]],[[-5.7187,54.8484],[-5.717,54.8483],[-5.7146,54.8453],[-5.7158,54.8458],[-5.7187,54.8484]],[[-5.4536,54.5363],[-5.4532,54.5387],[-5.4503,54.5375],[-5.4517,54.5362],[-5.4536,54.5363]],[[-4.6905,52.7879],[-4.6934,52.7866],[-4.6923,52.7895],[-4.6909,52.7897],[-4.6905,52.7879]],[[-6.7399,52.1969],[-6.7413,52.1954],[-6.7435,52.1956],[-6.7406,52.1993],[-6.7399,52.1969]],[[-3.8004,54.8605],[-3.803,54.8596],[-3.8045,54.862],[-3.8028,54.8621],[-3.8004,54.8605]],[[-4.829,54.0444],[-4.8263,54.0444],[-4.8274,54.0421],[-4.8298,54.0421],[-4.829,54.0444]],[[-5.6642,54.5028],[-5.6648,54.5006],[-5.668,54.5023],[-5.6674,54.5035],[-5.6642,54.5028]],[[-3.2612,54.1412],[-3.2606,54.1388],[-3.2613,54.1372],[-3.2634,54.1402],[-3.2612,54.1412]],[[-5.7144,54.2409],[-5.7161,54.2432],[-5.7157,54.2448],[-5.713,54.2423],[-5.7144,54.2409]],[[-5.5421,54.449],[-5.5402,54.449],[-5.5397,54.4469],[-5.5421,54.4452],[-5.5436,54.4458],[-5.5421,54.449]],[[-3.2028,54.0684],[-3.1986,54.0676],[-3.1993,54.0657],[-3.2028,54.0684]],[[-6.0768,53.585],[-6.0721,53.5874],[-6.0707,53.5868],[-6.0768,53.585]],[[-5.6276,54.484],[-5.6251,54.4833],[-5.6254,54.4804],[-5.6281,54.4807],[-5.6276,54.484]],[[-6.0868,53.5731],[-6.0865,53.5748],[-6.081,53.5725],[-6.0831,53.5716],[-6.0868,53.5731]],[[-6.7351,52.1991],[-6.735,52.1977],[-6.738,52.1975],[-6.7398,52.2],[-6.7391,52.2007],[-6.7351,52.1991]],[[-5.5402,54.4394],[-5.5428,54.439],[-5.5438,54.4405],[-5.5426,54.4428],[-5.5399,54.4433],[-5.5402,54.4394]],[[-5.6149,54.4729],[-5.6189,54.4727],[-5.6221,54.4717],[-5.621,54.4744],[-5.6149,54.4729]],[[-5.426,54.4614],[-5.4291,54.4597],[-5.4297,54.4609],[-5.4282,54.4616],[-5.4301,54.4641],[-5.4266,54.4639],[-5.426,54.4614]],[[-4.4632,52.8058],[-4.4594,52.8058],[-4.4579,52.8037],[-4.4621,52.8038],[-4.4632,52.8058]],[[-5.619,54.4538],[-5.6193,54.4576],[-5.6154,54.4569],[-5.6149,54.4557],[-5.619,54.4538]],[[-6.0812,53.272],[-6.0835,53.2698],[-6.0859,53.2711],[-6.0863,53.2732],[-6.0836,53.2734],[-6.0812,53.272]],[[-4.6959,52.1306],[-4.6891,52.1337],[-4.6885,52.1312],[-4.6898,52.1305],[-4.6959,52.1306]],[[-4.0834,52.911],[-4.0839,52.914],[-4.0788,52.9133],[-4.0801,52.9113],[-4.0834,52.911]],[[-5.4216,54.4244],[-5.4252,54.4241],[-5.4273,54.4256],[-5.4234,54.4273],[-5.4208,54.4262],[-5.4216,54.4244]],[[-4.4443,53.4369],[-4.4451,53.4395],[-4.4394,53.4391],[-4.4398,53.4372],[-4.4443,53.4369]],[[-5.6347,54.4909],[-5.6437,54.4902],[-5.6455,54.4918],[-5.6425,54.493],[-5.6347,54.4909]],[[-3.812,54.8325],[-3.8104,54.8363],[-3.8083,54.8358],[-3.8086,54.8317],[-3.812,54.8325]],[[-5.5979,54.5259],[-5.5988,54.5312],[-5.596,54.5349],[-5.5954,54.5345],[-5.5979,54.5259]],[[-4.2172,54.8081],[-4.2113,54.8116],[-4.2135,54.8092],[-4.2124,54.8061],[-4.2172,54.8081]],[[-5.471,54.5598],[-5.4691,54.5623],[-5.467,54.5622],[-5.465,54.558],[-5.4675,54.5575],[-5.471,54.5598]],[[-5.4648,54.5516],[-5.469,54.552],[-5.467,54.5566],[-5.4642,54.5543],[-5.4648,54.5516]],[[-5.6257,54.4688],[-5.6231,54.4648],[-5.6294,54.4652],[-5.6276,54.4672],[-5.629,54.4689],[-5.6257,54.4688]],[[-5.5219,54.3284],[-5.5223,54.3259],[-5.5205,54.325],[-5.5215,54.3242],[-5.5267,54.3281],[-5.5246,54.3304],[-5.5219,54.3284]],[[-5.6403,54.3777],[-5.644,54.3753],[-5.6494,54.375],[-5.645,54.3786],[-5.6403,54.3777]],[[-5.5095,54.694],[-5.5136,54.6926],[-5.5151,54.6948],[-5.5087,54.6973],[-5.5095,54.694]],[[-3.231,53.384],[-3.231,53.3855],[-3.2289,53.3852],[-3.2192,53.3769],[-3.2202,53.3772],[-3.231,53.384]],[[-4.0825,54.7664],[-4.0838,54.7647],[-4.0872,54.7651],[-4.0859,54.7705],[-4.0839,54.7702],[-4.0825,54.7664]],[[-5.5246,54.6938],[-5.5216,54.696],[-5.5188,54.6955],[-5.5183,54.6933],[-5.5187,54.6919],[-5.5217,54.6913],[-5.5246,54.6938]],[[-5.6228,54.439],[-5.6204,54.4422],[-5.6135,54.4422],[-5.6195,54.4379],[-5.6228,54.439]],[[-5.547,54.2916],[-5.5466,54.2949],[-5.5404,54.2938],[-5.5422,54.2902],[-5.5452,54.2899],[-5.547,54.2916]],[[-5.4326,54.4451],[-5.4345,54.4414],[-5.4368,54.4412],[-5.4376,54.4482],[-5.4344,54.45],[-5.4326,54.4451]],[[-3.1725,54.0594],[-3.1746,54.0593],[-3.1773,54.062],[-3.1744,54.067],[-3.1731,54.0668],[-3.1725,54.0594]],[[-4.0307,53.3198],[-4.0257,53.3216],[-4.0201,53.3214],[-4.0303,53.3166],[-4.0315,53.3175],[-4.0307,53.3198]],[[-4.2215,54.8184],[-4.2241,54.8161],[-4.2297,54.8168],[-4.2278,54.8196],[-4.2233,54.8218],[-4.2215,54.8184]],[[-6.0698,53.4081],[-6.0598,53.4081],[-6.0631,53.4034],[-6.0657,53.4038],[-6.0698,53.4081]],[[-5.6392,54.4731],[-5.6354,54.4749],[-5.6327,54.4732],[-5.6365,54.4698],[-5.6354,54.4681],[-5.6386,54.4671],[-5.6401,54.4679],[-5.6392,54.4731]],[[-5.6311,54.4222],[-5.6349,54.4173],[-5.633,54.4114],[-5.6393,54.4133],[-5.6371,54.4201],[-5.6329,54.4228],[-5.6311,54.4222]],[[-5.4608,54.525],[-5.4626,54.5213],[-5.4652,54.5209],[-5.4646,54.5265],[-5.4688,54.5283],[-5.4684,54.5304],[-5.4656,54.5315],[-5.4628,54.5301],[-5.4608,54.525]],[[-6.5872,52.1308],[-6.5928,52.1326],[-6.5893,52.1377],[-6.5844,52.139],[-6.5872,52.1308]],[[-5.6639,54.3729],[-5.6579,54.3712],[-5.6538,54.3737],[-5.6517,54.3732],[-5.6524,54.3708],[-5.6577,54.3686],[-5.6657,54.3674],[-5.666,54.3703],[-5.6639,54.3729]],[[-5.6233,54.4513],[-5.6208,54.4504],[-5.616,54.452],[-5.6146,54.4498],[-5.6163,54.4466],[-5.6197,54.4487],[-5.6272,54.4408],[-5.6283,54.4427],[-5.6233,54.4513]],[[-4.6088,53.4226],[-4.6004,53.4271],[-4.5967,53.4255],[-4.6052,53.4179],[-4.6109,53.4191],[-4.6088,53.4226]],[[-6.6261,52.1158],[-6.6058,52.1199],[-6.6079,52.1154],[-6.6143,52.1149],[-6.6252,52.1078],[-6.6279,52.1111],[-6.6261,52.1158]],[[-4.7815,52.7668],[-4.7811,52.7584],[-4.7865,52.7544],[-4.7966,52.754],[-4.798,52.7496],[-4.8007,52.7468],[-4.8033,52.7465],[-4.7992,52.7549],[-4.7955,52.7566],[-4.797,52.7635],[-4.7955,52.7676],[-4.7885,52.7684],[-4.7815,52.7668]],[[-5.5428,54.6702],[-5.5435,54.6769],[-5.5317,54.6813],[-5.5181,54.6761],[-5.5158,54.6733],[-5.5171,54.669],[-5.5213,54.667],[-5.5299,54.6675],[-5.5343,54.6715],[-5.5428,54.6702]],[[-6.0356,53.4884],[-6.0285,53.4966],[-6.0227,53.4931],[-6.0109,53.4961],[-5.9979,53.4928],[-6.0068,53.4892],[-6.0104,53.4833],[-6.0133,53.4815],[-6.0269,53.4833],[-6.0287,53.4855],[-6.0356,53.4862],[-6.0356,53.4884]],[[-4.7919,54.0584],[-4.8017,54.0511],[-4.8037,54.0511],[-4.8041,54.0483],[-4.8068,54.0513],[-4.8089,54.0504],[-4.8107,54.0516],[-4.8158,54.0494],[-4.8159,54.0524],[-4.8204,54.0571],[-4.8175,54.0634],[-4.807,54.0646],[-4.8041,54.0631],[-4.7997,54.066],[-4.792,54.0653],[-4.7919,54.0584]],[[-2.985,54.1378],[-3.0085,54.1331],[-3.019,54.1326],[-3.0192,54.1337],[-3.0136,54.1411],[-3.0044,54.1413],[-3.0085,54.1446],[-3.0061,54.1463],[-3.002,54.1543],[-2.9773,54.1457],[-2.9776,54.1415],[-2.985,54.1378]],[[-6.118,53.3762],[-6.1472,53.3634],[-6.1616,53.3516],[-6.1747,53.3579],[-6.173,53.3621],[-6.1655,53.3684],[-6.1532,53.3727],[-6.1512,53.3762],[-6.1481,53.3757],[-6.1348,53.3804],[-6.112,53.3846],[-6.1128,53.3807],[-6.118,53.3762]],[[-4.6947,53.3076],[-4.6899,53.307],[-4.6839,53.3094],[-4.6833,53.3112],[-4.6797,53.3117],[-4.6775,53.3186],[-4.6781,53.3227],[-4.6706,53.3197],[-4.6539,53.3208],[-4.6513,53.3237],[-4.6493,53.3214],[-4.6445,53.3258],[-4.6287,53.3264],[-4.618,53.3325],[-4.6169,53.3316],[-4.6281,53.3253],[-4.6428,53.3253],[-4.647,53.3208],[-4.6434,53.3183],[-4.6415,53.3191],[-4.6268,53.3156],[-4.6249,53.3167],[-4.629,53.3207],[-4.6232,53.318],[-4.6159,53.3253],[-4.6196,53.3191],[-4.6157,53.3176],[-4.6145,53.314],[-4.6244,53.3146],[-4.6292,53.3099],[-4.6212,53.3121],[-4.6059,53.3046],[-4.5865,53.3046],[-4.5856,53.301],[-4.5873,53.2997],[-4.5881,53.2928],[-4.59,53.2907],[-4.6026,53.2884],[-4.5979,53.2877],[-4.5978,53.2821],[-4.5927,53.2819],[-4.591,53.2804],[-4.5952,53.2783],[-4.5942,53.2756],[-4.5876,53.2764],[-4.5763,53.2726],[-4.5778,53.2706],[-4.5747,53.2693],[-4.5803,53.2652],[-4.5771,53.2638],[-4.5754,53.2656],[-4.5605,53.266],[-4.571,53.2616],[-4.5691,53.2599],[-4.5633,53.2603],[-4.5617,53.2571],[-4.5582,53.2548],[-4.559,53.2534],[-4.5627,53.2542],[-4.5636,53.2531],[-4.5608,53.2504],[-4.5541,53.2499],[-4.5544,53.248],[-4.5652,53.2481],[-4.5656,53.2466],[-4.5782,53.2432],[-4.58,53.2407],[-4.5869,53.2415],[-4.5872,53.2449],[-4.597,53.243],[-4.6112,53.25],[-4.6092,53.2519],[-4.6113,53.2534],[-4.6083,53.2548],[-4.609,53.2563],[-4.6123,53.2582],[-4.6137,53.2613],[-4.6158,53.2612],[-4.6158,53.2632],[-4.6213,53.265],[-4.6208,53.2672],[-4.6255,53.2707],[-4.6213,53.2749],[-4.6227,53.2779],[-4.6335,53.2792],[-4.6387,53.2775],[-4.6401,53.2784],[-4.6357,53.2814],[-4.6381,53.2832],[-4.6507,53.2831],[-4.6511,53.285],[-4.6601,53.285],[-4.6606,53.2831],[-4.6664,53.283],[-4.6681,53.2814],[-4.6756,53.2849],[-4.6795,53.2811],[-4.6815,53.2819],[-4.6843,53.2888],[-4.6761,53.294],[-4.6763,53.2966],[-4.6775,53.2986],[-4.6873,53.299],[-4.6947,53.3076]],[[-4.7686,54.081],[-4.7621,54.09],[-4.7541,54.0901],[-4.7525,54.0916],[-4.7568,54.095],[-4.77,54.0957],[-4.7705,54.0981],[-4.769,54.1001],[-4.7624,54.1039],[-4.7625,54.1062],[-4.7586,54.1066],[-4.7555,54.1115],[-4.7529,54.1105],[-4.7508,54.1126],[-4.7464,54.1128],[-4.7434,54.1122],[-4.7431,54.1108],[-4.74,54.1114],[-4.7379,54.1151],[-4.7387,54.1177],[-4.7375,54.1202],[-4.7356,54.1209],[-4.7327,54.1285],[-4.7312,54.1284],[-4.7315,54.1321],[-4.7252,54.1404],[-4.7242,54.1461],[-4.7268,54.1526],[-4.7245,54.1584],[-4.7274,54.1599],[-4.7277,54.1625],[-4.7341,54.1661],[-4.7348,54.173],[-4.732,54.1771],[-4.7234,54.1809],[-4.7139,54.1895],[-4.7113,54.1966],[-4.7122,54.202],[-4.7075,54.2066],[-4.7121,54.2141],[-4.6958,54.228],[-4.6952,54.2309],[-4.6892,54.2285],[-4.6802,54.2318],[-4.6803,54.2338],[-4.678,54.2349],[-4.6751,54.2345],[-4.6595,54.2393],[-4.6578,54.2424],[-4.6499,54.2482],[-4.6335,54.2537],[-4.6071,54.2719],[-4.5861,54.2956],[-4.5831,54.3034],[-4.583,54.3079],[-4.5743,54.3198],[-4.5643,54.3299],[-4.5596,54.3317],[-4.5555,54.3359],[-4.5489,54.3481],[-4.5472,54.3554],[-4.5418,54.3636],[-4.5258,54.3739],[-4.5105,54.3761],[-4.4535,54.3988],[-4.4151,54.404],[-4.3692,54.4185],[-4.3627,54.4185],[-4.3628,54.3931],[-4.372,54.3738],[-4.3813,54.3605],[-4.3861,54.3506],[-4.3881,54.3444],[-4.3872,54.3286],[-4.3819,54.3243],[-4.3803,54.3204],[-4.3633,54.3237],[-4.3617,54.3224],[-4.3799,54.3192],[-4.3742,54.3144],[-4.3579,54.3103],[-4.3555,54.3121],[-4.3485,54.3082],[-4.3397,54.3077],[-4.3346,54.3039],[-4.326,54.3041],[-4.3189,54.3021],[-4.3147,54.3004],[-4.3135,54.2982],[-4.3158,54.2957],[-4.3111,54.2949],[-4.316,54.2945],[-4.3199,54.2906],[-4.3277,54.2924],[-4.3281,54.287],[-4.3256,54.2843],[-4.3264,54.2824],[-4.3313,54.2788],[-4.3387,54.277],[-4.3426,54.2732],[-4.3434,54.2655],[-4.3457,54.2651],[-4.347,54.2624],[-4.365,54.2551],[-4.3742,54.2485],[-4.3745,54.2461],[-4.3703,54.2437],[-4.374,54.2411],[-4.376,54.2358],[-4.3851,54.2324],[-4.3887,54.229],[-4.3971,54.2284],[-4.4023,54.2249],[-4.3991,54.2196],[-4.4003,54.2133],[-4.3989,54.2079],[-4.3926,54.2064],[-4.3865,54.2014],[-4.4026,54.185],[-4.4164,54.1775],[-4.4225,54.1764],[-4.4219,54.1732],[-4.4284,54.1699],[-4.436,54.1687],[-4.4432,54.1741],[-4.4474,54.1711],[-4.4642,54.1697],[-4.4739,54.163],[-4.4765,54.1569],[-4.4753,54.1528],[-4.4652,54.1497],[-4.4661,54.1461],[-4.4757,54.1415],[-4.487,54.1393],[-4.4909,54.136],[-4.498,54.1354],[-4.4986,54.1328],[-4.5011,54.1327],[-4.5015,54.1305],[-4.5158,54.1318],[-4.5273,54.1276],[-4.5304,54.1246],[-4.5331,54.1243],[-4.5316,54.1228],[-4.5322,54.1196],[-4.5302,54.1181],[-4.5348,54.1174],[-4.541,54.1135],[-4.5432,54.1139],[-4.5462,54.1058],[-4.55,54.1023],[-4.5551,54.1005],[-4.5783,54.1007],[-4.5879,54.0987],[-4.5888,54.0972],[-4.5933,54.097],[-4.5945,54.095],[-4.5995,54.0936],[-4.6007,54.0907],[-4.6041,54.0899],[-4.608,54.0841],[-4.6114,54.0834],[-4.6111,54.0815],[-4.6147,54.0842],[-4.619,54.084],[-4.6194,54.0799],[-4.6146,54.0758],[-4.6104,54.0755],[-4.6019,54.0783],[-4.6017,54.0772],[-4.6033,54.0754],[-4.6064,54.0759],[-4.6172,54.061],[-4.6222,54.0619],[-4.6174,54.0737],[-4.6191,54.0739],[-4.6192,54.0768],[-4.6273,54.0818],[-4.6454,54.0818],[-4.6483,54.0782],[-4.6589,54.0748],[-4.6563,54.0737],[-4.6569,54.0695],[-4.6636,54.0683],[-4.6736,54.0706],[-4.6761,54.0733],[-4.6752,54.0791],[-4.6774,54.0791],[-4.6804,54.0837],[-4.686,54.0831],[-4.6867,54.0875],[-4.6992,54.0895],[-4.7232,54.089],[-4.7239,54.0825],[-4.7264,54.0822],[-4.7273,54.0791],[-4.7239,54.0759],[-4.7249,54.0725],[-4.7274,54.0716],[-4.7364,54.0755],[-4.7414,54.0698],[-4.7443,54.0694],[-4.7446,54.0666],[-4.7529,54.0654],[-4.759,54.0667],[-4.7638,54.0608],[-4.7704,54.0604],[-4.7751,54.066],[-4.7783,54.0649],[-4.7809,54.0666],[-4.7876,54.0664],[-4.7873,54.0692],[-4.7832,54.0728],[-4.7807,54.0719],[-4.7778,54.077],[-4.7686,54.081]],[[-4.4472,53.4225],[-4.4506,53.4245],[-4.4438,53.4253],[-4.4434,53.4271],[-4.4377,53.4287],[-4.4282,53.4282],[-4.4281,53.4306],[-4.4256,53.4307],[-4.4154,53.4269],[-4.4035,53.4274],[-4.4053,53.4234],[-4.4017,53.422],[-4.3919,53.4267],[-4.3719,53.4257],[-4.3695,53.4249],[-4.3661,53.4192],[-4.3569,53.4158],[-4.352,53.4179],[-4.3432,53.4181],[-4.3393,53.4206],[-4.3334,53.4188],[-4.3318,53.4167],[-4.3243,53.4198],[-4.3225,53.4176],[-4.2925,53.4133],[-4.2906,53.4136],[-4.2903,53.4172],[-4.2889,53.4172],[-4.2835,53.411],[-4.2834,53.4068],[-4.2748,53.4045],[-4.2739,53.399],[-4.2687,53.3967],[-4.2695,53.3938],[-4.2679,53.3885],[-4.2774,53.3789],[-4.2863,53.3726],[-4.2901,53.3662],[-4.2847,53.367],[-4.2759,53.3717],[-4.279,53.3759],[-4.2719,53.3766],[-4.2715,53.3744],[-4.2627,53.3663],[-4.265,53.365],[-4.2646,53.3638],[-4.2607,53.3618],[-4.2438,53.361],[-4.2286,53.3578],[-4.2357,53.3518],[-4.2275,53.3438],[-4.2312,53.3426],[-4.2297,53.3379],[-4.2273,53.3359],[-4.2256,53.3388],[-4.2236,53.3389],[-4.2234,53.3332],[-4.22,53.3282],[-4.2184,53.3218],[-4.2127,53.3171],[-4.2032,53.3141],[-4.2064,53.306],[-4.2137,53.3001],[-4.213,53.2983],[-4.2081,53.2965],[-4.2015,53.2956],[-4.199,53.2976],[-4.1881,53.2982],[-4.1724,53.3032],[-4.1457,53.3051],[-4.1424,53.3109],[-4.1358,53.3153],[-4.1146,53.3196],[-4.07,53.3127],[-4.0662,53.3146],[-4.0558,53.3157],[-4.0509,53.3133],[-4.0433,53.3127],[-4.0397,53.315],[-4.04,53.3105],[-4.0481,53.3045],[-4.056,53.3037],[-4.0587,53.2952],[-4.0686,53.2923],[-4.0757,53.2808],[-4.0844,53.2749],[-4.0852,53.2655],[-4.0869,53.2635],[-4.0957,53.263],[-4.1021,53.2582],[-4.1001,53.2563],[-4.1295,53.2449],[-4.1433,53.2366],[-4.1471,53.2314],[-4.1615,53.2224],[-4.1766,53.2227],[-4.1855,53.2171],[-4.2003,53.2157],[-4.2109,53.21],[-4.2145,53.2052],[-4.2146,53.1916],[-4.2179,53.1893],[-4.2174,53.1868],[-4.222,53.1861],[-4.2321,53.1808],[-4.2414,53.1798],[-4.2496,53.1743],[-4.2573,53.1728],[-4.2743,53.1646],[-4.2735,53.162],[-4.2757,53.1584],[-4.2854,53.149],[-4.2965,53.1464],[-4.3055,53.147],[-4.318,53.1445],[-4.3238,53.1459],[-4.3233,53.1491],[-4.3247,53.1497],[-4.3304,53.1486],[-4.337,53.1496],[-4.3375,53.1475],[-4.335,53.1453],[-4.3362,53.1427],[-4.3393,53.1395],[-4.3499,53.1347],[-4.3492,53.1323],[-4.3278,53.1286],[-4.3601,53.1313],[-4.3734,53.1386],[-4.3925,53.1446],[-4.4054,53.1444],[-4.4057,53.1405],[-4.4101,53.138],[-4.4088,53.1474],[-4.4184,53.1618],[-4.4154,53.165],[-4.3855,53.1693],[-4.3797,53.1827],[-4.384,53.1905],[-4.3865,53.192],[-4.3959,53.1876],[-4.4007,53.1843],[-4.4023,53.181],[-4.4096,53.1785],[-4.412,53.173],[-4.4266,53.1653],[-4.4291,53.1605],[-4.4354,53.1601],[-4.4438,53.1558],[-4.4417,53.1612],[-4.447,53.1622],[-4.4495,53.1655],[-4.452,53.166],[-4.4506,53.1679],[-4.4525,53.1715],[-4.456,53.1713],[-4.4583,53.1785],[-4.4636,53.1832],[-4.4645,53.185],[-4.4622,53.1909],[-4.4655,53.1884],[-4.4668,53.1836],[-4.4812,53.1806],[-4.4853,53.1783],[-4.4883,53.1794],[-4.4867,53.1868],[-4.4904,53.189],[-4.4915,53.1853],[-4.4931,53.1849],[-4.4942,53.1858],[-4.4919,53.1885],[-4.502,53.1872],[-4.5042,53.1886],[-4.5041,53.1966],[-4.498,53.2051],[-4.4993,53.2073],[-4.5037,53.2078],[-4.5028,53.2162],[-4.5229,53.2259],[-4.5201,53.2348],[-4.536,53.2378],[-4.5399,53.2441],[-4.5488,53.2476],[-4.5537,53.2517],[-4.5512,53.2519],[-4.5527,53.2535],[-4.5505,53.2566],[-4.5577,53.261],[-4.5558,53.2654],[-4.5515,53.2663],[-4.5536,53.2682],[-4.5558,53.2676],[-4.5562,53.2656],[-4.5639,53.2671],[-4.5656,53.2732],[-4.5823,53.2763],[-4.5803,53.2804],[-4.5836,53.2804],[-4.5841,53.279],[-4.5859,53.2818],[-4.5812,53.2822],[-4.5735,53.2898],[-4.5595,53.2976],[-4.5595,53.2998],[-4.5562,53.2986],[-4.5463,53.3006],[-4.5447,53.3054],[-4.5347,53.3091],[-4.5375,53.3101],[-4.5448,53.3085],[-4.5521,53.3046],[-4.5562,53.3055],[-4.5607,53.3027],[-4.562,53.2998],[-4.5652,53.3007],[-4.56,53.3157],[-4.5632,53.3185],[-4.5697,53.3198],[-4.5705,53.3247],[-4.5823,53.3264],[-4.5812,53.3299],[-4.5836,53.3313],[-4.5831,53.3327],[-4.5798,53.3344],[-4.5717,53.3349],[-4.5692,53.337],[-4.5697,53.3412],[-4.5665,53.3438],[-4.5685,53.3466],[-4.5654,53.353],[-4.5675,53.3539],[-4.5654,53.3579],[-4.5597,53.3592],[-4.5541,53.3745],[-4.5554,53.3775],[-4.5611,53.3783],[-4.5618,53.3827],[-4.5654,53.3844],[-4.563,53.3894],[-4.5699,53.3917],[-4.5687,53.3978],[-4.5736,53.4006],[-4.5732,53.4039],[-4.5673,53.4069],[-4.5607,53.4076],[-4.5542,53.4046],[-4.5509,53.4046],[-4.5448,53.4076],[-4.531,53.4063],[-4.5287,53.4074],[-4.5288,53.4107],[-4.5254,53.4123],[-4.5221,53.4114],[-4.5099,53.4164],[-4.5156,53.4109],[-4.5156,53.4074],[-4.5108,53.4073],[-4.5066,53.4083],[-4.5009,53.414],[-4.4945,53.4122],[-4.4882,53.4128],[-4.4891,53.4153],[-4.4851,53.4197],[-4.4821,53.4188],[-4.4773,53.4219],[-4.4724,53.4205],[-4.4757,53.419],[-4.4743,53.4149],[-4.4707,53.4144],[-4.4651,53.4171],[-4.4559,53.4169],[-4.4542,53.4145],[-4.4514,53.4144],[-4.4478,53.4159],[-4.449,53.4177],[-4.4533,53.4186],[-4.4528,53.4205],[-4.4471,53.4206],[-4.4472,53.4225]]]}}
