{"type":"Feature","id":"ices_areas.37","geometry_name":"the_geom","properties":{"ices_area":"VIb1","language":"en","area_km2":115486.932926,"placetype":"ICES Areas","placetypei":352,"parent":"ICES Statistical Areas","parentid":36328,"source":"ices-area","sourceid":378,"lon_min":-17.9999999458,"lon_max":-13.4999999416,"lat_min":54.5000000364,"lat_max":60.0000000415,"longitude":-16.3944406526,"latitude":57.4435097718,"mrgid":36366,"name":"VIb1"},"geometry":{"type":"Polygon","coordinates":[[[-15.99,54.5],[-15.95,54.68],[-15.87,54.93],[-15.75,55.18],[-15.6,55.42],[-15.54,55.5],[-15.47,55.57],[-15.34,55.73],[-14.89,56.17],[-14.72,56.31],[-14.62,56.37],[-14.54,56.44],[-14.34,56.57],[-14.63,57.01],[-14.88,57.87],[-14.79,58.51],[-14.57,59.01],[-13.99,59.65],[-13.5,60.0],[-18.0,60.0],[-18.0,54.5],[-15.99,54.5]]]}}
