{"type":"Feature","properties":{"mrgid":3706,"name":"Samos","placeType":"Island","source":"Europe:europeislands"},"geometry":{"type":"Polygon","coordinates":[[[26.9674,37.7481],[26.9287,37.7725],[26.8822,37.7799],[26.8509,37.8068],[26.742,37.8131],[26.6584,37.7905],[26.6385,37.7711],[26.6097,37.7694],[26.5667,37.7306],[26.5851,37.7057],[26.5786,37.6915],[26.5915,37.6743],[26.6011,37.6825],[26.6237,37.6805],[26.6233,37.6886],[26.6335,37.6891],[26.6437,37.7035],[26.7214,37.7105],[26.7528,37.6969],[26.7941,37.6445],[26.8186,37.6375],[26.878,37.64],[26.8891,37.6714],[26.933,37.6892],[26.9663,37.6927],[26.9817,37.707],[27.0387,37.7041],[27.0712,37.7167],[27.064,37.7287],[27.0371,37.7295],[27.043,37.7392],[27.026,37.7523],[27.0311,37.7628],[27.0672,37.7794],[27.0002,37.778],[26.9883,37.7843],[26.9921,37.7964],[26.9782,37.7931],[26.9826,37.7795],[26.953,37.7882],[26.9487,37.7851],[26.9779,37.7559],[26.9674,37.7481]]]}}
