{"type":"Feature","properties":{"mrgid":47601,"name":"Cape Provinces","placeType":"TDWG Terrestrial - level 3","source":"TDWG:level3"},"geometry":{"type":"MultiPolygon","coordinates":[[[[29.668745,-30.043495],[29.509545,-29.997995],[29.455045,-29.963095],[29.423645,-29.973295],[29.397545,-30.161195],[29.522345,-30.225695],[29.499845,-30.288195],[29.524845,-30.358995],[29.610445,-30.494495],[29.647245,-30.533195],[29.677745,-30.516395],[29.784245,-30.515995],[29.862645,-30.554695],[29.955545,-30.572495],[30.002145,-30.522495],[30.068345,-30.431395],[30.112945,-30.418495],[30.104445,-30.390795],[30.032545,-30.308895],[29.953345,-30.269995],[29.915045,-30.241095],[29.812945,-30.049795],[29.705945,-30.075195],[29.668745,-30.043495]]],[[[20.127245,-24.881995],[20.059145,-24.826395],[20.000945,-24.765395],[19.996145,-28.421495],[19.803645,-28.494995],[19.732545,-28.484195],[19.569445,-28.526795],[19.513345,-28.594995],[19.493845,-28.633095],[19.491945,-28.666695],[19.466345,-28.699695],[19.358845,-28.734495],[19.339145,-28.737195],[19.305045,-28.725295],[19.269145,-28.734495],[19.239145,-28.798895],[19.263345,-28.859695],[19.253845,-28.899395],[19.123045,-28.962195],[19.009445,-28.932195],[18.995545,-28.923595],[18.973845,-28.881695],[18.957745,-28.868095],[18.723045,-28.836695],[18.175845,-28.908595],[18.046345,-28.869995],[17.971645,-28.804195],[17.912545,-28.779195],[17.749745,-28.746395],[17.655545,-28.775795],[17.635245,-28.772195],[17.604445,-28.756995],[17.598345,-28.697495],[17.577345,-28.681195],[17.422745,-28.716395],[17.404745,-28.713595],[17.361345,-28.534995],[17.375545,-28.433095],[17.393345,-28.413595],[17.399745,-28.353895],[17.348845,-28.236695],[17.313045,-28.219095],[17.280845,-28.238295],[17.221645,-28.244695],[17.184145,-28.202495],[17.195545,-28.126995],[17.186345,-28.108095],[17.139445,-28.092795],[17.104145,-28.042195],[17.063645,-28.028595],[16.917545,-28.063895],[16.883645,-28.096395],[16.822545,-28.237795],[16.798645,-28.348295],[16.803345,-28.364395],[16.776645,-28.441695],[16.727745,-28.496095],[16.704745,-28.498595],[16.690545,-28.463895],[16.667545,-28.464995],[16.489545,-28.578195],[16.483345,-28.608295],[16.491645,-28.645795],[16.533045,-28.698095],[16.606145,-28.871995],[16.642545,-28.882495],[16.670845,-28.905795],[16.815245,-29.084995],[16.834445,-29.156695],[16.910845,-29.333295],[16.936345,-29.365295],[17.003345,-29.524395],[17.053345,-29.676695],[17.086145,-29.840295],[17.181145,-30.070595],[17.278845,-30.346695],[17.420045,-30.558095],[17.482245,-30.695795],[17.615245,-30.933595],[17.725845,-31.090595],[17.801345,-31.214495],[17.909445,-31.359695],[18.181345,-31.674695],[18.214745,-31.727195],[18.278645,-31.892795],[18.271645,-31.953595],[18.319445,-32.179995],[18.335045,-32.213595],[18.350245,-32.288095],[18.332545,-32.497195],[18.292245,-32.624495],[18.256145,-32.676695],[18.131745,-32.778795],[18.065045,-32.781095],[17.984145,-32.731095],[17.902745,-32.774195],[17.847545,-32.830795],[17.876145,-33.000795],[17.893045,-33.031095],[17.913845,-33.048095],[17.953845,-33.027495],[17.942545,-33.011695],[17.983345,-33.000295],[18.003045,-33.005295],[18.034445,-33.032495],[18.127745,-33.177195],[18.123045,-33.199995],[18.113045,-33.205595],[18.107745,-33.250595],[18.160545,-33.341095],[18.248845,-33.415795],[18.294745,-33.466095],[18.441145,-33.706695],[18.466645,-33.817195],[18.445545,-33.911695],[18.408045,-33.902195],[18.380045,-33.911995],[18.310245,-34.032495],[18.380245,-34.255795],[18.420245,-34.323095],[18.465845,-34.348295],[18.490145,-34.348195],[18.478845,-34.234495],[18.458845,-34.190795],[18.435845,-34.168895],[18.444145,-34.135795],[18.488045,-34.097795],[18.520845,-34.084495],[18.601945,-34.073595],[18.745245,-34.076995],[18.793345,-34.086695],[18.821345,-34.103895],[18.855245,-34.156095],[18.845045,-34.251995],[18.808645,-34.308595],[18.803845,-34.355595],[18.817745,-34.377795],[18.843845,-34.385595],[18.858645,-34.370295],[18.999445,-34.341095],[19.083345,-34.346395],[19.112245,-34.403295],[19.132245,-34.414195],[19.210845,-34.428595],[19.253045,-34.409495],[19.281945,-34.409695],[19.324145,-34.446995],[19.364145,-34.514695],[19.363345,-34.537795],[19.318645,-34.597195],[19.423645,-34.621995],[19.516345,-34.675595],[19.545545,-34.712495],[19.651645,-34.775795],[19.666345,-34.776095],[19.683845,-34.756095],[19.857745,-34.752495],[19.954145,-34.809995],[19.999345,-34.821995],[20.089745,-34.726395],[20.230245,-34.660795],[20.387545,-34.559495],[20.460245,-34.482195],[20.504445,-34.464695],[20.553645,-34.451395],[20.662445,-34.440795],[20.798645,-34.458595],[20.846345,-34.408895],[20.852545,-34.393295],[20.889445,-34.370295],[20.942545,-34.360295],[21.062745,-34.363895],[21.210245,-34.414995],[21.294745,-34.433895],[21.413345,-34.403895],[21.428845,-34.378295],[21.528345,-34.352495],[21.563045,-34.357195],[21.655545,-34.390595],[21.722245,-34.397495],[21.802545,-34.383095],[21.901645,-34.336095],[21.916945,-34.307495],[21.913645,-34.263295],[21.949745,-34.224995],[22.113645,-34.143095],[22.128045,-34.113895],[22.153845,-34.092495],[22.295245,-34.053895],[22.410845,-34.068095],[22.471145,-34.056995],[22.510845,-34.035595],[22.545045,-34.004995],[22.783345,-34.011095],[22.812745,-34.048095],[22.959445,-34.091395],[23.067245,-34.083895],[23.368345,-34.097495],[23.369045,-34.050295],[23.396645,-34.023295],[23.545845,-33.990595],[23.653345,-33.983895],[24.385545,-34.107195],[24.472245,-34.158895],[24.515845,-34.170295],[24.594145,-34.180295],[24.655045,-34.169695],[24.824745,-34.201695],[24.918645,-34.073095],[24.920245,-34.002795],[24.950545,-33.986995],[25.022645,-33.968095],[25.164145,-33.958895],[25.281145,-33.984195],[25.392545,-34.027495],[25.584445,-34.048895],[25.627245,-34.048295],[25.701945,-34.031995],[25.685845,-33.994695],[25.670845,-33.979695],[25.647545,-33.971995],[25.620845,-33.946395],[25.611645,-33.926695],[25.628645,-33.851395],[25.675245,-33.794495],[25.725045,-33.767195],[25.868645,-33.721995],[25.971145,-33.710595],[26.079145,-33.714695],[26.223345,-33.742795],[26.284445,-33.766395],[26.448045,-33.774395],[26.530545,-33.753295],[26.625545,-33.719695],[26.644145,-33.700795],[26.731645,-33.654495],[26.991645,-33.572195],[27.096145,-33.528595],[27.606145,-33.211895],[27.730245,-33.117495],[27.900045,-33.040595],[28.074445,-32.906095],[28.107745,-32.859495],[28.228045,-32.767495],[28.359745,-32.700295],[28.537745,-32.574195],[28.568345,-32.526095],[28.779145,-32.341995],[28.826345,-32.313095],[28.934145,-32.219495],[29.091645,-32.064495],[29.200845,-31.951995],[29.296945,-31.829995],[29.411945,-31.704195],[29.526945,-31.645795],[29.629445,-31.581395],[29.765845,-31.444495],[29.791945,-31.432795],[29.846145,-31.425295],[29.898845,-31.387495],[30.023845,-31.281095],[30.183045,-31.090295],[30.192645,-31.072895],[30.174445,-31.063295],[30.136145,-31.012495],[30.117745,-30.960295],[30.026145,-30.848295],[29.973345,-30.834695],[29.805545,-30.724695],[29.765245,-30.706695],[29.418345,-30.637495],[29.333845,-30.657195],[29.313345,-30.653895],[29.080045,-30.587495],[29.082245,-30.535295],[29.005845,-30.501995],[28.993045,-30.501995],[28.981145,-30.513095],[28.981145,-30.552195],[28.968845,-30.577195],[28.864745,-30.560295],[28.777545,-30.499995],[28.758045,-30.462495],[28.750245,-30.368295],[28.786345,-30.293295],[28.872545,-30.324495],[29.076645,-30.165295],[29.121945,-30.114195],[29.123645,-30.080595],[29.022545,-29.989795],[28.885245,-30.064995],[28.674445,-30.135295],[28.521345,-30.128895],[28.412245,-30.141695],[28.377745,-30.160295],[28.348645,-30.209995],[28.310245,-30.246995],[28.257545,-30.326695],[28.160045,-30.498295],[28.146945,-30.554495],[28.079945,-30.650495],[27.972745,-30.644195],[27.738045,-30.597795],[27.615545,-30.488595],[27.564645,-30.404895],[27.464745,-30.321395],[27.416945,-30.318295],[27.378945,-30.317295],[27.346945,-30.443295],[27.296945,-30.491095],[27.000545,-30.550795],[26.932745,-30.657795],[26.851645,-30.678095],[26.651345,-30.680595],[26.544445,-30.658595],[26.480545,-30.631995],[26.476645,-30.590795],[26.438645,-30.561995],[26.345845,-30.584995],[26.275545,-30.577795],[26.253345,-30.541695],[26.181345,-30.494195],[26.157245,-30.487795],[25.993645,-30.531995],[25.892545,-30.540795],[25.870245,-30.556095],[25.875045,-30.598095],[25.868045,-30.612495],[25.753345,-30.679195],[25.703045,-30.678895],[25.624445,-30.651695],[25.458645,-30.611395],[25.396345,-30.561695],[25.263345,-30.504195],[25.157745,-30.437195],[24.907545,-30.204195],[24.810545,-30.042195],[24.674145,-29.962495],[24.540045,-29.824195],[24.484445,-29.810595],[24.424445,-29.783895],[24.405045,-29.766995],[24.353345,-29.701995],[24.340545,-29.650695],[24.882545,-28.634995],[24.829745,-28.618095],[24.854145,-28.501695],[25.010845,-28.116695],[25.014445,-28.081695],[25.007845,-28.073395],[24.927745,-28.087795],[24.824545,-27.909095],[24.841945,-27.906095],[25.039245,-27.693895],[25.004445,-27.679895],[24.801245,-27.702095],[24.794345,-27.698095],[24.794345,-27.646695],[24.782945,-27.605295],[24.756645,-27.609095],[24.681345,-27.640795],[24.667545,-27.683595],[24.677745,-27.716095],[24.698345,-27.725595],[24.706145,-27.757195],[24.695045,-27.822195],[24.610845,-28.001095],[24.519745,-28.099795],[24.450845,-28.043295],[24.457245,-27.980295],[24.403345,-27.929695],[24.382745,-27.937495],[24.364745,-27.926395],[24.348345,-27.899995],[24.392545,-27.844995],[24.422245,-27.832195],[24.428345,-27.817495],[24.434145,-27.784995],[24.430245,-27.719195],[24.407545,-27.684495],[24.097745,-27.747195],[24.064145,-27.718295],[24.089445,-27.614995],[24.028345,-27.595795],[24.035545,-27.431695],[24.065045,-27.357195],[23.990545,-27.312495],[23.968345,-27.350295],[23.750545,-27.549195],[23.739445,-27.549695],[23.637745,-27.511395],[23.592245,-27.472195],[23.466945,-27.462495],[23.338845,-27.359995],[23.300845,-27.348295],[23.261645,-27.352195],[23.215545,-27.344195],[23.092545,-27.199995],[23.026945,-27.216095],[22.991645,-27.157795],[22.986345,-27.117495],[22.993345,-27.036095],[23.030845,-26.959695],[22.998345,-26.859495],[23.003845,-26.754495],[23.042545,-26.683595],[23.038645,-26.669995],[22.964445,-26.621395],[22.835845,-26.569995],[22.738645,-26.575595],[22.702245,-26.573095],[22.693845,-26.562795],[22.678345,-26.442795],[22.690245,-26.417195],[22.702245,-26.413295],[22.694145,-26.114995],[22.624845,-26.111595],[22.479145,-26.202795],[22.366345,-26.286395],[22.249445,-26.341095],[22.195545,-26.396095],[22.175545,-26.431095],[22.157545,-26.503295],[22.135545,-26.537795],[22.043045,-26.634495],[21.953645,-26.664495],[21.891645,-26.668895],[21.847245,-26.659995],[21.770245,-26.680295],[21.760045,-26.691995],[21.775545,-26.739695],[21.773845,-26.787495],[21.748345,-26.820295],[21.673345,-26.863095],[21.509745,-26.851695],[21.439145,-26.824195],[21.381145,-26.821095],[21.276945,-26.845595],[21.128845,-26.866395],[21.003345,-26.845295],[20.962245,-26.811995],[20.897245,-26.794695],[20.827745,-26.814695],[20.800045,-26.845295],[20.763845,-26.861095],[20.703845,-26.875595],[20.642545,-26.828095],[20.618845,-26.767495],[20.601945,-26.536395],[20.609745,-26.454495],[20.619345,-26.437695],[20.656945,-26.423095],[20.690245,-26.389995],[20.796345,-26.249495],[20.859745,-26.146695],[20.811345,-25.883295],[20.783845,-25.824695],[20.681145,-25.684995],[20.687745,-25.578895],[20.631945,-25.436995],[20.536345,-25.298095],[20.390045,-25.036995],[20.245045,-24.919495],[20.166145,-24.886395],[20.127245,-24.881995]]]]}}
