{"type":"Feature","properties":{"mrgid":47625,"name":"Falkland Is.","placeType":"TDWG Terrestrial - level 3","source":"TDWG:level3"},"geometry":{"type":"MultiPolygon","coordinates":[[[[-59.791389,-51.249451],[-59.807503,-51.25695],[-59.811111,-51.26973],[-59.573616,-51.333618],[-59.467781,-51.335281],[-59.445557,-51.323334],[-59.479172,-51.264725],[-59.791389,-51.249451]]],[[[-60.283615,-51.386673],[-60.254448,-51.402779],[-60.116669,-51.40834],[-60.05278,-51.346672],[-60.048889,-51.330002],[-60.079445,-51.300835],[-60.286667,-51.265556],[-60.300285,-51.271393],[-60.289169,-51.285835],[-60.279449,-51.363617],[-60.283615,-51.386673]]],[[[-60.025284,-51.297783],[-60.024727,-51.303337],[-59.953613,-51.349167],[-59.926949,-51.348892],[-59.905006,-51.335007],[-59.900841,-51.306946],[-59.906113,-51.303062],[-59.95945,-51.282501],[-60.025284,-51.297783]]],[[[-58.994728,-51.806671],[-59.042778,-51.81778],[-59.041115,-51.780281],[-59.026672,-51.756393],[-59.048889,-51.698334],[-59.063614,-51.686111],[-59.142227,-51.696114],[-59.228615,-51.719727],[-59.518059,-51.875282],[-59.566673,-51.917503],[-59.716393,-52.099449],[-59.718056,-52.121117],[-59.574448,-52.215279],[-59.348061,-52.343056],[-59.338058,-52.324448],[-59.339729,-52.25528],[-59.384445,-52.227226],[-59.43,-52.215004],[-59.452782,-52.163895],[-59.449173,-52.140839],[-59.384727,-52.116394],[-59.193893,-52.206673],[-59.077225,-52.231674],[-59.066948,-52.231392],[-59.049446,-52.215004],[-59.035278,-52.14389],[-59.130562,-52.05806],[-59.195007,-52.028061],[-59.253059,-52.018333],[-59.293335,-52.027229],[-59.300835,-52.017502],[-59.289726,-52.004173],[-59.251671,-51.991112],[-59.137779,-51.985558],[-59.03334,-52.024445],[-58.978889,-52.071945],[-58.930557,-52.100281],[-58.911667,-52.099449],[-58.855278,-52.071114],[-58.851669,-52.06028],[-58.792503,-52.034447],[-58.737228,-52.044724],[-58.678062,-52.093056],[-58.64695,-52.067223],[-58.603889,-52.001396],[-58.626396,-51.968338],[-58.729729,-51.947227],[-58.971115,-51.85778],[-58.966118,-51.820557],[-58.940559,-51.801949],[-58.930557,-51.80056],[-58.919724,-51.828339],[-58.909172,-51.835838],[-58.76889,-51.891945],[-58.415001,-51.900558],[-58.234726,-51.832779],[-58.285278,-51.827225],[-58.320839,-51.835007],[-58.358337,-51.826668],[-58.256111,-51.794449],[-58.173615,-51.796669],[-58.259171,-51.763336],[-58.259171,-51.75695],[-58.111946,-51.763336],[-58.032501,-51.757507],[-57.83445,-51.723618],[-57.731392,-51.692223],[-57.765007,-51.629448],[-57.786392,-51.614723],[-57.970284,-51.587784],[-58.039169,-51.590561],[-58.142784,-51.553894],[-58.132225,-51.540558],[-58.031113,-51.501671],[-57.930283,-51.540001],[-57.813896,-51.549728],[-57.761673,-51.538338],[-57.76889,-51.500557],[-57.873894,-51.401672],[-57.911949,-51.376396],[-57.953896,-51.372223],[-58.222778,-51.395836],[-58.258057,-51.403336],[-58.279449,-51.417503],[-58.35778,-51.503059],[-58.341393,-51.513618],[-58.311111,-51.497223],[-58.188896,-51.585281],[-58.182785,-51.609169],[-58.213341,-51.649727],[-58.236115,-51.653893],[-58.28334,-51.604172],[-58.335838,-51.566673],[-58.420563,-51.556671],[-58.498894,-51.500282],[-58.550285,-51.433617],[-58.493614,-51.394447],[-58.473335,-51.401947],[-58.440285,-51.454727],[-58.361946,-51.44445],[-58.326393,-51.428337],[-58.320557,-51.413895],[-58.339729,-51.373894],[-58.401672,-51.328056],[-58.47139,-51.306671],[-58.549446,-51.30584],[-58.600548,-51.318192],[-58.617226,-51.328339],[-58.619728,-51.338341],[-58.696671,-51.33667],[-58.746948,-51.328613],[-58.848618,-51.291389],[-58.890007,-51.323616],[-58.865562,-51.359169],[-58.875,-51.379448],[-58.991112,-51.405556],[-59.084724,-51.411667],[-59.082779,-51.468338],[-58.986946,-51.503059],[-59.01973,-51.582504],[-59.036949,-51.586395],[-59.049171,-51.580284],[-59.108612,-51.513893],[-59.172783,-51.575562],[-59.160278,-51.59417],[-59.078339,-51.63195],[-59.023895,-51.676949],[-58.980003,-51.788895],[-58.994728,-51.806671]]],[[[-59.953056,-51.983063],[-59.673615,-51.771667],[-59.577782,-51.688339],[-59.463341,-51.616394],[-59.431946,-51.623337],[-59.392784,-51.599167],[-59.212784,-51.405838],[-59.413063,-51.336395],[-59.448891,-51.358337],[-59.448334,-51.399727],[-59.38945,-51.430283],[-59.458618,-51.458061],[-59.513618,-51.461945],[-59.811951,-51.442223],[-59.83139,-51.433891],[-59.820282,-51.426949],[-59.825836,-51.407227],[-59.889725,-51.37278],[-60.019447,-51.380005],[-60.0625,-51.420837],[-60.051949,-51.450005],[-60.000839,-51.456947],[-59.984726,-51.467781],[-60.132225,-51.494728],[-60.255836,-51.481117],[-60.333618,-51.455559],[-60.483612,-51.385284],[-60.606949,-51.348618],[-60.642227,-51.35556],[-60.629173,-51.405281],[-60.620003,-51.413895],[-60.551674,-51.438896],[-60.449722,-51.444168],[-60.407837,-51.464783],[-60.384171,-51.486389],[-60.40139,-51.495285],[-60.404449,-51.551392],[-60.163612,-51.661392],[-60.163612,-51.68084],[-60.248894,-51.665558],[-60.364723,-51.667503],[-60.45723,-51.702225],[-60.557228,-51.693062],[-60.617783,-51.669724],[-60.638618,-51.678062],[-60.638336,-51.722229],[-60.556114,-51.775558],[-60.445282,-51.762505],[-60.385559,-51.744728],[-60.354446,-51.708893],[-60.227501,-51.700279],[-60.178894,-51.70945],[-60.180557,-51.758896],[-60.222778,-51.787781],[-60.260002,-51.773056],[-60.310837,-51.811394],[-60.345284,-51.86084],[-60.376114,-51.837784],[-60.359451,-51.801949],[-60.371674,-51.768333],[-60.438339,-51.779167],[-60.456116,-51.814171],[-60.449448,-51.883057],[-60.431946,-51.914452],[-60.40834,-51.907501],[-60.398338,-51.913895],[-60.444725,-51.965836],[-60.53389,-51.977501],[-60.641113,-51.975006],[-60.761116,-51.955833],[-60.841667,-51.95639],[-60.843895,-51.965561],[-60.817223,-51.991669],[-60.75528,-51.999168],[-60.743614,-52.010284],[-60.81945,-52.034729],[-60.911118,-52.031113],[-60.980835,-52.061951],[-60.735283,-52.17778],[-60.649727,-52.233612],[-60.6175,-52.24556],[-60.368057,-52.159172],[-60.314446,-52.129448],[-60.265282,-52.080002],[-60.272507,-52.043617],[-60.190002,-51.97834],[-60.06028,-51.940285],[-59.953056,-51.983063]]],[[[-61.284729,-51.756111],[-61.275841,-51.717506],[-61.264168,-51.704445],[-61.195839,-51.699448],[-61.243057,-51.680557],[-61.311394,-51.696114],[-61.313896,-51.739723],[-61.284729,-51.756111]]],[[[-60.993057,-51.965836],[-60.881111,-51.934448],[-60.867783,-51.903336],[-60.875282,-51.840004],[-60.890839,-51.825836],[-60.949448,-51.85334],[-61.034447,-51.869446],[-61.013893,-51.848061],[-60.956673,-51.826118],[-60.938057,-51.810562],[-60.940559,-51.800285],[-60.968056,-51.781113],[-61.003059,-51.778336],[-61.120003,-51.81945],[-61.146667,-51.843895],[-61.149445,-51.848892],[-61.111115,-51.896393],[-60.993057,-51.965836]]],[[[-61.235558,-51.865562],[-61.19445,-51.848618],[-61.195007,-51.820282],[-61.208893,-51.800285],[-61.225006,-51.796951],[-61.313896,-51.824722],[-61.283058,-51.855003],[-61.235558,-51.865562]]],[[[-58.517036,-52.020035],[-58.53389,-52.024445],[-58.52417,-52.055],[-58.442505,-52.09639],[-58.424171,-52.08667],[-58.418617,-52.003059],[-58.432503,-51.99028],[-58.488892,-51.99028],[-58.517036,-52.020035]]],[[[-59.765137,-52.253273],[-59.761116,-52.273613],[-59.746674,-52.278336],[-59.681946,-52.235001],[-59.67556,-52.219452],[-59.683891,-52.172783],[-59.704727,-52.165283],[-59.753334,-52.170006],[-59.765137,-52.253273]]]]}}
