{"type":"Feature","properties":{"mrgid":47657,"name":"India","placeType":"TDWG Terrestrial - level 3","source":"TDWG:level3"},"geometry":{"type":"MultiPolygon","coordinates":[[[[80.948045,15.736705],[80.984445,15.753905],[80.991945,15.765805],[80.964445,15.794405],[80.893645,15.843005],[80.878545,15.843305],[80.871345,15.803305],[80.918345,15.751105],[80.948045,15.736705]]],[[[86.283645,20.038005],[86.284945,20.045305],[86.276045,20.050005],[86.251345,20.045005],[86.258645,20.038005],[86.283645,20.038005]]],[[[88.897145,21.525005],[88.912745,21.544405],[88.908545,21.568605],[88.855545,21.607205],[88.827745,21.599705],[88.825545,21.559405],[88.844945,21.526905],[88.858845,21.520005],[88.897145,21.525005]]],[[[72.718045,21.606405],[72.766145,21.655305],[72.730245,21.664705],[72.633645,21.658605],[72.603345,21.643605],[72.618045,21.621705],[72.649945,21.605305],[72.718045,21.606405]]],[[[88.134645,21.620005],[88.165245,21.723305],[88.166645,21.769705],[88.156945,21.843005],[88.132445,21.876105],[88.092445,21.819405],[88.053045,21.720805],[88.044945,21.660805],[88.052745,21.634405],[88.134645,21.620005]]],[[[88.659145,21.876705],[88.675745,21.907205],[88.641945,21.921705],[88.601945,21.877205],[88.579145,21.826905],[88.593545,21.797805],[88.644945,21.784705],[88.659145,21.876705]]],[[[88.088545,21.849405],[88.135245,21.907505],[88.113045,21.948605],[88.097145,21.944705],[88.066645,21.881905],[88.073245,21.852505],[88.088545,21.849405]]],[[[75.753345,32.282505],[75.885945,32.318805],[75.937845,32.357805],[75.966345,32.405505],[75.927045,32.461505],[75.852145,32.525405],[75.831645,32.498105],[75.732745,32.453005],[75.727045,32.427605],[75.699245,32.402205],[75.631645,32.392505],[75.583345,32.374905],[75.541145,32.335205],[75.531445,32.281405],[75.504945,32.261905],[75.477145,32.271705],[75.486045,32.322405],[75.456645,32.343805],[75.319345,32.344605],[75.328545,32.292805],[75.375045,32.263805],[75.391345,32.241605],[75.381245,32.214205],[75.306845,32.133905],[75.256545,32.092905],[75.194045,32.074005],[74.996345,32.036305],[74.972045,32.053305],[74.935745,32.061905],[74.903445,32.053305],[74.851145,31.998605],[74.744345,31.942105],[74.671745,31.918205],[74.605345,31.877105],[74.488745,31.721605],[74.492845,31.701105],[74.541445,31.649905],[74.632845,31.462105],[74.626845,31.419405],[74.602645,31.416005],[74.562445,31.378405],[74.548345,31.354405],[74.522645,31.175105],[74.557245,31.076005],[74.589545,31.079505],[74.607645,31.096605],[74.603545,31.115405],[74.623745,31.123905],[74.684345,31.112005],[74.704545,31.100105],[74.708645,31.086405],[74.694545,31.054005],[74.554945,30.995005],[74.307445,30.848905],[74.181045,30.691705],[74.101045,30.642205],[74.048845,30.599205],[73.996045,30.505005],[73.872545,30.390105],[73.858645,30.360305],[73.905845,30.341705],[73.934445,30.314205],[73.964445,30.234705],[73.968645,30.199405],[73.933445,30.136005],[73.798845,30.070505],[73.588545,30.020305],[73.397445,29.942805],[73.265245,29.553005],[73.086345,29.245805],[72.988845,29.141905],[72.948345,29.035805],[72.728845,28.953605],[72.554945,28.859205],[72.389745,28.785005],[72.292245,28.680005],[72.206645,28.402505],[72.137545,28.325305],[71.992245,28.215805],[71.919945,28.120805],[71.896945,27.961905],[71.693545,27.890505],[71.614745,27.876105],[71.399445,27.868605],[71.225845,27.845805],[70.929945,27.723005],[70.866645,27.706905],[70.829445,27.706405],[70.766945,27.716105],[70.737745,27.731405],[70.662245,27.863305],[70.669745,27.903905],[70.663645,27.928305],[70.583045,28.006705],[70.524945,28.035805],[70.486945,28.045505],[70.368345,28.020805],[70.128045,27.828905],[70.081345,27.728005],[70.037445,27.600005],[69.867445,27.408605],[69.755845,27.309205],[69.700845,27.286705],[69.580245,27.173305],[69.509745,26.992205],[69.484945,26.817205],[69.506145,26.754405],[69.517445,26.743605],[69.722745,26.665305],[69.800845,26.594205],[69.841945,26.585005],[70.038845,26.596705],[70.092445,26.593305],[70.145545,26.572205],[70.183545,26.536105],[70.189445,26.510805],[70.186945,26.391405],[70.173845,26.244405],[70.153845,26.185305],[70.096645,26.092505],[70.089945,25.978305],[70.128545,25.902505],[70.281645,25.706705],[70.386145,25.674705],[70.531645,25.683905],[70.606345,25.714205],[70.639445,25.711905],[70.666345,25.698305],[70.678845,25.653305],[70.671945,25.546705],[70.677445,25.401705],[70.753345,25.273905],[70.858345,25.183905],[70.879745,25.156105],[70.906345,25.035305],[70.942245,24.935505],[70.994145,24.855805],[71.077445,24.680505],[71.003645,24.647805],[70.984145,24.620805],[70.976945,24.596405],[70.979745,24.560505],[70.995845,24.480805],[71.010845,24.455005],[71.044445,24.458905],[71.092745,24.443305],[71.105845,24.433305],[71.105845,24.416405],[71.029145,24.363605],[71.006145,24.360805],[70.969445,24.374405],[70.941645,24.369205],[70.864445,24.316905],[70.865545,24.295005],[70.885845,24.274405],[70.790845,24.239405],[70.761945,24.235805],[70.650545,24.241405],[70.584445,24.278305],[70.579145,24.326705],[70.584145,24.384205],[70.600845,24.415005],[70.579445,24.431705],[70.555545,24.435305],[70.414745,24.402205],[70.254445,24.332205],[70.190545,24.315505],[70.120045,24.309005],[70.070745,24.197905],[70.014745,24.169705],[69.723645,24.171105],[69.598645,24.281405],[69.252445,24.279705],[69.080245,24.297205],[69.016345,24.262505],[68.988045,24.256905],[68.967445,24.273605],[68.953845,24.306705],[68.926945,24.325505],[68.783045,24.332805],[68.745245,24.316005],[68.747245,23.970005],[68.390545,23.967505],[68.290545,23.944405],[68.214445,23.868305],[68.197845,23.766705],[68.201145,23.664205],[68.143345,23.620305],[68.139445,23.609705],[68.144145,23.601105],[68.182245,23.590305],[68.259145,23.579205],[68.321345,23.580805],[68.357245,23.610305],[68.382745,23.676105],[68.447445,23.726905],[68.609945,23.807505],[68.741345,23.844205],[68.720845,23.816105],[68.408345,23.612805],[68.402445,23.520505],[68.433045,23.430005],[68.543045,23.269205],[68.666645,23.142205],[68.902745,23.004705],[69.050245,22.941705],[69.147445,22.869205],[69.215845,22.840305],[69.269445,22.829205],[69.407445,22.809205],[69.710245,22.742805],[69.747245,22.799405],[69.833845,22.854205],[70.227245,22.957505],[70.291945,22.947805],[70.343045,22.930505],[70.389445,22.935305],[70.409145,23.012505],[70.398645,23.046405],[70.404745,23.076105],[70.418045,23.092805],[70.470545,23.125005],[70.486645,23.125005],[70.512545,23.094205],[70.528645,23.046405],[70.511345,22.985305],[70.484445,22.961105],[70.434745,22.961405],[70.367445,22.888605],[70.181645,22.560805],[70.165545,22.548305],[70.138345,22.543005],[70.040545,22.558305],[69.984145,22.533905],[69.870845,22.465505],[69.465545,22.333905],[69.293845,22.282205],[69.238345,22.273305],[69.211645,22.274705],[69.171145,22.302805],[69.166945,22.323005],[69.177445,22.360305],[69.151645,22.403305],[69.078345,22.479405],[69.067245,22.480805],[69.005545,22.444405],[68.986345,22.418305],[68.944445,22.328305],[68.944445,22.294205],[68.976945,22.227205],[69.115545,22.062505],[69.229445,21.947205],[69.436945,21.771705],[69.555245,21.658605],[69.583345,21.637205],[69.628345,21.618005],[69.788545,21.466405],[69.895245,21.326105],[70.015845,21.186105],[70.060845,21.144405],[70.328845,20.928005],[70.527745,20.811105],[70.818845,20.697505],[70.966145,20.702805],[71.134745,20.760005],[71.375245,20.855305],[71.466945,20.881905],[71.482445,20.904205],[71.568045,20.975005],[71.793545,21.050505],[72.003345,21.134705],[72.110545,21.201905],[72.098045,21.251905],[72.103845,21.309705],[72.179445,21.403005],[72.242445,21.465305],[72.289145,21.610805],[72.251345,21.689205],[72.213345,21.705005],[72.214145,21.736105],[72.172445,21.785805],[72.077745,21.784205],[72.019745,21.773605],[71.992445,21.789205],[71.994145,21.847805],[72.004745,21.858905],[72.030245,21.841705],[72.087245,21.828005],[72.161945,21.835305],[72.152245,21.928605],[72.112245,21.914705],[72.043545,21.928305],[72.031645,21.942805],[72.125545,21.972805],[72.179145,21.970505],[72.265245,22.016105],[72.305245,22.063605],[72.325845,22.156705],[72.296945,22.232205],[72.270245,22.226105],[72.178845,22.247505],[72.154945,22.268305],[72.151945,22.283905],[72.249745,22.297805],[72.375845,22.299205],[72.389745,22.249405],[72.466345,22.227205],[72.503045,22.238305],[72.547745,22.274705],[72.581145,22.286105],[72.779945,22.252205],[72.818045,22.272205],[72.907445,22.278605],[72.919145,22.267805],[72.923045,22.228605],[72.914945,22.216105],[72.890245,22.211705],[72.845845,22.237205],[72.817745,22.239705],[72.746945,22.164705],[72.679145,22.178905],[72.625245,22.208905],[72.575545,22.195305],[72.536645,22.137805],[72.518645,22.081105],[72.501345,21.981905],[72.527745,21.917205],[72.551645,21.907205],[72.622745,21.960305],[72.708345,21.992505],[72.734445,21.986405],[72.681045,21.930305],[72.651945,21.941105],[72.626345,21.928305],[72.567445,21.848005],[72.556945,21.761105],[72.525245,21.694705],[72.529145,21.671605],[72.541645,21.663905],[72.627245,21.686105],[72.740545,21.686405],[72.788545,21.667805],[72.936645,21.681705],[73.121645,21.764705],[73.130845,21.753605],[73.111145,21.730005],[72.898345,21.642505],[72.813345,21.632205],[72.616345,21.480005],[72.585845,21.413305],[72.654945,21.440005],[72.684445,21.463905],[72.715245,21.475005],[72.746345,21.478605],[72.753645,21.470805],[72.751945,21.455305],[72.664945,21.415505],[72.587745,21.393905],[72.564145,21.378005],[72.607445,21.258005],[72.614745,21.250005],[72.644745,21.259205],[72.718045,21.196105],[72.639445,21.132805],[72.615245,21.127205],[72.615845,21.097205],[72.630845,21.082505],[72.702745,21.074205],[72.726345,21.083305],[72.755845,21.109205],[72.798345,21.130005],[72.808045,21.126405],[72.853045,21.067805],[72.840545,20.910305],[72.847545,20.843005],[72.885845,20.809405],[72.925245,20.812805],[72.934445,20.774705],[72.885245,20.513005],[72.852745,20.463305],[72.829445,20.441905],[72.816345,20.367505],[72.784945,20.350305],[72.753645,20.295005],[72.703645,19.987805],[72.666045,19.918605],[72.664145,19.870805],[72.677245,19.793605],[72.699745,19.763605],[72.707745,19.587505],[72.754445,19.369705],[72.797745,19.326105],[72.879445,19.323305],[72.963845,19.309205],[73.006645,19.283005],[73.033045,19.251905],[73.047245,19.217205],[73.032445,19.204205],[73.016145,19.205805],[72.991945,19.257205],[72.856345,19.317805],[72.780545,19.312505],[72.766645,19.228005],[72.783345,19.148005],[72.792445,19.147805],[72.806645,19.167805],[72.820845,19.172805],[72.825545,19.053005],[72.805245,18.995505],[72.769945,18.943005],[72.823045,18.912505],[72.932245,19.061105],[72.969745,19.078905],[73.055545,19.011905],[73.054745,18.996105],[72.975545,18.946705],[72.911945,18.917505],[72.944745,18.852205],[72.993045,18.790505],[72.987445,18.727805],[72.973045,18.778905],[72.933045,18.819705],[72.857445,18.795305],[72.850745,18.742305],[72.853845,18.660505],[72.902745,18.518905],[72.888645,18.472205],[72.894145,18.415805],[72.913045,18.375505],[72.967245,18.301705],[72.971345,18.180505],[73.011345,17.990805],[73.109145,17.769705],[73.122245,17.717205],[73.102745,17.689405],[73.114445,17.636705],[73.178545,17.471105],[73.198145,17.368705],[73.274745,17.081905],[73.273645,17.034705],[73.253045,16.998905],[73.269745,16.853305],[73.312445,16.606405],[73.360545,16.512205],[73.338845,16.513305],[73.326145,16.485805],[73.408045,16.234405],[73.447745,16.055805],[73.499445,15.975805],[73.593845,15.892805],[73.649445,15.784205],[73.641945,15.740305],[73.670545,15.721705],[73.697245,15.721905],[73.681945,15.697805],[73.765545,15.487805],[73.791345,15.450505],[73.843845,15.444705],[73.950245,15.400005],[73.963645,15.363605],[73.953645,15.365505],[73.935545,15.392805],[73.912445,15.401105],[73.784445,15.403005],[73.814445,15.370005],[73.848845,15.349305],[73.872345,15.350105],[73.905845,15.301405],[73.951645,15.162505],[73.958345,15.065805],[74.101345,14.867105],[74.088545,14.803605],[74.095545,14.788305],[74.176045,14.741705],[74.227245,14.736705],[74.250845,14.718905],[74.270845,14.682805],[74.300845,14.521705],[74.333645,14.515505],[74.338045,14.555505],[74.358045,14.568305],[74.411945,14.483305],[74.399445,14.452805],[74.386945,14.459405],[74.375245,14.448305],[74.429945,14.279205],[74.450845,14.246105],[74.497745,14.046405],[74.568645,13.933605],[74.619145,13.832505],[74.670245,13.618005],[74.676045,13.510305],[74.810245,12.864705],[74.837745,12.846105],[74.855245,12.755005],[74.881645,12.714405],[74.923645,12.611905],[75.127445,12.208005],[75.192445,12.007805],[75.274445,12.007805],[75.377445,11.860505],[75.528645,11.700305],[75.578845,11.549705],[75.613045,11.471705],[75.651945,11.464405],[75.688845,11.435305],[75.861645,10.980505],[75.924145,10.755505],[76.081345,10.406705],[76.164145,10.187805],[76.182445,10.089405],[76.203045,10.037805],[76.238845,9.983605],[76.227445,10.071905],[76.205545,10.115305],[76.211345,10.132805],[76.243345,10.106905],[76.320245,9.943905],[76.356345,9.914405],[76.384145,9.860305],[76.395845,9.825005],[76.424445,9.594405],[76.498645,9.532205],[76.484945,9.501105],[76.469945,9.495305],[76.392445,9.503605],[76.352245,9.522505],[76.362745,9.596905],[76.382745,9.646705],[76.356945,9.776705],[76.326345,9.769705],[76.286245,9.831005],[76.261145,9.879205],[76.257745,9.906905],[76.283045,9.903305],[76.292245,9.913905],[76.256145,9.961905],[76.242745,9.966105],[76.238345,9.952805],[76.288345,9.679705],[76.307745,9.496905],[76.380245,9.281405],[76.534145,8.965005],[76.561145,8.992205],[76.667445,9.003605],[76.658645,8.965005],[76.600545,8.971905],[76.570845,8.939205],[76.568345,8.906705],[76.575845,8.876905],[76.668345,8.781905],[76.841645,8.552805],[76.998645,8.365305],[77.227745,8.180305],[77.299145,8.133005],[77.456645,8.083905],[77.536145,8.071905],[77.558545,8.089405],[77.561645,8.111705],[77.587245,8.134705],[77.788045,8.196105],[77.996945,8.338305],[78.060545,8.364205],[78.131645,8.486705],[78.142745,8.572205],[78.139945,8.617205],[78.174445,8.861105],[78.192445,8.904205],[78.233845,8.967805],[78.396645,9.089705],[78.856345,9.244405],[78.971145,9.273605],[79.176345,9.262405],[79.294445,9.246705],[79.339445,9.228605],[79.440845,9.148305],[79.451345,9.150005],[79.451645,9.161105],[79.438545,9.175805],[79.331645,9.264205],[79.230945,9.292705],[79.126845,9.291705],[79.080645,9.312705],[79.009145,9.331705],[78.941045,9.409405],[78.916645,9.447205],[78.908045,9.479705],[78.940845,9.593905],[78.981945,9.664205],[79.154145,9.903605],[79.250045,10.017205],[79.261645,10.041705],[79.239445,10.088305],[79.240845,10.181105],[79.267245,10.224705],[79.325045,10.280805],[79.399145,10.319705],[79.763645,10.258305],[79.767445,10.273005],[79.753945,10.288305],[79.738745,10.279805],[79.677445,10.300305],[79.689645,10.308305],[79.745645,10.303805],[79.780845,10.289405],[79.786945,10.267205],[79.832745,10.273005],[79.859745,10.288905],[79.864445,10.390805],[79.840845,10.817805],[79.848045,10.845505],[79.841145,10.943605],[79.852745,10.988305],[79.854145,11.137205],[79.833045,11.339405],[79.782245,11.430505],[79.751345,11.549205],[79.763045,11.648905],[79.786645,11.758305],[79.783845,11.775005],[79.803845,11.795305],[79.804145,11.832805],[79.815245,11.847505],[79.858045,11.973605],[79.867145,12.032805],[79.951645,12.165805],[80.136345,12.428005],[80.160245,12.473005],[80.258845,12.782205],[80.262745,12.949205],[80.281945,13.052805],[80.325845,13.181705],[80.349745,13.335305],[80.333445,13.401805],[80.313845,13.422205],[80.261345,13.465305],[80.231345,13.480005],[80.118845,13.499705],[80.058545,13.587505],[80.049445,13.617805],[80.092445,13.690305],[80.152445,13.718005],[80.250545,13.573605],[80.313045,13.439205],[80.314945,13.459705],[80.268345,13.554705],[80.225845,13.680005],[80.231345,13.736705],[80.250545,13.774205],[80.247445,13.808905],[80.151345,14.035805],[80.126045,14.200305],[80.132245,14.253905],[80.177445,14.358005],[80.194945,14.555805],[80.153345,14.674405],[80.108645,14.760005],[80.048845,15.048905],[80.090845,15.309205],[80.209145,15.530805],[80.235545,15.614205],[80.279445,15.699205],[80.367245,15.774205],[80.554145,15.876905],[80.684745,15.900005],[80.728345,15.896405],[80.778845,15.876405],[80.807445,15.840505],[80.814745,15.771405],[80.825245,15.751905],[80.890245,15.881905],[80.897445,15.911105],[80.876945,16.011705],[80.891945,16.026105],[80.903645,16.008005],[80.912245,15.932205],[80.899745,15.858005],[80.997845,15.779205],[81.017245,15.775505],[81.017545,15.797505],[80.999745,15.823305],[81.001745,15.844405],[81.043645,15.891405],[81.150345,15.970005],[81.163945,16.066105],[81.245845,16.310005],[81.265345,16.332205],[81.313345,16.363305],[81.412245,16.385305],[81.430045,16.368005],[81.653345,16.334405],[81.727245,16.310805],[81.994445,16.407805],[82.198945,16.509205],[82.301745,16.583005],[82.346445,16.704705],[82.369245,16.831905],[82.359745,16.820505],[82.272245,16.862205],[82.251945,16.884405],[82.248645,16.920305],[82.298345,17.026705],[82.364445,17.100805],[82.475245,17.202205],[82.614945,17.291105],[82.777445,17.372205],[82.884145,17.408005],[83.010245,17.487205],[83.159745,17.547805],[83.234145,17.592505],[83.386345,17.766405],[83.582745,18.017505],[83.772445,18.139705],[84.070545,18.263305],[84.106345,18.292205],[84.134145,18.341705],[84.349445,18.568905],[84.494445,18.735305],[84.631645,18.912205],[84.676345,18.941905],[84.780845,19.094205],[84.758845,19.095505],[84.745545,19.075305],[84.735245,19.074705],[84.717745,19.096405],[84.726545,19.124005],[84.762545,19.112205],[84.794445,19.120805],[84.880545,19.228305],[85.181845,19.479205],[85.329845,19.571205],[85.306245,19.576905],[85.289745,19.595205],[85.316645,19.618305],[85.340245,19.591405],[85.384745,19.613905],[85.410245,19.654405],[85.402945,19.675105],[85.386145,19.684405],[85.374545,19.668405],[85.308845,19.641905],[85.284545,19.640405],[85.253945,19.654605],[85.232245,19.600805],[85.191945,19.572405],[85.187845,19.542105],[85.167645,19.511205],[85.153445,19.498805],[85.128445,19.501405],[85.121945,19.513105],[85.122445,19.542105],[85.134545,19.555205],[85.143745,19.603005],[85.170345,19.625005],[85.238845,19.740605],[85.326845,19.792705],[85.353245,19.829205],[85.434845,19.887005],[85.458745,19.903305],[85.534145,19.880705],[85.575045,19.835505],[85.559345,19.801505],[85.560545,19.751305],[85.549245,19.732405],[85.489545,19.722405],[85.422345,19.696005],[85.450545,19.680305],[85.443645,19.666405],[85.451345,19.660305],[85.486945,19.666705],[85.634145,19.727805],[86.158045,19.871405],[86.280245,19.914205],[86.360845,19.960305],[86.347445,19.975805],[86.297245,20.004405],[86.245245,20.023305],[86.196345,20.075005],[86.289645,20.060105],[86.310545,20.030705],[86.374445,19.981105],[86.420245,19.982805],[86.484945,20.142505],[86.486645,20.176405],[86.546145,20.207805],[86.651645,20.243905],[86.710345,20.282605],[86.800545,20.381705],[86.807745,20.406905],[86.804445,20.436105],[86.739145,20.372205],[86.720845,20.372505],[86.726345,20.452205],[86.755845,20.491405],[86.804145,20.536105],[87.025545,20.674805],[86.986945,20.677805],[86.940845,20.696405],[86.891345,20.759405],[86.961945,20.781105],[86.967445,20.795305],[86.898045,20.953905],[86.876645,20.976105],[86.836645,21.099405],[86.828045,21.152505],[86.836945,21.199705],[86.875545,21.274405],[86.963345,21.381905],[87.071645,21.481905],[87.116945,21.511405],[87.215545,21.552805],[87.329145,21.561705],[87.464145,21.609405],[87.673045,21.643905],[87.796345,21.698905],[87.971845,21.839405],[88.082145,22.018005],[88.122445,22.044705],[88.168045,22.091705],[88.174345,22.123005],[88.141945,22.172205],[88.117945,22.182605],[88.014645,22.198905],[87.981945,22.223005],[87.947445,22.269705],[87.907745,22.421705],[87.927745,22.422805],[87.939345,22.412805],[87.965745,22.297505],[88.007445,22.235305],[88.033545,22.218905],[88.145845,22.193605],[88.186845,22.172205],[88.199345,22.155305],[88.218545,22.070805],[88.208545,22.047205],[88.149445,21.979705],[88.142145,21.948905],[88.154945,21.874705],[88.205845,21.801405],[88.204645,21.713905],[88.179645,21.682505],[88.181345,21.663605],[88.199345,21.611705],[88.254145,21.548605],[88.306945,21.565505],[88.303245,21.613205],[88.308545,21.603005],[88.399645,21.583305],[88.453845,21.615005],[88.474445,21.672505],[88.471845,21.891405],[88.496045,21.950305],[88.510545,21.936905],[88.531945,21.831705],[88.518045,21.595305],[88.494445,21.585005],[88.483245,21.550805],[88.498045,21.520505],[88.511945,21.521905],[88.538245,21.525805],[88.572145,21.560005],[88.602745,21.611905],[88.627145,21.714205],[88.628545,21.749205],[88.623545,21.766905],[88.608545,21.780505],[88.574145,21.764405],[88.562445,21.766405],[88.556945,21.813305],[88.571645,21.874705],[88.591645,21.897205],[88.603545,21.936905],[88.596545,21.988405],[88.625545,22.036905],[88.613845,22.100805],[88.661045,22.200505],[88.667745,22.202205],[88.682145,22.195805],[88.682745,22.173905],[88.654945,22.145005],[88.637745,22.096705],[88.658745,22.017005],[88.623045,21.968005],[88.630545,21.945005],[88.677745,21.931105],[88.688245,21.934705],[88.727445,22.015805],[88.713045,22.061905],[88.752545,22.043705],[88.765545,22.005205],[88.723945,21.963505],[88.696645,21.843005],[88.682145,21.696105],[88.707145,21.566405],[88.738845,21.549705],[88.784345,21.556905],[88.855545,21.632805],[88.920745,21.633905],[89.007445,21.600005],[89.063545,21.609405],[89.088845,21.628005],[89.086345,21.662205],[89.005545,21.903605],[89.048545,21.922205],[89.064145,21.941705],[89.063245,22.014205],[89.037745,22.079405],[89.042145,22.132805],[89.053245,22.133605],[89.064145,22.115405],[89.096345,22.148605],[89.071445,22.194505],[89.014945,22.261705],[88.993245,22.324405],[88.933245,22.865805],[88.862745,22.966705],[88.870245,23.087805],[88.983545,23.191905],[88.986045,23.208305],[88.841645,23.244205],[88.822445,23.242805],[88.810745,23.226405],[88.798045,23.225305],[88.721045,23.251705],[88.710245,23.279405],[88.711345,23.308605],[88.739145,23.350305],[88.786345,23.450805],[88.793245,23.494205],[88.781345,23.503605],[88.763545,23.473305],[88.749345,23.466905],[88.586945,23.602205],[88.563845,23.652205],[88.576845,23.766505],[88.602845,23.862405],[88.613945,23.873005],[88.687245,23.892505],[88.736645,23.919805],[88.759145,24.036005],[88.701345,24.079205],[88.707345,24.121705],[88.699645,24.147205],[88.716945,24.183905],[88.746345,24.188805],[88.750545,24.221005],[88.721645,24.280505],[88.697445,24.309605],[88.674145,24.320305],[88.652145,24.294205],[88.497745,24.320805],[88.365545,24.411905],[88.284345,24.450805],[88.125545,24.508605],[88.111045,24.523905],[88.043245,24.684205],[88.136645,24.820005],[88.171045,24.851705],[88.163845,24.887505],[88.137745,24.913005],[88.137745,24.921405],[88.217445,24.955305],[88.259945,24.920805],[88.276945,24.888005],[88.305545,24.874205],[88.342445,24.870305],[88.396045,24.937505],[88.459945,25.069405],[88.461345,25.141105],[88.450745,25.187805],[88.486345,25.200505],[88.704945,25.195305],[88.940745,25.165505],[89.006345,25.278005],[89.008845,25.300805],[88.995745,25.309405],[88.933545,25.306905],[88.869945,25.335805],[88.821645,25.401705],[88.839645,25.430805],[88.834445,25.479205],[88.799645,25.510505],[88.766645,25.517805],[88.711945,25.485005],[88.556645,25.504705],[88.450545,25.593905],[88.446945,25.666105],[88.267445,25.810805],[88.250545,25.814705],[88.165745,25.779405],[88.147445,25.781705],[88.110545,25.835505],[88.095545,25.915305],[88.157745,26.097505],[88.184345,26.152505],[88.355245,26.223305],[88.353545,26.280005],[88.396345,26.325305],[88.473545,26.357205],[88.525545,26.359705],[88.514445,26.406405],[88.494245,26.452305],[88.483245,26.461105],[88.371045,26.489205],[88.362745,26.457805],[88.353545,26.451705],[88.337745,26.473905],[88.334945,26.485805],[88.374945,26.580505],[88.409145,26.631905],[88.419945,26.620305],[88.421645,26.570505],[88.433045,26.551405],[88.572745,26.465305],[88.606945,26.470805],[88.680745,26.420305],[88.694145,26.391905],[88.703945,26.333305],[88.735745,26.293505],[88.857145,26.240105],[89.020445,26.235205],[89.046645,26.267405],[89.041345,26.281805],[88.962045,26.343505],[88.914545,26.360705],[88.907445,26.375105],[88.912645,26.400705],[88.938745,26.445805],[89.074245,26.383005],[89.120745,26.178405],[89.140245,26.148105],[89.319845,26.024805],[89.342745,26.017005],[89.504345,26.005605],[89.548145,26.015605],[89.602345,26.069005],[89.595245,26.099305],[89.566945,26.137505],[89.559845,26.161505],[89.601645,26.227505],[89.638545,26.227805],[89.649245,26.189505],[89.734845,26.291105],[89.794445,26.325205],[89.803145,26.338105],[89.821945,26.445605],[89.808845,26.642405],[89.821045,26.665005],[89.812145,26.692105],[89.793145,26.706705],[89.762445,26.703005],[89.631645,26.718005],[89.618245,26.726905],[89.643845,26.752505],[89.636045,26.771105],[89.533545,26.812205],[89.468245,26.799405],[89.360745,26.860005],[89.302445,26.852205],[89.274445,26.828005],[89.220845,26.814705],[89.149445,26.818905],[89.103245,26.833505],[88.895145,26.813105],[88.192345,26.777105],[88.192745,26.731405],[88.174645,26.670505],[88.101945,26.530305],[88.108645,26.485005],[88.095845,26.438905],[88.014745,26.364705],[87.949445,26.400505],[87.890545,26.473305],[87.791345,26.458905],[87.691345,26.428305],[87.643045,26.392505],[87.553545,26.405805],[87.476945,26.435505],[87.408045,26.421705],[87.366645,26.399705],[87.269745,26.375305],[87.169945,26.400005],[87.084445,26.486405],[87.004445,26.534405],[86.965145,26.525805],[86.948045,26.530905],[86.902245,26.502505],[86.891945,26.472105],[86.820945,26.436705],[86.731645,26.420005],[86.334145,26.607805],[86.206645,26.585505],[86.183845,26.608005],[86.140845,26.602505],[86.107245,26.617205],[86.072245,26.649705],[86.036345,26.663305],[85.962445,26.647205],[85.943545,26.617205],[85.868045,26.574405],[85.850245,26.572205],[85.752245,26.643305],[85.730545,26.667205],[85.724945,26.705005],[85.731945,26.778005],[85.726045,26.801705],[85.630245,26.867505],[85.334445,26.735805],[85.211645,26.766905],[85.184445,26.801105],[84.967745,26.935805],[84.854945,26.995505],[84.802245,27.015305],[84.750245,27.007505],[84.647445,27.045305],[84.645245,27.061905],[84.681045,27.140805],[84.684145,27.215505],[84.651945,27.294205],[84.609945,27.335505],[84.335545,27.376705],[84.297745,27.388305],[84.147245,27.511405],[84.059145,27.463005],[84.040245,27.444705],[83.922445,27.451805],[83.871345,27.440305],[83.872245,27.385305],[83.858345,27.352205],[83.607745,27.469205],[83.418345,27.472805],[83.376645,27.375305],[83.347245,27.345505],[83.316045,27.335505],[83.271145,27.346105],[83.255845,27.386405],[83.176345,27.448905],[83.037445,27.448005],[82.768645,27.501705],[82.744445,27.551105],[82.746645,27.584705],[82.720845,27.683605],[82.701145,27.711105],[82.478845,27.672805],[82.434745,27.675505],[82.148845,27.864205],[82.066445,27.914105],[82.043345,27.918605],[81.977745,27.917205],[81.956345,27.905805],[81.910545,27.855305],[81.880245,27.857205],[81.780545,27.910505],[81.726945,27.955805],[81.480245,28.080005],[81.470845,28.100305],[81.374445,28.166105],[81.298045,28.163905],[81.222445,28.324705],[81.193545,28.366705],[81.031345,28.403005],[80.938545,28.441105],[80.704745,28.578605],[80.541345,28.685305],[80.508345,28.662505],[80.510845,28.621105],[80.472245,28.590005],[80.387545,28.625005],[80.246045,28.750805],[80.068345,28.824805],[79.982345,28.747805],[79.908845,28.794605],[79.882145,28.868105],[79.768545,28.894805],[79.674945,28.868105],[79.554645,28.868105],[79.441045,28.908205],[79.400945,28.988305],[79.327445,28.961605],[79.147045,29.075205],[79.180445,29.135405],[79.133645,29.162105],[78.926545,29.135405],[78.899745,29.222205],[78.832945,29.242305],[78.712645,29.295705],[78.739345,29.329205],[78.832945,29.342505],[78.906445,29.369305],[78.953245,29.416005],[78.939845,29.442805],[78.846345,29.449405],[78.705945,29.502905],[78.558945,29.583105],[78.532245,29.670005],[78.492145,29.710105],[78.358445,29.743505],[78.278245,29.877105],[78.218145,29.957305],[78.111245,29.997405],[78.051045,30.057605],[77.970845,30.218005],[77.857245,30.264705],[77.743645,30.324905],[77.596645,30.358305],[77.584245,30.355505],[77.583845,30.382205],[77.488345,30.399905],[77.402345,30.405405],[77.284245,30.441705],[77.138145,30.525805],[77.122145,30.548105],[77.170245,30.593905],[77.166345,30.663805],[77.106345,30.710105],[77.002245,30.746405],[76.948245,30.806305],[76.896245,30.879805],[76.824245,30.886905],[76.631445,31.004505],[76.618245,31.035205],[76.623945,31.124105],[76.642745,31.185805],[76.560245,31.257905],[76.504045,31.279305],[76.462845,31.308005],[76.427845,31.371205],[76.348145,31.368905],[76.305545,31.308805],[76.219345,31.301005],[76.197745,31.306305],[76.173345,31.389605],[76.173045,31.429505],[76.059345,31.621005],[76.009145,31.689505],[75.960845,31.790805],[75.954245,31.808905],[75.964945,31.821605],[75.999345,31.820005],[75.999245,31.834505],[75.962145,31.894105],[75.940245,31.926605],[75.890345,31.968005],[75.788545,32.030805],[75.695545,32.070105],[75.651245,32.205805],[75.676745,32.251305],[75.753345,32.282505]],[[88.293245,21.674705],[88.257445,21.779205],[88.261945,21.800005],[88.297145,21.772805],[88.307745,21.694205],[88.302145,21.620205],[88.293245,21.674705]]]]}}
