{"type":"Feature","properties":{"mrgid":47670,"name":"Kamchatka","placeType":"TDWG Terrestrial - level 3","source":"TDWG:level3"},"geometry":{"type":"MultiPolygon","coordinates":[[[[167.733574,54.756907],[167.564974,54.818907],[167.564974,54.832807],[167.528874,54.851107],[167.456674,54.866407],[167.432974,54.863107],[167.431374,54.835007],[167.441674,54.818607],[167.546374,54.759207],[167.736374,54.660507],[167.823274,54.645507],[167.897174,54.612507],[168.064174,54.505007],[168.083874,54.498907],[168.116874,54.507807],[167.733574,54.756907]]],[[[165.931374,55.361407],[165.831874,55.303307],[165.837974,55.264407],[165.902174,55.250807],[165.988874,55.215307],[166.081674,55.108907],[166.084374,55.087207],[166.070574,55.062507],[166.175774,54.968307],[166.357474,54.829207],[166.481374,54.793307],[166.573274,54.721107],[166.663074,54.674207],[166.668574,54.740307],[166.645774,54.843007],[166.584174,54.891907],[166.453574,54.954407],[166.388274,55.002507],[166.250774,55.143007],[166.222474,55.246907],[166.234674,55.265307],[166.253574,55.275007],[166.264674,55.308307],[166.246274,55.329607],[166.173574,55.318307],[165.931374,55.361407]]],[[[164.656874,59.084407],[164.576074,59.231707],[164.553074,59.237207],[164.439374,59.205507],[164.356074,59.158607],[164.231374,59.105507],[164.030774,59.050507],[163.953874,59.035307],[163.774674,59.027207],[163.699374,59.014407],[163.664174,58.993007],[163.697774,59.007807],[163.757774,59.017807],[163.818274,59.008607],[163.841874,58.995007],[163.833574,58.967207],[163.749674,58.892807],[163.740474,58.818907],[163.691974,58.745007],[163.573074,58.635807],[163.494374,58.587807],[163.385574,58.559407],[163.429174,58.482507],[163.457174,58.465307],[163.466074,58.470507],[163.478874,58.502807],[163.514474,58.537507],[163.578874,58.579707],[163.923574,58.714707],[163.978874,58.746107],[164.105274,58.796407],[164.184374,58.823307],[164.469374,58.866707],[164.591874,58.870307],[164.651374,58.882807],[164.679974,58.905007],[164.704174,59.024707],[164.656874,59.084407]]],[[[164.167774,64.940006],[164.105574,64.905306],[164.017174,64.871407],[163.853274,64.862506],[163.651074,64.896607],[163.588574,64.933907],[163.504974,64.934406],[163.494074,64.932706],[163.479674,64.910006],[163.353874,64.817506],[163.250274,64.809107],[163.204974,64.826106],[163.108274,64.795807],[163.101374,64.784407],[163.104974,64.774706],[163.166374,64.765807],[163.264474,64.715507],[163.231074,64.668907],[163.155574,64.632507],[163.168874,64.550806],[163.232474,64.503907],[163.346874,64.487506],[163.466074,64.386906],[163.445774,64.373606],[163.342474,64.354406],[163.254474,64.322206],[163.192774,64.250507],[163.187174,64.208307],[163.150774,64.180807],[163.102474,64.193006],[163.013074,64.200507],[162.919974,64.198007],[162.870474,64.186106],[162.778574,64.138606],[162.836074,64.070307],[162.904374,64.008607],[162.930574,63.940307],[162.732474,63.841907],[162.715474,63.825807],[162.714974,63.815307],[162.752474,63.738007],[162.866374,63.656907],[162.956374,63.638607],[162.978074,63.626407],[162.970474,63.500507],[162.877774,63.432507],[162.705774,63.393907],[162.702174,63.358907],[162.804974,63.250507],[162.694974,63.185507],[162.538274,63.127207],[162.377974,63.120807],[162.294174,63.075507],[162.268874,62.935007],[162.270274,62.919407],[162.295574,62.908307],[162.549674,62.845807],[162.604974,62.808307],[162.608274,62.793307],[162.596074,62.765007],[162.603574,62.755807],[162.679674,62.706407],[162.711374,62.703607],[162.790274,62.719407],[162.823074,62.712507],[162.825274,62.686907],[162.812474,62.669407],[162.715474,62.607207],[162.691674,62.578307],[162.700274,62.559207],[162.732174,62.538607],[162.776674,62.494107],[162.756974,62.325007],[162.721874,62.284707],[162.674374,62.263307],[162.569074,62.255307],[162.484674,62.263607],[162.443274,62.259407],[162.164174,62.193907],[162.159374,62.177507],[162.273274,62.124707],[162.374974,62.122807],[162.511974,62.104207],[162.538274,62.093307],[162.540574,62.021107],[162.506974,61.971707],[162.470274,61.961907],[162.355774,61.966707],[162.329674,61.958007],[162.303274,61.935507],[162.470774,61.825007],[162.464174,61.708607],[162.503674,61.666507],[162.572474,61.651907],[162.659374,61.611407],[162.750774,61.598607],[162.763274,61.616907],[162.747774,61.631707],[162.706374,61.633907],[162.671674,61.646107],[162.641074,61.664407],[162.634174,61.679207],[162.659674,61.695507],[162.803274,61.720807],[162.844674,61.718607],[162.929674,61.673307],[162.943274,61.577207],[163.005574,61.518307],[163.088574,61.551707],[163.089374,61.565007],[163.064374,61.595007],[163.094374,61.617507],[163.133874,61.628907],[163.214974,61.629707],[163.288074,61.664407],[163.310474,61.688307],[163.307174,61.716107],[163.241674,61.745507],[162.991074,61.778007],[162.957974,61.792807],[162.950274,61.806407],[163.029174,61.935507],[163.138274,62.045307],[163.107574,62.146707],[163.077474,62.205807],[163.119974,62.278007],[163.131374,62.290007],[163.239374,62.336407],[163.335274,62.347507],[163.352174,62.358307],[163.341674,62.380507],[163.317774,62.388307],[163.234174,62.394407],[163.164474,62.444707],[163.224374,62.523907],[163.263574,62.545007],[163.586874,62.587507],[163.944474,62.647507],[164.115274,62.661407],[164.359374,62.712207],[164.581874,62.691107],[164.649674,62.640307],[164.701374,62.583907],[164.763574,62.568007],[165.034174,62.512807],[165.337474,62.499407],[165.566974,62.469707],[165.642474,62.452807],[165.640274,62.446107],[165.623574,62.436607],[165.512174,62.446107],[165.342974,62.478607],[165.178874,62.477507],[165.087774,62.460007],[165.120474,62.433607],[165.239974,62.396907],[165.329974,62.315807],[165.291074,62.315507],[165.266974,62.322207],[165.263574,62.336607],[165.227174,62.377207],[165.097774,62.419707],[164.921374,62.421907],[164.790274,62.443907],[164.708574,62.472507],[164.606374,62.474207],[164.526874,62.455807],[164.396974,62.374407],[164.321874,62.345507],[164.238874,62.333007],[164.127774,62.282807],[164.096874,62.253607],[164.064174,62.101107],[164.073274,61.951707],[164.070574,61.780307],[164.041374,61.716707],[164.011374,61.687507],[163.992174,61.676907],[163.878874,61.655807],[163.851074,61.639207],[163.749074,61.457507],[163.753874,61.436407],[163.782774,61.420507],[163.845474,61.448607],[163.939674,61.440007],[163.961674,61.430807],[164.021674,61.363307],[164.019474,61.336407],[163.854174,61.213007],[163.636374,61.146407],[163.509974,61.046907],[163.508874,61.004707],[163.729174,60.936607],[163.658374,60.871907],[163.592774,60.878607],[163.561674,60.874207],[163.406674,60.836907],[163.362774,60.810007],[163.199174,60.822207],[163.138574,60.799407],[163.110274,60.778007],[163.014474,60.785307],[162.878574,60.766407],[162.761074,60.648907],[162.629674,60.609707],[162.459674,60.591907],[162.367174,60.547807],[162.146674,60.492807],[161.914474,60.422807],[161.875274,60.317507],[161.913874,60.330507],[161.929674,60.281907],[161.925274,60.248607],[161.837474,60.187507],[161.718874,60.124407],[161.506674,60.067507],[161.472974,60.052207],[161.341674,59.941407],[161.244374,59.847507],[160.860774,59.622507],[160.812474,59.603907],[160.524374,59.558907],[160.484174,59.544407],[160.464974,59.520307],[160.444074,59.455807],[160.351574,59.368007],[160.307174,59.340807],[160.157774,59.286907],[159.917774,59.173307],[159.789974,59.083907],[159.730574,59.012807],[159.728574,58.999407],[159.754674,58.958607],[159.756674,58.938007],[159.702174,58.851407],[159.496074,58.713907],[159.153574,58.514707],[159.129074,58.477807],[159.056874,58.427207],[158.764174,58.300007],[158.664974,58.270807],[158.283874,58.061107],[158.233274,58.019407],[158.040774,57.987807],[157.922774,57.979407],[157.859974,57.979707],[157.643574,58.004407],[157.529374,57.845307],[157.481074,57.811407],[157.434174,57.790507],[157.286374,57.769707],[157.174374,57.771907],[157.048874,57.800307],[156.984974,57.853607],[156.786974,57.763607],[156.748874,57.728307],[156.845474,57.725507],[156.935474,57.640507],[156.980574,57.527807],[156.987474,57.453307],[156.977774,57.414407],[156.777474,57.185307],[156.651074,57.074207],[156.547174,57.107507],[156.528874,57.076107],[156.517174,57.030807],[156.476374,56.974707],[156.454374,56.957207],[156.201674,56.850007],[156.063274,56.714707],[156.059674,56.735307],[156.074674,56.760007],[156.098874,56.783907],[156.161074,56.822807],[156.171374,56.841707],[156.152174,56.842507],[156.117174,56.823107],[156.000574,56.727807],[155.941674,56.653607],[155.942174,56.606907],[155.844974,56.391107],[155.764974,56.173607],[155.691374,56.053007],[155.646074,55.911907],[155.644974,55.791907],[155.578874,55.506107],[155.544174,55.303607],[155.598874,54.930007],[155.699374,54.512507],[155.794174,54.213007],[155.842174,54.140007],[155.862174,54.084207],[155.930774,53.837507],[155.955774,53.678607],[156.076674,53.132507],[156.103274,52.849207],[156.183274,52.684707],[156.260774,52.567207],[156.364974,52.516707],[156.412774,52.527507],[156.441074,52.520807],[156.441974,52.493907],[156.389474,52.447807],[156.375274,52.449807],[156.377174,52.473607],[156.365474,52.495307],[156.289674,52.527207],[156.277474,52.523607],[156.353274,52.386107],[156.428574,52.201907],[156.491874,51.931707],[156.499674,51.783607],[156.486674,51.591907],[156.472774,51.513607],[156.518074,51.322807],[156.534974,51.286907],[156.551374,51.273907],[156.597474,51.253907],[156.629974,51.255807],[156.673574,51.229407],[156.706374,51.191407],[156.746074,51.074407],[156.745474,50.987807],[156.721874,50.957807],[156.650274,50.901707],[156.647174,50.881907],[156.692974,50.891407],[157.096874,51.158607],[157.171074,51.197307],[157.210474,51.204407],[157.256674,51.229707],[157.367774,51.340007],[157.536974,51.486907],[157.682774,51.550307],[157.773874,51.562807],[157.912174,51.643307],[158.275774,51.936607],[158.288874,51.968007],[158.283874,52.029407],[158.315274,52.125307],[158.424674,52.265307],[158.496874,52.264407],[158.522174,52.272507],[158.554674,52.307807],[158.556374,52.399207],[158.522174,52.561907],[158.436074,52.598607],[158.419174,52.652207],[158.519174,52.619707],[158.552774,52.625307],[158.602774,52.695307],[158.595774,52.709707],[158.562474,52.735307],[158.561074,52.789407],[158.632674,52.846707],[158.644674,52.894707],[158.627174,52.931107],[158.511374,52.942807],[158.480574,52.938007],[158.528074,52.909207],[158.525574,52.902807],[158.446074,52.902507],[158.425574,52.932507],[158.413274,52.997807],[158.430574,53.021907],[158.531674,53.069407],[158.603274,53.054207],[158.650274,53.007507],[158.660274,52.979107],[158.658374,52.959207],[158.694474,52.903607],[158.721374,52.888607],[158.742974,52.897207],[158.883874,53.009407],[159.025774,53.086407],[159.116674,53.118907],[159.255874,53.153007],[159.384474,53.153607],[159.458874,53.222207],[159.614674,53.259407],[159.647474,53.256707],[159.753074,53.219107],[160.055274,53.093607],[160.058274,53.137807],[160.016674,53.269407],[159.971874,53.266407],[159.791674,53.514707],[159.822474,53.531107],[159.918574,53.472507],[159.939674,53.468907],[159.950774,53.477807],[159.961374,53.509707],[159.964974,53.570307],[159.923074,53.645007],[159.896074,53.675307],[159.873274,53.665507],[159.904174,53.600807],[159.817474,53.658607],[159.853874,53.846107],[159.896674,53.974407],[159.988274,54.121707],[160.005874,54.139207],[160.138074,54.225507],[160.197474,54.233007],[160.257174,54.255507],[160.354374,54.320507],[160.388074,54.355507],[160.579374,54.458907],[160.732474,54.530507],[160.964374,54.576407],[161.113874,54.590507],[161.159974,54.589207],[161.199974,54.575307],[161.214674,54.563307],[161.218874,54.535307],[161.235474,54.513307],[161.306374,54.491407],[161.353074,54.491107],[161.494074,54.513907],[161.622974,54.520007],[161.685474,54.504707],[161.732774,54.505807],[161.766974,54.525507],[161.811074,54.585807],[161.886074,54.620007],[161.992974,54.682507],[162.112174,54.761907],[162.154674,54.856907],[161.966074,55.029207],[161.877774,55.064107],[161.812974,55.144707],[161.785474,55.190507],[161.719074,55.359207],[161.712474,55.496907],[161.749074,55.627507],[161.812774,55.711907],[161.916674,55.816407],[162.020274,55.962207],[162.049374,56.018607],[162.031374,56.055807],[162.036974,56.061707],[162.094074,56.106407],[162.218274,56.158907],[162.437774,56.205307],[162.572174,56.267207],[162.553274,56.298007],[162.472774,56.350807],[162.400774,56.378007],[162.387774,56.394207],[162.393574,56.400007],[162.602774,56.452807],[162.628574,56.475507],[162.692474,56.491707],[162.761974,56.483307],[162.829974,56.449707],[162.892774,56.430007],[162.918874,56.444407],[162.929174,56.470007],[162.925774,56.498007],[162.936874,56.516707],[162.971074,56.544707],[163.089174,56.534207],[163.095174,56.519407],[163.069974,56.473007],[162.718274,56.327207],[162.627474,56.243607],[162.645274,56.191907],[162.746374,56.103607],[162.868874,56.040007],[163.027474,56.017807],[163.039974,56.018007],[163.090774,56.062207],[163.107474,56.086607],[163.354674,56.198607],[163.340774,56.331707],[163.317174,56.391107],[163.262474,56.485007],[163.214674,56.620307],[163.221374,56.653907],[163.252174,56.696407],[163.213874,56.740507],[163.066674,56.745507],[163.007474,56.738307],[162.907774,56.705507],[162.846574,56.737207],[162.791374,56.791107],[162.781874,56.888607],[162.811674,56.993007],[162.828074,57.024407],[162.827774,57.045007],[162.808874,57.110007],[162.751674,57.216107],[162.749974,57.278607],[162.765874,57.350707],[162.736874,57.357807],[162.882674,57.436607],[162.954974,57.467807],[162.994074,57.469107],[163.047474,57.485507],[163.078874,57.507507],[163.283874,57.742507],[163.213574,57.836107],[163.205274,57.843007],[163.167174,57.844107],[163.101574,57.833907],[162.995774,57.850007],[162.875274,57.905307],[162.704974,57.963607],[162.571074,57.951107],[162.543274,57.943607],[162.503374,57.916407],[162.465474,57.875007],[162.467974,57.785507],[162.482474,57.762507],[162.385274,57.690507],[162.346074,57.684707],[162.336074,57.689107],[162.341674,57.715507],[162.316674,57.797807],[162.246074,57.808607],[162.106374,57.853907],[162.008574,57.940007],[161.941674,58.039707],[161.938874,58.074407],[162.140274,58.450307],[162.398574,58.673907],[162.514974,58.743307],[162.761074,58.833007],[162.788574,58.855807],[162.784374,58.870007],[162.725774,58.852807],[162.760274,58.890507],[162.864174,58.929207],[162.979974,58.957207],[163.008574,58.973007],[163.044774,59.010307],[163.045774,59.026907],[163.003574,59.023007],[162.876374,59.128007],[163.020574,59.159207],[163.173574,59.082507],[163.176074,59.061407],[163.144974,59.046107],[163.146374,59.032207],[163.172774,59.036107],[163.193574,59.053607],[163.200774,59.073007],[163.188574,59.136707],[163.117174,59.187207],[163.077174,59.187207],[163.060274,59.198307],[163.061074,59.240507],[163.085774,59.270507],[163.174974,59.296407],[163.257774,59.296107],[163.256074,59.265007],[163.229674,59.248907],[163.228874,59.235307],[163.256074,59.236107],[163.287474,59.251407],[163.301874,59.269407],[163.329674,59.381107],[163.324674,59.402507],[163.296674,59.433307],[163.219074,59.479407],[163.164174,59.500307],[163.173074,59.559207],[163.183574,59.570807],[163.259674,59.584207],[163.296974,59.579207],[163.327774,59.584707],[163.385574,59.623007],[163.393574,59.635307],[163.368874,59.687507],[163.356074,59.737507],[163.360274,59.823907],[163.504674,59.898607],[163.561874,59.902507],[163.676374,59.890007],[163.699374,59.895507],[163.753874,59.979407],[163.714974,59.966907],[163.676674,59.970807],[163.619674,60.020307],[163.626574,60.040307],[163.648874,60.048907],[163.732774,60.051107],[164.050274,60.029207],[164.110874,59.966207],[164.078374,59.943007],[164.046674,59.932907],[164.038874,59.898007],[164.044974,59.883007],[164.056874,59.868607],[164.155574,59.852807],[164.150274,59.868907],[164.139674,59.873607],[164.144274,59.901607],[164.129474,59.915807],[164.138274,59.930807],[164.218574,59.975307],[164.353074,60.021707],[164.320274,60.049407],[164.312774,60.078307],[164.321374,60.090507],[164.442474,60.113307],[164.468574,60.111407],[164.536974,60.088907],[164.701674,59.975507],[164.734674,59.940807],[164.781674,59.856407],[164.774374,59.823307],[164.809374,59.783907],[164.832174,59.781107],[165.003874,59.841107],[165.182474,59.981107],[165.182474,60.007207],[165.133074,60.080007],[165.111074,60.088007],[165.068274,60.086107],[165.043274,60.063007],[165.031074,60.065307],[165.001374,60.081707],[164.997174,60.129407],[165.154974,60.121407],[165.183874,60.092807],[165.196074,60.090507],[165.243274,60.098307],[165.497774,60.211407],[165.527774,60.214207],[165.765774,60.286407],[165.929674,60.380507],[166.001074,60.433907],[166.222974,60.480807],[166.348574,60.486407],[166.381074,60.470507],[166.341874,60.405507],[166.315474,60.389707],[166.247774,60.383907],[166.259174,60.256707],[166.173274,60.123007],[166.101574,59.913907],[166.097474,59.831407],[166.137774,59.815307],[166.279374,59.838007],[166.343274,59.867507],[166.805774,60.189107],[167.050274,60.323907],[167.178074,60.353307],[167.270274,60.363007],[167.454674,60.422807],[167.623574,60.449207],[168.074974,60.561407],[168.188874,60.581707],[168.328874,60.595307],[168.472174,60.595307],[168.580574,60.571407],[168.717774,60.561107],[169.146674,60.560007],[169.206074,60.588307],[169.202774,60.617207],[169.210274,60.622807],[169.289474,60.614407],[169.341674,60.591907],[169.370474,60.566107],[169.318274,60.555807],[169.327474,60.531907],[169.699374,60.410807],[169.712774,60.374207],[169.710274,60.339207],[169.744074,60.280507],[169.935274,60.065507],[170.076374,60.032507],[170.115474,60.012507],[170.094974,59.988007],[170.105274,59.974207],[170.214674,59.918607],[170.248874,59.909407],[170.369974,59.946107],[170.397774,59.961107],[170.429674,60.032807],[170.468574,60.223607],[170.501674,60.266107],[170.524674,60.282207],[170.616874,60.301107],[170.657774,60.320507],[170.659974,60.349207],[170.617774,60.394407],[170.641974,60.417507],[170.686674,60.418907],[170.782474,60.441407],[170.856874,60.505807],[171.162174,60.551107],[171.357774,60.625007],[171.371374,60.636407],[171.407474,60.713907],[171.593874,60.731107],[171.632474,60.743607],[171.614374,60.773607],[171.609674,60.801907],[171.768874,60.840307],[171.857474,60.825507],[171.947174,60.845007],[171.958574,60.856707],[171.936374,60.876107],[171.935774,60.896407],[171.953074,60.949707],[171.976874,60.947207],[172.006674,60.917207],[171.988874,60.878307],[172.018574,60.842507],[172.068274,60.881107],[172.110774,60.936107],[172.192774,60.946907],[172.200574,60.966707],[172.166674,61.025007],[172.125474,61.034707],[172.009974,61.097507],[172.198274,61.041907],[172.219074,61.021407],[172.241074,61.013307],[172.281674,61.009407],[172.371374,61.010007],[172.478074,61.056907],[172.485774,61.076707],[172.481074,61.080507],[172.372774,61.100307],[172.359174,61.122207],[172.338874,61.209207],[172.349374,61.228307],[172.375774,61.227807],[172.538274,61.186107],[172.628274,61.186407],[172.653274,61.193307],[172.774374,61.266407],[172.748874,61.294207],[172.662774,61.327507],[172.667474,61.332207],[172.754674,61.314407],[172.850274,61.275807],[172.897174,61.280507],[172.956074,61.302807],[172.935274,61.343907],[172.898874,61.366907],[172.737774,61.415007],[172.710774,61.430007],[172.874974,61.472207],[172.954974,61.447507],[172.986674,61.419707],[173.062974,61.391407],[173.105274,61.388307],[173.160774,61.404207],[173.280574,61.455007],[173.298874,61.472207],[173.306874,61.492807],[173.291074,61.518307],[173.342174,61.549407],[173.489174,61.556107],[173.496574,61.568907],[173.488574,61.606907],[173.496374,61.657507],[173.531374,61.736107],[173.559374,61.750807],[173.617974,61.748307],[173.809674,61.684707],[173.811874,61.669707],[173.874074,61.676407],[174.006974,61.722507],[174.048574,61.774707],[174.020774,61.791707],[174.006974,61.812507],[174.069974,61.839407],[174.119074,61.841907],[174.166374,61.828907],[174.398574,61.818607],[174.453474,61.806107],[174.442774,61.853907],[174.467774,61.860007],[174.462174,61.901907],[174.415274,62.013007],[174.342174,62.079407],[174.206674,62.064707],[174.139174,62.075807],[174.009974,62.274207],[174.035274,62.320007],[174.052174,62.330307],[174.084674,62.329207],[174.095274,62.340007],[174.095474,62.390007],[174.081874,62.447207],[174.065774,62.455807],[174.022474,62.456907],[173.965274,62.440307],[173.908874,62.447207],[173.863274,62.458907],[173.801074,62.488607],[173.770274,62.521407],[173.678274,62.538307],[173.454674,62.506907],[173.207174,62.434207],[173.184674,62.397507],[173.174374,62.393907],[173.006374,62.372207],[172.878874,62.341407],[172.619374,62.402207],[172.481074,62.444707],[172.287474,62.401107],[172.267474,62.407207],[172.210474,62.451107],[172.041374,62.467807],[171.981074,62.458607],[171.856874,62.414707],[171.541074,62.337807],[171.489374,62.309707],[171.293274,62.328607],[171.253874,62.353907],[171.053274,62.348607],[170.900274,62.280307],[170.852174,62.244107],[170.732174,62.285507],[170.391374,62.319707],[170.305274,62.277507],[170.270774,62.281407],[170.155574,62.339207],[170.061074,62.431707],[169.978274,62.542807],[170.092774,62.659207],[170.008074,62.678307],[169.955574,62.656607],[169.842974,62.654407],[169.637774,62.716407],[169.591074,62.746407],[169.592774,62.766707],[169.583074,62.775507],[169.509674,62.817207],[169.385574,62.874207],[169.144474,62.959707],[169.009474,62.959407],[168.920574,62.941407],[168.538874,63.043607],[168.444474,63.082807],[168.553274,63.130507],[168.899174,63.336907],[169.065274,63.420807],[169.113874,63.450307],[169.145774,63.483307],[169.204974,63.516407],[169.273274,63.536107],[169.343574,63.533607],[169.460774,63.564407],[169.598274,63.651107],[169.544674,63.820507],[169.353274,63.951407],[169.111874,63.952207],[169.004974,63.975307],[168.861374,64.023006],[168.781374,64.174707],[168.615474,64.214707],[168.524974,64.305507],[168.472974,64.324406],[168.237774,64.350506],[168.188874,64.334107],[168.132674,64.285006],[168.089174,64.296106],[168.026374,64.285307],[167.706874,64.340307],[167.615774,64.389707],[167.599974,64.423007],[167.506374,64.482507],[167.353274,64.529707],[167.245474,64.626107],[167.157174,64.623907],[167.097474,64.601107],[167.063274,64.570807],[167.006974,64.550307],[166.825774,64.538906],[166.598874,64.552807],[166.391974,64.605206],[166.189174,64.615506],[166.167474,64.612506],[166.135274,64.585807],[166.057174,64.561407],[165.864174,64.550507],[165.839974,64.560306],[165.809174,64.587206],[165.827274,64.604907],[165.834974,64.631407],[165.747174,64.721107],[165.669974,64.762507],[165.501074,64.758607],[165.483574,64.741107],[165.432474,64.745007],[165.334374,64.770506],[165.319074,64.783607],[165.355274,64.801907],[165.279374,64.848007],[165.176674,64.857507],[165.044674,64.854406],[165.022474,64.852206],[165.003074,64.778307],[165.008374,64.762807],[165.031674,64.745507],[165.021374,64.693607],[165.002774,64.686607],[164.874674,64.684406],[164.843574,64.700807],[164.857974,64.733907],[164.811874,64.768607],[164.497774,64.847207],[164.167774,64.940006]]]]}}
