{"type":"Feature","properties":{"mrgid":47671,"name":"Kansas","placeType":"TDWG Terrestrial - level 3","source":"TDWG:level3"},"geometry":{"type":"Polygon","coordinates":[[[-94.618057,36.999718],[-94.617767,39.116104],[-94.710831,39.167213],[-94.76445,39.181664],[-94.829178,39.213051],[-94.893066,39.293327],[-94.911942,39.34388],[-94.940552,39.391106],[-95.039444,39.46138],[-95.089447,39.516388],[-95.10611,39.547493],[-95.108337,39.568886],[-94.965836,39.73555],[-94.936661,39.738327],[-94.893066,39.723602],[-94.869446,39.740273],[-94.881668,39.81916],[-94.951675,39.899719],[-95.008057,39.902489],[-95.025009,39.894997],[-95.041946,39.867767],[-95.10083,39.86277],[-95.292496,39.974159],[-95.31543,39.999718],[-102.024323,40.000305],[-102.012733,36.999809],[-94.618057,36.999718]]]}}
