{"type":"Feature","properties":{"mrgid":47689,"name":"Lebanon-Syria","placeType":"TDWG Terrestrial - level 3","source":"TDWG:level3"},"geometry":{"type":"Polygon","coordinates":[[[42.379145,37.076105],[42.355545,37.106905],[42.351045,37.233905],[42.294445,37.269705],[42.215845,37.289405],[42.180845,37.290505],[42.056945,37.192805],[41.840245,37.130005],[41.557145,37.086405],[41.221645,37.071105],[41.118345,37.097505],[40.929945,37.129705],[40.770745,37.118005],[40.697145,37.099705],[40.518845,37.025005],[40.439645,37.013005],[40.214445,36.895805],[40.007745,36.814705],[39.826045,36.755805],[39.229945,36.665305],[39.178545,36.667805],[39.038045,36.708605],[38.912745,36.695005],[38.731345,36.701105],[38.684145,36.725505],[38.549445,36.839205],[38.513545,36.858005],[38.386345,36.898305],[38.244145,36.914405],[38.181045,36.905805],[38.095245,36.873005],[38.023345,36.830405],[37.964945,36.816905],[37.910845,36.787805],[37.784145,36.748605],[37.701345,36.746905],[37.533345,36.677805],[37.381345,36.653905],[37.269445,36.664405],[37.127445,36.659205],[36.976345,36.763605],[36.659845,36.833905],[36.663845,36.811905],[36.586345,36.619705],[36.549145,36.483305],[36.567145,36.420805],[36.582745,36.397505],[36.688545,36.289405],[36.690245,36.236105],[36.674445,36.226105],[36.619445,36.218605],[36.535545,36.235505],[36.392145,36.213305],[36.374645,36.177505],[36.377445,36.110005],[36.387145,36.083305],[36.377745,36.000005],[36.299945,35.969705],[36.232745,35.967505],[36.219145,35.960305],[36.187445,35.913605],[36.176345,35.824705],[36.168045,35.817505],[36.156445,35.818105],[36.128045,35.852205],[36.109945,35.861405],[36.015845,35.899705],[35.922445,35.927005],[35.879145,35.863905],[35.841945,35.735005],[35.782445,35.638005],[35.733845,35.581705],[35.919945,35.421105],[35.929145,35.262105],[35.959445,35.198305],[35.886645,35.105505],[35.874645,34.908305],[35.931345,34.738605],[35.984945,34.619205],[35.991045,34.551105],[35.982745,34.525805],[35.900545,34.471905],[35.819145,34.431405],[35.670045,34.313205],[35.649445,34.283905],[35.646245,34.217205],[35.629645,34.204205],[35.625245,34.153905],[35.638845,34.138605],[35.647745,34.098605],[35.634445,34.012805],[35.569445,33.906905],[35.469945,33.903005],[35.483045,33.865005],[35.476945,33.794705],[35.416945,33.688305],[35.357145,33.528305],[35.313845,33.481705],[35.273345,33.454205],[35.220245,33.305305],[35.203045,33.209205],[35.188345,33.182805],[35.100845,33.093605],[35.264945,33.098605],[35.321945,33.088005],[35.354645,33.061905],[35.428345,33.068905],[35.504645,33.094205],[35.505845,33.115005],[35.527745,33.128905],[35.542445,33.204205],[35.585545,33.270305],[35.628045,33.244205],[35.651345,33.255505],[35.681945,33.249205],[35.652445,33.125005],[35.634945,33.000005],[35.633345,32.930805],[35.614445,32.894905],[35.642145,32.860505],[35.639145,32.815305],[35.664945,32.796705],[35.665445,32.762005],[35.651945,32.727505],[35.648845,32.685305],[35.763245,32.748905],[35.928845,32.721705],[36.003345,32.663305],[36.025845,32.613605],[36.079945,32.543305],[36.165545,32.518205],[36.197445,32.533305],[36.314445,32.459705],[36.400245,32.381905],[36.487745,32.375705],[36.516045,32.363005],[36.643045,32.349205],[36.837745,32.313605],[36.866345,32.341705],[37.494745,32.688105],[38.794645,33.377605],[41.003845,34.419405],[41.099445,34.608605],[41.229145,34.788305],[41.212445,35.112805],[41.215245,35.224705],[41.268545,35.394405],[41.277745,35.495505],[41.383845,35.625305],[41.378045,35.838605],[41.254945,36.055005],[41.290245,36.355505],[41.403045,36.525505],[41.835245,36.598905],[42.367245,37.055905],[42.379145,37.076105]]]}}
