{"type":"Feature","properties":{"mrgid":47696,"name":"Lesser Sunda Is.","placeType":"TDWG Terrestrial - level 3","source":"TDWG:level3"},"geometry":{"type":"MultiPolygon","coordinates":[[[[123.214645,-10.812195],[123.269645,-10.731395],[123.319645,-10.699695],[123.394445,-10.684195],[123.403845,-10.596695],[123.397745,-10.449695],[123.390245,-10.436995],[123.378545,-10.436395],[123.259945,-10.521995],[123.072145,-10.684995],[122.848845,-10.761095],[122.810545,-10.783895],[122.807745,-10.794695],[122.822145,-10.911095],[122.844145,-10.929995],[122.955845,-10.895595],[122.960545,-10.878895],[123.001045,-10.858095],[123.131945,-10.819695],[123.176345,-10.828295],[123.214645,-10.812195]]],[[[121.859945,-10.610295],[121.982745,-10.534695],[121.993545,-10.518595],[122.001945,-10.467495],[121.996945,-10.441095],[121.919645,-10.420295],[121.894945,-10.421695],[121.855745,-10.443895],[121.768845,-10.519995],[121.690745,-10.566395],[121.694945,-10.575795],[121.745545,-10.606895],[121.859945,-10.610295]]],[[[123.400545,-10.342795],[123.412745,-10.334695],[123.508045,-10.182795],[123.505245,-10.173295],[123.453245,-10.139695],[123.394945,-10.166095],[123.308545,-10.276695],[123.309345,-10.313595],[123.324945,-10.344195],[123.400545,-10.342795]]],[[[119.943845,-9.283895],[119.906345,-9.321095],[119.809145,-9.387495],[119.721845,-9.383295],[119.669945,-9.367195],[119.640545,-9.342195],[119.598545,-9.342795],[119.379945,-9.379995],[119.328045,-9.374695],[119.282145,-9.358895],[119.024445,-9.435295],[118.982445,-9.475295],[118.931045,-9.561095],[119.053045,-9.698295],[119.120245,-9.726695],[119.193545,-9.747495],[119.473845,-9.749695],[119.632145,-9.773295],[119.683545,-9.806395],[119.688245,-9.844695],[119.706345,-9.861095],[119.918045,-9.975795],[119.959645,-9.976395],[120.011945,-10.040595],[120.042745,-10.118095],[120.089945,-10.172795],[120.164645,-10.231395],[120.220245,-10.248295],[120.391345,-10.265795],[120.494445,-10.264495],[120.632745,-10.237495],[120.694945,-10.218095],[120.724445,-10.199695],[120.831345,-10.082495],[120.836045,-10.048095],[120.810245,-9.979195],[120.760745,-9.933295],[120.669645,-9.894695],[120.628545,-9.833895],[120.621645,-9.800295],[120.594445,-9.745595],[120.466945,-9.634695],[120.451645,-9.628595],[120.378245,-9.641395],[120.334645,-9.678095],[120.261945,-9.648295],[120.250245,-9.619195],[120.238045,-9.505795],[120.188545,-9.466395],[120.135245,-9.481395],[120.091945,-9.463095],[119.943845,-9.283895]]],[[[115.594745,-8.804195],[115.619445,-8.760795],[115.605845,-8.706695],[115.566645,-8.670795],[115.512545,-8.669995],[115.469945,-8.734395],[115.503645,-8.768895],[115.546145,-8.795295],[115.569945,-8.805595],[115.594745,-8.804195]]],[[[119.690545,-8.802795],[119.714445,-8.785795],[119.726945,-8.757495],[119.725545,-8.741095],[119.699345,-8.723095],[119.719945,-8.686995],[119.661045,-8.617795],[119.633045,-8.600795],[119.644445,-8.670795],[119.632145,-8.725095],[119.616345,-8.734995],[119.607445,-8.773595],[119.690545,-8.802795]]],[[[123.068845,-8.497195],[123.167445,-8.474195],[123.179145,-8.458595],[123.177745,-8.442195],[123.148845,-8.429995],[122.988045,-8.456695],[122.909145,-8.516995],[122.884445,-8.583295],[122.896045,-8.605595],[122.925545,-8.611895],[123.068845,-8.497195]]],[[[119.461645,-8.440295],[119.443845,-8.428095],[119.414445,-8.447795],[119.397745,-8.638095],[119.406045,-8.657195],[119.404145,-8.680795],[119.373845,-8.724195],[119.378045,-8.741095],[119.447145,-8.754195],[119.465745,-8.745295],[119.445745,-8.710595],[119.437745,-8.676695],[119.456045,-8.603095],[119.491045,-8.576395],[119.507445,-8.572495],[119.519145,-8.574495],[119.528045,-8.599695],[119.558245,-8.598295],[119.585545,-8.563095],[119.564945,-8.492495],[119.540545,-8.484495],[119.496645,-8.486995],[119.461645,-8.440295]]],[[[127.304445,-8.433595],[127.308445,-8.410095],[127.298845,-8.392795],[127.201645,-8.333095],[127.004945,-8.324495],[126.898545,-8.360295],[126.771345,-8.424195],[126.563045,-8.486395],[126.544445,-8.486995],[126.503345,-8.453095],[126.421845,-8.427495],[126.358845,-8.427495],[126.285545,-8.477495],[126.220245,-8.501395],[126.044145,-8.524995],[125.938045,-8.487795],[125.844145,-8.481695],[125.708345,-8.530595],[125.424145,-8.571995],[125.229445,-8.609695],[125.145245,-8.634695],[125.109345,-8.680795],[125.093045,-8.759495],[124.970545,-8.934695],[124.951845,-8.950095],[124.859345,-9.001095],[124.797745,-9.014695],[124.599645,-9.164195],[124.553045,-9.179195],[124.418845,-9.185795],[124.290545,-9.221695],[124.184945,-9.260295],[124.150745,-9.301695],[124.046045,-9.339995],[123.979445,-9.355595],[123.786945,-9.517195],[123.674645,-9.629495],[123.663545,-9.645595],[123.673245,-9.696995],[123.665745,-9.854195],[123.643545,-9.900295],[123.596345,-9.921095],[123.578545,-9.937195],[123.575245,-10.028295],[123.584145,-10.046695],[123.603845,-10.059495],[123.641045,-10.028295],[123.697145,-10.028295],[123.757445,-10.054195],[123.762145,-10.078895],[123.746645,-10.103895],[123.671845,-10.144995],[123.615545,-10.157195],[123.529445,-10.191095],[123.489645,-10.239395],[123.488245,-10.316395],[123.609345,-10.371095],[123.811645,-10.375795],[123.936845,-10.296995],[124.030245,-10.277195],[124.081045,-10.232195],[124.111045,-10.180795],[124.269945,-10.169995],[124.387145,-10.176095],[124.426345,-10.167495],[124.518845,-10.089195],[124.547445,-10.029695],[124.567445,-10.008895],[124.653845,-9.952195],[124.918845,-9.696395],[124.975745,-9.657795],[124.985545,-9.619995],[124.985545,-9.561695],[125.036945,-9.498895],[125.129345,-9.435295],[125.211645,-9.423295],[125.286345,-9.348295],[125.354645,-9.294195],[125.404445,-9.268295],[125.783045,-9.147195],[125.848345,-9.130295],[125.918045,-9.133095],[125.943545,-9.126995],[126.153245,-8.990295],[126.324445,-8.975595],[126.472445,-8.952495],[126.520545,-8.899695],[126.540245,-8.851695],[126.585545,-8.808295],[126.658845,-8.774495],[126.789645,-8.756095],[127.015245,-8.682795],[127.126345,-8.575795],[127.304445,-8.433595]]],[[[123.303845,-8.401095],[123.324445,-8.380595],[123.344145,-8.269995],[123.334145,-8.259995],[123.220845,-8.233595],[123.158545,-8.242495],[123.083345,-8.288595],[123.046945,-8.320295],[123.016045,-8.378095],[123.014645,-8.407795],[123.022745,-8.413295],[123.303845,-8.401095]]],[[[116.549145,-8.774995],[116.677445,-8.548595],[116.736345,-8.398895],[116.735745,-8.363095],[116.712445,-8.331995],[116.651945,-8.283095],[116.387445,-8.204995],[116.278545,-8.240795],[116.102445,-8.406395],[116.068845,-8.522195],[116.090245,-8.603095],[116.073045,-8.731095],[115.954445,-8.779195],[115.889445,-8.756695],[115.883845,-8.728295],[115.844145,-8.755295],[115.854445,-8.822495],[116.001045,-8.896995],[116.033845,-8.884695],[116.033345,-8.873295],[116.042145,-8.868295],[116.081345,-8.859695],[116.164945,-8.881395],[116.201945,-8.920595],[116.259445,-8.923295],[116.382745,-8.916695],[116.441645,-8.838595],[116.478845,-8.827795],[116.487745,-8.832495],[116.487745,-8.844695],[116.463545,-8.902195],[116.466345,-8.917195],[116.577445,-8.900795],[116.603245,-8.872495],[116.559345,-8.856395],[116.549145,-8.774995]]],[[[128.219945,-8.210595],[128.212445,-8.204495],[128.169945,-8.216695],[128.106845,-8.211095],[128.079945,-8.259495],[128.130245,-8.284495],[128.208245,-8.287195],[128.233045,-8.270795],[128.219945,-8.210595]]],[[[123.764445,-8.327195],[123.851945,-8.293095],[123.919145,-8.278295],[123.939145,-8.264195],[123.939145,-8.242495],[123.919145,-8.228095],[123.794445,-8.181395],[123.638245,-8.299195],[123.601345,-8.369695],[123.582145,-8.378095],[123.540245,-8.371995],[123.524245,-8.349595],[123.540245,-8.303295],[123.559945,-8.282195],[123.558845,-8.253895],[123.549645,-8.247795],[123.521645,-8.243095],[123.402445,-8.274995],[123.359945,-8.314195],[123.467445,-8.318895],[123.476145,-8.339595],[123.473145,-8.352095],[123.439345,-8.383295],[123.353845,-8.414695],[123.223545,-8.523595],[123.217445,-8.536695],[123.235245,-8.552795],[123.301645,-8.554695],[123.375745,-8.572495],[123.406045,-8.596995],[123.453845,-8.569695],[123.536045,-8.566995],[123.764445,-8.327195]]],[[[124.290545,-8.329195],[124.303045,-8.221995],[124.291345,-8.192795],[124.269445,-8.180595],[124.243845,-8.196095],[124.156945,-8.320295],[124.106345,-8.371995],[124.077445,-8.340595],[124.075545,-8.315595],[124.068045,-8.309495],[124.037145,-8.310295],[123.964945,-8.356895],[123.906945,-8.452495],[123.931645,-8.468895],[123.980745,-8.436395],[124.013845,-8.433595],[124.050745,-8.484995],[124.050745,-8.551395],[124.071345,-8.558295],[124.115245,-8.555595],[124.162445,-8.527795],[124.290545,-8.329195]]],[[[129.008045,-8.269495],[129.031845,-8.245795],[129.033345,-8.215795],[128.969645,-8.183895],[128.891345,-8.179995],[128.828245,-8.198895],[128.839945,-8.221395],[128.922145,-8.261995],[129.008045,-8.269495]]],[[[127.668245,-8.244495],[127.761345,-8.214495],[127.773845,-8.199695],[127.771045,-8.188895],[127.736045,-8.160795],[127.696345,-8.154195],[127.670245,-8.162195],[127.605745,-8.206995],[127.643045,-8.242495],[127.668245,-8.244495]]],[[[117.540745,-8.390295],[117.579145,-8.346695],[117.635545,-8.226095],[117.691045,-8.186095],[117.688845,-8.170295],[117.675745,-8.156095],[117.558545,-8.146095],[117.481345,-8.191395],[117.476345,-8.200295],[117.483845,-8.354195],[117.540745,-8.390295]]],[[[125.581645,-8.317495],[125.597445,-8.298595],[125.647445,-8.149995],[125.641345,-8.135795],[125.613845,-8.141395],[125.524645,-8.229995],[125.496045,-8.269495],[125.526045,-8.306095],[125.581645,-8.317495]]],[[[119.072445,-8.267495],[119.092145,-8.259995],[119.126645,-8.226095],[119.136945,-8.195595],[119.124345,-8.160295],[119.078545,-8.133895],[119.046345,-8.142795],[119.027745,-8.158295],[119.014145,-8.205795],[119.036045,-8.255795],[119.047145,-8.265595],[119.072445,-8.267495]]],[[[124.577745,-8.135795],[124.466045,-8.135795],[124.400745,-8.221395],[124.335245,-8.409695],[124.335745,-8.428095],[124.350745,-8.454495],[124.419445,-8.472195],[124.601645,-8.431395],[125.051345,-8.370595],[125.127145,-8.350795],[125.139645,-8.329195],[125.135545,-8.227495],[125.090245,-8.156095],[124.934145,-8.161695],[124.917745,-8.172495],[124.855245,-8.177195],[124.670245,-8.173095],[124.577745,-8.135795]]],[[[127.843545,-8.101095],[127.759945,-8.110795],[127.807445,-8.191395],[128.025245,-8.267495],[128.040245,-8.261995],[128.127445,-8.171695],[128.126045,-8.154195],[128.100545,-8.138595],[128.050545,-8.147495],[127.949945,-8.138595],[127.843545,-8.101095]]],[[[130.821845,-8.349395],[130.888245,-8.306695],[130.897145,-8.281095],[130.959345,-8.236995],[131.046645,-8.209195],[131.141945,-8.166995],[131.180245,-8.129695],[131.036045,-8.084695],[131.013045,-8.089695],[130.961645,-8.147495],[130.927445,-8.204495],[130.856645,-8.243095],[130.764945,-8.341995],[130.765545,-8.354995],[130.821845,-8.349395]]],[[[118.311845,-8.374695],[118.251345,-8.342795],[118.191045,-8.259995],[118.168545,-8.214495],[118.162445,-8.154195],[118.098545,-8.108595],[117.939145,-8.082195],[117.802745,-8.119495],[117.738845,-8.148595],[117.710245,-8.201695],[117.703245,-8.235595],[117.832145,-8.373295],[117.987745,-8.476995],[118.050745,-8.458095],[118.084145,-8.465295],[118.231645,-8.551395],[118.284345,-8.594195],[118.286345,-8.634195],[118.258345,-8.660595],[118.208345,-8.665295],[118.151345,-8.646995],[118.073245,-8.657795],[117.966345,-8.748595],[117.897745,-8.701095],[117.847145,-8.710595],[117.758045,-8.649695],[117.586945,-8.512195],[117.563545,-8.459995],[117.571045,-8.419995],[117.565545,-8.411995],[117.442745,-8.409695],[117.424945,-8.466695],[117.192745,-8.363595],[117.122745,-8.378595],[117.103545,-8.415295],[117.079645,-8.438895],[117.014645,-8.483095],[116.947445,-8.518295],[116.891045,-8.522195],[116.858245,-8.534495],[116.802745,-8.590795],[116.779445,-8.673295],[116.794645,-8.827795],[116.754145,-8.883295],[116.743245,-8.979495],[116.751345,-9.009495],[116.806945,-9.044495],[117.046045,-9.111395],[117.148345,-9.093095],[117.203045,-9.031695],[117.231945,-9.018895],[117.285245,-9.022795],[117.305245,-9.041095],[117.344945,-9.049195],[117.405745,-9.049995],[117.545545,-9.011995],[117.634145,-8.963895],[117.656045,-8.938295],[117.710245,-8.917195],[117.734145,-8.916695],[117.794445,-8.935595],[117.884145,-8.934695],[118.028845,-8.854195],[118.101345,-8.846095],[118.115745,-8.865795],[118.154945,-8.871995],[118.218045,-8.825795],[118.395245,-8.641695],[118.406345,-8.584695],[118.441345,-8.663895],[118.429645,-8.725595],[118.383045,-8.774495],[118.382445,-8.789995],[118.411045,-8.849395],[118.430245,-8.864495],[118.457145,-8.871995],[118.642745,-8.819195],[118.730945,-8.806995],[118.788045,-8.817795],[118.827145,-8.853595],[118.918245,-8.851695],[118.946945,-8.839395],[118.936045,-8.810795],[118.889445,-8.782495],[118.747145,-8.772795],[118.731445,-8.759795],[118.701645,-8.752795],[118.755245,-8.712795],[118.818845,-8.711995],[118.903245,-8.689695],[118.920245,-8.699695],[118.966045,-8.756095],[118.984145,-8.764195],[119.148545,-8.751995],[119.178045,-8.720295],[119.184445,-8.700595],[119.175245,-8.649695],[119.134645,-8.636995],[119.057445,-8.653895],[119.038045,-8.631395],[119.021045,-8.591395],[119.025745,-8.555595],[119.044445,-8.526395],[119.051045,-8.478895],[119.004645,-8.319695],[118.996945,-8.313595],[118.899145,-8.288595],[118.802445,-8.298095],[118.779145,-8.308895],[118.738045,-8.342795],[118.714645,-8.380595],[118.723545,-8.459995],[118.706345,-8.497195],[118.666045,-8.552195],[118.651645,-8.539195],[118.681945,-8.453895],[118.690745,-8.374695],[118.685245,-8.352795],[118.648345,-8.294495],[118.495545,-8.246395],[118.469945,-8.248295],[118.437745,-8.270795],[118.368045,-8.343295],[118.311845,-8.374695]]],[[[122.981045,-8.149495],[122.961945,-8.127795],[122.875545,-8.069995],[122.853045,-8.074695],[122.800245,-8.110795],[122.737145,-8.229495],[122.791345,-8.232795],[122.828845,-8.202195],[122.885245,-8.183295],[122.946945,-8.203595],[122.950745,-8.211995],[122.889945,-8.287195],[122.773245,-8.354995],[122.693845,-8.384695],[122.606045,-8.391695],[122.486345,-8.484995],[122.478045,-8.504195],[122.488245,-8.521095],[122.432145,-8.603595],[122.340245,-8.621095],[122.288245,-8.644495],[122.238845,-8.633595],[122.107445,-8.533095],[122.039445,-8.443595],[121.892745,-8.493895],[121.637145,-8.474995],[121.572145,-8.566395],[121.511045,-8.607795],[121.391945,-8.581995],[121.319945,-8.523595],[121.286345,-8.475595],[121.208845,-8.443595],[121.166645,-8.439695],[121.046645,-8.407795],[120.921845,-8.346095],[120.753345,-8.333895],[120.660245,-8.281095],[120.522445,-8.257195],[120.258545,-8.272195],[120.199645,-8.301995],[120.083845,-8.396095],[120.006945,-8.416695],[119.909645,-8.464195],[119.803545,-8.567795],[119.797445,-8.581995],[119.804945,-8.680295],[119.796245,-8.720295],[119.813045,-8.779195],[119.893845,-8.850295],[119.939145,-8.850295],[120.089145,-8.796695],[120.197445,-8.799995],[120.249645,-8.831095],[120.314645,-8.836095],[120.345545,-8.812195],[120.381945,-8.800795],[120.435245,-8.793895],[120.577145,-8.793895],[120.653245,-8.847495],[120.744445,-8.875795],[120.769145,-8.866395],[120.856045,-8.867195],[120.920545,-8.926095],[121.016345,-8.949695],[121.041945,-8.947795],[121.135545,-8.904995],[121.198545,-8.892795],[121.260545,-8.906395],[121.301645,-8.926695],[121.323545,-8.922795],[121.354445,-8.905795],[121.374145,-8.884195],[121.368045,-8.816995],[121.389945,-8.798095],[121.564645,-8.814995],[121.765545,-8.892195],[121.905745,-8.826395],[122.178545,-8.735795],[122.259445,-8.750595],[122.392445,-8.751995],[122.514945,-8.717495],[122.570545,-8.666695],[122.739145,-8.619195],[122.787145,-8.617795],[122.832445,-8.601695],[122.848045,-8.589395],[122.853045,-8.566995],[122.840545,-8.531695],[122.796645,-8.472795],[122.801645,-8.434195],[122.896945,-8.385595],[122.989945,-8.352795],[123.031645,-8.312795],[122.981045,-8.149495]]],[[[115.502245,-8.178595],[115.361145,-8.114195],[115.187745,-8.056395],[115.145245,-8.068595],[115.045845,-8.163095],[115.000545,-8.186095],[114.836945,-8.188095],[114.765045,-8.171095],[114.712245,-8.141395],[114.510545,-8.094395],[114.453045,-8.091695],[114.445545,-8.104695],[114.456345,-8.180595],[114.484745,-8.240795],[114.527745,-8.307495],[114.602445,-8.390295],[114.616045,-8.401095],[114.705845,-8.394995],[114.753345,-8.402195],[114.891645,-8.449695],[114.966345,-8.496695],[115.161945,-8.678195],[115.178145,-8.722195],[115.175945,-8.770595],[115.089745,-8.823095],[115.100545,-8.845595],[115.126045,-8.854195],[115.209745,-8.844695],[115.231645,-8.825795],[115.242445,-8.802195],[115.239145,-8.771695],[115.231645,-8.758895],[115.218045,-8.761895],[115.218645,-8.788995],[115.200045,-8.767395],[115.202645,-8.747595],[115.222645,-8.725195],[115.264945,-8.709995],[115.291045,-8.653895],[115.327445,-8.621895],[115.395245,-8.587495],[115.502745,-8.550795],[115.615245,-8.493895],[115.707745,-8.409195],[115.714745,-8.375295],[115.706345,-8.356095],[115.557745,-8.211895],[115.502245,-8.178595]]],[[[127.213845,-8.113295],[127.234345,-8.099995],[127.226345,-8.036695],[127.203045,-8.021095],[127.181645,-8.021995],[127.152145,-8.046995],[127.153045,-8.099195],[127.176345,-8.109995],[127.213845,-8.113295]]],[[[129.764445,-8.061095],[129.780245,-8.049695],[129.861845,-7.926995],[129.843245,-7.840595],[129.819945,-7.823095],[129.701345,-7.791095],[129.606845,-7.803895],[129.590445,-7.821695],[129.576045,-7.881995],[129.584145,-7.907795],[129.690445,-8.040295],[129.764445,-8.061095]]],[[[131.031645,-7.717795],[131.093845,-7.692495],[131.115245,-7.666095],[131.128845,-7.626695],[131.122845,-7.622195],[131.092445,-7.638295],[130.984145,-7.664195],[130.975245,-7.682495],[130.975245,-7.709695],[130.978045,-7.720595],[131.031645,-7.717795]]],[[[126.721345,-7.673095],[126.633545,-7.610595],[126.631345,-7.575795],[126.621845,-7.564995],[126.485545,-7.598295],[126.385545,-7.648595],[126.371045,-7.674995],[126.338845,-7.694695],[126.188845,-7.721095],[126.100545,-7.701395],[125.972145,-7.658595],[125.809945,-7.856395],[125.772145,-8.008895],[125.780245,-8.021095],[125.798045,-8.018295],[125.935245,-7.909995],[126.061845,-7.886095],[126.119645,-7.884695],[126.277745,-7.916095],[126.418245,-7.932195],[126.503345,-7.887495],[126.554645,-7.823095],[126.613545,-7.780795],[126.708845,-7.753095],[126.790545,-7.749695],[126.765745,-7.672195],[126.721345,-7.673095]]],[[[127.381045,-7.658595],[127.481045,-7.589495],[127.488545,-7.549195],[127.481945,-7.528895],[127.389945,-7.501995],[127.368045,-7.513895],[127.344945,-7.628095],[127.355245,-7.651995],[127.381045,-7.658595]]],[[[130.929945,-7.562795],[130.983545,-7.520795],[130.976045,-7.507795],[130.873545,-7.500295],[130.859345,-7.493095],[130.849045,-7.503095],[130.844345,-7.547195],[130.929945,-7.562795]]],[[[131.072745,-7.511395],[131.134445,-7.463595],[131.178845,-7.419495],[131.177445,-7.408595],[131.161645,-7.403895],[131.003345,-7.424995],[130.980745,-7.456995],[130.992945,-7.485595],[131.072745,-7.511395]]],[[[131.272745,-7.372795],[131.301645,-7.323595],[131.263045,-7.300595],[131.216645,-7.359195],[131.228245,-7.368095],[131.272745,-7.372795]]],[[[131.736045,-7.214195],[131.741345,-7.201995],[131.710445,-7.144195],[131.656345,-7.116395],[131.579145,-7.124495],[131.539445,-7.143595],[131.456845,-7.286995],[131.339145,-7.427795],[131.333845,-7.419495],[131.322145,-7.421695],[131.243245,-7.479995],[131.176045,-7.652495],[131.189645,-7.684995],[131.084345,-7.855595],[131.109645,-8.000795],[131.133045,-8.011695],[131.300245,-8.028595],[131.334345,-8.008895],[131.344645,-7.964995],[131.342745,-7.922195],[131.399345,-7.831695],[131.572145,-7.704195],[131.629045,-7.631695],[131.679145,-7.481395],[131.677745,-7.412195],[131.660445,-7.388295],[131.638045,-7.254495],[131.661945,-7.223895],[131.701045,-7.227195],[131.736045,-7.214195]]],[[[131.927145,-7.106995],[131.746845,-7.116995],[131.732445,-7.129995],[131.728545,-7.158595],[131.733245,-7.167495],[131.762745,-7.174695],[131.833245,-7.159195],[131.890245,-7.169495],[131.916945,-7.224495],[131.968845,-7.254495],[131.988245,-7.214995],[131.974345,-7.175595],[131.927145,-7.106995]]],[[[128.639945,-7.219195],[128.679645,-7.176995],[128.703045,-7.114495],[128.615245,-7.064695],[128.548045,-7.106995],[128.527445,-7.131395],[128.526045,-7.143595],[128.544145,-7.167495],[128.624045,-7.216995],[128.639945,-7.219195]]],[[[131.592145,-6.678895],[131.569445,-6.690595],[131.528245,-6.751695],[131.523545,-6.772795],[131.535745,-6.801395],[131.558545,-6.798095],[131.593545,-6.771395],[131.626345,-6.707495],[131.628245,-6.683595],[131.592145,-6.678895]]],[[[134.668845,-6.774195],[134.721545,-6.690595],[134.741645,-6.628595],[134.730545,-6.605595],[134.697745,-6.586395],[134.682445,-6.598595],[134.626345,-6.715595],[134.622145,-6.749695],[134.644145,-6.768895],[134.668845,-6.774195]]],[[[134.683845,-6.561095],[134.729145,-6.546095],[134.746845,-6.523095],[134.726345,-6.482195],[134.683245,-6.451695],[134.649645,-6.465795],[134.633345,-6.490295],[134.668845,-6.557195],[134.683845,-6.561095]]],[[[134.831845,-6.471995],[134.888845,-6.332495],[134.882645,-6.299195],[134.857945,-6.289495],[134.840745,-6.293095],[134.788045,-6.393095],[134.796345,-6.455595],[134.831845,-6.471995]]],[[[134.586045,-6.391695],[134.446945,-6.283295],[134.378245,-6.321395],[134.345445,-6.356995],[134.361045,-6.394495],[134.386245,-6.393995],[134.436345,-6.432295],[134.455645,-6.427595],[134.507745,-6.515595],[134.542145,-6.535795],[134.604345,-6.427795],[134.586045,-6.391695]]],[[[134.344045,-6.804195],[134.405745,-6.718295],[134.493545,-6.642195],[134.516045,-6.597195],[134.514645,-6.584995],[134.456345,-6.448095],[134.429345,-6.444695],[134.396945,-6.414695],[134.331345,-6.387995],[134.285245,-6.339195],[134.300045,-6.318495],[134.297445,-6.305195],[134.276845,-6.296995],[134.215245,-6.234995],[134.120945,-6.170395],[134.102745,-6.173095],[134.089945,-6.194195],[134.124045,-6.297795],[134.123245,-6.441395],[134.093845,-6.521095],[134.051345,-6.761995],[134.067145,-6.826695],[134.180245,-6.920595],[134.198045,-6.921995],[134.322745,-6.855295],[134.364645,-6.814995],[134.361845,-6.806995],[134.344045,-6.804195]]],[[[134.156345,-6.047495],[134.154945,-6.008095],[134.121845,-6.042195],[134.112445,-6.093895],[134.119945,-6.134195],[134.133845,-6.154695],[134.333045,-6.326395],[134.403545,-6.286095],[134.404345,-6.277195],[134.328245,-6.236995],[134.228245,-6.137495],[134.244645,-6.093895],[134.225545,-6.031395],[134.215545,-6.026395],[134.191945,-6.046395],[134.156345,-6.047495]]],[[[134.731345,-6.036695],[134.646345,-5.950795],[134.607145,-5.952795],[134.509245,-5.976095],[134.366645,-6.036695],[134.305745,-6.041395],[134.284345,-6.061095],[134.268045,-6.117195],[134.332445,-6.223295],[134.394645,-6.258895],[134.493545,-6.294195],[134.544945,-6.352195],[134.603045,-6.370595],[134.673545,-6.338595],[134.707945,-6.311395],[134.744945,-6.239195],[134.770245,-6.099995],[134.731345,-6.036695]]],[[[132.741345,-5.950295],[132.781045,-5.928295],[132.804345,-5.863095],[132.809145,-5.813095],[132.738545,-5.678795],[132.732145,-5.652795],[132.702745,-5.599195],[132.693245,-5.596395],[132.634945,-5.616095],[132.628845,-5.634495],[132.656345,-5.713595],[132.669445,-5.838295],[132.666645,-5.909995],[132.691945,-5.935295],[132.741345,-5.950295]]],[[[132.795545,-5.686395],[132.807745,-5.671395],[132.790545,-5.613295],[132.809645,-5.558895],[132.781045,-5.532795],[132.747945,-5.581995],[132.738545,-5.639195],[132.765245,-5.687795],[132.795545,-5.686395]]],[[[132.340445,-5.577195],[132.369045,-5.558095],[132.376545,-5.538295],[132.301845,-5.517195],[132.314945,-5.558895],[132.326045,-5.575295],[132.340445,-5.577195]]],[[[134.577145,-5.429995],[134.493545,-5.435295],[134.483045,-5.491995],[134.359945,-5.706095],[134.317945,-5.713595],[134.237145,-5.677495],[134.206345,-5.708095],[134.207645,-5.736995],[134.252945,-5.766695],[134.286545,-5.766095],[134.366045,-5.788095],[134.381045,-5.800295],[134.358545,-5.852795],[134.302145,-5.909995],[134.302145,-6.025795],[134.344045,-6.030595],[134.379645,-6.023895],[134.512845,-5.962295],[134.650245,-5.932495],[134.711345,-5.978095],[134.729145,-5.979495],[134.760745,-5.894995],[134.755245,-5.860795],[134.735245,-5.846695],[134.721045,-5.736995],[134.679145,-5.592795],[134.692745,-5.530295],[134.633345,-5.449195],[134.577145,-5.429995]]],[[[132.849345,-6.003295],[132.954345,-5.868295],[132.947445,-5.809695],[132.963845,-5.751095],[133.029645,-5.659695],[133.081045,-5.629195],[133.111845,-5.591695],[133.189345,-5.340595],[133.182445,-5.309795],[133.168845,-5.295595],[133.125745,-5.293295],[133.114145,-5.302195],[132.985845,-5.625595],[132.937945,-5.678095],[132.839145,-5.982195],[132.837745,-5.999995],[132.849345,-6.003295]]]]}}
