{"type":"Feature","properties":{"mrgid":47694,"name":"Line Is.","placeType":"TDWG Terrestrial - level 3","source":"TDWG:level3"},"geometry":{"type":"MultiPolygon","coordinates":[[[[-151.783655,-11.466395],[-151.776455,-11.459495],[-151.778655,-11.436695],[-151.800055,-11.397195],[-151.814455,-11.392495],[-151.818655,-11.408595],[-151.808055,-11.449695],[-151.800055,-11.462195],[-151.783655,-11.466395]]],[[[-152.395655,-10.095795],[-152.406755,-10.097195],[-152.396455,-10.107195],[-152.395655,-10.095795]]],[[[-150.224155,-9.954195],[-150.215855,-9.929695],[-150.220555,-9.923895],[-150.233055,-9.938595],[-150.224155,-9.954195]]],[[[-150.225355,-9.915795],[-150.219255,-9.901395],[-150.228955,-9.890795],[-150.233655,-9.911695],[-150.225355,-9.915795]]],[[[-155.878055,-5.639995],[-155.854255,-5.629695],[-155.856155,-5.619495],[-155.870555,-5.613295],[-155.928055,-5.618895],[-155.913155,-5.638095],[-155.878055,-5.639995]]],[[[-154.939255,-4.045595],[-154.944155,-4.031395],[-154.962555,-4.031995],[-155.013955,-4.051695],[-155.016155,-4.060795],[-154.956455,-4.102495],[-154.939255,-4.045595]]],[[[-160.021155,-0.398095],[-160.009455,-0.389195],[-160.017755,-0.374695],[-160.036955,-0.374695],[-160.048655,-0.383595],[-160.039755,-0.395295],[-160.021155,-0.398095]]],[[[-157.431655,2.021405],[-157.492555,2.033005],[-157.504255,2.030805],[-157.510355,2.016405],[-157.496655,1.995805],[-157.483055,2.001405],[-157.439255,1.985005],[-157.350055,1.938305],[-157.429455,1.831705],[-157.543955,1.871905],[-157.547555,1.891105],[-157.515855,1.921405],[-157.520655,1.935805],[-157.579755,1.900005],[-157.581755,1.883005],[-157.571455,1.858905],[-157.436455,1.789705],[-157.328055,1.754205],[-157.235055,1.705005],[-157.179455,1.714405],[-157.172555,1.735005],[-157.191155,1.764405],[-157.343155,1.841105],[-157.348055,1.888305],[-157.336455,1.931705],[-157.350855,1.971905],[-157.431655,2.021405]]],[[[-159.340055,3.920805],[-159.358655,3.927805],[-159.390855,3.918905],[-159.410555,3.890805],[-159.404555,3.864205],[-159.377455,3.849305],[-159.388055,3.892805],[-159.374255,3.906705],[-159.347555,3.900505],[-159.279155,3.831405],[-159.287255,3.805505],[-159.309155,3.801405],[-159.333655,3.810605],[-159.334455,3.795805],[-159.305055,3.782205],[-159.271755,3.789705],[-159.248855,3.809405],[-159.248855,3.827205],[-159.340055,3.920805]]],[[[-160.394755,4.685505],[-160.380855,4.699205],[-160.379755,4.718305],[-160.405655,4.725305],[-160.418055,4.716905],[-160.420055,4.700005],[-160.394755,4.685505]]]]}}
