{"type":"Feature","properties":{"mrgid":47708,"name":"Michigan","placeType":"TDWG Terrestrial - level 3","source":"TDWG:level3"},"geometry":{"type":"Polygon","coordinates":[[[-87.021194,42.485264],[-87.117554,42.14259],[-87.211113,41.762257],[-84.796661,41.758888],[-84.79277,41.699715],[-83.541672,41.734436],[-83.42588,41.72665],[-83.117416,41.946194],[-83.16861,42.046104],[-83.132492,42.220825],[-83.118057,42.257774],[-83.08696,42.300545],[-83.051941,42.324715],[-82.940552,42.357498],[-82.808884,42.413322],[-82.665283,42.544159],[-82.644974,42.556412],[-82.586395,42.558601],[-82.521393,42.618881],[-82.474716,42.751663],[-82.470551,42.782494],[-82.481949,42.823326],[-82.464447,42.898048],[-82.418777,43.018639],[-82.13028,43.585266],[-82.54306,45.355827],[-83.597778,45.827217],[-83.447769,46.01194],[-83.483322,46.043884],[-83.577499,46.10527],[-83.61055,46.119156],[-83.663055,46.126099],[-83.846115,46.124992],[-83.923004,46.070251],[-83.936005,46.065384],[-83.958893,46.071663],[-84.076675,46.203049],[-84.105835,46.247772],[-84.15834,46.39666],[-84.154449,46.445267],[-84.118057,46.512497],[-84.126389,46.531937],[-84.192764,46.546661],[-84.428329,46.503052],[-84.486389,46.458885],[-84.565002,46.466385],[-84.775009,46.653046],[-84.856949,46.902214],[-86.46666,47.567215],[-88.188324,48.244156],[-88.368057,48.31221],[-88.645554,48.26416],[-88.691666,48.255554],[-89.356659,47.979713],[-89.447769,48.003326],[-89.493126,48.003166],[-90.277893,46.777454],[-90.413025,46.588203],[-90.401398,46.55027],[-90.222778,46.507217],[-90.134735,46.370544],[-90.018066,46.320549],[-89.117493,46.148048],[-88.838058,46.034996],[-88.641953,46.001106],[-88.545837,46.0261],[-88.520279,46.024994],[-88.187775,45.960823],[-88.115829,45.932213],[-88.08139,45.877769],[-88.12027,45.83194],[-88.125275,45.814438],[-88.118332,45.805267],[-88.073059,45.787216],[-87.900833,45.759438],[-87.800278,45.684158],[-87.803604,45.501389],[-87.823624,45.470825],[-87.87027,45.442215],[-87.880829,45.366386],[-87.861389,45.352219],[-87.75528,45.363052],[-87.701401,45.293884],[-87.726944,45.243881],[-87.735001,45.18721],[-87.66333,45.122215],[-87.648621,45.116936],[-87.437157,45.07106],[-87.404282,45.192963],[-87.276657,45.255795],[-87.162872,45.360806],[-87.088478,45.444977],[-86.758598,45.441422],[-86.242455,45.233833],[-86.466095,45.086903],[-86.573372,44.997925],[-86.643539,44.926369],[-86.711105,44.836014],[-86.834091,44.591606],[-86.995514,44.182449],[-87.071732,43.940952],[-87.100845,43.835785],[-87.133186,43.671486],[-87.157303,43.41103],[-87.145653,43.272915],[-87.030434,42.64534],[-87.021194,42.485264]]]}}
