{"type":"Feature","properties":{"mrgid":47705,"name":"Madagascar","placeType":"TDWG Terrestrial - level 3","source":"TDWG:level3"},"geometry":{"type":"MultiPolygon","coordinates":[[[[49.939674,-16.907494],[50.010574,-16.725593],[49.961674,-16.759694],[49.860574,-16.913894],[49.818074,-17.039494],[49.819974,-17.088294],[49.827174,-17.095294],[49.939674,-16.907494]]],[[[47.219674,-15.436694],[47.225874,-15.428594],[47.219474,-15.420794],[47.200574,-15.427494],[47.207774,-15.434494],[47.219674,-15.436694]]],[[[48.342474,-13.418094],[48.363374,-13.406694],[48.322174,-13.199994],[48.281374,-13.196694],[48.266374,-13.202494],[48.196674,-13.269994],[48.192174,-13.338094],[48.205574,-13.391394],[48.224474,-13.406094],[48.342474,-13.418094]]],[[[49.604474,-12.626394],[49.605874,-12.614194],[49.595874,-12.609994],[49.594474,-12.623594],[49.604474,-12.626394]]],[[[49.356974,-12.090794],[49.297174,-11.964494],[49.274474,-11.947794],[49.258374,-11.945594],[49.220874,-11.978094],[49.157174,-12.053894],[49.129474,-12.103594],[49.189474,-12.125594],[49.191074,-12.163494],[49.164474,-12.238094],[49.096674,-12.280594],[49.063874,-12.276694],[48.980574,-12.341394],[48.969174,-12.357794],[48.948074,-12.482794],[48.907174,-12.495794],[48.879174,-12.455294],[48.870274,-12.423094],[48.850874,-12.413294],[48.766374,-12.399194],[48.730874,-12.434194],[48.782174,-12.465794],[48.879674,-12.573094],[48.902474,-12.673894],[48.959474,-12.822194],[48.949174,-12.876994],[48.918074,-12.956094],[48.897174,-12.976994],[48.823874,-13.119994],[48.798374,-13.354194],[48.739674,-13.427194],[48.721374,-13.423094],[48.665574,-13.449194],[48.536974,-13.425594],[48.500574,-13.444194],[48.503874,-13.515594],[48.425574,-13.525294],[48.341074,-13.547494],[48.335274,-13.565294],[48.355874,-13.607194],[48.335574,-13.773094],[48.287174,-13.808094],[48.241974,-13.804494],[48.179974,-13.754194],[48.152774,-13.600794],[48.063374,-13.518094],[48.030874,-13.514694],[48.023074,-13.520794],[48.047774,-13.549994],[48.019674,-13.581094],[47.955574,-13.592194],[47.922474,-13.585594],[47.905274,-13.596394],[47.872474,-13.776694],[47.883574,-13.826994],[47.910574,-13.897494],[48.021074,-13.956094],[48.023074,-13.964994],[47.983074,-13.994694],[47.946374,-13.996694],[47.941974,-14.006394],[47.994674,-14.051694],[48.041074,-14.068894],[48.052474,-14.106094],[48.048374,-14.155594],[48.003074,-14.322794],[47.980874,-14.324494],[47.971374,-14.306694],[47.974474,-14.284694],[48.016674,-14.147494],[47.995874,-14.125794],[47.945874,-14.098294],[47.925574,-14.088894],[47.904474,-14.092794],[47.904174,-14.101094],[47.942474,-14.133894],[47.949374,-14.181094],[47.927774,-14.253894],[47.875274,-14.252194],[47.826074,-14.230794],[47.778874,-14.261394],[47.717774,-14.346994],[47.699474,-14.420594],[47.720874,-14.558294],[47.746374,-14.602794],[47.919174,-14.569194],[47.941074,-14.575794],[48.006974,-14.622794],[48.017174,-14.639494],[48.022474,-14.715794],[48.001674,-14.765594],[47.992474,-14.768894],[47.987474,-14.759994],[47.998874,-14.686694],[47.978574,-14.625794],[47.811274,-14.603894],[47.698574,-14.683594],[47.643574,-14.778094],[47.566974,-14.950294],[47.491974,-15.076694],[47.427174,-15.110594],[47.416674,-15.106994],[47.409174,-15.086994],[47.412474,-14.971394],[47.436074,-14.925294],[47.494974,-14.857794],[47.506374,-14.826994],[47.500874,-14.711694],[47.465574,-14.663594],[47.454974,-14.665294],[47.341674,-14.777794],[47.285474,-14.852894],[47.310574,-14.912494],[47.111974,-15.111994],[47.058374,-15.184994],[47.059674,-15.223294],[47.111974,-15.305594],[47.196074,-15.401394],[47.212174,-15.413294],[47.235674,-15.412894],[47.223574,-15.448494],[47.180774,-15.458794],[47.128974,-15.445194],[47.093074,-15.479694],[47.042174,-15.493594],[46.959474,-15.558094],[46.962174,-15.502194],[47.007174,-15.405794],[47.048374,-15.376394],[47.076374,-15.334494],[46.968374,-15.202194],[46.947174,-15.198894],[46.880274,-15.230594],[46.705274,-15.364694],[46.473574,-15.498094],[46.338374,-15.624694],[46.312774,-15.674694],[46.304474,-15.717194],[46.375574,-15.833894],[46.413074,-15.853894],[46.447174,-15.885794],[46.477174,-15.966094],[46.331074,-15.977194],[46.302174,-15.961094],[46.279974,-15.932494],[46.246674,-15.846994],[46.235574,-15.806094],[46.246074,-15.759694],[46.232474,-15.714194],[46.201974,-15.704994],[46.151374,-15.703594],[46.079674,-15.732194],[46.027774,-15.775294],[46.006374,-15.804494],[46.003374,-15.813294],[46.011374,-15.823894],[46.048874,-15.788894],[46.070574,-15.784194],[46.072474,-15.861094],[46.063574,-15.871994],[45.964974,-15.853294],[45.951974,-15.835294],[45.957474,-15.783894],[45.921374,-15.772494],[45.878374,-15.782194],[45.826074,-15.814694],[45.716674,-15.791694],[45.643874,-15.883094],[45.627474,-16.036693],[45.617774,-16.057494],[45.573374,-16.034494],[45.594174,-15.987494],[45.572474,-15.949194],[45.390574,-15.973294],[45.368374,-15.978894],[45.365874,-15.987794],[45.388574,-16.033894],[45.401074,-16.026694],[45.411074,-16.031094],[45.412774,-16.041394],[45.395574,-16.066993],[45.326974,-16.110294],[45.298574,-16.117794],[45.288574,-16.100294],[45.293574,-16.055594],[45.277174,-15.943094],[45.264974,-15.927494],[45.136674,-15.996394],[45.034474,-16.120593],[44.873574,-16.210293],[44.803074,-16.199693],[44.507174,-16.183294],[44.500274,-16.176394],[44.460274,-16.183894],[44.442774,-16.203894],[44.397174,-16.346093],[44.404474,-16.382793],[44.458574,-16.466694],[44.466074,-16.495794],[44.437774,-16.692193],[44.383374,-16.763893],[44.346074,-16.796994],[44.137774,-17.176394],[43.964174,-17.421094],[43.937174,-17.479494],[43.924474,-17.600794],[43.988074,-17.683594],[44.031374,-17.756994],[44.026974,-17.846994],[44.013574,-17.877494],[44.001074,-17.948594],[44.011974,-18.056394],[44.043574,-18.201394],[44.035874,-18.412494],[44.158874,-18.582194],[44.231074,-18.741094],[44.256974,-18.820594],[44.261674,-18.853094],[44.249474,-18.957194],[44.247774,-18.966094],[44.231374,-18.973594],[44.231374,-19.081094],[44.261974,-19.139994],[44.336374,-19.229994],[44.425574,-19.357794],[44.469174,-19.438294],[44.482174,-19.531694],[44.476074,-19.542494],[44.442174,-19.548294],[44.369974,-19.772194],[44.399674,-19.832494],[44.440274,-19.845594],[44.470574,-19.872794],[44.482174,-19.970294],[44.437474,-20.068594],[44.361074,-20.128594],[44.340274,-20.157194],[44.176074,-20.441994],[44.079474,-20.651994],[44.036074,-20.723894],[44.015274,-20.745794],[43.991974,-20.743594],[43.968074,-20.764194],[43.911674,-20.849994],[43.878874,-20.945794],[43.875574,-21.008894],[43.841074,-21.156994],[43.808574,-21.225294],[43.776674,-21.264694],[43.741074,-21.286094],[43.698874,-21.271994],[43.579674,-21.280594],[43.500574,-21.333894],[43.478374,-21.383294],[43.466074,-21.463294],[43.472174,-21.672494],[43.452474,-21.662194],[43.431074,-21.663894],[43.334174,-21.758594],[43.328074,-21.846394],[43.314474,-21.882794],[43.279174,-21.908294],[43.236874,-22.068794],[43.260874,-22.213294],[43.238874,-22.282494],[43.361974,-22.852794],[43.492774,-23.008094],[43.588074,-23.078294],[43.596974,-23.099194],[43.606974,-23.278094],[43.630574,-23.347494],[43.745274,-23.443094],[43.759474,-23.463594],[43.745874,-23.581694],[43.652174,-23.619494],[43.636374,-23.657794],[43.624974,-23.761694],[43.648874,-23.809994],[43.662174,-23.868594],[43.664174,-24.311394],[43.691674,-24.384494],[43.711974,-24.417194],[43.755574,-24.456394],[43.834474,-24.505294],[43.905874,-24.598894],[43.931374,-24.668294],[43.913374,-24.722494],[43.917774,-24.741094],[43.953874,-24.810794],[44.005274,-24.880294],[44.021974,-24.944494],[44.017174,-24.985294],[44.032174,-25.004494],[44.108374,-25.061694],[44.139674,-25.053894],[44.174674,-25.064694],[44.401974,-25.193294],[44.411974,-25.211694],[44.389174,-25.232794],[44.323074,-25.167494],[44.293374,-25.157794],[44.355874,-25.255594],[44.522174,-25.286394],[44.711374,-25.303894],[44.782474,-25.321094],[45.098074,-25.520794],[45.129474,-25.553094],[45.214674,-25.588294],[45.462474,-25.578294],[45.550274,-25.562194],[45.653374,-25.509194],[45.739174,-25.436094],[45.923074,-25.328894],[46.290874,-25.186094],[46.413374,-25.161694],[46.503074,-25.161694],[46.646674,-25.191694],[46.719474,-25.171394],[47.094474,-24.973894],[47.133074,-24.928094],[47.131374,-24.841394],[47.198574,-24.741394],[47.303374,-24.503894],[47.339474,-24.306094],[47.426174,-24.124094],[47.498074,-24.014994],[47.575874,-23.839194],[47.628874,-23.561694],[47.712474,-23.339694],[47.759674,-23.138294],[47.837174,-22.867194],[47.864674,-22.669494],[47.908074,-22.461994],[48.015274,-22.191094],[48.217774,-21.744994],[48.370574,-21.292194],[48.456374,-20.985594],[48.521074,-20.697494],[48.616674,-20.388094],[48.759174,-20.091094],[48.813074,-19.933094],[48.875574,-19.628294],[48.996374,-19.356394],[49.024974,-19.215794],[49.066374,-19.088094],[49.143874,-18.940294],[49.231374,-18.703894],[49.304174,-18.537194],[49.368374,-18.351394],[49.384174,-18.213894],[49.414474,-18.072494],[49.501074,-17.771094],[49.510274,-17.711394],[49.475274,-17.486994],[49.453074,-17.410794],[49.421674,-17.362494],[49.422774,-17.315794],[49.531674,-17.046394],[49.596974,-16.908594],[49.628074,-16.889694],[49.788574,-16.830294],[49.743074,-16.796094],[49.720874,-16.756994],[49.717474,-16.723894],[49.724174,-16.705793],[49.753874,-16.689694],[49.791974,-16.651394],[49.845874,-16.565794],[49.863074,-16.455294],[49.853874,-16.424194],[49.834474,-16.416394],[49.824974,-16.347794],[49.853574,-16.226993],[49.836074,-16.197194],[49.816974,-16.181994],[49.769174,-16.152194],[49.729674,-16.145594],[49.709674,-16.127494],[49.682474,-16.059493],[49.687774,-16.009994],[49.734474,-15.908594],[49.657474,-15.681994],[49.633574,-15.557494],[49.676974,-15.488294],[49.720574,-15.447494],[49.751374,-15.435794],[49.866074,-15.432494],[49.902174,-15.468294],[49.903874,-15.561094],[50.026674,-15.798294],[50.033874,-15.866994],[50.104474,-15.923094],[50.137974,-15.927494],[50.172774,-15.979694],[50.240874,-15.968894],[50.299674,-15.873594],[50.433574,-15.579994],[50.501374,-15.322794],[50.496774,-15.249494],[50.483874,-15.203894],[50.433574,-15.145794],[50.337474,-14.998594],[50.271974,-14.826094],[50.199974,-14.570294],[50.190874,-14.431094],[50.216974,-14.304194],[50.205574,-14.273894],[50.174674,-14.249194],[50.159974,-14.221694],[50.176074,-14.061994],[50.144174,-13.988894],[50.148374,-13.820294],[50.101974,-13.627494],[50.066674,-13.541694],[50.037774,-13.513294],[50.038074,-13.463894],[50.024674,-13.449494],[49.979474,-13.346694],[49.943574,-13.224494],[49.933374,-13.181094],[49.947174,-13.086694],[49.943374,-13.039494],[49.900274,-12.958294],[49.798074,-12.816094],[49.653574,-12.701994],[49.598574,-12.648294],[49.570574,-12.648794],[49.562374,-12.618294],[49.574574,-12.599894],[49.574874,-12.565094],[49.596674,-12.532494],[49.595574,-12.507794],[49.543874,-12.384494],[49.518374,-12.345794],[49.428574,-12.282794],[49.366374,-12.262494],[49.364174,-12.293294],[49.346374,-12.303294],[49.274474,-12.285594],[49.232474,-12.224994],[49.240574,-12.172294],[49.251974,-12.148094],[49.261974,-12.143894],[49.325574,-12.157494],[49.371974,-12.207194],[49.356974,-12.090794]]]]}}
