{"type":"Feature","properties":{"mrgid":47719,"name":"Marianas","placeType":"TDWG Terrestrial - level 3","source":"TDWG:level3"},"geometry":{"type":"MultiPolygon","coordinates":[[[[144.709445,13.235005],[144.736945,13.248305],[144.756145,13.276405],[144.768345,13.377805],[144.786145,13.420305],[144.870545,13.478305],[144.904645,13.511705],[144.953345,13.584205],[144.947745,13.598905],[144.875245,13.653605],[144.850545,13.644205],[144.834645,13.626105],[144.816945,13.563605],[144.795845,13.524205],[144.762245,13.496905],[144.702445,13.468305],[144.655245,13.427805],[144.634145,13.352205],[144.644945,13.292205],[144.680545,13.246905],[144.709445,13.235005]]],[[[145.281645,14.158305],[145.289745,14.177805],[145.284945,14.195005],[145.237145,14.195005],[145.130245,14.145805],[145.119945,14.122505],[145.132145,14.114405],[145.147245,14.126405],[145.170545,14.123905],[145.206345,14.105305],[145.281645,14.158305]]],[[[145.563845,14.833605],[145.570245,14.845005],[145.529645,14.848305],[145.523545,14.829205],[145.563845,14.833605]]],[[[145.624145,14.908005],[145.639945,14.919205],[145.662745,14.976705],[145.647445,15.069405],[145.633045,15.083905],[145.572245,15.010005],[145.607745,14.917205],[145.624145,14.908005]]],[[[145.736045,15.133605],[145.793545,15.236705],[145.820245,15.257205],[145.818045,15.265805],[145.795545,15.269205],[145.731045,15.238905],[145.695545,15.178005],[145.679145,15.105305],[145.734645,15.087205],[145.736045,15.133605]]],[[[145.696945,16.336105],[145.714145,16.345805],[145.714645,16.355805],[145.700245,16.368305],[145.634445,16.376105],[145.626845,16.370305],[145.626845,16.353005],[145.634445,16.340505],[145.696945,16.336105]]],[[[145.798345,16.680305],[145.801645,16.700505],[145.785245,16.708605],[145.774945,16.705305],[145.770845,16.690805],[145.779145,16.678905],[145.798345,16.680305]]],[[[145.860745,17.287205],[145.867445,17.304205],[145.840245,17.317205],[145.841345,17.292505],[145.860745,17.287205]]],[[[145.860745,17.567805],[145.870245,17.578005],[145.865545,17.598305],[145.849145,17.608905],[145.833845,17.605005],[145.824445,17.594405],[145.824445,17.577505],[145.860745,17.567805]]],[[[145.736045,18.043905],[145.828545,18.117505],[145.836645,18.142205],[145.824445,18.163005],[145.788045,18.175505],[145.779145,18.170805],[145.716645,18.054405],[145.724145,18.041905],[145.736045,18.043905]]],[[[145.679145,18.721405],[145.703845,18.737205],[145.710545,18.768305],[145.688045,18.802505],[145.663345,18.810305],[145.648845,18.785005],[145.643345,18.751405],[145.657245,18.725305],[145.679145,18.721405]]],[[[145.405845,19.652805],[145.417245,19.661105],[145.415245,19.677205],[145.405845,19.687505],[145.389145,19.688905],[145.378845,19.679205],[145.381645,19.663905],[145.405845,19.652805]]],[[[145.256945,20.010805],[145.273345,20.023605],[145.273545,20.036405],[145.242145,20.052205],[145.230245,20.043605],[145.227445,20.021905],[145.238845,20.011405],[145.256945,20.010805]]],[[[144.921045,20.518305],[144.934945,20.544205],[144.913645,20.556405],[144.899145,20.526105],[144.921045,20.518305]]]]}}
