{"type":"Feature","properties":{"mrgid":47791,"name":"Réunion","placeType":"TDWG Terrestrial - level 3","source":"TDWG:level3"},"geometry":{"type":"Polygon","coordinates":[[[55.709999,-20.998058],[55.702774,-20.955002],[55.662498,-20.903614],[55.448883,-20.856392],[55.405273,-20.868893],[55.294441,-20.921669],[55.219719,-21.027779],[55.229721,-21.076389],[55.293327,-21.20639],[55.34333,-21.268612],[55.427773,-21.3125],[55.533333,-21.354725],[55.674164,-21.37389],[55.793327,-21.349724],[55.821106,-21.328892],[55.85305,-21.168613],[55.849159,-21.131668],[55.783607,-21.103336],[55.744995,-21.057503],[55.709999,-20.998058]]]}}
