{"type":"Feature","properties":{"mrgid":47854,"name":"Tuva","placeType":"TDWG Terrestrial - level 3","source":"TDWG:level3"},"geometry":{"type":"Polygon","coordinates":[[[89.6427,49.904831],[89.673035,49.924713],[89.726379,49.940544],[89.802765,49.951103],[89.900269,49.948044],[89.98526,49.972214],[90.011383,49.98333],[90.021103,49.996384],[90.02388,50.054436],[90.051376,50.082497],[90.103592,50.098877],[90.244431,50.12027],[90.378586,50.185822],[90.50972,50.224434],[90.557755,50.226097],[90.643326,50.211937],[90.698593,50.219437],[90.893051,50.339157],[90.959152,50.396103],[91.002487,50.422493],[91.049423,50.435265],[91.159714,50.433876],[91.351089,50.476097],[91.458038,50.507774],[91.624146,50.582497],[91.658875,50.637215],[91.772217,50.689987],[91.905548,50.714714],[91.952209,50.714439],[92.111923,50.690544],[92.221375,50.705551],[92.284988,50.740829],[92.316086,50.78833],[92.322769,50.814995],[92.447754,50.810822],[92.472763,50.785271],[92.660812,50.681664],[92.698868,50.683052],[92.760269,50.712494],[92.779709,50.738884],[92.785263,50.778046],[92.802765,50.79361],[92.928864,50.799995],[92.974991,50.791107],[92.994705,50.776657],[92.999146,50.751389],[92.974991,50.697212],[92.971024,50.666489],[93.019714,50.613052],[93.112762,50.5961],[93.341507,50.604744],[93.448868,50.62249],[93.578049,50.590271],[93.726929,50.57972],[93.983047,50.585266],[94.218872,50.577774],[94.274994,50.569443],[94.30304,50.546104],[94.352203,50.414993],[94.358322,50.301659],[94.389984,50.214439],[94.424423,50.188881],[94.510818,50.164993],[94.622757,50.029991],[94.635269,50.024437],[94.709152,50.033333],[94.789154,50.058327],[94.976089,50.056099],[95.066086,49.961937],[95.422485,49.9561],[95.49157,49.907696],[95.529434,49.893326],[95.742203,49.957214],[95.758606,49.966934],[95.789154,50.006386],[95.817215,50.021935],[95.855545,50.0261],[95.907211,50.01416],[95.931366,49.966385],[95.960266,49.944153],[95.99054,49.952774],[96.034714,49.991379],[96.074432,50.006943],[96.294434,49.946655],[96.328873,49.913879],[96.37915,49.893608],[96.415543,49.896942],[96.49498,49.928604],[96.547485,49.925827],[96.571655,49.907494],[96.592484,49.864998],[96.618591,49.864159],[96.694427,49.911659],[96.722488,49.921104],[96.996933,49.894157],[97.144989,49.801384],[97.169434,49.761665],[97.277481,49.733604],[97.356094,49.738602],[97.484146,49.787498],[97.559982,49.826942],[97.594986,49.851387],[97.607483,49.88221],[97.719147,49.95166],[97.786102,49.969154],[97.812195,49.959435],[97.890823,49.955551],[98.107208,50.048882],[98.195816,50.157211],[98.289703,50.293884],[98.328354,50.471169],[98.325546,50.510826],[98.315262,50.531937],[98.274429,50.560547],[98.160812,50.571381],[98.063309,50.630547],[97.963882,50.778328],[97.968048,50.801102],[98.012772,50.839714],[98.013046,50.855827],[97.945526,50.907211],[97.877472,50.929718],[97.827774,51.001106],[97.87886,51.060822],[97.908875,51.119438],[97.958603,51.22332],[97.952774,51.26194],[97.997757,51.373604],[98.05307,51.460953],[98.085938,51.474213],[98.137924,51.479515],[98.194702,51.462212],[98.232346,51.459892],[98.259995,51.515831],[98.248032,51.581108],[98.315262,51.704163],[98.34137,51.7211],[98.3936,51.736938],[98.62442,51.779991],[98.688873,51.813324],[98.765274,51.884438],[98.869431,52.038605],[98.881088,52.114159],[98.907211,52.137497],[98.948868,52.145271],[98.933594,52.19249],[98.807205,52.274437],[98.733597,52.294441],[98.700272,52.289162],[98.640823,52.406937],[98.650818,52.428329],[98.804977,52.512215],[98.828049,52.534439],[98.782761,52.573326],[98.804153,52.611664],[98.896942,52.645828],[98.917755,52.641937],[98.93248,52.654434],[98.940811,52.797218],[98.922211,52.801102],[98.865265,52.791664],[98.853592,52.80471],[98.847214,52.837769],[98.931091,52.924995],[98.947205,52.929161],[98.986374,52.923325],[99.016388,52.900269],[99.06192,52.884163],[99.177475,52.861382],[99.217758,52.872765],[99.213043,52.911377],[99.249969,52.953781],[99.11998,52.984993],[98.985535,53.034439],[98.981094,53.044441],[98.99498,53.066101],[99.063599,53.092216],[99.065262,53.102493],[98.923599,53.153877],[98.660263,53.144714],[98.554977,53.11055],[98.359711,53.088326],[98.299988,53.100548],[98.283875,53.129715],[98.279984,53.189713],[98.30304,53.211937],[98.285812,53.227211],[98.181091,53.247215],[98.094986,53.252777],[97.96666,53.307213],[97.914429,53.351662],[97.733597,53.383881],[97.650543,53.368599],[97.599716,53.371376],[97.583878,53.388603],[97.591934,53.422493],[97.587494,53.438881],[97.559708,53.450829],[97.436371,53.470268],[97.302475,53.588043],[97.224991,53.598045],[97.056091,53.652489],[96.886658,53.728874],[96.807205,53.725548],[96.71582,53.699997],[96.684143,53.638603],[96.701386,53.609718],[96.647491,53.54805],[96.573883,53.532768],[96.428314,53.535553],[96.351089,53.560272],[96.380814,53.5961],[96.296646,53.615829],[96.233597,53.616104],[96.21582,53.57444],[96.222214,53.558884],[96.204163,53.533333],[96.113602,53.458603],[96.085815,53.448326],[95.791931,53.493881],[95.77388,53.516663],[95.752777,53.522766],[95.661377,53.489433],[95.641373,53.457497],[95.622208,53.448326],[95.393326,53.369156],[95.346375,53.366661],[95.292206,53.403046],[95.290543,53.445824],[95.251938,53.458603],[95.203598,53.455269],[95.146942,53.40416],[95.051926,53.372765],[95.006104,53.378044],[94.97998,53.409431],[94.7397,53.385269],[94.582489,53.310822],[94.589706,53.29055],[94.677475,53.280823],[94.704712,53.233047],[94.600815,53.178329],[94.583328,53.089157],[94.607758,53.04583],[94.519989,52.911659],[94.439423,52.887772],[94.395264,52.914993],[94.286377,52.902489],[94.137497,52.835266],[94.143326,52.805267],[94.138321,52.754715],[94.068878,52.662766],[93.973877,52.619438],[93.848038,52.50222],[93.760818,52.438324],[93.688873,52.316101],[93.67276,52.213608],[93.596939,52.178329],[93.437195,52.165268],[93.352478,52.128601],[93.126648,52.012497],[93.09082,51.956383],[93.047211,51.928047],[93.008881,51.917213],[92.944977,51.918053],[92.795258,51.852219],[92.520264,51.784439],[92.484421,51.781662],[92.441925,51.803879],[92.263321,51.818329],[92.096649,51.781937],[91.986923,51.793327],[91.926086,51.811661],[91.90332,51.844711],[91.882202,51.859161],[91.782761,51.873604],[91.725815,51.861664],[91.617477,51.865829],[91.576386,51.895271],[91.54332,51.903046],[91.352478,51.897217],[91.231369,51.880821],[91.171646,51.890549],[91.113602,51.936935],[91.090546,51.943604],[90.883606,51.916664],[90.814987,51.963608],[90.737762,52.073326],[90.576096,52.113884],[90.544434,52.129158],[90.491493,52.181973],[90.397491,52.180824],[90.291931,52.165268],[90.189148,52.134163],[90.024155,51.979713],[90.06192,51.829437],[90.107758,51.762772],[90.106094,51.751106],[90.074158,51.736656],[90.045258,51.734436],[89.964432,51.762497],[89.951935,51.760826],[89.825272,51.673882],[89.73526,51.581383],[89.586105,51.551102],[89.549423,51.559715],[89.483597,51.597214],[89.419144,51.608047],[89.334152,51.596657],[89.293594,51.553604],[89.256104,51.546387],[89.215271,51.568329],[89.213882,51.594154],[89.223038,51.621933],[89.171921,51.649994],[89.139709,51.633606],[88.993866,51.590828],[88.8022,51.574715],[88.735855,51.559479],[88.825821,51.516663],[88.967758,51.430824],[88.973877,51.411377],[88.945526,51.348045],[88.942749,51.232765],[89.06694,51.047218],[89.187759,50.975822],[89.472763,50.778046],[89.66304,50.602776],[89.804153,50.558601],[89.859146,50.513886],[89.869141,50.474709],[89.844147,50.429436],[89.818054,50.41777],[89.643051,50.383606],[89.612198,50.387215],[89.616928,50.414154],[89.602478,50.431381],[89.541367,50.464996],[89.505829,50.470268],[89.49498,50.411659],[89.329712,50.209435],[89.399719,50.184715],[89.414993,50.186104],[89.424988,50.197769],[89.518051,50.189713],[89.558868,50.105827],[89.568878,50.06694],[89.584152,49.928879],[89.590546,49.919991],[89.6427,49.904831]]]}}
