{"type":"Feature","properties":{"mrgid":47927,"name":"Entre Ríos","placeType":"TDWG Terrestrial - level 4","source":"TDWG:level4"},"geometry":{"type":"Polygon","coordinates":[[[-60.294411,-33.256744],[-60.223892,-33.293617],[-60.115562,-33.395561],[-60.054726,-33.436111],[-59.963058,-33.486946],[-59.853889,-33.532501],[-59.813896,-33.561951],[-59.787506,-33.600563],[-59.759445,-33.619171],[-59.612267,-33.68309],[-59.592308,-33.68309],[-59.552223,-33.65889],[-59.514297,-33.652245],[-59.439728,-33.727226],[-59.413338,-33.740837],[-59.234909,-33.799202],[-59.100281,-33.829727],[-59.03167,-33.83223],[-58.94445,-33.873611],[-58.734901,-33.99334],[-58.648338,-34.052223],[-58.590897,-34.054161],[-58.523895,-34.020561],[-58.448242,-34.01046],[-58.439446,-33.969727],[-58.460007,-33.858063],[-58.536949,-33.763893],[-58.547501,-33.733337],[-58.549446,-33.660561],[-58.531952,-33.516945],[-58.508614,-33.411949],[-58.455559,-33.335556],[-58.426674,-33.261948],[-58.430283,-33.101395],[-58.416389,-33.08445],[-58.398056,-33.080559],[-58.194168,-33.092506],[-58.161667,-33.075279],[-58.147224,-33.051674],[-58.150558,-32.944168],[-58.225006,-32.565834],[-58.223335,-32.49556],[-58.214447,-32.466667],[-58.173889,-32.399445],[-58.135284,-32.354172],[-58.101112,-32.328056],[-58.099167,-32.259171],[-58.162781,-32.196671],[-58.18306,-32.160599],[-58.179451,-32.128891],[-58.153618,-32.086945],[-58.145561,-31.995834],[-58.162506,-31.944725],[-58.203613,-31.89167],[-58.190285,-31.86639],[-58.162224,-31.841114],[-58.063614,-31.8125],[-58.032784,-31.775837],[-57.983894,-31.628613],[-57.977226,-31.577225],[-58.006668,-31.528614],[-58.074173,-31.488056],[-58.07917,-31.461391],[-57.991394,-31.406391],[-57.919449,-31.268612],[-57.795837,-30.876946],[-57.806396,-30.748219],[-57.866951,-30.711391],[-57.9925,-30.598335],[-58.049446,-30.489445],[-58.118057,-30.387222],[-58.244171,-30.237782],[-58.573059,-30.155834],[-58.616394,-30.15139],[-58.684723,-30.163334],[-58.784729,-30.211113],[-58.864174,-30.227501],[-58.916389,-30.224167],[-58.979729,-30.205833],[-59.030281,-30.206112],[-59.127785,-30.264168],[-59.152229,-30.300003],[-59.241394,-30.343613],[-59.328896,-30.313335],[-59.396667,-30.305557],[-59.503334,-30.30917],[-59.579727,-30.335835],[-59.65094,-30.337788],[-59.580002,-30.438057],[-59.576118,-30.588337],[-59.585838,-30.640003],[-59.738335,-30.87278],[-59.982224,-31.198334],[-60.043892,-31.24139],[-60.067505,-31.278336],[-60.10778,-31.37389],[-60.150002,-31.431393],[-60.346947,-31.625557],[-60.434723,-31.695557],[-60.589729,-31.708889],[-60.628059,-31.718056],[-60.648613,-31.735279],[-60.708893,-32.15834],[-60.678612,-32.323334],[-60.723335,-32.417229],[-60.744446,-32.489723],[-60.741112,-32.610001],[-60.705833,-32.796394],[-60.688339,-32.852783],[-60.535278,-33.110001],[-60.353889,-33.188057],[-60.294411,-33.256744]]]}}
