{"type":"Feature","properties":{"mrgid":47923,"name":"Chaco","placeType":"TDWG Terrestrial - level 4","source":"TDWG:level4"},"geometry":{"type":"Polygon","coordinates":[[[-58.856918,-27.999367],[-58.855003,-27.93528],[-58.827225,-27.858059],[-58.81778,-27.73278],[-58.838058,-27.56028],[-58.856674,-27.505001],[-58.855835,-27.479725],[-58.750282,-27.389446],[-58.659729,-27.350281],[-58.604622,-27.316921],[-58.598892,-27.245003],[-58.655731,-27.191612],[-58.652779,-27.158337],[-58.628059,-27.131111],[-58.564171,-27.1175],[-58.469543,-26.981468],[-58.394447,-26.908058],[-58.352768,-26.885387],[-58.466949,-26.828892],[-58.546669,-26.743336],[-58.667778,-26.637779],[-58.871948,-26.498611],[-58.929169,-26.428059],[-58.968056,-26.394447],[-59.08445,-26.354446],[-59.206673,-26.326389],[-59.270004,-26.348335],[-59.353058,-26.33889],[-59.390007,-26.310001],[-59.409447,-26.240837],[-59.410561,-26.194725],[-59.431946,-26.172779],[-59.454445,-26.164169],[-59.572227,-26.157501],[-59.663338,-26.133892],[-59.671951,-26.122223],[-59.698334,-26.013615],[-59.868614,-25.815281],[-60.02639,-25.730278],[-60.17778,-25.670002],[-60.221672,-25.590557],[-60.232506,-25.53389],[-60.225281,-25.52],[-60.23584,-25.495834],[-60.300003,-25.444447],[-60.39473,-25.345001],[-60.502785,-25.20639],[-60.668892,-25.140278],[-60.805283,-25.073059],[-61.038338,-24.894726],[-61.053062,-24.898056],[-61.103058,-24.838058],[-61.146393,-24.7425],[-61.217224,-24.65889],[-61.448334,-24.622501],[-61.551392,-24.531113],[-61.654167,-24.487225],[-61.702782,-24.406113],[-61.809723,-24.339169],[-61.894173,-24.322781],[-61.990837,-24.264168],[-62.33931,-24.118126],[-62.33445,-24.403057],[-63.398506,-25.659412],[-61.715836,-25.661945],[-61.709999,-28.000557],[-58.856918,-27.999367]]]}}
