{"type":"Feature","properties":{"mrgid":47939,"name":"La Rioja","placeType":"TDWG Terrestrial - level 4","source":"TDWG:level4"},"geometry":{"type":"Polygon","coordinates":[[[-65.127609,-30.05933],[-65.75528,-29.401669],[-65.755005,-29.314724],[-65.810837,-29.224167],[-66.126404,-28.967224],[-66.203903,-28.925282],[-66.329727,-28.877502],[-66.361954,-28.855835],[-66.382507,-28.821392],[-66.393616,-28.706947],[-66.498901,-28.493614],[-66.54306,-28.449722],[-66.579849,-28.429756],[-66.948334,-28.292778],[-67.013626,-28.279446],[-67.043335,-28.284447],[-67.089737,-28.336113],[-67.136398,-28.353058],[-67.361389,-28.337223],[-67.39917,-28.295559],[-67.51001,-28.233334],[-67.534454,-28.243057],[-67.613617,-28.354168],[-67.641113,-28.378891],[-67.676956,-28.384167],[-67.791397,-28.359447],[-67.841125,-28.339725],[-67.909729,-28.257778],[-67.924454,-28.219723],[-67.933624,-28.161114],[-68.017792,-28.130001],[-68.138062,-28.115002],[-68.217789,-28.08667],[-68.365845,-28.012222],[-68.436111,-28.007778],[-68.448059,-27.980003],[-68.448898,-27.850559],[-68.427505,-27.771389],[-68.431671,-27.750557],[-68.443344,-27.740002],[-68.50473,-27.735558],[-68.742233,-27.760834],[-68.782227,-27.7775],[-68.866959,-27.795834],[-69.120529,-27.774261],[-69.155289,-27.902779],[-69.185837,-27.965836],[-69.200562,-27.975002],[-69.267792,-27.98167],[-69.300293,-27.999447],[-69.340012,-28.109169],[-69.355286,-28.133057],[-69.53389,-28.315834],[-69.65538,-28.400932],[-69.441116,-28.465],[-69.341125,-28.480278],[-69.156403,-28.619167],[-69.126404,-28.690281],[-69.109726,-28.772503],[-68.916672,-28.922779],[-68.890564,-29.103615],[-68.908066,-29.17889],[-68.924454,-29.192223],[-68.954453,-29.189724],[-68.958893,-29.26778],[-69.02417,-29.548336],[-69.019455,-29.621948],[-68.984451,-29.636391],[-68.829453,-29.635559],[-68.75473,-29.610836],[-68.687225,-29.602222],[-68.470001,-29.650837],[-68.380005,-29.680279],[-68.314178,-29.713337],[-68.039185,-29.910015],[-68.010239,-29.969086],[-67.905563,-30.060001],[-67.861679,-30.08139],[-67.625839,-30.255001],[-67.586945,-30.303337],[-67.561111,-30.388615],[-67.43779,-30.499168],[-67.378616,-30.540836],[-67.265015,-30.68],[-67.191956,-30.71389],[-67.08139,-30.896114],[-67.128891,-31.037502],[-67.060013,-31.081947],[-67.107788,-31.358059],[-67.047791,-31.528614],[-66.959732,-31.60667],[-66.851852,-31.672989],[-66.771957,-31.789345],[-66.730484,-31.876579],[-66.668625,-31.882778],[-66.576675,-31.918335],[-66.37001,-31.936947],[-66.229172,-31.928059],[-66.093338,-31.878891],[-66.012222,-31.867226],[-65.976669,-31.874447],[-65.928345,-31.89917],[-65.869614,-31.90559],[-65.759628,-31.885464],[-65.767227,-31.061668],[-65.661392,-30.799168],[-65.523071,-30.39975],[-65.492783,-30.370834],[-65.401947,-30.140278],[-65.146118,-30.076946],[-65.127609,-30.05933]]]}}
