{"type":"Feature","properties":{"mrgid":48091,"name":"Congo","placeType":"TDWG Terrestrial - level 4","source":"TDWG:level4"},"geometry":{"type":"Polygon","coordinates":[[[17.615274,3.629707],[17.563874,3.653307],[17.498374,3.708907],[17.475274,3.713007],[17.415974,3.680607],[17.346674,3.611107],[16.972174,3.547207],[16.960274,3.556107],[16.876674,3.565807],[16.699174,3.545307],[16.659674,3.533307],[16.588874,3.481907],[16.572174,3.444207],[16.560874,3.339207],[16.527774,3.234207],[16.482774,3.156707],[16.465874,2.922507],[16.470574,2.906907],[16.496074,2.884707],[16.501674,2.849407],[16.206374,2.216107],[16.163874,2.183307],[16.131974,2.198007],[16.104674,2.199707],[16.083874,2.158907],[16.083874,2.044707],[16.094174,1.952507],[16.162474,1.726707],[16.072174,1.654207],[16.039674,1.679207],[16.026074,1.730507],[15.978374,1.771107],[15.880574,1.820307],[15.757774,1.908907],[15.704174,1.930807],[15.646074,1.931407],[15.519174,1.961107],[15.486374,1.976407],[15.448374,1.968907],[15.296374,1.975007],[15.239174,2.029707],[15.211074,2.036106],[15.146374,2.037806],[15.104174,1.984407],[15.090574,1.977807],[15.029174,1.986907],[14.887174,2.016707],[14.856674,2.082806],[14.759174,2.072506],[14.714174,2.124207],[14.564974,2.169407],[14.463074,2.143007],[14.118574,2.158007],[13.293874,2.163607],[13.291074,2.077807],[13.279674,2.048007],[13.206974,1.977807],[13.184174,1.929207],[13.177174,1.880807],[13.194474,1.813007],[13.141974,1.703007],[13.132474,1.589207],[13.137474,1.568607],[13.156674,1.539707],[13.190274,1.510507],[13.246374,1.395507],[13.247774,1.325807],[13.221974,1.296407],[13.195274,1.292807],[13.175874,1.278007],[13.168574,1.255007],[13.186774,1.222507],[13.267774,1.224407],[13.300874,1.232207],[13.367774,1.275307],[13.573074,1.305807],[13.782774,1.388907],[13.803374,1.435807],[13.903574,1.438907],[14.073874,1.375307],[14.134974,1.395507],[14.188874,1.391407],[14.236074,1.363307],[14.273874,1.326407],[14.293374,1.256707],[14.293374,1.195307],[14.320574,1.106107],[14.425574,0.960507],[14.487174,0.913607],[14.473574,0.830807],[14.343574,0.618007],[14.273874,0.546707],[14.203074,0.535507],[14.137174,0.551407],[14.087474,0.537807],[13.957774,0.344207],[13.886974,0.214707],[13.885874,0.190007],[13.911374,0.112207],[13.949974,0.033307],[13.940274,-0.038094],[13.857474,-0.152794],[13.848374,-0.198594],[13.901674,-0.266694],[13.916674,-0.263594],[13.928074,-0.241094],[13.943074,-0.235294],[14.066374,-0.250294],[14.128874,-0.277794],[14.166074,-0.374194],[14.178574,-0.430594],[14.192474,-0.444694],[14.306674,-0.433294],[14.409174,-0.474694],[14.483574,-0.548094],[14.518574,-0.609194],[14.503574,-0.684994],[14.471374,-0.740294],[14.426974,-0.934994],[14.420274,-0.995294],[14.426374,-1.046993],[14.481974,-1.212794],[14.482474,-1.259994],[14.476974,-1.433294],[14.464674,-1.550594],[14.404474,-1.597794],[14.413874,-1.853294],[14.429674,-1.891694],[14.381674,-1.925294],[14.317174,-1.938094],[14.258374,-1.973094],[14.248874,-2.011394],[14.269474,-2.039493],[14.221374,-2.292794],[14.201674,-2.358594],[14.150874,-2.399694],[14.110874,-2.493094],[13.919174,-2.490794],[13.865874,-2.468894],[13.864474,-2.423094],[13.878874,-2.314694],[13.809474,-2.144494],[13.762174,-2.088894],[13.727174,-2.151094],[13.727174,-2.184194],[13.590274,-2.325794],[13.504674,-2.396994],[13.482774,-2.437494],[13.387474,-2.428294],[13.251674,-2.370794],[13.041374,-2.327794],[13.001474,-2.367694],[13.016674,-2.270294],[13.006374,-2.240294],[12.967474,-2.182494],[12.957774,-2.181394],[12.944174,-2.194994],[12.921374,-2.184194],[12.846674,-1.987494],[12.845274,-1.954494],[12.821374,-1.912794],[12.742674,-1.883694],[12.720574,-1.854494],[12.649974,-1.822494],[12.584974,-1.827194],[12.520574,-1.872494],[12.528074,-1.894994],[12.506974,-1.921694],[12.495274,-1.923894],[12.463574,-1.900594],[12.453274,-1.877594],[12.440274,-1.890794],[12.448074,-2.024494],[12.502174,-2.133894],[12.478074,-2.327194],[12.052474,-2.416994],[11.964174,-2.333294],[11.801674,-2.372194],[11.733374,-2.418894],[11.659174,-2.353894],[11.618074,-2.332494],[11.574174,-2.333294],[11.647474,-2.620794],[11.611974,-2.715794],[11.546074,-2.793894],[11.543374,-2.856994],[11.553074,-2.867794],[11.564674,-2.867194],[11.583074,-2.844694],[11.642774,-2.818094],[11.804474,-3.013094],[11.766074,-3.047194],[11.754474,-3.049194],[11.731974,-3.037794],[11.717474,-3.050594],[11.700274,-3.094994],[11.701074,-3.178094],[11.782474,-3.205794],[11.953874,-3.288594],[11.972474,-3.311394],[11.963574,-3.351694],[11.909974,-3.394194],[11.839474,-3.556094],[11.839974,-3.574694],[11.852474,-3.589694],[11.909474,-3.614994],[11.924974,-3.626694],[11.925874,-3.636994],[11.884674,-3.699194],[11.868374,-3.709994],[11.739974,-3.686694],[11.654974,-3.640294],[11.580274,-3.531694],[11.551674,-3.512494],[11.496974,-3.506994],[11.302174,-3.633294],[11.225574,-3.693594],[11.140674,-3.925294],[11.349974,-4.099994],[11.363874,-4.162194],[11.384974,-4.195794],[11.642174,-4.412494],[11.735874,-4.498594],[11.780274,-4.550294],[11.799474,-4.592794],[11.795574,-4.615594],[11.778574,-4.633594],[11.807174,-4.781694],[11.932774,-4.924694],[11.999474,-5.016394],[12.026174,-5.014994],[12.166374,-4.895794],[12.206374,-4.758894],[12.266074,-4.787494],[12.335274,-4.787494],[12.382174,-4.709994],[12.396374,-4.665594],[12.385274,-4.629994],[12.395274,-4.612494],[12.412774,-4.602494],[12.649974,-4.559494],[12.688574,-4.483594],[12.769174,-4.390794],[12.864174,-4.398094],[12.895874,-4.415294],[12.909174,-4.469994],[13.057174,-4.619994],[13.091374,-4.633094],[13.087474,-4.613594],[13.096674,-4.575294],[13.113874,-4.572194],[13.138574,-4.582194],[13.176974,-4.633094],[13.191374,-4.680294],[13.410274,-4.883094],[13.514974,-4.797494],[13.501674,-4.768294],[13.543874,-4.751994],[13.595274,-4.783594],[13.698574,-4.728294],[13.739474,-4.562194],[13.740874,-4.516094],[13.727174,-4.468294],[13.729474,-4.445794],[13.783074,-4.423894],[13.819174,-4.421694],[13.846374,-4.436094],[13.905474,-4.489394],[13.959474,-4.496394],[14.008374,-4.455294],[14.014974,-4.440794],[14.301374,-4.308294],[14.400874,-4.277494],[14.487474,-4.426994],[14.476674,-4.456394],[14.417174,-4.513894],[14.396974,-4.521094],[14.364674,-4.557794],[14.418874,-4.756394],[14.411674,-4.827194],[14.418874,-4.887194],[14.489474,-4.839994],[14.555574,-4.856994],[14.587474,-4.886994],[14.661374,-4.909494],[14.701674,-4.894994],[14.829674,-4.823894],[14.919974,-4.656994],[15.022474,-4.552494],[15.094174,-4.500294],[15.209674,-4.339494],[15.287774,-4.292494],[15.328074,-4.277194],[15.411074,-4.298094],[15.456674,-4.267794],[15.487474,-4.215794],[15.483574,-4.144994],[15.516074,-4.096393],[15.522474,-4.073093],[15.542174,-4.051393],[15.691974,-3.995594],[15.838574,-3.971094],[15.890474,-3.942994],[16.052774,-3.611994],[16.105874,-3.560794],[16.226974,-3.328294],[16.221974,-3.286994],[16.191974,-3.261994],[16.188574,-3.133294],[16.195874,-3.000594],[16.182174,-2.911694],[16.215874,-2.696994],[16.216974,-2.532794],[16.188874,-2.403894],[16.183874,-2.306994],[16.183874,-2.245794],[16.195874,-2.175794],[16.250874,-2.106394],[16.367474,-2.023893],[16.467474,-1.932494],[16.528474,-1.862494],[16.654674,-1.644694],[16.711074,-1.488894],[16.750574,-1.411094],[16.807174,-1.316394],[16.875274,-1.239994],[16.968074,-1.153894],[17.121974,-1.068294],[17.160274,-1.053594],[17.276374,-1.032793],[17.326974,-1.001094],[17.404974,-0.934694],[17.544674,-0.785794],[17.621674,-0.691394],[17.709474,-0.552194],[17.736074,-0.449694],[17.745874,-0.376394],[17.741374,-0.333294],[17.709974,-0.226994],[17.717774,-0.133894],[17.770274,0.018307],[17.803574,0.148607],[17.843874,0.225007],[17.943374,0.338307],[17.961074,0.399707],[17.965874,0.477807],[17.894974,0.600007],[17.888074,0.678607],[17.905874,0.747507],[17.907774,0.802807],[17.873574,0.995807],[17.884974,1.053007],[17.935574,1.132507],[17.978874,1.245507],[18.071374,1.534707],[18.077774,1.728907],[18.065274,1.875007],[18.072474,2.036407],[18.091974,2.224207],[18.121674,2.296707],[18.168374,2.331707],[18.222774,2.413607],[18.233074,2.519207],[18.313874,2.574207],[18.342774,2.612807],[18.540874,3.076307],[18.611674,3.131907],[18.641374,3.204407],[18.643574,3.325307],[18.624974,3.479407],[18.590574,3.486407],[18.533374,3.598907],[18.481374,3.641907],[18.471374,3.641107],[18.450574,3.614207],[18.272474,3.583007],[18.239974,3.506707],[18.222174,3.490507],[18.196374,3.482507],[18.169174,3.488007],[18.154674,3.541107],[18.119474,3.560507],[18.043374,3.565807],[17.909474,3.552807],[17.858874,3.535507],[17.833874,3.610307],[17.823574,3.620507],[17.615274,3.629707]]]}}
