{"type":"Feature","properties":{"mrgid":48204,"name":"Pondicherry","placeType":"TDWG Terrestrial - level 4","source":"TDWG:level4"},"geometry":{"type":"MultiPolygon","coordinates":[[[[79.689074,11.799007],[79.683674,11.817407],[79.664874,11.820107],[79.656674,11.812207],[79.662074,11.788607],[79.672874,11.785907],[79.689074,11.799007]]],[[[79.783074,11.770007],[79.803874,11.795307],[79.804474,11.818107],[79.737674,11.827807],[79.726874,11.822607],[79.718674,11.780607],[79.786674,11.758307],[79.783074,11.770007]]],[[[79.654074,11.841107],[79.656874,11.872607],[79.629874,11.880607],[79.605574,11.878007],[79.600174,11.870107],[79.621674,11.841207],[79.654074,11.841107]]],[[[79.815274,11.847507],[79.845074,11.938807],[79.813674,11.966907],[79.738174,11.995907],[79.702974,11.956607],[79.673074,11.883107],[79.740474,11.851507],[79.815274,11.847507]]],[[[79.703174,12.009107],[79.703174,12.030107],[79.684274,12.027507],[79.657174,12.001307],[79.676074,11.985507],[79.703174,12.009107]]],[[[79.649174,12.014507],[79.630274,12.032907],[79.619474,12.027707],[79.616774,12.004007],[79.632774,11.962007],[79.649174,12.014507]]],[[[79.870774,12.038507],[79.848974,12.040307],[79.838074,12.022007],[79.838074,11.995707],[79.859174,11.990007],[79.870774,12.038507]]]]}}
