{"type":"Feature","properties":{"mrgid":48238,"name":"South Korea","placeType":"TDWG Terrestrial - level 4","source":"TDWG:level4"},"geometry":{"type":"MultiPolygon","coordinates":[[[[126.622174,33.240007],[126.847474,33.311707],[126.915774,33.387807],[126.936674,33.424407],[126.941074,33.453907],[126.898074,33.523306],[126.839674,33.536407],[126.821374,33.550506],[126.793074,33.550807],[126.633574,33.531707],[126.378074,33.474707],[126.317474,33.452807],[126.270274,33.422807],[126.183574,33.352807],[126.158374,33.314707],[126.155274,33.289407],[126.170574,33.262507],[126.266374,33.190807],[126.285774,33.193007],[126.309674,33.216406],[126.340574,33.227207],[126.416974,33.235507],[126.482474,33.221407],[126.622174,33.240007]]],[[[126.765574,34.280807],[126.774974,34.286907],[126.730774,34.363907],[126.694174,34.389207],[126.663874,34.382507],[126.649174,34.350007],[126.651374,34.316107],[126.700774,34.284207],[126.765574,34.280807]]],[[[127.213574,34.418907],[127.228874,34.426707],[127.244174,34.453307],[127.243574,34.470507],[127.222674,34.483607],[127.131674,34.473607],[127.111374,34.460307],[127.115774,34.434407],[127.145874,34.415007],[127.213574,34.418907]]],[[[127.790774,34.476407],[127.798274,34.490807],[127.770874,34.538307],[127.751074,34.541907],[127.711974,34.526707],[127.758374,34.487507],[127.790774,34.476407]]],[[[126.186674,34.351407],[126.346974,34.404707],[126.382774,34.471907],[126.380274,34.494707],[126.334974,34.540007],[126.243274,34.573307],[126.099674,34.419207],[126.112474,34.378907],[126.143574,34.355507],[126.186674,34.351407]]],[[[127.803874,34.575507],[127.812174,34.641407],[127.794174,34.661407],[127.768074,34.664107],[127.733074,34.635807],[127.734374,34.613307],[127.758574,34.590807],[127.793074,34.573307],[127.803874,34.575507]]],[[[126.008574,34.691407],[125.981374,34.716907],[125.914974,34.692207],[125.917774,34.676107],[125.963574,34.648607],[125.971874,34.647207],[126.008574,34.691407]]],[[[126.003874,34.790007],[125.985574,34.792507],[125.950774,34.773007],[125.908374,34.772807],[125.893874,34.763907],[125.888274,34.732507],[125.904474,34.717807],[125.932174,34.718307],[125.945274,34.754707],[126.003374,34.758007],[126.009174,34.760007],[126.003874,34.790007]]],[[[128.085774,34.830307],[128.078874,34.869707],[128.024174,34.913907],[128.007774,34.907807],[127.974174,34.858307],[127.979674,34.843607],[127.997174,34.835307],[128.085774,34.830307]]],[[[126.063574,34.854407],[126.082174,34.866907],[126.094474,34.909707],[126.062774,34.928307],[126.002174,34.890307],[125.983574,34.865007],[125.993074,34.858307],[126.063574,34.854407]]],[[[127.956074,34.800807],[127.916374,34.832807],[127.909174,34.847207],[127.906674,34.869107],[127.937674,34.901907],[127.933874,34.916107],[127.915274,34.930007],[127.879974,34.929407],[127.836974,34.879707],[127.822174,34.843007],[127.857174,34.723907],[127.880274,34.712207],[127.984974,34.696907],[128.044474,34.695007],[128.060774,34.701107],[128.073274,34.804707],[128.001874,34.820807],[127.968074,34.800007],[127.956074,34.800807]]],[[[128.754474,34.876907],[128.711074,34.976607],[128.641074,34.952507],[128.501874,34.887507],[128.488574,34.856407],[128.497974,34.832207],[128.526074,34.805807],[128.552174,34.823607],[128.591874,34.836607],[128.600774,34.830507],[128.601074,34.760307],[128.585274,34.703907],[128.594074,34.697807],[128.685474,34.724207],[128.741874,34.781707],[128.754474,34.876907]]],[[[126.106074,35.046907],[126.144474,35.080307],[126.148374,35.132907],[126.162174,35.143307],[126.137174,35.142207],[126.059974,35.090807],[126.059374,35.055307],[126.106074,35.046907]]],[[[126.428274,36.399707],[126.433874,36.410807],[126.378574,36.586107],[126.346974,36.591107],[126.324974,36.565507],[126.335774,36.438607],[126.375274,36.403907],[126.428274,36.399707]]],[[[126.169474,36.825807],[126.172474,36.836807],[126.161074,36.838007],[126.159174,36.827807],[126.169474,36.825807]]],[[[130.887474,37.453307],[130.920774,37.476607],[130.919474,37.545307],[130.807474,37.518307],[130.818874,37.467807],[130.868574,37.450807],[130.887474,37.453307]]],[[[126.513874,37.597207],[126.539474,37.627807],[126.516074,37.761107],[126.428074,37.821107],[126.400574,37.818907],[126.366674,37.784707],[126.364174,37.720307],[126.373074,37.621707],[126.386374,37.605307],[126.410274,37.593907],[126.513874,37.597207]]],[[[124.695574,37.916107],[124.746674,37.954707],[124.725574,37.981707],[124.688874,37.982507],[124.615274,37.968607],[124.613274,37.947507],[124.636674,37.918307],[124.695574,37.916107]]],[[[128.532474,38.330507],[128.363574,38.625207],[128.303574,38.583907],[128.312774,38.514207],[128.301374,38.468307],[128.279674,38.430307],[128.243574,38.395307],[128.166074,38.343907],[128.079974,38.311907],[128.010574,38.305507],[127.676074,38.320307],[127.537474,38.307507],[127.366374,38.323307],[127.251374,38.318907],[127.133874,38.299207],[126.990574,38.218007],[126.935274,38.128607],[126.824474,38.016107],[126.766674,37.968307],[126.727774,37.952507],[126.688474,37.833907],[126.680574,37.684407],[126.641374,37.760507],[126.532774,37.762507],[126.532174,37.715507],[126.549974,37.642507],[126.572474,37.620007],[126.629174,37.591407],[126.658874,37.555007],[126.674374,37.488007],[126.621874,37.481407],[126.656374,37.411107],[126.716974,37.386107],[126.741974,37.386807],[126.722174,37.328007],[126.801974,37.295507],[126.843274,37.308307],[126.865774,37.266907],[126.766074,37.231907],[126.752774,37.245007],[126.699374,37.262207],[126.661974,37.253907],[126.661074,37.156107],[126.694474,37.121707],[126.718574,37.128007],[126.769974,37.174207],[126.869174,37.176407],[126.865274,37.140807],[126.776374,37.123607],[126.752774,37.048607],[126.908074,36.919407],[127.000274,36.929707],[126.992174,36.910807],[126.846374,36.752507],[126.838574,36.753307],[126.828574,36.765807],[126.830574,36.894207],[126.823274,36.913907],[126.781074,36.963607],[126.761374,36.970007],[126.619974,36.972807],[126.567474,37.025007],[126.525274,37.050307],[126.502474,37.052807],[126.490574,36.995507],[126.514174,36.941407],[126.495574,36.864207],[126.483274,36.842507],[126.468274,36.843007],[126.463274,36.863907],[126.461974,36.898207],[126.478074,36.933607],[126.442474,36.999707],[126.392774,37.004707],[126.355774,36.996407],[126.334974,36.985507],[126.348374,36.952507],[126.383074,36.929407],[126.413574,36.933307],[126.415074,36.896707],[126.401074,36.851907],[126.289474,36.785807],[126.280574,36.815307],[126.321674,36.884407],[126.304474,36.962207],[126.291074,36.962507],[126.184374,36.878307],[126.191674,36.819907],[126.164274,36.809607],[126.128874,36.751707],[126.123574,36.709207],[126.172774,36.672807],[126.234974,36.682507],[126.251374,36.707507],[126.272774,36.717507],[126.298874,36.639407],[126.293074,36.581907],[126.315574,36.599407],[126.336974,36.645507],[126.303574,36.692807],[126.347474,36.740007],[126.469474,36.743607],[126.497174,36.723907],[126.527174,36.592807],[126.518874,36.585007],[126.500274,36.591907],[126.474174,36.588007],[126.464474,36.574707],[126.495774,36.394207],[126.536674,36.219207],[126.544374,36.136407],[126.685374,36.000007],[126.739474,36.005807],[126.869174,36.060607],[126.872974,36.054707],[126.868774,36.043107],[126.761974,35.995307],[126.631674,35.967207],[126.615274,35.925807],[126.615274,35.890807],[126.733074,35.882507],[126.788274,35.894707],[126.801074,35.861707],[126.751974,35.778307],[126.706674,35.770807],[126.642474,35.742207],[126.474674,35.635807],[126.468574,35.609207],[126.498574,35.578007],[126.521374,35.576707],[126.546974,35.590007],[126.664974,35.591707],[126.687774,35.533307],[126.683874,35.528907],[126.619474,35.546907],[126.523074,35.525007],[126.484174,35.501107],[126.421874,35.406607],[126.378274,35.312207],[126.360574,35.180307],[126.411374,35.119107],[126.458874,35.090507],[126.457174,35.068907],[126.431374,35.023307],[126.416374,35.020307],[126.359674,35.069207],[126.340774,35.100307],[126.354174,35.127207],[126.344974,35.151707],[126.263574,35.134707],[126.249174,35.116707],[126.318074,34.932207],[126.343874,34.917507],[126.369474,34.930807],[126.376874,34.946607],[126.433574,34.963607],[126.413274,34.894407],[126.371074,34.800507],[126.375774,34.785507],[126.510574,34.775507],[126.531074,34.803907],[126.539974,34.873007],[126.590774,34.877507],[126.659674,34.812807],[126.634974,34.782207],[126.494174,34.750507],[126.476974,34.725007],[126.503074,34.715307],[126.618274,34.619407],[126.528874,34.614207],[126.451374,34.648307],[126.432474,34.619407],[126.451674,34.578007],[126.417474,34.595807],[126.328274,34.734707],[126.303874,34.751107],[126.289474,34.742207],[126.266974,34.683307],[126.273074,34.633907],[126.288274,34.590307],[126.318374,34.565007],[126.391374,34.543907],[126.463274,34.484707],[126.478274,34.345307],[126.556374,34.300507],[126.600274,34.300307],[126.772474,34.582807],[126.789674,34.586107],[126.802774,34.569407],[126.800774,34.463007],[126.811674,34.445507],[126.889474,34.412507],[126.887774,34.435007],[126.896974,34.449207],[126.985574,34.526407],[127.009674,34.602207],[127.091674,34.650507],[127.216674,34.707507],[127.328574,34.743007],[127.338274,34.737807],[127.352774,34.692807],[127.328574,34.652207],[127.242174,34.569407],[127.192774,34.569407],[127.213074,34.620807],[127.211974,34.632507],[127.201674,34.633007],[127.131674,34.565307],[127.124674,34.537207],[127.139674,34.515807],[127.243574,34.511407],[127.315274,34.443607],[127.389474,34.471107],[127.509974,34.578607],[127.514474,34.591407],[127.485774,34.641907],[127.387474,34.701907],[127.363874,34.751407],[127.418274,34.818607],[127.493874,34.851707],[127.522474,34.856907],[127.567774,34.766707],[127.556374,34.651407],[127.640774,34.616907],[127.747774,34.727507],[127.769474,34.795007],[127.773574,34.843907],[127.710774,34.840507],[127.673074,34.815507],[127.638574,34.814107],[127.576374,34.886907],[127.569174,34.917807],[127.593274,34.941707],[127.605574,34.938607],[127.618574,34.910507],[127.643074,34.900807],[127.767374,34.960307],[127.863874,34.940307],[128.020574,34.986407],[128.050274,34.937507],[128.066674,34.924407],[128.154174,34.894407],[128.203874,34.888307],[128.207774,34.922807],[128.216074,34.930507],[128.329174,34.949407],[128.351074,34.931407],[128.356674,34.905307],[128.346374,34.900007],[128.335474,34.871407],[128.403074,34.833607],[128.434974,34.834707],[128.451874,34.845507],[128.469974,34.885807],[128.501374,35.008307],[128.487474,35.047507],[128.477174,35.053907],[128.415574,35.032207],[128.396074,35.010807],[128.372474,35.004707],[128.377974,35.036107],[128.572774,35.170007],[128.611374,35.173307],[128.619974,35.148607],[128.710474,35.101107],[128.810474,35.084207],[128.924974,35.090807],[128.973874,35.134807],[128.978574,35.085007],[129.136974,35.112207],[129.237474,35.189907],[129.281074,35.300807],[129.347474,35.345007],[129.439374,35.475807],[129.466374,35.537207],[129.474374,35.580307],[129.464774,35.644607],[129.486674,35.683307],[129.588374,36.019307],[129.573874,36.064007],[129.557274,36.078807],[129.457174,35.993007],[129.425574,35.997207],[129.398274,36.013007],[129.386874,36.036007],[129.381974,36.314407],[129.390574,36.339407],[129.437974,36.400307],[129.450574,36.500507],[129.419974,36.577807],[129.416974,36.616707],[129.438574,36.660307],[129.466874,36.679707],[129.472974,36.710307],[129.474974,36.774407],[129.430774,36.868907],[129.416074,36.942207],[129.413874,37.021707],[129.433574,37.058907],[129.362474,37.150007],[129.354174,37.228307],[129.342474,37.257207],[129.066374,37.624407],[129.059974,37.638607],[129.062974,37.668907],[128.882674,37.848007],[128.857974,37.859407],[128.641074,38.117207],[128.532474,38.330507]]]]}}
