{"type":"Feature","properties":{"mrgid":48328,"name":"Jalisco","placeType":"TDWG Terrestrial - level 4","source":"TDWG:level4"},"geometry":{"type":"Polygon","coordinates":[[[-104.592422,19.147942],[-104.589737,19.181389],[-104.540009,19.253887],[-104.325012,19.284443],[-104.19223,19.345554],[-104.129181,19.383053],[-104.146667,19.463886],[-104.06778,19.51833],[-104.016113,19.481667],[-103.847778,19.398331],[-103.822777,19.392498],[-103.791397,19.397778],[-103.64418,19.480274],[-103.491959,19.325275],[-103.501404,19.046944],[-103.479553,18.96722],[-103.452507,18.976109],[-103.348068,18.977776],[-103.285278,19.066666],[-103.268623,19.060833],[-103.186684,18.986111],[-103.132782,18.954998],[-102.975571,19.096664],[-102.967216,19.130276],[-102.983337,19.161663],[-102.968903,19.175278],[-102.89418,19.211666],[-102.768066,19.254997],[-102.704178,19.252499],[-102.674454,19.224442],[-102.571671,19.399166],[-102.597778,19.481388],[-102.609177,19.491386],[-102.719727,19.466663],[-102.739182,19.468052],[-102.753616,19.481941],[-102.751106,19.533333],[-102.763062,19.592499],[-102.796112,19.667221],[-102.823753,19.70668],[-102.830032,19.757046],[-102.726959,19.818607],[-102.722504,19.826942],[-102.734177,19.883331],[-102.929001,19.952454],[-102.977783,19.906944],[-102.996948,19.898331],[-103.021957,19.899719],[-103.041397,19.916111],[-103.095573,20.00111],[-103.088623,20.04583],[-103.048889,20.09222],[-102.957779,20.140831],[-102.753891,20.205276],[-102.622223,20.229164],[-102.578339,20.270832],[-102.443619,20.338055],[-102.301392,20.358055],[-102.257233,20.342499],[-102.21167,20.343052],[-102.10881,20.389084],[-102.102509,20.433331],[-102.089172,20.464443],[-102.0439,20.520275],[-101.991386,20.567776],[-101.978348,20.59111],[-101.986954,20.615555],[-102.091949,20.773609],[-102.074722,20.813889],[-102.018341,20.903889],[-101.813339,21.157776],[-101.65834,21.243053],[-101.598068,21.297222],[-101.576401,21.326664],[-101.57251,21.375275],[-101.626678,21.503609],[-101.631958,21.533333],[-101.624184,21.55611],[-101.579178,21.596664],[-101.543617,21.656944],[-101.546677,21.691944],[-101.588348,21.772778],[-101.580002,21.802219],[-101.524857,21.85664],[-101.823898,22.022778],[-101.843903,22.014442],[-102.090843,21.761944],[-102.185837,21.685555],[-102.24028,21.655552],[-102.279167,21.654163],[-102.493057,21.687222],[-102.540009,21.704441],[-102.626106,21.759163],[-102.672501,21.764721],[-102.704727,21.755554],[-102.763062,21.698608],[-102.775284,21.651665],[-102.762512,21.610832],[-102.661392,21.568054],[-102.639183,21.546944],[-102.661118,21.445],[-102.687233,21.381943],[-102.762222,21.344997],[-102.962227,21.284721],[-102.986679,21.286388],[-103.015839,21.308052],[-103.034447,21.306664],[-103.069458,21.261665],[-103.085564,21.187496],[-103.08223,21.145554],[-103.055847,21.054443],[-103.692497,21.236942],[-103.733063,21.290554],[-103.703903,21.404999],[-103.514183,21.593052],[-103.509171,21.72583],[-103.51918,21.749443],[-103.522232,21.795277],[-103.39418,21.933331],[-103.29306,21.982498],[-103.22084,21.963055],[-103.162781,21.981388],[-103.106117,22.113888],[-103.051964,22.276108],[-103.055557,22.28611],[-103.372513,22.505833],[-103.40918,22.435555],[-103.379463,22.407776],[-103.368057,22.360275],[-103.371674,22.327499],[-103.481667,22.143608],[-103.585007,22.088055],[-103.656113,22.086109],[-103.700897,22.145992],[-103.685287,22.281109],[-103.645279,22.443607],[-103.615013,22.524719],[-103.65889,22.57333],[-103.729172,22.578053],[-103.741386,22.576386],[-103.831947,22.271111],[-103.868622,22.183887],[-103.883904,22.461109],[-103.870827,22.577221],[-103.770569,22.636665],[-103.801964,22.723053],[-104.006958,22.764721],[-103.994171,22.658607],[-104.029449,22.581944],[-103.921677,22.51083],[-103.950287,22.368053],[-104.023064,22.350555],[-104.14418,22.34222],[-104.262222,22.299442],[-104.329643,22.264538],[-104.402786,22.076386],[-104.26973,21.971386],[-104.093613,21.785831],[-104.204178,21.556664],[-104.204727,21.542774],[-104.168617,21.507774],[-103.99501,21.395275],[-103.955841,21.359722],[-103.961403,21.287777],[-103.97168,21.276386],[-104.042511,21.211388],[-104.14917,21.184166],[-104.212227,21.119164],[-104.203613,21.056942],[-104.210007,20.978054],[-104.275009,20.860832],[-104.284729,20.709164],[-104.467216,20.82972],[-104.487228,20.852219],[-104.721947,21.012775],[-104.790009,21.020275],[-104.832779,21.0],[-104.876953,20.958332],[-104.923073,20.934166],[-104.973618,20.923054],[-105.054169,20.937775],[-105.083344,20.925278],[-105.137512,20.879719],[-105.266891,20.699043],[-105.233612,20.628887],[-105.25029,20.565552],[-105.351959,20.513054],[-105.453613,20.491108],[-105.560287,20.489998],[-105.673073,20.427219],[-105.681953,20.397778],[-105.674728,20.371666],[-105.595573,20.243332],[-105.542236,20.076942],[-105.456947,19.922222],[-105.33223,19.782497],[-105.299728,19.719719],[-105.214447,19.622498],[-105.119743,19.583054],[-105.102509,19.564999],[-105.022507,19.371944],[-104.951683,19.315277],[-104.896667,19.283886],[-104.805847,19.251663],[-104.662781,19.168053],[-104.592422,19.147942]]]}}
