{"type":"Feature","properties":{"mrgid":48604,"name":"South Tyrrhenian Sea","placeType":"FAO Subdivisions","source":"MarineRegions:gsas_mediterraneanfishingzones"},"geometry":{"type":"MultiPolygon","coordinates":[[[[13.004581,41.299999],[11.0,41.299999],[11.0,38.0],[12.317917,38.0],[12.334194,38.022083],[12.345528,38.0],[12.505417,38.0],[12.504556,38.012472],[12.517917,38.013333],[12.48875,38.018333],[12.517472,38.022083],[12.559139,38.065417],[12.629972,38.072861],[12.662056,38.094972],[12.66,38.11375],[12.679944,38.115417],[12.698333,38.106222],[12.726639,38.125361],[12.724556,38.131667],[12.736222,38.140833],[12.713694,38.175806],[12.732472,38.192083],[12.731222,38.180778],[12.738306,38.177083],[12.768778,38.180833],[12.767889,38.155],[12.792056,38.134972],[12.790444,38.111639],[12.812056,38.080806],[12.841639,38.057889],[12.868278,38.052028],[12.879972,38.030389],[12.905861,38.026222],[12.973278,38.039583],[13.071667,38.085361],[13.072889,38.110806],[13.052056,38.139139],[13.070806,38.142861],[13.070389,38.150806],[13.085444,38.1625],[13.07625,38.173333],[13.107472,38.192917],[13.156611,38.187917],[13.163333,38.172056],[13.194167,38.170417],[13.243278,38.192889],[13.240806,38.205389],[13.273333,38.20125],[13.280833,38.212056],[13.314167,38.226278],[13.331222,38.2125],[13.329167,38.20125],[13.368722,38.183333],[13.377917,38.151639],[13.368778,38.142472],[13.377056,38.128333],[13.364556,38.133306],[13.384972,38.107889],[13.445833,38.09625],[13.490861,38.10375],[13.506667,38.12125],[13.534139,38.115389],[13.538722,38.081639],[13.545417,38.0775],[13.537028,38.069139],[13.540361,38.061639],[13.620833,38.012083],[13.665028,37.995417],[13.709972,37.992083],[13.71625,37.989167],[13.704528,37.989167],[13.708333,37.979583],[13.749167,37.971222],[13.823278,37.983778],[13.822083,37.978306],[13.825806,37.975389],[13.827917,37.978306],[13.826611,37.98375],[13.879972,37.997889],[13.944972,38.032083],[14.006639,38.032917],[14.019972,38.042861],[14.066639,38.020417],[14.120806,38.017056],[14.146694,38.030389],[14.1675,38.020417],[14.285806,38.008722],[14.348333,38.021222],[14.374139,38.017056],[14.43,38.042944],[14.451611,38.034556],[14.509972,38.041222],[14.552472,38.060389],[14.590833,38.061222],[14.641639,38.077083],[14.679972,38.102889],[14.742472,38.166222],[14.789139,38.153722],[14.884194,38.172917],[14.914167,38.193722],[14.974972,38.152083],[15.046667,38.152056],[15.063333,38.128694],[15.104167,38.122889],[15.173278,38.152917],[15.217028,38.190833],[15.242083,38.244139],[15.237056,38.264167],[15.224583,38.268306],[15.232444,38.272861],[15.241667,38.272056],[15.255444,38.247472],[15.243722,38.215806],[15.293306,38.20625],[15.405028,38.234583],[15.457472,38.257056],[15.519083,38.29875],[15.538306,38.302083],[15.599167,38.276222],[15.650806,38.27125],[15.650942,38.264535],[15.749958,38.257875],[15.811639,38.29375],[15.830444,38.325778],[15.835444,38.3625],[15.859528,38.383333],[15.873722,38.422472],[15.905417,38.461667],[15.931278,38.541639],[15.899917,38.56375],[15.893306,38.577056],[15.825333,38.619167],[15.837889,38.649111],[15.864944,38.672111],[15.943278,38.691222],[15.984111,38.72375],[16.038278,38.728722],[16.104139,38.712917],[16.123306,38.724556],[16.124972,38.718778],[16.137444,38.722083],[16.180833,38.747917],[16.218778,38.830833],[16.220389,38.912472],[16.206611,38.934583],[16.196667,38.939556],[16.195806,38.932083],[16.174972,38.947056],[16.152444,38.950417],[16.128694,39.0],[16.09625,39.030833],[16.082861,39.091667],[16.062861,39.148333],[16.053722,39.284194],[16.037083,39.348306],[15.990389,39.448333],[15.922444,39.527917],[15.885806,39.540389],[15.871222,39.555833],[15.832056,39.667444],[15.81375,39.678333],[15.805361,39.714167],[15.808722,39.736611],[15.787889,39.813306],[15.768694,39.835],[15.790417,39.852472],[15.783722,39.884167],[15.735417,39.943306],[15.732056,39.964139],[15.709139,39.988722],[15.679556,40.005778],[15.676667,40.030417],[15.630806,40.052056],[15.626667,40.072917],[15.614194,40.06875],[15.574139,40.078722],[15.506639,40.063722],[15.485,40.037889],[15.4625,40.033694],[15.420778,39.991278],[15.355,39.999556],[15.314972,40.032083],[15.293278,40.022917],[15.268278,40.024583],[15.2675,40.032889],[15.285444,40.037472],[15.27375,40.070778],[15.203306,40.122889],[15.178333,40.125389],[15.139167,40.171278],[15.142417,40.162917],[15.119111,40.177056],[15.071667,40.165361],[15.039139,40.169556],[14.991667,40.217889],[14.968306,40.221194],[14.952472,40.232861],[14.935833,40.227889],[14.912472,40.239528],[14.902889,40.254111],[14.943694,40.282472],[14.944583,40.309167],[14.936194,40.318333],[14.94375,40.336639],[14.968333,40.342889],[14.99875,40.364167],[14.995389,40.400833],[14.875389,40.589944],[14.813306,40.649528],[14.784194,40.667056],[14.742472,40.676222],[14.715,40.66375],[14.692472,40.633722],[14.6275,40.649611],[14.573361,40.611194],[14.543333,40.613722],[14.529111,40.606222],[14.505806,40.622889],[14.480778,40.626222],[14.42,40.611222],[14.406667,40.599611],[14.349139,40.581278],[14.340028,40.570417],[14.338306,40.577889],[14.322472,40.569556],[14.325361,40.586611],[14.319583,40.589167],[14.340417,40.62],[14.338306,40.62875],[14.350861,40.63625],[14.375778,40.629583],[14.399111,40.639556],[14.406222,40.65],[14.402472,40.657917],[14.428306,40.667028],[14.444139,40.687083],[14.477889,40.697472],[14.472889,40.720806],[14.456222,40.744972],[14.439972,40.756222],[14.413306,40.751222],[14.393278,40.760389],[14.326639,40.817917],[14.274944,40.84375],[14.261611,40.842917],[14.254528,40.836639],[14.262,40.834972],[14.249139,40.827111],[14.220833,40.827083],[14.206222,40.808333],[14.208722,40.800806],[14.187472,40.790417],[14.175028,40.798722],[14.1595,40.7925],[14.173722,40.800833],[14.161639,40.815389],[14.090806,40.830417],[14.073694,40.818333],[14.08375,40.812528],[14.090417,40.791639],[14.069556,40.7925],[14.089944,40.787917],[14.091222,40.777444],[14.079139,40.787083],[14.045,40.78875],[14.039528,40.797472],[14.047917,40.837444],[14.044583,40.865],[14.007056,40.942472],[13.959167,40.99625],[13.917111,41.017472],[13.931222,41.028306],[13.916222,41.021639],[13.902111,41.075861],[13.829611,41.165806],[13.759944,41.222889],[13.715806,41.247917],[13.699944,41.252889],[13.679167,41.242861],[13.646639,41.257889],[13.615,41.25875],[13.571194,41.238333],[13.572833,41.215],[13.591222,41.209111],[13.574139,41.20125],[13.558333,41.209556],[13.547472,41.204556],[13.517444,41.222889],[13.500833,41.220389],[13.484139,41.234583],[13.459139,41.237917],[13.438306,41.25375],[13.355778,41.286222],[13.274167,41.295389],[13.258361,41.280389],[13.204167,41.282083],[13.159111,41.269583],[13.108278,41.242056],[13.090806,41.222889],[13.068306,41.219556],[13.039556,41.229111],[13.004581,41.299999]],[[13.064972,40.966222],[13.047889,40.97],[13.057444,40.976222],[13.064972,40.966222]],[[13.026639,40.948694],[13.0245,40.949167],[13.025,40.950389],[13.026639,40.948694]],[[12.854111,40.944556],[12.852056,40.944972],[12.854167,40.945417],[12.854111,40.944556]],[[12.850778,40.944556],[12.849583,40.944972],[12.85,40.945389],[12.850778,40.944556]],[[13.017889,40.943333],[13.016639,40.942861],[13.016222,40.944167],[13.017889,40.943333]],[[12.863694,40.932472],[12.851667,40.927056],[12.84875,40.930833],[12.855444,40.943306],[12.853694,40.949972],[12.863694,40.932472]],[[13.004556,40.935778],[13.000806,40.934528],[13.000417,40.937889],[13.004556,40.935778]],[[12.860778,40.927056],[12.858694,40.928333],[12.859139,40.92875],[12.860778,40.927056]],[[12.991667,40.935417],[12.966194,40.917472],[12.961222,40.898333],[12.972056,40.896639],[12.954139,40.87875],[12.947056,40.888306],[12.954583,40.895806],[12.942056,40.899139],[12.950389,40.916611],[12.94875,40.920806],[12.962444,40.922083],[12.979194,40.937028],[12.991667,40.935417]],[[12.848361,40.924528],[12.846222,40.924944],[12.847444,40.927028],[12.848361,40.924528]],[[12.845778,40.922083],[12.844556,40.922528],[12.844972,40.923722],[12.845778,40.922083]],[[12.852528,40.92125],[12.850389,40.921667],[12.850806,40.922861],[12.852528,40.92125]],[[12.849583,40.921639],[12.848306,40.921222],[12.847944,40.923333],[12.849583,40.921639]],[[12.945806,40.913722],[12.94375,40.914139],[12.944139,40.916222],[12.945806,40.913722]],[[14.037889,40.7975],[14.037528,40.797028],[14.035389,40.799139],[14.037889,40.7975]],[[13.438306,40.795417],[13.437889,40.796611],[13.438333,40.797083],[13.438306,40.795417]],[[14.092028,40.790778],[14.091639,40.790389],[14.09125,40.791639],[14.092028,40.790778]],[[13.458306,40.792889],[13.455806,40.787083],[13.450389,40.789972],[13.451611,40.792917],[13.458306,40.792889]],[[13.429972,40.79125],[13.409528,40.786611],[13.43075,40.805389],[13.429972,40.79125]],[[14.039556,40.764167],[14.021194,40.755778],[14.027056,40.75],[14.013722,40.746611],[14.015806,40.737889],[14.000417,40.746667],[14.009556,40.768306],[14.039556,40.764167]],[[13.99875,40.739972],[13.989111,40.741222],[13.992472,40.747889],[13.99875,40.739972]],[[13.874167,40.761194],[13.952444,40.74375],[13.967889,40.731639],[13.960444,40.728306],[13.967083,40.711611],[13.955833,40.700417],[13.939139,40.705417],[13.925,40.69625],[13.899083,40.699611],[13.894194,40.691194],[13.887472,40.69875],[13.868306,40.698722],[13.852028,40.709167],[13.862083,40.719139],[13.853778,40.734167],[13.866222,40.745],[13.862056,40.756611],[13.874167,40.761194]],[[14.463722,40.728306],[14.462472,40.727889],[14.462056,40.729944],[14.463722,40.728306]],[[14.377444,40.587083],[14.374583,40.587472],[14.3775,40.589556],[14.377444,40.587083]],[[14.39825,40.583778],[14.399556,40.582444],[14.395417,40.583306],[14.39825,40.583778]],[[14.430861,40.580389],[14.42875,40.580833],[14.429111,40.582028],[14.430861,40.580389]],[[14.437889,40.580806],[14.437472,40.579556],[14.432028,40.582444],[14.437889,40.580806]],[[14.430806,40.578722],[14.428694,40.579167],[14.429139,40.579583],[14.430806,40.578722]],[[14.241667,40.55625],[14.261639,40.562028],[14.267944,40.554972],[14.254972,40.542083],[14.197528,40.536222],[14.197889,40.560806],[14.241667,40.55625]],[[14.256611,40.542083],[14.256222,40.5425],[14.258333,40.542917],[14.256611,40.542083]],[[14.254167,40.538694],[14.252056,40.539139],[14.253306,40.541222],[14.254167,40.538694]],[[14.899167,40.252056],[14.897056,40.2525],[14.898333,40.254556],[14.899167,40.252056]],[[15.717444,39.96625],[15.715444,39.966667],[15.716639,39.96875],[15.717444,39.96625]],[[15.781222,39.872528],[15.769528,39.870806],[15.770833,39.874528],[15.781222,39.872528]],[[15.804583,39.698306],[15.801611,39.697083],[15.801194,39.700806],[15.804583,39.698306]],[[16.06125,39.147472],[16.058306,39.147056],[16.057083,39.149111],[16.06125,39.147472]],[[16.079972,39.089583],[16.07625,39.090806],[16.078333,39.092917],[16.079972,39.089583]],[[15.25375,38.8175],[15.251611,38.816194],[15.250389,38.818333],[15.25375,38.8175]],[[15.224167,38.811222],[15.242944,38.805],[15.23125,38.780806],[15.215861,38.77125],[15.194972,38.779583],[15.189611,38.795833],[15.224167,38.811222]],[[13.181222,38.728278],[13.18,38.727917],[13.178722,38.729972],[13.181222,38.728278]],[[13.182472,38.719556],[13.202083,38.709944],[13.174972,38.690417],[13.152889,38.694139],[13.161639,38.714583],[13.182472,38.719556]],[[13.196667,38.716222],[13.192917,38.717472],[13.196667,38.71875],[13.196667,38.716222]],[[13.161667,38.716194],[13.157944,38.716639],[13.159139,38.718722],[13.161667,38.716194]],[[13.154111,38.714528],[13.152056,38.715806],[13.152444,38.717083],[13.154111,38.714528]],[[13.157472,38.712056],[13.155389,38.713278],[13.156667,38.715361],[13.157472,38.712056]],[[13.127472,38.706194],[13.123722,38.706667],[13.125,38.70875],[13.127472,38.706194]],[[15.107444,38.662889],[15.107083,38.663278],[15.108306,38.66375],[15.107444,38.662889]],[[15.118306,38.65875],[15.109556,38.660833],[15.110806,38.66375],[15.118306,38.65875]],[[15.074139,38.64625],[15.07625,38.629139],[15.056611,38.623722],[15.057056,38.643361],[15.074139,38.64625]],[[15.115861,38.637861],[15.112833,38.638333],[15.113306,38.640389],[15.115861,38.637861]],[[15.098361,38.637028],[15.097028,38.638361],[15.097472,38.640417],[15.098361,38.637028]],[[15.110833,38.636222],[15.109583,38.638333],[15.110833,38.63875],[15.110833,38.636222]],[[15.106667,38.63375],[15.106222,38.634167],[15.107472,38.634556],[15.106667,38.63375]],[[14.521639,38.582083],[14.520389,38.582472],[14.520806,38.584556],[14.521639,38.582083]],[[14.527472,38.582056],[14.524611,38.583306],[14.525778,38.584556],[14.527472,38.582056]],[[14.8675,38.58375],[14.876194,38.562444],[14.868722,38.551639],[14.871667,38.537056],[14.850833,38.534556],[14.795444,38.562444],[14.808278,38.584556],[14.8675,38.58375]],[[14.524111,38.579583],[14.522083,38.579972],[14.5225,38.581222],[14.524111,38.579583]],[[14.801611,38.577056],[14.79875,38.577444],[14.8,38.580389],[14.801611,38.577056]],[[14.547111,38.589111],[14.575806,38.582861],[14.580361,38.562444],[14.593722,38.556667],[14.555833,38.557917],[14.538722,38.575],[14.547111,38.589111]],[[14.362417,38.554556],[14.362111,38.533306],[14.342444,38.532056],[14.342917,38.5525],[14.362417,38.554556]],[[14.962083,38.522444],[14.961222,38.493333],[14.981167,38.480806],[14.957889,38.476667],[14.963722,38.451667],[14.952528,38.439583],[14.942917,38.4425],[14.934167,38.459556],[14.912472,38.464583],[14.896222,38.486639],[14.910806,38.518722],[14.962083,38.522444]],[[14.897083,38.482472],[14.896639,38.482083],[14.896639,38.482944],[14.897083,38.482472]],[[14.939139,38.444556],[14.938778,38.445028],[14.939917,38.445417],[14.939139,38.444556]],[[14.9625,38.432028],[14.96875,38.423278],[14.962444,38.412917],[14.983306,38.411222],[14.997889,38.398333],[15.008722,38.374167],[15.003333,38.369528],[14.979944,38.367083],[14.967472,38.377917],[14.947917,38.384139],[14.93625,38.403306],[14.938722,38.412444],[14.9625,38.432028]],[[15.853278,38.378722],[15.852056,38.379139],[15.853333,38.382056],[15.853278,38.378722]],[[14.97,38.372917],[14.969583,38.373333],[14.970806,38.373722],[14.97,38.372917]],[[15.221611,38.266194],[15.218722,38.267472],[15.219167,38.269583],[15.221611,38.266194]],[[15.2325,38.262056],[15.232056,38.263306],[15.234972,38.263722],[15.2325,38.262056]],[[13.237111,38.211639],[13.236611,38.207917],[13.232889,38.209167],[13.237111,38.211639]],[[14.996639,38.15625],[14.992944,38.156667],[14.994167,38.159583],[14.996639,38.15625]],[[14.990833,38.15625],[14.987944,38.157472],[14.988306,38.159583],[14.990833,38.15625]],[[12.680778,38.116222],[12.680361,38.118333],[12.681639,38.118694],[12.680778,38.116222]],[[12.809194,38.094556],[12.805389,38.095806],[12.805833,38.097917],[12.809194,38.094556]],[[12.829583,38.075806],[12.826611,38.07375],[12.824556,38.0775],[12.829583,38.075806]],[[12.83375,38.071667],[12.829972,38.070389],[12.829583,38.073306],[12.83375,38.071667]],[[12.835,38.06625],[12.833694,38.069139],[12.838306,38.069556],[12.835,38.06625]],[[12.530389,38.064139],[12.527444,38.062861],[12.527028,38.064972],[12.530389,38.064139]],[[14.507056,38.043333],[14.506639,38.042944],[14.506639,38.043722],[14.507056,38.043333]],[[14.039111,38.039583],[14.037889,38.039972],[14.038306,38.040389],[14.039111,38.039583]],[[14.149583,38.030833],[14.149139,38.030417],[14.149139,38.031222],[14.149583,38.030833]],[[14.119194,38.01875],[14.117889,38.019139],[14.118306,38.019556],[14.119194,38.01875]],[[14.116222,38.018333],[14.115806,38.017861],[14.115778,38.018722],[14.116222,38.018333]],[[12.495806,38.012861],[12.496194,38.011667],[12.486639,38.012056],[12.495806,38.012861]],[[13.826278,37.978306],[13.825833,37.977889],[13.824583,37.98],[13.826278,37.978306]]],[[[15.284076,37.034668],[15.284167,37.034583],[15.284295,37.034583],[15.284076,37.034668]]]]}}
