{"type":"Feature","properties":{"mrgid":48610,"name":"Gulf of Gabes","placeType":"FAO Subdivisions","source":"MarineRegions:gsas_mediterraneanfishingzones"},"geometry":{"type":"Polygon","coordinates":[[[15.3,35.0],[10.974333,35.0],[10.922056,34.959167],[10.924583,34.884972],[10.889556,34.851639],[10.887083,34.834972],[10.868722,34.827444],[10.86625,34.815806],[10.875389,34.799194],[10.8325,34.784556],[10.818333,34.767944],[10.771611,34.740389],[10.783722,34.725861],[10.771667,34.729583],[10.775778,34.721222],[10.75625,34.722472],[10.75375,34.682472],[10.7225,34.646222],[10.680833,34.644583],[10.649944,34.632056],[10.62875,34.610806],[10.624583,34.595806],[10.607083,34.585],[10.598333,34.540389],[10.564167,34.522917],[10.549972,34.522056],[10.562083,34.525806],[10.555,34.52875],[10.485778,34.515361],[10.437444,34.487889],[10.429139,34.49125],[10.432056,34.483306],[10.375,34.419556],[10.361611,34.417861],[10.360028,34.425389],[10.346667,34.427944],[10.343306,34.412917],[10.330389,34.418333],[10.328333,34.410389],[10.331583,34.417056],[10.339139,34.41125],[10.353306,34.415389],[10.349944,34.401222],[10.312472,34.393722],[10.285833,34.413694],[10.287917,34.404972],[10.275389,34.394972],[10.269167,34.371222],[10.238306,34.367056],[10.209944,34.34875],[10.190778,34.362028],[10.1775,34.33125],[10.123278,34.317028],[10.097056,34.291639],[10.062111,34.226639],[10.042083,34.208333],[10.036639,34.167889],[10.018722,34.173306],[10.017861,34.187528],[10.015361,34.175861],[10.026194,34.148333],[10.02125,34.116639],[10.032083,34.048306],[10.043722,34.005833],[10.084556,33.9375],[10.097083,33.928278],[10.092889,33.923278],[10.184583,33.823306],[10.223306,33.790417],[10.275806,33.764556],[10.285028,33.74375],[10.401639,33.672889],[10.48,33.652917],[10.481611,33.647917],[10.470389,33.647472],[10.485833,33.63125],[10.570833,33.655389],[10.562861,33.631667],[10.589111,33.629556],[10.597917,33.639139],[10.569194,33.640417],[10.574167,33.65375],[10.648306,33.675389],[10.700833,33.705444],[10.724972,33.707056],[10.734972,33.700389],[10.74625,33.678361],[10.732944,33.643333],[10.738722,33.604139],[10.724556,33.576667],[10.687917,33.553306],[10.683722,33.5375],[10.70375,33.519972],[10.697917,33.498306],[10.706639,33.489583],[10.729111,33.489556],[10.755,33.472083],[10.782472,33.474611],[10.810833,33.494583],[10.924167,33.52625],[10.950389,33.565],[10.930417,33.594972],[10.912083,33.605],[10.930806,33.622056],[10.952472,33.629583],[10.984944,33.622056],[10.99625,33.625833],[10.992472,33.639583],[11.054083,33.622028],[11.108639,33.559944],[11.117861,33.534083],[11.122833,33.494944],[11.111139,33.482417],[11.095306,33.432417],[11.108667,33.403278],[11.114889,33.407],[11.141139,33.385778],[11.11825,33.364528],[11.099472,33.359111],[11.111528,33.355361],[11.144083,33.367861],[11.172,33.344917],[11.179056,33.327],[11.297778,33.276583],[11.159944,33.317889],[11.131556,33.314472],[11.127,33.295778],[11.111556,33.287861],[11.089944,33.2995],[11.089889,33.289528],[11.127417,33.282028],[11.162806,33.251583],[11.176972,33.207417],[11.18825,33.201139],[11.267444,33.205333],[11.368222,33.179472],[11.392444,33.188694],[11.416556,33.176139],[11.440278,33.179917],[11.440722,33.196111],[11.419889,33.206194],[11.425722,33.195361],[11.329083,33.2645],[11.364917,33.248694],[11.444917,33.199472],[11.536992,33.167786],[15.3,35.0]],[[11.373278,34.877056],[11.370389,34.878306],[11.373333,34.87875],[11.373278,34.877056]],[[11.369111,34.874556],[11.367861,34.874972],[11.368278,34.877028],[11.369111,34.874556]],[[11.373278,34.874528],[11.371194,34.874167],[11.371667,34.876222],[11.373278,34.874528]],[[11.277472,34.806222],[11.286222,34.805778],[11.27625,34.814167],[11.280833,34.819556],[11.322861,34.800806],[11.292444,34.803722],[11.29875,34.795],[11.290389,34.788306],[11.299528,34.777472],[11.276194,34.777472],[11.310389,34.735833],[11.255,34.722056],[11.252444,34.710417],[11.189972,34.696194],[11.129167,34.663722],[11.12375,34.679167],[11.137056,34.686667],[11.136194,34.699972],[11.178722,34.732472],[11.182083,34.744139],[11.173333,34.762056],[11.183306,34.762111],[11.18375,34.752472],[11.209139,34.737083],[11.227083,34.739167],[11.234611,34.765806],[11.217861,34.783278],[11.231611,34.782917],[11.249139,34.789583],[11.244167,34.80875],[11.257917,34.796639],[11.25875,34.809167],[11.24625,34.816667],[11.252028,34.824972],[11.247056,34.830833],[11.277472,34.806222]],[[11.285833,34.822056],[11.283694,34.8225],[11.285806,34.826222],[11.285833,34.822056]],[[11.3175,34.827861],[11.339556,34.815028],[11.314972,34.817083],[11.307861,34.825806],[11.3175,34.827861]],[[11.255778,34.807028],[11.254556,34.807528],[11.255,34.808722],[11.255778,34.807028]],[[11.32375,34.795],[11.321639,34.794583],[11.32125,34.795778],[11.32375,34.795]],[[11.226194,34.801694],[11.235,34.790417],[11.22125,34.795833],[11.226194,34.801694]],[[11.2425,34.787889],[11.238778,34.789139],[11.240778,34.791222],[11.2425,34.787889]],[[11.238306,34.787028],[11.236222,34.787472],[11.237528,34.788778],[11.238306,34.787028]],[[11.304167,34.775389],[11.306639,34.767056],[11.312056,34.771639],[11.313333,34.760389],[11.294556,34.770833],[11.304167,34.775389]],[[11.212028,34.767472],[11.211694,34.764556],[11.207861,34.7675],[11.212028,34.767472]],[[11.355,34.757083],[11.353694,34.7575],[11.354167,34.759556],[11.355,34.757083]],[[11.349944,34.757056],[11.347861,34.7575],[11.349139,34.758722],[11.349944,34.757056]],[[11.367472,34.757056],[11.365417,34.7575],[11.366639,34.759583],[11.367472,34.757056]],[[11.347028,34.7575],[11.30875,34.745833],[11.320806,34.759556],[11.347028,34.7575]],[[11.306639,34.756222],[11.304583,34.757472],[11.304972,34.758722],[11.306639,34.756222]],[[11.360444,34.755833],[11.36,34.755361],[11.359972,34.756222],[11.360444,34.755833]],[[11.309583,34.754972],[11.308306,34.754528],[11.307861,34.755861],[11.309583,34.754972]],[[11.367083,34.7525],[11.365806,34.752056],[11.365389,34.754111],[11.367083,34.7525]],[[11.359167,34.752056],[11.357917,34.7525],[11.358306,34.75375],[11.359167,34.752056]],[[11.173278,34.733722],[11.172056,34.735],[11.173306,34.735389],[11.173278,34.733722]],[[11.174972,34.732083],[11.172889,34.732472],[11.173333,34.732917],[11.174972,34.732083]],[[11.172028,34.733333],[11.171694,34.731222],[11.169556,34.732472],[11.172028,34.733333]],[[11.090833,34.673722],[11.12625,34.659944],[11.05,34.619583],[11.050778,34.612056],[10.973722,34.653306],[10.991639,34.672083],[11.090833,34.673722]],[[10.297444,34.401222],[10.295778,34.400361],[10.297472,34.402944],[10.297444,34.401222]],[[10.294583,34.399111],[10.289167,34.397056],[10.28875,34.400778],[10.294583,34.399111]],[[10.297889,34.397472],[10.295778,34.39625],[10.294556,34.397472],[10.297889,34.397472]],[[10.2875,34.396222],[10.28625,34.396639],[10.2875,34.397083],[10.2875,34.396222]],[[10.279556,34.386639],[10.279139,34.386222],[10.278722,34.3875],[10.279556,34.386639]],[[10.282083,34.385861],[10.280833,34.385417],[10.280389,34.386611],[10.282083,34.385861]],[[10.2775,34.383722],[10.277083,34.384194],[10.278333,34.384583],[10.2775,34.383722]],[[10.275,34.382028],[10.274583,34.3825],[10.275833,34.382889],[10.275,34.382028]],[[10.313306,34.381222],[10.322056,34.362472],[10.304972,34.355389],[10.298694,34.37],[10.313306,34.381222]],[[10.275,34.372889],[10.273694,34.374139],[10.274944,34.375389],[10.275,34.372889]],[[10.273306,34.371222],[10.272056,34.371639],[10.273333,34.372889],[10.273306,34.371222]],[[10.7925,33.902889],[10.905,33.872917],[10.934167,33.878778],[10.929556,33.893333],[10.939167,33.892889],[11.014111,33.835333],[11.055722,33.827833],[11.060306,33.793222],[11.053639,33.793278],[11.049917,33.806972],[11.049528,33.798278],[11.060333,33.779944],[11.04825,33.779528],[10.991194,33.741639],[10.9725,33.679583],[10.965361,33.690806],[10.971222,33.7075],[10.966639,33.724556],[10.951222,33.716694],[10.938306,33.690417],[10.899972,33.673722],[10.886639,33.630417],[10.869556,33.654167],[10.879583,33.687444],[10.838306,33.729583],[10.816667,33.73375],[10.795833,33.721278],[10.789611,33.711639],[10.792528,33.693722],[10.782444,33.700389],[10.763278,33.697056],[10.729583,33.749194],[10.729556,33.765],[10.749556,33.794139],[10.744556,33.859139],[10.752056,33.862472],[10.745389,33.886611],[10.795,33.897889],[10.7925,33.902889]],[[10.742944,33.873306],[10.740861,33.872083],[10.740361,33.875806],[10.742944,33.873306]],[[10.722917,33.740806],[10.722861,33.721694],[10.721611,33.72125],[10.707889,33.734139],[10.722917,33.740806]],[[11.049917,33.685361],[11.047806,33.685722],[11.04825,33.687056],[11.049917,33.685361]],[[10.78125,33.691639],[10.780806,33.680444],[10.768722,33.688333],[10.78125,33.691639]],[[10.767028,33.679139],[10.765778,33.67875],[10.765389,33.679972],[10.767028,33.679139]],[[10.97875,33.668306],[10.973333,33.664556],[10.971222,33.671639],[10.97875,33.668306]],[[10.985361,33.652472],[10.982472,33.648722],[10.977917,33.659167],[10.985361,33.652472]],[[10.986639,33.638694],[10.982889,33.643333],[10.989167,33.645417],[10.986639,33.638694]],[[10.485,33.637889],[10.482889,33.643306],[10.484972,33.644556],[10.485,33.637889]],[[10.87375,33.598333],[10.871639,33.582083],[10.859583,33.5975],[10.87375,33.598333]],[[10.871667,33.577056],[10.869556,33.577472],[10.869972,33.578722],[10.871667,33.577056]],[[10.871611,33.574528],[10.870389,33.575],[10.870806,33.576194],[10.871611,33.574528]],[[11.123222,33.283694],[11.121167,33.28575],[11.124111,33.286222],[11.123222,33.283694]],[[11.299944,33.272833],[11.297833,33.273278],[11.299111,33.275361],[11.299944,33.272833]],[[11.306167,33.271639],[11.303222,33.271167],[11.302806,33.273278],[11.306167,33.271639]],[[11.312806,33.269944],[11.307,33.269944],[11.308222,33.272],[11.312806,33.269944]],[[11.319083,33.265361],[11.317,33.26575],[11.318194,33.267861],[11.319083,33.265361]],[[11.314917,33.264472],[11.312,33.265722],[11.314056,33.268667],[11.314917,33.264472]],[[11.323639,33.264083],[11.321583,33.263667],[11.321139,33.265722],[11.323639,33.264083]]]}}
