{"type":"Feature","properties":{"mrgid":48968,"name":"Joint regime area: Costa Rica / Ecuador (Galapagos)","placeType":"Joint regime (EEZ)","source":"MarineRegions:eez"},"geometry":{"type":"Polygon","coordinates":[[[-90.135,4.616944],[-90.241667,4.719722],[-90.339983,4.715004],[-90.310733,4.570481],[-90.437558,4.641644],[-90.471111,4.595],[-90.432778,4.455],[-89.605,3.388333],[-89.497778,3.286111],[-87.276667,2.032778],[-87.137778,1.983056],[-87.057922,2.026376],[-87.136498,2.147619],[-86.992932,2.148091],[-86.984444,2.195],[-87.078889,2.305556],[-89.3,3.558889],[-89.399444,3.668889],[-90.135,4.616944]]]}}
