{"type":"Feature","properties":{"mrgid":49083,"name":"Emirati 12 NM","placeType":"Territorial Sea","source":"MarineRegions:eez_12nm"},"geometry":{"type":"MultiPolygon","coordinates":[[[[56.5747,25.628324],[56.550929,25.690829],[56.515817,25.692968],[56.420176,25.681286],[56.287385,25.628234],[56.269712,25.62946],[56.289876,25.605796],[56.300416,25.610331],[56.297318,25.615757],[56.354916,25.597356],[56.356127,25.548029],[56.370247,25.52661],[56.359302,25.487667],[56.366783,25.405999],[56.358263,25.374621],[56.348537,25.36532],[56.360476,25.347969],[56.365765,25.359056],[56.381372,25.335968],[56.381553,25.323179],[56.370732,25.315545],[56.372112,25.266863],[56.360339,25.221304],[56.355717,25.155214],[56.362397,25.043989],[56.375316,25.029967],[56.366867,25.028893],[56.359931,25.011751],[56.373829,24.980427],[56.4386,25.001896],[56.5951,25.006753],[56.595221,25.049779],[56.578581,25.140149],[56.602157,25.342371],[56.585998,25.474284],[56.590456,25.546121],[56.5747,25.628324]],[[56.369544,25.429255],[56.370686,25.428657],[56.369621,25.427378],[56.369544,25.429255]],[[56.378373,25.354207],[56.380007,25.353225],[56.378992,25.352092],[56.378373,25.354207]],[[56.36716,25.025507],[56.376059,25.028885],[56.368734,25.024492],[56.368492,25.004298],[56.36716,25.025507]]],[[[51.591106,24.260215],[51.604339,24.280873],[51.593009,24.309811],[51.592738,24.352701],[51.582406,24.350844],[51.530523,24.386288],[51.519179,24.425068],[51.715089,24.606373],[51.809193,24.679973],[51.822583,24.680145],[51.827674,24.671357],[52.011806,24.256917],[52.762306,24.400917],[53.076528,24.382694],[53.422417,24.426556],[53.806139,24.317667],[54.108056,24.366361],[54.563686,24.703509],[54.580934,24.665642],[54.60641,24.681821],[54.613623,24.674429],[54.600731,24.67143],[54.611551,24.660412],[54.614825,24.631555],[54.598917,24.621672],[54.599865,24.609375],[54.611194,24.598232],[54.603323,24.610453],[54.607353,24.617679],[54.634369,24.62126],[54.6545,24.638538],[54.64138,24.640793],[54.643883,24.653553],[54.660603,24.652447],[54.665838,24.654461],[54.659261,24.662096],[54.672627,24.662809],[54.658645,24.67458],[54.654261,24.660442],[54.642792,24.662185],[54.64835,24.67211],[54.640486,24.67652],[54.65215,24.680148],[54.655844,24.67608],[54.664794,24.686135],[54.663574,24.694454],[54.654612,24.694462],[54.659338,24.704411],[54.652324,24.699647],[54.652489,24.704905],[54.657986,24.70609],[54.665663,24.702464],[54.665432,24.712157],[54.658524,24.707206],[54.646395,24.722618],[54.635898,24.719085],[54.635272,24.727162],[54.670042,24.738309],[54.664591,24.742981],[54.648622,24.732311],[54.647392,24.741517],[54.642171,24.738797],[54.666363,24.756022],[54.678037,24.753721],[54.668437,24.756789],[54.68879,24.776943],[54.70836,24.813419],[54.750234,24.79103],[54.750311,24.800096],[54.764562,24.799294],[54.771208,24.804036],[54.773359,24.810627],[54.761826,24.839124],[54.764739,24.854534],[54.773045,24.844093],[54.804719,24.85513],[54.80628,24.870708],[54.808053,24.861953],[54.80628,24.857705],[54.812168,24.858155],[54.841901,24.889891],[54.851932,24.883754],[54.856307,24.899869],[54.869791,24.896586],[54.899393,24.911714],[54.962011,24.964371],[54.986577,24.970937],[54.961811,24.983736],[54.953426,24.995779],[54.954781,25.013334],[54.97286,25.035401],[54.986732,25.035652],[54.962266,25.020769],[54.95626,25.001969],[54.963031,24.987604],[54.99187,24.973796],[55.002349,24.9785],[54.990339,25.001176],[54.984675,24.986807],[54.984382,24.995216],[54.988034,25.002238],[54.978822,24.987338],[54.980514,24.994803],[54.98657,25.00392],[54.973483,24.989315],[54.975599,24.995865],[54.985496,25.005956],[54.969512,24.991705],[54.973191,24.999966],[54.984488,25.007844],[54.964954,24.998225],[54.96987,25.003861],[54.983381,25.010116],[54.96375,25.004658],[54.970717,25.009378],[54.981982,25.011443],[54.966126,25.011414],[54.970847,25.014482],[54.981136,25.014276],[54.969544,25.018229],[54.985075,25.021681],[54.985141,25.016282],[54.994811,25.026933],[54.986769,25.014128],[55.003928,25.023009],[54.988235,25.011414],[55.008683,25.018613],[54.988821,25.009968],[55.011774,25.012299],[54.990124,25.00808],[55.012165,25.007844],[54.991362,25.006398],[55.010504,25.003625],[54.99237,25.004451],[55.007605,24.997222],[54.991686,25.001855],[55.004643,24.979949],[55.014696,24.984214],[55.018365,25.021106],[54.988929,25.031978],[55.000277,25.035814],[55.013888,25.030061],[55.022657,25.017419],[55.015782,24.985096],[55.031957,24.997285],[55.045278,24.996858],[55.038287,25.020614],[55.055216,24.972085],[55.0818,24.995047],[55.060488,24.981727],[55.057642,24.988736],[55.075454,25.004601],[55.071414,25.008437],[55.055063,24.994385],[55.043363,25.020051],[55.076691,25.023639],[55.124318,25.074863],[55.124302,25.072237],[55.131598,25.069095],[55.147627,25.083911],[55.140738,25.091556],[55.142426,25.09429],[55.145969,25.093106],[55.152156,25.102425],[55.134799,25.11584],[55.1332,25.10501],[55.133431,25.116854],[55.129343,25.103948],[55.132169,25.117627],[55.124829,25.103626],[55.126162,25.111077],[55.13105,25.118528],[55.120386,25.104623],[55.123141,25.112718],[55.130019,25.119284],[55.116369,25.108389],[55.121382,25.115889],[55.128775,25.120379],[55.115356,25.114247],[55.127176,25.121489],[55.116743,25.120347],[55.125363,25.122873],[55.119195,25.124869],[55.124261,25.130099],[55.126768,25.124354],[55.128047,25.132256],[55.128581,25.122809],[55.133949,25.134991],[55.130039,25.121698],[55.140402,25.135136],[55.131425,25.120813],[55.145593,25.132111],[55.132404,25.119944],[55.147281,25.128409],[55.13363,25.119156],[55.147885,25.124257],[55.13475,25.118222],[55.147494,25.120507],[55.13603,25.117385],[55.147725,25.11502],[55.154678,25.103035],[55.162115,25.110375],[55.250328,25.217534],[55.264095,25.237263],[55.26331,25.250208],[55.275148,25.25377],[55.25427,25.264478],[55.26096,25.282631],[55.275015,25.256302],[55.28806,25.271387],[55.274266,25.268582],[55.2915,25.281574],[55.290249,25.26547],[55.307541,25.262579],[55.344188,25.225655],[55.317355,25.190669],[55.34731,25.201263],[55.347617,25.227834],[55.30731,25.265679],[55.291728,25.267103],[55.324689,25.294451],[55.307244,25.294773],[55.327117,25.318648],[55.320423,25.328529],[55.29368,25.330428],[55.294676,25.353248],[55.330928,25.326276],[55.329985,25.305958],[55.315745,25.304832],[55.317213,25.298072],[55.330757,25.297259],[55.352362,25.328022],[55.34759,25.307307],[55.355328,25.298424],[55.350819,25.31589],[55.359696,25.306792],[55.363779,25.309882],[55.355471,25.328421],[55.36661,25.32649],[55.364889,25.318015],[55.373287,25.316137],[55.372248,25.325176],[55.36204,25.330567],[55.355613,25.330009],[55.368869,25.351859],[55.368598,25.369921],[55.372225,25.359181],[55.385269,25.369432],[55.370296,25.367271],[55.38523,25.377173],[55.388317,25.373373],[55.387738,25.36741],[55.377165,25.358379],[55.375969,25.353776],[55.376551,25.332284],[55.3841,25.324988],[55.389559,25.331254],[55.377782,25.356671],[55.389643,25.366907],[55.391134,25.375465],[55.419623,25.394297],[55.44219,25.42541],[55.444091,25.418844],[55.455779,25.422235],[55.454162,25.398245],[55.466657,25.395541],[55.456252,25.40142],[55.457963,25.415883],[55.463711,25.410004],[55.459818,25.422964],[55.482581,25.419445],[55.474219,25.430946],[55.484864,25.423393],[55.498217,25.426826],[55.473933,25.436268],[55.456445,25.424638],[55.444733,25.425813],[55.477072,25.458401],[55.477315,25.477947],[55.482062,25.466327],[55.480413,25.475621],[55.487722,25.474816],[55.489371,25.482541],[55.494228,25.470431],[55.50684,25.463591],[55.49561,25.472483],[55.491822,25.481616],[55.496902,25.474374],[55.509826,25.479001],[55.515396,25.463793],[55.517446,25.472362],[55.514148,25.478116],[55.506082,25.48057],[55.496457,25.475983],[55.493316,25.481431],[55.557299,25.585359],[55.579471,25.605424],[55.580387,25.58483],[55.564554,25.583473],[55.564226,25.525349],[55.571289,25.532902],[55.583388,25.528418],[55.626032,25.539511],[55.633669,25.535528],[55.649154,25.54796],[55.633384,25.561495],[55.646723,25.585856],[55.666337,25.595466],[55.671466,25.609732],[55.699868,25.626431],[55.70013,25.629205],[55.698363,25.629676],[55.693996,25.626281],[55.695025,25.628614],[55.747737,25.658247],[55.737654,25.675177],[55.740083,25.681658],[55.750035,25.682516],[55.738273,25.675693],[55.752844,25.663633],[55.775556,25.696206],[55.781557,25.686464],[55.783748,25.694404],[55.789701,25.691829],[55.786081,25.697107],[55.77608,25.697021],[55.798547,25.723618],[55.800053,25.710341],[55.816429,25.715416],[55.802542,25.718897],[55.836925,25.714944],[55.845309,25.718485],[55.848321,25.72173],[55.848387,25.726038],[55.867063,25.736659],[55.849244,25.722025],[55.855241,25.718478],[55.870202,25.726424],[55.905865,25.755162],[55.949985,25.807571],[55.951473,25.790995],[55.937593,25.773668],[55.951115,25.766802],[55.944384,25.779301],[55.952128,25.772166],[55.965773,25.775331],[55.963688,25.786597],[55.95355,25.792073],[55.966547,25.795233],[55.952248,25.796789],[55.953738,25.804192],[55.950195,25.811364],[55.987823,25.836207],[56.010644,25.863823],[56.005987,25.86754],[56.015627,25.885951],[56.032531,25.882164],[56.05787,25.900526],[56.050324,25.925723],[56.059443,25.940384],[56.059379,25.946848],[56.052816,25.951332],[56.057541,25.957174],[56.052238,25.97183],[56.045555,25.974941],[56.070899,25.989734],[56.085516,26.048283],[55.865884,26.092511],[55.842731,26.048886],[55.831463,26.007929],[55.802651,25.961285],[55.765115,25.922043],[55.693929,25.900609],[55.576971,25.817685],[55.488423,25.78859],[55.439303,25.76088],[55.380056,25.705707],[55.334441,25.631245],[55.30023,25.598297],[55.275079,25.559015],[55.216445,25.566529],[55.159089,25.560246],[55.103433,25.539636],[55.05933,25.509204],[55.012643,25.44851],[54.993627,25.37988],[54.934949,25.309276],[54.913386,25.228748],[54.857117,25.206396],[54.809541,25.172028],[54.776136,25.132422],[54.744311,25.072742],[54.671724,25.058465],[54.606769,25.021598],[54.496332,24.894611],[54.437263,24.867777],[54.293308,24.761797],[54.2258,24.797717],[54.148205,24.809811],[54.073135,24.796935],[54.005033,24.75945],[53.962887,24.713875],[53.937955,24.6619],[53.93006,24.601246],[53.941668,24.543397],[53.820134,24.523898],[53.544838,24.602028],[53.535886,24.646325],[53.584823,24.635162],[53.638396,24.634419],[53.764531,24.664611],[53.827782,24.692807],[53.881142,24.740662],[53.929959,24.84341],[53.939104,24.914761],[53.915763,24.994495],[53.859207,25.05891],[53.801155,25.090289],[53.731039,25.104467],[53.673337,25.100401],[53.619388,25.083855],[53.565092,25.097546],[53.512325,25.098596],[53.434292,25.077849],[53.375315,25.03832],[53.3322,24.980724],[53.316,24.932791],[53.313163,24.881321],[53.323145,24.835535],[53.347548,24.788221],[53.293009,24.787509],[53.308301,24.829682],[53.313073,24.873176],[53.29086,24.962654],[53.255681,25.015533],[53.2155,25.053034],[53.160454,25.082589],[53.099483,25.097951],[53.103975,25.144032],[53.097301,25.200907],[53.059754,25.27938],[53.016643,25.320416],[52.965457,25.347785],[52.909934,25.362181],[52.84523,25.362828],[52.794478,25.351924],[52.742554,25.327674],[52.702841,25.295947],[52.672581,25.256542],[52.653505,25.211723],[52.646491,25.159055],[52.651212,25.111843],[52.667239,25.066386],[52.626445,24.994078],[52.597697,25.053303],[52.553494,25.106773],[52.506138,25.140306],[52.44599,25.161959],[52.383877,25.166912],[52.320163,25.155047],[52.263253,25.126933],[52.216524,25.084241],[52.189464,25.040988],[52.174681,24.991825],[52.173616,24.943773],[52.185458,24.890987],[52.206327,24.849176],[52.237612,24.811685],[52.276309,24.781373],[52.332792,24.755448],[52.335342,24.744074],[52.259592,24.74059],[52.192865,24.716849],[52.141226,24.678053],[52.091249,24.611261],[52.029162,24.751403],[51.991823,24.808277],[51.725431,24.749984],[51.5171,24.425163],[51.524918,24.383362],[51.57025,24.335171],[51.592309,24.27896],[51.591106,24.260215]],[[55.196233,25.152381],[55.19614,25.152442],[55.197384,25.155178],[55.196233,25.152381]],[[55.188327,25.143383],[55.188069,25.143587],[55.188515,25.145434],[55.188327,25.143383]],[[55.188515,25.145434],[55.188556,25.145875],[55.188629,25.145905],[55.188515,25.145434]],[[55.162162,25.112328],[55.16163,25.112426],[55.162231,25.115148],[55.162162,25.112328]],[[55.156043,25.105488],[55.155575,25.105967],[55.156363,25.108089],[55.156043,25.105488]],[[55.136169,25.099708],[55.136219,25.099589],[55.135055,25.098884],[55.136169,25.099708]],[[55.136169,25.099708],[55.135677,25.100884],[55.136486,25.099846],[55.136169,25.099708]],[[55.134823,25.099121],[55.123688,25.097148],[55.114677,25.102832],[55.12388,25.099519],[55.134823,25.099121]],[[55.137734,25.090589],[55.145605,25.083469],[55.12662,25.071407],[55.125838,25.075446],[55.137734,25.090589]],[[55.137734,25.090589],[55.13772,25.090768],[55.139845,25.091942],[55.137734,25.090589]],[[55.170864,25.198781],[55.171483,25.199533],[55.171793,25.199489],[55.170864,25.198781]],[[55.17445,25.199799],[55.175005,25.199961],[55.17538,25.199194],[55.17445,25.199799]],[[55.170733,25.199769],[55.168108,25.202115],[55.17057,25.201097],[55.170733,25.199769]],[[55.151602,25.200655],[55.150396,25.201879],[55.152221,25.202307],[55.151602,25.200655]],[[55.143466,25.202351],[55.142618,25.203797],[55.147102,25.202941],[55.143466,25.202351]],[[55.133881,25.218515],[55.135683,25.224395],[55.139952,25.207057],[55.133881,25.218515]],[[55.140544,25.224572],[55.142059,25.224384],[55.142121,25.223821],[55.140544,25.224572]],[[55.144542,25.225497],[55.145668,25.224641],[55.144901,25.22414],[55.144542,25.225497]],[[55.151734,25.223992],[55.150054,25.223771],[55.14932,25.224863],[55.151734,25.223992]],[[55.160579,25.225733],[55.160921,25.227931],[55.162079,25.22709],[55.160579,25.225733]],[[55.145635,25.2256],[55.144754,25.226486],[55.146304,25.226663],[55.145635,25.2256]],[[55.141063,25.225942],[55.1408,25.226827],[55.142163,25.226468],[55.141063,25.225942]],[[55.139702,25.226176],[55.139995,25.227852],[55.140351,25.227916],[55.139702,25.226176]],[[55.138904,25.226524],[55.138219,25.226637],[55.138593,25.228458],[55.138904,25.226524]],[[55.146222,25.229347],[55.14495,25.228005],[55.14327,25.228787],[55.146222,25.229347]],[[55.160856,25.23246],[55.162959,25.232726],[55.16159,25.228624],[55.160856,25.23246]],[[55.166601,25.233673],[55.168625,25.231782],[55.167535,25.231641],[55.166601,25.233673]],[[55.161863,25.23728],[55.164242,25.237662],[55.162686,25.234082],[55.161863,25.23728]],[[55.167202,25.238702],[55.170337,25.237776],[55.169804,25.236972],[55.167202,25.238702]],[[55.162574,25.238829],[55.163464,25.242148],[55.164576,25.241746],[55.162574,25.238829]],[[55.169929,25.242446],[55.171263,25.243677],[55.171704,25.242736],[55.169929,25.242446]],[[55.168928,25.242422],[55.166753,25.242772],[55.16762,25.2441],[55.168928,25.242422]],[[55.164523,25.24298],[55.163263,25.24361],[55.163974,25.244348],[55.164523,25.24298]],[[55.170009,25.245476],[55.17097,25.244462],[55.170329,25.244076],[55.170009,25.245476]],[[55.16648,25.248626],[55.16866,25.247084],[55.168778,25.245997],[55.16648,25.248626]],[[55.168319,25.248827],[55.170573,25.250597],[55.171655,25.246654],[55.168319,25.248827]],[[55.171548,25.251313],[55.179469,25.255412],[55.181501,25.254781],[55.178164,25.250812],[55.171548,25.251313]],[[55.181441,25.250289],[55.181441,25.249873],[55.180048,25.249578],[55.181441,25.250289]],[[55.177245,25.248425],[55.177037,25.24884],[55.179469,25.249913],[55.177245,25.248425]],[[55.176441,25.247008],[55.175373,25.247938],[55.175627,25.248372],[55.176441,25.247008]],[[55.171922,25.247969],[55.174695,25.250557],[55.174665,25.24931],[55.171922,25.247969]],[[55.17941,25.247969],[55.18116,25.247633],[55.181857,25.246145],[55.17941,25.247969]],[[55.180244,25.243544],[55.17528,25.24358],[55.178589,25.246139],[55.180244,25.243544]],[[55.173759,25.242373],[55.172598,25.242965],[55.173225,25.244051],[55.173759,25.242373]],[[55.178669,25.242796],[55.178469,25.241903],[55.176454,25.241348],[55.178669,25.242796]],[[55.180551,25.242567],[55.181645,25.240937],[55.17991,25.241275],[55.180551,25.242567]],[[55.17995,25.239803],[55.179336,25.238451],[55.177735,25.239851],[55.17995,25.239803]],[[55.181119,25.239832],[55.182853,25.239253],[55.182693,25.238842],[55.181119,25.239832]],[[55.185292,25.237787],[55.183224,25.238149],[55.183146,25.238455],[55.185292,25.237787]],[[55.195313,25.237381],[55.195313,25.236938],[55.192637,25.236356],[55.195313,25.237381]],[[55.184886,25.235526],[55.182924,25.235864],[55.183338,25.237493],[55.184886,25.235526]],[[55.191889,25.23554],[55.190767,25.233323],[55.189943,25.234735],[55.191889,25.23554]],[[55.192856,25.234122],[55.194669,25.233961],[55.193468,25.232895],[55.192856,25.234122]],[[55.184097,25.232416],[55.182282,25.233044],[55.183203,25.233707],[55.184097,25.232416]],[[55.178542,25.23034],[55.178408,25.230316],[55.176994,25.230955],[55.178542,25.23034]],[[55.183658,25.232055],[55.184806,25.231041],[55.184752,25.230957],[55.183658,25.232055]],[[55.179245,25.230837],[55.18068,25.229657],[55.179473,25.229421],[55.179245,25.230837]],[[55.181538,25.230231],[55.182846,25.229809],[55.182606,25.228916],[55.181538,25.230231]],[[55.176806,25.226956],[55.172616,25.227812],[55.17317,25.228948],[55.176806,25.226956]],[[55.169713,25.225614],[55.169077,25.22523],[55.168881,25.226307],[55.169713,25.225614]],[[55.172632,25.224684],[55.170594,25.224788],[55.170333,25.226219],[55.172632,25.224684]],[[55.177051,25.225776],[55.175926,25.224699],[55.17542,25.225319],[55.177051,25.225776]],[[55.17454,25.224802],[55.174312,25.224714],[55.173268,25.225451],[55.17454,25.224802]],[[55.167069,25.222871],[55.166906,25.222871],[55.166482,25.224317],[55.167069,25.222871]],[[55.17077,25.223166],[55.170216,25.221898],[55.169189,25.222665],[55.17077,25.223166]],[[55.17726,25.222119],[55.175222,25.221942],[55.175287,25.223093],[55.17726,25.222119]],[[55.197209,25.221835],[55.188566,25.20519],[55.188281,25.21446],[55.197209,25.221835]],[[55.169673,25.206319],[55.169836,25.203797],[55.169103,25.205538],[55.169673,25.206319]],[[55.168614,25.203413],[55.166494,25.20303],[55.166625,25.204092],[55.168614,25.203413]],[[55.170652,25.203354],[55.170896,25.202292],[55.170717,25.20213],[55.170652,25.203354]],[[55.154341,25.201363],[55.153118,25.201879],[55.154716,25.202277],[55.154341,25.201363]],[[55.148528,25.202746],[55.148553,25.203712],[55.149682,25.203133],[55.148528,25.202746]],[[55.147281,25.203649],[55.146922,25.204505],[55.147754,25.204697],[55.147281,25.203649]],[[55.145422,25.203885],[55.144901,25.204756],[55.145097,25.204918],[55.145422,25.203885]],[[55.143156,25.20539],[55.144412,25.206777],[55.144738,25.206762],[55.143156,25.20539]],[[55.142504,25.205036],[55.140548,25.205449],[55.140417,25.205936],[55.142504,25.205036]],[[55.142292,25.206791],[55.142488,25.208075],[55.143564,25.20778],[55.142292,25.206791]],[[55.145211,25.209638],[55.145732,25.209535],[55.145814,25.208045],[55.145211,25.209638]],[[55.14045,25.209476],[55.141754,25.210951],[55.14208,25.210907],[55.14045,25.209476]],[[55.143124,25.209506],[55.14464,25.211114],[55.144982,25.210539],[55.143124,25.209506]],[[55.14989,25.211689],[55.15095,25.212088],[55.151325,25.210288],[55.14989,25.211689]],[[55.140042,25.212456],[55.140009,25.213164],[55.142406,25.212677],[55.140042,25.212456]],[[55.144835,25.211748],[55.143107,25.213636],[55.145569,25.212943],[55.144835,25.211748]],[[55.14932,25.214477],[55.15157,25.214699],[55.152254,25.213592],[55.14932,25.214477]],[[55.166757,25.215556],[55.169042,25.216306],[55.168748,25.214418],[55.166757,25.215556]],[[55.169009,25.218342],[55.17183,25.217988],[55.170672,25.21613],[55.169009,25.218342]],[[55.16627,25.217634],[55.166155,25.220024],[55.167542,25.220201],[55.16627,25.217634]],[[55.166751,25.215705],[55.165748,25.215067],[55.164998,25.21582],[55.166751,25.215705]],[[55.14764,25.214595],[55.14539,25.213769],[55.146026,25.214979],[55.14764,25.214595]],[[55.140743,25.215289],[55.140971,25.213902],[55.139471,25.21548],[55.140743,25.215289]],[[55.142846,25.217133],[55.144933,25.217029],[55.144297,25.215687],[55.142846,25.217133]],[[55.141183,25.216218],[55.140237,25.216616],[55.140775,25.217369],[55.141183,25.216218]],[[55.146238,25.216897],[55.14689,25.217251],[55.147363,25.216115],[55.146238,25.216897]],[[55.15078,25.218792],[55.151033,25.220747],[55.152573,25.219228],[55.15078,25.218792]],[[55.149581,25.218918],[55.149385,25.21877],[55.148016,25.219788],[55.149581,25.218918]],[[55.140959,25.220103],[55.14044,25.220929],[55.141893,25.221643],[55.140959,25.220103]],[[55.139278,25.220385],[55.138531,25.22123],[55.139215,25.222394],[55.139278,25.220385]],[[55.14358,25.223225],[55.144771,25.223078],[55.143857,25.221485],[55.14358,25.223225]],[[55.147641,25.223933],[55.148896,25.223579],[55.14844,25.22262],[55.147641,25.223933]],[[55.146809,25.225305],[55.148228,25.225187],[55.148114,25.224583],[55.146809,25.225305]],[[55.158116,25.224155],[55.160693,25.223801],[55.160269,25.222266],[55.158116,25.224155]],[[55.161883,25.225158],[55.16247,25.22535],[55.163074,25.223978],[55.161883,25.225158]],[[55.16397,25.225689],[55.164933,25.226014],[55.164704,25.224848],[55.16397,25.225689]],[[55.165717,25.226779],[55.166582,25.228461],[55.168294,25.22554],[55.165717,25.226779]],[[55.168457,25.228505],[55.170186,25.22821],[55.169126,25.227532],[55.168457,25.228505]],[[55.164052,25.226397],[55.162193,25.227444],[55.16291,25.228698],[55.164052,25.226397]],[[55.148293,25.226146],[55.145455,25.227695],[55.146287,25.228861],[55.148293,25.226146]],[[55.143381,25.226323],[55.142455,25.226574],[55.143048,25.228393],[55.143381,25.226323]],[[55.171422,25.228403],[55.172352,25.228034],[55.172042,25.226943],[55.171422,25.228403]],[[55.165748,25.225364],[55.166351,25.225173],[55.16534,25.223624],[55.165748,25.225364]],[[55.164867,25.223299],[55.165992,25.222414],[55.165259,25.220998],[55.164867,25.223299]],[[55.171113,25.222414],[55.172531,25.223151],[55.171911,25.221544],[55.171113,25.222414]],[[55.173705,25.220717],[55.173575,25.217944],[55.171373,25.219685],[55.173705,25.220717]],[[55.177407,25.221676],[55.178597,25.220806],[55.177374,25.220467],[55.177407,25.221676]],[[55.18419,25.22113],[55.185609,25.218549],[55.183587,25.219832],[55.18419,25.22113]],[[55.182086,25.217708],[55.180782,25.219286],[55.182005,25.219759],[55.182086,25.217708]],[[55.177863,25.216572],[55.17607,25.217221],[55.176869,25.218357],[55.177863,25.216572]],[[55.180195,25.217265],[55.179983,25.215525],[55.179673,25.215421],[55.180195,25.217265]],[[55.180945,25.216262],[55.181548,25.217162],[55.182837,25.216528],[55.180945,25.216262]],[[55.184598,25.213105],[55.183815,25.212073],[55.182168,25.212825],[55.183342,25.21399],[55.184598,25.213105]],[[55.153608,25.210863],[55.151994,25.21135],[55.151977,25.211674],[55.153608,25.210863]],[[55.169221,25.212368],[55.169678,25.214315],[55.170624,25.213194],[55.169221,25.212368]],[[55.154929,25.213474],[55.15276,25.213769],[55.153298,25.214123],[55.154929,25.213474]],[[55.148358,25.211763],[55.147118,25.212397],[55.14883,25.213474],[55.148358,25.211763]],[[55.177048,25.213563],[55.178564,25.215259],[55.180896,25.212633],[55.177048,25.213563]],[[55.174396,25.214348],[55.173428,25.215067],[55.174553,25.215392],[55.174396,25.214348]],[[55.172107,25.214389],[55.170526,25.214581],[55.171015,25.215628],[55.172107,25.214389]],[[55.182054,25.215053],[55.182413,25.213725],[55.180749,25.213725],[55.182054,25.215053]],[[55.174847,25.217324],[55.174602,25.218977],[55.175825,25.219242],[55.174847,25.217324]],[[55.178744,25.219832],[55.180521,25.219006],[55.179934,25.218165],[55.178744,25.219832]],[[55.175923,25.219626],[55.175271,25.220894],[55.176477,25.221086],[55.175923,25.219626]],[[55.17077,25.219375],[55.17064,25.219345],[55.169743,25.220349],[55.17077,25.219375]],[[55.163074,25.218903],[55.161443,25.219936],[55.162046,25.220894],[55.163074,25.218903]],[[55.146075,25.220481],[55.144982,25.221396],[55.146564,25.221263],[55.146075,25.220481]],[[55.145716,25.22262],[55.146075,25.223196],[55.147869,25.221735],[55.145716,25.22262]],[[55.150641,25.222975],[55.151391,25.221352],[55.150266,25.221189],[55.150641,25.222975]],[[55.163204,25.223196],[55.16415,25.221912],[55.162079,25.221367],[55.163204,25.223196]],[[55.153999,25.207957],[55.152776,25.207278],[55.152189,25.207544],[55.153999,25.207957]],[[55.168071,25.20964],[55.168765,25.207588],[55.168525,25.207419],[55.168071,25.20964]],[[55.164336,25.207178],[55.164397,25.207762],[55.166497,25.208554],[55.164336,25.207178]],[[55.163109,25.206067],[55.161535,25.206333],[55.161588,25.207057],[55.163109,25.206067]],[[55.166576,25.206585],[55.16788,25.205479],[55.165663,25.205139],[55.166576,25.206585]],[[55.16563,25.203605],[55.16276,25.20511],[55.164211,25.206069],[55.16563,25.203605]],[[55.149678,25.204018],[55.149727,25.205051],[55.150836,25.205405],[55.149678,25.204018]],[[55.160681,25.206574],[55.161615,25.205488],[55.160094,25.20416],[55.160681,25.206574]],[[55.14702,25.205833],[55.145895,25.206777],[55.14764,25.207337],[55.14702,25.205833]],[[55.149303,25.20685],[55.150461,25.208045],[55.15214,25.206334],[55.149303,25.20685]],[[55.160374,25.20747],[55.159901,25.208296],[55.161108,25.208532],[55.160374,25.20747]],[[55.146694,25.209108],[55.147118,25.209875],[55.148276,25.209388],[55.146694,25.209108]],[[55.149303,25.210406],[55.150559,25.209461],[55.150347,25.209255],[55.149303,25.210406]],[[55.166846,25.229609],[55.167469,25.230534],[55.168758,25.22977],[55.166846,25.229609]],[[55.166384,25.228846],[55.162421,25.229761],[55.163873,25.230159],[55.166384,25.228846]],[[55.164655,25.231029],[55.164688,25.232372],[55.166678,25.231722],[55.164655,25.231029]],[[55.170006,25.231825],[55.170985,25.231529],[55.171017,25.230689],[55.170006,25.231825]],[[55.176303,25.231124],[55.175925,25.229656],[55.174835,25.230179],[55.176303,25.231124]],[[55.172161,25.229448],[55.171005,25.230374],[55.173206,25.231138],[55.172161,25.229448]],[[55.171788,25.232319],[55.17161,25.233345],[55.172521,25.233667],[55.171788,25.232319]],[[55.168825,25.232747],[55.169114,25.234276],[55.170248,25.233813],[55.168825,25.232747]],[[55.1668,25.234604],[55.16809,25.236294],[55.169068,25.236053],[55.1668,25.234604]],[[55.166222,25.234383],[55.163664,25.234262],[55.164198,25.235711],[55.166222,25.234383]],[[55.165087,25.236777],[55.166066,25.237542],[55.167222,25.236475],[55.165087,25.236777]],[[55.172855,25.236664],[55.172232,25.234994],[55.170809,25.235497],[55.172855,25.236664]],[[55.174011,25.237167],[55.176467,25.237243],[55.176102,25.236161],[55.174011,25.237167]],[[55.181085,25.238342],[55.182699,25.23833],[55.182606,25.237292],[55.181085,25.238342]],[[55.173419,25.237681],[55.167406,25.240314],[55.168177,25.24122],[55.172668,25.238884],[55.175443,25.240749],[55.173419,25.237681]],[[55.166284,25.240311],[55.165157,25.240177],[55.165176,25.240981],[55.166284,25.240311]],[[55.174372,25.242108],[55.174826,25.241649],[55.173919,25.240201],[55.174372,25.242108]],[[55.1758,25.238885],[55.176614,25.239948],[55.177068,25.238487],[55.1758,25.238885]],[[55.178701,25.235345],[55.177679,25.236949],[55.179394,25.237367],[55.178701,25.235345]],[[55.175629,25.234383],[55.174116,25.235148],[55.175562,25.235651],[55.175629,25.234383]],[[55.180588,25.23478],[55.182153,25.234201],[55.180088,25.233567],[55.180588,25.23478]],[[55.178546,25.233026],[55.176272,25.232974],[55.176272,25.233375],[55.178546,25.233026]],[[55.174523,25.234149],[55.174768,25.232439],[55.173656,25.232842],[55.174523,25.234149]],[[55.180816,25.236725],[55.18187,25.236592],[55.181577,25.235023],[55.180816,25.236725]],[[55.175267,25.244655],[55.174052,25.244498],[55.173718,25.245476],[55.175267,25.244655]],[[55.172277,25.245053],[55.171504,25.246151],[55.173158,25.245681],[55.172277,25.245053]],[[55.182638,25.245649],[55.184301,25.24556],[55.184464,25.244114],[55.182638,25.245649]],[[55.341323,25.207584],[55.347157,25.210152],[55.343959,25.203432],[55.341323,25.207584]],[[55.332896,25.198446],[55.333923,25.197169],[55.331633,25.195817],[55.332896,25.198446]],[[55.284743,25.321126],[55.272815,25.326887],[55.278085,25.332616],[55.284743,25.321126]],[[55.355993,25.312672],[55.357885,25.314811],[55.3568,25.312071],[55.355993,25.312672]],[[55.366907,25.321689],[55.368925,25.322521],[55.370082,25.319517],[55.366907,25.321689]],[[55.224954,25.359149],[55.229418,25.362325],[55.232552,25.35563],[55.224954,25.359149]],[[55.216738,25.362368],[55.214031,25.365801],[55.217925,25.363397],[55.216738,25.362368]],[[55.377702,25.346701],[55.381227,25.345904],[55.380705,25.340505],[55.377702,25.346701]],[[55.383023,25.335696],[55.386026,25.333837],[55.385177,25.333365],[55.383023,25.335696]],[[55.586936,25.586891],[55.600739,25.606856],[55.616017,25.617414],[55.645668,25.623164],[55.603357,25.606341],[55.672816,25.629902],[55.71279,25.655844],[55.668837,25.621665],[55.654937,25.620406],[55.665612,25.613175],[55.653364,25.613203],[55.651269,25.618723],[55.648709,25.608637],[55.645069,25.618122],[55.648448,25.605891],[55.642713,25.611362],[55.64668,25.602642],[55.638738,25.593231],[55.631147,25.602813],[55.637929,25.590441],[55.627824,25.600428],[55.620174,25.598845],[55.619318,25.606211],[55.586936,25.586891]],[[55.715497,25.654171],[55.721299,25.653682],[55.725322,25.651242],[55.715497,25.654171]],[[55.686569,25.632048],[55.68841,25.631821],[55.684569,25.628271],[55.686569,25.632048]],[[55.686779,25.623245],[55.680169,25.615278],[55.679646,25.617344],[55.686779,25.623245]],[[55.626978,25.596737],[55.634316,25.584912],[55.616593,25.569222],[55.605748,25.572049],[55.616577,25.587725],[55.609736,25.593295],[55.626978,25.596737]],[[55.591627,25.553562],[55.58328,25.533247],[55.572295,25.558215],[55.576262,25.579123],[55.591627,25.553562]],[[55.599912,25.568106],[55.604065,25.567532],[55.603564,25.565874],[55.599912,25.568106]],[[55.591621,25.563669],[55.595672,25.562283],[55.591866,25.557273],[55.591621,25.563669]],[[55.620945,25.56215],[55.611998,25.550207],[55.599974,25.557399],[55.599967,25.561247],[55.620945,25.56215]],[[55.598235,25.551065],[55.602757,25.548567],[55.61376,25.546368],[55.599926,25.541324],[55.598235,25.551065]],[[55.571777,25.549787],[55.573131,25.541654],[55.569238,25.541388],[55.567338,25.546297],[55.571777,25.549787]],[[55.587036,25.576316],[55.593171,25.574357],[55.592162,25.573995],[55.587036,25.576316]],[[55.613984,25.600248],[55.618027,25.598337],[55.613519,25.598459],[55.613984,25.600248]],[[55.698369,25.626951],[55.697863,25.626925],[55.697803,25.627622],[55.698369,25.626951]],[[55.698607,25.628185],[55.697774,25.628346],[55.698637,25.629151],[55.698607,25.628185]],[[55.843475,25.723795],[55.84747,25.725507],[55.841444,25.718721],[55.843475,25.723795]],[[55.838169,25.722084],[55.835746,25.715888],[55.822974,25.717894],[55.830178,25.721199],[55.838169,25.722084]],[[55.879367,25.738783],[55.880218,25.737013],[55.875764,25.735243],[55.879367,25.738783]],[[55.853425,25.724385],[55.861483,25.726274],[55.861089,25.724798],[55.853425,25.724385]],[[55.94749,25.784389],[55.95111,25.787584],[55.9522,25.783527],[55.94749,25.784389]],[[55.958443,25.783914],[55.958562,25.785738],[55.963567,25.781661],[55.958443,25.783914]],[[55.976454,25.830397],[56.00907,25.887485],[56.015038,25.886423],[56.010906,25.882351],[55.976454,25.830397]],[[56.021333,25.889432],[56.050257,25.963488],[56.05636,25.956289],[56.0517,25.952926],[56.058131,25.941065],[56.038125,25.909731],[56.039765,25.904716],[56.030843,25.895569],[56.029139,25.884889],[56.021333,25.889432]],[[56.044722,25.908282],[56.047554,25.906914],[56.04553,25.906503],[56.044722,25.908282]],[[56.047834,25.902414],[56.047572,25.90566],[56.052557,25.904184],[56.047834,25.902414]],[[56.040192,25.898716],[56.041646,25.901867],[56.044629,25.900204],[56.040192,25.898716]],[[56.030964,25.892731],[56.034196,25.896438],[56.033774,25.890723],[56.030964,25.892731]],[[55.112663,25.102794],[55.108506,25.115446],[55.114749,25.130517],[55.131024,25.14082],[55.148381,25.138178],[55.131806,25.1384],[55.119064,25.130464],[55.112663,25.102794]],[[55.149361,25.136715],[55.154454,25.129785],[55.154188,25.120008],[55.152241,25.120998],[55.149361,25.136715]],[[55.143437,25.102726],[55.139778,25.094039],[55.137757,25.098428],[55.143437,25.102726]],[[55.058697,25.045019],[55.041375,25.028733],[55.038119,25.033572],[55.058697,25.045019]],[[54.737756,24.84395],[54.75554,24.849615],[54.755824,24.871673],[54.76158,24.84704],[54.740301,24.842234],[54.732803,24.832963],[54.761912,24.835906],[54.770094,24.805048],[54.737652,24.802784],[54.705779,24.814768],[54.737756,24.84395]],[[54.673619,24.775695],[54.674783,24.775362],[54.672199,24.771561],[54.673619,24.775695]],[[54.150604,24.609062],[54.151509,24.607787],[54.151081,24.607538],[54.150604,24.609062]],[[52.309795,24.544284],[52.333118,24.532479],[52.343353,24.493627],[52.331961,24.492895],[52.33346,24.484392],[52.31906,24.471395],[52.315177,24.419921],[52.306216,24.417953],[52.311058,24.467496],[52.30614,24.479777],[52.286032,24.49076],[52.280133,24.509068],[52.309795,24.544284]],[[53.375671,24.464095],[53.373231,24.452176],[53.368458,24.456416],[53.375671,24.464095]],[[52.652297,24.41756],[52.654135,24.408063],[52.645627,24.414645],[52.652297,24.41756]],[[53.325878,24.587809],[53.325984,24.585171],[53.322736,24.586635],[53.325878,24.587809]],[[52.831339,24.597969],[52.741905,24.600804],[52.698486,24.614674],[52.750834,24.66564],[52.782856,24.732412],[52.853611,24.721396],[52.834364,24.673869],[52.831339,24.597969]],[[53.052459,24.633719],[53.053964,24.632902],[53.049164,24.626294],[53.052459,24.633719]],[[52.56442,24.774238],[52.549416,24.789925],[52.557912,24.802666],[52.571431,24.788847],[52.56442,24.774238]],[[53.616943,24.834515],[53.616867,24.834214],[53.613066,24.834267],[53.616943,24.834515]],[[53.614189,24.855211],[53.609511,24.861281],[53.6114,24.86143],[53.614189,24.855211]],[[53.696541,24.859252],[53.702456,24.857705],[53.700758,24.856739],[53.696541,24.859252]],[[53.534543,24.897151],[53.533027,24.896326],[53.532819,24.898007],[53.534543,24.897151]],[[53.719424,24.901834],[53.715872,24.900486],[53.716169,24.903432],[53.719424,24.901834]],[[53.07885,24.857254],[53.059659,24.881112],[53.062945,24.898824],[53.079441,24.89517],[53.088334,24.883947],[53.093025,24.871148],[53.084448,24.878478],[53.07885,24.857254]],[[52.856536,24.923962],[52.852036,24.93453],[52.838609,24.940259],[52.850545,24.944864],[52.856536,24.923962]],[[52.407363,24.951545],[52.403254,24.945619],[52.394629,24.953586],[52.392742,24.963612],[52.407363,24.951545]],[[52.876088,25.163795],[52.883525,25.137963],[52.86698,25.15331],[52.867262,25.162039],[52.876088,25.163795]],[[54.659737,24.689167],[54.661442,24.691009],[54.660287,24.688071],[54.659737,24.689167]],[[54.617657,24.68736],[54.618076,24.68754],[54.622795,24.683201],[54.617657,24.68736]],[[54.621688,24.672574],[54.621541,24.663587],[54.617093,24.663678],[54.619915,24.66642],[54.621688,24.672574]],[[54.615234,24.666061],[54.612088,24.661319],[54.603954,24.670175],[54.615234,24.666061]],[[54.620913,24.661249],[54.621296,24.65553],[54.617306,24.656088],[54.620913,24.661249]],[[54.627715,24.648507],[54.638376,24.64093],[54.63252,24.641349],[54.627715,24.648507]],[[54.617986,24.642598],[54.62967,24.635813],[54.631984,24.62761],[54.617992,24.629509],[54.617986,24.642598]],[[54.602094,24.622944],[54.60312,24.623414],[54.603207,24.617348],[54.602094,24.622944]],[[55.155494,25.115757],[55.160308,25.116374],[55.151519,25.11159],[55.155494,25.115757]],[[55.158444,25.110837],[55.159575,25.111238],[55.158853,25.109591],[55.158444,25.110837]]],[[[54.457999,25.256112],[54.427527,25.340715],[54.36996,25.405383],[54.289103,25.44531],[54.195828,25.45396],[54.109965,25.430016],[54.029048,25.372348],[53.986822,25.301086],[53.977009,25.217723],[54.004323,25.132052],[54.065489,25.06433],[54.149459,25.02448],[54.25598,25.011857],[54.344811,25.035184],[54.417322,25.091629],[54.456085,25.167451],[54.457999,25.256112]],[[54.199412,25.225885],[54.198276,25.243353],[54.224626,25.253405],[54.236725,25.239258],[54.240973,25.212198],[54.199412,25.225885]]]]}}
