{"type":"Feature","properties":{"mrgid":49104,"name":"British 12 NM (Tristan da Cunha)","placeType":"Territorial Sea","source":"MarineRegions:eez_12nm"},"geometry":{"type":"MultiPolygon","coordinates":[[[[-9.628723,-40.272146],[-9.68385,-40.181579],[-9.783633,-40.109307],[-9.877251,-40.078699],[-9.999225,-40.073705],[-10.10808,-40.096375],[-10.162592,-40.121326],[-10.204136,-40.151072],[-10.238986,-40.190873],[-10.26677,-40.243695],[-10.28148,-40.321019],[-10.273023,-40.362215],[-10.252255,-40.40471],[-10.221194,-40.441286],[-10.180475,-40.471845],[-10.019111,-40.556082],[-9.95005,-40.569878],[-9.864915,-40.57018],[-9.802315,-40.559209],[-9.748619,-40.538657],[-9.700567,-40.50777],[-9.658555,-40.464625],[-9.627922,-40.412281],[-9.614129,-40.367594],[-9.614313,-40.319649],[-9.628723,-40.272146]],[[-9.958253,-40.272221],[-9.957147,-40.272161],[-9.956989,-40.273179],[-9.958253,-40.272221]],[[-9.9309,-40.274698],[-9.905001,-40.304778],[-9.896144,-40.32753],[-9.875373,-40.338848],[-9.892061,-40.371029],[-9.929855,-40.365325],[-9.932549,-40.352898],[-9.963726,-40.339821],[-9.971502,-40.325382],[-10.01858,-40.314416],[-10.002627,-40.291773],[-10.006047,-40.281639],[-9.9309,-40.274698]],[[-9.897221,-40.297332],[-9.896115,-40.298409],[-9.89888,-40.299487],[-9.897221,-40.297332]],[[-9.917641,-40.370738],[-9.919332,-40.370928],[-9.918614,-40.369818],[-9.917641,-40.370738]],[[-10.014397,-40.300517],[-10.013738,-40.302143],[-10.015489,-40.301568],[-10.014397,-40.300517]]],[[[-12.256101,-36.86235],[-12.383462,-36.871307],[-12.476777,-36.910739],[-12.512667,-36.940429],[-12.558976,-36.995551],[-12.599002,-37.090953],[-12.675963,-37.080539],[-12.755313,-37.089989],[-12.822328,-37.114558],[-12.890966,-37.16005],[-12.93673,-37.216575],[-12.956712,-37.284306],[-12.947413,-37.359858],[-12.907641,-37.427497],[-12.870829,-37.462481],[-12.828309,-37.48909],[-12.721585,-37.520647],[-12.687307,-37.561015],[-12.642944,-37.593485],[-12.550819,-37.627499],[-12.48044,-37.636137],[-12.412931,-37.629401],[-12.348694,-37.607994],[-12.292292,-37.571643],[-12.250766,-37.526609],[-12.225699,-37.476768],[-12.217933,-37.424113],[-12.22974,-37.366347],[-12.147086,-37.342121],[-12.080856,-37.298802],[-11.993979,-37.210688],[-11.973784,-37.170161],[-11.964842,-37.124441],[-11.968514,-37.081122],[-11.984691,-37.034393],[-12.010964,-36.989549],[-12.04941,-36.945985],[-12.148371,-36.884309],[-12.200713,-36.868406],[-12.256101,-36.86235]],[[-12.261454,-37.062975],[-12.235103,-37.080065],[-12.214854,-37.116047],[-12.270895,-37.167887],[-12.283916,-37.170706],[-12.304093,-37.158566],[-12.317514,-37.16364],[-12.351143,-37.118068],[-12.316286,-37.064304],[-12.261454,-37.062975]],[[-12.678691,-37.280903],[-12.641528,-37.3012],[-12.680634,-37.32296],[-12.695526,-37.319012],[-12.705669,-37.306137],[-12.706317,-37.295494],[-12.678691,-37.280903]],[[-12.490748,-37.400732],[-12.484364,-37.403973],[-12.489287,-37.404901],[-12.490748,-37.400732]],[[-12.479067,-37.408984],[-12.47586,-37.411183],[-12.478528,-37.413977],[-12.479067,-37.408984]],[[-12.475912,-37.415179],[-12.469129,-37.427308],[-12.476991,-37.435646],[-12.481157,-37.42869],[-12.497974,-37.429059],[-12.494713,-37.417444],[-12.475912,-37.415179]]]]}}
