{"type":"Feature","properties":{"mrgid":49158,"name":"United States 12 NM (Palmyra Atoll)","placeType":"Territorial Sea","source":"MarineRegions:eez_12nm"},"geometry":{"type":"MultiPolygon","coordinates":[[[[-161.839608,5.896385],[-161.864817,5.979693],[-161.922839,6.044525],[-162.020438,6.087929],[-162.114801,6.091886],[-162.190286,6.070746],[-162.25335,6.020637],[-162.297895,5.941012],[-162.308659,5.857673],[-162.282328,5.772485],[-162.221628,5.706908],[-162.145294,5.675247],[-162.030113,5.670803],[-161.954964,5.691894],[-161.891897,5.741997],[-161.849058,5.817524],[-161.839608,5.896385]],[[-162.070313,5.893136],[-162.056502,5.886468],[-162.068169,5.890033],[-162.066554,5.872238],[-162.053558,5.88787],[-162.049279,5.880644],[-162.056585,5.880666],[-162.059903,5.870443],[-162.098443,5.872741],[-162.084205,5.879097],[-162.070313,5.875558],[-162.07202,5.878993],[-162.084182,5.881173],[-162.070711,5.879835],[-162.069511,5.891232],[-162.085276,5.884727],[-162.100406,5.88903],[-162.070313,5.893136]],[[-162.039889,5.880114],[-162.046642,5.871239],[-162.045614,5.879065],[-162.039889,5.880114]],[[-162.106388,5.87336],[-162.108431,5.874332],[-162.102876,5.877415],[-162.106388,5.87336]]],[[[-162.144392,6.435548],[-162.184769,6.522634],[-162.270607,6.600238],[-162.347064,6.631919],[-162.425526,6.631063],[-162.501274,6.597721],[-162.559144,6.53371],[-162.584033,6.461557],[-162.591334,6.391779],[-162.587122,6.343822],[-162.553177,6.266931],[-162.490311,6.209924],[-162.41435,6.184489],[-162.362621,6.179638],[-162.310046,6.185447],[-162.232235,6.217312],[-162.173504,6.275973],[-162.14221,6.354983],[-162.144392,6.435548]],[[-162.342843,6.386576],[-162.384144,6.434281],[-162.345605,6.401993],[-162.340165,6.389923],[-162.341806,6.385889],[-162.35312,6.381855],[-162.389828,6.384087],[-162.342843,6.386576]]]]}}
