{"type":"Feature","properties":{"mrgid":49196,"name":"Myanma 12 NM","placeType":"Territorial Sea","source":"MarineRegions:eez_12nm"},"geometry":{"type":"MultiPolygon","coordinates":[[[[93.569416,14.250763],[93.547252,14.298573],[93.513143,14.339154],[93.470515,14.369092],[93.421645,14.387688],[93.367832,14.39412],[93.30492,14.387192],[93.252483,14.366284],[93.193919,14.316635],[93.029787,14.094142],[93.015353,14.043599],[93.01264,13.96962],[93.019011,13.926301],[93.036918,13.880988],[93.134722,13.819722],[93.241028,13.771631],[93.314887,13.791144],[93.469001,13.872578],[93.526714,13.920948],[93.562282,13.984893],[93.588953,14.112358],[93.569416,14.250763]],[[93.370081,14.193142],[93.378611,14.147778],[93.369444,14.141111],[93.378055,14.120833],[93.366667,14.0475],[93.222778,13.971667],[93.219167,14.015278],[93.355556,14.192222],[93.370081,14.193142]],[[93.380833,14.128333],[93.382222,14.129444],[93.383611,14.127778],[93.380833,14.128333]]],[[[93.858558,14.935922],[93.851058,14.986747],[93.831027,15.033162],[93.800209,15.072789],[93.759588,15.104667],[93.711584,15.126829],[93.658501,15.136511],[93.604648,15.132505],[93.556982,15.116646],[93.427389,15.018591],[93.379759,14.953979],[93.343677,14.804168],[93.346045,14.749878],[93.361566,14.701388],[93.408914,14.637055],[93.479416,14.594909],[93.559713,14.583024],[93.640153,14.602619],[93.750665,14.686216],[93.788214,14.729711],[93.832527,14.811424],[93.858558,14.935922]],[[93.646111,14.935278],[93.651944,14.932702],[93.636191,14.874031],[93.622648,14.865161],[93.612845,14.835909],[93.550023,14.783788],[93.569462,14.849268],[93.568056,14.871111],[93.646111,14.935278]]],[[[92.077799,20.323934],[92.399957,20.044627],[92.8611,19.678912],[93.075939,19.304301],[93.251492,18.768536],[93.282888,18.726644],[93.760829,18.236473],[94.111157,17.440501],[94.000318,16.943453],[94.029278,16.538998],[93.983917,16.350125],[93.972761,16.205671],[93.995625,15.680196],[94.010948,15.624601],[94.044306,15.572704],[94.080921,15.540223],[94.128681,15.515491],[97.568913,14.261612],[97.574271,14.114599],[97.520959,12.692002],[97.53039,12.631586],[97.577979,12.507026],[97.450397,12.145237],[97.316487,11.965026],[97.257966,11.901673],[97.233538,11.839377],[97.230686,11.773944],[97.49039,10.625171],[97.473622,10.477652],[97.4777,10.425324],[97.675099,9.806433],[97.714695,9.609998],[97.724722,9.600556],[97.853333,9.581667],[98.049371,9.480089],[98.106462,9.437729],[98.124126,9.439523],[98.173713,9.501043],[97.967419,9.59812],[97.908333,9.679167],[97.871667,9.856667],[97.676451,10.466757],[97.695833,10.6375],[97.43325,11.79808],[97.447034,11.80032],[97.633333,12.050833],[97.795,12.508333],[97.725708,12.692041],[97.781555,14.146981],[97.766325,14.404494],[94.201667,15.703611],[94.180556,16.197222],[94.188889,16.315278],[94.239022,16.524397],[94.2125,16.924444],[94.329444,17.460833],[93.940278,18.347222],[93.4375,18.863333],[93.272222,19.382222],[93.028333,19.808333],[92.538576,20.196968],[92.291667,20.3625],[92.287326,20.372241],[92.220764,20.397019],[92.164064,20.444195],[92.077799,20.323934]],[[94.209345,16.92506],[94.210444,16.924242],[94.209818,16.92336],[94.209345,16.92506]],[[97.904081,9.683155],[97.905489,9.685571],[97.906283,9.682585],[97.904081,9.683155]]]]}}
