{"type":"Feature","properties":{"mrgid":49248,"name":"Croatian 24 NM","placeType":"Contiguous zone","source":"MarineRegions:eez_24nm"},"geometry":{"type":"MultiPolygon","coordinates":[[[[17.280856,42.570599],[17.185504,42.565067],[16.900682,42.522828],[16.795501,42.525335],[16.600218,42.56481],[16.481772,42.548146],[16.556948,42.496396],[16.600338,42.429188],[16.607627,42.355559],[16.596581,42.317176],[16.575665,42.281156],[16.807759,42.179415],[16.850589,42.24989],[16.873914,42.32228],[16.981072,42.328461],[17.250124,42.368],[17.780081,42.264009],[17.938923,42.217571],[18.20983,42.068066],[18.337262,42.018067],[18.453157,42.200312],[18.391113,42.219681],[18.275613,42.276721],[18.201679,42.330219],[18.073454,42.393415],[17.865891,42.454122],[17.280856,42.570599]]],[[[15.855813,43.30259],[15.784991,43.338173],[15.430062,43.45186],[15.267247,43.537677],[15.077437,43.65056],[14.881797,43.806857],[14.781824,43.916616],[14.632259,44.000402],[14.398441,44.188588],[13.699058,44.596709],[13.478982,44.804569],[13.351952,44.967129],[13.295983,45.10647],[13.255035,45.33612],[13.209694,45.45224],[13.098611,45.335278],[13.002778,45.184444],[13.072778,44.974444],[13.083241,44.905833],[13.11877,44.850732],[13.256522,44.68204],[13.508434,44.450041],[14.208109,44.041858],[14.434192,43.860507],[14.577911,43.774391],[14.673895,43.674935],[14.857986,43.525805],[15.08758,43.386027],[15.007737,43.318535],[14.949333,43.237587],[14.91772,43.14905],[14.914171,43.059961],[14.963611,43.014444],[15.010278,42.987778],[15.157778,42.796944],[15.236868,42.725892],[15.324492,42.703388],[15.413152,42.692056],[15.528545,42.646148],[15.716173,42.609524],[15.776519,42.586542],[15.728682,42.498234],[15.986925,42.437603],[16.005329,42.477782],[16.03222,42.511609],[16.109946,42.564503],[16.214495,42.59259],[16.323011,42.588937],[16.265097,42.633256],[16.228387,42.687807],[16.215565,42.747977],[16.229396,42.81384],[16.207874,42.814405],[16.139611,42.779255],[16.054407,42.757476],[15.977841,42.753173],[15.908275,42.763337],[15.812645,42.804724],[15.74395,42.809329],[15.61291,42.837189],[15.557538,42.862428],[15.514237,42.89439],[15.414453,42.893671],[15.322402,42.918138],[15.270152,42.946823],[15.228627,42.983794],[15.200215,43.026945],[15.187169,43.069468],[15.191736,43.134599],[15.221657,43.191428],[15.273614,43.239021],[15.342812,43.272947],[15.411005,43.28871],[15.484484,43.29109],[15.581762,43.271147],[15.665153,43.224542],[15.778599,43.234597],[15.879143,43.21524],[15.919498,43.233639],[15.855813,43.30259]]]]}}
