{"type":"Feature","properties":{"mrgid":49254,"name":"Greek 24 NM","placeType":"Contiguous zone","source":"MarineRegions:eez_24nm"},"geometry":{"type":"MultiPolygon","coordinates":[[[[24.335544,34.956644],[24.330658,34.977023],[24.321016,34.975726],[24.328743,34.966149],[24.335544,34.956644]]],[[[29.63171,35.905958],[29.468571,35.93462],[29.362324,35.977509],[29.310191,36.010503],[29.195205,35.827289],[29.368737,35.75133],[29.523488,35.715305],[29.649066,35.705776],[29.773181,35.722288],[29.729533,35.922168],[29.63171,35.905958]]],[[[27.456384,35.999898],[27.457686,36.012044],[27.444824,36.015058],[27.450476,36.008009],[27.456384,35.999898]]],[[[26.672391,36.061479],[26.689662,36.072729],[26.709032,36.083162],[26.655046,36.094045],[26.672391,36.061479]]],[[[27.281884,36.149285],[27.270643,36.197069],[27.164358,36.249453],[27.082428,36.318059],[27.010873,36.298807],[27.000574,36.242158],[26.968317,36.182636],[26.928934,36.140791],[26.877289,36.108579],[26.962883,36.082855],[27.031237,36.033823],[27.082104,36.069601],[27.150067,36.096615],[27.232032,36.106634],[27.314146,36.094406],[27.281884,36.149285]]],[[[23.600392,36.568581],[23.518877,36.579712],[23.446092,36.611837],[23.391941,36.65947],[23.353604,36.725732],[23.330668,36.676406],[23.371402,36.632162],[23.396428,36.578334],[23.431312,36.528304],[23.446287,36.48853],[23.450801,36.447138],[23.444439,36.399198],[23.426823,36.3549],[23.398981,36.316516],[23.360404,36.282948],[23.366533,36.223365],[23.352446,36.159754],[23.417999,36.124666],[23.466063,36.076442],[23.49216,36.023824],[23.524243,35.989782],[23.551383,35.945226],[23.574834,35.849212],[23.669883,35.88848],[23.768992,35.894643],[23.825453,35.88313],[23.876532,35.861427],[23.936462,35.820975],[23.980797,35.776935],[24.057442,35.79602],[24.124553,35.802451],[24.182488,35.797112],[24.254316,35.777939],[24.317892,35.750192],[24.367156,35.712389],[24.40767,35.66091],[24.436647,35.598409],[24.456819,35.57368],[24.49051,35.573321],[24.578769,35.612169],[24.675965,35.62662],[24.825666,35.61841],[24.977825,35.632668],[25.056947,35.620709],[25.131053,35.654719],[25.209181,35.667196],[25.271667,35.662161],[25.334437,35.643456],[25.369822,35.711582],[25.4328,35.764484],[25.515016,35.795187],[25.605584,35.799509],[25.707855,35.769779],[25.750175,35.74241],[25.784008,35.708403],[25.808266,35.668549],[25.821038,35.625848],[25.822077,35.581043],[25.811726,35.539075],[25.890492,35.517035],[25.95621,35.474152],[26.007308,35.529558],[26.078388,35.567325],[26.160331,35.582974],[26.244996,35.57482],[26.307919,35.551019],[26.360398,35.513502],[26.416879,35.498217],[26.468171,35.471739],[26.509812,35.436043],[26.578092,35.350804],[26.591861,35.469826],[26.624508,35.53644],[26.660295,35.576194],[26.701706,35.605887],[26.815039,35.645026],[26.825428,35.67209],[26.745941,35.682166],[26.674734,35.712507],[26.625956,35.668044],[26.566539,35.637756],[26.500176,35.622343],[26.422516,35.621754],[26.358775,35.635637],[26.301001,35.663251],[26.216772,35.653169],[26.132052,35.66738],[26.060413,35.703183],[26.007354,35.756588],[25.982937,35.806756],[25.975531,35.859703],[25.985394,35.91229],[26.012518,35.962838],[26.069885,36.019111],[26.146018,36.054643],[26.144543,36.096884],[26.154446,36.140079],[26.175214,36.18009],[26.206131,36.215614],[26.248161,36.246336],[26.298788,36.268974],[26.353735,36.281421],[26.411082,36.283296],[26.387394,36.308071],[26.284721,36.308855],[26.193629,36.330794],[26.136999,36.326722],[26.14287,36.247334],[26.110324,36.172492],[26.039085,36.108177],[25.94999,36.072355],[25.823568,36.064424],[25.743128,36.077341],[25.660678,36.117804],[25.603743,36.178459],[25.522256,36.141529],[25.430204,36.131379],[25.380135,36.081966],[25.313755,36.047875],[25.251232,36.033405],[25.185947,36.032558],[25.115031,36.047878],[25.052453,36.078862],[24.997377,36.125607],[24.961198,36.182253],[24.948431,36.240147],[24.956617,36.298721],[24.987309,36.357086],[25.033149,36.404119],[24.944487,36.392278],[24.837638,36.406879],[24.767177,36.435368],[24.666846,36.50472],[24.618342,36.483977],[24.541739,36.464872],[24.442449,36.456557],[24.348745,36.43096],[24.294773,36.387508],[24.227581,36.359133],[24.170311,36.349135],[24.1114,36.35013],[24.054781,36.362153],[24.003607,36.384209],[23.959958,36.415424],[23.926411,36.454054],[23.904903,36.497833],[23.896534,36.544284],[23.901984,36.592124],[23.920367,36.636773],[23.859708,36.636394],[23.800923,36.64756],[23.761054,36.614698],[23.71244,36.589578],[23.657087,36.573709],[23.600392,36.568581]],[[23.732959,36.096744],[23.674274,36.184514],[23.62902,36.235447],[23.666937,36.301244],[23.69092,36.374761],[23.697528,36.375777],[23.773893,36.283093],[23.858172,36.221983],[23.964021,36.175701],[24.080033,36.151325],[24.181834,36.148821],[24.281867,36.162977],[24.386556,36.1977],[24.479156,36.250826],[24.619403,36.274474],[24.701097,36.235513],[24.710799,36.167234],[24.734732,36.101022],[24.771004,36.040805],[24.822525,35.982134],[24.936248,35.899658],[25.06763,35.84885],[25.013362,35.831804],[24.821859,35.820633],[24.679366,35.82764],[24.578386,35.816752],[24.480178,35.901533],[24.354028,35.961377],[24.203044,35.997916],[24.059685,35.999285],[23.987233,36.04154],[23.907119,36.072284],[23.822276,36.090749],[23.732959,36.096744]]],[[[26.668626,36.712935],[26.669964,36.769823],[26.682828,36.82129],[26.672079,36.854182],[26.616593,36.821271],[26.550922,36.801544],[26.625272,36.751934],[26.668626,36.712935]]],[[[24.116919,37.259236],[24.11003,37.311611],[24.042762,37.276952],[23.964475,37.260287],[23.887079,37.263369],[23.810251,37.286129],[23.770235,37.234242],[23.730663,37.202229],[23.683445,37.177664],[23.650982,37.131089],[23.60497,37.09326],[23.656385,37.052027],[23.700958,36.989722],[23.780136,37.032045],[23.8713,37.048318],[23.935002,37.044579],[23.991901,37.030309],[24.043056,37.005719],[24.087429,36.970904],[24.138609,36.990719],[24.209397,37.005039],[24.181847,37.043251],[24.165284,37.085402],[24.160643,37.129784],[24.168058,37.173361],[24.13618,37.213646],[24.116919,37.259236]]],[[[26.30735,37.191596],[26.279018,37.259036],[26.234131,37.299797],[26.204383,37.348692],[26.154255,37.32881],[26.172536,37.290685],[26.180739,37.250604],[26.178765,37.209928],[26.1664,37.170016],[26.223375,37.184618],[26.30735,37.191596]]],[[[20.248805,38.9286],[20.182874,38.935195],[20.12207,38.95425],[19.964933,39.053019],[19.928611,39.086338],[19.892313,39.13668],[19.875058,39.1758],[19.868464,39.21638],[19.779898,39.238489],[19.707505,39.283214],[19.636533,39.367304],[19.596842,39.455573],[19.463867,39.561721],[19.409202,39.577117],[19.343852,39.607948],[19.287918,39.650385],[19.206617,39.688943],[19.156308,39.733329],[19.129468,39.775732],[19.115599,39.823057],[19.113816,39.876529],[19.127712,39.925723],[19.159109,39.974788],[19.19699,40.011218],[19.247589,40.041167],[19.30572,40.060621],[19.134376,40.080138],[18.995238,40.08358],[18.914247,39.815678],[18.917872,39.651603],[18.930767,39.634255],[18.982871,39.579157],[19.046789,39.531174],[19.200876,39.440945],[19.332825,39.377927],[19.370663,39.344362],[19.412606,39.267647],[19.486893,39.177083],[19.561393,39.11422],[19.652157,39.064563],[19.704661,38.98756],[19.7576,38.932353],[19.90215,38.830094],[20.033211,38.765038],[20.025826,38.700137],[20.032144,38.634238],[19.975004,38.578507],[19.93158,38.515948],[19.869103,38.378577],[19.840563,38.288603],[19.829165,38.178972],[19.846091,38.081716],[19.882844,38.002723],[19.940559,37.92981],[20.005279,37.87528],[20.113348,37.809162],[20.12081,37.750415],[20.138616,37.694196],[20.166687,37.640075],[20.204712,37.589306],[20.342232,37.452654],[20.504522,37.33226],[20.497056,37.248611],[20.511588,37.161005],[20.54248,37.084542],[20.591283,37.014906],[20.694494,36.927433],[20.819141,36.868636],[20.962562,36.840426],[21.107953,36.846472],[21.190919,36.754828],[21.206877,36.645596],[21.255599,36.542982],[21.31948,36.468997],[21.403134,36.407731],[21.545714,36.342418],[21.642527,36.312066],[21.832163,36.289231],[21.929803,36.288843],[22.000766,36.208241],[22.175501,36.07077],[22.243328,36.034272],[22.316858,36.007432],[22.395808,35.990472],[22.476423,35.984285],[22.657617,35.800609],[22.736699,35.750666],[22.826621,35.714663],[22.888003,35.620356],[22.987366,35.531355],[23.00585,35.463875],[23.03825,35.399799],[23.024771,35.306811],[23.037757,35.202934],[23.071445,35.112052],[23.123731,35.035082],[23.206795,34.960832],[23.329185,34.890996],[23.421134,34.8543],[23.519008,34.83406],[23.604782,34.670405],[23.681107,34.578685],[23.795361,34.495245],[23.943211,34.427683],[24.018889,34.408679],[24.097271,34.400095],[24.177067,34.40223],[24.254057,34.414797],[24.328164,34.437677],[24.403052,34.472482],[24.465806,34.514101],[24.518094,34.561837],[24.64942,34.526538],[24.80317,34.520115],[25.145467,34.53252],[25.361442,34.567321],[25.433636,34.523926],[25.513963,34.492229],[25.611729,34.470266],[25.700437,34.463501],[25.837263,34.478088],[25.926514,34.502074],[25.996873,34.53098],[26.079583,34.517893],[26.165385,34.516818],[26.248759,34.527887],[26.329328,34.550963],[26.431828,34.602141],[26.530782,34.681182],[26.654197,34.823243],[26.731658,34.955048],[26.854571,34.938556],[26.96709,34.944008],[27.052738,34.963093],[27.133582,34.994925],[27.286661,35.014616],[27.38695,35.050549],[27.484211,35.1107],[27.639255,35.251905],[27.70666,35.365221],[27.732763,35.475277],[27.875412,35.486026],[28.014403,35.530035],[28.145326,35.593867],[28.24451,35.673616],[28.329528,35.704673],[28.40598,35.748163],[28.473515,35.805073],[28.526872,35.872717],[28.557119,35.932488],[28.57682,35.999134],[28.677305,36.180622],[28.674614,36.240042],[28.621956,36.342053],[28.53562,36.469579],[28.442636,36.561978],[28.468517,36.523494],[28.483299,36.481894],[28.495146,36.393591],[28.48917,36.342289],[28.37468,36.118046],[28.345106,36.076928],[28.313922,35.975225],[28.262257,35.912715],[28.188781,35.870945],[28.102158,35.853086],[28.043403,35.790342],[27.974615,35.741],[27.858778,35.691856],[27.791275,35.676983],[27.698994,35.679854],[27.617149,35.707134],[27.55988,35.747992],[27.486665,35.834641],[27.461184,35.691202],[27.438634,35.637483],[27.481764,35.543399],[27.486472,35.471181],[27.45431,35.390271],[27.410215,35.336594],[27.307378,35.249345],[27.24732,35.216575],[27.161304,35.196576],[27.076096,35.201148],[26.980671,35.15525],[26.902476,35.139053],[26.811922,35.144895],[26.726318,35.172998],[26.647979,35.219013],[26.59761,35.281392],[26.591094,35.224881],[26.561598,35.165627],[26.548386,35.112994],[26.449483,34.931851],[26.388434,34.872792],[26.333436,34.799329],[26.276156,34.756143],[26.222772,34.731312],[26.153547,34.71716],[26.082334,34.72003],[26.015188,34.739499],[25.9572,34.774312],[25.915336,34.73032],[25.859935,34.697185],[25.769777,34.670672],[25.704995,34.663969],[25.638605,34.670443],[25.564679,34.692858],[25.505459,34.730735],[25.461992,34.782747],[25.436128,34.786271],[25.389001,34.787085],[25.253988,34.751249],[25.12139,34.732],[24.706219,34.722211],[24.619658,34.744007],[24.571996,34.770558],[24.533286,34.805473],[24.440786,34.836069],[24.39519,34.867415],[24.360438,34.905851],[24.37543,34.821693],[24.372491,34.771854],[24.350458,34.716579],[24.310768,34.669302],[24.25343,34.631358],[24.178572,34.605636],[24.104621,34.600554],[24.032173,34.614143],[23.895028,34.684759],[23.820503,34.76238],[23.764732,34.860178],[23.747975,34.908433],[23.747556,34.969205],[23.769501,35.027635],[23.659157,35.022363],[23.510257,35.040999],[23.380437,35.103381],[23.321251,35.152695],[23.292228,35.198525],[23.272827,35.261652],[23.270801,35.327842],[23.29756,35.443997],[23.260124,35.485306],[23.236468,35.533027],[23.228209,35.5843],[23.235926,35.635192],[23.167599,35.668481],[23.086402,35.73859],[23.047247,35.80462],[23.017525,35.890385],[22.93304,35.897098],[22.857409,35.925857],[22.810729,35.959828],[22.768866,36.014197],[22.705665,36.06648],[22.677583,36.103152],[22.657867,36.147547],[22.65333,36.239243],[22.577416,36.199809],[22.489731,36.184757],[22.401448,36.195744],[22.323416,36.231489],[22.260034,36.296009],[22.178668,36.347872],[22.126612,36.417947],[22.106994,36.46177],[22.097122,36.509619],[22.099496,36.55363],[22.11435,36.60208],[22.073793,36.553563],[22.017798,36.516601],[21.951779,36.494306],[21.877568,36.487646],[21.738682,36.499903],[21.684176,36.511953],[21.55779,36.565038],[21.495849,36.611307],[21.467171,36.649642],[21.447861,36.695455],[21.440049,36.746647],[21.444517,36.800808],[21.424733,36.859925],[21.376533,36.889004],[21.338447,36.926388],[21.30392,36.98543],[21.29018,37.030412],[21.291447,37.088201],[21.315725,37.148065],[21.317824,37.192782],[21.332252,37.240781],[21.363796,37.298881],[21.419891,37.357201],[21.370649,37.413441],[21.33499,37.432638],[21.265093,37.435089],[21.198217,37.452886],[21.144923,37.481036],[21.102339,37.518717],[21.015293,37.497794],[20.955074,37.466131],[20.884163,37.447249],[20.808403,37.444903],[20.726388,37.461273],[20.648407,37.49673],[20.536321,37.581078],[20.411282,37.704061],[20.38185,37.748639],[20.367239,37.797364],[20.367182,37.878157],[20.38084,37.928701],[20.250861,37.977344],[20.160794,38.034417],[20.107987,38.094818],[20.084305,38.165263],[20.08965,38.248707],[20.111628,38.318056],[20.144007,38.372536],[20.164297,38.43425],[20.213784,38.493492],[20.286729,38.536673],[20.293356,38.635857],[20.281589,38.70305],[20.29645,38.76389],[20.320188,38.802246],[20.353646,38.835685],[20.381335,38.885605],[20.446303,38.957451],[20.41811,38.977483],[20.339186,38.941154],[20.248805,38.9286]],[[21.008744,37.039038],[20.908323,37.055914],[20.823843,37.103236],[20.77065,37.166924],[20.747993,37.24843],[20.76006,37.323963],[20.807042,37.390937],[20.881848,37.43917],[20.974364,37.461665],[21.07717,37.453345],[21.167509,37.413466],[21.209937,37.381017],[21.241176,37.344306],[21.262595,37.302676],[21.272361,37.257744],[21.270198,37.215418],[21.257563,37.175499],[21.234294,37.137442],[21.202285,37.10472],[21.15862,37.075864],[21.107651,37.054991],[21.008744,37.039038]]],[[[24.28751,40.533542],[24.268738,40.562309],[24.238094,40.550938],[24.240187,40.548166],[24.28751,40.533542]]],[[[25.099774,40.748022],[25.048325,40.734758],[25.046948,40.61098],[25.032216,40.55744],[24.984182,40.484406],[24.908014,40.432808],[24.671122,40.360279],[24.587072,40.35933],[24.504515,40.379077],[24.51277,40.36519],[24.563495,40.331403],[24.602436,40.293443],[24.646753,40.217535],[24.659805,40.126647],[24.649747,40.084942],[24.628257,40.045137],[24.574546,39.992198],[24.498865,39.953973],[24.361393,39.918263],[24.253608,39.917695],[24.227972,39.862137],[24.186382,39.814318],[24.132481,39.779038],[24.063162,39.754209],[23.975586,39.738021],[23.876009,39.739797],[23.780809,39.713418],[23.7095,39.707414],[23.53226,39.726039],[23.427462,39.759491],[23.340778,39.753538],[23.260837,39.767264],[23.182026,39.805062],[23.125377,39.861554],[23.101507,39.913036],[23.096511,39.967536],[23.062092,40.02103],[23.04396,40.088363],[22.847756,40.173601],[22.83134,40.131533],[22.910564,40.079752],[22.943837,40.039808],[22.971063,39.983907],[23.03793,39.940821],[23.077492,39.901128],[23.10266,39.856022],[23.12074,39.774491],[23.145784,39.718703],[23.288914,39.633569],[23.341115,39.568501],[23.501212,39.412306],[23.538557,39.405722],[23.641821,39.41018],[23.723626,39.391332],[23.773981,39.439455],[23.847855,39.476794],[23.919558,39.532123],[23.945219,39.591734],[23.991089,39.641634],[24.04433,39.675979],[24.102875,39.69782],[24.177652,39.708115],[24.252805,39.701241],[24.322172,39.677844],[24.379531,39.640232],[24.415587,39.599237],[24.437567,39.55252],[24.486303,39.530245],[24.528141,39.499775],[24.560094,39.463252],[24.581461,39.421855],[24.592187,39.372496],[24.587979,39.317881],[24.567274,39.259471],[24.535695,39.214863],[24.635536,39.173988],[24.686493,39.132958],[24.716638,39.097711],[24.787379,39.048197],[24.832425,38.97782],[24.910992,38.898647],[24.92981,38.86025],[24.941825,38.808937],[24.936581,38.741382],[24.917256,38.691212],[24.879028,38.643806],[24.824892,38.606142],[24.728995,38.563168],[24.65831,38.547363],[24.558109,38.550341],[24.481638,38.570031],[24.486332,38.495649],[24.462265,38.429756],[24.498122,38.350406],[24.568875,38.359782],[24.631055,38.357408],[24.691588,38.342949],[24.745788,38.317087],[24.807439,38.262498],[24.840948,38.195542],[24.935583,38.163312],[25.017987,38.096561],[25.093525,38.068477],[25.153245,38.025618],[25.195261,37.966771],[25.211284,37.896599],[25.240263,37.83613],[25.349122,37.80051],[25.406933,37.769785],[25.454529,37.731768],[25.487798,37.684848],[25.57926,37.652051],[25.731734,37.582422],[25.764294,37.64261],[25.810666,37.698933],[25.882783,37.76679],[25.951094,37.808613],[26.032536,37.833584],[26.142121,37.838702],[26.207102,37.866882],[26.28682,37.88476],[26.400673,37.889395],[26.459513,37.931036],[26.384271,37.924044],[26.272097,37.950673],[26.245744,38.038431],[26.183114,37.973358],[26.092389,37.932906],[25.989011,37.924641],[25.890292,37.949769],[25.707892,38.075558],[25.641891,38.146763],[25.619781,38.191015],[25.610441,38.238167],[25.614283,38.284379],[25.631306,38.333436],[25.509616,38.319031],[25.40777,38.338251],[25.360628,38.360675],[25.306389,38.399274],[25.274226,38.434449],[25.252179,38.474403],[25.241191,38.521141],[25.244588,38.569235],[25.299611,38.684402],[25.351864,38.744493],[25.42841,38.786113],[25.524316,38.807351],[25.593083,38.809801],[25.679554,38.796618],[25.753488,38.763595],[25.836225,38.784665],[25.98835,38.804634],[26.053413,38.801771],[26.156795,38.780074],[26.151848,38.793886],[26.183876,38.804758],[26.120671,38.807975],[26.061088,38.822867],[26.000327,38.853502],[25.942132,38.903473],[25.87177,38.914838],[25.80913,38.939709],[25.712071,38.994538],[25.655113,39.037598],[25.603731,39.091244],[25.578751,39.130853],[25.565807,39.170786],[25.563441,39.211642],[25.571912,39.252704],[25.5904,39.29053],[25.638556,39.362692],[25.688136,39.410956],[25.747687,39.453947],[25.804496,39.479912],[25.655529,39.556203],[25.6865,39.602377],[25.66697,39.830958],[25.689629,39.880025],[25.679627,39.895831],[25.630241,39.836566],[25.631723,39.795623],[25.622666,39.754901],[25.569169,39.668039],[25.520884,39.628243],[25.4585,39.598652],[25.387894,39.583092],[25.316584,39.582743],[25.319202,39.508445],[25.285646,39.430455],[25.179805,39.327705],[25.126695,39.292428],[25.070669,39.271317],[25.010205,39.261262],[24.948172,39.262639],[24.887944,39.275554],[24.834226,39.29881],[24.789259,39.330987],[24.752255,39.373409],[24.728344,39.419743],[24.711448,39.508853],[24.727923,39.588152],[24.775154,39.664527],[24.831324,39.714631],[24.804021,39.753114],[24.788209,39.79523],[24.780627,39.858512],[24.788831,39.90827],[24.772824,39.978419],[24.781762,40.038532],[24.813661,40.093877],[24.849097,40.128671],[24.892222,40.156225],[25.057695,40.218006],[25.157232,40.226323],[25.268834,40.204163],[25.403661,40.234447],[25.257685,40.329074],[25.210608,40.384191],[25.187614,40.432807],[25.181331,40.47291],[25.185714,40.51336],[25.200835,40.552707],[25.226378,40.589117],[25.296006,40.642532],[25.412055,40.686108],[25.354983,40.709335],[25.099774,40.748022]],[[25.182625,38.895278],[25.143457,38.983435],[25.076107,39.06618],[25.20023,39.096085],[25.309998,39.148595],[25.336185,39.064491],[25.38447,38.986859],[25.277273,38.950335],[25.182625,38.895278]],[[24.957841,38.435105],[24.995592,38.455855],[25.015896,38.398635],[25.046188,38.345068],[24.957841,38.435105]],[[25.384173,38.114363],[25.374592,38.125864],[25.364645,38.136957],[25.376414,38.134178],[25.384173,38.114363]],[[25.490506,37.96754],[25.451896,37.9837],[25.436696,38.027355],[25.452341,38.00893],[25.490506,37.96754]]]]}}
