{"type":"Feature","properties":{"mrgid":49325,"name":"Mauritanian 24 NM","placeType":"Contiguous zone","source":"MarineRegions:eez_24nm"},"geometry":{"type":"Polygon","coordinates":[[[-16.934431,19.224511],[-16.837073,19.057127],[-16.795776,19.000717],[-16.717131,18.928676],[-16.624871,18.874209],[-16.592352,18.808794],[-16.578765,18.708763],[-16.536103,18.535071],[-16.470491,18.37564],[-16.447055,18.079016],[-16.457315,18.007416],[-16.464324,17.746433],[-16.47788,17.663278],[-16.54751,17.443745],[-16.691818,17.114597],[-16.829925,16.76818],[-16.854041,16.678081],[-16.871634,16.537989],[-16.913346,16.420436],[-16.934521,16.316958],[-16.926505,16.067295],[-16.718283,16.067235],[-16.72727,16.298834],[-16.710002,16.376048],[-16.659597,16.530218],[-16.642166,16.672229],[-16.546115,16.924248],[-16.349965,17.376294],[-16.304008,17.505198],[-16.272695,17.622119],[-16.254895,17.731696],[-16.242795,17.944557],[-16.247024,18.005552],[-16.233156,18.06289],[-16.26002,18.322348],[-16.26129,18.40435],[-16.288956,18.493675],[-16.336656,18.601388],[-16.350764,18.68465],[-16.372428,18.750459],[-16.389759,18.870685],[-16.440508,18.976432],[-16.48696,19.030872],[-16.565952,19.072865],[-16.625272,19.120158],[-16.738249,19.299681],[-17.238096,20.666225],[-17.361888,20.59378],[-17.427385,20.566954],[-16.934431,19.224511]]]}}
