{"type":"Feature","properties":{"mrgid":49343,"name":"Sierra Leonean 24 NM","placeType":"Contiguous zone","source":"MarineRegions:eez_24nm"},"geometry":{"type":"Polygon","coordinates":[[[-11.60619,6.752982],[-11.732248,6.81924],[-11.788877,6.882292],[-11.971857,6.978539],[-12.439952,7.160945],[-12.517383,7.182236],[-12.581351,7.183177],[-12.632267,7.196204],[-12.698072,7.239063],[-12.745049,7.306962],[-12.955688,7.367391],[-13.006099,7.367391],[-13.057431,7.380516],[-13.099715,7.403662],[-13.209311,7.489099],[-13.25619,7.566272],[-13.272784,7.673068],[-13.267374,7.717843],[-13.250888,7.763086],[-13.225169,7.801929],[-13.189682,7.835005],[-13.203097,7.895762],[-13.286742,7.894992],[-13.361644,7.925447],[-13.42149,7.986835],[-13.449156,8.058582],[-13.451927,8.104436],[-13.444792,8.147635],[-13.426708,8.191694],[-13.399625,8.229962],[-13.460407,8.30903],[-13.482744,8.351718],[-13.494256,8.398471],[-13.500448,8.494072],[-13.484482,8.573453],[-13.443623,8.636896],[-13.448377,8.833311],[-13.484725,8.899744],[-13.497442,8.968876],[-13.694623,8.915306],[-13.680531,8.848591],[-13.652143,8.77885],[-13.648844,8.696333],[-13.689507,8.59514],[-13.702418,8.492496],[-13.687343,8.332502],[-13.667881,8.271226],[-13.636668,8.210251],[-13.653735,8.107944],[-13.644965,8.009151],[-13.621891,7.936505],[-13.584161,7.867557],[-13.531613,7.805021],[-13.46596,7.753311],[-13.47381,7.650492],[-13.454577,7.525939],[-13.41481,7.430276],[-13.354243,7.349428],[-13.222876,7.244475],[-13.155218,7.203853],[-13.075263,7.175785],[-12.974872,7.164933],[-12.877267,7.138656],[-12.804636,7.065475],[-12.71399,7.012362],[-12.638643,6.988948],[-12.544053,6.980927],[-12.501212,6.969356],[-12.079875,6.806522],[-11.928473,6.730951],[-11.856389,6.660899],[-11.764197,6.607098],[-11.644386,6.705358],[-11.60619,6.752982]]]}}
