{"type":"Feature","properties":{"mrgid":49394,"name":"New Zealand 24 NM (Cook Islands)","placeType":"Contiguous zone","source":"MarineRegions:eez_24nm"},"geometry":{"type":"MultiPolygon","coordinates":[[[[-157.969081,-8.514316],[-158.08661,-8.515914],[-158.175546,-8.534511],[-158.263817,-8.575926],[-158.336777,-8.634238],[-158.398074,-8.711181],[-158.438726,-8.798546],[-158.456339,-8.881362],[-158.460417,-9.009136],[-158.436713,-9.118337],[-158.377488,-9.230679],[-158.326419,-9.298438],[-158.225941,-9.39432],[-158.156865,-9.440081],[-158.077678,-9.471609],[-157.992856,-9.486903],[-157.893215,-9.485638],[-157.815076,-9.471651],[-157.741197,-9.442783],[-157.674426,-9.400147],[-157.613495,-9.341457],[-157.544186,-9.253142],[-157.504143,-9.175148],[-157.481171,-9.08502],[-157.478202,-8.993954],[-157.491542,-8.919202],[-157.519005,-8.847771],[-157.587989,-8.721798],[-157.650142,-8.646986],[-157.706882,-8.600708],[-157.776479,-8.563077],[-157.892197,-8.526992],[-157.969081,-8.514316]],[[-158.021168,-8.715069],[-157.936635,-8.723271],[-157.858496,-8.74691],[-157.809013,-8.775314],[-157.755615,-8.834263],[-157.685489,-8.976339],[-157.681698,-9.058377],[-157.710556,-9.138461],[-157.793933,-9.237484],[-157.834092,-9.264136],[-157.875333,-9.279565],[-157.989648,-9.285089],[-158.036476,-9.273746],[-158.079876,-9.25191],[-158.189113,-9.148834],[-158.235411,-9.074291],[-158.252939,-9.029419],[-158.259414,-8.979006],[-158.254233,-8.893979],[-158.241681,-8.847489],[-158.218384,-8.805298],[-158.178911,-8.762579],[-158.131883,-8.733104],[-158.081396,-8.717875],[-158.021168,-8.715069]]],[[[-160.731634,-9.794131],[-160.804557,-9.705676],[-160.898631,-9.640829],[-161.011905,-9.601614],[-161.125093,-9.594486],[-161.234298,-9.617645],[-161.332902,-9.669452],[-161.416379,-9.748934],[-161.475008,-9.848632],[-161.501142,-9.941851],[-161.508908,-10.063535],[-161.481937,-10.181605],[-161.42017,-10.287112],[-161.435839,-10.349113],[-161.444418,-10.431369],[-161.4399,-10.497308],[-161.424644,-10.562218],[-161.384068,-10.649841],[-161.326079,-10.723225],[-161.257482,-10.778574],[-161.154533,-10.834057],[-161.07312,-10.857469],[-160.989353,-10.863761],[-160.912601,-10.854496],[-160.805669,-10.824076],[-160.734154,-10.785363],[-160.66509,-10.72866],[-160.612954,-10.664123],[-160.575378,-10.591228],[-160.548138,-10.474909],[-160.554692,-10.352509],[-160.572669,-10.28809],[-160.601946,-10.22601],[-160.636916,-10.17462],[-160.687217,-10.120493],[-160.672397,-10.040106],[-160.674574,-9.954066],[-160.695262,-9.869434],[-160.731634,-9.794131]],[[-161.000754,-10.662906],[-161.070262,-10.650788],[-161.143808,-10.61182],[-161.184801,-10.578509],[-161.218292,-10.531597],[-161.24026,-10.457013],[-161.233913,-10.37366],[-161.20585,-10.30163],[-161.155733,-10.229395],[-161.211302,-10.205563],[-161.255232,-10.169016],[-161.288603,-10.118521],[-161.305074,-10.06292],[-161.298513,-9.960771],[-161.26644,-9.886119],[-161.202704,-9.824784],[-161.124303,-9.796499],[-161.057973,-9.797554],[-160.994908,-9.817934],[-160.94521,-9.850541],[-160.904893,-9.898544],[-160.878382,-9.964308],[-160.875994,-10.036575],[-160.902681,-10.120235],[-160.945323,-10.178644],[-160.876252,-10.215361],[-160.801207,-10.293234],[-160.769068,-10.343461],[-160.752862,-10.397973],[-160.750287,-10.453931],[-160.757464,-10.497125],[-160.777411,-10.544723],[-160.80637,-10.583944],[-160.848679,-10.619254],[-160.888321,-10.640322],[-161.000754,-10.662906]]],[[[-165.483165,-10.642313],[-165.523837,-10.586125],[-165.574631,-10.536652],[-165.632158,-10.496944],[-165.6978,-10.466831],[-165.766287,-10.448951],[-165.838344,-10.443125],[-165.905965,-10.449199],[-165.979709,-10.468287],[-166.052509,-10.50144],[-166.113869,-10.544416],[-166.165508,-10.596935],[-166.219123,-10.672708],[-166.250441,-10.729011],[-166.273059,-10.792353],[-166.28443,-10.855622],[-166.285262,-10.922791],[-166.269358,-11.008915],[-166.234219,-11.090895],[-166.181682,-11.163174],[-166.115499,-11.221433],[-166.025639,-11.276822],[-165.934275,-11.308181],[-165.834999,-11.317874],[-165.738828,-11.305773],[-165.780019,-11.367035],[-165.808239,-11.431352],[-165.82472,-11.499526],[-165.828953,-11.569485],[-165.8208,-11.639107],[-165.800096,-11.707268],[-165.768306,-11.770142],[-165.72706,-11.825671],[-165.654393,-11.892076],[-165.572895,-11.936973],[-165.482495,-11.963114],[-165.383954,-11.967894],[-165.305154,-11.954646],[-165.228479,-11.925532],[-165.158861,-11.882211],[-165.099119,-11.826118],[-165.053307,-11.761507],[-165.020725,-11.687905],[-165.0039,-11.61171],[-165.002115,-11.532517],[-165.018447,-11.445878],[-165.054661,-11.361555],[-165.107424,-11.289346],[-165.174794,-11.230058],[-165.253489,-11.185786],[-165.338249,-11.160103],[-165.426623,-11.153117],[-165.513388,-11.164912],[-165.450671,-11.056372],[-165.424258,-10.934185],[-165.433561,-10.771489],[-165.452446,-10.705476],[-165.483165,-10.642313]],[[-165.855801,-11.116684],[-165.940147,-11.094289],[-166.028008,-11.031239],[-166.071411,-10.96048],[-166.082284,-10.878442],[-166.058812,-10.799023],[-165.984963,-10.699975],[-165.908624,-10.656699],[-165.819886,-10.644748],[-165.776391,-10.652813],[-165.73374,-10.671078],[-165.695016,-10.699624],[-165.665172,-10.733766],[-165.633102,-10.810188],[-165.627606,-10.926344],[-165.649593,-11.004433],[-165.700284,-11.067608],[-165.771434,-11.106322],[-165.855801,-11.116684]],[[-165.419739,-11.767823],[-165.499595,-11.749314],[-165.564275,-11.703599],[-165.610373,-11.633475],[-165.625118,-11.551429],[-165.607005,-11.475051],[-165.560045,-11.410335],[-165.48898,-11.367359],[-165.408114,-11.354093],[-165.330695,-11.371893],[-165.26103,-11.421512],[-165.218203,-11.490181],[-165.20503,-11.569808],[-165.223121,-11.647385],[-165.269438,-11.711169],[-165.34069,-11.754874],[-165.419739,-11.767823]]],[[[-162.746755,-13.00245],[-162.893302,-12.874704],[-162.95783,-12.838949],[-163.027144,-12.815205],[-163.106564,-12.803518],[-163.186781,-12.807236],[-163.266172,-12.826706],[-163.336158,-12.858994],[-163.429883,-12.917993],[-163.491252,-12.973746],[-163.539243,-13.038991],[-163.588254,-13.138704],[-163.608476,-13.222436],[-163.60989,-13.311848],[-163.591905,-13.398033],[-163.556838,-13.475594],[-163.50812,-13.54173],[-163.447501,-13.59697],[-163.320689,-13.681443],[-163.240369,-13.71655],[-163.155669,-13.733992],[-163.066136,-13.733354],[-162.984539,-13.715639],[-162.904456,-13.679933],[-162.795726,-13.608296],[-162.73362,-13.54963],[-162.680845,-13.470715],[-162.647524,-13.379478],[-162.636554,-13.274692],[-162.649208,-13.177674],[-162.686016,-13.085321],[-162.746755,-13.00245]],[[-163.120597,-13.534966],[-163.169205,-13.52764],[-163.210707,-13.511321],[-163.341547,-13.421328],[-163.389966,-13.353533],[-163.406473,-13.274038],[-163.389926,-13.193322],[-163.358192,-13.133888],[-163.327574,-13.096473],[-163.216069,-13.023768],[-163.129645,-13.004025],[-163.076515,-13.010301],[-163.030018,-13.028034],[-162.93231,-13.105367],[-162.866086,-13.181556],[-162.84825,-13.226394],[-162.841798,-13.274099],[-162.857023,-13.364265],[-162.878824,-13.404706],[-162.907913,-13.437941],[-163.029097,-13.517143],[-163.075997,-13.531625],[-163.120597,-13.534966]]],[[[-162.784179,-17.788165],[-162.873329,-17.699407],[-162.926931,-17.65843],[-162.999391,-17.620769],[-163.083819,-17.596265],[-163.171827,-17.588732],[-163.259399,-17.598836],[-163.343212,-17.626237],[-163.4184,-17.668906],[-163.481318,-17.724],[-163.532196,-17.791507],[-163.588471,-17.914844],[-163.609057,-17.989467],[-163.614203,-18.071534],[-163.601794,-18.153904],[-163.574054,-18.228081],[-163.525483,-18.310483],[-163.467733,-18.376045],[-163.399011,-18.42752],[-163.32371,-18.463217],[-163.232571,-18.488251],[-163.145562,-18.4941],[-163.061908,-18.483732],[-162.981617,-18.457579],[-162.907934,-18.41616],[-162.828634,-18.346842],[-162.781584,-18.289371],[-162.730393,-18.201371],[-162.701896,-18.11192],[-162.695011,-18.027565],[-162.706586,-17.942286],[-162.736074,-17.862546],[-162.784179,-17.788165]],[[-163.166375,-18.293317],[-163.262196,-18.270175],[-163.328867,-18.224461],[-163.387504,-18.134799],[-163.404538,-18.05387],[-163.390984,-17.983054],[-163.357305,-17.904413],[-163.328848,-17.862209],[-163.256364,-17.809118],[-163.168021,-17.789631],[-163.084425,-17.804499],[-163.014315,-17.848245],[-162.932179,-17.936745],[-162.911707,-17.985399],[-162.904878,-18.038163],[-162.923209,-18.121409],[-162.984437,-18.211783],[-163.026963,-18.250261],[-163.065831,-18.273384],[-163.112387,-18.288644],[-163.166375,-18.293317]]],[[[-159.402765,-18.620792],[-159.457919,-18.552293],[-159.520325,-18.499417],[-159.594393,-18.458192],[-159.675454,-18.431996],[-159.756434,-18.422046],[-159.845943,-18.427923],[-159.927064,-18.449719],[-160.005071,-18.488091],[-160.072088,-18.538632],[-160.136661,-18.610349],[-160.211036,-18.725415],[-160.242569,-18.798231],[-160.259151,-18.881325],[-160.257483,-18.962984],[-160.238001,-19.044061],[-160.20203,-19.118563],[-160.137272,-19.198073],[-160.043823,-19.265723],[-159.86269,-19.333592],[-159.763239,-19.352058],[-159.654445,-19.346224],[-159.54942,-19.313506],[-159.456852,-19.256005],[-159.383142,-19.177568],[-159.393869,-19.25374],[-159.389867,-19.326587],[-159.370431,-19.402026],[-159.336598,-19.472805],[-159.289947,-19.535032],[-159.227098,-19.59491],[-159.158555,-19.638916],[-159.08237,-19.670445],[-158.982713,-19.688911],[-158.871426,-19.683618],[-158.74966,-19.64777],[-158.654381,-19.594382],[-158.699346,-19.683713],[-158.720252,-19.780292],[-158.715676,-19.880899],[-158.686119,-19.974345],[-158.623463,-20.070586],[-158.53961,-20.143373],[-158.500176,-20.21788],[-158.43951,-20.295127],[-158.36845,-20.355468],[-158.285798,-20.399243],[-158.163786,-20.428887],[-158.029577,-20.422722],[-157.924537,-20.388207],[-157.842355,-20.342089],[-157.782764,-20.294465],[-157.7644,-20.296845],[-157.738491,-20.356276],[-157.697464,-20.419229],[-157.605833,-20.506937],[-157.488414,-20.566597],[-157.41416,-20.585229],[-157.34324,-20.591305],[-157.239815,-20.580022],[-157.135854,-20.543183],[-157.040541,-20.479708],[-156.97313,-20.407507],[-156.921244,-20.309946],[-156.896445,-20.194008],[-156.902946,-20.080718],[-156.94328,-19.96657],[-156.999305,-19.884717],[-157.072227,-19.81961],[-157.156592,-19.773475],[-157.273283,-19.736462],[-157.296898,-19.678541],[-157.330637,-19.623379],[-157.375853,-19.57069],[-157.423757,-19.529518],[-157.546111,-19.465474],[-157.624131,-19.444443],[-157.692185,-19.436953],[-157.778962,-19.442241],[-157.849623,-19.458294],[-157.917453,-19.48597],[-157.982603,-19.526945],[-158.044898,-19.477375],[-158.1176,-19.439323],[-158.196705,-19.415422],[-158.277207,-19.406393],[-158.350894,-19.410455],[-158.42273,-19.426568],[-158.496135,-19.45601],[-158.558685,-19.494633],[-158.525841,-19.436105],[-158.502303,-19.370865],[-158.490952,-19.304611],[-158.491535,-19.235845],[-158.503996,-19.166238],[-158.526452,-19.103332],[-158.5612,-19.042259],[-158.607487,-18.986014],[-158.682462,-18.923614],[-158.767669,-18.880181],[-158.866251,-18.855195],[-158.961142,-18.852244],[-159.085951,-18.87704],[-159.170643,-18.911031],[-159.253505,-18.967236],[-159.319923,-19.039704],[-159.305581,-18.946879],[-159.312642,-18.831663],[-159.336706,-18.753252],[-159.402765,-18.620792]],[[-159.734789,-19.152215],[-159.802608,-19.140836],[-159.85362,-19.115899],[-159.919311,-19.100423],[-159.960343,-19.07829],[-160.020063,-19.016446],[-160.047998,-18.93784],[-160.047938,-18.889743],[-160.035873,-18.843037],[-159.963669,-18.725262],[-159.926006,-18.68343],[-159.886726,-18.654379],[-159.844883,-18.634854],[-159.798005,-18.624199],[-159.704001,-18.632721],[-159.659956,-18.65202],[-159.621174,-18.680364],[-159.569016,-18.748815],[-159.52957,-18.835205],[-159.517438,-18.885353],[-159.517055,-18.947958],[-159.525863,-18.995537],[-159.565368,-19.074339],[-159.598211,-19.106473],[-159.641517,-19.132652],[-159.688984,-19.147922],[-159.734789,-19.152215]],[[-159.144937,-19.152146],[-159.114939,-19.118973],[-159.072414,-19.08902],[-158.979124,-19.057961],[-158.902128,-19.053308],[-158.823907,-19.076456],[-158.760302,-19.12496],[-158.714907,-19.196608],[-158.701533,-19.283821],[-158.722983,-19.362319],[-158.749137,-19.402364],[-158.784237,-19.435535],[-158.828069,-19.460927],[-158.88068,-19.479104],[-158.968052,-19.488501],[-159.051734,-19.465339],[-159.093853,-19.438703],[-159.13523,-19.397346],[-159.174889,-19.32283],[-159.182339,-19.279664],[-159.179405,-19.233889],[-159.167434,-19.192595],[-159.144937,-19.152146]],[[-158.125137,-20.230025],[-158.203453,-20.213998],[-158.270197,-20.171851],[-158.332443,-20.090099],[-158.354583,-20.008166],[-158.438639,-19.96317],[-158.469481,-19.930576],[-158.493115,-19.890264],[-158.50945,-19.812834],[-158.494365,-19.737546],[-158.451506,-19.673199],[-158.385751,-19.62825],[-158.33766,-19.612355],[-158.28721,-19.607126],[-158.237213,-19.612674],[-158.189512,-19.629103],[-158.149011,-19.654395],[-158.116239,-19.687002],[-158.08935,-19.729261],[-158.074684,-19.769601],[-157.999628,-19.796972],[-157.935626,-19.849055],[-157.924742,-19.789076],[-157.904054,-19.742562],[-157.87182,-19.702432],[-157.828373,-19.669097],[-157.773498,-19.646254],[-157.709787,-19.637731],[-157.609117,-19.657777],[-157.52935,-19.709278],[-157.499777,-19.745298],[-157.478399,-19.788518],[-157.466661,-19.880284],[-157.47599,-19.933987],[-157.496861,-19.982699],[-157.445945,-19.950507],[-157.390969,-19.933811],[-157.326156,-19.93191],[-157.268153,-19.946588],[-157.205774,-19.976215],[-157.158548,-20.017956],[-157.126763,-20.07118],[-157.108679,-20.140518],[-157.119301,-20.234846],[-157.15646,-20.30376],[-157.229057,-20.362261],[-157.314639,-20.389002],[-157.379673,-20.386952],[-157.446165,-20.365176],[-157.50095,-20.32781],[-157.542228,-20.276292],[-157.567096,-20.217149],[-157.573616,-20.151262],[-157.562752,-20.084304],[-157.542446,-20.036405],[-157.625505,-20.083063],[-157.712875,-20.099198],[-157.798302,-20.081283],[-157.87068,-20.031897],[-157.895973,-20.104209],[-157.949046,-20.166313],[-158.040796,-20.21728],[-158.125137,-20.230025]]],[[[-159.374486,-20.995615],[-159.425157,-20.936568],[-159.486021,-20.887926],[-159.567362,-20.841436],[-159.649005,-20.813577],[-159.763733,-20.797699],[-159.851716,-20.799246],[-159.935332,-20.814685],[-160.016973,-20.845936],[-160.088115,-20.890295],[-160.151958,-20.949447],[-160.200685,-21.013724],[-160.237977,-21.090936],[-160.256656,-21.167708],[-160.259031,-21.25059],[-160.243828,-21.33824],[-160.21636,-21.411647],[-160.167679,-21.490358],[-160.107935,-21.553073],[-160.032662,-21.60479],[-159.950971,-21.639023],[-159.835112,-21.6681],[-159.738576,-21.674381],[-159.637641,-21.660934],[-159.535742,-21.62368],[-159.453806,-21.571562],[-159.3907,-21.5101],[-159.339194,-21.43223],[-159.30629,-21.344711],[-159.294589,-21.255099],[-159.30124,-21.174717],[-159.331292,-21.07481],[-159.374486,-20.995615]],[[-159.758695,-21.473894],[-159.852835,-21.457463],[-159.942993,-21.420155],[-159.999289,-21.365216],[-160.03716,-21.284323],[-160.044291,-21.193602],[-160.014406,-21.112638],[-159.945281,-21.040297],[-159.859606,-21.003478],[-159.790119,-20.997583],[-159.725552,-21.003975],[-159.641991,-21.031691],[-159.589042,-21.067119],[-159.555222,-21.10324],[-159.531504,-21.145865],[-159.513571,-21.203482],[-159.508809,-21.251308],[-159.51589,-21.302326],[-159.534111,-21.348316],[-159.565347,-21.392967],[-159.600947,-21.424526],[-159.651765,-21.453308],[-159.701681,-21.468763],[-159.758695,-21.473894]]],[[[-157.592303,-21.61857],[-157.655918,-21.566214],[-157.731298,-21.524959],[-157.810907,-21.499444],[-157.895283,-21.488784],[-157.985299,-21.493149],[-158.078741,-21.515641],[-158.159853,-21.550151],[-158.229571,-21.596519],[-158.291146,-21.658025],[-158.334065,-21.722717],[-158.370551,-21.807686],[-158.38864,-21.886389],[-158.390574,-21.968689],[-158.375838,-22.046219],[-158.341526,-22.12762],[-158.289315,-22.201887],[-158.224155,-22.26154],[-158.136727,-22.314082],[-158.049406,-22.346455],[-157.956599,-22.360425],[-157.835229,-22.356735],[-157.743425,-22.337562],[-157.662031,-22.302896],[-157.58706,-22.25129],[-157.524162,-22.184789],[-157.479201,-22.109634],[-157.451378,-22.024609],[-157.444015,-21.941357],[-157.455586,-21.842918],[-157.486565,-21.760385],[-157.592303,-21.61857]],[[-157.936979,-22.160109],[-158.027855,-22.140342],[-158.116964,-22.08067],[-158.14598,-22.042546],[-158.166002,-21.999502],[-158.175586,-21.956698],[-158.175069,-21.911399],[-158.141304,-21.811506],[-158.082432,-21.743252],[-158.036482,-21.716217],[-157.980844,-21.697512],[-157.883862,-21.690959],[-157.802388,-21.716368],[-157.733015,-21.774002],[-157.67197,-21.866488],[-157.661002,-21.911169],[-157.660215,-21.969205],[-157.687172,-22.049527],[-157.749791,-22.116468],[-157.82847,-22.151592],[-157.936979,-22.160109]]]]}}
