{"type":"Feature","properties":{"mrgid":49417,"name":"Bissau-Guinean 24 NM","placeType":"Contiguous zone","source":"MarineRegions:eez_24nm"},"geometry":{"type":"Polygon","coordinates":[[[-15.595391,10.650092],[-15.782202,10.663616],[-16.269016,10.843766],[-16.311122,10.869667],[-16.624553,11.128698],[-16.6537,11.164522],[-16.674297,11.207226],[-16.784159,11.586671],[-16.906472,12.235093],[-17.093943,12.126971],[-16.978913,11.526659],[-16.861344,11.12692],[-16.823014,11.052843],[-16.768211,10.986276],[-16.441582,10.715422],[-16.384229,10.676467],[-15.854382,10.475287],[-15.595391,10.650092]]]}}
