{"type":"Feature","properties":{"mrgid":49507,"name":"Libyan Internal Waters","placeType":"Internal waters","source":"MarineRegions:eez_internal_waters"},"geometry":{"type":"MultiPolygon","coordinates":[[[[11.561389,33.175008],[11.561788,33.167205],[11.609729,33.125455],[11.611372,33.115321],[11.636347,33.112321],[11.653437,33.093854],[11.810114,33.071298],[11.781573,33.094584],[11.773449,33.090066],[11.768091,33.099301],[11.716241,33.104529],[11.689919,33.125435],[11.781502,33.095495],[11.817032,33.075375],[11.825227,33.079047],[11.688894,33.133072],[11.629736,33.133072],[11.561389,33.175008]]],[[[11.826231,33.078649],[11.825454,33.07534],[11.850056,33.069208],[11.826231,33.078649]]],[[[11.895412,33.051234],[12.025782,32.978121],[12.05203,32.955565],[12.124914,32.923809],[12.118905,32.924655],[12.124533,32.913618],[12.191819,32.888426],[11.908339,33.046111],[11.895412,33.051234]]],[[[21.715556,32.940847],[21.801827,32.912795],[21.922967,32.893831],[21.963413,32.902945],[22.055684,32.906866],[22.112464,32.932931],[21.939744,32.902781],[21.715556,32.940847]]],[[[22.145003,32.938611],[22.126986,32.935466],[22.142921,32.935943],[22.145003,32.938611]]],[[[22.14814,32.93732],[22.146005,32.938199],[22.147082,32.93668],[22.14814,32.93732]]],[[[21.693223,32.936956],[21.64813,32.929098],[21.667891,32.929876],[21.693223,32.936956]]],[[[22.149534,32.936747],[22.15192,32.933586],[22.159646,32.932586],[22.149534,32.936747]]],[[[22.165391,32.930223],[22.166297,32.929647],[22.166975,32.929571],[22.165391,32.930223]]],[[[21.642541,32.928124],[21.631716,32.923789],[21.634173,32.92257],[21.642541,32.928124]]],[[[22.175847,32.925835],[22.167846,32.904563],[22.193458,32.880548],[22.267093,32.874408],[22.175847,32.925835]]],[[[21.627324,32.925132],[21.424236,32.795598],[21.452382,32.801843],[21.508192,32.832958],[21.627324,32.925132]]],[[[13.212681,32.921089],[13.17783,32.900641],[13.19301,32.896006],[13.20031,32.898224],[13.197765,32.904696],[13.217495,32.902658],[13.216498,32.916391],[13.223679,32.906839],[13.235179,32.912797],[13.28963,32.910366],[13.212681,32.921089]]],[[[13.16887,32.899917],[13.21068,32.920396],[12.997506,32.836392],[12.688075,32.793892],[12.438617,32.820758],[12.19214,32.888299],[12.207659,32.871094],[12.340502,32.823171],[12.468023,32.814244],[12.558667,32.796281],[12.657411,32.791574],[12.813865,32.798357],[12.932086,32.817485],[13.089461,32.86217],[13.114648,32.87775],[13.150217,32.881242],[13.16887,32.899917]]],[[[13.38134,32.897585],[13.290075,32.910304],[13.325706,32.897351],[13.38134,32.897585]]],[[[13.393999,32.893441],[13.416967,32.868598],[13.532858,32.820847],[13.393999,32.893441]]],[[[22.317233,32.877231],[22.272121,32.874453],[22.306719,32.871953],[22.317233,32.877231]]],[[[22.31862,32.877115],[22.34618,32.867809],[22.390012,32.868889],[22.377244,32.872231],[22.31862,32.877115]]],[[[22.271838,32.874435],[22.268141,32.874208],[22.26966,32.873104],[22.271838,32.874435]]],[[[22.390083,32.868871],[22.435182,32.850968],[22.43933,32.841783],[22.492905,32.811596],[22.535097,32.799628],[22.556646,32.803443],[22.566905,32.788926],[22.606565,32.773518],[22.644353,32.775613],[22.667887,32.752969],[22.817843,32.71521],[22.926547,32.671062],[22.925882,32.66442],[22.934871,32.670166],[22.952113,32.665497],[22.490847,32.842503],[22.390083,32.868871]]],[[[13.803064,32.802508],[13.535508,32.81994],[13.598003,32.790984],[13.739756,32.791603],[13.803096,32.802441],[13.843536,32.785263],[13.930018,32.775538],[13.803064,32.802508]]],[[[21.422569,32.794966],[21.102363,32.77061],[21.336948,32.771858],[21.422569,32.794966]]],[[[13.945561,32.772236],[14.020412,32.727671],[14.157315,32.710448],[14.169994,32.71219],[13.945561,32.772236]],[[14.0625,32.724051],[14.065022,32.724948],[14.068089,32.723391],[14.0625,32.724051]],[[14.151816,32.714016],[14.15508,32.713829],[14.154258,32.712931],[14.151816,32.714016]]],[[[21.101224,32.770451],[21.083755,32.766419],[21.09375,32.766183],[21.101224,32.770451]]],[[[21.07972,32.765488],[21.060853,32.761133],[20.947792,32.717803],[20.673333,32.593636],[20.57966,32.547823],[20.671181,32.591488],[20.880763,32.673218],[20.943197,32.715689],[21.07972,32.765488]]],[[[14.178225,32.709988],[14.209125,32.69769],[14.241287,32.693116],[14.178225,32.709988]]],[[[14.25037,32.69034],[14.237366,32.682362],[14.248875,32.680332],[14.24874,32.673844],[14.257479,32.683174],[14.247567,32.667332],[14.27299,32.658296],[14.282437,32.642238],[14.329368,32.626309],[14.35885,32.590849],[14.434235,32.55283],[14.446565,32.526624],[14.482865,32.508986],[14.567235,32.496673],[14.573611,32.501889],[14.580989,32.494989],[14.606023,32.497775],[14.647896,32.484621],[14.698797,32.455601],[14.755576,32.438784],[14.90205,32.439525],[14.967124,32.418422],[15.097898,32.411456],[15.225806,32.374128],[15.213661,32.371179],[15.215362,32.361146],[15.226235,32.370436],[15.22258,32.355497],[15.233385,32.34375],[15.256801,32.347431],[15.235803,32.343053],[15.272069,32.318549],[15.315956,32.216323],[15.357556,32.166133],[15.361089,32.136229],[15.348392,32.080195],[15.356899,32.011345],[15.350385,31.999689],[15.394271,31.861959],[15.483245,31.678131],[15.520432,31.614558],[15.56747,31.56427],[15.625831,31.481364],[15.660514,31.449037],[15.80732,31.362671],[16.013747,31.279326],[16.20328,31.237506],[16.513592,31.212414],[16.698982,31.219235],[17.005745,31.163483],[17.12439,31.133083],[17.139368,31.122936],[17.291734,31.093936],[17.305792,31.083142],[17.392994,31.076634],[17.397484,31.065938],[17.439212,31.047547],[17.467036,31.024859],[17.511636,31.009418],[17.60287,30.987133],[17.687561,30.951603],[17.851686,30.924858],[17.882063,30.896353],[17.886578,30.871915],[17.911984,30.8557],[18.097378,30.802462],[18.174635,30.789796],[18.22356,30.76521],[18.224524,30.755254],[18.294545,30.697232],[18.290772,30.691706],[18.300643,30.679086],[18.342343,30.646455],[18.369593,30.638021],[18.37068,30.625697],[18.410046,30.595732],[18.51368,30.539079],[18.531718,30.521959],[18.595441,30.508864],[18.576659,30.512429],[18.569157,30.507798],[18.575887,30.504084],[18.568899,30.505688],[18.586324,30.489002],[18.587963,30.499493],[18.593915,30.496058],[18.590727,30.505702],[18.595656,30.494068],[18.586444,30.485148],[18.651101,30.439105],[18.648487,30.427284],[18.672917,30.410156],[18.748501,30.386917],[18.794439,30.383259],[18.792511,30.369401],[18.80081,30.358877],[18.88139,30.330607],[18.942129,30.287584],[19.05559,30.267912],[19.114313,30.273113],[19.185176,30.26705],[19.272339,30.282675],[19.381009,30.317561],[19.568579,30.418518],[19.590768,30.418918],[19.583447,30.416025],[19.591781,30.409877],[19.599853,30.411887],[19.595556,30.417998],[19.614568,30.415179],[19.789998,30.545373],[19.820751,30.585938],[19.907467,30.664473],[19.975875,30.760959],[20.054286,30.847291],[20.075061,30.88924],[20.07546,30.897464],[20.06385,30.897593],[20.088229,30.913724],[20.154602,31.040368],[20.175171,31.151574],[20.147403,31.241094],[20.135121,31.249246],[20.08735,31.339924],[20.066622,31.358],[20.051468,31.35955],[20.028172,31.393283],[20.015391,31.423419],[20.012709,31.468408],[20.003895,31.476647],[19.992195,31.472226],[19.988992,31.518249],[19.964206,31.590931],[19.953797,31.674449],[19.921473,31.746232],[19.93025,31.79824],[19.925523,31.829554],[19.94182,31.870773],[19.953025,31.934403],[19.94212,31.957008],[19.958968,31.992188],[20.044071,32.07761],[20.042716,32.093264],[20.052797,32.098923],[20.040741,32.097279],[20.03529,32.114933],[20.04009,32.104721],[20.044761,32.11685],[20.060826,32.099895],[20.070275,32.104953],[20.063916,32.110399],[20.057112,32.105187],[20.049827,32.122996],[20.029421,32.11602],[20.048372,32.124559],[20.060463,32.123586],[20.081468,32.143983],[20.099141,32.175883],[20.088531,32.185037],[20.099815,32.177406],[20.112746,32.185938],[20.244035,32.312974],[20.37391,32.416729],[20.501489,32.50037],[14.582794,32.5],[14.433058,32.553625],[14.337511,32.639178],[14.25037,32.69034]],[[19.900534,30.792388],[19.901645,30.794398],[19.904926,30.791712],[19.900534,30.792388]],[[19.87163,30.759979],[19.871815,30.760394],[19.876553,30.757794],[19.87163,30.759979]]],[[[22.958908,32.66289],[22.953173,32.665091],[22.95543,32.661625],[22.958908,32.66289]]],[[[23.025034,32.655324],[22.95925,32.662778],[23.005437,32.652685],[22.997286,32.648466],[23.025034,32.655324]]],[[[23.032556,32.653762],[23.029645,32.654525],[23.031464,32.651109],[23.032556,32.653762]]],[[[23.073173,32.643116],[23.034736,32.653191],[23.061612,32.642104],[23.073173,32.643116]]],[[[23.087636,32.639325],[23.07856,32.641704],[23.083854,32.638715],[23.087636,32.639325]]],[[[23.100845,32.635863],[23.099995,32.630579],[23.102884,32.634598],[23.100845,32.635863]]],[[[23.107233,32.634189],[23.109555,32.632077],[23.113755,32.629684],[23.107233,32.634189]]],[[[23.118357,32.62451],[23.118446,32.622943],[23.119843,32.622516],[23.118357,32.62451]]],[[[23.126848,32.609131],[23.124361,32.608318],[23.126365,32.604471],[23.126848,32.609131]]],[[[23.125807,32.602356],[23.12568,32.602345],[23.12569,32.601913],[23.125807,32.602356]]],[[[23.124224,32.596361],[23.098598,32.569735],[23.107898,32.534517],[23.124224,32.596361]]],[[[20.577127,32.546344],[20.577284,32.54666],[20.569605,32.542358],[20.577127,32.546344]]],[[[20.559719,32.53563],[20.559586,32.536182],[20.557343,32.5348],[20.559719,32.53563]]],[[[23.090685,32.534569],[23.098645,32.526745],[23.104446,32.53304],[23.102891,32.50433],[23.129401,32.489602],[23.120785,32.479394],[23.135492,32.470455],[23.135216,32.481753],[23.144577,32.478024],[23.159066,32.4563],[23.146272,32.428026],[23.13481,32.423824],[23.132669,32.388143],[23.112062,32.403157],[23.132652,32.406555],[23.105672,32.431611],[23.094766,32.431707],[23.089459,32.414497],[23.101717,32.39751],[23.081978,32.356728],[23.096177,32.311733],[23.0999,32.318351],[23.159768,32.307972],[23.167255,32.295744],[23.2093,32.280233],[23.253757,32.203438],[23.292806,32.199189],[23.302473,32.164098],[23.316731,32.154075],[23.326113,32.15715],[23.30633,32.201546],[23.316702,32.213584],[23.353445,32.201606],[23.367142,32.204343],[23.421086,32.174117],[23.458366,32.178153],[23.286464,32.234637],[23.28641,32.222044],[23.279494,32.227428],[23.274341,32.23666],[23.284107,32.236325],[23.236488,32.375938],[23.17335,32.463075],[23.107988,32.53256],[23.103361,32.534298],[23.098763,32.531892],[23.090685,32.534569]],[[23.166318,32.393694],[23.168566,32.390461],[23.167302,32.389935],[23.166318,32.393694]]],[[[20.548603,32.529066],[20.549494,32.529961],[20.547774,32.528901],[20.548603,32.529066]]],[[[20.544652,32.526976],[20.543108,32.526025],[20.543293,32.525178],[20.544652,32.526976]]],[[[20.541185,32.52465],[20.541213,32.524857],[20.54062,32.524491],[20.541185,32.52465]]],[[[20.526828,32.514875],[20.530545,32.518281],[20.519946,32.511747],[20.526828,32.514875]]],[[[20.516509,32.508658],[20.517498,32.510238],[20.509459,32.505283],[20.516509,32.508658]]],[[[20.505396,32.501861],[20.50707,32.50381],[20.502823,32.501192],[20.505396,32.501861]]],[[[23.668372,32.181548],[23.462982,32.178142],[23.499498,32.174944],[23.510957,32.163504],[23.520008,32.172422],[23.599119,32.176273],[23.609035,32.170789],[23.668372,32.181548]]],[[[23.717225,32.178056],[23.678077,32.180854],[23.760312,32.167496],[23.717225,32.178056]]],[[[23.775342,32.163798],[23.773563,32.158862],[23.827027,32.143676],[23.832135,32.135199],[23.847611,32.137092],[23.859703,32.124575],[23.865011,32.13039],[23.869431,32.117641],[23.876436,32.121924],[23.880402,32.114168],[23.904858,32.119903],[23.911661,32.112183],[23.923257,32.115548],[23.930827,32.105189],[23.938454,32.112964],[23.973136,32.10562],[23.775342,32.163798]]],[[[23.974278,32.105054],[23.974952,32.101583],[23.977303,32.103415],[23.974278,32.105054]]],[[[23.984412,32.099564],[23.981482,32.101152],[23.981255,32.097973],[23.984412,32.099564]]],[[[23.996694,32.092911],[23.998671,32.091267],[24.00103,32.090561],[23.996694,32.092911]]],[[[24.010787,32.084192],[24.003762,32.080514],[24.008201,32.070717],[23.970956,32.079452],[23.965206,32.074791],[23.979168,32.063166],[24.01495,32.053803],[24.011291,32.048149],[24.018752,32.052103],[24.027237,32.041874],[24.035032,32.044333],[24.066398,32.020004],[24.103721,32.01224],[24.010787,32.084192]]],[[[24.704908,32.021769],[24.682797,32.022239],[24.666288,32.021243],[24.68463,32.019282],[24.704908,32.021769]]],[[[24.715475,32.021433],[24.711874,32.021573],[24.712643,32.021176],[24.715475,32.021433]]],[[[24.662712,32.021028],[24.346346,31.999975],[24.366997,31.992188],[24.378057,31.999295],[24.388369,31.989246],[24.387429,31.995769],[24.399553,31.997004],[24.412761,31.996214],[24.413486,31.989424],[24.420777,31.995125],[24.42325,31.988598],[24.426491,31.996483],[24.46264,31.987757],[24.494428,31.994025],[24.547598,31.979509],[24.662712,32.021028]]],[[[24.736102,32.02063],[24.72775,32.020955],[24.730028,32.019868],[24.736102,32.02063]]],[[[24.762386,32.018445],[24.739245,32.020439],[24.739119,32.018493],[24.743388,32.017049],[24.762386,32.018445]]],[[[24.763764,32.018295],[24.792232,31.998441],[24.781682,31.986607],[24.805608,31.997407],[24.914558,31.973523],[24.932807,31.977935],[24.941919,31.969873],[24.980079,31.970798],[25.03802,31.928419],[25.035025,31.935303],[24.995022,31.964169],[24.978892,31.971669],[24.872789,31.986678],[24.763764,32.018295]]],[[[24.239332,32.006261],[24.109322,32.011482],[24.199463,31.997797],[24.232299,31.997776],[24.239332,32.006261]]],[[[24.255925,32.005594],[24.247578,32.00593],[24.250937,32.002037],[24.255925,32.005594]]],[[[24.267342,32.005135],[24.263469,32.005291],[24.262273,32.001996],[24.267342,32.005135]]],[[[24.273937,32.00487],[24.286313,31.997205],[24.339425,31.996122],[24.345865,32.001977],[24.273937,32.00487]],[[24.288506,32.002284],[24.294996,32.000932],[24.287202,32.000372],[24.288506,32.002284]]],[[[25.040797,31.922065],[25.027034,31.854249],[25.084306,31.770193],[25.095379,31.770177],[25.097205,31.759244],[25.088235,31.750966],[25.107511,31.754987],[25.129488,31.720815],[25.040797,31.922065]]],[[[25.131025,31.717089],[25.121245,31.707646],[25.131146,31.707716],[25.138968,31.677],[25.145498,31.676622],[25.131025,31.717089]]],[[[25.147025,31.675916],[25.14713,31.675482],[25.148889,31.675278],[25.147025,31.675916]]],[[[25.147099,31.675208],[25.146909,31.673574],[25.147559,31.674306],[25.147099,31.675208]]],[[[25.144948,31.670972],[25.146133,31.672597],[25.142604,31.670313],[25.144948,31.670972]]]]}}
