{"type":"Feature","properties":{"mrgid":49564,"name":"Portuguese Internal Waters","placeType":"Internal waters","source":"MarineRegions:eez_internal_waters"},"geometry":{"type":"MultiPolygon","coordinates":[[[[-8.770089,41.373781],[-8.786736,41.41537],[-8.757068,40.645756],[-8.681935,40.849728],[-8.648469,40.970862],[-8.644341,41.023735],[-8.672282,41.144918],[-8.66442,41.136044],[-8.639863,41.14669],[-8.618374,41.137823],[-8.579866,41.139732],[-8.570199,41.123922],[-8.548012,41.119298],[-8.513841,41.07155],[-8.474271,41.074466],[-8.428987,41.035572],[-8.419508,41.03778],[-8.411813,41.070542],[-8.400442,41.051172],[-8.3693,41.049324],[-8.352294,41.038534],[-8.326967,41.05656],[-8.312875,41.057489],[-8.293705,41.079337],[-8.281138,41.066333],[-8.262141,41.065508],[-8.276353,41.06652],[-8.291746,41.084419],[-8.314928,41.059517],[-8.328218,41.058554],[-8.352078,41.041367],[-8.366934,41.050738],[-8.397746,41.053331],[-8.40506,41.070148],[-8.414015,41.072822],[-8.427413,41.03727],[-8.467156,41.07513],[-8.515156,41.075074],[-8.526562,41.101282],[-8.547407,41.122737],[-8.565768,41.12642],[-8.577144,41.143078],[-8.615104,41.139849],[-8.636877,41.148106],[-8.674777,41.147321],[-8.690446,41.173078],[-8.701219,41.176796],[-8.695205,41.188269],[-8.708648,41.184492],[-8.707431,41.171892],[-8.710116,41.176389],[-8.712281,41.183104],[-8.706862,41.191177],[-8.725839,41.240069],[-8.722847,41.256691],[-8.739363,41.308826],[-8.739303,41.332127],[-8.75358,41.342213],[-8.754129,41.35505],[-8.76751,41.370821],[-8.7626,41.374309],[-8.770089,41.373781]]],[[[-8.908642,40.184261],[-9.540105,39.478283],[-9.557,39.47],[-9.538,39.416333],[-9.503333,38.780333],[-9.468756,38.824025],[-9.417745,38.942489],[-9.410254,38.938154],[-9.427714,39.001001],[-9.416151,39.042587],[-9.42243,39.07408],[-9.357724,39.170797],[-9.339829,39.22565],[-9.336538,39.282794],[-9.347132,39.311154],[-9.362791,39.32451],[-9.361833,39.34256],[-9.373531,39.355164],[-9.375797,39.348178],[-9.409167,39.359816],[-9.396979,39.370175],[-9.378744,39.3691],[-9.379123,39.376358],[-9.366588,39.3608],[-9.347545,39.362031],[-9.241008,39.425386],[-9.212223,39.407308],[-9.223094,39.400838],[-9.215846,39.398176],[-9.226074,39.385777],[-9.207062,39.399772],[-9.183809,39.401947],[-9.189921,39.407584],[-9.201043,39.403503],[-9.205984,39.421681],[-9.227607,39.435663],[-9.204482,39.474378],[-9.168446,39.50443],[-9.153049,39.51106],[-9.145378,39.508203],[-9.150409,39.501462],[-9.137517,39.503459],[-9.145193,39.521703],[-9.131238,39.524766],[-9.076041,39.58796],[-9.072152,39.584072],[-9.074293,39.601997],[-9.086553,39.604211],[-9.049922,39.701382],[-9.050707,39.719352],[-8.893503,40.042829],[-8.862404,40.129067],[-8.861887,40.137752],[-8.873949,40.143251],[-8.859242,40.14473],[-8.843846,40.121941],[-8.819275,40.12043],[-8.839581,40.125316],[-8.855062,40.144641],[-8.832644,40.143208],[-8.805521,40.132401],[-8.789686,40.110816],[-8.776381,40.112219],[-8.790899,40.113327],[-8.803015,40.134896],[-8.826441,40.14561],[-8.875101,40.145616],[-8.866839,40.148566],[-8.870129,40.159504],[-8.908642,40.184261]],[[-9.546464,39.473507],[-9.544581,39.474928],[-9.544567,39.472647],[-9.546464,39.473507]],[[-9.512667,39.419358],[-9.501291,39.418685],[-9.511593,39.408177],[-9.512667,39.419358]]],[[[-8.895438,39.035618],[-8.930491,39.023043],[-8.961104,38.96745],[-8.991423,38.949617],[-9.014331,38.915685],[-9.022413,38.88579],[-9.037817,38.867075],[-9.063142,38.854521],[-9.084816,38.820105],[-9.090664,38.756625],[-9.105629,38.72769],[-9.126237,38.709296],[-9.215267,38.691656],[-9.280962,38.698587],[-9.324765,38.67305],[-9.392598,38.701527],[-9.415584,38.700405],[-9.414707,38.692636],[-9.426546,38.689483],[-9.482609,38.705323],[-9.222043,38.413628],[-9.18794,38.472515],[-9.181104,38.506109],[-9.143985,38.523655],[-9.181857,38.516186],[-9.188846,38.554793],[-9.211261,38.607326],[-9.257853,38.664132],[-9.239135,38.673419],[-9.14679,38.687902],[-9.14102,38.67969],[-9.149652,38.672758],[-9.145993,38.665352],[-9.100371,38.648832],[-9.114054,38.644312],[-9.126575,38.652128],[-9.124792,38.64351],[-9.138662,38.642086],[-9.11334,38.637142],[-9.106556,38.620545],[-9.106661,38.643005],[-9.082297,38.644193],[-9.086303,38.63834],[-9.075961,38.640605],[-9.050957,38.603819],[-9.054031,38.628236],[-9.066652,38.634783],[-9.06594,38.648946],[-9.091382,38.660575],[-9.058694,38.675524],[-9.057616,38.683837],[-9.04221,38.678805],[-9.034194,38.658482],[-9.030503,38.658085],[-9.031425,38.668445],[-9.021206,38.670168],[-8.994837,38.651604],[-9.002049,38.667809],[-9.012945,38.669998],[-9.009676,38.682572],[-9.002107,38.688728],[-8.993888,38.682452],[-8.992961,38.692499],[-8.975961,38.685413],[-8.982063,38.693592],[-8.989807,38.696303],[-8.969606,38.700194],[-9.03175,38.700608],[-9.048879,38.689802],[-9.045796,38.713732],[-8.962453,38.756918],[-8.926108,38.759868],[-8.945044,38.778452],[-8.931069,38.784272],[-8.940216,38.791317],[-8.931656,38.795711],[-8.936383,38.805199],[-8.953909,38.824242],[-8.966425,38.825949],[-8.936923,38.860285],[-8.974802,38.829205],[-8.989569,38.851991],[-8.978367,38.866817],[-8.995626,38.884755],[-8.989101,38.910862],[-8.994042,38.933154],[-8.980201,38.953117],[-8.946277,38.973292],[-8.919763,39.02219],[-8.897994,39.029441],[-8.860986,39.024441],[-8.895438,39.035618]],[[-9.011617,38.884089],[-9.008665,38.913129],[-8.999978,38.922797],[-9.000492,38.896411],[-9.011617,38.884089]],[[-9.000168,38.884544],[-8.982645,38.863588],[-9.021701,38.854333],[-9.012057,38.875528],[-9.000168,38.884544]],[[-9.026407,38.872489],[-9.046617,38.835985],[-9.0817,38.812222],[-9.060553,38.853406],[-9.026407,38.872489]],[[-8.966018,38.82393],[-8.963166,38.823735],[-8.966005,38.822149],[-8.966018,38.82393]],[[-8.942948,38.809106],[-8.940777,38.80802],[-8.941412,38.806215],[-8.942948,38.809106]],[[-8.940657,38.784346],[-8.939313,38.783822],[-8.940775,38.782815],[-8.940657,38.784346]],[[-9.300087,38.660869],[-9.29951,38.66159],[-9.297648,38.66046],[-9.300087,38.660869]],[[-9.037326,38.686216],[-9.034897,38.687068],[-9.035447,38.683853],[-9.037326,38.686216]],[[-9.118212,38.642742],[-9.118983,38.641835],[-9.120762,38.642738],[-9.118212,38.642742]],[[-9.05777,38.625055],[-9.057711,38.625994],[-9.055385,38.625488],[-9.05777,38.625055]]],[[[-8.724927,38.569435],[-8.736791,38.572335],[-8.748632,38.564946],[-8.74671,38.552138],[-8.764049,38.52692],[-8.789063,38.54269],[-8.782094,38.527532],[-8.790162,38.52796],[-8.79031,38.538504],[-8.792952,38.52751],[-8.777421,38.523526],[-8.781969,38.514882],[-8.810707,38.509288],[-8.803774,38.505006],[-8.784324,38.509107],[-8.75427,38.501477],[-8.757313,38.484202],[-8.771328,38.482977],[-8.772138,38.489633],[-8.779796,38.472064],[-8.797974,38.468934],[-8.801981,38.480316],[-8.794503,38.485769],[-8.808176,38.486222],[-8.808223,38.4739],[-8.813539,38.486535],[-8.857161,38.510807],[-8.894497,38.519926],[-8.922377,38.509019],[-8.933434,38.487628],[-8.979262,38.479138],[-8.990938,38.463864],[-9.028641,38.445609],[-9.064643,38.434744],[-9.10703,38.442709],[-9.133333,38.428671],[-9.168236,38.429008],[-9.195967,38.409042],[-9.22102,38.412386],[-8.8875,37.936167],[-8.995682,37.02513],[-8.979581,37.043118],[-8.984531,37.049231],[-8.962121,37.069892],[-8.958448,37.093727],[-8.935124,37.111817],[-8.901845,37.166947],[-8.918329,37.196099],[-8.896688,37.195449],[-8.898073,37.205166],[-8.860307,37.268612],[-8.865638,37.293352],[-8.878952,37.295039],[-8.872354,37.310728],[-8.87802,37.321185],[-8.849658,37.349985],[-8.839283,37.34249],[-8.844973,37.355128],[-8.815805,37.398527],[-8.807661,37.432222],[-8.795343,37.440305],[-8.802381,37.446449],[-8.801658,37.473697],[-8.78633,37.535585],[-8.792324,37.558741],[-8.819959,37.598926],[-8.795911,37.673983],[-8.797613,37.703318],[-8.785091,37.719481],[-8.758136,37.727649],[-8.746793,37.705316],[-8.751523,37.727527],[-8.758221,37.729111],[-8.76814,37.728408],[-8.789639,37.71838],[-8.797606,37.736109],[-8.812614,37.744356],[-8.79057,37.837285],[-8.804593,37.922851],[-8.836636,37.938306],[-8.856373,37.93195],[-8.866356,37.937762],[-8.854205,37.934844],[-8.867315,37.953953],[-8.883837,37.946231],[-8.887294,37.951752],[-8.889056,37.940677],[-8.888472,37.961012],[-8.859548,37.981341],[-8.799769,38.110672],[-8.778866,38.187922],[-8.774832,38.253034],[-8.784652,38.337559],[-8.813578,38.402434],[-8.835321,38.432008],[-8.906989,38.491523],[-8.889089,38.490756],[-8.885839,38.478621],[-8.881918,38.48241],[-8.885954,38.487108],[-8.854955,38.45874],[-8.824644,38.444486],[-8.821811,38.426294],[-8.798173,38.389258],[-8.796021,38.40891],[-8.788038,38.40878],[-8.801275,38.419352],[-8.79592,38.422578],[-8.809239,38.427205],[-8.80319,38.443286],[-8.789063,38.436384],[-8.788385,38.42159],[-8.765419,38.422821],[-8.775047,38.417258],[-8.773582,38.410326],[-8.749863,38.416326],[-8.746486,38.424398],[-8.646191,38.402409],[-8.615091,38.407848],[-8.603542,38.401727],[-8.558727,38.411759],[-8.546809,38.405164],[-8.54109,38.374564],[-8.541304,38.405807],[-8.552176,38.413667],[-8.647466,38.407827],[-8.645827,38.416649],[-8.651825,38.408094],[-8.699767,38.44188],[-8.721666,38.441164],[-8.722282,38.47024],[-8.728991,38.474917],[-8.722633,38.480739],[-8.734423,38.4752],[-8.722674,38.48475],[-8.728901,38.513051],[-8.708507,38.518096],[-8.721365,38.515122],[-8.726756,38.525834],[-8.734265,38.518421],[-8.742165,38.537228],[-8.735577,38.547197],[-8.742508,38.55955],[-8.724927,38.569435]],[[-8.778244,38.528717],[-8.780097,38.52754],[-8.782108,38.530441],[-8.778244,38.528717]],[[-8.77137,38.51103],[-8.776536,38.520731],[-8.763925,38.519432],[-8.761585,38.51648],[-8.77137,38.51103]],[[-8.76233,38.515111],[-8.756352,38.507052],[-8.761231,38.506024],[-8.76233,38.515111]],[[-8.763178,38.506009],[-8.766782,38.507049],[-8.764642,38.508021],[-8.763178,38.506009]],[[-8.738619,38.504819],[-8.73632,38.502015],[-8.740307,38.50017],[-8.738619,38.504819]],[[-8.799704,37.834098],[-8.79687,37.83536],[-8.795883,37.832713],[-8.799704,37.834098]],[[-8.74074,38.450237],[-8.748044,38.460528],[-8.742789,38.462705],[-8.731024,38.45934],[-8.726935,38.461492],[-8.734018,38.457667],[-8.737762,38.457634],[-8.743446,38.461388],[-8.740471,38.452377],[-8.724935,38.460938],[-8.729857,38.450162],[-8.74074,38.450237]],[[-8.72693,38.453125],[-8.725548,38.454353],[-8.725312,38.45256],[-8.72693,38.453125]],[[-8.751486,38.427627],[-8.752844,38.435572],[-8.743964,38.431798],[-8.751486,38.427627]]],[[[-8.590328,37.150122],[-8.600434,37.142481],[-8.597842,37.13188],[-8.608051,37.129525],[-8.623181,37.139302],[-8.634776,37.121855],[-8.619548,37.118154],[-8.643067,37.117642],[-8.665468,37.105089],[-8.667522,37.078779],[-8.725669,37.086698],[-8.789063,37.061942],[-8.822726,37.065261],[-8.854118,37.054091],[-8.865329,37.041136],[-8.894748,37.0428],[-8.90608,37.022866],[-8.927653,37.018549],[-8.930049,37.001235],[-8.940068,37.005277],[-8.950796,36.993462],[-8.948667,36.992167],[-7.8845,36.959167],[-7.869221,36.962633],[-7.867275,36.976223],[-7.850596,36.992274],[-7.827754,37.004232],[-7.807631,37.002607],[-7.793549,37.015464],[-7.80436,37.013749],[-7.80787,37.023551],[-7.803974,37.023838],[-7.80055,37.030032],[-7.795233,37.029032],[-7.790327,37.034342],[-7.796413,37.034852],[-7.806293,37.024048],[-7.814001,37.027952],[-7.82546,37.027392],[-7.862669,37.008057],[-7.883525,37.011246],[-7.870108,37.006432],[-7.875268,36.998747],[-7.88301,37.001467],[-7.878052,36.990599],[-7.869938,36.985329],[-7.885687,36.98136],[-7.910972,37.000188],[-7.934158,36.99902],[-7.940525,37.009618],[-7.982694,37.003473],[-8.020487,37.026989],[-8.012946,37.018432],[-7.967687,36.989187],[-8.082928,37.063167],[-8.110945,37.065641],[-8.180777,37.090335],[-8.23107,37.082081],[-8.253693,37.086242],[-8.28748,37.07178],[-8.366117,37.101533],[-8.396603,37.0896],[-8.44216,37.085126],[-8.526974,37.107579],[-8.517892,37.114932],[-8.531413,37.136679],[-8.519247,37.143549],[-8.528614,37.141913],[-8.534067,37.135645],[-8.526208,37.12339],[-8.529382,37.10779],[-8.532183,37.114832],[-8.557592,37.119337],[-8.566259,37.11386],[-8.591505,37.121746],[-8.61812,37.118325],[-8.61896,37.120728],[-8.615853,37.123974],[-8.597125,37.127019],[-8.590328,37.150122]],[[-8.917153,37.01468],[-8.919506,37.015478],[-8.915404,37.014766],[-8.917153,37.01468]],[[-7.953007,36.987386],[-7.948751,36.990065],[-7.960959,36.990957],[-7.964113,37.000426],[-7.977665,37.002447],[-7.939459,37.005724],[-7.927294,36.988563],[-7.926001,36.997628],[-7.916694,36.998973],[-7.894645,36.981028],[-7.90082,36.979966],[-7.884925,36.973875],[-7.908748,36.969805],[-7.899398,36.966311],[-7.881356,36.967131],[-7.875768,36.970368],[-7.87041,36.963521],[-7.888367,36.961013],[-7.924905,36.969473],[-7.933881,36.983199],[-7.953007,36.987386]],[[-7.906923,36.993943],[-7.901496,36.991827],[-7.902962,36.991689],[-7.906923,36.993943]],[[-7.883034,36.972469],[-7.880349,36.973375],[-7.880764,36.969116],[-7.883034,36.972469]],[[-7.953306,36.979814],[-7.96278,36.98646],[-7.958783,36.98494],[-7.953306,36.979814]],[[-7.868462,36.986066],[-7.878803,36.994056],[-7.86483,37.005571],[-7.85542,36.996631],[-7.868462,36.986066]],[[-7.855007,36.999393],[-7.857842,37.009201],[-7.812004,37.026066],[-7.806442,37.013149],[-7.855007,36.999393]],[[-7.862865,37.006309],[-7.866488,37.007093],[-7.864725,37.007185],[-7.862865,37.006309]],[[-7.811739,37.006976],[-7.81015,37.005864],[-7.814299,37.00469],[-7.811739,37.006976]]]]}}
