{"type":"Feature","properties":{"mrgid":49636,"name":"French part of the Caribbean Sea (Guadeloupe)","placeType":"Marine Region","source":"MarineRegions:eez_iho"},"geometry":{"type":"Polygon","coordinates":[[[-61.007245,16.350341],[-61.305287,16.873623],[-61.541421,16.787236],[-61.657295,16.734439],[-61.831552,16.684873],[-62.052778,16.431111],[-62.405278,16.128056],[-62.649444,15.948333],[-62.813889,15.841944],[-62.813889,15.065],[-61.748056,15.603333],[-61.4425,15.787222],[-61.323611,15.734167],[-61.061111,15.683889],[-60.899444,15.665],[-60.695633,15.722725],[-61.004359,16.345274],[-61.000222,16.334622],[-61.008449,16.328001],[-61.097386,16.290234],[-61.089853,16.312712],[-61.007245,16.350341]],[[-61.397889,16.421773],[-61.405946,16.385015],[-61.375981,16.341546],[-61.341695,16.329265],[-61.297513,16.327778],[-61.259519,16.30384],[-61.238309,16.269999],[-61.171468,16.246233],[-61.17625,16.241108],[-61.191242,16.249517],[-61.254842,16.256465],[-61.294313,16.243042],[-61.338488,16.241804],[-61.465154,16.196272],[-61.506727,16.206229],[-61.510708,16.216055],[-61.530069,16.215793],[-61.534194,16.233904],[-61.55088,16.251883],[-61.54943,16.233953],[-61.541943,16.231752],[-61.546561,16.220768],[-61.553552,16.221598],[-61.559502,16.235068],[-61.580618,16.236782],[-61.590189,16.192368],[-61.580172,16.178212],[-61.584618,16.167302],[-61.577685,16.143579],[-61.560365,16.130083],[-61.570393,16.116133],[-61.558638,16.093771],[-61.555156,16.054745],[-61.564066,16.033593],[-61.611888,15.990892],[-61.618919,15.970596],[-61.649017,15.968966],[-61.680487,15.949765],[-61.70768,15.947357],[-61.711658,15.975277],[-61.746349,16.010307],[-61.749228,16.030016],[-61.770704,16.061846],[-61.770282,16.131377],[-61.780469,16.139832],[-61.776207,16.17202],[-61.784462,16.176188],[-61.787678,16.194711],[-61.782379,16.213951],[-61.801861,16.243055],[-61.809984,16.272524],[-61.803106,16.278018],[-61.801772,16.302905],[-61.794324,16.306151],[-61.80137,16.314548],[-61.788622,16.322541],[-61.789463,16.333004],[-61.775835,16.35027],[-61.750613,16.354041],[-61.74385,16.36184],[-61.684679,16.32513],[-61.679926,16.330062],[-61.664505,16.31817],[-61.650277,16.321291],[-61.640924,16.315984],[-61.643383,16.30931],[-61.624338,16.301257],[-61.601861,16.303555],[-61.612242,16.285276],[-61.620511,16.283237],[-61.620141,16.292078],[-61.626262,16.278778],[-61.611191,16.278999],[-61.611759,16.267349],[-61.596826,16.281784],[-61.599817,16.268394],[-61.590386,16.26663],[-61.579803,16.284232],[-61.561278,16.283633],[-61.545325,16.292902],[-61.546935,16.302318],[-61.534225,16.315794],[-61.53535,16.33189],[-61.523438,16.345982],[-61.508183,16.342028],[-61.510166,16.349973],[-61.49388,16.353934],[-61.499922,16.355047],[-61.499122,16.382409],[-61.528688,16.400856],[-61.541957,16.438182],[-61.53185,16.459658],[-61.464312,16.51465],[-61.462824,16.500366],[-61.443489,16.499858],[-61.44198,16.48923],[-61.411794,16.469692],[-61.397889,16.421773]],[[-61.53855,16.212674],[-61.54458,16.216666],[-61.543281,16.219335],[-61.53855,16.212674]],[[-61.113732,16.177814],[-61.103608,16.181116],[-61.105415,16.176027],[-61.113732,16.177814]],[[-61.107033,16.169654],[-61.130618,16.171202],[-61.128647,16.173197],[-61.107033,16.169654]],[[-61.231996,15.984885],[-61.229374,15.971374],[-61.200012,15.945173],[-61.194857,15.929638],[-61.204468,15.900768],[-61.242489,15.874208],[-61.27928,15.866383],[-61.323438,15.887573],[-61.33718,15.941621],[-61.319943,15.952816],[-61.318315,15.976136],[-61.307613,15.978995],[-61.290419,16.003863],[-61.231996,15.984885]],[[-61.566193,15.871813],[-61.577037,15.865749],[-61.577921,15.855461],[-61.606858,15.856719],[-61.598902,15.865061],[-61.584728,15.864274],[-61.581326,15.881306],[-61.578677,15.872964],[-61.569885,15.882923],[-61.566193,15.871813]],[[-61.633554,15.839648],[-61.65046,15.847304],[-61.635932,15.870856],[-61.616421,15.858207],[-61.633554,15.839648]],[[-61.591133,15.842954],[-61.583712,15.835291],[-61.585559,15.8317],[-61.598609,15.836116],[-61.591133,15.842954]],[[-61.608616,15.833891],[-61.611126,15.839636],[-61.60834,15.835963],[-61.608616,15.833891]],[[-61.591356,15.878483],[-61.593676,15.871223],[-61.60163,15.876011],[-61.599751,15.879248],[-61.591356,15.878483]],[[-61.787375,16.168308],[-61.788363,16.16579],[-61.792168,16.167385],[-61.787375,16.168308]],[[-61.589817,16.35431],[-61.579451,16.350425],[-61.5962,16.341544],[-61.589817,16.35431]],[[-61.524689,16.347953],[-61.530648,16.350311],[-61.526631,16.350469],[-61.524689,16.347953]],[[-61.675352,16.342483],[-61.677981,16.343623],[-61.67687,16.34573],[-61.675352,16.342483]],[[-61.684286,16.345868],[-61.685127,16.348755],[-61.680782,16.346694],[-61.684286,16.345868]],[[-61.650843,16.337612],[-61.649513,16.336338],[-61.65154,16.335757],[-61.650843,16.337612]],[[-61.776847,16.368189],[-61.778195,16.363296],[-61.782273,16.370787],[-61.776847,16.368189]]]}}
