{"type":"Feature","properties":{"mrgid":50203,"name":"Bosnian and Herzegovinian Coast","placeType":"Coast","source":"MarineRegions:world_countries_coasts"},"geometry":{"type":"MultiLineString","coordinates":[[[17.64799,42.888716],[17.634706,42.900571],[17.551345,42.933483],[17.624196,42.914105],[17.580444,42.938362]],[[17.684394,43.052715],[17.695965,43.053611],[17.708673,43.066406],[17.699011,43.074094],[17.701597,43.084733],[17.697875,43.073835],[17.707725,43.066989],[17.683801,43.053706]]]}}
