{"type":"Feature","properties":{"mrgid":50488,"name":"UK Quad 73","placeType":"Mineral Rights Areas","source":"MarineRegions:mra_uk_blocks"},"geometry":{"type":"MultiPolygon","coordinates":[[[[-8.8,49.0],[-9.0,49.0],[-9.0,48.833333],[-8.8,48.833333],[-8.8,49.0]]],[[[-8.0,48.833333],[-8.2,48.833333],[-8.2,48.666667],[-8.0,48.666667],[-8.0,48.833333]]],[[[-8.8,48.666667],[-9.0,48.666667],[-9.0,48.5],[-8.8,48.5],[-8.8,48.666667]]],[[[-8.6,48.666667],[-8.8,48.666667],[-8.8,48.5],[-8.6,48.5],[-8.6,48.666667]]],[[[-8.4,48.666667],[-8.6,48.666667],[-8.6,48.5],[-8.4,48.5],[-8.4,48.666667]]],[[[-8.2,48.666667],[-8.4,48.666667],[-8.4,48.5],[-8.254931,48.5],[-8.2,48.515795],[-8.2,48.666667]]],[[[-8.2,48.666667],[-8.2,48.515795],[-8.0,48.573],[-8.0,48.666667],[-8.2,48.666667]]],[[[-8.8,48.5],[-9.0,48.5],[-9.0,48.333333],[-8.827082,48.333333],[-8.8,48.341311],[-8.8,48.5]]],[[[-8.8,48.5],[-8.8,48.341311],[-8.6,48.399953],[-8.6,48.5],[-8.8,48.5]]],[[[-8.6,48.5],[-8.6,48.399953],[-8.4,48.458113],[-8.4,48.5],[-8.6,48.5]]],[[[-8.254931,48.5],[-8.4,48.5],[-8.4,48.458113],[-8.254931,48.5]]],[[[-8.6,49.0],[-8.8,49.0],[-8.8,48.833333],[-8.6,48.833333],[-8.6,49.0]]],[[[-8.827082,48.333333],[-9.0,48.333333],[-9.0,48.282187],[-8.827082,48.333333]]],[[[-8.4,49.0],[-8.6,49.0],[-8.6,48.833333],[-8.4,48.833333],[-8.4,49.0]]],[[[-8.2,49.0],[-8.4,49.0],[-8.4,48.833333],[-8.2,48.833333],[-8.2,49.0]]],[[[-8.0,49.0],[-8.2,49.0],[-8.2,48.833333],[-8.0,48.833333],[-8.0,49.0]]],[[[-8.8,48.833333],[-9.0,48.833333],[-9.0,48.666667],[-8.8,48.666667],[-8.8,48.833333]]],[[[-8.6,48.833333],[-8.8,48.833333],[-8.8,48.666667],[-8.6,48.666667],[-8.6,48.833333]]],[[[-8.4,48.833333],[-8.6,48.833333],[-8.6,48.666667],[-8.4,48.666667],[-8.4,48.833333]]],[[[-8.2,48.833333],[-8.4,48.833333],[-8.4,48.666667],[-8.2,48.666667],[-8.2,48.833333]]]]}}
