{"type":"Feature","properties":{"mrgid":50509,"name":"UK Quad 102","placeType":"Mineral Rights Areas","source":"MarineRegions:mra_uk_blocks"},"geometry":{"type":"MultiPolygon","coordinates":[[[[-6.001614,51.833333],[-6.1,51.833333],[-6.1,51.666667],[-6.001607,51.666667],[-6.001614,51.833333]]],[[[-6.2,51.666667],[-6.3,51.666667],[-6.3,51.5],[-6.2,51.5],[-6.2,51.666667]]],[[[-6.2,51.666667],[-6.2,51.5],[-6.001599,51.5],[-6.001607,51.666667],[-6.2,51.666667]]],[[[-6.4,51.5],[-6.55,51.5],[-6.55,51.333333],[-6.4,51.333333],[-6.4,51.5]]],[[[-6.4,51.5],[-6.4,51.333333],[-6.2,51.333333],[-6.2,51.5],[-6.4,51.5]]],[[[-6.001521,51.5],[-6.2,51.5],[-6.2,51.333333],[-6.001516,51.333333],[-6.001521,51.5]]],[[[-6.6,51.333333],[-6.7,51.333333],[-6.7,51.166667],[-6.6,51.166667],[-6.6,51.333333]]],[[[-6.6,51.333333],[-6.6,51.166667],[-6.4,51.166667],[-6.4,51.333333],[-6.6,51.333333]]],[[[-6.2,51.333333],[-6.4,51.333333],[-6.4,51.166667],[-6.2,51.166667],[-6.2,51.333333]]],[[[-6.001516,51.333333],[-6.2,51.333333],[-6.2,51.166667],[-6.001511,51.166667],[-6.001516,51.333333]]],[[[-6.8,51.166667],[-6.8,51.0],[-6.6,51.0],[-6.6,51.166667],[-6.8,51.166667]]],[[[-6.4,51.166667],[-6.6,51.166667],[-6.6,51.0],[-6.4,51.0],[-6.4,51.166667]]],[[[-6.2,51.166667],[-6.4,51.166667],[-6.4,51.0],[-6.2,51.0],[-6.2,51.166667]]],[[[-6.001511,51.166667],[-6.2,51.166667],[-6.2,51.0],[-6.001506,51.0],[-6.001511,51.166667]]]]}}
