{"type":"Feature","properties":{"mrgid":50551,"name":"UK Quad 158","placeType":"Mineral Rights Areas","source":"MarineRegions:mra_uk_blocks"},"geometry":{"type":"MultiPolygon","coordinates":[[[[-13.8,60.0],[-14.0,60.0],[-14.0,59.833333],[-13.8,59.833333],[-13.8,60.0]]],[[[-13.0,59.833333],[-13.2,59.833333],[-13.2,59.666667],[-13.0,59.666667],[-13.0,59.833333]]],[[[-13.8,59.666667],[-14.0,59.666667],[-14.0,59.5],[-13.8,59.5],[-13.8,59.666667]]],[[[-13.6,59.666667],[-13.8,59.666667],[-13.8,59.5],[-13.6,59.5],[-13.6,59.666667]]],[[[-13.4,59.666667],[-13.6,59.666667],[-13.6,59.5],[-13.4,59.5],[-13.4,59.666667]]],[[[-13.2,59.666667],[-13.4,59.666667],[-13.4,59.5],[-13.2,59.5],[-13.2,59.666667]]],[[[-13.0,59.666667],[-13.2,59.666667],[-13.2,59.5],[-13.0,59.5],[-13.0,59.666667]]],[[[-13.8,59.5],[-14.0,59.5],[-14.0,59.333333],[-13.8,59.333333],[-13.8,59.5]]],[[[-13.6,59.5],[-13.8,59.5],[-13.8,59.333333],[-13.6,59.333333],[-13.6,59.5]]],[[[-13.4,59.5],[-13.6,59.5],[-13.6,59.333333],[-13.4,59.333333],[-13.4,59.5]]],[[[-13.2,59.5],[-13.4,59.5],[-13.4,59.333333],[-13.2,59.333333],[-13.2,59.5]]],[[[-13.6,60.0],[-13.8,60.0],[-13.8,59.833333],[-13.6,59.833333],[-13.6,60.0]]],[[[-13.0,59.5],[-13.2,59.5],[-13.2,59.333333],[-13.0,59.333333],[-13.0,59.5]]],[[[-13.8,59.333333],[-14.0,59.333333],[-14.0,59.166667],[-13.8,59.166667],[-13.8,59.333333]]],[[[-13.6,59.333333],[-13.8,59.333333],[-13.8,59.166667],[-13.6,59.166667],[-13.6,59.333333]]],[[[-13.4,59.333333],[-13.6,59.333333],[-13.6,59.166667],[-13.4,59.166667],[-13.4,59.333333]]],[[[-13.2,59.333333],[-13.4,59.333333],[-13.4,59.166667],[-13.2,59.166667],[-13.2,59.333333]]],[[[-13.0,59.333333],[-13.2,59.333333],[-13.2,59.166667],[-13.0,59.166667],[-13.0,59.333333]]],[[[-13.8,59.166667],[-14.0,59.166667],[-14.0,59.0],[-13.8,59.0],[-13.8,59.166667]]],[[[-13.6,59.166667],[-13.8,59.166667],[-13.8,59.0],[-13.6,59.0],[-13.6,59.166667]]],[[[-13.4,59.166667],[-13.6,59.166667],[-13.6,59.0],[-13.4,59.0],[-13.4,59.166667]]],[[[-13.2,59.166667],[-13.4,59.166667],[-13.4,59.0],[-13.2,59.0],[-13.2,59.166667]]],[[[-13.4,60.0],[-13.6,60.0],[-13.6,59.833333],[-13.4,59.833333],[-13.4,60.0]]],[[[-13.0,59.166667],[-13.2,59.166667],[-13.2,59.0],[-13.0,59.0],[-13.0,59.166667]]],[[[-13.2,60.0],[-13.4,60.0],[-13.4,59.833333],[-13.2,59.833333],[-13.2,60.0]]],[[[-13.0,60.0],[-13.2,60.0],[-13.2,59.833333],[-13.0,59.833333],[-13.0,60.0]]],[[[-13.8,59.833333],[-14.0,59.833333],[-14.0,59.666667],[-13.8,59.666667],[-13.8,59.833333]]],[[[-13.6,59.833333],[-13.8,59.833333],[-13.8,59.666667],[-13.6,59.666667],[-13.6,59.833333]]],[[[-13.4,59.833333],[-13.6,59.833333],[-13.6,59.666667],[-13.4,59.666667],[-13.4,59.833333]]],[[[-13.2,59.833333],[-13.4,59.833333],[-13.4,59.666667],[-13.2,59.666667],[-13.2,59.833333]]]]}}
