{"type":"Feature","properties":{"mrgid":50577,"name":"UK Quad 209","placeType":"Mineral Rights Areas","source":"MarineRegions:mra_uk_blocks"},"geometry":{"type":"MultiPolygon","coordinates":[[[[-0.801857,61.999499],[-1.001863,61.999496],[-1.001853,61.832823],[-0.801847,61.832826],[-0.801857,61.999499]]],[[[-0.001824,61.832836],[-0.20183,61.832834],[-0.20182,61.66616],[-0.001814,61.666163],[-0.001824,61.832836]]],[[[-0.801838,61.666152],[-1.001843,61.66615],[-1.001834,61.499477],[-0.801828,61.499479],[-0.801838,61.666152]]],[[[-0.601832,61.666155],[-0.801838,61.666152],[-0.801828,61.499479],[-0.601822,61.499482],[-0.601832,61.666155]]],[[[-0.401826,61.666158],[-0.601832,61.666155],[-0.601822,61.499482],[-0.401816,61.499484],[-0.401826,61.666158]]],[[[-0.20182,61.66616],[-0.401826,61.666158],[-0.401816,61.499484],[-0.20181,61.499487],[-0.20182,61.66616]]],[[[-0.001814,61.666163],[-0.20182,61.66616],[-0.20181,61.499487],[-0.001805,61.49949],[-0.001814,61.666163]]],[[[-0.801828,61.499479],[-1.001834,61.499477],[-1.001824,61.332803],[-0.801818,61.332806],[-0.801828,61.499479]]],[[[-0.601822,61.499482],[-0.801828,61.499479],[-0.801818,61.332806],[-0.601813,61.332809],[-0.601822,61.499482]]],[[[-0.401816,61.499484],[-0.601822,61.499482],[-0.601813,61.332809],[-0.401807,61.332811],[-0.401816,61.499484]]],[[[-0.20181,61.499487],[-0.401816,61.499484],[-0.401807,61.332811],[-0.201801,61.332814],[-0.20181,61.499487]]],[[[-0.601851,61.999502],[-0.801857,61.999499],[-0.801847,61.832826],[-0.601841,61.832828],[-0.601851,61.999502]]],[[[-0.001805,61.49949],[-0.20181,61.499487],[-0.201801,61.332814],[-0.001795,61.332816],[-0.001805,61.49949]]],[[[-0.801818,61.332806],[-1.001824,61.332803],[-1.001815,61.16613],[-0.801809,61.166133],[-0.801818,61.332806]]],[[[-0.601813,61.332809],[-0.801818,61.332806],[-0.801809,61.166133],[-0.601803,61.166136],[-0.601813,61.332809]]],[[[-0.401807,61.332811],[-0.601813,61.332809],[-0.601803,61.166136],[-0.401798,61.166138],[-0.401807,61.332811]]],[[[-0.201801,61.332814],[-0.401807,61.332811],[-0.401798,61.166138],[-0.201792,61.166141],[-0.201801,61.332814]]],[[[-0.001795,61.332816],[-0.201801,61.332814],[-0.201792,61.166141],[-0.001786,61.166143],[-0.001795,61.332816]]],[[[-0.801809,61.166133],[-1.001815,61.16613],[-1.001805,60.999457],[-0.8018,60.99946],[-0.801809,61.166133]]],[[[-0.601803,61.166136],[-0.801809,61.166133],[-0.8018,60.99946],[-0.601794,60.999462],[-0.601803,61.166136]]],[[[-0.401798,61.166138],[-0.601803,61.166136],[-0.601794,60.999462],[-0.401788,60.999465],[-0.401798,61.166138]]],[[[-0.201792,61.166141],[-0.401798,61.166138],[-0.401788,60.999465],[-0.201783,60.999468],[-0.201792,61.166141]]],[[[-0.401845,61.999504],[-0.601851,61.999502],[-0.601841,61.832828],[-0.401836,61.832831],[-0.401845,61.999504]]],[[[-0.001786,61.166143],[-0.201792,61.166141],[-0.201783,60.999468],[-0.001777,60.99947],[-0.001786,61.166143]]],[[[-0.201839,61.999507],[-0.401845,61.999504],[-0.401836,61.832831],[-0.20183,61.832834],[-0.201839,61.999507]]],[[[-0.001833,61.999509],[-0.201839,61.999507],[-0.20183,61.832834],[-0.001824,61.832836],[-0.001833,61.999509]]],[[[-0.801847,61.832826],[-1.001853,61.832823],[-1.001843,61.66615],[-0.801838,61.666152],[-0.801847,61.832826]]],[[[-0.601841,61.832828],[-0.801847,61.832826],[-0.801838,61.666152],[-0.601832,61.666155],[-0.601841,61.832828]]],[[[-0.401836,61.832831],[-0.601841,61.832828],[-0.601832,61.666155],[-0.401826,61.666158],[-0.401836,61.832831]]],[[[-0.20183,61.832834],[-0.401836,61.832831],[-0.401826,61.666158],[-0.20182,61.66616],[-0.20183,61.832834]]]]}}
