{"type":"Feature","properties":{"mrgid":50593,"name":"UK Quad 338","placeType":"Mineral Rights Areas","source":"MarineRegions:mra_uk_blocks"},"geometry":{"type":"MultiPolygon","coordinates":[[[[-16.8,57.0],[-17.0,57.0],[-17.0,56.933333],[-16.8,56.933333],[-16.8,57.0]]],[[[-16.6,57.0],[-16.8,57.0],[-16.8,56.933333],[-16.6,56.933333],[-16.6,57.0]]],[[[-16.4,57.0],[-16.6,57.0],[-16.6,56.933333],[-16.4,56.933333],[-16.4,57.0]]],[[[-16.2,57.0],[-16.4,57.0],[-16.4,56.933333],[-16.2,56.933333],[-16.2,57.0]]],[[[-16.0,57.0],[-16.2,57.0],[-16.2,56.933333],[-16.0,56.933333],[-16.0,57.0]]]]}}
