{"type":"Feature","properties":{"mrgid":50605,"name":"UK Quad 351","placeType":"Mineral Rights Areas","source":"MarineRegions:mra_uk_blocks"},"geometry":{"type":"MultiPolygon","coordinates":[[[[-23.0,58.5],[-23.0,58.51662],[-23.030316,58.5],[-23.0,58.5]]],[[[-23.2,58.333333],[-23.2,58.406549],[-23.331595,58.333333],[-23.2,58.333333]]],[[[-23.030316,58.5],[-23.2,58.406549],[-23.2,58.333333],[-23.0,58.333333],[-23.0,58.5],[-23.030316,58.5]]],[[[-23.4,58.291614],[-23.4947,58.224685],[-23.56406,58.166667],[-23.4,58.166667],[-23.4,58.291614]]],[[[-23.2,58.333333],[-23.331595,58.333333],[-23.4,58.291614],[-23.4,58.166667],[-23.2,58.166667],[-23.2,58.333333]]],[[[-23.0,58.333333],[-23.2,58.333333],[-23.2,58.166667],[-23.0,58.166667],[-23.0,58.333333]]],[[[-23.6,58.132542],[-23.674232,58.049581],[-23.702737,58.034184],[-23.698087,58.017713],[-23.745658,58.0],[-23.6,58.0],[-23.6,58.132542]]],[[[-23.4,58.166667],[-23.56406,58.166667],[-23.6,58.132542],[-23.6,58.0],[-23.4,58.0],[-23.4,58.166667]]],[[[-23.2,58.166667],[-23.4,58.166667],[-23.4,58.0],[-23.2,58.0],[-23.2,58.166667]]],[[[-23.0,58.166667],[-23.2,58.166667],[-23.2,58.0],[-23.0,58.0],[-23.0,58.166667]]]]}}
