{"type":"Feature","properties":{"mrgid":50625,"name":"UK Quad 378","placeType":"Mineral Rights Areas","source":"MarineRegions:mra_uk_blocks"},"geometry":{"type":"MultiPolygon","coordinates":[[[[-16.8,60.062364],[-17.0,60.05737],[-17.0,60.0],[-16.8,60.0],[-16.8,60.062364]]],[[[-16.6,60.067359],[-16.8,60.062364],[-16.8,60.0],[-16.6,60.0],[-16.6,60.067359]]],[[[-16.4,60.072353],[-16.6,60.067359],[-16.6,60.0],[-16.4,60.0],[-16.4,60.072353]]],[[[-16.2,60.077348],[-16.4,60.072353],[-16.4,60.0],[-16.2,60.0],[-16.2,60.077348]]],[[[-16.0,60.082342],[-16.2,60.077348],[-16.2,60.0],[-16.0,60.0],[-16.0,60.082342]]]]}}
