{"type":"Feature","properties":{"mrgid":5220,"name":"Phlegrean islands","placeType":"Archipelago","source":"Europe:europeislands"},"geometry":{"type":"MultiPolygon","coordinates":[[[[13.8486,40.7107],[13.8905,40.6904],[13.8965,40.6993],[13.9206,40.6957],[13.9353,40.705],[13.951,40.6996],[13.9636,40.7163],[13.9577,40.7297],[13.965,40.7309],[13.9532,40.7425],[13.8656,40.7597],[13.8589,40.7556],[13.8627,40.7438],[13.8509,40.7328],[13.8572,40.715],[13.8486,40.7107]]],[[[13.9952,40.739],[13.9939,40.7458],[14.0048,40.7474],[14.0157,40.7383],[14.0124,40.7481],[14.0231,40.749],[14.0212,40.7575],[14.036,40.7636],[14.008,40.7684],[14.0019,40.7492],[13.9911,40.7476],[13.9952,40.739]]]]}}
