{"type":"Feature","properties":{"mrgid":52220,"name":"UK Block 201/15","placeType":"Mineral Rights Areas","source":"MarineRegions:mra_uk_blocks"},"geometry":{"type":"Polygon","coordinates":[[[-4.001763,58.665996],[-4.201768,58.665994],[-4.201763,58.553571],[-4.17928,58.544518],[-4.162372,58.550223],[-4.154198,58.567133],[-4.133448,58.562561],[-4.118488,58.570211],[-4.094752,58.560944],[-4.064652,58.566448],[-4.046493,58.59161],[-4.022087,58.602022],[-4.001759,58.572002],[-4.001763,58.665996]]]}}
