{"type":"Feature","properties":{"mrgid":5342,"name":"Bear Island","placeType":"Island","source":"Europe:europeislands"},"geometry":{"type":"Polygon","coordinates":[[[18.827473,74.499582],[18.782309,74.492082],[18.758555,74.479145],[18.766191,74.473273],[18.748664,74.472473],[18.772336,74.470391],[18.766255,74.460809],[18.788782,74.459164],[18.783555,74.450864],[18.818755,74.437473],[18.811191,74.429136],[18.864864,74.414582],[18.873636,74.409145],[18.869918,74.405391],[18.901309,74.401664],[18.905,74.394555],[18.931082,74.394145],[18.923664,74.390809],[18.942364,74.380382],[18.967527,74.382055],[18.971164,74.374973],[19.016191,74.361636],[19.019891,74.350418],[19.043782,74.348336],[19.038582,74.342473],[19.052418,74.337891],[19.102418,74.341227],[19.093664,74.347527],[19.114891,74.355391],[19.156191,74.3558],[19.143836,74.362473],[19.157473,74.370391],[19.178718,74.3675],[19.183664,74.374136],[19.171191,74.3725],[19.166109,74.379973],[19.188582,74.394164],[19.173636,74.399173],[19.238636,74.419973],[19.256309,74.434973],[19.253636,74.441664],[19.263782,74.444136],[19.266164,74.453309],[19.256164,74.4575],[19.271191,74.460027],[19.267445,74.467055],[19.164864,74.490418],[19.149864,74.507891],[19.072445,74.515445],[18.827473,74.499582]]]}}
