{"type":"Feature","properties":{"mrgid":54777,"name":"Norway Quad 28","placeType":"Mineral Rights Areas","source":"MarineRegions:mra_nor_blocks"},"geometry":{"type":"MultiPolygon","coordinates":[[[[4.998398,59.749476],[5.05185,59.749477],[4.998389,59.946553],[4.998398,59.749476]]],[[[4.998409,59.529279],[5.072711,59.643006],[5.05185,59.749477],[4.998398,59.749476],[4.998409,59.529279]]],[[[4.998433,58.999448],[5.331776,58.999452],[5.331775,59.031103],[5.174901,59.141491],[4.998424,59.21152],[4.998433,58.999448]]],[[[5.331776,58.999452],[5.368177,58.999452],[5.331775,59.031103],[5.331776,58.999452]]]]}}
