{"type":"Feature","properties":{"mrgid":54808,"name":"Norway Quad 6402","placeType":"Mineral Rights Areas","source":"MarineRegions:mra_nor_blocks"},"geometry":{"type":"MultiPolygon","coordinates":[[[[1.998007,64.749636],[2.331351,64.749641],[2.331333,64.999651],[1.997988,64.999647],[1.998007,64.749636]]],[[[2.331351,64.749641],[2.664696,64.749645],[2.664677,64.999656],[2.331333,64.999651],[2.331351,64.749641]]],[[[2.664696,64.749645],[2.99804,64.74965],[2.998022,64.99966],[2.664677,64.999656],[2.664696,64.749645]]],[[[1.998025,64.499626],[2.331369,64.499631],[2.331351,64.749641],[1.998007,64.749636],[1.998025,64.499626]]],[[[2.331369,64.499631],[2.664714,64.499635],[2.664696,64.749645],[2.331351,64.749641],[2.331369,64.499631]]],[[[2.664714,64.499635],[2.998058,64.499639],[2.99804,64.74965],[2.664696,64.749645],[2.664714,64.499635]]],[[[1.998043,64.249616],[2.331387,64.24962],[2.331369,64.499631],[1.998025,64.499626],[1.998043,64.249616]]],[[[2.331387,64.24962],[2.664732,64.249625],[2.664714,64.499635],[2.331369,64.499631],[2.331387,64.24962]]],[[[2.664732,64.249625],[2.998076,64.249629],[2.998058,64.499639],[2.664714,64.499635],[2.664732,64.249625]]],[[[1.998061,63.999606],[2.331405,63.99961],[2.331387,64.24962],[1.998043,64.249616],[1.998061,63.999606]]],[[[2.331405,63.99961],[2.664749,63.999614],[2.664732,64.249625],[2.331387,64.24962],[2.331405,63.99961]]],[[[2.664749,63.999614],[2.998093,63.999619],[2.998076,64.249629],[2.664732,64.249625],[2.664749,63.999614]]]]}}
