{"type":"Feature","properties":{"mrgid":54805,"name":"Norway Quad 6308","placeType":"Mineral Rights Areas","source":"MarineRegions:mra_nor_blocks"},"geometry":{"type":"MultiPolygon","coordinates":[[[[7.99828,63.749671],[8.177766,63.749673],[8.331619,63.840348],[8.331609,63.999686],[7.998264,63.999682],[7.99828,63.749671]]],[[[8.331619,63.840348],[8.452989,63.911364],[8.664955,63.992556],[8.664955,63.999689],[8.331609,63.999686],[8.331619,63.840348]]],[[[7.998286,63.642922],[8.081619,63.692609],[8.177766,63.749673],[7.99828,63.749671],[7.998286,63.642922]]],[[[8.664955,63.992556],[8.683844,63.99969],[8.664955,63.999689],[8.664955,63.992556]]]]}}
