{"type":"Feature","properties":{"mrgid":54867,"name":"Norway Quad 7118","placeType":"Mineral Rights Areas","source":"MarineRegions:mra_nor_blocks"},"geometry":{"type":"MultiPolygon","coordinates":[[[[17.998103,71.750134],[18.331456,71.750137],[18.33143,72.000149],[17.998078,72.000146],[17.998103,71.750134]]],[[[18.331456,71.750137],[18.664808,71.750141],[18.664783,72.000152],[18.33143,72.000149],[18.331456,71.750137]]],[[[18.664808,71.750141],[18.99816,71.750144],[18.998135,72.000155],[18.664783,72.000152],[18.664808,71.750141]]],[[[17.998128,71.500122],[18.33148,71.500126],[18.331456,71.750137],[17.998103,71.750134],[17.998128,71.500122]]],[[[18.33148,71.500126],[18.664832,71.500129],[18.664808,71.750141],[18.331456,71.750137],[18.33148,71.500126]]],[[[18.664832,71.500129],[18.998184,71.500132],[18.99816,71.750144],[18.664808,71.750141],[18.664832,71.500129]]],[[[17.998152,71.250111],[18.331504,71.250114],[18.33148,71.500126],[17.998128,71.500122],[17.998152,71.250111]]],[[[18.331504,71.250114],[18.664856,71.250117],[18.664832,71.500129],[18.33148,71.500126],[18.331504,71.250114]]],[[[18.664856,71.250117],[18.998207,71.25012],[18.998184,71.500132],[18.664832,71.500129],[18.664856,71.250117]]],[[[17.998176,71.000099],[18.331527,71.000102],[18.331504,71.250114],[17.998152,71.250111],[17.998176,71.000099]]],[[[18.331527,71.000102],[18.664879,71.000106],[18.664856,71.250117],[18.331504,71.250114],[18.331527,71.000102]]],[[[18.664879,71.000106],[18.99823,71.000109],[18.998207,71.25012],[18.664856,71.250117],[18.664879,71.000106]]]]}}
