{"type":"Feature","properties":{"mrgid":54945,"name":"Norway Quad 7432","placeType":"Mineral Rights Areas","source":"MarineRegions:mra_nor_blocks"},"geometry":{"type":"MultiPolygon","coordinates":[[[[31.998779,74.250361],[32.332137,74.250363],[32.332118,74.500375],[31.99876,74.500373],[31.998779,74.250361]]],[[[32.332137,74.250363],[32.665494,74.250364],[32.665476,74.500376],[32.332118,74.500375],[32.332137,74.250363]]],[[[32.665494,74.250364],[32.998852,74.250366],[32.998834,74.500378],[32.665476,74.500376],[32.665494,74.250364]]],[[[31.998798,74.000349],[32.332155,74.000351],[32.332137,74.250363],[31.998779,74.250361],[31.998798,74.000349]]],[[[32.332155,74.000351],[32.665512,74.000352],[32.665494,74.250364],[32.332137,74.250363],[32.332155,74.000351]]],[[[32.665512,74.000352],[32.998869,74.000354],[32.998852,74.250366],[32.665494,74.250364],[32.665512,74.000352]]]]}}
