{"type":"Feature","properties":{"mrgid":564,"name":"Cressing and Stisted","placeType":"Ward","source":"SAIL:sailcommunes"},"geometry":{"type":"Polygon","coordinates":[[[0.566895,51.861262],[0.579843,51.843918],[0.602596,51.84325],[0.610159,51.831105],[0.624557,51.833732],[0.621428,51.844014],[0.60348,51.852539],[0.615292,51.858321],[0.607703,51.876778],[0.621769,51.879546],[0.625382,51.893004],[0.643019,51.906692],[0.639389,51.913807],[0.601204,51.921483],[0.590352,51.905386],[0.58398,51.871098],[0.566895,51.861262]]]}}
