{"type":"Feature","properties":{"mrgid":568,"name":"Stour Valley North","placeType":"Ward","source":"SAIL:sailcommunes"},"geometry":{"type":"Polygon","coordinates":[[[0.576764,52.038745],[0.601065,52.033908],[0.59972,52.028263],[0.616809,52.031694],[0.61503,52.021441],[0.655996,52.025423],[0.678765,51.997906],[0.711987,52.028285],[0.706537,52.029468],[0.712516,52.034812],[0.696449,52.039427],[0.699416,52.048377],[0.716074,52.051109],[0.703187,52.065215],[0.712766,52.070937],[0.70209,52.079437],[0.684374,52.086864],[0.636311,52.086576],[0.619522,52.076534],[0.607694,52.080855],[0.584967,52.074082],[0.586758,52.060633],[0.563794,52.061329],[0.564557,52.048587],[0.549761,52.043941],[0.545063,52.033862],[0.570845,52.024639],[0.576764,52.038745]]]}}
