{"type":"Feature","properties":{"mrgid":56980,"name":"Djibouti Drift ES1","placeType":"Drift","source":"World:drifts"},"geometry":{"type":"Polygon","coordinates":[[[-4.03107,36.362206],[-4.044255,36.33811],[-4.043345,36.316287],[-4.012884,36.262185],[-3.974694,36.237179],[-3.939687,36.232178],[-3.903771,36.241271],[-3.888313,36.254456],[-3.871946,36.254001],[-3.87331,36.205355],[-3.857852,36.181713],[-3.835802,36.166255],[-3.827164,36.213083],[-3.80034,36.238998],[-3.782154,36.238998],[-3.745783,36.216721],[-3.72396,36.222631],[-3.692135,36.264003],[-3.728506,36.281734],[-3.700319,36.322652],[-3.665311,36.296283],[-3.657924,36.281166],[-3.667016,36.271164],[-3.659287,36.245249],[-3.66838,36.212515],[-3.642011,36.192511],[-3.639738,36.170234],[-3.660197,36.14341],[-3.66247,36.107039],[-3.605185,36.119314],[-3.570632,36.145228],[-3.536989,36.14932],[-3.47925,36.133862],[-3.455154,36.102037],[-3.417419,36.093399],[-3.416055,36.070213],[-3.357861,36.090671],[-3.202146,36.10397],[-3.204419,36.124429],[-3.184415,36.138068],[-3.128949,36.119427],[-3.108035,36.120337],[-3.088486,36.137158],[-3.060298,36.127611],[-3.035748,36.132157],[-3.05757,36.169893],[-3.050296,36.190351],[-2.984373,36.214902],[-2.952094,36.218539],[-2.951639,36.228996],[-3.015289,36.233997],[-3.048932,36.25582],[-3.045295,36.266731],[-2.98801,36.308558],[-2.882306,36.357887],[-2.87185,36.370617],[-2.743641,36.40426],[-2.722273,36.439267],[-2.698177,36.457453],[-2.707724,36.551109],[-2.718636,36.565203],[-2.741822,36.573386],[-2.789219,36.577933],[-2.830591,36.56202],[-2.923338,36.573841],[-2.968802,36.555655],[-3.032451,36.554746],[-3.060639,36.523376],[-3.072914,36.446087],[-3.092464,36.40426],[-3.117242,36.38812],[-3.213626,36.377209],[-3.249542,36.364024],[-3.261363,36.329472],[-3.249088,36.310831],[-3.254998,36.28037],[-3.262272,36.269004],[-3.294552,36.253092],[-3.340925,36.25582],[-3.471634,36.288554],[-3.5013,36.304466],[-3.519031,36.303102],[-3.527669,36.335382],[-3.556766,36.303557],[-3.574497,36.305376],[-3.586318,36.311741],[-3.580862,36.332199],[-3.566768,36.339019],[-3.541763,36.330835],[-3.534943,36.337655],[-3.562222,36.351749],[-3.633146,36.359478],[-3.716913,36.359023],[-3.7401,36.336746],[-3.77147,36.283553],[-3.845122,36.352658],[-3.852396,36.394485],[-3.867399,36.417217],[-3.917864,36.430402],[-3.936959,36.423128],[-3.935141,36.402214],[-3.919228,36.385847],[-3.925593,36.371298],[-3.916046,36.3372],[-3.921047,36.300829],[-3.947871,36.29992],[-3.99879,36.318106],[-4.020159,36.335836],[-4.03107,36.362206]],[[-2.799448,36.5527],[-2.807632,36.525422],[-2.788537,36.505418],[-2.786718,36.486323],[-2.80945,36.471774],[-2.853096,36.467228],[-2.864007,36.45177],[-2.878556,36.45177],[-2.89765,36.466318],[-2.91038,36.512692],[-2.894923,36.521785],[-2.837638,36.529059],[-2.799448,36.5527]],[[-2.791265,36.457226],[-2.778535,36.435403],[-2.78399,36.425401],[-2.810359,36.435403],[-2.80945,36.445405],[-2.791265,36.457226]],[[-2.787627,36.474502],[-2.762168,36.471774],[-2.75944,36.442677],[-2.773079,36.445405],[-2.787627,36.474502]],[[-2.963119,36.36266],[-2.956754,36.353567],[-2.971302,36.343565],[-3.017676,36.3372],[-3.004946,36.359932],[-2.963119,36.36266]],[[-3.104967,36.344475],[-3.106785,36.327198],[-3.16407,36.315378],[-3.194986,36.322652],[-3.174981,36.355386],[-3.104967,36.344475]]]}}
