{"type":"Feature","properties":{"mrgid":57,"name":"Waregem","placeType":"Town","source":"Belgium:belgium_municipalities"},"geometry":{"type":"MultiPolygon","coordinates":[[[[3.430769,50.897148],[3.430164,50.897448],[3.429908,50.897559],[3.429508,50.897682],[3.429145,50.897753],[3.427776,50.897923],[3.426681,50.898073],[3.42566,50.898198],[3.424378,50.89836],[3.423912,50.898437],[3.423483,50.898557],[3.422941,50.898835],[3.422294,50.899161],[3.421641,50.899525],[3.420887,50.899954],[3.420203,50.900527],[3.419809,50.900866],[3.419609,50.901092],[3.419539,50.90138],[3.419508,50.901663],[3.419393,50.902041],[3.419171,50.90221],[3.41895,50.902309],[3.418648,50.902406],[3.417825,50.902662],[3.41703,50.902908],[3.416667,50.90302],[3.416678,50.903139],[3.416694,50.903325],[3.416702,50.903407],[3.416703,50.903422],[3.416703,50.903442],[3.416704,50.903454],[3.416709,50.903492],[3.416694,50.903493],[3.416736,50.90394],[3.416734,50.903951],[3.416717,50.904001],[3.416578,50.904041],[3.416373,50.904117],[3.415983,50.904239],[3.415639,50.904345],[3.415336,50.904433],[3.415354,50.904469],[3.415393,50.904522],[3.415431,50.904543],[3.415511,50.904563],[3.415658,50.904612],[3.415725,50.904636],[3.415826,50.904692],[3.415866,50.904714],[3.415989,50.904777],[3.416091,50.904869],[3.416135,50.904927],[3.416231,50.905084],[3.416311,50.905207],[3.416358,50.905319],[3.416379,50.905399],[3.416396,50.905662],[3.416398,50.905682],[3.416426,50.905767],[3.416498,50.905902],[3.416567,50.905999],[3.416646,50.906077],[3.416678,50.9061],[3.416742,50.906154],[3.41694,50.906329],[3.416978,50.90636],[3.417145,50.906503],[3.417215,50.906569],[3.417235,50.90659],[3.417254,50.906614],[3.417258,50.90664],[3.417178,50.90675],[3.417334,50.906817],[3.417254,50.90692],[3.417228,50.906984],[3.417233,50.907026],[3.417497,50.907321],[3.41772,50.907615],[3.41787,50.907749],[3.418042,50.907936],[3.418085,50.908075],[3.418164,50.908229],[3.418286,50.908494],[3.418655,50.908815],[3.418858,50.909019],[3.41895,50.909122],[3.41909,50.909281],[3.41916,50.90938],[3.419208,50.909472],[3.419259,50.909554],[3.419284,50.909636],[3.41941,50.910154],[3.419433,50.910281],[3.419529,50.910658],[3.41954,50.910718],[3.41956,50.91097],[3.416621,50.91109],[3.41332,50.911323],[3.412677,50.911369],[3.412549,50.911376],[3.410838,50.911327],[3.409964,50.911238],[3.407776,50.910811],[3.405257,50.909828],[3.400156,50.907531],[3.396922,50.906114],[3.395102,50.905367],[3.393024,50.904605],[3.391068,50.903948],[3.388299,50.90317],[3.386782,50.902763],[3.384144,50.902146],[3.381673,50.901673],[3.37889,50.901212],[3.376041,50.900819],[3.372265,50.900307],[3.366993,50.89953],[3.361199,50.898743],[3.357884,50.898306],[3.356355,50.89808],[3.354248,50.897674],[3.352191,50.896981],[3.350507,50.896344],[3.349268,50.895723],[3.347171,50.894616],[3.345313,50.895717],[3.344359,50.895253],[3.343684,50.894909],[3.343296,50.894688],[3.343064,50.894546],[3.342757,50.894375],[3.342631,50.8943],[3.342354,50.894131],[3.342061,50.893937],[3.34177,50.893692],[3.3415,50.893452],[3.341297,50.893245],[3.341067,50.893007],[3.341001,50.892908],[3.340861,50.892748],[3.340768,50.892593],[3.340718,50.892446],[3.340722,50.892196],[3.340772,50.891805],[3.340831,50.891629],[3.340995,50.891245],[3.341113,50.891098],[3.34122,50.891004],[3.341434,50.890868],[3.341883,50.890688],[3.342193,50.890617],[3.342753,50.890591],[3.342952,50.890546],[3.343026,50.890534],[3.343908,50.890364],[3.343256,50.888707],[3.342502,50.887274],[3.342028,50.886652],[3.341222,50.885696],[3.340016,50.884608],[3.338883,50.88374],[3.337477,50.882876],[3.336438,50.88233],[3.334109,50.881353],[3.33154,50.88038],[3.331099,50.880772],[3.330996,50.880851],[3.330744,50.881077],[3.330489,50.881333],[3.330355,50.881497],[3.330338,50.881511],[3.330219,50.881576],[3.329925,50.881724],[3.329173,50.881653],[3.328552,50.881601],[3.328362,50.881582],[3.328173,50.881558],[3.327986,50.88153],[3.327801,50.881496],[3.327619,50.881458],[3.327439,50.881415],[3.327262,50.881367],[3.327088,50.881315],[3.326918,50.881258],[3.326752,50.881197],[3.326497,50.881102],[3.326248,50.881001],[3.326005,50.880893],[3.32577,50.88078],[3.325542,50.88066],[3.325322,50.880535],[3.325132,50.880418],[3.324957,50.880292],[3.324801,50.880156],[3.324598,50.879914],[3.324404,50.879668],[3.32422,50.879419],[3.324046,50.879168],[3.323985,50.879072],[3.323928,50.878975],[3.323875,50.878877],[3.323827,50.878779],[3.323784,50.878679],[3.323745,50.878579],[3.323711,50.878477],[3.323681,50.878376],[3.323656,50.878274],[3.323636,50.878171],[3.323603,50.877899],[3.323604,50.877601],[3.323676,50.87668],[3.323703,50.876387],[3.324087,50.875906],[3.324285,50.875419],[3.324229,50.874937],[3.323897,50.874268],[3.323536,50.873709],[3.322949,50.873155],[3.322237,50.872803],[3.321354,50.872357],[3.32051,50.871953],[3.319777,50.871574],[3.321456,50.87085],[3.321732,50.870783],[3.32186,50.870754],[3.322793,50.870331],[3.322901,50.870434],[3.323139,50.870316],[3.323309,50.870267],[3.323456,50.870266],[3.323593,50.870282],[3.323764,50.87029],[3.324035,50.870411],[3.324094,50.870414],[3.324174,50.870402],[3.324305,50.870323],[3.324378,50.870271],[3.324424,50.870237],[3.324538,50.870126],[3.324691,50.869978],[3.324993,50.869669],[3.325065,50.869562],[3.324759,50.869492],[3.324544,50.869434],[3.324437,50.869407],[3.324329,50.869349],[3.323749,50.868912],[3.324004,50.868749],[3.324151,50.868651],[3.324294,50.868604],[3.324565,50.868522],[3.324709,50.868479],[3.324811,50.868454],[3.324965,50.868415],[3.325338,50.868324],[3.325615,50.868258],[3.325702,50.868239],[3.325815,50.868214],[3.32594,50.868184],[3.326175,50.868116],[3.326297,50.868085],[3.326555,50.86802],[3.326747,50.867975],[3.326989,50.867917],[3.327138,50.867879],[3.32755,50.867775],[3.327624,50.867735],[3.327727,50.86768],[3.327851,50.867616],[3.327979,50.867561],[3.328302,50.867451],[3.328515,50.867379],[3.328658,50.867333],[3.328797,50.867289],[3.328859,50.867271],[3.329062,50.867186],[3.329296,50.867088],[3.329741,50.86692],[3.329875,50.866876],[3.330037,50.866859],[3.330225,50.866848],[3.33042,50.86684],[3.330483,50.866834],[3.330683,50.866811],[3.330937,50.86678],[3.331119,50.866744],[3.331163,50.86673],[3.331273,50.866658],[3.33118,50.866572],[3.331307,50.866568],[3.331389,50.86657],[3.331486,50.866564],[3.331641,50.866556],[3.331806,50.866586],[3.331934,50.866627],[3.332095,50.866714],[3.332179,50.866755],[3.332249,50.866784],[3.332339,50.866814],[3.332887,50.866878],[3.332927,50.866884],[3.33301,50.866898],[3.33303,50.866902],[3.333048,50.866909],[3.333328,50.867016],[3.333339,50.867019],[3.333351,50.867023],[3.333363,50.867025],[3.333377,50.867027],[3.333405,50.867031],[3.333419,50.867032],[3.333431,50.867033],[3.333447,50.867033],[3.333467,50.867034],[3.333489,50.867033],[3.3335,50.867033],[3.333512,50.867032],[3.333526,50.867031],[3.33354,50.867029],[3.333566,50.867026],[3.333841,50.866985],[3.334288,50.866925],[3.334495,50.866894],[3.33457,50.866879],[3.334697,50.866848],[3.334821,50.866809],[3.334957,50.866763],[3.335104,50.866693],[3.3352,50.866633],[3.335283,50.866615],[3.335461,50.86662],[3.335585,50.866499],[3.335644,50.866458],[3.335747,50.866393],[3.335819,50.866327],[3.335845,50.866268],[3.335861,50.866215],[3.335866,50.86617],[3.335849,50.866088],[3.335777,50.866034],[3.335621,50.865951],[3.3355,50.865895],[3.335445,50.865869],[3.335679,50.865742],[3.335773,50.865691],[3.335864,50.865647],[3.335952,50.86561],[3.336012,50.865589],[3.336047,50.865589],[3.336102,50.865604],[3.33619,50.865627],[3.336236,50.865639],[3.336268,50.865641],[3.336312,50.865638],[3.336371,50.865629],[3.336452,50.865588],[3.336835,50.865391],[3.337067,50.865263],[3.337097,50.865224],[3.33717,50.86512],[3.337253,50.865014],[3.337332,50.864968],[3.337612,50.864844],[3.337903,50.864744],[3.338211,50.864592],[3.338644,50.864354],[3.339002,50.864096],[3.339026,50.86402],[3.339009,50.863905],[3.33897,50.86378],[3.338898,50.863507],[3.338828,50.863234],[3.338752,50.863046],[3.338696,50.862937],[3.33852,50.862587],[3.338438,50.862422],[3.338365,50.862234],[3.338345,50.862154],[3.338394,50.862143],[3.338817,50.862028],[3.338425,50.861278],[3.338425,50.861254],[3.338414,50.861252],[3.33837,50.861213],[3.338356,50.861144],[3.338351,50.861119],[3.338341,50.860995],[3.338319,50.86064],[3.338312,50.860406],[3.338333,50.8602],[3.338359,50.860041],[3.338524,50.859649],[3.338594,50.859478],[3.338659,50.859352],[3.338719,50.859234],[3.338775,50.859121],[3.338779,50.859104],[3.338824,50.858968],[3.338869,50.858828],[3.33895,50.858678],[3.338995,50.858603],[3.339067,50.858488],[3.339131,50.858389],[3.339188,50.858311],[3.339203,50.858288],[3.339242,50.858224],[3.339274,50.858163],[3.339295,50.857971],[3.339445,50.857906],[3.339524,50.857871],[3.33955,50.857834],[3.339607,50.857806],[3.339735,50.857733],[3.339807,50.857694],[3.339876,50.857653],[3.339909,50.857632],[3.339933,50.857615],[3.340321,50.857465],[3.340524,50.857369],[3.340683,50.857265],[3.340807,50.85717],[3.340845,50.857137],[3.34089,50.857103],[3.340987,50.857029],[3.341299,50.856777],[3.341318,50.85676],[3.34134,50.856736],[3.341643,50.856837],[3.341955,50.856946],[3.342093,50.857004],[3.342784,50.857263],[3.343151,50.857398],[3.343647,50.857596],[3.344035,50.857756],[3.344316,50.857848],[3.344408,50.857871],[3.344818,50.857916],[3.344923,50.857909],[3.345036,50.857899],[3.345114,50.85787],[3.345266,50.857818],[3.34541,50.857768],[3.345652,50.857737],[3.34596,50.857704],[3.346133,50.857687],[3.346477,50.857806],[3.346483,50.85781],[3.346514,50.857829],[3.346534,50.857837],[3.346608,50.857851],[3.346698,50.857867],[3.346783,50.857882],[3.346886,50.8579],[3.346938,50.857909],[3.347062,50.857928],[3.346952,50.858067],[3.347218,50.858169],[3.347407,50.858246],[3.347439,50.85826],[3.347635,50.858345],[3.347834,50.858433],[3.348646,50.858785],[3.348716,50.858814],[3.348952,50.858519],[3.349113,50.858312],[3.34921,50.858338],[3.349531,50.858406],[3.34953,50.858442],[3.349561,50.858471],[3.34967,50.858531],[3.349788,50.858601],[3.349828,50.85862],[3.349835,50.858622],[3.349885,50.858647],[3.349896,50.858652],[3.349941,50.858675],[3.350017,50.858713],[3.350027,50.858718],[3.350135,50.858758],[3.350261,50.8588],[3.350393,50.858861],[3.350475,50.858897],[3.350667,50.858992],[3.350693,50.859005],[3.3507,50.859009],[3.350917,50.859122],[3.350967,50.859151],[3.350972,50.859153],[3.351071,50.85921],[3.351099,50.859226],[3.351123,50.859238],[3.351027,50.859316],[3.350844,50.85938],[3.350725,50.859432],[3.350496,50.859544],[3.350864,50.859876],[3.350961,50.859967],[3.351182,50.860163],[3.351374,50.860319],[3.351444,50.860352],[3.351702,50.860477],[3.351946,50.860606],[3.35225,50.860745],[3.352641,50.860969],[3.352832,50.861067],[3.352928,50.861123],[3.353182,50.861259],[3.353464,50.861404],[3.353692,50.861517],[3.353944,50.861633],[3.354149,50.861722],[3.354253,50.861786],[3.354468,50.861864],[3.354761,50.861983],[3.355468,50.862268],[3.355933,50.862455],[3.356383,50.862645],[3.356373,50.862659],[3.356367,50.862668],[3.356275,50.862799],[3.356204,50.862946],[3.356192,50.862977],[3.356147,50.863159],[3.356338,50.863231],[3.356492,50.863285],[3.357017,50.863465],[3.357104,50.863432],[3.357142,50.863417],[3.357204,50.86339],[3.357325,50.863427],[3.357451,50.863465],[3.358034,50.86364],[3.35812,50.863659],[3.358199,50.863478],[3.358226,50.863417],[3.35831,50.863426],[3.35855,50.863508],[3.35867,50.863531],[3.358725,50.863509],[3.358753,50.86348],[3.358821,50.863301],[3.358884,50.863177],[3.358915,50.863164],[3.358954,50.863158],[3.359018,50.86317],[3.359136,50.863201],[3.359451,50.863295],[3.359923,50.863441],[3.360116,50.863493],[3.360262,50.863526],[3.360468,50.863581],[3.360481,50.863616],[3.360475,50.863744],[3.360492,50.863789],[3.360683,50.863806],[3.361247,50.863859],[3.361466,50.863894],[3.361749,50.863983],[3.362053,50.864083],[3.362159,50.864119],[3.362292,50.864159],[3.362716,50.864319],[3.362935,50.864396],[3.363072,50.864433],[3.363344,50.864509],[3.363459,50.864534],[3.363621,50.864552],[3.363877,50.864602],[3.364137,50.86463],[3.364324,50.864663],[3.364693,50.864733],[3.365054,50.864786],[3.365221,50.86482],[3.365562,50.86488],[3.365844,50.864907],[3.366008,50.86492],[3.366089,50.864937],[3.366191,50.864973],[3.366577,50.865034],[3.366846,50.865081],[3.367314,50.86515],[3.367542,50.865199],[3.36773,50.865217],[3.368235,50.865287],[3.368998,50.86541],[3.369108,50.865434],[3.369079,50.865495],[3.368664,50.866027],[3.368293,50.86652],[3.368259,50.866567],[3.368301,50.866584],[3.368485,50.866644],[3.369499,50.866981],[3.369727,50.867058],[3.370176,50.867208],[3.370478,50.867319],[3.370505,50.867313],[3.3706,50.86721],[3.370968,50.866819],[3.37118,50.866599],[3.371334,50.866403],[3.371476,50.866248],[3.371793,50.865896],[3.371934,50.865741],[3.372001,50.865702],[3.372227,50.865468],[3.372639,50.865031],[3.37268,50.864993],[3.373176,50.865128],[3.373473,50.865208],[3.3738,50.865289],[3.374063,50.865344],[3.374365,50.865403],[3.374602,50.86541],[3.375058,50.86548],[3.375381,50.865541],[3.375628,50.865577],[3.375909,50.865618],[3.376209,50.865661],[3.376627,50.865723],[3.377185,50.865798],[3.3777,50.865862],[3.378283,50.865912],[3.378409,50.865909],[3.378567,50.8659],[3.378834,50.86588],[3.3792,50.865848],[3.379433,50.865827],[3.379698,50.865798],[3.379876,50.865777],[3.380121,50.865734],[3.380226,50.865703],[3.380471,50.865618],[3.38083,50.865513],[3.380964,50.865491],[3.381105,50.865486],[3.381271,50.865509],[3.381431,50.865535],[3.381668,50.865581],[3.381796,50.865607],[3.381968,50.865647],[3.382157,50.865689],[3.382362,50.865729],[3.382556,50.865763],[3.382774,50.865796],[3.382965,50.865826],[3.383133,50.865849],[3.383224,50.865801],[3.38332,50.865751],[3.383369,50.865725],[3.383651,50.865575],[3.38381,50.86549],[3.38401,50.865384],[3.384188,50.86529],[3.384245,50.86526],[3.384462,50.865149],[3.384742,50.865002],[3.38494,50.864905],[3.385235,50.864746],[3.385423,50.864659],[3.385476,50.864619],[3.385614,50.864547],[3.386274,50.864198],[3.386646,50.864007],[3.386724,50.86397],[3.386846,50.86391],[3.386865,50.863917],[3.386903,50.86393],[3.387011,50.863972],[3.387252,50.864066],[3.387343,50.864108],[3.387401,50.864131],[3.387508,50.864184],[3.387586,50.864223],[3.387485,50.864384],[3.387485,50.864394],[3.387499,50.864401],[3.387592,50.864429],[3.387964,50.864537],[3.388112,50.864512],[3.388305,50.864516],[3.388558,50.86456],[3.388678,50.864587],[3.388852,50.864613],[3.389098,50.864626],[3.389307,50.864631],[3.389379,50.864655],[3.389488,50.864701],[3.389585,50.864743],[3.389682,50.864799],[3.389785,50.864761],[3.389913,50.864723],[3.390023,50.864689],[3.390243,50.864633],[3.390393,50.864596],[3.390528,50.864563],[3.390647,50.864534],[3.390782,50.864502],[3.390873,50.86448],[3.391046,50.864562],[3.391235,50.86462],[3.391305,50.864639],[3.39135,50.864596],[3.391479,50.864446],[3.391585,50.864325],[3.391655,50.864278],[3.391684,50.864228],[3.391744,50.864156],[3.391847,50.863988],[3.391894,50.863904],[3.391929,50.863738],[3.391969,50.863527],[3.391981,50.863471],[3.39197,50.863413],[3.392055,50.863244],[3.392157,50.863004],[3.392259,50.862783],[3.392382,50.86249],[3.39244,50.86236],[3.39258,50.86212],[3.392763,50.86186],[3.392885,50.861745],[3.392969,50.861706],[3.393202,50.861651],[3.393331,50.861622],[3.393499,50.861525],[3.393685,50.861402],[3.393786,50.861363],[3.393862,50.861335],[3.39386,50.861297],[3.393862,50.861249],[3.393854,50.86118],[3.393816,50.861137],[3.393746,50.861038],[3.393596,50.860893],[3.393475,50.860765],[3.393438,50.860726],[3.39341,50.860658],[3.39337,50.860627],[3.393135,50.860473],[3.393157,50.860372],[3.39315,50.860277],[3.393111,50.860172],[3.393052,50.859864],[3.392998,50.859714],[3.392977,50.859554],[3.393017,50.859361],[3.393059,50.85928],[3.393088,50.859234],[3.39311,50.859159],[3.393276,50.858958],[3.393426,50.858607],[3.393466,50.858559],[3.393539,50.8585],[3.393441,50.858346],[3.393387,50.858261],[3.393312,50.858144],[3.393157,50.857968],[3.393097,50.857887],[3.393052,50.857817],[3.393037,50.857797],[3.393012,50.857761],[3.392985,50.857718],[3.392955,50.857676],[3.392889,50.857576],[3.392674,50.857256],[3.392586,50.857122],[3.392549,50.857065],[3.392533,50.857043],[3.392474,50.856953],[3.392463,50.856939],[3.392399,50.856844],[3.392387,50.856828],[3.392358,50.856788],[3.392301,50.856691],[3.392258,50.856626],[3.392243,50.856601],[3.392184,50.85651],[3.392168,50.856486],[3.392141,50.856445],[3.392119,50.856415],[3.392112,50.856403],[3.39205,50.856314],[3.39203,50.856285],[3.391937,50.856159],[3.391887,50.856075],[3.391844,50.856004],[3.391755,50.855863],[3.391697,50.85577],[3.391626,50.855651],[3.39159,50.855577],[3.391586,50.855567],[3.391568,50.855533],[3.391551,50.855491],[3.391517,50.855404],[3.391417,50.855093],[3.391402,50.855046],[3.391386,50.85499],[3.391376,50.854951],[3.391318,50.854757],[3.391272,50.854582],[3.391112,50.854127],[3.390609,50.853983],[3.390711,50.853595],[3.390777,50.853461],[3.390804,50.853289],[3.390836,50.85319],[3.390782,50.853149],[3.39066,50.853113],[3.390386,50.85304],[3.390306,50.853011],[3.390079,50.852891],[3.389945,50.852849],[3.389699,50.8528],[3.389665,50.852791],[3.389686,50.852709],[3.38976,50.852536],[3.389791,50.852471],[3.389893,50.852339],[3.39,50.852203],[3.39012,50.852054],[3.390204,50.851944],[3.390291,50.851842],[3.390331,50.851796],[3.390436,50.851661],[3.390468,50.851619],[3.390485,50.851581],[3.390535,50.851533],[3.390599,50.851487],[3.390754,50.851378],[3.390853,50.85131],[3.390898,50.851273],[3.390986,50.851196],[3.391086,50.851111],[3.391162,50.851088],[3.391435,50.851066],[3.3915,50.851059],[3.39156,50.851025],[3.39162,50.850966],[3.3917,50.850888],[3.391736,50.85085],[3.391757,50.850815],[3.391804,50.850735],[3.391835,50.850689],[3.391877,50.850647],[3.39192,50.850615],[3.391944,50.850593],[3.391944,50.850583],[3.392054,50.850553],[3.392954,50.850309],[3.393744,50.850099],[3.393843,50.850073],[3.393943,50.850046],[3.395381,50.84967],[3.396348,50.849423],[3.396856,50.849287],[3.396878,50.849281],[3.397223,50.84918],[3.397283,50.84916],[3.397304,50.849154],[3.398264,50.848786],[3.398331,50.848761],[3.398336,50.848759],[3.398536,50.848671],[3.398894,50.848494],[3.398996,50.848443],[3.399083,50.848391],[3.3992,50.848313],[3.399259,50.848255],[3.399266,50.848246],[3.399297,50.84819],[3.399362,50.848047],[3.399361,50.848015],[3.399349,50.84796],[3.399348,50.847948],[3.399344,50.847876],[3.399346,50.84787],[3.399392,50.847795],[3.399408,50.84778],[3.399465,50.847734],[3.39947,50.847732],[3.399593,50.847689],[3.399744,50.847654],[3.399781,50.84765],[3.39982,50.847655],[3.399961,50.84769],[3.400013,50.84771],[3.400123,50.847721],[3.400202,50.847693],[3.400349,50.847705],[3.400451,50.847718],[3.400591,50.847736],[3.400788,50.847594],[3.40083,50.847573],[3.400829,50.847567],[3.400876,50.847549],[3.401187,50.847438],[3.401371,50.847353],[3.401535,50.847277],[3.401546,50.847271],[3.401777,50.847117],[3.401851,50.847056],[3.402,50.846914],[3.402167,50.846756],[3.402371,50.846562],[3.402446,50.846488],[3.402692,50.846246],[3.402785,50.846163],[3.402935,50.846022],[3.403211,50.845776],[3.403344,50.845658],[3.403408,50.845579],[3.403444,50.845538],[3.403738,50.845708],[3.403926,50.845813],[3.40455,50.845583],[3.405,50.845404],[3.405027,50.845393],[3.405047,50.845383],[3.405922,50.845042],[3.40601,50.845011],[3.40616,50.845247],[3.406397,50.845612],[3.406508,50.845786],[3.406597,50.845935],[3.406676,50.846067],[3.406778,50.846262],[3.406833,50.846378],[3.406876,50.846521],[3.40691,50.846637],[3.406963,50.846817],[3.406978,50.846878],[3.407121,50.846858],[3.407227,50.846837],[3.407387,50.846796],[3.407636,50.846733],[3.409417,50.84734],[3.410389,50.847663],[3.41178,50.84812],[3.411885,50.848157],[3.412878,50.848672],[3.413465,50.848981],[3.413599,50.849053],[3.414561,50.849563],[3.414733,50.849654],[3.415157,50.849882],[3.415721,50.850188],[3.41623,50.850458],[3.417292,50.851026],[3.417956,50.851379],[3.418158,50.851448],[3.418254,50.851526],[3.418351,50.851607],[3.418426,50.851674],[3.418453,50.85172],[3.418461,50.851767],[3.418471,50.851801],[3.418476,50.851865],[3.418494,50.852094],[3.418512,50.852139],[3.418515,50.852147],[3.418558,50.852216],[3.418597,50.852308],[3.418625,50.852407],[3.418676,50.852523],[3.418955,50.852663],[3.419489,50.85294],[3.419837,50.853116],[3.420019,50.85321],[3.42029,50.853349],[3.420683,50.853545],[3.421053,50.853729],[3.421329,50.853866],[3.421866,50.854134],[3.422088,50.854246],[3.422119,50.854261],[3.422148,50.854193],[3.422288,50.85421],[3.422614,50.85425],[3.422929,50.854289],[3.423073,50.854309],[3.42323,50.854329],[3.423359,50.854345],[3.424085,50.854435],[3.424446,50.854483],[3.425581,50.854626],[3.426284,50.854712],[3.426296,50.854725],[3.426348,50.854843],[3.426464,50.855144],[3.426719,50.855786],[3.426733,50.855821],[3.426771,50.855919],[3.426954,50.85637],[3.427189,50.856958],[3.427343,50.857346],[3.427357,50.857379],[3.427444,50.857417],[3.427995,50.857663],[3.428027,50.857678],[3.428285,50.8578],[3.428627,50.857957],[3.428839,50.858057],[3.429203,50.85823],[3.429781,50.858499],[3.430004,50.858605],[3.430538,50.858852],[3.431041,50.859084],[3.431129,50.859125],[3.431462,50.859279],[3.43148,50.859288],[3.431724,50.859407],[3.431879,50.859464],[3.431955,50.859498],[3.431964,50.859503],[3.431966,50.859503],[3.432105,50.859563],[3.432139,50.859576],[3.43219,50.859601],[3.432266,50.859646],[3.432399,50.859725],[3.432546,50.859816],[3.432724,50.859926],[3.432779,50.859958],[3.433036,50.860118],[3.43308,50.860145],[3.433408,50.860347],[3.433931,50.860671],[3.434236,50.860857],[3.434271,50.86088],[3.434726,50.861157],[3.435004,50.86133],[3.435207,50.861456],[3.43544,50.861598],[3.435593,50.861692],[3.435615,50.861703],[3.435628,50.861715],[3.435645,50.86173],[3.435708,50.86174],[3.435763,50.861739],[3.435903,50.861716],[3.435934,50.861646],[3.435937,50.861625],[3.435958,50.861606],[3.43599,50.861608],[3.436028,50.861613],[3.436145,50.861692],[3.436208,50.861683],[3.436295,50.861646],[3.436391,50.861618],[3.436455,50.861596],[3.436454,50.861586],[3.436432,50.861576],[3.436385,50.861567],[3.43636,50.861565],[3.436344,50.861554],[3.436347,50.861536],[3.436374,50.861527],[3.436394,50.86152],[3.436443,50.861518],[3.436496,50.861511],[3.436562,50.861513],[3.436616,50.861499],[3.436661,50.861479],[3.436684,50.861459],[3.436713,50.86143],[3.43677,50.86142],[3.43684,50.861405],[3.436926,50.861379],[3.436983,50.861369],[3.437009,50.86135],[3.437012,50.86132],[3.43702,50.861283],[3.437042,50.861271],[3.437099,50.861242],[3.437144,50.861217],[3.437171,50.861203],[3.43723,50.861183],[3.437262,50.861174],[3.43731,50.861175],[3.437348,50.861176],[3.437371,50.861168],[3.437381,50.861159],[3.437367,50.861138],[3.437324,50.86107],[3.437299,50.861],[3.437302,50.860954],[3.437358,50.860923],[3.437419,50.86092],[3.437444,50.860928],[3.437495,50.860948],[3.437567,50.860981],[3.437607,50.860998],[3.437746,50.861042],[3.437794,50.861049],[3.437812,50.861034],[3.437838,50.860995],[3.437867,50.860964],[3.43791,50.860953],[3.437953,50.860949],[3.438042,50.860952],[3.438172,50.860987],[3.438261,50.861033],[3.438327,50.861102],[3.438378,50.861165],[3.438393,50.861182],[3.438435,50.861185],[3.438465,50.861171],[3.438546,50.861132],[3.438581,50.861118],[3.438644,50.861118],[3.438715,50.861145],[3.438756,50.861178],[3.438734,50.861236],[3.438739,50.861257],[3.438764,50.861265],[3.438787,50.861258],[3.438807,50.861271],[3.438864,50.861301],[3.43909,50.861393],[3.439353,50.861473],[3.439427,50.861493],[3.439615,50.861541],[3.439734,50.861594],[3.43989,50.861649],[3.441005,50.861946],[3.441049,50.861958],[3.441086,50.861969],[3.441874,50.86226],[3.442132,50.862354],[3.443251,50.862767],[3.443298,50.862784],[3.444362,50.863169],[3.44576,50.863669],[3.445774,50.863675],[3.445855,50.863705],[3.446091,50.863482],[3.44641,50.863174],[3.446909,50.862943],[3.447001,50.86313],[3.447058,50.863251],[3.447122,50.863332],[3.447149,50.863358],[3.447248,50.863436],[3.447387,50.86353],[3.447415,50.863552],[3.447516,50.863649],[3.447558,50.863713],[3.447673,50.863791],[3.447779,50.863874],[3.447887,50.864079],[3.447926,50.864105],[3.448001,50.864138],[3.448214,50.864217],[3.448256,50.864236],[3.44828,50.864248],[3.448416,50.864316],[3.448484,50.864354],[3.44853,50.864386],[3.448669,50.864504],[3.448987,50.864817],[3.449051,50.864858],[3.449091,50.864886],[3.449513,50.865102],[3.44957,50.865125],[3.449612,50.865141],[3.449885,50.865262],[3.450067,50.865339],[3.450185,50.865385],[3.450511,50.865508],[3.450564,50.865516],[3.450636,50.865536],[3.450852,50.865616],[3.450978,50.865647],[3.451118,50.865649],[3.451236,50.865645],[3.451369,50.865635],[3.451656,50.865632],[3.451774,50.865635],[3.451832,50.86564],[3.451977,50.86567],[3.452109,50.865697],[3.45216,50.865711],[3.452255,50.865742],[3.45228,50.865752],[3.452385,50.865795],[3.452469,50.86583],[3.452562,50.865877],[3.452832,50.865993],[3.452845,50.865998],[3.453099,50.866096],[3.453166,50.866121],[3.453053,50.866216],[3.452091,50.866969],[3.451318,50.867549],[3.452448,50.868347],[3.45296,50.868707],[3.453723,50.868497],[3.454251,50.868352],[3.454969,50.868148],[3.455193,50.868356],[3.455313,50.868345],[3.455917,50.868284],[3.456015,50.868272],[3.456215,50.868246],[3.456486,50.868206],[3.456718,50.8688],[3.456778,50.868966],[3.456852,50.869189],[3.456871,50.869266],[3.456884,50.869355],[3.456896,50.86948],[3.456898,50.869682],[3.456884,50.869732],[3.456862,50.869799],[3.456644,50.870211],[3.456632,50.870245],[3.45662,50.870304],[3.456522,50.871133],[3.45649,50.871301],[3.456479,50.871323],[3.455966,50.871934],[3.455892,50.872023],[3.455783,50.872174],[3.455652,50.87225],[3.455701,50.872398],[3.455735,50.872465],[3.455776,50.872537],[3.455776,50.872556],[3.455794,50.872626],[3.455803,50.872635],[3.455843,50.872691],[3.455867,50.872717],[3.455912,50.872756],[3.455942,50.872777],[3.456008,50.872898],[3.456011,50.872904],[3.456023,50.872935],[3.456045,50.872968],[3.456063,50.87302],[3.456071,50.873035],[3.456107,50.873114],[3.456106,50.873124],[3.456119,50.873175],[3.456115,50.873192],[3.456108,50.873221],[3.456103,50.873264],[3.456126,50.873292],[3.456125,50.873323],[3.456129,50.873365],[3.456117,50.873434],[3.456127,50.873455],[3.456139,50.873505],[3.456147,50.873557],[3.456168,50.873629],[3.456158,50.873687],[3.456155,50.873711],[3.456162,50.873742],[3.456159,50.873801],[3.456159,50.873811],[3.456177,50.873916],[3.456187,50.873955],[3.45618,50.87398],[3.45621,50.874035],[3.456241,50.874068],[3.456258,50.87412],[3.456286,50.874152],[3.456281,50.874173],[3.45631,50.874208],[3.456318,50.874221],[3.456319,50.874244],[3.456329,50.87429],[3.45634,50.874309],[3.456347,50.874323],[3.456366,50.874334],[3.456375,50.874364],[3.456383,50.874381],[3.456369,50.87439],[3.45638,50.8744],[3.456388,50.874409],[3.456412,50.874431],[3.456422,50.874438],[3.456436,50.87445],[3.456455,50.874505],[3.456468,50.874532],[3.456472,50.874561],[3.456472,50.874597],[3.456492,50.874625],[3.456513,50.874646],[3.456515,50.87465],[3.456533,50.874709],[3.456549,50.87474],[3.456586,50.874779],[3.456574,50.874806],[3.456576,50.874841],[3.45658,50.874856],[3.456614,50.8749],[3.45661,50.874918],[3.456655,50.874976],[3.456655,50.874986],[3.456658,50.874995],[3.456674,50.875024],[3.456679,50.875036],[3.456691,50.87507],[3.456729,50.875114],[3.456731,50.875137],[3.456749,50.875158],[3.456771,50.875187],[3.456771,50.87523],[3.456778,50.87524],[3.456788,50.875256],[3.45679,50.875264],[3.45682,50.875298],[3.456818,50.875322],[3.45682,50.875334],[3.456835,50.87536],[3.456858,50.875381],[3.456854,50.875392],[3.456862,50.875402],[3.45687,50.875425],[3.456878,50.875433],[3.456883,50.87545],[3.456886,50.875474],[3.456915,50.875526],[3.456935,50.875548],[3.456948,50.875578],[3.456948,50.875604],[3.456949,50.875619],[3.456958,50.875627],[3.456969,50.875632],[3.456977,50.875643],[3.456985,50.875673],[3.456989,50.875684],[3.456993,50.875705],[3.457031,50.875778],[3.457033,50.875802],[3.457039,50.875818],[3.457041,50.875832],[3.45706,50.875861],[3.45705,50.875894],[3.457049,50.875901],[3.457061,50.875927],[3.457079,50.875945],[3.457088,50.87597],[3.457109,50.876019],[3.457125,50.876039],[3.457129,50.876044],[3.45714,50.876065],[3.457152,50.876083],[3.457162,50.876089],[3.457179,50.876097],[3.457188,50.876109],[3.45719,50.876126],[3.457186,50.876155],[3.457185,50.876163],[3.457186,50.876174],[3.457196,50.876193],[3.457228,50.876199],[3.457263,50.876216],[3.4573,50.87623],[3.457336,50.876234],[3.457377,50.876232],[3.457459,50.87622],[3.457641,50.876171],[3.457835,50.876116],[3.458612,50.875894],[3.458713,50.875867],[3.458778,50.875849],[3.459138,50.875774],[3.459198,50.875764],[3.459807,50.875695],[3.459866,50.875688],[3.460341,50.875621],[3.460363,50.875618],[3.460458,50.875593],[3.460717,50.875534],[3.461799,50.875147],[3.461871,50.875124],[3.461887,50.875118],[3.461936,50.875107],[3.461949,50.875105],[3.461974,50.875101],[3.462862,50.874959],[3.462926,50.874948],[3.463484,50.874854],[3.46377,50.874798],[3.464122,50.874741],[3.464178,50.874716],[3.464351,50.874615],[3.464669,50.874427],[3.464727,50.87446],[3.464956,50.874588],[3.465474,50.87487],[3.466196,50.875264],[3.46626,50.875306],[3.466411,50.875429],[3.466445,50.875452],[3.466597,50.875559],[3.466717,50.875624],[3.466892,50.875714],[3.466923,50.875729],[3.466961,50.875746],[3.467193,50.875855],[3.467465,50.875976],[3.467689,50.876061],[3.467961,50.876159],[3.468211,50.876241],[3.468227,50.876246],[3.468488,50.876321],[3.46882,50.876413],[3.468968,50.876455],[3.469582,50.876647],[3.469602,50.876657],[3.46962,50.87665],[3.46967,50.876643],[3.469787,50.876798],[3.470672,50.87795],[3.470934,50.878306],[3.471202,50.878709],[3.47153,50.879228],[3.472355,50.880633],[3.472455,50.880798],[3.472615,50.88102],[3.472725,50.881143],[3.473044,50.88157],[3.473111,50.88169],[3.473171,50.88174],[3.473547,50.88222],[3.47376,50.882362],[3.473899,50.882448],[3.474724,50.882856],[3.474715,50.882909],[3.474714,50.882915],[3.474425,50.88415],[3.474339,50.884509],[3.474213,50.885002],[3.474118,50.88537],[3.474109,50.885402],[3.47408,50.885452],[3.473494,50.886197],[3.473179,50.886594],[3.472989,50.886814],[3.472972,50.886831],[3.472915,50.886888],[3.471939,50.887929],[3.471837,50.888029],[3.471696,50.888144],[3.471521,50.88835],[3.471476,50.888406],[3.471469,50.888415],[3.471407,50.888496],[3.471257,50.888669],[3.471096,50.888878],[3.471072,50.888909],[3.471022,50.888967],[3.470984,50.88901],[3.470969,50.889025],[3.470823,50.889169],[3.470803,50.889187],[3.47071,50.889259],[3.470582,50.889359],[3.470566,50.889369],[3.470574,50.889379],[3.470768,50.889579],[3.470944,50.889778],[3.47152,50.890418],[3.471629,50.890542],[3.471906,50.890847],[3.472564,50.891518],[3.472588,50.891548],[3.473503,50.89246],[3.474011,50.892961],[3.474223,50.89318],[3.474523,50.893454],[3.475017,50.8939],[3.475044,50.893929],[3.475068,50.893952],[3.47473,50.894119],[3.474345,50.89431],[3.474363,50.894334],[3.474896,50.89488],[3.475965,50.895759],[3.474338,50.896347],[3.474189,50.896476],[3.474064,50.896537],[3.47403,50.896515],[3.473836,50.89662],[3.473732,50.896639],[3.473679,50.896612],[3.473606,50.896636],[3.473338,50.896771],[3.473193,50.896813],[3.47314,50.896855],[3.473127,50.896931],[3.472899,50.897136],[3.47273,50.897138],[3.472645,50.897227],[3.472514,50.897273],[3.472366,50.897278],[3.472289,50.897401],[3.472124,50.897485],[3.471911,50.897484],[3.471851,50.897524],[3.471882,50.897585],[3.471844,50.897642],[3.47177,50.897687],[3.471685,50.897706],[3.471578,50.897812],[3.471515,50.897809],[3.471397,50.897882],[3.47125,50.89792],[3.4714,50.898027],[3.471397,50.898057],[3.471239,50.898076],[3.471207,50.898176],[3.471213,50.898254],[3.471283,50.898358],[3.471224,50.898399],[3.471204,50.8986],[3.471143,50.898703],[3.47114,50.898812],[3.47111,50.89886],[3.471047,50.898887],[3.470875,50.898903],[3.470983,50.899026],[3.471059,50.899203],[3.471012,50.899311],[3.471085,50.899412],[3.471034,50.89945],[3.470981,50.899482],[3.470959,50.899515],[3.470941,50.899678],[3.47101,50.89973],[3.47107,50.899802],[3.471184,50.899991],[3.471193,50.90002],[3.470871,50.900071],[3.470642,50.9001],[3.470034,50.900176],[3.469837,50.900213],[3.469555,50.900305],[3.469251,50.900435],[3.468898,50.900651],[3.468384,50.900985],[3.467842,50.901346],[3.46696,50.901902],[3.466699,50.902062],[3.466171,50.902461],[3.465619,50.902901],[3.465517,50.903016],[3.465209,50.903541],[3.464857,50.904047],[3.464782,50.904124],[3.464536,50.904016],[3.464427,50.904071],[3.464154,50.904196],[3.463648,50.904476],[3.462382,50.905322],[3.461829,50.905323],[3.461774,50.905294],[3.461726,50.905293],[3.461666,50.905322],[3.461678,50.905355],[3.462208,50.905592],[3.462478,50.905714],[3.462524,50.905735],[3.461898,50.906298],[3.461415,50.906713],[3.461075,50.907015],[3.460335,50.907466],[3.46011,50.907596],[3.460037,50.907567],[3.458678,50.907015],[3.456816,50.906258],[3.45611,50.906528],[3.455833,50.906633],[3.455485,50.906769],[3.454937,50.906981],[3.454222,50.907256],[3.454044,50.907324],[3.453766,50.907431],[3.453223,50.907639],[3.452516,50.907141],[3.452342,50.907039],[3.451926,50.906743],[3.451807,50.906644],[3.4509,50.906434],[3.450795,50.906398],[3.450393,50.906175],[3.450367,50.906158],[3.449235,50.905296],[3.449219,50.905281],[3.448781,50.904806],[3.448171,50.904141],[3.448009,50.903959],[3.447744,50.903653],[3.447543,50.903424],[3.447108,50.902926],[3.447011,50.902808],[3.446983,50.902814],[3.446839,50.902626],[3.446685,50.902375],[3.446645,50.902309],[3.446386,50.902142],[3.446027,50.90161],[3.445849,50.901397],[3.445378,50.900878],[3.445176,50.900663],[3.444925,50.900589],[3.444457,50.900471],[3.444143,50.900391],[3.443702,50.900279],[3.443442,50.900212],[3.443328,50.900182],[3.442678,50.900017],[3.442268,50.899914],[3.442139,50.899881],[3.44211,50.899865],[3.442038,50.89986],[3.441706,50.89972],[3.441498,50.899646],[3.441282,50.899573],[3.440854,50.899436],[3.4406,50.899356],[3.440266,50.899257],[3.440151,50.899223],[3.439906,50.89915],[3.439541,50.899044],[3.439395,50.899005],[3.438788,50.898887],[3.438121,50.898801],[3.437805,50.898734],[3.437148,50.898561],[3.43648,50.898437],[3.436005,50.89837],[3.435307,50.898274],[3.434628,50.898195],[3.434204,50.898052],[3.434003,50.897982],[3.433251,50.897717],[3.432647,50.897314],[3.431461,50.896785],[3.430769,50.897148]]],[[[3.41959,50.91078],[3.38458,50.91002],[3.37964,50.8953],[3.35271,50.89885],[3.3201,50.87142],[3.3416,50.85681],[3.3705,50.86724],[3.39103,50.86473],[3.39058,50.85102],[3.40599,50.845],[3.44276,50.85884],[3.45721,50.87632],[3.47476,50.88285],[3.47666,50.89578],[3.45957,50.90779],[3.43013,50.89677],[3.4164,50.90359],[3.41959,50.91078]]]]}}
