{"type":"Feature","properties":{"mrgid":57016,"name":"Liguria Margin Drift P5","placeType":"Drift","source":"World:drifts"},"geometry":{"type":"Polygon","coordinates":[[[8.581119,44.298549],[8.522255,44.255185],[8.532878,44.241949],[8.588782,44.244562],[8.608635,44.259191],[8.617082,44.282266],[8.651912,44.286533],[8.690139,44.285836],[8.701285,44.278347],[8.731239,44.282179],[8.745868,44.26755],[8.772688,44.270249],[8.794631,44.285836],[8.799159,44.3036],[8.776954,44.313526],[8.729498,44.301553],[8.581119,44.298549]]]}}
