{"type":"Feature","id":"gazetteer_polygon.22","geometry_name":"the_geom","properties":{"mrgid":62638,"name":"Thule","url":"http://marineregions.org/gazetteer.php?p=details&id=62638"},"geometry":{"type":"MultiPolygon","coordinates":[[[[-27.286027,-59.45647],[-27.286513,-59.456649],[-27.285692,-59.456651],[-27.286027,-59.45647]]],[[[-27.335739,-59.412158],[-27.353616,-59.412141],[-27.374829,-59.418317],[-27.393999,-59.428595],[-27.409062,-59.431277],[-27.408132,-59.435394],[-27.419051,-59.441984],[-27.411695,-59.442135],[-27.402873,-59.447328],[-27.403172,-59.448966],[-27.398909,-59.448145],[-27.397449,-59.45013],[-27.394759,-59.449785],[-27.382559,-59.456087],[-27.375587,-59.455807],[-27.371199,-59.457665],[-27.367198,-59.456429],[-27.359953,-59.45818],[-27.353914,-59.457413],[-27.339587,-59.462019],[-27.334012,-59.457185],[-27.325645,-59.455838],[-27.320123,-59.45645],[-27.318551,-59.457444],[-27.320306,-59.458117],[-27.318081,-59.45815],[-27.317341,-59.459812],[-27.315359,-59.458891],[-27.3095,-59.460913],[-27.299609,-59.458917],[-27.301109,-59.456034],[-27.316606,-59.455242],[-27.324684,-59.452682],[-27.334311,-59.44838],[-27.339578,-59.443344],[-27.345412,-59.442025],[-27.349162,-59.438065],[-27.345799,-59.431831],[-27.340951,-59.430921],[-27.339774,-59.429272],[-27.336762,-59.418652],[-27.323593,-59.415488],[-27.335739,-59.412158]]]]}}
