{"type":"Feature","properties":{"mrgid":63554,"name":"Gulf of St.Lawrence Coastal Drainages","placeType":"Freshwater Ecoregion of the World (FEOW)","source":"MarineRegions:tnc_wwf_feow_hydrosheds"},"geometry":{"type":"MultiPolygon","coordinates":[[[[-69.029167,48.745833],[-69.025,48.758333],[-69.0375,48.758333],[-69.029167,48.745833]]],[[[-68.520833,49.054167],[-68.520833,49.058333],[-68.529167,49.058333],[-68.520833,49.054167]]],[[[-67.179167,49.616667],[-67.170833,49.620833],[-67.175,49.641667],[-67.179167,49.641667],[-67.179167,49.616667]]],[[[-67.045833,49.808333],[-67.033333,49.808333],[-67.033333,49.816667],[-67.041667,49.816667],[-67.045833,49.808333]]],[[[-67.0,49.833333],[-67.016667,49.8375],[-67.020833,49.829167],[-67.004167,49.825],[-67.0,49.833333]]],[[[-66.395833,50.095833],[-66.395833,50.083333],[-66.370833,50.0875],[-66.383333,50.095833],[-66.383333,50.108333],[-66.420833,50.116667],[-66.425,50.104167],[-66.395833,50.095833]]],[[[-66.429167,50.125],[-66.429167,50.116667],[-66.420833,50.120833],[-66.429167,50.125]]],[[[-66.3125,50.133333],[-66.308333,50.120833],[-66.270833,50.133333],[-66.291667,50.175],[-66.308333,50.175],[-66.3125,50.158333],[-66.295833,50.158333],[-66.3125,50.133333]]],[[[-66.379167,50.15],[-66.366667,50.145833],[-66.3625,50.129167],[-66.341667,50.125],[-66.354167,50.141667],[-66.35,50.1625],[-66.358333,50.166667],[-66.358333,50.179167],[-66.375,50.179167],[-66.379167,50.15]]],[[[-60.7,50.166667],[-60.691667,50.166667],[-60.691667,50.175],[-60.7,50.175],[-60.7,50.166667]]],[[[-61.233333,50.183333],[-61.245833,50.183333],[-61.245833,50.175],[-61.2375,50.175],[-61.233333,50.183333]]],[[[-63.225,50.191667],[-63.216667,50.191667],[-63.216667,50.2],[-63.225,50.2],[-63.225,50.191667]]],[[[-61.020833,50.191667],[-61.008333,50.191667],[-61.008333,50.2],[-61.020833,50.2],[-61.020833,50.191667]]],[[[-63.191667,50.195833],[-63.195833,50.204167],[-63.2125,50.2],[-63.204167,50.191667],[-63.191667,50.195833]]],[[[-60.895833,50.204167],[-60.908333,50.204167],[-60.908333,50.195833],[-60.9,50.195833],[-60.895833,50.204167]]],[[[-60.725,50.195833],[-60.716667,50.195833],[-60.720833,50.208333],[-60.725,50.208333],[-60.725,50.195833]]],[[[-60.720833,50.2125],[-60.7,50.204167],[-60.704167,50.2125],[-60.691667,50.216667],[-60.6875,50.204167],[-60.666667,50.204167],[-60.658333,50.216667],[-60.6375,50.216667],[-60.641667,50.2375],[-60.633333,50.2375],[-60.629167,50.195833],[-60.616667,50.195833],[-60.629167,50.183333],[-60.6,50.183333],[-60.604167,50.191667],[-60.591667,50.195833],[-60.595833,50.204167],[-60.579167,50.204167],[-60.570833,50.191667],[-60.5625,50.2],[-60.541667,50.2],[-60.541667,50.191667],[-60.520833,50.195833],[-60.491667,50.183333],[-60.483333,50.195833],[-60.4625,50.191667],[-60.466667,50.204167],[-60.45,50.2],[-60.458333,50.2125],[-60.441667,50.216667],[-60.433333,50.2375],[-60.420833,50.241667],[-60.404167,50.229167],[-60.4125,50.216667],[-60.395833,50.208333],[-60.395833,50.2],[-60.366667,50.2],[-60.3625,50.2125],[-60.370833,50.216667],[-60.366667,50.229167],[-60.345833,50.220833],[-60.345833,50.208333],[-60.3375,50.208333],[-60.329167,50.220833],[-60.308333,50.220833],[-60.295833,50.254167],[-60.279167,50.254167],[-60.279167,50.241667],[-60.291667,50.2375],[-60.3,50.2125],[-60.283333,50.220833],[-60.279167,50.204167],[-60.270833,50.195833],[-60.254167,50.2],[-60.2625,50.2125],[-60.241667,50.216667],[-60.233333,50.233333],[-60.225,50.233333],[-60.216667,50.2125],[-60.208333,50.2125],[-60.204167,50.225],[-60.216667,50.225],[-60.2125,50.233333],[-60.220833,50.245833],[-60.195833,50.245833],[-60.179167,50.233333],[-60.191667,50.229167],[-60.195833,50.204167],[-60.1875,50.204167],[-60.183333,50.216667],[-60.166667,50.216667],[-60.166667,50.225],[-60.154167,50.220833],[-60.158333,50.2125],[-60.175,50.2125],[-60.175,50.204167],[-60.191667,50.2],[-60.191667,50.191667],[-60.166667,50.195833],[-60.154167,50.1875],[-60.120833,50.2125],[-60.108333,50.204167],[-60.108333,50.2125],[-60.083333,50.225],[-60.083333,50.2375],[-60.075,50.241667],[-60.066667,50.225],[-60.054167,50.220833],[-60.054167,50.229167],[-60.045833,50.229167],[-60.0375,50.220833],[-60.05,50.204167],[-60.054167,50.2125],[-60.066667,50.2125],[-60.066667,50.2],[-60.05,50.1875],[-60.05,50.183333],[-60.004167,50.191667],[-60.0,50.204167],[-59.991667,50.204167],[-60.0,50.220833],[-59.9875,50.216667],[-59.970833,50.2375],[-59.983333,50.2625],[-59.941667,50.25],[-59.941667,50.266667],[-59.929167,50.275],[-59.920833,50.25],[-59.9125,50.2625],[-59.9,50.254167],[-59.895833,50.279167],[-59.8875,50.279167],[-59.895833,50.2875],[-59.875,50.291667],[-59.866667,50.304167],[-59.85,50.3],[-59.845833,50.308333],[-59.854167,50.3125],[-59.833333,50.3125],[-59.804167,50.333333],[-59.804167,50.358333],[-59.820833,50.354167],[-59.825,50.366667],[-59.879167,50.3625],[-59.879167,50.375],[-59.866667,50.370833],[-59.845833,50.3875],[-59.845833,50.370833],[-59.816667,50.370833],[-59.8125,50.379167],[-59.791667,50.383333],[-59.779167,50.395833],[-59.779167,50.408333],[-59.795833,50.416667],[-59.795833,50.425],[-59.7625,50.420833],[-59.758333,50.429167],[-59.7375,50.429167],[-59.729167,50.4375],[-59.733333,50.445833],[-59.704167,50.441667],[-59.704167,50.45],[-59.683333,50.445833],[-59.670833,50.458333],[-59.65,50.454167],[-59.579167,50.470833],[-59.575,50.4875],[-59.566667,50.4875],[-59.558333,50.520833],[-59.5375,50.520833],[-59.529167,50.5125],[-59.504167,50.516667],[-59.525,50.529167],[-59.516667,50.554167],[-59.504167,50.55],[-59.504167,50.5375],[-59.4875,50.5375],[-59.508333,50.533333],[-59.508333,50.525],[-59.495833,50.520833],[-59.470833,50.525],[-59.470833,50.533333],[-59.454167,50.5375],[-59.420833,50.529167],[-59.429167,50.541667],[-59.416667,50.545833],[-59.404167,50.579167],[-59.4125,50.5875],[-59.4375,50.5875],[-59.4375,50.595833],[-59.45,50.595833],[-59.454167,50.5875],[-59.458333,50.604167],[-59.445833,50.604167],[-59.445833,50.6125],[-59.433333,50.608333],[-59.429167,50.620833],[-59.4125,50.620833],[-59.4,50.608333],[-59.379167,50.608333],[-59.370833,50.595833],[-59.383333,50.591667],[-59.3875,50.6],[-59.379167,50.579167],[-59.358333,50.583333],[-59.358333,50.604167],[-59.345833,50.595833],[-59.370833,50.5375],[-59.3625,50.520833],[-59.333333,50.525],[-59.325,50.5375],[-59.3125,50.5375],[-59.3125,50.545833],[-59.3,50.545833],[-59.291667,50.566667],[-59.3,50.575],[-59.3,50.591667],[-59.279167,50.591667],[-59.279167,50.6],[-59.295833,50.6125],[-59.295833,50.620833],[-59.325,50.616667],[-59.325,50.629167],[-59.304167,50.629167],[-59.304167,50.6375],[-59.3375,50.645833],[-59.320833,50.7],[-59.291667,50.691667],[-59.291667,50.683333],[-59.2625,50.683333],[-59.2625,50.691667],[-59.275,50.7],[-59.266667,50.708333],[-59.258333,50.683333],[-59.229167,50.679167],[-59.216667,50.6875],[-59.216667,50.7],[-59.208333,50.695833],[-59.2,50.716667],[-59.183333,50.7125],[-59.183333,50.725],[-59.195833,50.725],[-59.183333,50.7375],[-59.195833,50.754167],[-59.179167,50.754167],[-59.183333,50.741667],[-59.175,50.741667],[-59.1625,50.758333],[-59.154167,50.754167],[-59.179167,50.733333],[-59.1625,50.729167],[-59.1625,50.7125],[-59.154167,50.7125],[-59.15,50.725],[-59.133333,50.720833],[-59.133333,50.729167],[-59.120833,50.7375],[-59.1,50.7375],[-59.095833,50.729167],[-59.079167,50.725],[-59.095833,50.754167],[-59.095833,50.766667],[-59.083333,50.770833],[-59.075,50.766667],[-59.079167,50.75],[-59.054167,50.75],[-59.0125,50.733333],[-59.008333,50.745833],[-59.025,50.754167],[-59.025,50.7625],[-59.004167,50.7625],[-59.004167,50.775],[-58.9875,50.770833],[-58.983333,50.779167],[-58.991667,50.791667],[-58.979167,50.795833],[-58.966667,50.816667],[-58.95,50.8125],[-58.945833,50.829167],[-58.95,50.841667],[-58.966667,50.845833],[-58.970833,50.8375],[-58.975,50.866667],[-58.95,50.866667],[-58.95,50.8875],[-58.966667,50.8875],[-58.9625,50.904167],[-58.954167,50.908333],[-58.954167,50.920833],[-58.9625,50.925],[-58.954167,50.925],[-58.954167,50.945833],[-58.970833,50.95],[-58.966667,50.966667],[-58.954167,50.958333],[-58.945833,50.991667],[-58.958333,51.004167],[-58.979167,51.0],[-58.979167,51.008333],[-58.966667,51.008333],[-58.9625,51.020833],[-58.941667,51.029167],[-58.9375,51.041667],[-58.925,51.041667],[-58.933333,51.0375],[-58.9375,51.020833],[-58.925,51.016667],[-58.933333,50.9875],[-58.925,50.9875],[-58.920833,50.95],[-58.933333,50.945833],[-58.933333,50.9375],[-58.945833,50.941667],[-58.941667,50.933333],[-58.95,50.933333],[-58.95,50.916667],[-58.9375,50.916667],[-58.933333,50.933333],[-58.891667,50.929167],[-58.891667,50.9375],[-58.883333,50.9375],[-58.883333,50.9625],[-58.870833,50.945833],[-58.870833,50.970833],[-58.879167,50.975],[-58.883333,50.991667],[-58.875,51.0],[-58.866667,50.995833],[-58.866667,51.0125],[-58.85,51.0125],[-58.841667,51.020833],[-58.829167,51.016667],[-58.825,50.995833],[-58.833333,50.970833],[-58.825,50.970833],[-58.820833,50.995833],[-58.804167,50.983333],[-58.808333,51.020833],[-58.795833,51.0125],[-58.795833,51.0],[-58.7875,51.0],[-58.7875,51.0125],[-58.775,51.008333],[-58.770833,51.016667],[-58.770833,51.0375],[-58.754167,51.0375],[-58.754167,51.020833],[-58.745833,51.020833],[-58.741667,51.0375],[-58.708333,51.05],[-58.708333,51.058333],[-58.720833,51.058333],[-58.720833,51.075],[-58.695833,51.075],[-58.7,51.066667],[-58.691667,51.066667],[-58.691667,51.083333],[-58.679167,51.075],[-58.675,51.083333],[-58.683333,51.0875],[-58.675,51.095833],[-58.666667,51.079167],[-58.658333,51.079167],[-58.654167,51.0875],[-58.629167,51.095833],[-58.629167,51.108333],[-58.6,51.116667],[-58.6125,51.1],[-58.620833,51.1],[-58.620833,51.0875],[-58.633333,51.083333],[-58.633333,51.070833],[-58.654167,51.066667],[-58.675,51.05],[-58.666667,51.0375],[-58.645833,51.0375],[-58.641667,51.05],[-58.629167,51.045833],[-58.620833,51.054167],[-58.616667,51.075],[-58.625,51.079167],[-58.6,51.083333],[-58.6,51.070833],[-58.591667,51.070833],[-58.591667,51.079167],[-58.5625,51.0875],[-58.575,51.091667],[-58.575,51.104167],[-58.566667,51.1125],[-58.558333,51.108333],[-58.558333,51.120833],[-58.520833,51.108333],[-58.529167,51.125],[-58.508333,51.116667],[-58.504167,51.125],[-58.491667,51.120833],[-58.475,51.133333],[-58.466667,51.129167],[-58.45,51.154167],[-58.433333,51.158333],[-58.433333,51.166667],[-58.420833,51.15],[-58.404167,51.154167],[-58.408333,51.170833],[-58.420833,51.170833],[-58.420833,51.179167],[-58.441667,51.179167],[-58.441667,51.1875],[-58.416667,51.183333],[-58.4125,51.191667],[-58.4,51.1875],[-58.391667,51.195833],[-58.375,51.195833],[-58.375,51.204167],[-58.341667,51.191667],[-58.308333,51.216667],[-58.291667,51.216667],[-58.2875,51.229167],[-58.279167,51.229167],[-58.279167,51.241667],[-58.2875,51.241667],[-58.3,51.258333],[-58.279167,51.266667],[-58.283333,51.2875],[-58.2625,51.2875],[-58.266667,51.2625],[-58.254167,51.270833],[-58.254167,51.2625],[-58.225,51.2625],[-58.225,51.254167],[-58.2125,51.25],[-58.158333,51.283333],[-58.141667,51.275],[-58.1,51.291667],[-58.091667,51.2875],[-58.0875,51.295833],[-58.070833,51.291667],[-58.066667,51.304167],[-58.05,51.3],[-57.9875,51.3125],[-57.945833,51.345833],[-57.9375,51.345833],[-57.941667,51.333333],[-57.9125,51.3125],[-57.9,51.325],[-57.925,51.333333],[-57.933333,51.35],[-57.908333,51.354167],[-57.9125,51.341667],[-57.9,51.341667],[-57.9,51.3625],[-57.883333,51.370833],[-57.870833,51.3625],[-57.8375,51.366667],[-57.841667,51.383333],[-57.8375,51.4],[-57.825,51.404167],[-57.825,51.420833],[-57.8125,51.420833],[-57.816667,51.404167],[-57.808333,51.395833],[-57.783333,51.395833],[-57.770833,51.383333],[-57.775,51.370833],[-57.804167,51.379167],[-57.804167,51.358333],[-57.8125,51.354167],[-57.8,51.345833],[-57.770833,51.35],[-57.770833,51.3625],[-57.758333,51.366667],[-57.758333,51.391667],[-57.770833,51.391667],[-57.770833,51.4],[-57.75,51.404167],[-57.75,51.4125],[-57.770833,51.416667],[-57.7625,51.420833],[-57.7625,51.4375],[-57.754167,51.4375],[-57.758333,51.416667],[-57.7375,51.416667],[-57.729167,51.4],[-57.7125,51.404167],[-57.7125,51.395833],[-57.695833,51.408333],[-57.691667,51.395833],[-57.675,51.3875],[-57.675,51.375],[-57.666667,51.375],[-57.666667,51.383333],[-57.658333,51.383333],[-57.658333,51.4],[-57.65,51.395833],[-57.645833,51.404167],[-57.675,51.404167],[-57.6875,51.420833],[-57.675,51.416667],[-57.6625,51.429167],[-57.645833,51.420833],[-57.641667,51.404167],[-57.616667,51.4],[-57.6125,51.416667],[-57.595833,51.416667],[-57.566667,51.4375],[-57.558333,51.429167],[-57.529167,51.433333],[-57.529167,51.441667],[-57.520833,51.441667],[-57.516667,51.429167],[-57.5,51.433333],[-57.491667,51.4625],[-57.479167,51.433333],[-57.441667,51.4375],[-57.433333,51.454167],[-57.441667,51.458333],[-57.445833,51.479167],[-57.433333,51.479167],[-57.425,51.458333],[-57.4125,51.458333],[-57.408333,51.475],[-57.395833,51.479167],[-57.354167,51.479167],[-57.308333,51.491667],[-57.275,51.491667],[-57.275,51.483333],[-57.258333,51.483333],[-57.25,51.491667],[-57.241667,51.479167],[-57.25,51.458333],[-57.241667,51.454167],[-57.2375,51.4375],[-57.208333,51.429167],[-57.208333,51.408333],[-57.166667,51.404167],[-57.145833,51.420833],[-57.070833,51.4125],[-57.0625,51.425],[-57.058333,51.4125],[-56.970833,51.416667],[-56.95,51.425],[-56.941667,51.4375],[-56.941667,51.458333],[-56.954167,51.475],[-56.941667,51.479167],[-56.941667,51.4875],[-56.925,51.483333],[-56.916667,51.470833],[-56.875,51.475],[-56.875,51.458333],[-56.85,51.458333],[-56.820833,51.475],[-56.8125,51.495833],[-56.825,51.508333],[-56.825,51.520833],[-56.783333,51.520833],[-56.766667,51.533333],[-56.758333,51.558333],[-56.7125,51.570833],[-56.7,51.591667],[-56.7,51.629167],[-56.629167,51.629167],[-56.620833,51.6375],[-56.595833,51.633333],[-56.6,51.641667],[-56.558333,51.654167],[-56.545833,51.670833],[-56.508333,51.670833],[-56.504167,51.683333],[-56.441667,51.708333],[-56.45,51.720833],[-56.441667,51.725],[-56.420833,51.720833],[-56.4,51.725],[-56.4,51.733333],[-56.383333,51.729167],[-56.329167,51.745833],[-56.329167,51.766667],[-56.3375,51.766667],[-56.333333,51.775],[-56.283333,51.766667],[-56.258333,51.779167],[-56.216667,51.779167],[-56.2,51.7875],[-56.204167,51.808333],[-56.1875,51.804167],[-56.133333,51.833333],[-56.129167,51.85],[-56.091667,51.85],[-56.016667,51.9],[-55.9875,51.9],[-55.983333,51.908333],[-55.925,51.933333],[-55.904167,51.954167],[-55.8875,51.958333],[-55.8875,51.966667],[-55.895833,51.966667],[-55.891667,51.9875],[-55.916667,51.9875],[-55.958333,52.016667],[-55.995833,52.025],[-56.016667,52.008333],[-56.0375,52.008333],[-56.0625,51.975],[-56.083333,51.979167],[-56.0875,51.966667],[-56.1,51.9625],[-56.120833,51.9625],[-56.125,51.983333],[-56.133333,51.9875],[-56.2125,51.979167],[-56.2125,51.970833],[-56.25,51.966667],[-56.25,51.979167],[-56.2625,51.9875],[-56.25,51.995833],[-56.254167,52.025],[-56.241667,52.033333],[-56.220833,52.033333],[-56.216667,52.054167],[-56.1875,52.058333],[-56.183333,52.066667],[-56.2125,52.083333],[-56.2125,52.104167],[-56.220833,52.104167],[-56.225,52.116667],[-56.25,52.1125],[-56.25,52.120833],[-56.2625,52.125],[-56.266667,52.154167],[-56.295833,52.158333],[-56.304167,52.175],[-56.3375,52.166667],[-56.341667,52.15],[-56.358333,52.158333],[-56.408333,52.154167],[-56.429167,52.170833],[-56.458333,52.1625],[-56.470833,52.1875],[-56.4875,52.195833],[-56.483333,52.2125],[-56.491667,52.216667],[-56.558333,52.2125],[-56.5875,52.225],[-56.5875,52.216667],[-56.625,52.204167],[-56.6625,52.204167],[-56.675,52.216667],[-56.733333,52.220833],[-56.754167,52.229167],[-56.7625,52.241667],[-56.791667,52.2375],[-56.791667,52.254167],[-56.783333,52.258333],[-56.7875,52.270833],[-56.816667,52.270833],[-56.854167,52.254167],[-56.875,52.254167],[-56.854167,52.225],[-56.858333,52.2125],[-56.866667,52.216667],[-56.8625,52.195833],[-56.875,52.191667],[-56.875,52.170833],[-56.8625,52.166667],[-56.8625,52.158333],[-56.933333,52.145833],[-56.945833,52.154167],[-56.958333,52.145833],[-56.975,52.15],[-56.979167,52.129167],[-57.0,52.125],[-57.0125,52.133333],[-57.016667,52.125],[-57.054167,52.116667],[-57.058333,52.1],[-57.083333,52.104167],[-57.091667,52.0875],[-57.120833,52.083333],[-57.120833,52.066667],[-57.1875,52.066667],[-57.2,52.0625],[-57.2,52.054167],[-57.2125,52.0625],[-57.2125,52.075],[-57.225,52.0875],[-57.25,52.079167],[-57.258333,52.091667],[-57.291667,52.1],[-57.308333,52.091667],[-57.308333,52.070833],[-57.320833,52.066667],[-57.325,52.05],[-57.3625,52.054167],[-57.3625,52.0625],[-57.375,52.066667],[-57.4125,52.0625],[-57.4,52.033333],[-57.416667,52.029167],[-57.433333,52.0375],[-57.433333,52.05],[-57.45,52.066667],[-57.45,52.083333],[-57.433333,52.0875],[-57.425,52.1125],[-57.4125,52.108333],[-57.425,52.141667],[-57.45,52.15],[-57.45,52.166667],[-57.470833,52.1875],[-57.491667,52.191667],[-57.495833,52.208333],[-57.525,52.229167],[-57.525,52.2375],[-57.533333,52.2375],[-57.533333,52.245833],[-57.545833,52.245833],[-57.55,52.258333],[-57.558333,52.233333],[-57.575,52.229167],[-57.595833,52.245833],[-57.620833,52.245833],[-57.645833,52.258333],[-57.645833,52.2875],[-57.658333,52.283333],[-57.679167,52.291667],[-57.670833,52.3125],[-57.679167,52.3125],[-57.691667,52.345833],[-57.7375,52.3625],[-57.741667,52.404167],[-57.758333,52.429167],[-57.770833,52.429167],[-57.754167,52.441667],[-57.7375,52.475],[-57.770833,52.4875],[-57.775,52.504167],[-57.808333,52.508333],[-57.816667,52.516667],[-57.829167,52.508333],[-57.829167,52.475],[-57.8125,52.475],[-57.8125,52.466667],[-57.820833,52.466667],[-57.845833,52.441667],[-57.845833,52.433333],[-57.858333,52.429167],[-57.845833,52.404167],[-57.870833,52.408333],[-57.879167,52.420833],[-57.925,52.416667],[-57.945833,52.429167],[-57.979167,52.425],[-57.979167,52.445833],[-58.0,52.458333],[-58.004167,52.470833],[-58.029167,52.466667],[-58.0375,52.495833],[-58.05,52.495833],[-58.041667,52.508333],[-58.05,52.516667],[-58.083333,52.520833],[-58.079167,52.554167],[-58.0875,52.558333],[-58.0875,52.570833],[-58.125,52.566667],[-58.133333,52.579167],[-58.170833,52.583333],[-58.179167,52.595833],[-58.191667,52.595833],[-58.191667,52.604167],[-58.25,52.6125],[-58.245833,52.633333],[-58.258333,52.641667],[-58.283333,52.641667],[-58.283333,52.658333],[-58.3,52.6625],[-58.3,52.675],[-58.308333,52.675],[-58.316667,52.691667],[-58.379167,52.695833],[-58.3875,52.716667],[-58.425,52.716667],[-58.4375,52.704167],[-58.454167,52.704167],[-58.45,52.691667],[-58.4375,52.6875],[-58.4375,52.666667],[-58.45,52.6625],[-58.45,52.654167],[-58.520833,52.658333],[-58.533333,52.645833],[-58.570833,52.65],[-58.575,52.6375],[-58.541667,52.608333],[-58.541667,52.591667],[-58.533333,52.591667],[-58.529167,52.579167],[-58.5625,52.579167],[-58.570833,52.570833],[-58.5875,52.570833],[-58.591667,52.5625],[-58.6125,52.570833],[-58.6125,52.579167],[-58.620833,52.5625],[-58.645833,52.575],[-58.6625,52.558333],[-58.675,52.566667],[-58.675,52.541667],[-58.683333,52.533333],[-58.675,52.529167],[-58.670833,52.5125],[-58.658333,52.5125],[-58.654167,52.5],[-58.645833,52.5],[-58.645833,52.4875],[-58.6375,52.483333],[-58.65,52.458333],[-58.666667,52.458333],[-58.683333,52.479167],[-58.7,52.479167],[-58.708333,52.466667],[-58.729167,52.483333],[-58.7875,52.479167],[-58.8125,52.491667],[-58.8125,52.504167],[-58.841667,52.508333],[-58.845833,52.495833],[-58.8375,52.475],[-58.85,52.4625],[-58.8875,52.466667],[-58.8875,52.475],[-58.9,52.479167],[-58.920833,52.479167],[-58.929167,52.470833],[-58.945833,52.4875],[-58.979167,52.458333],[-58.979167,52.475],[-58.995833,52.4875],[-58.991667,52.504167],[-59.020833,52.5125],[-59.025,52.5375],[-59.091667,52.541667],[-59.095833,52.529167],[-59.15,52.520833],[-59.158333,52.545833],[-59.195833,52.55],[-59.195833,52.566667],[-59.216667,52.566667],[-59.220833,52.591667],[-59.25,52.6],[-59.25,52.591667],[-59.270833,52.579167],[-59.291667,52.616667],[-59.308333,52.616667],[-59.308333,52.629167],[-59.383333,52.604167],[-59.425,52.6125],[-59.425,52.625],[-59.466667,52.625],[-59.475,52.6125],[-59.495833,52.620833],[-59.520833,52.604167],[-59.5125,52.591667],[-59.516667,52.5625],[-59.554167,52.558333],[-59.570833,52.566667],[-59.566667,52.579167],[-59.579167,52.583333],[-59.583333,52.595833],[-59.595833,52.595833],[-59.591667,52.608333],[-59.604167,52.625],[-59.645833,52.625],[-59.65,52.645833],[-59.654167,52.6375],[-59.675,52.6375],[-59.683333,52.6625],[-59.7,52.666667],[-59.708333,52.679167],[-59.758333,52.683333],[-59.7625,52.666667],[-59.8125,52.675],[-59.816667,52.6625],[-59.8375,52.658333],[-59.8375,52.641667],[-59.85,52.625],[-59.891667,52.633333],[-59.891667,52.645833],[-59.9,52.65],[-59.916667,52.645833],[-59.916667,52.629167],[-59.908333,52.633333],[-59.9,52.616667],[-59.879167,52.608333],[-59.841667,52.608333],[-59.841667,52.575],[-59.833333,52.5625],[-59.8375,52.545833],[-59.879167,52.558333],[-59.879167,52.566667],[-59.908333,52.566667],[-59.9125,52.55],[-59.9375,52.545833],[-59.9625,52.558333],[-59.975,52.575],[-60.0,52.554167],[-59.9875,52.5375],[-59.945833,52.525],[-59.945833,52.516667],[-59.966667,52.516667],[-59.966667,52.5],[-60.033333,52.504167],[-60.05,52.508333],[-60.054167,52.516667],[-60.0875,52.5125],[-60.091667,52.5],[-60.1375,52.4875],[-60.1375,52.479167],[-60.15,52.483333],[-60.1625,52.475],[-60.2125,52.470833],[-60.2125,52.433333],[-60.25,52.433333],[-60.266667,52.4375],[-60.270833,52.445833],[-60.304167,52.445833],[-60.3125,52.454167],[-60.320833,52.454167],[-60.325,52.441667],[-60.379167,52.441667],[-60.3875,52.45],[-60.45,52.458333],[-60.470833,52.454167],[-60.483333,52.466667],[-60.5,52.466667],[-60.504167,52.441667],[-60.55,52.4375],[-60.554167,52.425],[-60.5625,52.425],[-60.5625,52.4125],[-60.5875,52.4125],[-60.5875,52.404167],[-60.604167,52.4],[-60.608333,52.391667],[-60.6,52.370833],[-60.583333,52.366667],[-60.583333,52.354167],[-60.566667,52.354167],[-60.554167,52.341667],[-60.5125,52.341667],[-60.508333,52.320833],[-60.533333,52.325],[-60.5375,52.3],[-60.566667,52.304167],[-60.583333,52.316667],[-60.645833,52.3125],[-60.645833,52.3],[-60.658333,52.3],[-60.6625,52.308333],[-60.679167,52.308333],[-60.6875,52.320833],[-60.708333,52.320833],[-60.754167,52.35],[-60.779167,52.345833],[-60.783333,52.354167],[-60.8,52.354167],[-60.8125,52.345833],[-60.85,52.341667],[-60.845833,52.358333],[-60.8875,52.354167],[-60.991667,52.379167],[-61.033333,52.4125],[-61.033333,52.425],[-61.041667,52.425],[-61.05,52.441667],[-61.0875,52.441667],[-61.095833,52.466667],[-61.1375,52.4625],[-61.15,52.495833],[-61.1625,52.5],[-61.191667,52.495833],[-61.216667,52.508333],[-61.25,52.508333],[-61.25,52.5],[-61.258333,52.5],[-61.266667,52.508333],[-61.3,52.5125],[-61.304167,52.495833],[-61.3125,52.495833],[-61.3375,52.504167],[-61.3375,52.516667],[-61.375,52.516667],[-61.420833,52.529167],[-61.458333,52.525],[-61.458333,52.533333],[-61.479167,52.529167],[-61.495833,52.545833],[-61.525,52.545833],[-61.5625,52.558333],[-61.566667,52.566667],[-61.583333,52.566667],[-61.591667,52.554167],[-61.604167,52.554167],[-61.608333,52.5625],[-61.633333,52.558333],[-61.6375,52.570833],[-61.716667,52.575],[-61.7125,52.591667],[-61.729167,52.591667],[-61.741667,52.616667],[-61.7875,52.616667],[-61.829167,52.629167],[-61.858333,52.629167],[-61.870833,52.641667],[-61.8875,52.641667],[-61.883333,52.654167],[-61.891667,52.658333],[-61.8875,52.679167],[-61.895833,52.691667],[-61.958333,52.691667],[-61.958333,52.7125],[-61.95,52.725],[-61.970833,52.7375],[-61.979167,52.725],[-61.991667,52.725],[-62.020833,52.733333],[-62.033333,52.745833],[-62.083333,52.754167],[-62.091667,52.766667],[-62.141667,52.779167],[-62.158333,52.775],[-62.158333,52.7625],[-62.179167,52.758333],[-62.183333,52.745833],[-62.204167,52.733333],[-62.233333,52.7375],[-62.254167,52.754167],[-62.295833,52.75],[-62.3,52.7375],[-62.3125,52.7375],[-62.320833,52.745833],[-62.3625,52.75],[-62.420833,52.775],[-62.445833,52.775],[-62.470833,52.783333],[-62.470833,52.808333],[-62.5,52.816667],[-62.5,52.829167],[-62.479167,52.829167],[-62.475,52.845833],[-62.5,52.854167],[-62.495833,52.879167],[-62.516667,52.879167],[-62.5125,52.891667],[-62.520833,52.895833],[-62.525,52.916667],[-62.558333,52.9125],[-62.558333,52.883333],[-62.575,52.883333],[-62.575,52.895833],[-62.591667,52.895833],[-62.595833,52.9125],[-62.6125,52.916667],[-62.616667,52.929167],[-62.6375,52.929167],[-62.6375,52.9375],[-62.675,52.929167],[-62.7,52.9375],[-62.708333,52.920833],[-62.716667,52.920833],[-62.720833,52.9],[-62.695833,52.8875],[-62.670833,52.8875],[-62.670833,52.879167],[-62.704167,52.870833],[-62.704167,52.8625],[-62.6625,52.858333],[-62.658333,52.8375],[-62.629167,52.833333],[-62.629167,52.816667],[-62.620833,52.8125],[-62.620833,52.8],[-62.65,52.8],[-62.666667,52.808333],[-62.679167,52.804167],[-62.675,52.779167],[-62.691667,52.775],[-62.691667,52.7625],[-62.733333,52.783333],[-62.745833,52.775],[-62.770833,52.775],[-62.779167,52.779167],[-62.779167,52.791667],[-62.795833,52.8],[-62.820833,52.8],[-62.825,52.791667],[-62.845833,52.8],[-62.879167,52.8],[-62.879167,52.791667],[-62.925,52.791667],[-62.9375,52.8],[-62.941667,52.7875],[-62.933333,52.783333],[-62.933333,52.7625],[-62.975,52.7625],[-62.979167,52.770833],[-63.0,52.775],[-63.008333,52.766667],[-63.033333,52.766667],[-63.05,52.770833],[-63.070833,52.795833],[-63.104167,52.7875],[-63.125,52.808333],[-63.145833,52.808333],[-63.145833,52.8],[-63.158333,52.8],[-63.158333,52.783333],[-63.183333,52.770833],[-63.195833,52.741667],[-63.208333,52.745833],[-63.229167,52.733333],[-63.229167,52.720833],[-63.245833,52.720833],[-63.2625,52.7375],[-63.275,52.7375],[-63.2875,52.758333],[-63.308333,52.766667],[-63.3,52.791667],[-63.316667,52.808333],[-63.316667,52.820833],[-63.345833,52.825],[-63.354167,52.8375],[-63.383333,52.833333],[-63.383333,52.858333],[-63.391667,52.858333],[-63.4,52.879167],[-63.416667,52.883333],[-63.416667,52.891667],[-63.458333,52.883333],[-63.470833,52.895833],[-63.470833,52.916667],[-63.445833,52.933333],[-63.45,52.941667],[-63.483333,52.941667],[-63.4875,52.95],[-63.5125,52.958333],[-63.516667,52.95],[-63.541667,52.95],[-63.55,52.9375],[-63.566667,52.941667],[-63.570833,52.95],[-63.5875,52.95],[-63.5875,52.925],[-63.6,52.925],[-63.608333,52.908333],[-63.6,52.8875],[-63.604167,52.879167],[-63.625,52.875],[-63.620833,52.858333],[-63.608333,52.854167],[-63.608333,52.841667],[-63.641667,52.845833],[-63.645833,52.820833],[-63.658333,52.804167],[-63.695833,52.8125],[-63.7,52.795833],[-63.7125,52.804167],[-63.720833,52.775],[-63.766667,52.775],[-63.7875,52.766667],[-63.85,52.770833],[-63.858333,52.7625],[-63.904167,52.766667],[-63.904167,52.758333],[-63.920833,52.754167],[-63.925,52.7125],[-63.933333,52.708333],[-63.970833,52.7125],[-63.975,52.725],[-63.991667,52.725],[-64.0,52.7375],[-64.0375,52.741667],[-64.0375,52.725],[-64.054167,52.725],[-64.104167,52.75],[-64.1125,52.75],[-64.1125,52.733333],[-64.129167,52.733333],[-64.133333,52.720833],[-64.141667,52.720833],[-64.125,52.695833],[-64.125,52.683333],[-64.141667,52.683333],[-64.145833,52.675],[-64.170833,52.679167],[-64.170833,52.6625],[-64.158333,52.6625],[-64.154167,52.654167],[-64.154167,52.6375],[-64.1625,52.633333],[-64.1625,52.6],[-64.170833,52.5875],[-64.179167,52.5875],[-64.2,52.6],[-64.2,52.5875],[-64.216667,52.583333],[-64.216667,52.575],[-64.204167,52.566667],[-64.2,52.541667],[-64.158333,52.525],[-64.154167,52.508333],[-64.1625,52.504167],[-64.1625,52.4875],[-64.170833,52.479167],[-64.1625,52.479167],[-64.158333,52.4625],[-64.1375,52.45],[-64.129167,52.4375],[-64.133333,52.420833],[-64.116667,52.416667],[-64.116667,52.404167],[-64.1375,52.379167],[-64.141667,52.358333],[-64.1625,52.366667],[-64.1625,52.345833],[-64.175,52.333333],[-64.170833,52.308333],[-64.191667,52.304167],[-64.2,52.2875],[-64.2125,52.283333],[-64.241667,52.295833],[-64.241667,52.279167],[-64.25,52.279167],[-64.25,52.266667],[-64.229167,52.258333],[-64.229167,52.229167],[-64.208333,52.204167],[-64.208333,52.183333],[-64.195833,52.179167],[-64.191667,52.166667],[-64.183333,52.166667],[-64.183333,52.158333],[-64.166667,52.145833],[-64.166667,52.125],[-64.179167,52.120833],[-64.1875,52.129167],[-64.208333,52.129167],[-64.233333,52.15],[-64.258333,52.15],[-64.25,52.141667],[-64.245833,52.1],[-64.258333,52.1],[-64.254167,52.083333],[-64.275,52.083333],[-64.291667,52.070833],[-64.270833,52.045833],[-64.279167,52.0125],[-64.258333,52.0125],[-64.25,51.9875],[-64.2625,51.979167],[-64.295833,51.979167],[-64.316667,51.995833],[-64.316667,52.004167],[-64.341667,52.008333],[-64.354167,52.004167],[-64.345833,51.995833],[-64.35,51.979167],[-64.3625,51.979167],[-64.3625,51.9625],[-64.35,51.9625],[-64.341667,51.95],[-64.354167,51.920833],[-64.345833,51.908333],[-64.354167,51.8875],[-64.354167,51.841667],[-64.341667,51.8375],[-64.329167,51.808333],[-64.304167,51.808333],[-64.308333,51.758333],[-64.295833,51.741667],[-64.283333,51.741667],[-64.283333,51.733333],[-64.329167,51.695833],[-64.329167,51.675],[-64.345833,51.6625],[-64.354167,51.670833],[-64.391667,51.6625],[-64.4125,51.675],[-64.429167,51.675],[-64.4375,51.666667],[-64.4375,51.65],[-64.454167,51.641667],[-64.454167,51.629167],[-64.4625,51.629167],[-64.479167,51.608333],[-64.516667,51.608333],[-64.516667,51.591667],[-64.533333,51.591667],[-64.554167,51.579167],[-64.558333,51.591667],[-64.570833,51.591667],[-64.575,51.608333],[-64.591667,51.616667],[-64.595833,51.6375],[-64.625,51.641667],[-64.616667,51.654167],[-64.616667,51.675],[-64.629167,51.675],[-64.6375,51.704167],[-64.6625,51.691667],[-64.670833,51.7375],[-64.704167,51.7375],[-64.704167,51.758333],[-64.733333,51.754167],[-64.733333,51.766667],[-64.75,51.758333],[-64.7625,51.766667],[-64.791667,51.7625],[-64.8,51.775],[-64.829167,51.779167],[-64.858333,51.766667],[-64.870833,51.775],[-64.933333,51.779167],[-64.9375,51.7625],[-64.920833,51.7625],[-64.929167,51.741667],[-64.920833,51.741667],[-64.920833,51.725],[-64.925,51.716667],[-64.945833,51.720833],[-64.966667,51.7125],[-64.970833,51.725],[-65.0,51.745833],[-64.995833,51.758333],[-65.0125,51.766667],[-65.0625,51.770833],[-65.070833,51.754167],[-65.0875,51.745833],[-65.158333,51.7625],[-65.1625,51.770833],[-65.183333,51.766667],[-65.1875,51.775],[-65.1625,51.783333],[-65.170833,51.825],[-65.183333,51.816667],[-65.204167,51.820833],[-65.204167,51.8125],[-65.216667,51.820833],[-65.2375,51.820833],[-65.2375,51.829167],[-65.25,51.829167],[-65.25,51.858333],[-65.266667,51.8625],[-65.270833,51.875],[-65.316667,51.870833],[-65.320833,51.858333],[-65.3125,51.841667],[-65.341667,51.820833],[-65.375,51.825],[-65.375,51.841667],[-65.395833,51.870833],[-65.395833,51.9],[-65.3875,51.9125],[-65.358333,51.916667],[-65.345833,51.9375],[-65.345833,51.945833],[-65.354167,51.945833],[-65.358333,51.9875],[-65.3625,51.979167],[-65.375,51.979167],[-65.379167,51.966667],[-65.404167,51.966667],[-65.408333,51.991667],[-65.425,52.0125],[-65.433333,52.004167],[-65.454167,52.008333],[-65.466667,52.033333],[-65.4875,52.05],[-65.483333,52.058333],[-65.491667,52.058333],[-65.483333,52.104167],[-65.491667,52.1125],[-65.508333,52.108333],[-65.55,52.0375],[-65.595833,52.0375],[-65.604167,52.045833],[-65.620833,52.041667],[-65.620833,52.020833],[-65.629167,52.020833],[-65.641667,51.991667],[-65.666667,52.0],[-65.670833,52.008333],[-65.6625,52.041667],[-65.641667,52.058333],[-65.65,52.066667],[-65.645833,52.079167],[-65.654167,52.083333],[-65.658333,52.108333],[-65.679167,52.1125],[-65.683333,52.120833],[-65.733333,52.120833],[-65.7375,52.1125],[-65.766667,52.116667],[-65.770833,52.108333],[-65.795833,52.108333],[-65.804167,52.1125],[-65.8,52.125],[-65.808333,52.125],[-65.816667,52.116667],[-65.841667,52.116667],[-65.841667,52.108333],[-65.875,52.1125],[-65.8875,52.079167],[-65.908333,52.083333],[-65.9125,52.091667],[-65.9375,52.091667],[-65.941667,52.1],[-65.966667,52.108333],[-65.970833,52.083333],[-65.9625,52.083333],[-65.9625,52.075],[-65.970833,52.075],[-65.970833,52.054167],[-65.9875,52.054167],[-66.0,52.070833],[-66.0125,52.070833],[-66.0125,52.0875],[-66.033333,52.083333],[-66.054167,52.0875],[-66.066667,52.1],[-66.091667,52.1],[-66.0875,52.125],[-66.108333,52.133333],[-66.120833,52.166667],[-66.129167,52.170833],[-66.129167,52.216667],[-66.145833,52.225],[-66.145833,52.233333],[-66.1625,52.233333],[-66.166667,52.216667],[-66.183333,52.216667],[-66.183333,52.229167],[-66.2,52.233333],[-66.216667,52.2625],[-66.229167,52.2625],[-66.25,52.279167],[-66.241667,52.3],[-66.25,52.304167],[-66.279167,52.295833],[-66.283333,52.2875],[-66.3125,52.291667],[-66.3,52.233333],[-66.291667,52.229167],[-66.2875,52.1875],[-66.275,52.179167],[-66.270833,52.15],[-66.3125,52.1375],[-66.354167,52.1375],[-66.358333,52.145833],[-66.370833,52.145833],[-66.379167,52.154167],[-66.366667,52.166667],[-66.366667,52.1875],[-66.375,52.2],[-66.391667,52.216667],[-66.429167,52.2125],[-66.4625,52.254167],[-66.475,52.254167],[-66.475,52.279167],[-66.4625,52.283333],[-66.458333,52.295833],[-66.470833,52.295833],[-66.479167,52.308333],[-66.4875,52.320833],[-66.483333,52.3375],[-66.491667,52.345833],[-66.479167,52.354167],[-66.445833,52.354167],[-66.445833,52.375],[-66.395833,52.375],[-66.375,52.354167],[-66.35,52.35],[-66.329167,52.375],[-66.366667,52.408333],[-66.358333,52.4375],[-66.379167,52.475],[-66.379167,52.5125],[-66.395833,52.529167],[-66.379167,52.5375],[-66.379167,52.55],[-66.408333,52.583333],[-66.408333,52.595833],[-66.425,52.604167],[-66.425,52.616667],[-66.45,52.633333],[-66.441667,52.645833],[-66.45,52.658333],[-66.4375,52.666667],[-66.391667,52.666667],[-66.3625,52.6375],[-66.3625,52.629167],[-66.320833,52.6125],[-66.316667,52.604167],[-66.2875,52.6],[-66.279167,52.6125],[-66.2875,52.629167],[-66.283333,52.6375],[-66.291667,52.6375],[-66.291667,52.65],[-66.308333,52.658333],[-66.308333,52.670833],[-66.320833,52.679167],[-66.320833,52.695833],[-66.333333,52.704167],[-66.3125,52.729167],[-66.333333,52.75],[-66.3375,52.770833],[-66.370833,52.8],[-66.379167,52.816667],[-66.4,52.829167],[-66.416667,52.870833],[-66.416667,52.879167],[-66.404167,52.8875],[-66.383333,52.870833],[-66.329167,52.8625],[-66.3,52.8375],[-66.291667,52.8375],[-66.279167,52.858333],[-66.258333,52.8625],[-66.283333,52.9125],[-66.3,52.916667],[-66.316667,52.933333],[-66.316667,52.95],[-66.325,52.958333],[-66.320833,52.970833],[-66.3375,52.983333],[-66.35,53.025],[-66.370833,53.025],[-66.370833,53.0125],[-66.395833,53.0125],[-66.425,53.045833],[-66.4375,53.045833],[-66.441667,53.0375],[-66.454167,53.041667],[-66.454167,53.033333],[-66.475,53.041667],[-66.466667,53.0],[-66.475,52.991667],[-66.4875,52.991667],[-66.491667,53.0],[-66.504167,52.995833],[-66.508333,52.983333],[-66.495833,52.975],[-66.495833,52.95],[-66.504167,52.95],[-66.508333,52.9375],[-66.5375,52.945833],[-66.541667,52.9375],[-66.583333,52.9375],[-66.6,52.945833],[-66.604167,52.958333],[-66.633333,52.954167],[-66.629167,52.925],[-66.645833,52.925],[-66.6375,52.895833],[-66.654167,52.883333],[-66.654167,52.858333],[-66.645833,52.85],[-66.6625,52.833333],[-66.666667,52.808333],[-66.65,52.7875],[-66.666667,52.783333],[-66.666667,52.791667],[-66.675,52.791667],[-66.6875,52.783333],[-66.6875,52.7625],[-66.720833,52.7625],[-66.729167,52.770833],[-66.75,52.770833],[-66.779167,52.791667],[-66.758333,52.7625],[-66.754167,52.7125],[-66.745833,52.708333],[-66.75,52.7],[-66.766667,52.7],[-66.766667,52.6875],[-66.758333,52.683333],[-66.7625,52.666667],[-66.7875,52.666667],[-66.795833,52.683333],[-66.804167,52.683333],[-66.8125,52.7125],[-66.829167,52.720833],[-66.833333,52.745833],[-66.845833,52.754167],[-66.858333,52.754167],[-66.858333,52.691667],[-66.85,52.679167],[-66.8625,52.675],[-66.9,52.679167],[-66.9,52.691667],[-66.920833,52.7125],[-66.929167,52.733333],[-66.945833,52.741667],[-66.95,52.775],[-66.970833,52.775],[-66.970833,52.754167],[-67.0,52.758333],[-67.016667,52.745833],[-67.033333,52.75],[-67.041667,52.775],[-67.066667,52.775],[-67.0625,52.791667],[-67.054167,52.795833],[-67.0625,52.833333],[-67.05,52.8375],[-67.058333,52.875],[-67.083333,52.875],[-67.120833,52.854167],[-67.15,52.854167],[-67.158333,52.845833],[-67.154167,52.829167],[-67.195833,52.8375],[-67.245833,52.820833],[-67.254167,52.829167],[-67.308333,52.825],[-67.316667,52.833333],[-67.320833,52.820833],[-67.341667,52.820833],[-67.358333,52.8375],[-67.3875,52.8375],[-67.3875,52.85],[-67.404167,52.845833],[-67.404167,52.854167],[-67.429167,52.854167],[-67.433333,52.866667],[-67.441667,52.866667],[-67.445833,52.879167],[-67.475,52.9],[-67.4625,52.920833],[-67.475,52.920833],[-67.483333,52.954167],[-67.508333,52.9625],[-67.55,53.016667],[-67.575,53.016667],[-67.575,53.008333],[-67.5875,53.0],[-67.629167,53.004167],[-67.633333,52.983333],[-67.608333,52.970833],[-67.620833,52.958333],[-67.620833,52.925],[-67.716667,52.925],[-67.729167,52.920833],[-67.7375,52.883333],[-67.775,52.8875],[-67.775,52.870833],[-67.754167,52.8625],[-67.758333,52.841667],[-67.745833,52.825],[-67.75,52.808333],[-67.733333,52.808333],[-67.733333,52.783333],[-67.716667,52.775],[-67.691667,52.7875],[-67.7,52.758333],[-67.7125,52.758333],[-67.7125,52.741667],[-67.7,52.733333],[-67.704167,52.695833],[-67.654167,52.683333],[-67.629167,52.666667],[-67.595833,52.6625],[-67.6,52.645833],[-67.591667,52.6375],[-67.591667,52.608333],[-67.608333,52.6125],[-67.6125,52.620833],[-67.641667,52.620833],[-67.645833,52.591667],[-67.675,52.591667],[-67.695833,52.6125],[-67.725,52.608333],[-67.708333,52.558333],[-67.725,52.545833],[-67.725,52.533333],[-67.716667,52.5125],[-67.704167,52.5125],[-67.708333,52.495833],[-67.729167,52.504167],[-67.75,52.5],[-67.754167,52.5125],[-67.8,52.508333],[-67.8,52.516667],[-67.8125,52.516667],[-67.8125,52.525],[-67.841667,52.516667],[-67.8625,52.541667],[-67.9,52.533333],[-67.908333,52.5625],[-67.9625,52.579167],[-67.983333,52.575],[-67.975,52.541667],[-67.991667,52.5375],[-68.008333,52.516667],[-68.0375,52.5125],[-68.0625,52.491667],[-68.079167,52.491667],[-68.0875,52.525],[-68.104167,52.520833],[-68.120833,52.529167],[-68.129167,52.55],[-68.1375,52.545833],[-68.1375,52.533333],[-68.158333,52.533333],[-68.1625,52.545833],[-68.179167,52.55],[-68.241667,52.554167],[-68.2375,52.575],[-68.258333,52.6125],[-68.25,52.625],[-68.3,52.620833],[-68.333333,52.633333],[-68.354167,52.6625],[-68.354167,52.683333],[-68.370833,52.7],[-68.3875,52.7],[-68.395833,52.716667],[-68.420833,52.733333],[-68.45,52.725],[-68.445833,52.704167],[-68.454167,52.6875],[-68.466667,52.6875],[-68.466667,52.675],[-68.5,52.675],[-68.516667,52.7],[-68.558333,52.7],[-68.566667,52.695833],[-68.566667,52.675],[-68.583333,52.670833],[-68.591667,52.658333],[-68.620833,52.6625],[-68.6625,52.654167],[-68.6625,52.6875],[-68.683333,52.7125],[-68.729167,52.708333],[-68.733333,52.720833],[-68.7625,52.725],[-68.775,52.741667],[-68.808333,52.7375],[-68.841667,52.7625],[-68.858333,52.733333],[-68.883333,52.7375],[-68.883333,52.720833],[-68.929167,52.725],[-68.933333,52.758333],[-68.941667,52.758333],[-68.945833,52.733333],[-68.966667,52.7375],[-68.983333,52.725],[-68.983333,52.7375],[-68.995833,52.7375],[-69.0,52.745833],[-68.991667,52.775],[-69.025,52.770833],[-69.025,52.741667],[-69.05,52.7375],[-69.058333,52.720833],[-69.066667,52.720833],[-69.066667,52.704167],[-69.108333,52.704167],[-69.108333,52.641667],[-69.1125,52.65],[-69.145833,52.65],[-69.15,52.6375],[-69.175,52.6375],[-69.195833,52.604167],[-69.245833,52.604167],[-69.245833,52.579167],[-69.2625,52.566667],[-69.295833,52.566667],[-69.304167,52.525],[-69.316667,52.525],[-69.320833,52.533333],[-69.333333,52.533333],[-69.333333,52.541667],[-69.358333,52.533333],[-69.366667,52.541667],[-69.35,52.566667],[-69.358333,52.604167],[-69.35,52.6125],[-69.375,52.620833],[-69.366667,52.641667],[-69.3375,52.65],[-69.3375,52.675],[-69.358333,52.679167],[-69.3625,52.691667],[-69.379167,52.6875],[-69.379167,52.695833],[-69.35,52.708333],[-69.3375,52.720833],[-69.345833,52.741667],[-69.320833,52.741667],[-69.316667,52.758333],[-69.3,52.7625],[-69.291667,52.75],[-69.2625,52.75],[-69.2625,52.7875],[-69.245833,52.8],[-69.233333,52.841667],[-69.2375,52.854167],[-69.254167,52.858333],[-69.245833,52.8875],[-69.258333,52.895833],[-69.2875,52.895833],[-69.295833,52.883333],[-69.304167,52.883333],[-69.304167,52.8375],[-69.316667,52.8375],[-69.316667,52.820833],[-69.341667,52.825],[-69.354167,52.808333],[-69.383333,52.829167],[-69.3875,52.858333],[-69.370833,52.875],[-69.358333,52.875],[-69.345833,52.908333],[-69.3375,52.908333],[-69.345833,52.920833],[-69.3625,52.925],[-69.341667,52.941667],[-69.3375,52.954167],[-69.345833,52.9625],[-69.316667,52.9875],[-69.3125,53.008333],[-69.3,53.0125],[-69.291667,53.004167],[-69.270833,53.004167],[-69.254167,53.020833],[-69.2375,53.05],[-69.241667,53.083333],[-69.291667,53.095833],[-69.304167,53.0875],[-69.329167,53.0875],[-69.3375,53.079167],[-69.3375,53.05],[-69.379167,53.054167],[-69.383333,53.0625],[-69.4,53.066667],[-69.4125,53.05],[-69.433333,53.05],[-69.433333,53.075],[-69.441667,53.079167],[-69.479167,53.079167],[-69.5,53.095833],[-69.525,53.1],[-69.554167,53.095833],[-69.5625,53.108333],[-69.579167,53.1125],[-69.566667,53.1375],[-69.575,53.145833],[-69.616667,53.1375],[-69.620833,53.145833],[-69.633333,53.145833],[-69.65,53.125],[-69.6625,53.125],[-69.683333,53.15],[-69.679167,53.1125],[-69.666667,53.108333],[-69.666667,53.1],[-69.645833,53.1],[-69.645833,53.0875],[-69.6375,53.0875],[-69.6375,53.079167],[-69.6625,53.070833],[-69.6625,53.058333],[-69.675,53.054167],[-69.675,53.045833],[-69.691667,53.045833],[-69.7,53.0375],[-69.7125,53.045833],[-69.7125,53.058333],[-69.729167,53.058333],[-69.733333,53.066667],[-69.779167,53.0625],[-69.783333,53.079167],[-69.816667,53.079167],[-69.825,53.054167],[-69.85,53.05],[-69.85,53.033333],[-69.879167,53.025],[-69.875,52.983333],[-69.8875,52.979167],[-69.883333,52.966667],[-69.904167,52.954167],[-69.925,52.954167],[-69.929167,52.9625],[-69.958333,52.966667],[-69.95,52.929167],[-69.9625,52.916667],[-69.9875,52.9],[-70.0125,52.904167],[-70.016667,52.883333],[-70.054167,52.875],[-70.058333,52.858333],[-70.1,52.845833],[-70.091667,52.825],[-70.104167,52.816667],[-70.129167,52.820833],[-70.133333,52.8125],[-70.120833,52.8],[-70.133333,52.8],[-70.1375,52.783333],[-70.154167,52.779167],[-70.158333,52.7625],[-70.145833,52.758333],[-70.145833,52.741667],[-70.166667,52.720833],[-70.195833,52.725],[-70.208333,52.708333],[-70.229167,52.7],[-70.225,52.6875],[-70.195833,52.691667],[-70.195833,52.670833],[-70.225,52.654167],[-70.225,52.629167],[-70.1875,52.616667],[-70.175,52.595833],[-70.204167,52.604167],[-70.2125,52.583333],[-70.225,52.583333],[-70.229167,52.570833],[-70.2375,52.570833],[-70.233333,52.55],[-70.2125,52.554167],[-70.2125,52.541667],[-70.191667,52.533333],[-70.191667,52.508333],[-70.208333,52.5],[-70.2125,52.458333],[-70.25,52.458333],[-70.275,52.433333],[-70.270833,52.408333],[-70.258333,52.4],[-70.266667,52.3875],[-70.2625,52.370833],[-70.270833,52.3625],[-70.308333,52.345833],[-70.3875,52.3375],[-70.391667,52.325],[-70.425,52.329167],[-70.458333,52.316667],[-70.495833,52.3],[-70.520833,52.279167],[-70.6375,52.241667],[-70.704167,52.195833],[-70.704167,52.183333],[-70.691667,52.179167],[-70.683333,52.158333],[-70.6625,52.1625],[-70.6625,52.145833],[-70.6875,52.125],[-70.708333,52.125],[-70.708333,52.079167],[-70.695833,52.075],[-70.695833,52.0875],[-70.629167,52.0875],[-70.620833,52.075],[-70.641667,52.058333],[-70.6625,52.054167],[-70.670833,52.0375],[-70.704167,52.020833],[-70.704167,52.0],[-70.683333,52.0],[-70.666667,51.941667],[-70.6375,51.9375],[-70.6375,51.9125],[-70.6625,51.908333],[-70.666667,51.9],[-70.666667,51.8875],[-70.641667,51.8875],[-70.641667,51.8625],[-70.6625,51.845833],[-70.6625,51.833333],[-70.683333,51.833333],[-70.725,51.804167],[-70.720833,51.783333],[-70.729167,51.770833],[-70.720833,51.7625],[-70.720833,51.7375],[-70.683333,51.75],[-70.666667,51.729167],[-70.654167,51.729167],[-70.641667,51.75],[-70.620833,51.754167],[-70.604167,51.745833],[-70.604167,51.733333],[-70.570833,51.725],[-70.545833,51.729167],[-70.545833,51.754167],[-70.5125,51.754167],[-70.529167,51.675],[-70.479167,51.675],[-70.458333,51.6375],[-70.4375,51.641667],[-70.433333,51.620833],[-70.420833,51.620833],[-70.416667,51.6125],[-70.4375,51.591667],[-70.416667,51.583333],[-70.416667,51.570833],[-70.420833,51.558333],[-70.458333,51.55],[-70.4875,51.516667],[-70.4875,51.504167],[-70.495833,51.504167],[-70.5125,51.483333],[-70.525,51.483333],[-70.533333,51.466667],[-70.554167,51.466667],[-70.55,51.45],[-70.541667,51.445833],[-70.545833,51.429167],[-70.533333,51.425],[-70.541667,51.383333],[-70.529167,51.366667],[-70.504167,51.354167],[-70.5125,51.325],[-70.5,51.320833],[-70.5,51.304167],[-70.491667,51.295833],[-70.475,51.295833],[-70.470833,51.279167],[-70.454167,51.279167],[-70.454167,51.291667],[-70.429167,51.308333],[-70.4125,51.308333],[-70.408333,51.295833],[-70.395833,51.295833],[-70.383333,51.308333],[-70.370833,51.304167],[-70.3625,51.275],[-70.333333,51.270833],[-70.341667,51.258333],[-70.3375,51.241667],[-70.3125,51.2375],[-70.3125,51.220833],[-70.329167,51.204167],[-70.333333,51.179167],[-70.275,51.1875],[-70.270833,51.175],[-70.270833,51.158333],[-70.2875,51.154167],[-70.2875,51.1375],[-70.308333,51.133333],[-70.316667,51.141667],[-70.316667,51.133333],[-70.329167,51.133333],[-70.333333,51.1125],[-70.354167,51.1],[-70.35,51.083333],[-70.370833,51.070833],[-70.370833,51.058333],[-70.404167,51.054167],[-70.4125,51.045833],[-70.404167,51.016667],[-70.416667,50.991667],[-70.416667,50.966667],[-70.4375,50.95],[-70.4375,50.9375],[-70.4125,50.9375],[-70.395833,50.908333],[-70.370833,50.904167],[-70.375,50.870833],[-70.3625,50.8625],[-70.341667,50.866667],[-70.341667,50.808333],[-70.358333,50.775],[-70.358333,50.754167],[-70.345833,50.745833],[-70.3375,50.716667],[-70.329167,50.7125],[-70.341667,50.6625],[-70.333333,50.658333],[-70.3375,50.641667],[-70.325,50.6375],[-70.325,50.629167],[-70.3375,50.629167],[-70.35,50.616667],[-70.35,50.604167],[-70.333333,50.6],[-70.333333,50.579167],[-70.325,50.579167],[-70.3375,50.55],[-70.3375,50.533333],[-70.329167,50.525],[-70.3375,50.516667],[-70.333333,50.508333],[-70.341667,50.504167],[-70.341667,50.4875],[-70.3625,50.4875],[-70.370833,50.466667],[-70.383333,50.466667],[-70.366667,50.420833],[-70.383333,50.404167],[-70.3875,50.370833],[-70.429167,50.333333],[-70.445833,50.333333],[-70.445833,50.320833],[-70.479167,50.3],[-70.458333,50.283333],[-70.458333,50.2625],[-70.45,50.254167],[-70.470833,50.25],[-70.470833,50.225],[-70.483333,50.216667],[-70.491667,50.195833],[-70.466667,50.179167],[-70.466667,50.141667],[-70.445833,50.129167],[-70.45,50.116667],[-70.441667,50.104167],[-70.470833,50.1],[-70.4625,50.029167],[-70.479167,50.016667],[-70.475,49.9875],[-70.491667,49.979167],[-70.491667,49.954167],[-70.504167,49.95],[-70.504167,49.929167],[-70.475,49.916667],[-70.475,49.870833],[-70.466667,49.85],[-70.495833,49.854167],[-70.504167,49.866667],[-70.5125,49.8625],[-70.520833,49.870833],[-70.541667,49.870833],[-70.554167,49.833333],[-70.583333,49.841667],[-70.591667,49.8375],[-70.6,49.845833],[-70.654167,49.841667],[-70.6625,49.833333],[-70.658333,49.8],[-70.670833,49.770833],[-70.7,49.775],[-70.7,49.766667],[-70.7125,49.766667],[-70.716667,49.783333],[-70.729167,49.7875],[-70.741667,49.779167],[-70.741667,49.770833],[-70.7625,49.770833],[-70.7625,49.7375],[-70.791667,49.7375],[-70.791667,49.729167],[-70.825,49.725],[-70.8375,49.7125],[-70.8625,49.708333],[-70.866667,49.6875],[-70.883333,49.683333],[-70.883333,49.666667],[-70.895833,49.654167],[-70.895833,49.620833],[-70.908333,49.604167],[-70.908333,49.5875],[-70.883333,49.579167],[-70.883333,49.541667],[-70.9,49.541667],[-70.908333,49.495833],[-70.95,49.491667],[-70.95,49.479167],[-70.9625,49.475],[-70.9625,49.454167],[-70.979167,49.454167],[-70.979167,49.429167],[-70.9625,49.425],[-70.9625,49.404167],[-70.979167,49.395833],[-70.983333,49.370833],[-71.004167,49.3625],[-71.008333,49.345833],[-70.970833,49.320833],[-70.941667,49.320833],[-70.929167,49.329167],[-70.929167,49.316667],[-70.916667,49.316667],[-70.895833,49.320833],[-70.891667,49.333333],[-70.8625,49.325],[-70.870833,49.3125],[-70.85,49.295833],[-70.85,49.279167],[-70.829167,49.283333],[-70.825,49.2625],[-70.8,49.25],[-70.795833,49.225],[-70.783333,49.220833],[-70.783333,49.191667],[-70.775,49.1875],[-70.770833,49.158333],[-70.775,49.1375],[-70.7625,49.120833],[-70.758333,49.079167],[-70.7,49.079167],[-70.708333,49.05],[-70.729167,49.041667],[-70.725,48.991667],[-70.7125,48.983333],[-70.7125,48.970833],[-70.725,48.9625],[-70.729167,48.945833],[-70.745833,48.945833],[-70.7625,48.933333],[-70.758333,48.8875],[-70.775,48.875],[-70.770833,48.8625],[-70.808333,48.8625],[-70.820833,48.85],[-70.845833,48.85],[-70.841667,48.8375],[-70.829167,48.833333],[-70.804167,48.8375],[-70.804167,48.825],[-70.783333,48.820833],[-70.783333,48.8125],[-70.766667,48.8],[-70.725,48.791667],[-70.745833,48.754167],[-70.766667,48.7625],[-70.766667,48.75],[-70.783333,48.741667],[-70.8,48.745833],[-70.804167,48.733333],[-70.820833,48.7375],[-70.820833,48.7125],[-70.795833,48.7125],[-70.775,48.691667],[-70.775,48.675],[-70.758333,48.658333],[-70.729167,48.658333],[-70.729167,48.645833],[-70.7125,48.641667],[-70.7125,48.629167],[-70.7,48.620833],[-70.7,48.608333],[-70.679167,48.608333],[-70.6875,48.5875],[-70.675,48.5875],[-70.666667,48.575],[-70.6625,48.6],[-70.645833,48.608333],[-70.645833,48.6375],[-70.625,48.6375],[-70.616667,48.654167],[-70.6,48.654167],[-70.604167,48.629167],[-70.595833,48.620833],[-70.520833,48.620833],[-70.5125,48.625],[-70.5125,48.6375],[-70.4875,48.629167],[-70.470833,48.654167],[-70.470833,48.666667],[-70.495833,48.666667],[-70.508333,48.675],[-70.5125,48.7125],[-70.4875,48.708333],[-70.483333,48.716667],[-70.445833,48.716667],[-70.441667,48.704167],[-70.4125,48.704167],[-70.404167,48.708333],[-70.4,48.725],[-70.345833,48.725],[-70.333333,48.733333],[-70.333333,48.741667],[-70.320833,48.741667],[-70.3125,48.729167],[-70.3125,48.708333],[-70.275,48.704167],[-70.270833,48.695833],[-70.270833,48.716667],[-70.25,48.729167],[-70.25,48.754167],[-70.225,48.75],[-70.216667,48.766667],[-70.191667,48.7625],[-70.191667,48.754167],[-70.175,48.741667],[-70.170833,48.754167],[-70.141667,48.745833],[-70.129167,48.7625],[-70.1125,48.766667],[-70.104167,48.766667],[-70.108333,48.754167],[-70.1,48.75],[-70.070833,48.754167],[-70.070833,48.741667],[-70.083333,48.7375],[-70.075,48.691667],[-70.0875,48.6875],[-70.0875,48.675],[-70.079167,48.670833],[-70.079167,48.65],[-70.070833,48.645833],[-70.066667,48.620833],[-70.045833,48.620833],[-70.041667,48.5875],[-70.0,48.579167],[-69.991667,48.55],[-69.970833,48.5625],[-69.95,48.5625],[-69.95,48.55],[-69.9375,48.545833],[-69.9375,48.516667],[-69.9125,48.5125],[-69.9125,48.491667],[-69.904167,48.483333],[-69.879167,48.483333],[-69.866667,48.466667],[-69.85,48.466667],[-69.825,48.45],[-69.7625,48.454167],[-69.758333,48.441667],[-69.766667,48.441667],[-69.770833,48.429167],[-69.8,48.4375],[-69.8125,48.420833],[-69.808333,48.4],[-69.795833,48.395833],[-69.791667,48.383333],[-69.804167,48.358333],[-69.791667,48.345833],[-69.804167,48.329167],[-69.8,48.320833],[-69.779167,48.316667],[-69.775,48.3],[-69.758333,48.291667],[-69.758333,48.258333],[-69.766667,48.245833],[-69.758333,48.254167],[-69.720833,48.25],[-69.720833,48.258333],[-69.695833,48.258333],[-69.704167,48.2375],[-69.7,48.216667],[-69.675,48.2125],[-69.679167,48.1875],[-69.666667,48.1875],[-69.654167,48.154167],[-69.616667,48.175],[-69.579167,48.216667],[-69.566667,48.2125],[-69.558333,48.229167],[-69.55,48.225],[-69.520833,48.233333],[-69.495833,48.266667],[-69.4625,48.266667],[-69.454167,48.283333],[-69.420833,48.295833],[-69.416667,48.3125],[-69.3875,48.333333],[-69.391667,48.3625],[-69.354167,48.375],[-69.35,48.391667],[-69.325,48.4125],[-69.3125,48.408333],[-69.316667,48.429167],[-69.279167,48.466667],[-69.279167,48.5125],[-69.2375,48.545833],[-69.225,48.575],[-69.204167,48.579167],[-69.204167,48.570833],[-69.1375,48.5625],[-69.095833,48.6125],[-69.095833,48.625],[-69.091667,48.608333],[-69.1,48.604167],[-69.1,48.591667],[-69.0875,48.595833],[-69.083333,48.695833],[-69.070833,48.725],[-69.0625,48.725],[-69.058333,48.7375],[-69.041667,48.7375],[-69.045833,48.754167],[-69.0625,48.754167],[-69.058333,48.766667],[-69.004167,48.758333],[-68.975,48.766667],[-68.945833,48.783333],[-68.941667,48.804167],[-68.925,48.804167],[-68.933333,48.8125],[-68.895833,48.825],[-68.883333,48.816667],[-68.866667,48.820833],[-68.866667,48.8375],[-68.85,48.833333],[-68.833333,48.854167],[-68.816667,48.858333],[-68.816667,48.866667],[-68.7875,48.875],[-68.7875,48.8875],[-68.729167,48.891667],[-68.7125,48.9],[-68.629167,48.9],[-68.616667,48.925],[-68.629167,48.925],[-68.6375,48.9125],[-68.658333,48.9125],[-68.675,48.916667],[-68.679167,48.929167],[-68.658333,48.929167],[-68.645833,48.9375],[-68.645833,48.929167],[-68.6375,48.929167],[-68.633333,49.004167],[-68.6125,49.004167],[-68.616667,49.025],[-68.6,49.033333],[-68.595833,49.045833],[-68.583333,49.045833],[-68.583333,49.054167],[-68.558333,49.058333],[-68.55,49.041667],[-68.545833,49.0625],[-68.525,49.070833],[-68.479167,49.066667],[-68.420833,49.079167],[-68.433333,49.066667],[-68.458333,49.0625],[-68.470833,49.045833],[-68.395833,49.041667],[-68.329167,49.0875],[-68.225,49.0875],[-68.216667,49.095833],[-68.1875,49.095833],[-68.175,49.116667],[-68.175,49.15],[-68.183333,49.1625],[-68.204167,49.166667],[-68.208333,49.158333],[-68.233333,49.158333],[-68.275,49.179167],[-68.254167,49.179167],[-68.25,49.1875],[-68.216667,49.183333],[-68.183333,49.2],[-68.141667,49.2],[-68.141667,49.225],[-68.129167,49.229167],[-68.125,49.266667],[-68.095833,49.258333],[-68.091667,49.25],[-68.075,49.25],[-68.041667,49.283333],[-67.95,49.275],[-67.945833,49.283333],[-67.933333,49.279167],[-67.929167,49.2875],[-67.883333,49.2875],[-67.841667,49.270833],[-67.804167,49.266667],[-67.770833,49.291667],[-67.766667,49.304167],[-67.720833,49.3],[-67.704167,49.308333],[-67.654167,49.3],[-67.645833,49.3125],[-67.595833,49.308333],[-67.5875,49.325],[-67.45,49.316667],[-67.408333,49.320833],[-67.379167,49.3125],[-67.345833,49.35],[-67.3375,49.35],[-67.329167,49.370833],[-67.304167,49.3875],[-67.304167,49.4125],[-67.295833,49.420833],[-67.275,49.420833],[-67.270833,49.4375],[-67.254167,49.441667],[-67.254167,49.45],[-67.2375,49.454167],[-67.233333,49.4625],[-67.225,49.5],[-67.233333,49.591667],[-67.2,49.625],[-67.191667,49.65],[-67.1625,49.666667],[-67.170833,49.716667],[-67.166667,49.770833],[-67.154167,49.775],[-67.145833,49.795833],[-67.133333,49.795833],[-67.133333,49.8125],[-67.104167,49.825],[-67.104167,49.841667],[-67.091667,49.845833],[-67.070833,49.845833],[-67.0625,49.8375],[-67.0625,49.816667],[-67.0375,49.820833],[-67.0375,49.829167],[-67.0125,49.845833],[-67.004167,49.866667],[-66.991667,49.870833],[-66.991667,49.895833],[-66.970833,49.9],[-66.9625,49.9125],[-66.966667,49.9625],[-66.958333,49.9625],[-66.954167,49.979167],[-66.945833,49.979167],[-66.920833,50.004167],[-66.8875,50.008333],[-66.891667,50.016667],[-66.870833,50.008333],[-66.858333,50.020833],[-66.845833,50.020833],[-66.8375,50.0125],[-66.825,50.020833],[-66.8125,50.016667],[-66.808333,50.025],[-66.775,50.025],[-66.754167,50.0375],[-66.733333,50.0375],[-66.725,50.045833],[-66.720833,50.079167],[-66.7,50.104167],[-66.658333,50.125],[-66.608333,50.133333],[-66.604167,50.15],[-66.6125,50.1625],[-66.595833,50.15],[-66.6,50.1375],[-66.5625,50.15],[-66.529167,50.15],[-66.525,50.141667],[-66.504167,50.145833],[-66.475,50.125],[-66.45,50.125],[-66.454167,50.1375],[-66.4375,50.15],[-66.420833,50.15],[-66.420833,50.166667],[-66.516667,50.1625],[-66.5375,50.208333],[-66.529167,50.229167],[-66.466667,50.254167],[-66.458333,50.266667],[-66.4125,50.2625],[-66.4,50.245833],[-66.4,50.229167],[-66.408333,50.229167],[-66.4125,50.216667],[-66.391667,50.208333],[-66.391667,50.2],[-66.383333,50.2],[-66.370833,50.183333],[-66.354167,50.183333],[-66.325,50.2],[-66.229167,50.2125],[-66.141667,50.183333],[-66.095833,50.183333],[-66.070833,50.191667],[-66.070833,50.2],[-66.095833,50.195833],[-66.108333,50.204167],[-66.108333,50.225],[-66.095833,50.2375],[-66.0875,50.233333],[-66.1,50.220833],[-66.070833,50.2125],[-66.066667,50.195833],[-66.058333,50.195833],[-66.0,50.266667],[-65.966667,50.283333],[-65.916667,50.283333],[-65.908333,50.275],[-65.866667,50.266667],[-65.845833,50.25],[-65.808333,50.25],[-65.808333,50.258333],[-65.679167,50.254167],[-65.654167,50.266667],[-65.620833,50.2625],[-65.533333,50.270833],[-65.5125,50.283333],[-65.4125,50.291667],[-65.391667,50.3],[-65.333333,50.3],[-65.320833,50.291667],[-65.3,50.291667],[-65.2875,50.3],[-65.258333,50.3],[-65.241667,50.295833],[-65.2375,50.2875],[-65.2,50.283333],[-65.079167,50.283333],[-65.058333,50.275],[-65.025,50.279167],[-64.975,50.2625],[-64.925,50.270833],[-64.9125,50.2625],[-64.870833,50.258333],[-64.841667,50.266667],[-64.825,50.2625],[-64.816667,50.270833],[-64.75,50.270833],[-64.741667,50.2625],[-64.7125,50.275],[-64.654167,50.270833],[-64.616667,50.275],[-64.616667,50.283333],[-64.533333,50.283333],[-64.495833,50.3],[-64.4875,50.3125],[-64.420833,50.316667],[-64.341667,50.279167],[-64.333333,50.283333],[-64.275,50.266667],[-64.1875,50.2625],[-64.179167,50.254167],[-64.154167,50.254167],[-64.083333,50.291667],[-63.9875,50.275],[-63.9875,50.283333],[-64.004167,50.2875],[-63.991667,50.291667],[-63.991667,50.304167],[-63.983333,50.304167],[-63.9875,50.291667],[-63.9625,50.3],[-63.920833,50.3],[-63.908333,50.291667],[-63.866667,50.295833],[-63.858333,50.2875],[-63.8375,50.2875],[-63.829167,50.3],[-63.8125,50.3],[-63.8,50.291667],[-63.8,50.283333],[-63.779167,50.283333],[-63.770833,50.291667],[-63.729167,50.291667],[-63.7,50.279167],[-63.7,50.25],[-63.654167,50.25],[-63.645833,50.2625],[-63.641667,50.254167],[-63.616667,50.25],[-63.6125,50.233333],[-63.645833,50.2375],[-63.6625,50.2125],[-63.641667,50.2125],[-63.629167,50.204167],[-63.616667,50.208333],[-63.616667,50.195833],[-63.608333,50.195833],[-63.6125,50.204167],[-63.6,50.204167],[-63.6,50.220833],[-63.591667,50.220833],[-63.6,50.2375],[-63.558333,50.254167],[-63.504167,50.254167],[-63.470833,50.245833],[-63.466667,50.233333],[-63.458333,50.233333],[-63.458333,50.204167],[-63.441667,50.2],[-63.4375,50.208333],[-63.425,50.208333],[-63.420833,50.2],[-63.404167,50.195833],[-63.395833,50.204167],[-63.379167,50.2],[-63.375,50.2125],[-63.391667,50.208333],[-63.391667,50.220833],[-63.366667,50.233333],[-63.35,50.233333],[-63.345833,50.225],[-63.316667,50.229167],[-63.304167,50.220833],[-63.2625,50.220833],[-63.258333,50.229167],[-63.245833,50.229167],[-63.216667,50.220833],[-63.229167,50.233333],[-63.208333,50.2375],[-63.195833,50.220833],[-63.2,50.208333],[-63.1875,50.2],[-63.120833,50.204167],[-63.095833,50.2125],[-63.1,50.2375],[-63.1125,50.233333],[-63.141667,50.245833],[-63.154167,50.233333],[-63.170833,50.233333],[-63.166667,50.245833],[-63.154167,50.241667],[-63.154167,50.254167],[-63.183333,50.270833],[-63.179167,50.279167],[-63.129167,50.283333],[-63.116667,50.279167],[-63.116667,50.270833],[-63.095833,50.279167],[-63.05,50.275],[-63.054167,50.283333],[-63.029167,50.279167],[-63.033333,50.2875],[-63.016667,50.283333],[-63.016667,50.291667],[-63.05,50.3],[-63.004167,50.308333],[-63.0,50.283333],[-62.970833,50.270833],[-62.929167,50.270833],[-62.925,50.279167],[-62.916667,50.275],[-62.908333,50.283333],[-62.904167,50.275],[-62.879167,50.279167],[-62.875,50.270833],[-62.845833,50.270833],[-62.825,50.279167],[-62.808333,50.275],[-62.808333,50.283333],[-62.791667,50.279167],[-62.783333,50.291667],[-62.758333,50.291667],[-62.775,50.266667],[-62.766667,50.266667],[-62.766667,50.275],[-62.725,50.266667],[-62.708333,50.270833],[-62.691667,50.2625],[-62.670833,50.2625],[-62.6625,50.270833],[-62.620833,50.258333],[-62.604167,50.2625],[-62.6,50.25],[-62.591667,50.258333],[-62.579167,50.25],[-62.579167,50.258333],[-62.5625,50.2625],[-62.558333,50.275],[-62.541667,50.279167],[-62.529167,50.266667],[-62.5375,50.254167],[-62.520833,50.258333],[-62.495833,50.25],[-62.475,50.258333],[-62.475,50.25],[-62.4625,50.245833],[-62.433333,50.254167],[-62.433333,50.2625],[-62.425,50.258333],[-62.425,50.275],[-62.416667,50.275],[-62.416667,50.2625],[-62.408333,50.266667],[-62.404167,50.258333],[-62.391667,50.258333],[-62.391667,50.266667],[-62.354167,50.2625],[-62.341667,50.270833],[-62.329167,50.258333],[-62.316667,50.2625],[-62.308333,50.25],[-62.295833,50.258333],[-62.258333,50.254167],[-62.225,50.229167],[-62.15,50.233333],[-62.095833,50.216667],[-62.054167,50.220833],[-62.054167,50.2125],[-62.0125,50.2125],[-62.0,50.2],[-61.991667,50.2],[-61.995833,50.2125],[-61.979167,50.204167],[-61.970833,50.216667],[-61.958333,50.216667],[-61.966667,50.229167],[-61.954167,50.229167],[-61.95,50.216667],[-61.933333,50.220833],[-61.9375,50.208333],[-61.920833,50.2125],[-61.920833,50.220833],[-61.904167,50.208333],[-61.875,50.208333],[-61.870833,50.216667],[-61.8625,50.2125],[-61.870833,50.208333],[-61.866667,50.191667],[-61.845833,50.195833],[-61.845833,50.183333],[-61.833333,50.191667],[-61.8125,50.175],[-61.8125,50.104167],[-61.754167,50.083333],[-61.658333,50.095833],[-61.425,50.170833],[-61.375,50.175],[-61.358333,50.166667],[-61.358333,50.175],[-61.3,50.191667],[-61.2875,50.1875],[-61.3,50.183333],[-61.295833,50.175],[-61.279167,50.179167],[-61.2625,50.170833],[-61.258333,50.1875],[-61.266667,50.191667],[-61.254167,50.195833],[-61.229167,50.191667],[-61.229167,50.183333],[-61.204167,50.1875],[-61.183333,50.175],[-61.183333,50.166667],[-61.170833,50.166667],[-61.166667,50.195833],[-61.154167,50.179167],[-61.133333,50.183333],[-61.133333,50.175],[-61.120833,50.175],[-61.108333,50.183333],[-61.1,50.179167],[-61.104167,50.204167],[-61.095833,50.204167],[-61.095833,50.183333],[-61.0875,50.175],[-61.058333,50.175],[-61.058333,50.208333],[-61.05,50.208333],[-61.045833,50.225],[-61.008333,50.204167],[-60.966667,50.2],[-60.966667,50.208333],[-60.958333,50.208333],[-60.95,50.204167],[-60.954167,50.191667],[-60.945833,50.183333],[-60.933333,50.183333],[-60.929167,50.2],[-60.916667,50.2],[-60.908333,50.2125],[-60.891667,50.2125],[-60.891667,50.204167],[-60.883333,50.204167],[-60.875,50.220833],[-60.866667,50.220833],[-60.866667,50.204167],[-60.875,50.195833],[-60.8625,50.1875],[-60.845833,50.2],[-60.85,50.1875],[-60.841667,50.179167],[-60.833333,50.1875],[-60.841667,50.191667],[-60.833333,50.195833],[-60.825,50.1875],[-60.804167,50.191667],[-60.791667,50.183333],[-60.7875,50.195833],[-60.795833,50.2],[-60.7875,50.204167],[-60.766667,50.204167],[-60.766667,50.195833],[-60.758333,50.2],[-60.75,50.1875],[-60.754167,50.2125],[-60.733333,50.2125],[-60.7375,50.204167],[-60.720833,50.2125]],[[-60.754167,50.220833],[-60.758333,50.2125],[-60.758333,50.233333],[-60.733333,50.233333],[-60.745833,50.216667],[-60.754167,50.220833]],[[-60.845833,50.2],[-60.845833,50.204167],[-60.841667,50.204167],[-60.845833,50.2]],[[-60.866667,50.229167],[-60.854167,50.229167],[-60.8625,50.225],[-60.866667,50.229167]],[[-61.058333,50.208333],[-61.0625,50.208333],[-61.0625,50.2125],[-61.058333,50.208333]],[[-61.195833,50.183333],[-61.195833,50.1875],[-61.191667,50.1875],[-61.195833,50.183333]],[[-61.9875,50.2125],[-61.9875,50.216667],[-61.979167,50.216667],[-61.9875,50.2125]],[[-61.979167,50.216667],[-61.979167,50.220833],[-61.975,50.220833],[-61.979167,50.216667]],[[-64.333333,50.283333],[-64.333333,50.2875],[-64.325,50.2875],[-64.333333,50.283333]],[[-64.325,50.2875],[-64.325,50.291667],[-64.320833,50.291667],[-64.325,50.2875]],[[-64.320833,50.291667],[-64.320833,50.295833],[-64.316667,50.295833],[-64.320833,50.291667]],[[-65.808333,50.258333],[-65.8125,50.258333],[-65.8125,50.2625],[-65.808333,50.258333]],[[-68.275,49.179167],[-68.279167,49.179167],[-68.279167,49.183333],[-68.275,49.179167]],[[-68.420833,49.079167],[-68.420833,49.083333],[-68.416667,49.083333],[-68.420833,49.079167]],[[-68.416667,49.083333],[-68.416667,49.0875],[-68.408333,49.0875],[-68.416667,49.083333]],[[-68.616667,49.020833],[-68.616667,49.016667],[-68.620833,49.016667],[-68.616667,49.020833]],[[-56.3375,51.770833],[-56.345833,51.770833],[-56.345833,51.775],[-56.3375,51.770833]],[[-57.254167,51.491667],[-57.258333,51.491667],[-57.258333,51.495833],[-57.254167,51.491667]],[[-57.675,51.3875],[-57.675,51.391667],[-57.670833,51.391667],[-57.675,51.3875]],[[-57.754167,51.4375],[-57.754167,51.441667],[-57.75,51.441667],[-57.754167,51.4375]],[[-57.870833,51.370833],[-57.875,51.3875],[-57.870833,51.391667],[-57.845833,51.395833],[-57.845833,51.3875],[-57.8625,51.3875],[-57.85,51.379167],[-57.870833,51.379167],[-57.870833,51.370833]],[[-57.908333,51.354167],[-57.908333,51.358333],[-57.904167,51.358333],[-57.908333,51.354167]],[[-58.441667,51.179167],[-58.441667,51.175],[-58.4625,51.175],[-58.441667,51.179167]],[[-58.6375,51.05],[-58.6375,51.054167],[-58.633333,51.054167],[-58.6375,51.05]],[[-58.891667,50.941667],[-58.9,50.9375],[-58.908333,50.945833],[-58.895833,50.945833],[-58.891667,50.941667]],[[-58.925,51.016667],[-58.925,51.020833],[-58.920833,51.020833],[-58.925,51.016667]],[[-59.2,50.716667],[-59.204167,50.716667],[-59.204167,50.725],[-59.2,50.716667]],[[-59.275,50.7],[-59.275,50.695833],[-59.279167,50.695833],[-59.275,50.7]],[[-59.270833,50.691667],[-59.270833,50.6875],[-59.275,50.6875],[-59.270833,50.691667]],[[-59.3375,50.645833],[-59.3375,50.641667],[-59.345833,50.641667],[-59.3375,50.645833]],[[-59.4125,50.620833],[-59.4125,50.625],[-59.408333,50.625],[-59.4125,50.620833]],[[-59.495833,50.525],[-59.495833,50.529167],[-59.491667,50.529167],[-59.495833,50.525]],[[-59.841667,50.3875],[-59.845833,50.4],[-59.820833,50.404167],[-59.841667,50.395833],[-59.841667,50.3875]],[[-59.979167,50.245833],[-59.979167,50.241667],[-59.983333,50.241667],[-59.979167,50.245833]],[[-59.983333,50.245833],[-59.9875,50.245833],[-59.9875,50.25],[-59.983333,50.245833]],[[-59.995833,50.220833],[-59.995833,50.225],[-59.991667,50.225],[-59.995833,50.220833]],[[-60.083333,50.2375],[-60.0875,50.2375],[-60.0875,50.241667],[-60.083333,50.2375]],[[-60.233333,50.233333],[-60.2375,50.233333],[-60.2375,50.2375],[-60.233333,50.233333]],[[-60.270833,50.2125],[-60.279167,50.2125],[-60.279167,50.216667],[-60.270833,50.220833],[-60.270833,50.2125]],[[-60.366667,50.204167],[-60.370833,50.204167],[-60.370833,50.208333],[-60.366667,50.204167]],[[-60.5,50.191667],[-60.5,50.2],[-60.495833,50.2],[-60.5,50.191667]],[[-60.508333,50.2],[-60.508333,50.2125],[-60.495833,50.208333],[-60.508333,50.2]],[[-60.508333,50.216667],[-60.529167,50.2125],[-60.525,50.220833],[-60.5375,50.225],[-60.525,50.233333],[-60.508333,50.216667]],[[-60.520833,50.229167],[-60.520833,50.233333],[-60.5125,50.233333],[-60.520833,50.229167]],[[-60.533333,50.2],[-60.545833,50.204167],[-60.541667,50.2125],[-60.5375,50.2125],[-60.533333,50.2]],[[-60.716667,50.2125],[-60.720833,50.2125],[-60.720833,50.216667],[-60.716667,50.216667],[-60.716667,50.2125]],[[-66.066667,50.241667],[-66.070833,50.241667],[-66.070833,50.245833],[-66.066667,50.241667]],[[-60.941667,50.241667],[-60.95,50.241667],[-60.95,50.245833],[-60.941667,50.241667]],[[-58.604167,51.125],[-58.608333,51.125],[-58.608333,51.129167],[-58.604167,51.125]],[[-58.2625,51.3],[-58.270833,51.308333],[-58.258333,51.304167],[-58.2625,51.3]],[[-58.6625,51.295833],[-58.658333,51.295833],[-58.658333,51.2875],[-58.6625,51.295833]],[[-58.6625,51.295833],[-58.666667,51.295833],[-58.666667,51.3],[-58.6625,51.295833]],[[-58.145833,51.295833],[-58.15,51.295833],[-58.15,51.3],[-58.145833,51.295833]],[[-56.429167,51.7375],[-56.4375,51.7375],[-56.4375,51.741667],[-56.429167,51.7375]],[[-56.458333,51.7125],[-56.4625,51.7125],[-56.4625,51.716667],[-56.458333,51.7125]],[[-56.708333,51.641667],[-56.695833,51.645833],[-56.695833,51.6375],[-56.704167,51.6375],[-56.708333,51.641667]],[[-57.2375,51.491667],[-57.241667,51.491667],[-57.241667,51.495833],[-57.2375,51.491667]],[[-57.454167,51.466667],[-57.454167,51.4625],[-57.4625,51.4625],[-57.454167,51.466667]],[[-57.45,51.466667],[-57.454167,51.466667],[-57.454167,51.470833],[-57.45,51.470833],[-57.45,51.466667]],[[-57.704167,51.445833],[-57.716667,51.45],[-57.7125,51.4375],[-57.720833,51.4375],[-57.720833,51.445833],[-57.741667,51.445833],[-57.745833,51.454167],[-57.7125,51.454167],[-57.708333,51.470833],[-57.7,51.470833],[-57.704167,51.445833]],[[-57.741667,51.445833],[-57.741667,51.441667],[-57.745833,51.441667],[-57.741667,51.445833]],[[-57.633333,51.429167],[-57.6375,51.429167],[-57.6375,51.433333],[-57.633333,51.429167]],[[-57.625,51.420833],[-57.629167,51.420833],[-57.629167,51.425],[-57.625,51.420833]],[[-57.766667,51.404167],[-57.775,51.404167],[-57.775,51.408333],[-57.766667,51.404167]],[[-58.254167,51.316667],[-58.25,51.316667],[-58.25,51.308333],[-58.254167,51.316667]],[[-58.254167,51.316667],[-58.258333,51.316667],[-58.258333,51.325],[-58.254167,51.316667]],[[-58.245833,51.275],[-58.25,51.275],[-58.25,51.279167],[-58.245833,51.275]],[[-58.666667,51.245833],[-58.666667,51.2375],[-58.670833,51.241667],[-58.666667,51.245833]],[[-58.545833,51.229167],[-58.55,51.229167],[-58.55,51.233333],[-58.545833,51.229167]],[[-58.308333,51.229167],[-58.308333,51.220833],[-58.320833,51.233333],[-58.308333,51.229167]],[[-58.3125,51.233333],[-58.3125,51.2375],[-58.308333,51.2375],[-58.3125,51.233333]],[[-58.5375,51.220833],[-58.541667,51.220833],[-58.541667,51.225],[-58.5375,51.220833]],[[-58.55,51.216667],[-58.554167,51.216667],[-58.554167,51.220833],[-58.55,51.216667]],[[-58.375,51.208333],[-58.379167,51.208333],[-58.379167,51.2125],[-58.375,51.208333]],[[-58.508333,51.2],[-58.5125,51.2],[-58.5125,51.204167],[-58.508333,51.2]],[[-58.595833,51.1875],[-58.595833,51.2],[-58.6125,51.2],[-58.6125,51.208333],[-58.629167,51.216667],[-58.654167,51.216667],[-58.6125,51.229167],[-58.616667,51.258333],[-58.633333,51.270833],[-58.616667,51.270833],[-58.608333,51.2625],[-58.595833,51.229167],[-58.579167,51.233333],[-58.579167,51.220833],[-58.5375,51.2125],[-58.5375,51.204167],[-58.5625,51.208333],[-58.5625,51.2],[-58.575,51.195833],[-58.575,51.183333],[-58.595833,51.1875]],[[-58.5375,51.191667],[-58.5375,51.204167],[-58.529167,51.204167],[-58.529167,51.195833],[-58.516667,51.2],[-58.516667,51.191667],[-58.5375,51.191667]],[[-58.654167,51.220833],[-58.658333,51.220833],[-58.658333,51.225],[-58.654167,51.220833]],[[-58.658333,51.225],[-58.6625,51.225],[-58.6625,51.229167],[-58.658333,51.225]],[[-58.6625,51.229167],[-58.666667,51.229167],[-58.666667,51.233333],[-58.6625,51.229167]],[[-58.520833,51.175],[-58.508333,51.179167],[-58.5125,51.191667],[-58.504167,51.191667],[-58.504167,51.175],[-58.495833,51.170833],[-58.516667,51.154167],[-58.558333,51.154167],[-58.558333,51.1625],[-58.525,51.1625],[-58.520833,51.175]],[[-58.495833,51.175],[-58.495833,51.179167],[-58.491667,51.179167],[-58.495833,51.175]],[[-58.483333,51.179167],[-58.495833,51.183333],[-58.4875,51.2],[-58.504167,51.204167],[-58.5,51.2125],[-58.458333,51.204167],[-58.454167,51.216667],[-58.445833,51.216667],[-58.45,51.204167],[-58.433333,51.208333],[-58.433333,51.2],[-58.445833,51.195833],[-58.475,51.195833],[-58.483333,51.179167]],[[-58.433333,51.191667],[-58.433333,51.2],[-58.425,51.2],[-58.425,51.195833],[-58.433333,51.191667]],[[-58.425,51.2],[-58.425,51.204167],[-58.416667,51.204167],[-58.425,51.2]],[[-58.416667,51.2],[-58.4125,51.2],[-58.4125,51.195833],[-58.416667,51.2]],[[-58.445833,51.216667],[-58.445833,51.220833],[-58.441667,51.220833],[-58.445833,51.216667]],[[-58.495833,51.191667],[-58.5,51.191667],[-58.5,51.195833],[-58.495833,51.191667]],[[-58.5625,51.175],[-58.5625,51.170833],[-58.575,51.170833],[-58.5625,51.175]],[[-58.558333,51.175],[-58.5625,51.175],[-58.5625,51.179167],[-58.558333,51.179167],[-58.558333,51.175]],[[-58.558333,51.141667],[-58.558333,51.1375],[-58.570833,51.1375],[-58.558333,51.141667]],[[-58.554167,51.141667],[-58.558333,51.141667],[-58.558333,51.145833],[-58.554167,51.145833],[-58.554167,51.141667]],[[-58.666667,51.120833],[-58.6625,51.120833],[-58.6625,51.116667],[-58.666667,51.120833]],[[-58.666667,51.120833],[-58.670833,51.120833],[-58.670833,51.125],[-58.666667,51.120833]],[[-58.579167,51.1],[-58.5875,51.0875],[-58.595833,51.095833],[-58.579167,51.1]],[[-58.791667,51.083333],[-58.795833,51.083333],[-58.795833,51.0875],[-58.791667,51.083333]],[[-58.779167,51.079167],[-58.7875,51.070833],[-58.795833,51.070833],[-58.795833,51.079167],[-58.779167,51.079167]],[[-58.829167,51.075],[-58.829167,51.058333],[-58.808333,51.066667],[-58.804167,51.025],[-58.808333,51.033333],[-58.820833,51.029167],[-58.816667,51.045833],[-58.841667,51.0625],[-58.829167,51.075]],[[-58.895833,51.033333],[-58.891667,51.033333],[-58.891667,51.029167],[-58.895833,51.033333]],[[-58.895833,51.033333],[-58.9,51.033333],[-58.9,51.05],[-58.895833,51.033333]],[[-58.904167,51.033333],[-58.904167,51.020833],[-58.9125,51.016667],[-58.9125,51.029167],[-58.904167,51.033333]],[[-58.908333,51.033333],[-58.9125,51.033333],[-58.9125,51.0375],[-58.908333,51.033333]],[[-59.0,51.008333],[-59.004167,51.008333],[-59.004167,51.0125],[-59.0,51.008333]],[[-58.883333,50.966667],[-58.8875,50.966667],[-58.8875,50.970833],[-58.883333,50.966667]],[[-59.025,50.766667],[-59.029167,50.766667],[-59.029167,50.770833],[-59.025,50.766667]],[[-59.129167,50.7625],[-59.133333,50.7625],[-59.133333,50.766667],[-59.129167,50.7625]],[[-59.15,50.758333],[-59.154167,50.758333],[-59.154167,50.7625],[-59.15,50.758333]],[[-59.116667,50.758333],[-59.120833,50.758333],[-59.120833,50.7625],[-59.116667,50.758333]],[[-59.233333,50.745833],[-59.2375,50.745833],[-59.2375,50.754167],[-59.233333,50.745833]],[[-59.254167,50.745833],[-59.258333,50.745833],[-59.258333,50.75],[-59.254167,50.745833]],[[-59.241667,50.741667],[-59.245833,50.741667],[-59.245833,50.745833],[-59.241667,50.741667]],[[-59.25,50.741667],[-59.254167,50.729167],[-59.258333,50.729167],[-59.258333,50.741667],[-59.25,50.741667]],[[-59.154167,50.733333],[-59.1375,50.741667],[-59.1375,50.725],[-59.154167,50.729167],[-59.158333,50.725],[-59.154167,50.733333]],[[-59.2375,50.7375],[-59.233333,50.725],[-59.2125,50.720833],[-59.216667,50.708333],[-59.220833,50.716667],[-59.233333,50.7125],[-59.245833,50.720833],[-59.2375,50.7375]],[[-59.358333,50.654167],[-59.354167,50.645833],[-59.383333,50.645833],[-59.391667,50.616667],[-59.4,50.616667],[-59.4,50.641667],[-59.416667,50.641667],[-59.4,50.65],[-59.358333,50.654167]],[[-59.45,50.6125],[-59.458333,50.608333],[-59.458333,50.620833],[-59.441667,50.620833],[-59.454167,50.616667],[-59.45,50.6125]],[[-59.316667,50.6125],[-59.308333,50.6125],[-59.3,50.595833],[-59.304167,50.595833],[-59.316667,50.6125]],[[-59.333333,50.591667],[-59.3375,50.591667],[-59.3375,50.595833],[-59.333333,50.591667]],[[-59.4625,50.575],[-59.466667,50.575],[-59.466667,50.583333],[-59.4625,50.575]],[[-59.433333,50.541667],[-59.4375,50.541667],[-59.4375,50.545833],[-59.433333,50.541667]],[[-59.820833,50.4125],[-59.820833,50.425],[-59.808333,50.429167],[-59.8125,50.416667],[-59.820833,50.4125]],[[-59.841667,50.345833],[-59.854167,50.345833],[-59.854167,50.35],[-59.841667,50.345833]],[[-59.8375,50.3375],[-59.841667,50.3375],[-59.841667,50.341667],[-59.8375,50.3375]],[[-59.845833,50.333333],[-59.854167,50.333333],[-59.854167,50.3375],[-59.845833,50.333333]],[[-62.75,50.291667],[-62.75,50.2875],[-62.754167,50.2875],[-62.75,50.291667]],[[-62.7375,50.291667],[-62.75,50.291667],[-62.75,50.295833],[-62.7375,50.295833],[-62.7375,50.291667]],[[-62.7375,50.295833],[-62.7375,50.3],[-62.733333,50.3],[-62.7375,50.295833]],[[-59.9,50.275],[-59.904167,50.275],[-59.904167,50.279167],[-59.9,50.275]],[[-60.2,50.266667],[-60.2125,50.2625],[-60.2125,50.266667],[-60.2,50.266667]],[[-60.2,50.270833],[-60.2,50.275],[-60.195833,50.275],[-60.2,50.270833]],[[-60.195833,50.275],[-60.195833,50.279167],[-60.191667,50.279167],[-60.195833,50.275]],[[-60.175,50.266667],[-60.183333,50.2625],[-60.183333,50.270833],[-60.175,50.266667]],[[-60.291667,50.2625],[-60.304167,50.2625],[-60.304167,50.266667],[-60.291667,50.2625]],[[-60.1875,50.258333],[-60.191667,50.258333],[-60.191667,50.2625],[-60.1875,50.258333]],[[-60.216667,50.254167],[-60.220833,50.254167],[-60.220833,50.258333],[-60.216667,50.254167]],[[-66.075,50.2375],[-66.079167,50.2375],[-66.079167,50.241667],[-66.075,50.2375]],[[-60.454167,50.2375],[-60.458333,50.2375],[-60.458333,50.241667],[-60.454167,50.2375]],[[-60.170833,50.2375],[-60.175,50.2375],[-60.175,50.241667],[-60.170833,50.2375]],[[-60.025,50.241667],[-60.0125,50.241667],[-60.020833,50.220833],[-60.033333,50.220833],[-60.025,50.241667]],[[-63.2,50.2375],[-63.175,50.2375],[-63.175,50.229167],[-63.2,50.2375]],[[-60.845833,50.233333],[-60.85,50.233333],[-60.85,50.2375],[-60.845833,50.233333]],[[-60.491667,50.2375],[-60.491667,50.225],[-60.5,50.225],[-60.5,50.2375],[-60.491667,50.2375]],[[-60.466667,50.220833],[-60.470833,50.2375],[-60.4625,50.2375],[-60.454167,50.216667],[-60.466667,50.220833]],[[-60.108333,50.229167],[-60.1125,50.229167],[-60.1125,50.233333],[-60.108333,50.229167]],[[-62.095833,50.225],[-62.1,50.225],[-62.1,50.229167],[-62.095833,50.225]],[[-61.070833,50.225],[-61.075,50.225],[-61.075,50.229167],[-61.070833,50.225]],[[-60.341667,50.225],[-60.35,50.225],[-60.35,50.229167],[-60.341667,50.225]],[[-60.0,50.225],[-60.004167,50.225],[-60.004167,50.229167],[-60.0,50.225]],[[-60.95,50.225],[-60.95,50.220833],[-60.954167,50.220833],[-60.95,50.225]],[[-60.941667,50.225],[-60.95,50.225],[-60.95,50.229167],[-60.941667,50.229167],[-60.941667,50.225]],[[-60.116667,50.220833],[-60.120833,50.220833],[-60.120833,50.225],[-60.116667,50.220833]],[[-60.483333,50.2125],[-60.4875,50.220833],[-60.475,50.220833],[-60.483333,50.2125]],[[-60.383333,50.208333],[-60.3875,50.208333],[-60.3875,50.2125],[-60.383333,50.208333]],[[-60.004167,50.204167],[-60.008333,50.204167],[-60.008333,50.2125],[-60.004167,50.204167]],[[-60.6125,50.204167],[-60.616667,50.204167],[-60.616667,50.208333],[-60.6125,50.204167]],[[-60.479167,50.204167],[-60.483333,50.204167],[-60.483333,50.208333],[-60.479167,50.204167]],[[-60.858333,50.204167],[-60.858333,50.2],[-60.8625,50.2],[-60.858333,50.204167]],[[-60.854167,50.204167],[-60.858333,50.204167],[-60.858333,50.208333],[-60.854167,50.208333],[-60.854167,50.204167]],[[-61.116667,50.195833],[-61.108333,50.195833],[-61.108333,50.191667],[-61.116667,50.195833]],[[-61.116667,50.195833],[-61.120833,50.195833],[-61.120833,50.2],[-61.116667,50.195833]],[[-60.8125,50.195833],[-60.816667,50.195833],[-60.816667,50.2],[-60.8125,50.195833]],[[-60.4875,50.195833],[-60.491667,50.195833],[-60.491667,50.2],[-60.4875,50.195833]],[[-60.05,50.195833],[-60.054167,50.195833],[-60.054167,50.2],[-60.05,50.195833]],[[-60.033333,50.191667],[-60.0375,50.191667],[-60.0375,50.195833],[-60.033333,50.191667]],[[-61.275,50.183333],[-61.279167,50.183333],[-61.279167,50.1875],[-61.275,50.183333]],[[-61.083333,50.183333],[-61.0875,50.183333],[-61.0875,50.1875],[-61.083333,50.183333]],[[-61.720833,50.1375],[-61.7125,50.141667],[-61.7125,50.133333],[-61.716667,50.133333],[-61.720833,50.1375]],[[-61.7,50.133333],[-61.704167,50.133333],[-61.704167,50.1375],[-61.7,50.133333]],[[-61.75,50.116667],[-61.75,50.125],[-61.7375,50.129167],[-61.7375,50.120833],[-61.75,50.116667]],[[-61.808333,50.120833],[-61.770833,50.125],[-61.758333,50.1125],[-61.804167,50.108333],[-61.808333,50.120833]],[[-68.283333,49.183333],[-68.320833,49.183333],[-68.320833,49.1875],[-68.283333,49.183333]],[[-68.383333,49.120833],[-68.383333,49.116667],[-68.3875,49.116667],[-68.383333,49.120833]],[[-68.379167,49.120833],[-68.383333,49.120833],[-68.383333,49.125],[-68.379167,49.125],[-68.379167,49.120833]],[[-68.391667,49.1],[-68.395833,49.1],[-68.395833,49.1125],[-68.391667,49.1]],[[-68.6875,48.933333],[-68.691667,48.933333],[-68.691667,48.9375],[-68.6875,48.933333]],[[-68.9875,48.779167],[-68.9875,48.770833],[-68.995833,48.770833],[-68.9875,48.779167]],[[-69.004167,48.770833],[-69.008333,48.770833],[-69.008333,48.775],[-69.004167,48.770833]]],[[[-57.891667,51.341667],[-57.9,51.341667],[-57.9,51.325],[-57.891667,51.325],[-57.891667,51.341667]]],[[[-58.879167,50.991667],[-58.879167,50.983333],[-58.8625,50.979167],[-58.8625,50.9875],[-58.879167,50.991667]]],[[[-59.1125,50.733333],[-59.120833,50.733333],[-59.129167,50.716667],[-59.116667,50.7125],[-59.1125,50.733333]]],[[[-57.916667,51.341667],[-57.916667,51.35],[-57.920833,51.35],[-57.916667,51.341667]]],[[[-61.0375,50.204167],[-61.05,50.208333],[-61.045833,50.195833],[-61.0375,50.204167]]],[[[-63.341667,50.220833],[-63.358333,50.216667],[-63.354167,50.195833],[-63.279167,50.195833],[-63.283333,50.204167],[-63.316667,50.204167],[-63.308333,50.216667],[-63.329167,50.2125],[-63.341667,50.220833]]],[[[-63.595833,50.2125],[-63.595833,50.204167],[-63.583333,50.204167],[-63.595833,50.2125]]],[[[-64.183333,50.204167],[-64.183333,50.216667],[-64.191667,50.216667],[-64.183333,50.204167]]],[[[-63.770833,50.2125],[-63.758333,50.208333],[-63.75,50.191667],[-63.733333,50.195833],[-63.725,50.208333],[-63.741667,50.216667],[-63.7375,50.229167],[-63.745833,50.233333],[-63.758333,50.233333],[-63.758333,50.220833],[-63.770833,50.220833],[-63.770833,50.2125]]],[[[-63.841667,50.225],[-63.841667,50.208333],[-63.829167,50.195833],[-63.779167,50.2125],[-63.779167,50.225],[-63.841667,50.225]]],[[[-64.1375,50.220833],[-64.141667,50.2],[-64.116667,50.195833],[-64.1125,50.2125],[-64.125,50.229167],[-64.1375,50.220833]]],[[[-63.541667,50.229167],[-63.554167,50.229167],[-63.554167,50.220833],[-63.566667,50.216667],[-63.5625,50.2],[-63.554167,50.2],[-63.554167,50.2125],[-63.5375,50.216667],[-63.541667,50.229167]]],[[[-63.916667,50.191667],[-63.895833,50.191667],[-63.891667,50.183333],[-63.866667,50.191667],[-63.854167,50.1875],[-63.845833,50.208333],[-63.85,50.220833],[-63.858333,50.220833],[-63.875,50.241667],[-63.9125,50.245833],[-63.929167,50.233333],[-63.929167,50.208333],[-63.916667,50.191667]]],[[[-64.195833,50.220833],[-64.208333,50.225],[-64.204167,50.2125],[-64.195833,50.220833]]],[[[-63.6875,50.216667],[-63.695833,50.204167],[-63.683333,50.2],[-63.683333,50.220833],[-63.670833,50.220833],[-63.675,50.241667],[-63.691667,50.241667],[-63.6875,50.216667]]],[[[-63.9875,50.233333],[-63.9875,50.25],[-64.029167,50.245833],[-64.029167,50.2375],[-64.016667,50.241667],[-64.008333,50.229167],[-63.991667,50.233333],[-64.004167,50.225],[-64.0,50.2125],[-63.975,50.216667],[-63.9875,50.233333]]],[[[-64.033333,50.2375],[-64.0375,50.229167],[-64.029167,50.229167],[-64.033333,50.2375]]],[[[-63.058333,50.258333],[-63.095833,50.254167],[-63.095833,50.245833],[-63.0875,50.245833],[-63.083333,50.233333],[-63.054167,50.233333],[-63.045833,50.245833],[-63.058333,50.25],[-63.058333,50.258333]]],[[[-62.545833,50.258333],[-62.545833,50.266667],[-62.55,50.266667],[-62.545833,50.258333]]],[[[-63.758333,50.270833],[-63.758333,50.279167],[-63.770833,50.279167],[-63.758333,50.270833]]],[[[-63.8,50.275],[-63.820833,50.283333],[-63.8375,50.275],[-63.8375,50.2625],[-63.816667,50.2625],[-63.8,50.275]]],[[[-60.191667,50.1625],[-60.183333,50.1625],[-60.183333,50.170833],[-60.191667,50.170833],[-60.191667,50.1625]]],[[[-60.508333,50.166667],[-60.495833,50.166667],[-60.495833,50.175],[-60.508333,50.175],[-60.508333,50.166667]]],[[[-60.295833,50.166667],[-60.2875,50.166667],[-60.283333,50.183333],[-60.291667,50.183333],[-60.295833,50.166667]]],[[[-60.158333,50.183333],[-60.166667,50.183333],[-60.166667,50.175],[-60.1625,50.175],[-60.158333,50.183333]]],[[[-60.133333,50.179167],[-60.125,50.179167],[-60.125,50.1875],[-60.133333,50.1875],[-60.133333,50.179167]]],[[[-60.4,50.183333],[-60.4,50.1875],[-60.404167,50.1875],[-60.4,50.183333]]],[[[-60.0625,50.179167],[-60.058333,50.191667],[-60.066667,50.191667],[-60.075,50.204167],[-60.091667,50.204167],[-60.095833,50.191667],[-60.116667,50.2],[-60.125,50.175],[-60.1,50.179167],[-60.0625,50.179167]]],[[[-60.6375,50.195833],[-60.65,50.195833],[-60.65,50.1875],[-60.641667,50.1875],[-60.6375,50.195833]]],[[[-60.3875,50.1875],[-60.3875,50.195833],[-60.391667,50.195833],[-60.3875,50.1875]]],[[[-60.345833,50.1875],[-60.3375,50.1875],[-60.3375,50.195833],[-60.345833,50.195833],[-60.345833,50.1875]]],[[[-60.404167,50.191667],[-60.404167,50.195833],[-60.408333,50.195833],[-60.404167,50.191667]]],[[[-60.670833,50.191667],[-60.65,50.2],[-60.666667,50.2],[-60.670833,50.191667]]],[[[-60.4,50.191667],[-60.395833,50.191667],[-60.395833,50.2],[-60.4,50.191667]]],[[[-60.3375,50.2],[-60.3375,50.204167],[-60.354167,50.204167],[-60.3375,50.2]]],[[[-60.433333,50.2125],[-60.441667,50.204167],[-60.425,50.195833],[-60.408333,50.2],[-60.4125,50.208333],[-60.433333,50.2125]]],[[[-60.225,50.216667],[-60.233333,50.216667],[-60.233333,50.208333],[-60.225,50.216667]]],[[[-60.433333,50.2125],[-60.433333,50.220833],[-60.4375,50.220833],[-60.433333,50.2125]]],[[[-59.954167,50.25],[-59.9625,50.25],[-59.9625,50.241667],[-59.954167,50.25]]],[[[-59.8375,50.245833],[-59.8375,50.254167],[-59.845833,50.254167],[-59.845833,50.245833],[-59.8375,50.245833]]],[[[-59.8375,50.254167],[-59.829167,50.254167],[-59.833333,50.2625],[-59.8375,50.2625],[-59.8375,50.254167]]],[[[-59.754167,50.270833],[-59.754167,50.279167],[-59.758333,50.279167],[-59.754167,50.270833]]],[[[-59.733333,50.2875],[-59.725,50.2875],[-59.725,50.295833],[-59.741667,50.295833],[-59.75,50.275],[-59.725,50.279167],[-59.733333,50.2875]]],[[[-59.791667,50.308333],[-59.791667,50.295833],[-59.804167,50.304167],[-59.804167,50.295833],[-59.8125,50.295833],[-59.8125,50.2875],[-59.804167,50.291667],[-59.808333,50.275],[-59.779167,50.283333],[-59.754167,50.3125],[-59.745833,50.3125],[-59.745833,50.320833],[-59.791667,50.308333]],[[-59.779167,50.3],[-59.783333,50.3],[-59.783333,50.304167],[-59.779167,50.3]]],[[[-59.8125,50.295833],[-59.8125,50.304167],[-59.820833,50.304167],[-59.820833,50.295833],[-59.8125,50.295833]]],[[[-59.7,50.304167],[-59.7,50.295833],[-59.683333,50.3],[-59.683333,50.308333],[-59.7,50.304167]]],[[[-59.820833,50.304167],[-59.8375,50.308333],[-59.8375,50.3],[-59.825,50.3],[-59.820833,50.304167]]],[[[-59.645833,50.316667],[-59.666667,50.304167],[-59.666667,50.295833],[-59.641667,50.304167],[-59.633333,50.325],[-59.620833,50.325],[-59.616667,50.3375],[-59.633333,50.341667],[-59.645833,50.316667]]],[[[-59.720833,50.3875],[-59.725,50.379167],[-59.716667,50.375],[-59.704167,50.379167],[-59.704167,50.3875],[-59.720833,50.3875]]],[[[-59.754167,50.383333],[-59.754167,50.3875],[-59.7625,50.3875],[-59.754167,50.383333]]],[[[-59.691667,50.391667],[-59.691667,50.395833],[-59.7,50.395833],[-59.691667,50.391667]]],[[[-59.575,50.441667],[-59.566667,50.441667],[-59.5625,50.454167],[-59.575,50.45],[-59.575,50.441667]]],[[[-59.516667,50.495833],[-59.520833,50.4875],[-59.5125,50.4875],[-59.5125,50.491667],[-59.516667,50.495833]]],[[[-59.495833,50.508333],[-59.508333,50.5],[-59.479167,50.4875],[-59.479167,50.470833],[-59.466667,50.475],[-59.454167,50.466667],[-59.458333,50.483333],[-59.445833,50.5],[-59.454167,50.5],[-59.458333,50.5125],[-59.483333,50.516667],[-59.5,50.5125],[-59.495833,50.508333]],[[-59.479167,50.4875],[-59.479167,50.491667],[-59.475,50.491667],[-59.479167,50.4875]],[[-59.470833,50.491667],[-59.475,50.5],[-59.466667,50.508333],[-59.4625,50.495833],[-59.470833,50.491667]]],[[[-59.375,50.5625],[-59.375,50.570833],[-59.3875,50.570833],[-59.3875,50.558333],[-59.375,50.5625]]],[[[-59.391667,50.566667],[-59.391667,50.570833],[-59.4,50.570833],[-59.391667,50.566667]]],[[[-59.229167,50.604167],[-59.229167,50.595833],[-59.220833,50.595833],[-59.225,50.620833],[-59.245833,50.616667],[-59.229167,50.604167]]],[[[-59.254167,50.6375],[-59.245833,50.6375],[-59.25,50.629167],[-59.225,50.629167],[-59.225,50.620833],[-59.216667,50.620833],[-59.216667,50.629167],[-59.204167,50.625],[-59.204167,50.6375],[-59.183333,50.625],[-59.175,50.641667],[-59.183333,50.641667],[-59.183333,50.65],[-59.2,50.645833],[-59.204167,50.654167],[-59.2125,50.654167],[-59.2125,50.645833],[-59.245833,50.65],[-59.233333,50.654167],[-59.233333,50.675],[-59.25,50.675],[-59.25,50.654167],[-59.270833,50.645833],[-59.275,50.658333],[-59.258333,50.658333],[-59.254167,50.675],[-59.283333,50.679167],[-59.295833,50.670833],[-59.3,50.683333],[-59.3125,50.683333],[-59.320833,50.675],[-59.3125,50.654167],[-59.295833,50.65],[-59.3,50.641667],[-59.275,50.6375],[-59.266667,50.616667],[-59.254167,50.608333],[-59.254167,50.6375]],[[-59.275,50.6375],[-59.275,50.641667],[-59.270833,50.641667],[-59.275,50.6375]],[[-59.229167,50.6375],[-59.233333,50.6375],[-59.233333,50.641667],[-59.229167,50.6375]]],[[[-59.183333,50.625],[-59.183333,50.604167],[-59.158333,50.6125],[-59.154167,50.633333],[-59.1375,50.629167],[-59.141667,50.65],[-59.154167,50.645833],[-59.166667,50.654167],[-59.170833,50.6375],[-59.1625,50.6375],[-59.158333,50.625],[-59.183333,50.625]]],[[[-59.191667,50.654167],[-59.191667,50.6625],[-59.208333,50.666667],[-59.191667,50.654167]]],[[[-59.154167,50.654167],[-59.141667,50.654167],[-59.141667,50.666667],[-59.154167,50.666667],[-59.154167,50.654167]]],[[[-59.225,50.658333],[-59.2125,50.658333],[-59.2125,50.670833],[-59.229167,50.666667],[-59.225,50.658333]]],[[[-59.191667,50.670833],[-59.191667,50.6625],[-59.1875,50.666667],[-59.191667,50.670833]]],[[[-59.2,50.6875],[-59.216667,50.6875],[-59.220833,50.679167],[-59.195833,50.679167],[-59.2,50.6875]]],[[[-59.191667,50.704167],[-59.191667,50.708333],[-59.2,50.708333],[-59.191667,50.704167]]],[[[-58.8875,50.704167],[-58.879167,50.704167],[-58.879167,50.7125],[-58.8875,50.7125],[-58.8875,50.704167]]],[[[-59.1375,50.708333],[-59.1375,50.7125],[-59.141667,50.7125],[-59.1375,50.708333]]],[[[-59.170833,50.716667],[-59.166667,50.7125],[-59.166667,50.720833],[-59.170833,50.716667]]],[[[-58.9,50.716667],[-58.891667,50.716667],[-58.891667,50.720833],[-58.9,50.716667]]],[[[-58.991667,50.725],[-58.979167,50.725],[-58.979167,50.733333],[-59.0,50.7375],[-58.991667,50.725]]],[[[-58.858333,50.7625],[-58.845833,50.7625],[-58.845833,50.770833],[-58.858333,50.770833],[-58.858333,50.7625]]],[[[-58.854167,50.775],[-58.841667,50.783333],[-58.845833,50.791667],[-58.833333,50.8],[-58.841667,50.804167],[-58.8375,50.820833],[-58.854167,50.816667],[-58.854167,50.833333],[-58.870833,50.833333],[-58.870833,50.841667],[-58.879167,50.841667],[-58.883333,50.829167],[-58.870833,50.825],[-58.866667,50.8125],[-58.883333,50.808333],[-58.9,50.783333],[-58.8875,50.779167],[-58.879167,50.791667],[-58.854167,50.775]],[[-58.845833,50.791667],[-58.85,50.791667],[-58.85,50.795833],[-58.845833,50.791667]]],[[[-58.933333,50.829167],[-58.925,50.829167],[-58.925,50.8375],[-58.933333,50.8375],[-58.933333,50.829167]]],[[[-58.845833,50.829167],[-58.8375,50.829167],[-58.8375,50.8375],[-58.845833,50.8375],[-58.845833,50.829167]]],[[[-58.945833,50.866667],[-58.9375,50.866667],[-58.9375,50.870833],[-58.945833,50.866667]]],[[[-58.941667,50.8875],[-58.941667,50.879167],[-58.933333,50.879167],[-58.933333,50.8875],[-58.941667,50.8875]]],[[[-58.870833,50.891667],[-58.879167,50.891667],[-58.879167,50.879167],[-58.8625,50.879167],[-58.870833,50.891667]]],[[[-58.9375,50.908333],[-58.9375,50.9125],[-58.945833,50.9125],[-58.9375,50.908333]]],[[[-58.833333,50.904167],[-58.829167,50.9125],[-58.845833,50.916667],[-58.845833,50.908333],[-58.833333,50.904167]]],[[[-58.8625,50.933333],[-58.879167,50.9375],[-58.883333,50.929167],[-58.8625,50.925],[-58.8625,50.933333]]],[[[-58.858333,50.9375],[-58.845833,50.9375],[-58.845833,50.945833],[-58.858333,50.945833],[-58.858333,50.9375]]],[[[-58.833333,50.941667],[-58.820833,50.945833],[-58.820833,50.954167],[-58.829167,50.954167],[-58.833333,50.941667]]],[[[-58.7625,50.75],[-58.75,50.75],[-58.75,50.758333],[-58.7625,50.758333],[-58.7625,50.75]]],[[[-58.725,50.8375],[-58.725,50.845833],[-58.7375,50.841667],[-58.7375,50.833333],[-58.725,50.8375]]],[[[-58.808333,50.9125],[-58.804167,50.908333],[-58.8,50.908333],[-58.8,50.916667],[-58.808333,50.9125]]],[[[-58.783333,50.975],[-58.795833,50.975],[-58.8,50.954167],[-58.783333,50.958333],[-58.783333,50.975]]],[[[-58.733333,50.983333],[-58.733333,50.995833],[-58.7375,50.995833],[-58.733333,50.983333]]],[[[-58.7625,50.983333],[-58.75,50.9875],[-58.75,50.995833],[-58.7625,50.991667],[-58.7625,50.983333]]],[[[-58.7,51.008333],[-58.708333,51.008333],[-58.708333,50.995833],[-58.695833,50.995833],[-58.7,51.008333]]],[[[-58.6125,51.054167],[-58.604167,51.054167],[-58.604167,51.0625],[-58.6125,51.0625],[-58.6125,51.054167]]],[[[-58.470833,51.108333],[-58.470833,51.120833],[-58.479167,51.120833],[-58.470833,51.108333]]],[[[-58.4625,51.120833],[-58.4625,51.129167],[-58.466667,51.129167],[-58.4625,51.120833]]],[[[-58.45,51.141667],[-58.45,51.133333],[-58.429167,51.133333],[-58.420833,51.1375],[-58.420833,51.15],[-58.425,51.145833],[-58.45,51.141667]]],[[[-58.3875,51.158333],[-58.3875,51.1625],[-58.395833,51.1625],[-58.3875,51.158333]]],[[[-58.316667,51.1875],[-58.316667,51.191667],[-58.325,51.191667],[-58.316667,51.1875]]],[[[-58.2375,51.241667],[-58.2375,51.245833],[-58.245833,51.245833],[-58.2375,51.241667]]],[[[-58.270833,51.25],[-58.270833,51.245833],[-58.2625,51.245833],[-58.270833,51.25]]],[[[-58.233333,51.245833],[-58.229167,51.245833],[-58.229167,51.254167],[-58.233333,51.245833]]],[[[-58.245833,51.254167],[-58.266667,51.258333],[-58.258333,51.245833],[-58.245833,51.254167]]],[[[-58.104167,51.279167],[-58.104167,51.283333],[-58.1125,51.283333],[-58.104167,51.279167]]],[[[-57.954167,51.320833],[-57.941667,51.320833],[-57.941667,51.329167],[-57.954167,51.320833]]],[[[-57.866667,51.333333],[-57.85,51.333333],[-57.85,51.341667],[-57.870833,51.345833],[-57.866667,51.333333]]],[[[-57.695833,51.35],[-57.6875,51.35],[-57.6875,51.358333],[-57.695833,51.358333],[-57.695833,51.35]]],[[[-57.729167,51.345833],[-57.720833,51.345833],[-57.725,51.366667],[-57.733333,51.366667],[-57.729167,51.345833]]],[[[-57.75,51.370833],[-57.75,51.3625],[-57.741667,51.3625],[-57.741667,51.370833],[-57.75,51.370833]]],[[[-57.829167,51.358333],[-57.820833,51.358333],[-57.8125,51.379167],[-57.829167,51.375],[-57.829167,51.358333]]],[[[-57.720833,51.375],[-57.7125,51.375],[-57.7125,51.383333],[-57.720833,51.383333],[-57.720833,51.375]]],[[[-57.183333,51.3875],[-57.195833,51.3875],[-57.204167,51.379167],[-57.183333,51.370833],[-57.183333,51.3875]]],[[[-57.820833,51.383333],[-57.808333,51.383333],[-57.808333,51.3875],[-57.816667,51.391667],[-57.820833,51.383333]]],[[[-57.7375,51.375],[-57.729167,51.375],[-57.729167,51.395833],[-57.745833,51.4],[-57.745833,51.391667],[-57.7375,51.391667],[-57.7375,51.375]]],[[[-57.141667,51.375],[-57.116667,51.383333],[-57.120833,51.395833],[-57.1375,51.395833],[-57.145833,51.404167],[-57.158333,51.404167],[-57.141667,51.375]]],[[[-57.629167,51.395833],[-57.629167,51.4],[-57.6375,51.4],[-57.629167,51.395833]]],[[[-57.229167,51.433333],[-57.241667,51.433333],[-57.241667,51.425],[-57.229167,51.425],[-57.229167,51.433333]]],[[[-57.2625,51.466667],[-57.279167,51.470833],[-57.2875,51.454167],[-57.266667,51.45],[-57.258333,51.458333],[-57.2625,51.466667]]]]}}
