{"type":"Feature","properties":{"mrgid":63563,"name":"Oregon & Northern California Coastal","placeType":"Freshwater Ecoregion of the World (FEOW)","source":"MarineRegions:tnc_wwf_feow_hydrosheds"},"geometry":{"type":"MultiPolygon","coordinates":[[[[-124.158333,41.058333],[-124.158333,41.0625],[-124.166667,41.0625],[-124.158333,41.058333]]],[[[-124.170833,41.075],[-124.1625,41.075],[-124.1625,41.083333],[-124.170833,41.075]]],[[[-124.479167,42.670833],[-124.479167,42.6625],[-124.470833,42.6625],[-124.479167,42.670833]]],[[[-124.5625,42.85],[-124.554167,42.845833],[-124.554167,42.854167],[-124.5625,42.85]]],[[[-123.991667,45.208333],[-123.983333,45.208333],[-123.983333,45.2125],[-123.991667,45.208333]]],[[[-123.341667,45.4125],[-123.341667,45.416667],[-123.345833,45.416667],[-123.341667,45.4125]]],[[[-123.991667,45.466667],[-123.995833,45.458333],[-123.979167,45.4625],[-123.979167,45.466667],[-123.991667,45.466667]]],[[[-122.341667,37.108333],[-122.333333,37.104167],[-122.333333,37.1125],[-122.341667,37.108333]]],[[[-122.3125,37.408333],[-122.316667,37.420833],[-122.308333,37.420833],[-122.3125,37.429167],[-122.304167,37.445833],[-122.283333,37.445833],[-122.279167,37.458333],[-122.254167,37.445833],[-122.2375,37.420833],[-122.2,37.420833],[-122.191667,37.45],[-122.183333,37.45],[-122.166667,37.479167],[-122.1625,37.504167],[-122.179167,37.520833],[-122.195833,37.525],[-122.195833,37.541667],[-122.216667,37.541667],[-122.225,37.554167],[-122.241667,37.554167],[-122.254167,37.575],[-122.308333,37.579167],[-122.3125,37.595833],[-122.3625,37.595833],[-122.370833,37.6125],[-122.354167,37.608333],[-122.354167,37.620833],[-122.3875,37.641667],[-122.375,37.65],[-122.370833,37.666667],[-122.379167,37.666667],[-122.375,37.679167],[-122.3875,37.683333],[-122.391667,37.708333],[-122.354167,37.716667],[-122.354167,37.733333],[-122.366667,37.733333],[-122.366667,37.745833],[-122.379167,37.754167],[-122.375,37.766667],[-122.383333,37.766667],[-122.379167,37.779167],[-122.3875,37.8],[-122.4,37.8125],[-122.479167,37.8125],[-122.4875,37.791667],[-122.516667,37.7875],[-122.508333,37.7125],[-122.495833,37.679167],[-122.495833,37.625],[-122.504167,37.6],[-122.520833,37.595833],[-122.520833,37.520833],[-122.5,37.491667],[-122.458333,37.491667],[-122.445833,37.4625],[-122.445833,37.429167],[-122.425,37.4],[-122.425,37.3875],[-122.408333,37.375],[-122.404167,37.316667],[-122.420833,37.233333],[-122.4125,37.229167],[-122.4,37.183333],[-122.366667,37.170833],[-122.3625,37.145833],[-122.3375,37.133333],[-122.341667,37.116667],[-122.308333,37.116667],[-122.304167,37.108333],[-122.2875,37.104167],[-122.254167,37.054167],[-122.229167,37.0375],[-122.225,37.020833],[-122.2125,37.020833],[-122.204167,37.008333],[-122.1875,37.004167],[-122.1875,36.995833],[-122.1625,36.9875],[-122.158333,36.975],[-122.141667,36.975],[-122.141667,36.966667],[-122.1125,36.954167],[-122.025,36.945833],[-122.0125,36.954167],[-122.016667,36.9625],[-122.004167,36.9625],[-121.970833,36.95],[-121.941667,36.975],[-121.920833,36.975],[-121.879167,36.95],[-121.870833,36.966667],[-121.841667,36.983333],[-121.845833,37.033333],[-121.8375,37.05],[-121.841667,37.066667],[-121.829167,37.070833],[-121.829167,37.0875],[-121.841667,37.091667],[-121.845833,37.104167],[-121.870833,37.1],[-121.908333,37.1125],[-121.9125,37.104167],[-121.925,37.120833],[-121.9625,37.133333],[-121.975,37.145833],[-121.991667,37.141667],[-122.004167,37.1625],[-122.025,37.170833],[-122.041667,37.204167],[-122.104167,37.233333],[-122.120833,37.258333],[-122.154167,37.275],[-122.170833,37.308333],[-122.2,37.316667],[-122.233333,37.35],[-122.241667,37.35],[-122.258333,37.379167],[-122.283333,37.379167],[-122.3,37.404167],[-122.3125,37.408333]]],[[[-122.995833,37.704167],[-123.016667,37.704167],[-123.016667,37.695833],[-122.995833,37.691667],[-122.995833,37.704167]]],[[[-122.416667,37.825],[-122.416667,37.829167],[-122.425,37.829167],[-122.416667,37.825]]],[[[-122.416667,37.85],[-122.416667,37.866667],[-122.425,37.875],[-122.441667,37.870833],[-122.445833,37.854167],[-122.416667,37.85]]],[[[-124.166667,41.1],[-124.158333,41.091667],[-124.1625,41.066667],[-124.15,41.0625],[-124.154167,41.05],[-124.1375,41.054167],[-124.116667,41.033333],[-124.116667,40.995833],[-124.1375,40.925],[-124.183333,40.833333],[-124.320833,40.641667],[-124.366667,40.541667],[-124.391667,40.5125],[-124.3875,40.4875],[-124.416667,40.4375],[-124.404167,40.433333],[-124.404167,40.416667],[-124.370833,40.3875],[-124.366667,40.341667],[-124.35,40.320833],[-124.358333,40.304167],[-124.354167,40.295833],[-124.366667,40.283333],[-124.366667,40.258333],[-124.329167,40.2375],[-124.320833,40.220833],[-124.291667,40.2],[-124.216667,40.1625],[-124.191667,40.129167],[-124.1125,40.104167],[-124.079167,40.0625],[-124.083333,40.029167],[-124.075,40.020833],[-124.058333,40.025],[-124.041667,40.016667],[-123.995833,39.966667],[-123.975,39.954167],[-123.954167,39.916667],[-123.929167,39.908333],[-123.904167,39.854167],[-123.85,39.829167],[-123.833333,39.720833],[-123.8125,39.7125],[-123.795833,39.6875],[-123.783333,39.620833],[-123.791667,39.595833],[-123.770833,39.566667],[-123.770833,39.541667],[-123.783333,39.5125],[-123.795833,39.491667],[-123.808333,39.491667],[-123.804167,39.475],[-123.820833,39.441667],[-123.816667,39.4125],[-123.825,39.408333],[-123.820833,39.383333],[-123.829167,39.370833],[-123.829167,39.345833],[-123.804167,39.320833],[-123.8125,39.3],[-123.8,39.3],[-123.804167,39.270833],[-123.791667,39.270833],[-123.779167,39.241667],[-123.783333,39.229167],[-123.775,39.220833],[-123.775,39.191667],[-123.758333,39.1875],[-123.754167,39.170833],[-123.7375,39.158333],[-123.741667,39.141667],[-123.720833,39.133333],[-123.704167,39.066667],[-123.695833,39.0625],[-123.695833,39.008333],[-123.725,38.9625],[-123.745833,38.958333],[-123.733333,38.941667],[-123.733333,38.920833],[-123.6875,38.891667],[-123.683333,38.879167],[-123.658333,38.870833],[-123.65,38.841667],[-123.6375,38.841667],[-123.629167,38.829167],[-123.6125,38.825],[-123.595833,38.795833],[-123.570833,38.795833],[-123.566667,38.783333],[-123.533333,38.766667],[-123.529167,38.745833],[-123.491667,38.733333],[-123.491667,38.725],[-123.475,38.716667],[-123.4625,38.716667],[-123.454167,38.7],[-123.433333,38.6875],[-123.4375,38.679167],[-123.4125,38.6625],[-123.4125,38.65],[-123.391667,38.633333],[-123.391667,38.625],[-123.370833,38.6125],[-123.375,38.604167],[-123.3625,38.6],[-123.3625,38.591667],[-123.345833,38.591667],[-123.3375,38.5625],[-123.308333,38.554167],[-123.308333,38.545833],[-123.283333,38.529167],[-123.270833,38.529167],[-123.258333,38.508333],[-123.2375,38.508333],[-123.229167,38.495833],[-123.2,38.491667],[-123.158333,38.466667],[-123.15,38.454167],[-123.1375,38.454167],[-123.125,38.425],[-123.1,38.408333],[-123.1,38.391667],[-123.091667,38.391667],[-123.083333,38.370833],[-123.070833,38.3625],[-123.070833,38.329167],[-123.079167,38.325],[-123.075,38.308333],[-123.0625,38.295833],[-123.05,38.295833],[-123.05,38.308333],[-123.041667,38.3125],[-123.025,38.308333],[-122.970833,38.258333],[-122.970833,38.229167],[-122.983333,38.241667],[-122.995833,38.241667],[-122.995833,38.229167],[-122.966667,38.2],[-122.970833,38.179167],[-122.954167,38.175],[-122.95,38.15],[-122.995833,38.033333],[-123.025,37.991667],[-122.9625,37.9875],[-122.9625,37.995833],[-122.979167,38.0],[-122.979167,38.0125],[-122.954167,38.029167],[-122.925,38.033333],[-122.879167,38.025],[-122.8,37.979167],[-122.783333,37.945833],[-122.7375,37.925],[-122.729167,37.9],[-122.716667,37.9],[-122.7125,37.891667],[-122.695833,37.891667],[-122.683333,37.904167],[-122.645833,37.9],[-122.625,37.875],[-122.604167,37.875],[-122.591667,37.858333],[-122.5625,37.85],[-122.5625,37.841667],[-122.5375,37.829167],[-122.541667,37.820833],[-122.533333,37.820833],[-122.533333,37.8125],[-122.525,37.8125],[-122.520833,37.825],[-122.495833,37.816667],[-122.491667,37.825],[-122.475,37.825],[-122.475,37.8625],[-122.491667,37.866667],[-122.495833,37.891667],[-122.475,37.883333],[-122.475,37.870833],[-122.4625,37.858333],[-122.454167,37.858333],[-122.454167,37.870833],[-122.445833,37.870833],[-122.4375,37.8875],[-122.466667,37.9],[-122.470833,37.920833],[-122.504167,37.933333],[-122.504167,37.941667],[-122.491667,37.933333],[-122.479167,37.9375],[-122.4875,37.966667],[-122.475,37.970833],[-122.470833,37.983333],[-122.445833,37.979167],[-122.445833,37.995833],[-122.454167,37.995833],[-122.4625,38.008333],[-122.495833,38.016667],[-122.483333,38.091667],[-122.491667,38.091667],[-122.491667,38.066667],[-122.5,38.058333],[-122.525,38.058333],[-122.533333,38.045833],[-122.541667,38.045833],[-122.541667,38.054167],[-122.5625,38.054167],[-122.575,38.045833],[-122.616667,38.0625],[-122.629167,38.0875],[-122.666667,38.091667],[-122.675,38.1],[-122.6875,38.095833],[-122.7,38.108333],[-122.695833,38.133333],[-122.683333,38.145833],[-122.6875,38.1625],[-122.7375,38.179167],[-122.733333,38.195833],[-122.741667,38.2],[-122.725,38.2375],[-122.716667,38.2375],[-122.720833,38.25],[-122.733333,38.254167],[-122.733333,38.270833],[-122.716667,38.291667],[-122.720833,38.3125],[-122.733333,38.3125],[-122.733333,38.304167],[-122.758333,38.304167],[-122.779167,38.3125],[-122.779167,38.329167],[-122.7875,38.333333],[-122.816667,38.325],[-122.833333,38.3375],[-122.833333,38.345833],[-122.8625,38.345833],[-122.879167,38.366667],[-122.9,38.370833],[-122.9,38.3875],[-122.916667,38.395833],[-122.920833,38.408333],[-122.9375,38.408333],[-122.9375,38.416667],[-122.966667,38.4125],[-123.0,38.425],[-123.016667,38.433333],[-123.020833,38.454167],[-123.045833,38.458333],[-123.058333,38.479167],[-123.1,38.4875],[-123.108333,38.5],[-123.116667,38.5],[-123.116667,38.508333],[-123.1375,38.504167],[-123.15,38.525],[-123.166667,38.529167],[-123.1625,38.604167],[-123.15,38.608333],[-123.15,38.620833],[-123.1375,38.633333],[-123.108333,38.645833],[-123.1125,38.658333],[-123.125,38.658333],[-123.1375,38.679167],[-123.15,38.683333],[-123.15,38.7],[-123.1375,38.7],[-123.1375,38.708333],[-123.145833,38.708333],[-123.15,38.725],[-123.1625,38.725],[-123.1625,38.741667],[-123.1375,38.754167],[-123.175,38.770833],[-123.245833,38.766667],[-123.270833,38.795833],[-123.266667,38.8125],[-123.275,38.829167],[-123.258333,38.829167],[-123.25,38.8125],[-123.233333,38.8125],[-123.2125,38.825],[-123.204167,38.841667],[-123.195833,38.841667],[-123.2,38.875],[-123.2125,38.883333],[-123.233333,38.883333],[-123.2375,38.891667],[-123.233333,38.920833],[-123.225,38.925],[-123.216667,38.95],[-123.245833,38.95],[-123.2625,38.975],[-123.279167,38.979167],[-123.283333,38.995833],[-123.266667,38.995833],[-123.270833,39.054167],[-123.3,39.0875],[-123.3,39.120833],[-123.3125,39.15],[-123.3375,39.158333],[-123.341667,39.175],[-123.35,39.175],[-123.370833,39.2],[-123.366667,39.2125],[-123.333333,39.225],[-123.329167,39.254167],[-123.345833,39.266667],[-123.370833,39.270833],[-123.375,39.304167],[-123.366667,39.320833],[-123.383333,39.333333],[-123.383333,39.354167],[-123.358333,39.358333],[-123.358333,39.35],[-123.333333,39.35],[-123.320833,39.341667],[-123.279167,39.345833],[-123.270833,39.3375],[-123.270833,39.354167],[-123.254167,39.3625],[-123.25,39.3875],[-123.225,39.3875],[-123.216667,39.375],[-123.2,39.375],[-123.2,39.383333],[-123.170833,39.379167],[-123.166667,39.4],[-123.1375,39.391667],[-123.1125,39.370833],[-123.0875,39.370833],[-123.075,39.345833],[-123.0625,39.345833],[-123.054167,39.333333],[-123.0375,39.333333],[-123.025,39.316667],[-123.004167,39.320833],[-122.9875,39.308333],[-122.945833,39.3125],[-122.908333,39.279167],[-122.891667,39.279167],[-122.875,39.258333],[-122.858333,39.258333],[-122.85,39.241667],[-122.8,39.2625],[-122.7875,39.2625],[-122.766667,39.245833],[-122.745833,39.245833],[-122.725,39.266667],[-122.725,39.275],[-122.758333,39.283333],[-122.758333,39.295833],[-122.775,39.3125],[-122.7625,39.345833],[-122.75,39.35],[-122.741667,39.370833],[-122.766667,39.379167],[-122.775,39.4],[-122.808333,39.4],[-122.808333,39.4125],[-122.7875,39.441667],[-122.779167,39.433333],[-122.75,39.433333],[-122.7375,39.454167],[-122.7375,39.491667],[-122.725,39.491667],[-122.716667,39.520833],[-122.675,39.525],[-122.666667,39.545833],[-122.704167,39.558333],[-122.7,39.583333],[-122.725,39.595833],[-122.720833,39.608333],[-122.729167,39.616667],[-122.770833,39.625],[-122.775,39.6375],[-122.8,39.641667],[-122.8125,39.654167],[-122.8125,39.691667],[-122.804167,39.691667],[-122.804167,39.704167],[-122.816667,39.720833],[-122.808333,39.729167],[-122.858333,39.733333],[-122.870833,39.75],[-122.891667,39.75],[-122.9125,39.779167],[-122.929167,39.783333],[-122.941667,39.8],[-122.95,39.829167],[-122.945833,39.8375],[-122.958333,39.841667],[-122.945833,39.891667],[-122.95,39.9125],[-122.920833,39.916667],[-122.9125,39.9375],[-122.925,39.941667],[-122.929167,39.979167],[-122.941667,39.995833],[-122.95,39.995833],[-122.954167,40.058333],[-122.975,40.075],[-122.966667,40.108333],[-122.975,40.120833],[-122.975,40.141667],[-122.9875,40.141667],[-122.9875,40.154167],[-122.983333,40.179167],[-122.970833,40.183333],[-122.970833,40.2],[-122.979167,40.204167],[-122.975,40.241667],[-123.0125,40.2625],[-123.0625,40.275],[-123.066667,40.341667],[-123.0625,40.35],[-123.05,40.345833],[-123.041667,40.366667],[-123.020833,40.375],[-123.020833,40.391667],[-123.0,40.395833],[-123.0,40.420833],[-122.9625,40.416667],[-122.958333,40.425],[-122.941667,40.425],[-122.929167,40.45],[-122.9,40.45],[-122.883333,40.479167],[-122.854167,40.483333],[-122.845833,40.491667],[-122.85,40.504167],[-122.795833,40.5125],[-122.779167,40.554167],[-122.75,40.554167],[-122.733333,40.575],[-122.691667,40.575],[-122.708333,40.620833],[-122.7375,40.6375],[-122.733333,40.6625],[-122.741667,40.666667],[-122.75,40.695833],[-122.720833,40.695833],[-122.720833,40.708333],[-122.708333,40.708333],[-122.716667,40.745833],[-122.679167,40.770833],[-122.666667,40.770833],[-122.658333,40.783333],[-122.6625,40.8],[-122.654167,40.8125],[-122.6625,40.833333],[-122.6375,40.845833],[-122.625,40.879167],[-122.6125,40.879167],[-122.6,40.9],[-122.608333,40.929167],[-122.6,40.9375],[-122.595833,40.975],[-122.5875,40.983333],[-122.566667,40.983333],[-122.55,41.004167],[-122.529167,41.004167],[-122.525,41.025],[-122.5375,41.075],[-122.516667,41.0875],[-122.454167,41.095833],[-122.445833,41.120833],[-122.454167,41.141667],[-122.45,41.158333],[-122.470833,41.175],[-122.495833,41.175],[-122.504167,41.204167],[-122.520833,41.208333],[-122.508333,41.245833],[-122.5125,41.2875],[-122.5,41.291667],[-122.5,41.3125],[-122.470833,41.325],[-122.4375,41.325],[-122.416667,41.345833],[-122.4125,41.366667],[-122.383333,41.383333],[-122.370833,41.383333],[-122.345833,41.366667],[-122.333333,41.379167],[-122.283333,41.3875],[-122.254167,41.416667],[-122.229167,41.416667],[-122.2,41.404167],[-122.1625,41.479167],[-122.145833,41.483333],[-122.141667,41.5125],[-122.129167,41.5125],[-122.120833,41.5],[-122.079167,41.5],[-122.079167,41.491667],[-122.070833,41.491667],[-122.058333,41.475],[-122.054167,41.45],[-122.0125,41.470833],[-121.966667,41.4625],[-121.958333,41.475],[-121.908333,41.475],[-121.895833,41.483333],[-121.891667,41.5125],[-121.85,41.520833],[-121.841667,41.533333],[-121.816667,41.533333],[-121.8125,41.545833],[-121.8,41.545833],[-121.8,41.554167],[-121.7625,41.545833],[-121.758333,41.554167],[-121.745833,41.545833],[-121.745833,41.558333],[-121.729167,41.570833],[-121.679167,41.570833],[-121.666667,41.591667],[-121.645833,41.5875],[-121.641667,41.6],[-121.604167,41.620833],[-121.5375,41.6125],[-121.529167,41.608333],[-121.529167,41.595833],[-121.508333,41.6],[-121.508333,41.575],[-121.4875,41.541667],[-121.4625,41.5625],[-121.408333,41.5625],[-121.379167,41.575],[-121.341667,41.566667],[-121.325,41.579167],[-121.283333,41.583333],[-121.279167,41.575],[-121.25,41.566667],[-121.25,41.554167],[-121.233333,41.5375],[-121.220833,41.5375],[-121.195833,41.520833],[-121.2,41.504167],[-121.191667,41.483333],[-121.1625,41.483333],[-121.1625,41.475],[-121.1375,41.466667],[-121.125,41.466667],[-121.116667,41.525],[-121.033333,41.5375],[-121.033333,41.575],[-121.020833,41.5875],[-120.979167,41.595833],[-120.966667,41.6125],[-120.958333,41.6125],[-120.95,41.6],[-120.954167,41.570833],[-120.9375,41.566667],[-120.9375,41.558333],[-120.916667,41.558333],[-120.904167,41.541667],[-120.8875,41.545833],[-120.875,41.529167],[-120.866667,41.529167],[-120.8625,41.566667],[-120.841667,41.579167],[-120.8375,41.595833],[-120.825,41.595833],[-120.829167,41.6125],[-120.820833,41.645833],[-120.808333,41.658333],[-120.816667,41.679167],[-120.808333,41.683333],[-120.808333,41.695833],[-120.775,41.695833],[-120.770833,41.708333],[-120.75,41.7125],[-120.745833,41.729167],[-120.729167,41.733333],[-120.725,41.741667],[-120.7,41.7375],[-120.695833,41.745833],[-120.679167,41.745833],[-120.679167,41.754167],[-120.666667,41.754167],[-120.654167,41.770833],[-120.641667,41.770833],[-120.629167,41.8],[-120.6,41.808333],[-120.6,41.825],[-120.579167,41.825],[-120.583333,41.858333],[-120.570833,41.858333],[-120.575,41.895833],[-120.566667,41.904167],[-120.566667,41.941667],[-120.579167,41.9625],[-120.6,41.958333],[-120.620833,41.975],[-120.65,41.970833],[-120.666667,41.975],[-120.670833,41.9875],[-120.7,41.991667],[-120.708333,42.0125],[-120.7,42.016667],[-120.695833,42.0375],[-120.733333,42.045833],[-120.7375,42.058333],[-120.766667,42.0625],[-120.775,42.083333],[-120.804167,42.054167],[-120.820833,42.054167],[-120.829167,42.041667],[-120.866667,42.041667],[-120.879167,42.058333],[-120.891667,42.054167],[-120.895833,42.0625],[-120.908333,42.0625],[-120.9,42.116667],[-120.870833,42.1125],[-120.870833,42.091667],[-120.845833,42.091667],[-120.833333,42.104167],[-120.833333,42.133333],[-120.825,42.1375],[-120.820833,42.166667],[-120.825,42.225],[-120.808333,42.25],[-120.795833,42.254167],[-120.8375,42.291667],[-120.833333,42.308333],[-120.825,42.308333],[-120.825,42.325],[-120.7875,42.345833],[-120.754167,42.345833],[-120.7375,42.333333],[-120.725,42.345833],[-120.708333,42.345833],[-120.708333,42.358333],[-120.7,42.3625],[-120.7,42.379167],[-120.716667,42.3875],[-120.716667,42.4125],[-120.770833,42.4375],[-120.766667,42.4875],[-120.829167,42.491667],[-120.85,42.479167],[-120.870833,42.479167],[-120.875,42.491667],[-120.875,42.5],[-120.85,42.5125],[-120.841667,42.525],[-120.808333,42.525],[-120.7875,42.55],[-120.779167,42.55],[-120.779167,42.570833],[-120.8,42.620833],[-120.7875,42.625],[-120.7875,42.633333],[-120.766667,42.633333],[-120.7625,42.645833],[-120.725,42.641667],[-120.745833,42.670833],[-120.8,42.695833],[-120.808333,42.720833],[-120.820833,42.729167],[-120.820833,42.754167],[-120.841667,42.7625],[-120.845833,42.7875],[-120.8375,42.791667],[-120.8375,42.804167],[-120.845833,42.8125],[-120.845833,42.833333],[-120.8875,42.833333],[-120.891667,42.841667],[-120.908333,42.841667],[-120.916667,42.854167],[-120.9875,42.845833],[-121.004167,42.85],[-121.004167,42.8625],[-121.029167,42.879167],[-121.091667,42.875],[-121.108333,42.883333],[-121.108333,42.891667],[-121.145833,42.8875],[-121.158333,42.9],[-121.183333,42.9],[-121.2125,42.9125],[-121.225,42.9125],[-121.233333,42.9],[-121.283333,42.929167],[-121.295833,42.929167],[-121.3,42.945833],[-121.345833,42.933333],[-121.345833,42.979167],[-121.3375,42.983333],[-121.358333,43.0],[-121.3625,43.029167],[-121.391667,43.066667],[-121.420833,43.075],[-121.433333,43.1],[-121.466667,43.108333],[-121.466667,43.145833],[-121.458333,43.1625],[-121.508333,43.2],[-121.5125,43.216667],[-121.533333,43.229167],[-121.5625,43.225],[-121.575,43.2375],[-121.579167,43.258333],[-121.570833,43.266667],[-121.583333,43.283333],[-121.5875,43.308333],[-121.6,43.316667],[-121.6,43.333333],[-121.620833,43.3125],[-121.633333,43.3125],[-121.633333,43.304167],[-121.645833,43.308333],[-121.645833,43.329167],[-121.654167,43.333333],[-121.679167,43.3125],[-121.7,43.3125],[-121.7125,43.304167],[-121.716667,43.295833],[-121.704167,43.291667],[-121.704167,43.270833],[-121.716667,43.254167],[-121.716667,43.225],[-121.745833,43.229167],[-121.745833,43.220833],[-121.758333,43.220833],[-121.754167,43.233333],[-121.7625,43.245833],[-121.783333,43.229167],[-121.795833,43.229167],[-121.795833,43.220833],[-121.808333,43.220833],[-121.820833,43.241667],[-121.845833,43.241667],[-121.9,43.275],[-121.933333,43.275],[-121.9375,43.2625],[-121.954167,43.254167],[-121.979167,43.2625],[-121.991667,43.279167],[-122.008333,43.283333],[-122.0,43.3125],[-122.016667,43.320833],[-122.0125,43.345833],[-122.020833,43.358333],[-122.033333,43.358333],[-122.0375,43.375],[-122.058333,43.383333],[-122.0625,43.4],[-122.091667,43.391667],[-122.091667,43.383333],[-122.104167,43.379167],[-122.1375,43.379167],[-122.158333,43.395833],[-122.204167,43.404167],[-122.225,43.383333],[-122.2625,43.3875],[-122.279167,43.370833],[-122.3375,43.370833],[-122.341667,43.358333],[-122.358333,43.358333],[-122.4,43.3875],[-122.425,43.379167],[-122.433333,43.395833],[-122.479167,43.404167],[-122.479167,43.4125],[-122.458333,43.425],[-122.454167,43.445833],[-122.475,43.458333],[-122.479167,43.479167],[-122.5,43.475],[-122.516667,43.483333],[-122.495833,43.508333],[-122.495833,43.520833],[-122.516667,43.529167],[-122.516667,43.541667],[-122.5375,43.55],[-122.558333,43.579167],[-122.583333,43.583333],[-122.595833,43.595833],[-122.620833,43.5875],[-122.620833,43.579167],[-122.645833,43.579167],[-122.654167,43.5875],[-122.658333,43.570833],[-122.6875,43.554167],[-122.691667,43.533333],[-122.704167,43.533333],[-122.708333,43.520833],[-122.725,43.516667],[-122.7625,43.516667],[-122.7875,43.533333],[-122.791667,43.525],[-122.820833,43.520833],[-122.829167,43.508333],[-122.8625,43.508333],[-122.879167,43.525],[-122.954167,43.525],[-122.958333,43.533333],[-122.970833,43.529167],[-122.991667,43.541667],[-123.0,43.533333],[-123.079167,43.5375],[-123.091667,43.525],[-123.120833,43.525],[-123.120833,43.545833],[-123.108333,43.5625],[-123.104167,43.591667],[-123.120833,43.6],[-123.133333,43.633333],[-123.133333,43.704167],[-123.154167,43.729167],[-123.125,43.741667],[-123.125,43.7625],[-123.1375,43.770833],[-123.133333,43.791667],[-123.15,43.795833],[-123.145833,43.825],[-123.154167,43.825],[-123.1625,43.8375],[-123.158333,43.85],[-123.141667,43.854167],[-123.129167,43.870833],[-123.145833,43.870833],[-123.175,43.891667],[-123.175,43.883333],[-123.204167,43.8625],[-123.254167,43.8625],[-123.266667,43.879167],[-123.320833,43.8875],[-123.325,43.9],[-123.316667,43.904167],[-123.316667,43.920833],[-123.3375,43.920833],[-123.329167,43.9375],[-123.35,43.9375],[-123.375,43.975],[-123.416667,43.970833],[-123.429167,43.995833],[-123.454167,44.0],[-123.454167,44.016667],[-123.470833,44.025],[-123.479167,44.045833],[-123.508333,44.05],[-123.529167,44.041667],[-123.5375,44.058333],[-123.55,44.058333],[-123.545833,44.129167],[-123.525,44.133333],[-123.4875,44.166667],[-123.479167,44.183333],[-123.4875,44.2],[-123.483333,44.2125],[-123.458333,44.2125],[-123.454167,44.220833],[-123.433333,44.220833],[-123.433333,44.229167],[-123.425,44.229167],[-123.425,44.241667],[-123.445833,44.266667],[-123.441667,44.304167],[-123.45,44.320833],[-123.441667,44.341667],[-123.45,44.366667],[-123.466667,44.366667],[-123.470833,44.3875],[-123.483333,44.3875],[-123.5,44.404167],[-123.5,44.416667],[-123.483333,44.420833],[-123.483333,44.433333],[-123.491667,44.4375],[-123.4875,44.4625],[-123.5,44.4625],[-123.5125,44.483333],[-123.533333,44.479167],[-123.55,44.508333],[-123.583333,44.508333],[-123.5875,44.533333],[-123.616667,44.545833],[-123.616667,44.554167],[-123.633333,44.5625],[-123.633333,44.583333],[-123.65,44.595833],[-123.645833,44.629167],[-123.620833,44.629167],[-123.616667,44.616667],[-123.595833,44.616667],[-123.583333,44.620833],[-123.5875,44.629167],[-123.575,44.641667],[-123.579167,44.704167],[-123.5625,44.716667],[-123.566667,44.733333],[-123.595833,44.7375],[-123.6,44.75],[-123.616667,44.745833],[-123.633333,44.7625],[-123.654167,44.766667],[-123.645833,44.775],[-123.645833,44.795833],[-123.6375,44.795833],[-123.6375,44.816667],[-123.591667,44.820833],[-123.583333,44.854167],[-123.633333,44.866667],[-123.6375,44.875],[-123.629167,44.875],[-123.6125,44.9],[-123.591667,44.904167],[-123.583333,44.9375],[-123.6,44.9375],[-123.608333,44.95],[-123.620833,44.95],[-123.645833,44.970833],[-123.704167,44.975],[-123.733333,44.9625],[-123.754167,44.966667],[-123.758333,44.991667],[-123.741667,44.995833],[-123.741667,44.9875],[-123.729167,44.9875],[-123.704167,45.008333],[-123.716667,45.0375],[-123.704167,45.0625],[-123.7125,45.0625],[-123.7125,45.075],[-123.729167,45.091667],[-123.75,45.091667],[-123.758333,45.141667],[-123.729167,45.158333],[-123.729167,45.179167],[-123.716667,45.1875],[-123.7125,45.208333],[-123.675,45.195833],[-123.658333,45.179167],[-123.641667,45.179167],[-123.629167,45.183333],[-123.629167,45.191667],[-123.608333,45.1875],[-123.6125,45.2125],[-123.575,45.216667],[-123.566667,45.204167],[-123.5375,45.208333],[-123.529167,45.2375],[-123.508333,45.2375],[-123.491667,45.25],[-123.491667,45.266667],[-123.470833,45.270833],[-123.470833,45.283333],[-123.445833,45.283333],[-123.445833,45.295833],[-123.416667,45.3125],[-123.416667,45.325],[-123.433333,45.333333],[-123.433333,45.354167],[-123.45,45.354167],[-123.454167,45.3625],[-123.45,45.391667],[-123.420833,45.404167],[-123.420833,45.420833],[-123.4125,45.429167],[-123.391667,45.429167],[-123.383333,45.416667],[-123.345833,45.416667],[-123.354167,45.429167],[-123.35,45.45],[-123.3875,45.454167],[-123.4,45.4625],[-123.395833,45.4875],[-123.408333,45.491667],[-123.408333,45.504167],[-123.4,45.508333],[-123.391667,45.545833],[-123.375,45.55],[-123.3625,45.575],[-123.325,45.575],[-123.3125,45.5875],[-123.3,45.583333],[-123.3,45.604167],[-123.3375,45.616667],[-123.341667,45.629167],[-123.370833,45.620833],[-123.383333,45.625],[-123.404167,45.666667],[-123.404167,45.691667],[-123.375,45.695833],[-123.366667,45.6875],[-123.333333,45.683333],[-123.333333,45.691667],[-123.295833,45.7125],[-123.2625,45.708333],[-123.2625,45.716667],[-123.241667,45.733333],[-123.241667,45.75],[-123.179167,45.75],[-123.175,45.758333],[-123.1625,45.758333],[-123.1625,45.75],[-123.145833,45.75],[-123.125,45.758333],[-123.125,45.770833],[-123.0875,45.795833],[-123.05,45.795833],[-123.054167,45.820833],[-123.045833,45.825],[-123.05,45.841667],[-123.033333,45.858333],[-123.033333,45.891667],[-123.054167,45.9],[-123.041667,45.904167],[-123.0375,45.920833],[-123.045833,45.933333],[-123.091667,45.954167],[-123.1125,45.983333],[-123.133333,45.983333],[-123.170833,46.016667],[-123.1875,46.016667],[-123.2,46.0375],[-123.241667,46.0375],[-123.295833,46.079167],[-123.341667,46.091667],[-123.391667,46.083333],[-123.4125,46.066667],[-123.454167,46.0875],[-123.466667,46.054167],[-123.479167,46.05],[-123.491667,46.058333],[-123.5125,46.045833],[-123.541667,46.041667],[-123.541667,46.033333],[-123.558333,46.020833],[-123.554167,46.004167],[-123.595833,46.004167],[-123.6,45.991667],[-123.6125,45.991667],[-123.625,45.975],[-123.641667,45.970833],[-123.645833,45.958333],[-123.658333,45.958333],[-123.683333,45.941667],[-123.6875,45.929167],[-123.7375,45.941667],[-123.775,45.941667],[-123.783333,45.954167],[-123.804167,45.958333],[-123.854167,45.958333],[-123.879167,45.975],[-123.879167,46.0125],[-123.866667,46.016667],[-123.8625,46.058333],[-123.875,46.058333],[-123.883333,46.070833],[-123.883333,46.091667],[-123.895833,46.1],[-123.895833,46.1375],[-123.883333,46.145833],[-123.883333,46.154167],[-123.858333,46.154167],[-123.858333,46.1625],[-123.9,46.170833],[-123.904167,46.183333],[-123.920833,46.183333],[-123.920833,46.195833],[-123.941667,46.2],[-123.945833,46.208333],[-123.975,46.216667],[-123.975,46.208333],[-123.9875,46.208333],[-123.995833,46.225],[-123.983333,46.229167],[-123.991667,46.229167],[-124.0,46.241667],[-124.016667,46.241667],[-124.0375,46.229167],[-124.008333,46.220833],[-123.970833,46.1625],[-123.9375,46.0875],[-123.929167,46.0125],[-123.920833,46.0125],[-123.933333,46.004167],[-123.9375,45.979167],[-123.958333,45.979167],[-123.975,45.970833],[-123.9875,45.95],[-124.0,45.95],[-123.995833,45.933333],[-123.979167,45.929167],[-123.979167,45.916667],[-123.966667,45.908333],[-123.966667,45.804167],[-123.970833,45.783333],[-123.9875,45.766667],[-123.983333,45.758333],[-123.970833,45.7625],[-123.966667,45.741667],[-123.958333,45.741667],[-123.941667,45.720833],[-123.941667,45.645833],[-123.954167,45.579167],[-123.966667,45.575],[-123.9625,45.5625],[-123.95,45.558333],[-123.958333,45.508333],[-123.983333,45.4875],[-123.970833,45.479167],[-123.975,45.458333],[-123.954167,45.433333],[-123.9625,45.433333],[-123.975,45.354167],[-124.0125,45.341667],[-124.0125,45.333333],[-123.970833,45.333333],[-123.966667,45.279167],[-123.954167,45.279167],[-123.954167,45.270833],[-123.966667,45.275],[-123.970833,45.2375],[-123.983333,45.220833],[-123.983333,45.2125],[-123.970833,45.2125],[-123.970833,45.158333],[-123.983333,45.1125],[-123.995833,45.091667],[-124.0125,45.083333],[-124.020833,45.054167],[-124.008333,45.0375],[-124.016667,45.033333],[-124.0125,44.995833],[-124.029167,44.941667],[-124.029167,44.9125],[-124.054167,44.841667],[-124.070833,44.833333],[-124.066667,44.804167],[-124.075,44.804167],[-124.079167,44.766667],[-124.070833,44.766667],[-124.058333,44.729167],[-124.066667,44.691667],[-124.083333,44.679167],[-124.083333,44.670833],[-124.0625,44.670833],[-124.058333,44.658333],[-124.070833,44.620833],[-124.066667,44.6],[-124.075,44.5375],[-124.0875,44.504167],[-124.0875,44.425],[-124.075,44.433333],[-124.066667,44.429167],[-124.0875,44.420833],[-124.1,44.333333],[-124.1125,44.320833],[-124.108333,44.304167],[-124.116667,44.295833],[-124.116667,44.175],[-124.120833,44.145833],[-124.133333,44.141667],[-124.125,44.0875],[-124.141667,44.020833],[-124.1375,43.995833],[-124.158333,43.8875],[-124.154167,43.875],[-124.166667,43.845833],[-124.195833,43.7],[-124.2125,43.670833],[-124.220833,43.6],[-124.245833,43.525],[-124.279167,43.45],[-124.333333,43.3625],[-124.35,43.345833],[-124.379167,43.345833],[-124.379167,43.333333],[-124.3875,43.333333],[-124.404167,43.3125],[-124.404167,43.3],[-124.391667,43.295833],[-124.391667,43.275],[-124.383333,43.266667],[-124.4,43.225],[-124.395833,43.208333],[-124.408333,43.166667],[-124.420833,43.133333],[-124.4375,43.116667],[-124.433333,43.091667],[-124.458333,43.004167],[-124.495833,42.925],[-124.520833,42.8875],[-124.5375,42.879167],[-124.5375,42.8625],[-124.55,42.858333],[-124.545833,42.85],[-124.554167,42.841667],[-124.566667,42.845833],[-124.566667,42.833333],[-124.545833,42.825],[-124.525,42.795833],[-124.516667,42.729167],[-124.5,42.7375],[-124.475,42.733333],[-124.458333,42.691667],[-124.45,42.6875],[-124.454167,42.675],[-124.4125,42.654167],[-124.416667,42.641667],[-124.4,42.616667],[-124.4125,42.5875],[-124.395833,42.583333],[-124.391667,42.566667],[-124.408333,42.520833],[-124.425,42.5],[-124.425,42.454167],[-124.4375,42.445833],[-124.425,42.375],[-124.433333,42.316667],[-124.429167,42.308333],[-124.4125,42.308333],[-124.408333,42.291667],[-124.416667,42.25],[-124.395833,42.2375],[-124.391667,42.225],[-124.383333,42.225],[-124.379167,42.195833],[-124.3625,42.179167],[-124.3625,42.1625],[-124.370833,42.1625],[-124.370833,42.154167],[-124.3625,42.145833],[-124.366667,42.1375],[-124.354167,42.1375],[-124.354167,42.0875],[-124.341667,42.091667],[-124.3375,42.083333],[-124.325,42.083333],[-124.325,42.0625],[-124.304167,42.0625],[-124.295833,42.041667],[-124.270833,42.045833],[-124.258333,42.025],[-124.245833,42.025],[-124.220833,42.008333],[-124.208333,41.9875],[-124.208333,41.958333],[-124.220833,41.954167],[-124.220833,41.945833],[-124.204167,41.945833],[-124.208333,41.8875],[-124.233333,41.8125],[-124.245833,41.791667],[-124.258333,41.7875],[-124.254167,41.758333],[-124.233333,41.766667],[-124.225,41.754167],[-124.2,41.741667],[-124.2,41.733333],[-124.166667,41.741667],[-124.154167,41.729167],[-124.145833,41.7125],[-124.141667,41.6625],[-124.120833,41.641667],[-124.116667,41.6125],[-124.104167,41.604167],[-124.104167,41.566667],[-124.095833,41.55],[-124.070833,41.545833],[-124.083333,41.5375],[-124.083333,41.504167],[-124.066667,41.470833],[-124.075,41.358333],[-124.125,41.183333],[-124.145833,41.141667],[-124.166667,41.141667],[-124.166667,41.1]],[[-124.1875,41.745833],[-124.1875,41.7375],[-124.191667,41.7375],[-124.195833,41.745833],[-124.1875,41.745833]],[[-124.066667,44.433333],[-124.066667,44.4375],[-124.0625,44.4375],[-124.066667,44.433333]],[[-122.933333,38.033333],[-122.9375,38.033333],[-122.9375,38.041667],[-122.933333,38.033333]],[[-122.9375,38.058333],[-122.941667,38.041667],[-122.945833,38.058333],[-122.933333,38.066667],[-122.929167,38.058333],[-122.9375,38.058333]],[[-122.954167,38.229167],[-122.954167,38.2125],[-122.966667,38.225],[-122.954167,38.229167]],[[-122.954167,38.208333],[-122.941667,38.216667],[-122.929167,38.208333],[-122.920833,38.1875],[-122.904167,38.175],[-122.904167,38.1625],[-122.920833,38.170833],[-122.945833,38.208333],[-122.954167,38.208333]],[[-122.904167,38.15],[-122.904167,38.1625],[-122.895833,38.1625],[-122.891667,38.145833],[-122.875,38.141667],[-122.866667,38.129167],[-122.866667,38.116667],[-122.891667,38.133333],[-122.891667,38.141667],[-122.904167,38.15]],[[-122.866667,38.116667],[-122.8625,38.116667],[-122.8625,38.1125],[-122.866667,38.116667]],[[-122.8625,38.1125],[-122.854167,38.1125],[-122.854167,38.108333],[-122.8625,38.1125]],[[-123.945833,45.395833],[-123.945833,45.3875],[-123.954167,45.3875],[-123.9625,45.375],[-123.95,45.429167],[-123.933333,45.408333],[-123.9375,45.395833],[-123.945833,45.395833]],[[-124.033333,44.616667],[-124.0375,44.616667],[-124.0375,44.625],[-124.033333,44.616667]],[[-124.054167,44.4375],[-124.05,44.4375],[-124.05,44.433333],[-124.054167,44.4375]],[[-124.054167,44.4375],[-124.058333,44.4375],[-124.058333,44.445833],[-124.054167,44.4375]],[[-124.179167,43.6875],[-124.183333,43.6875],[-124.183333,43.691667],[-124.179167,43.6875]],[[-124.1875,43.679167],[-124.191667,43.679167],[-124.191667,43.683333],[-124.1875,43.679167]],[[-124.195833,43.670833],[-124.2,43.670833],[-124.2,43.675],[-124.195833,43.670833]],[[-124.2125,43.395833],[-124.216667,43.425],[-124.233333,43.429167],[-124.229167,43.45],[-124.2125,43.45],[-124.225,43.433333],[-124.195833,43.416667],[-124.2,43.395833],[-124.191667,43.395833],[-124.1875,43.375],[-124.2,43.375],[-124.208333,43.404167],[-124.2125,43.395833]],[[-124.2125,43.45],[-124.2125,43.454167],[-124.204167,43.454167],[-124.2125,43.45]],[[-124.233333,43.429167],[-124.233333,43.425],[-124.25,43.425],[-124.233333,43.429167]],[[-124.25,43.425],[-124.25,43.420833],[-124.254167,43.420833],[-124.25,43.425]],[[-124.2625,43.420833],[-124.266667,43.404167],[-124.279167,43.4],[-124.279167,43.4125],[-124.2625,43.420833]],[[-124.3125,43.375],[-124.291667,43.383333],[-124.316667,43.35],[-124.329167,43.35],[-124.333333,43.358333],[-124.320833,43.358333],[-124.3125,43.375]],[[-124.2875,43.383333],[-124.291667,43.391667],[-124.283333,43.395833],[-124.283333,43.3875],[-124.2875,43.383333]],[[-124.320833,43.333333],[-124.325,43.333333],[-124.325,43.3375],[-124.320833,43.333333]],[[-124.320833,43.325],[-124.316667,43.325],[-124.316667,43.320833],[-124.320833,43.325]],[[-124.320833,43.325],[-124.325,43.325],[-124.325,43.329167],[-124.320833,43.325]],[[-124.1375,40.808333],[-124.170833,40.825],[-124.154167,40.858333],[-124.133333,40.8625],[-124.120833,40.85],[-124.1,40.858333],[-124.0875,40.85],[-124.0875,40.825],[-124.1375,40.808333]],[[-124.1875,40.804167],[-124.183333,40.816667],[-124.179167,40.816667],[-124.179167,40.804167],[-124.1875,40.804167]],[[-124.191667,40.7875],[-124.191667,40.783333],[-124.195833,40.783333],[-124.191667,40.7875]],[[-124.1875,40.7875],[-124.191667,40.7875],[-124.191667,40.8],[-124.1875,40.8],[-124.1875,40.7875]],[[-124.2375,40.741667],[-124.220833,40.7375],[-124.225,40.720833],[-124.216667,40.704167],[-124.225,40.704167],[-124.225,40.691667],[-124.2625,40.7],[-124.2375,40.741667]],[[-124.225,40.741667],[-124.229167,40.758333],[-124.216667,40.758333],[-124.216667,40.766667],[-124.204167,40.775],[-124.2,40.75],[-124.225,40.741667]],[[-124.204167,40.775],[-124.204167,40.779167],[-124.195833,40.779167],[-124.204167,40.775]],[[-124.304167,40.65],[-124.304167,40.6375],[-124.295833,40.633333],[-124.308333,40.629167],[-124.3125,40.641667],[-124.304167,40.65]],[[-124.283333,40.620833],[-124.2875,40.620833],[-124.2875,40.625],[-124.283333,40.620833]],[[-122.833333,38.091667],[-122.85,38.095833],[-122.85,38.104167],[-122.833333,38.091667]]]]}}
