{"type":"Feature","properties":{"mrgid":63636,"name":"Maracaibo","placeType":"Freshwater Ecoregion of the World (FEOW)","source":"MarineRegions:tnc_wwf_feow_hydrosheds"},"geometry":{"type":"MultiPolygon","coordinates":[[[[-72.841667,7.308333],[-72.825,7.304167],[-72.8375,7.270833],[-72.8,7.25],[-72.8,7.241667],[-72.770833,7.245833],[-72.770833,7.258333],[-72.729167,7.254167],[-72.729167,7.275],[-72.704167,7.291667],[-72.708333,7.316667],[-72.7,7.333333],[-72.683333,7.333333],[-72.658333,7.316667],[-72.654167,7.3375],[-72.6375,7.341667],[-72.633333,7.35],[-72.616667,7.35],[-72.604167,7.3375],[-72.579167,7.341667],[-72.575,7.425],[-72.583333,7.433333],[-72.583333,7.45],[-72.55,7.4625],[-72.545833,7.479167],[-72.533333,7.4875],[-72.516667,7.483333],[-72.5125,7.466667],[-72.491667,7.458333],[-72.4875,7.441667],[-72.4625,7.425],[-72.45,7.4],[-72.4375,7.404167],[-72.416667,7.395833],[-72.408333,7.408333],[-72.395833,7.408333],[-72.395833,7.479167],[-72.379167,7.525],[-72.391667,7.533333],[-72.395833,7.570833],[-72.408333,7.575],[-72.4375,7.608333],[-72.441667,7.629167],[-72.425,7.6375],[-72.420833,7.654167],[-72.408333,7.670833],[-72.4,7.670833],[-72.4,7.683333],[-72.408333,7.6875],[-72.408333,7.7375],[-72.395833,7.741667],[-72.3875,7.758333],[-72.375,7.758333],[-72.345833,7.795833],[-72.316667,7.8],[-72.316667,7.883333],[-72.279167,7.870833],[-72.25,7.875],[-72.2375,7.866667],[-72.2125,7.883333],[-72.195833,7.883333],[-72.1875,7.908333],[-72.158333,7.933333],[-72.141667,7.9375],[-72.133333,7.975],[-72.083333,7.9875],[-72.083333,7.958333],[-72.066667,7.954167],[-72.05,7.966667],[-72.05,7.9875],[-72.029167,8.0125],[-71.995833,8.020833],[-71.995833,8.0125],[-71.975,8.0125],[-71.958333,8.033333],[-71.925,8.033333],[-71.929167,8.058333],[-71.9125,8.079167],[-71.916667,8.1125],[-71.9,8.133333],[-71.895833,8.1625],[-71.879167,8.166667],[-71.870833,8.179167],[-71.854167,8.179167],[-71.85,8.166667],[-71.820833,8.158333],[-71.820833,8.170833],[-71.808333,8.175],[-71.8,8.2],[-71.791667,8.2],[-71.791667,8.225],[-71.7625,8.225],[-71.741667,8.25],[-71.733333,8.25],[-71.733333,8.258333],[-71.708333,8.254167],[-71.695833,8.266667],[-71.6875,8.295833],[-71.670833,8.3],[-71.654167,8.2875],[-71.616667,8.2875],[-71.595833,8.266667],[-71.579167,8.266667],[-71.575,8.279167],[-71.545833,8.270833],[-71.533333,8.275],[-71.520833,8.245833],[-71.504167,8.2375],[-71.4875,8.2625],[-71.454167,8.2625],[-71.45,8.283333],[-71.425,8.308333],[-71.408333,8.308333],[-71.4,8.295833],[-71.3625,8.279167],[-71.35,8.2875],[-71.345833,8.316667],[-71.3375,8.325],[-71.308333,8.320833],[-71.308333,8.329167],[-71.279167,8.333333],[-71.275,8.35],[-71.245833,8.35],[-71.2375,8.3625],[-71.216667,8.3625],[-71.179167,8.325],[-71.166667,8.333333],[-71.166667,8.358333],[-71.158333,8.366667],[-71.141667,8.366667],[-71.1375,8.383333],[-71.116667,8.3875],[-71.108333,8.370833],[-71.0875,8.366667],[-71.079167,8.383333],[-71.05,8.395833],[-71.041667,8.404167],[-71.041667,8.4375],[-71.0,8.445833],[-71.004167,8.466667],[-70.979167,8.504167],[-70.9875,8.545833],[-70.995833,8.55],[-70.991667,8.570833],[-71.0,8.591667],[-70.966667,8.6],[-70.958333,8.620833],[-70.941667,8.633333],[-70.920833,8.625],[-70.908333,8.633333],[-70.895833,8.65],[-70.895833,8.670833],[-70.866667,8.675],[-70.870833,8.7125],[-70.854167,8.725],[-70.8375,8.720833],[-70.833333,8.729167],[-70.816667,8.729167],[-70.8,8.75],[-70.8,8.758333],[-70.816667,8.758333],[-70.829167,8.775],[-70.829167,8.85],[-70.8,8.85],[-70.795833,8.858333],[-70.770833,8.866667],[-70.766667,8.8875],[-70.741667,8.891667],[-70.741667,8.908333],[-70.729167,8.9125],[-70.716667,8.945833],[-70.7,8.945833],[-70.7,8.954167],[-70.6875,8.958333],[-70.6625,8.9875],[-70.641667,8.991667],[-70.629167,9.008333],[-70.591667,9.020833],[-70.575,9.041667],[-70.5625,9.041667],[-70.55,9.0625],[-70.545833,9.095833],[-70.508333,9.1],[-70.508333,9.108333],[-70.495833,9.108333],[-70.491667,9.120833],[-70.458333,9.120833],[-70.45,9.129167],[-70.445833,9.183333],[-70.4375,9.183333],[-70.425,9.2],[-70.4125,9.2],[-70.4125,9.225],[-70.391667,9.233333],[-70.379167,9.245833],[-70.379167,9.258333],[-70.341667,9.283333],[-70.333333,9.3125],[-70.320833,9.3125],[-70.295833,9.35],[-70.295833,9.375],[-70.2625,9.379167],[-70.254167,9.408333],[-70.241667,9.416667],[-70.2125,9.4125],[-70.2,9.425],[-70.2,9.441667],[-70.1875,9.45],[-70.1875,9.4625],[-70.170833,9.4625],[-70.15,9.491667],[-70.1375,9.491667],[-70.120833,9.529167],[-70.1125,9.529167],[-70.125,9.6125],[-70.1,9.6375],[-70.091667,9.675],[-70.1,9.683333],[-70.133333,9.6875],[-70.15,9.670833],[-70.208333,9.675],[-70.233333,9.658333],[-70.2375,9.6375],[-70.2625,9.620833],[-70.266667,9.6],[-70.275,9.6],[-70.2625,9.658333],[-70.2875,9.666667],[-70.2875,9.7125],[-70.316667,9.716667],[-70.316667,9.729167],[-70.3,9.7375],[-70.291667,9.754167],[-70.2875,9.8],[-70.3,9.825],[-70.325,9.825],[-70.320833,9.858333],[-70.341667,9.870833],[-70.341667,9.883333],[-70.358333,9.895833],[-70.358333,9.904167],[-70.420833,9.904167],[-70.420833,9.8875],[-70.45,9.8875],[-70.458333,9.866667],[-70.466667,9.866667],[-70.4875,9.891667],[-70.520833,9.891667],[-70.541667,9.9125],[-70.533333,9.941667],[-70.55,9.945833],[-70.554167,9.958333],[-70.591667,9.954167],[-70.591667,9.970833],[-70.575,9.983333],[-70.570833,10.025],[-70.558333,10.045833],[-70.558333,10.054167],[-70.579167,10.070833],[-70.5625,10.120833],[-70.575,10.2],[-70.583333,10.204167],[-70.5875,10.225],[-70.616667,10.225],[-70.620833,10.245833],[-70.633333,10.25],[-70.633333,10.258333],[-70.65,10.254167],[-70.65,10.2625],[-70.675,10.270833],[-70.666667,10.295833],[-70.654167,10.304167],[-70.658333,10.316667],[-70.679167,10.3],[-70.7375,10.3],[-70.7375,10.3125],[-70.758333,10.325],[-70.7625,10.341667],[-70.754167,10.395833],[-70.770833,10.408333],[-70.770833,10.420833],[-70.783333,10.425],[-70.7875,10.445833],[-70.804167,10.4625],[-70.829167,10.4625],[-70.845833,10.445833],[-70.891667,10.45],[-70.904167,10.4375],[-70.925,10.4375],[-70.95,10.416667],[-70.9625,10.416667],[-70.9625,10.408333],[-70.975,10.408333],[-70.975,10.4],[-70.9875,10.395833],[-71.0125,10.4],[-71.008333,10.420833],[-71.029167,10.425],[-71.041667,10.441667],[-71.083333,10.420833],[-71.125,10.45],[-71.129167,10.475],[-71.154167,10.491667],[-71.158333,10.5375],[-71.175,10.554167],[-71.179167,10.575],[-71.204167,10.595833],[-71.2125,10.625],[-71.229167,10.625],[-71.233333,10.645833],[-71.254167,10.654167],[-71.266667,10.6875],[-71.283333,10.695833],[-71.283333,10.708333],[-71.295833,10.704167],[-71.308333,10.7125],[-71.329167,10.7125],[-71.341667,10.725],[-71.391667,10.725],[-71.391667,10.716667],[-71.416667,10.704167],[-71.429167,10.7375],[-71.4375,10.741667],[-71.429167,10.75],[-71.425,10.791667],[-71.416667,10.795833],[-71.425,10.8125],[-71.433333,10.8125],[-71.433333,10.795833],[-71.5875,10.8],[-71.591667,10.783333],[-71.5625,10.775],[-71.5625,10.7625],[-71.554167,10.758333],[-71.5375,10.758333],[-71.545833,10.741667],[-71.525,10.725],[-71.533333,10.7125],[-71.525,10.7],[-71.533333,10.6625],[-71.525,10.658333],[-71.525,10.645833],[-71.533333,10.633333],[-71.5,10.616667],[-71.5,10.604167],[-71.533333,10.591667],[-71.533333,10.558333],[-71.541667,10.545833],[-71.525,10.541667],[-71.5125,10.516667],[-71.466667,10.495833],[-71.458333,10.483333],[-71.454167,10.445833],[-71.466667,10.4375],[-71.470833,10.408333],[-71.483333,10.395833],[-71.479167,10.3875],[-71.4625,10.383333],[-71.470833,10.366667],[-71.4625,10.3625],[-71.45,10.370833],[-71.441667,10.358333],[-71.433333,10.358333],[-71.425,10.333333],[-71.416667,10.329167],[-71.416667,10.304167],[-71.375,10.2625],[-71.3625,10.2125],[-71.345833,10.204167],[-71.341667,10.191667],[-71.333333,10.195833],[-71.325,10.183333],[-71.3,10.175],[-71.279167,10.154167],[-71.275,10.133333],[-71.266667,10.133333],[-71.241667,10.079167],[-71.241667,10.0375],[-71.229167,10.020833],[-71.233333,10.004167],[-71.220833,10.008333],[-71.2125,9.970833],[-71.175,9.966667],[-71.154167,9.954167],[-71.158333,9.941667],[-71.15,9.945833],[-71.104167,9.891667],[-71.079167,9.845833],[-71.079167,9.833333],[-71.091667,9.825],[-71.091667,9.795833],[-71.070833,9.783333],[-71.054167,9.75],[-71.041667,9.745833],[-71.029167,9.7125],[-71.05,9.7],[-71.05,9.654167],[-71.054167,9.633333],[-71.0625,9.629167],[-71.0625,9.591667],[-71.0875,9.554167],[-71.0875,9.520833],[-71.079167,9.5],[-71.1,9.491667],[-71.091667,9.483333],[-71.070833,9.483333],[-71.075,9.3875],[-71.070833,9.366667],[-71.0625,9.366667],[-71.0625,9.345833],[-71.054167,9.345833],[-71.0625,9.316667],[-71.091667,9.304167],[-71.1125,9.283333],[-71.141667,9.275],[-71.158333,9.254167],[-71.208333,9.220833],[-71.208333,9.208333],[-71.220833,9.2],[-71.225,9.166667],[-71.2375,9.15],[-71.25,9.141667],[-71.2625,9.145833],[-71.2625,9.133333],[-71.2875,9.133333],[-71.295833,9.120833],[-71.35,9.0875],[-71.3875,9.083333],[-71.4625,9.054167],[-71.541667,9.0375],[-71.608333,9.0375],[-71.620833,9.075],[-71.633333,9.075],[-71.6375,9.066667],[-71.675,9.070833],[-71.7,9.0625],[-71.7,9.070833],[-71.716667,9.079167],[-71.708333,9.095833],[-71.733333,9.095833],[-71.754167,9.120833],[-71.7375,9.145833],[-71.75,9.208333],[-71.745833,9.2375],[-71.779167,9.229167],[-71.783333,9.241667],[-71.8,9.2375],[-71.795833,9.25],[-71.766667,9.258333],[-71.766667,9.283333],[-71.754167,9.283333],[-71.745833,9.266667],[-71.7375,9.266667],[-71.7375,9.2875],[-71.725,9.283333],[-71.733333,9.329167],[-71.7,9.341667],[-71.7,9.35],[-71.733333,9.35],[-71.733333,9.358333],[-71.716667,9.375],[-71.704167,9.408333],[-71.7125,9.408333],[-71.716667,9.391667],[-71.733333,9.375],[-71.766667,9.3625],[-71.783333,9.379167],[-71.7875,9.395833],[-71.804167,9.4],[-71.816667,9.429167],[-71.879167,9.454167],[-71.908333,9.479167],[-71.920833,9.475],[-71.929167,9.483333],[-71.929167,9.5],[-71.916667,9.491667],[-71.920833,9.508333],[-71.945833,9.525],[-71.958333,9.55],[-71.970833,9.541667],[-71.975,9.55],[-71.975,9.5625],[-71.9625,9.558333],[-71.9625,9.591667],[-71.970833,9.6125],[-72.0,9.6375],[-72.0125,9.666667],[-72.083333,9.741667],[-72.125,9.808333],[-72.125,9.833333],[-72.104167,9.833333],[-72.104167,9.845833],[-72.079167,9.866667],[-72.0625,9.9],[-72.041667,9.920833],[-72.025,9.975],[-72.008333,9.995833],[-71.9875,10.075],[-71.958333,10.1],[-71.9,10.116667],[-71.883333,10.158333],[-71.866667,10.158333],[-71.854167,10.195833],[-71.833333,10.208333],[-71.829167,10.245833],[-71.816667,10.275],[-71.8,10.2875],[-71.7875,10.329167],[-71.733333,10.379167],[-71.7,10.391667],[-71.666667,10.425],[-71.654167,10.425],[-71.654167,10.433333],[-71.629167,10.433333],[-71.625,10.4875],[-71.633333,10.5],[-71.608333,10.566667],[-71.6125,10.595833],[-71.604167,10.6],[-71.604167,10.620833],[-71.6125,10.633333],[-71.6,10.633333],[-71.6,10.641667],[-71.5875,10.65],[-71.583333,10.675],[-71.591667,10.6875],[-71.579167,10.704167],[-71.616667,10.729167],[-71.616667,10.741667],[-71.633333,10.741667],[-71.666667,10.779167],[-71.7125,10.883333],[-71.716667,10.929167],[-71.708333,10.941667],[-71.729167,10.970833],[-71.745833,10.966667],[-71.758333,10.983333],[-71.795833,10.975],[-71.791667,10.954167],[-71.783333,10.95],[-71.791667,10.908333],[-71.808333,10.895833],[-71.85,10.833333],[-71.845833,10.816667],[-71.833333,10.8125],[-71.8375,10.791667],[-71.845833,10.7875],[-71.841667,10.775],[-71.870833,10.766667],[-71.875,10.745833],[-71.895833,10.741667],[-71.904167,10.725],[-71.9375,10.7125],[-71.9375,10.695833],[-71.954167,10.675],[-71.95,10.620833],[-71.975,10.604167],[-71.975,10.595833],[-71.991667,10.583333],[-71.991667,10.570833],[-72.066667,10.570833],[-72.070833,10.579167],[-72.0875,10.575],[-72.095833,10.583333],[-72.120833,10.579167],[-72.1375,10.591667],[-72.158333,10.583333],[-72.179167,10.616667],[-72.225,10.620833],[-72.229167,10.6125],[-72.245833,10.6125],[-72.283333,10.629167],[-72.283333,10.691667],[-72.320833,10.716667],[-72.354167,10.704167],[-72.366667,10.716667],[-72.383333,10.7125],[-72.3875,10.704167],[-72.4,10.716667],[-72.433333,10.708333],[-72.45,10.720833],[-72.495833,10.670833],[-72.558333,10.666667],[-72.570833,10.645833],[-72.583333,10.645833],[-72.583333,10.6375],[-72.6375,10.604167],[-72.629167,10.579167],[-72.6375,10.566667],[-72.679167,10.55],[-72.683333,10.533333],[-72.670833,10.525],[-72.670833,10.508333],[-72.683333,10.483333],[-72.695833,10.483333],[-72.704167,10.4625],[-72.733333,10.441667],[-72.745833,10.4125],[-72.7625,10.408333],[-72.7875,10.358333],[-72.879167,10.375],[-72.904167,10.358333],[-72.908333,10.341667],[-72.895833,10.304167],[-72.908333,10.266667],[-72.9,10.25],[-72.9,10.208333],[-72.908333,10.204167],[-72.904167,10.1875],[-72.920833,10.15],[-72.9125,10.108333],[-72.920833,10.108333],[-72.920833,10.095833],[-72.958333,10.058333],[-72.95,10.045833],[-72.95,10.025],[-72.958333,10.020833],[-72.9625,10.0],[-72.975,9.995833],[-72.979167,9.958333],[-72.995833,9.933333],[-72.995833,9.908333],[-72.979167,9.891667],[-72.991667,9.875],[-72.970833,9.870833],[-72.970833,9.854167],[-72.945833,9.845833],[-72.945833,9.8375],[-72.958333,9.820833],[-72.966667,9.820833],[-72.975,9.8],[-72.995833,9.7875],[-73.004167,9.741667],[-73.020833,9.733333],[-73.033333,9.704167],[-73.054167,9.683333],[-73.058333,9.65],[-73.079167,9.616667],[-73.075,9.591667],[-73.0875,9.570833],[-73.083333,9.554167],[-73.129167,9.558333],[-73.145833,9.545833],[-73.15,9.529167],[-73.166667,9.516667],[-73.166667,9.504167],[-73.175,9.504167],[-73.170833,9.479167],[-73.2,9.470833],[-73.1875,9.441667],[-73.2,9.420833],[-73.220833,9.420833],[-73.225,9.408333],[-73.2375,9.404167],[-73.2375,9.3875],[-73.2625,9.370833],[-73.2625,9.333333],[-73.270833,9.320833],[-73.2875,9.320833],[-73.295833,9.275],[-73.316667,9.25],[-73.320833,9.229167],[-73.329167,9.229167],[-73.333333,9.2125],[-73.354167,9.216667],[-73.375,9.154167],[-73.404167,9.1625],[-73.4125,9.154167],[-73.4125,9.133333],[-73.429167,9.1125],[-73.429167,9.1],[-73.416667,9.091667],[-73.4125,9.05],[-73.420833,9.016667],[-73.4375,9.0],[-73.4375,8.954167],[-73.429167,8.9375],[-73.4375,8.933333],[-73.4375,8.908333],[-73.425,8.904167],[-73.425,8.895833],[-73.433333,8.870833],[-73.445833,8.870833],[-73.445833,8.858333],[-73.429167,8.833333],[-73.429167,8.808333],[-73.4125,8.7875],[-73.4125,8.725],[-73.4,8.7],[-73.404167,8.683333],[-73.4125,8.679167],[-73.4125,8.654167],[-73.4,8.645833],[-73.4,8.629167],[-73.408333,8.595833],[-73.420833,8.583333],[-73.4125,8.575],[-73.4,8.5125],[-73.4125,8.495833],[-73.408333,8.470833],[-73.416667,8.470833],[-73.408333,8.425],[-73.416667,8.420833],[-73.420833,8.3875],[-73.433333,8.375],[-73.433333,8.366667],[-73.425,8.366667],[-73.425,8.345833],[-73.4125,8.316667],[-73.416667,8.2625],[-73.404167,8.254167],[-73.408333,8.229167],[-73.3875,8.225],[-73.366667,8.15],[-73.341667,8.145833],[-73.3375,8.125],[-73.316667,8.116667],[-73.325,8.0875],[-73.316667,8.083333],[-73.308333,8.054167],[-73.308333,8.016667],[-73.295833,7.991667],[-73.275,7.995833],[-73.245833,7.958333],[-73.2375,7.8875],[-73.225,7.875],[-73.225,7.85],[-73.204167,7.858333],[-73.183333,7.841667],[-73.1625,7.841667],[-73.154167,7.833333],[-73.15,7.8],[-73.120833,7.791667],[-73.1125,7.779167],[-73.095833,7.783333],[-73.083333,7.775],[-73.083333,7.783333],[-73.070833,7.783333],[-73.070833,7.8],[-73.0375,7.808333],[-73.016667,7.808333],[-73.008333,7.8],[-73.0125,7.775],[-72.995833,7.766667],[-73.0,7.7125],[-72.983333,7.704167],[-72.954167,7.666667],[-72.954167,7.658333],[-72.970833,7.654167],[-72.979167,7.6125],[-72.991667,7.6],[-72.975,7.525],[-72.941667,7.516667],[-72.929167,7.495833],[-72.891667,7.475],[-72.9,7.433333],[-72.883333,7.408333],[-72.875,7.408333],[-72.870833,7.3875],[-72.845833,7.379167],[-72.85,7.3625],[-72.8375,7.358333],[-72.841667,7.308333]],[[-71.945833,9.525],[-71.945833,9.520833],[-71.95,9.520833],[-71.945833,9.525]],[[-71.9625,9.525],[-71.9625,9.5375],[-71.954167,9.529167],[-71.9625,9.525]],[[-71.929167,9.5],[-71.933333,9.5],[-71.933333,9.504167],[-71.929167,9.5]],[[-71.933333,9.504167],[-71.9375,9.504167],[-71.9375,9.508333],[-71.933333,9.504167]],[[-71.9375,9.508333],[-71.941667,9.508333],[-71.941667,9.5125],[-71.9375,9.508333]],[[-71.941667,9.5125],[-71.945833,9.5125],[-71.945833,9.516667],[-71.941667,9.5125]],[[-71.754167,9.120833],[-71.754167,9.116667],[-71.758333,9.116667],[-71.754167,9.120833]],[[-72.0,9.554167],[-72.004167,9.570833],[-71.9875,9.570833],[-71.979167,9.579167],[-71.975,9.566667],[-72.0,9.554167]],[[-71.833333,9.429167],[-71.833333,9.420833],[-71.858333,9.416667],[-71.879167,9.433333],[-71.854167,9.433333],[-71.833333,9.429167]],[[-71.895833,9.391667],[-71.904167,9.391667],[-71.904167,9.404167],[-71.8875,9.420833],[-71.895833,9.391667]],[[-71.808333,9.391667],[-71.804167,9.391667],[-71.804167,9.383333],[-71.808333,9.391667]],[[-71.804167,9.233333],[-71.8,9.233333],[-71.8,9.229167],[-71.804167,9.233333]]],[[[-71.55,10.608333],[-71.5375,10.6125],[-71.545833,10.625],[-71.554167,10.625],[-71.55,10.608333]]],[[[-71.6375,10.858333],[-71.6375,10.854167],[-71.629167,10.854167],[-71.6375,10.858333]]],[[[-71.6375,10.866667],[-71.6375,10.8625],[-71.629167,10.8625],[-71.6375,10.866667]]]]}}
