{"type":"Feature","properties":{"mrgid":63641,"name":"Orinoco Guiana Shield","placeType":"Freshwater Ecoregion of the World (FEOW)","source":"MarineRegions:tnc_wwf_feow_hydrosheds"},"geometry":{"type":"Polygon","coordinates":[[[-66.491667,2.979167],[-66.483333,2.966667],[-66.4625,2.970833],[-66.4625,2.9625],[-66.445833,2.958333],[-66.425,2.9625],[-66.4375,2.916667],[-66.420833,2.9125],[-66.416667,2.895833],[-66.4,2.9],[-66.395833,2.870833],[-66.383333,2.866667],[-66.383333,2.845833],[-66.35,2.841667],[-66.345833,2.85],[-66.308333,2.85],[-66.308333,2.8],[-66.3,2.795833],[-66.295833,2.779167],[-66.2875,2.779167],[-66.283333,2.8125],[-66.266667,2.816667],[-66.2625,2.858333],[-66.208333,2.845833],[-66.1625,2.85],[-66.154167,2.841667],[-66.129167,2.858333],[-66.1375,2.9],[-66.0875,2.904167],[-66.0875,2.891667],[-66.075,2.891667],[-66.070833,2.870833],[-66.054167,2.875],[-66.041667,2.8625],[-66.025,2.8625],[-66.020833,2.870833],[-66.0375,2.8875],[-66.041667,2.916667],[-66.020833,2.925],[-65.995833,2.920833],[-65.995833,2.929167],[-65.9875,2.929167],[-65.991667,2.95],[-66.008333,2.966667],[-66.008333,2.991667],[-66.0,2.995833],[-66.0,3.0125],[-65.9875,3.0125],[-65.983333,3.025],[-65.966667,3.025],[-65.9625,3.045833],[-65.945833,3.0375],[-65.929167,3.004167],[-65.891667,3.0],[-65.883333,2.9875],[-65.870833,2.9875],[-65.8625,2.970833],[-65.825,2.9625],[-65.825,2.945833],[-65.808333,2.9375],[-65.8125,2.925],[-65.791667,2.904167],[-65.770833,2.916667],[-65.754167,2.908333],[-65.754167,2.9],[-65.7375,2.908333],[-65.729167,2.891667],[-65.7125,2.883333],[-65.704167,2.8625],[-65.691667,2.8625],[-65.691667,2.870833],[-65.675,2.879167],[-65.670833,2.895833],[-65.6375,2.891667],[-65.625,2.9],[-65.616667,2.879167],[-65.6,2.883333],[-65.591667,2.891667],[-65.591667,2.920833],[-65.579167,2.9375],[-65.566667,2.929167],[-65.566667,2.908333],[-65.55,2.908333],[-65.533333,2.925],[-65.533333,2.904167],[-65.520833,2.891667],[-65.504167,2.895833],[-65.495833,2.875],[-65.479167,2.875],[-65.475,2.858333],[-65.458333,2.854167],[-65.458333,2.816667],[-65.45,2.8125],[-65.445833,2.7875],[-65.433333,2.783333],[-65.420833,2.75],[-65.404167,2.745833],[-65.375,2.7625],[-65.370833,2.720833],[-65.3625,2.708333],[-65.379167,2.7],[-65.375,2.641667],[-65.391667,2.625],[-65.425,2.620833],[-65.429167,2.583333],[-65.416667,2.554167],[-65.383333,2.525],[-65.379167,2.508333],[-65.366667,2.504167],[-65.366667,2.4875],[-65.375,2.483333],[-65.366667,2.454167],[-65.375,2.433333],[-65.375,2.395833],[-65.358333,2.3875],[-65.366667,2.379167],[-65.370833,2.3375],[-65.358333,2.320833],[-65.370833,2.320833],[-65.375,2.308333],[-65.366667,2.283333],[-65.370833,2.254167],[-65.391667,2.25],[-65.391667,2.241667],[-65.416667,2.220833],[-65.416667,2.195833],[-65.433333,2.1875],[-65.4375,2.166667],[-65.458333,2.158333],[-65.458333,2.1375],[-65.433333,2.1375],[-65.420833,2.116667],[-65.391667,2.125],[-65.391667,2.0875],[-65.379167,2.079167],[-65.379167,2.058333],[-65.408333,2.054167],[-65.408333,1.991667],[-65.420833,1.983333],[-65.445833,1.983333],[-65.441667,1.966667],[-65.454167,1.954167],[-65.45,1.920833],[-65.4375,1.9125],[-65.4375,1.883333],[-65.429167,1.875],[-65.458333,1.8625],[-65.470833,1.883333],[-65.483333,1.854167],[-65.4875,1.791667],[-65.495833,1.779167],[-65.520833,1.775],[-65.525,1.766667],[-65.558333,1.754167],[-65.583333,1.754167],[-65.583333,1.733333],[-65.558333,1.7125],[-65.566667,1.6875],[-65.558333,1.683333],[-65.558333,1.666667],[-65.541667,1.658333],[-65.5375,1.641667],[-65.516667,1.6375],[-65.5125,1.620833],[-65.470833,1.616667],[-65.466667,1.591667],[-65.433333,1.5875],[-65.429167,1.579167],[-65.391667,1.579167],[-65.379167,1.6],[-65.358333,1.591667],[-65.358333,1.579167],[-65.370833,1.579167],[-65.370833,1.570833],[-65.3875,1.5625],[-65.391667,1.533333],[-65.383333,1.529167],[-65.375,1.529167],[-65.375,1.541667],[-65.2875,1.5375],[-65.25,1.570833],[-65.229167,1.575],[-65.229167,1.620833],[-65.208333,1.625],[-65.195833,1.616667],[-65.183333,1.620833],[-65.183333,1.629167],[-65.166667,1.629167],[-65.158333,1.65],[-65.1625,1.675],[-65.15,1.679167],[-65.15,1.708333],[-65.133333,1.7125],[-65.129167,1.733333],[-65.1125,1.733333],[-65.1125,1.725],[-65.1,1.720833],[-65.066667,1.7375],[-65.05,1.733333],[-65.045833,1.770833],[-64.979167,1.779167],[-64.970833,1.825],[-64.933333,1.825],[-64.908333,1.841667],[-64.920833,1.875],[-64.929167,1.875],[-64.941667,1.895833],[-64.916667,1.895833],[-64.908333,1.908333],[-64.879167,1.9],[-64.866667,1.9125],[-64.8625,1.941667],[-64.816667,1.945833],[-64.8125,1.929167],[-64.7875,1.929167],[-64.766667,2.0],[-64.7375,2.008333],[-64.7375,2.020833],[-64.695833,2.025],[-64.670833,2.004167],[-64.641667,2.0125],[-64.641667,1.995833],[-64.616667,1.9875],[-64.641667,1.975],[-64.641667,1.958333],[-64.629167,1.958333],[-64.616667,1.925],[-64.5875,1.920833],[-64.529167,1.929167],[-64.5125,1.920833],[-64.504167,1.933333],[-64.504167,1.954167],[-64.445833,1.9625],[-64.441667,1.991667],[-64.425,1.995833],[-64.420833,2.004167],[-64.404167,1.995833],[-64.391667,2.004167],[-64.391667,1.9875],[-64.370833,1.9875],[-64.3625,2.004167],[-64.35,2.004167],[-64.345833,2.020833],[-64.320833,2.020833],[-64.2875,2.008333],[-64.266667,2.008333],[-64.266667,2.016667],[-64.254167,2.020833],[-64.2125,2.016667],[-64.208333,2.041667],[-64.204167,2.033333],[-64.175,2.033333],[-64.1625,2.05],[-64.145833,2.05],[-64.145833,2.0375],[-64.129167,2.016667],[-64.1125,2.020833],[-64.083333,2.008333],[-64.083333,1.958333],[-64.091667,1.954167],[-64.095833,1.933333],[-64.0875,1.916667],[-64.0625,1.920833],[-64.058333,1.933333],[-64.041667,1.929167],[-64.0375,1.941667],[-64.020833,1.941667],[-63.995833,1.979167],[-63.975,1.979167],[-63.970833,1.9875],[-63.933333,1.9875],[-63.933333,1.966667],[-63.9,1.979167],[-63.895833,1.9875],[-63.870833,1.979167],[-63.854167,1.983333],[-63.845833,1.970833],[-63.833333,1.970833],[-63.833333,1.983333],[-63.820833,1.983333],[-63.820833,1.991667],[-63.7875,1.983333],[-63.779167,2.0],[-63.745833,2.008333],[-63.745833,2.016667],[-63.733333,2.016667],[-63.716667,2.041667],[-63.704167,2.041667],[-63.7,2.05],[-63.683333,2.041667],[-63.683333,2.025],[-63.666667,2.025],[-63.666667,2.0625],[-63.633333,2.075],[-63.620833,2.091667],[-63.620833,2.1125],[-63.608333,2.1125],[-63.604167,2.125],[-63.575,2.125],[-63.566667,2.1375],[-63.558333,2.1375],[-63.55,2.129167],[-63.529167,2.133333],[-63.529167,2.120833],[-63.5,2.1125],[-63.495833,2.120833],[-63.483333,2.116667],[-63.483333,2.125],[-63.475,2.125],[-63.475,2.141667],[-63.429167,2.120833],[-63.425,2.1375],[-63.408333,2.1375],[-63.408333,2.145833],[-63.4,2.145833],[-63.391667,2.1625],[-63.395833,2.2],[-63.379167,2.2125],[-63.383333,2.233333],[-63.370833,2.245833],[-63.379167,2.258333],[-63.370833,2.258333],[-63.366667,2.270833],[-63.375,2.3],[-63.366667,2.3],[-63.366667,2.320833],[-63.379167,2.325],[-63.379167,2.3625],[-63.366667,2.3625],[-63.3625,2.375],[-63.370833,2.3875],[-63.366667,2.4125],[-63.375,2.425],[-63.379167,2.4125],[-63.4,2.416667],[-63.4,2.429167],[-63.416667,2.45],[-63.4375,2.441667],[-63.4375,2.433333],[-63.445833,2.433333],[-63.445833,2.416667],[-63.466667,2.404167],[-63.470833,2.425],[-63.483333,2.429167],[-63.483333,2.441667],[-63.5,2.441667],[-63.504167,2.429167],[-63.525,2.429167],[-63.55,2.45],[-63.5625,2.445833],[-63.570833,2.454167],[-63.6,2.454167],[-63.625,2.441667],[-63.65,2.445833],[-63.6625,2.4375],[-63.6875,2.441667],[-63.691667,2.454167],[-63.704167,2.458333],[-63.708333,2.441667],[-63.754167,2.441667],[-63.7875,2.454167],[-63.795833,2.479167],[-63.8125,2.479167],[-63.816667,2.4875],[-63.833333,2.491667],[-63.875,2.483333],[-63.875,2.466667],[-63.925,2.475],[-63.929167,2.458333],[-63.941667,2.466667],[-63.954167,2.458333],[-63.9625,2.470833],[-63.983333,2.466667],[-64.004167,2.483333],[-64.0125,2.483333],[-64.016667,2.470833],[-64.029167,2.470833],[-64.029167,2.4875],[-64.05,2.495833],[-64.033333,2.516667],[-64.033333,2.55],[-64.020833,2.554167],[-64.020833,2.5875],[-64.004167,2.6125],[-64.008333,2.629167],[-64.0,2.629167],[-63.9875,2.645833],[-63.9875,2.691667],[-64.0,2.691667],[-64.008333,2.708333],[-63.979167,2.716667],[-63.979167,2.725],[-64.0,2.733333],[-64.008333,2.745833],[-64.004167,2.770833],[-64.016667,2.770833],[-64.020833,2.808333],[-64.029167,2.808333],[-64.025,2.825],[-64.041667,2.829167],[-64.0625,2.866667],[-64.083333,2.870833],[-64.079167,2.8875],[-64.070833,2.8875],[-64.075,2.920833],[-64.108333,2.954167],[-64.116667,2.991667],[-64.15,2.983333],[-64.141667,3.033333],[-64.158333,3.054167],[-64.170833,3.054167],[-64.170833,3.066667],[-64.183333,3.070833],[-64.1875,3.083333],[-64.208333,3.083333],[-64.220833,3.1125],[-64.220833,3.133333],[-64.195833,3.145833],[-64.175,3.175],[-64.166667,3.204167],[-64.158333,3.204167],[-64.15,3.258333],[-64.129167,3.275],[-64.116667,3.275],[-64.116667,3.295833],[-64.1,3.304167],[-64.108333,3.308333],[-64.120833,3.341667],[-64.145833,3.341667],[-64.15,3.379167],[-64.158333,3.379167],[-64.125,3.4],[-64.120833,3.470833],[-64.141667,3.491667],[-64.158333,3.495833],[-64.158333,3.504167],[-64.175,3.508333],[-64.183333,3.525],[-64.183333,3.533333],[-64.170833,3.5375],[-64.179167,3.570833],[-64.183333,3.579167],[-64.204167,3.583333],[-64.2,3.604167],[-64.2125,3.604167],[-64.220833,3.633333],[-64.2375,3.641667],[-64.241667,3.658333],[-64.3,3.654167],[-64.3125,3.704167],[-64.333333,3.704167],[-64.3375,3.716667],[-64.345833,3.716667],[-64.345833,3.729167],[-64.358333,3.733333],[-64.370833,3.754167],[-64.3875,3.7625],[-64.3875,3.770833],[-64.404167,3.770833],[-64.4125,3.783333],[-64.445833,3.775],[-64.470833,3.820833],[-64.520833,3.8375],[-64.529167,3.870833],[-64.5625,3.9],[-64.55,3.925],[-64.579167,3.933333],[-64.5875,3.941667],[-64.583333,3.95],[-64.595833,3.95],[-64.595833,3.958333],[-64.6125,3.970833],[-64.645833,3.979167],[-64.654167,3.995833],[-64.670833,3.9875],[-64.683333,4.0125],[-64.7,4.004167],[-64.708333,4.033333],[-64.733333,4.033333],[-64.7375,4.045833],[-64.7625,4.05],[-64.766667,4.0875],[-64.754167,4.1],[-64.779167,4.125],[-64.779167,4.141667],[-64.804167,4.154167],[-64.8,4.183333],[-64.829167,4.195833],[-64.825,4.2375],[-64.816667,4.2375],[-64.8125,4.266667],[-64.791667,4.279167],[-64.791667,4.291667],[-64.779167,4.279167],[-64.758333,4.279167],[-64.754167,4.270833],[-64.733333,4.275],[-64.725,4.266667],[-64.708333,4.220833],[-64.675,4.195833],[-64.670833,4.170833],[-64.658333,4.158333],[-64.6375,4.154167],[-64.6375,4.120833],[-64.629167,4.1125],[-64.579167,4.1125],[-64.566667,4.1],[-64.545833,4.104167],[-64.533333,4.116667],[-64.5,4.108333],[-64.479167,4.116667],[-64.479167,4.1375],[-64.4625,4.133333],[-64.445833,4.116667],[-64.433333,4.116667],[-64.416667,4.141667],[-64.341667,4.141667],[-64.3125,4.125],[-64.2875,4.1625],[-64.266667,4.15],[-64.2625,4.133333],[-64.241667,4.116667],[-64.2125,4.116667],[-64.179167,4.095833],[-64.15,4.095833],[-64.1375,4.104167],[-64.125,4.1],[-64.125,4.075],[-64.104167,4.066667],[-64.095833,4.041667],[-64.075,4.020833],[-64.075,4.004167],[-64.058333,3.991667],[-64.054167,3.970833],[-64.0125,3.979167],[-64.016667,3.958333],[-64.004167,3.945833],[-63.995833,3.904167],[-63.979167,3.9],[-63.966667,3.870833],[-63.954167,3.879167],[-63.958333,3.891667],[-63.95,3.891667],[-63.929167,3.916667],[-63.929167,3.929167],[-63.9125,3.9375],[-63.870833,3.9375],[-63.8625,3.954167],[-63.795833,3.933333],[-63.745833,3.941667],[-63.745833,3.929167],[-63.7375,3.925],[-63.741667,3.916667],[-63.725,3.908333],[-63.666667,3.9125],[-63.683333,3.9375],[-63.7,3.945833],[-63.695833,3.970833],[-63.6875,3.975],[-63.691667,4.029167],[-63.6875,4.020833],[-63.654167,4.0125],[-63.654167,3.995833],[-63.629167,3.975],[-63.629167,3.9625],[-63.6125,3.958333],[-63.6125,3.95],[-63.604167,3.95],[-63.5875,3.929167],[-63.5875,3.904167],[-63.570833,3.891667],[-63.554167,3.891667],[-63.55,3.866667],[-63.533333,3.866667],[-63.533333,3.858333],[-63.516667,3.85],[-63.5,3.854167],[-63.483333,3.879167],[-63.458333,3.870833],[-63.458333,3.8625],[-63.433333,3.866667],[-63.4375,3.883333],[-63.416667,3.9],[-63.416667,3.916667],[-63.420833,3.933333],[-63.441667,3.9375],[-63.454167,3.954167],[-63.4375,3.979167],[-63.391667,3.983333],[-63.3625,3.9625],[-63.333333,3.958333],[-63.304167,3.979167],[-63.283333,3.970833],[-63.279167,3.954167],[-63.25,3.9625],[-63.25,3.954167],[-63.204167,3.95],[-63.216667,3.891667],[-63.229167,3.883333],[-63.229167,3.866667],[-63.216667,3.85],[-63.220833,3.833333],[-63.2,3.808333],[-63.175,3.8125],[-63.170833,3.804167],[-63.154167,3.808333],[-63.1,3.791667],[-63.075,3.754167],[-63.058333,3.75],[-63.066667,3.7375],[-63.0625,3.7125],[-63.079167,3.691667],[-63.029167,3.670833],[-63.025,3.654167],[-63.004167,3.641667],[-62.9875,3.616667],[-62.954167,3.616667],[-62.95,3.629167],[-62.925,3.65],[-62.925,3.675],[-62.883333,3.6875],[-62.883333,3.695833],[-62.870833,3.708333],[-62.858333,3.708333],[-62.8375,3.7375],[-62.795833,3.725],[-62.7875,3.704167],[-62.775,3.7],[-62.758333,3.675],[-62.741667,3.6875],[-62.7375,3.733333],[-62.745833,3.75],[-62.745833,3.804167],[-62.775,3.829167],[-62.758333,3.845833],[-62.758333,3.858333],[-62.770833,3.8625],[-62.7875,3.895833],[-62.7875,3.916667],[-62.779167,3.916667],[-62.783333,3.933333],[-62.770833,3.933333],[-62.745833,3.970833],[-62.770833,4.004167],[-62.770833,4.0125],[-62.75,4.020833],[-62.754167,4.033333],[-62.720833,4.041667],[-62.716667,4.033333],[-62.6625,4.033333],[-62.65,4.05],[-62.629167,4.054167],[-62.629167,4.0375],[-62.6,4.041667],[-62.591667,4.029167],[-62.583333,4.029167],[-62.583333,4.016667],[-62.5625,4.016667],[-62.5625,4.041667],[-62.529167,4.045833],[-62.545833,4.0625],[-62.541667,4.075],[-62.554167,4.079167],[-62.554167,4.104167],[-62.541667,4.1125],[-62.520833,4.1125],[-62.520833,4.129167],[-62.508333,4.129167],[-62.508333,4.141667],[-62.4625,4.133333],[-62.4625,4.154167],[-62.454167,4.166667],[-62.466667,4.170833],[-62.433333,4.183333],[-62.408333,4.183333],[-62.404167,4.175],[-62.383333,4.175],[-62.379167,4.166667],[-62.35,4.170833],[-62.329167,4.133333],[-62.320833,4.133333],[-62.320833,4.141667],[-62.304167,4.141667],[-62.283333,4.1375],[-62.279167,4.129167],[-62.258333,4.129167],[-62.241667,4.116667],[-62.204167,4.125],[-62.191667,4.1],[-62.154167,4.091667],[-62.141667,4.075],[-62.133333,4.0875],[-62.1125,4.0875],[-62.1125,4.116667],[-62.104167,4.1125],[-62.095833,4.125],[-62.075,4.120833],[-62.070833,4.158333],[-62.0125,4.158333],[-61.995833,4.166667],[-61.991667,4.179167],[-61.983333,4.179167],[-61.970833,4.154167],[-61.954167,4.141667],[-61.95,4.116667],[-61.9375,4.104167],[-61.925,4.120833],[-61.929167,4.1375],[-61.920833,4.1375],[-61.920833,4.158333],[-61.875,4.154167],[-61.870833,4.170833],[-61.858333,4.175],[-61.841667,4.158333],[-61.825,4.158333],[-61.825,4.166667],[-61.816667,4.166667],[-61.820833,4.2],[-61.808333,4.204167],[-61.8,4.229167],[-61.766667,4.229167],[-61.766667,4.25],[-61.745833,4.258333],[-61.733333,4.258333],[-61.725,4.241667],[-61.7125,4.241667],[-61.7125,4.25],[-61.6875,4.25],[-61.6875,4.258333],[-61.658333,4.2625],[-61.645833,4.258333],[-61.641667,4.2375],[-61.6125,4.258333],[-61.604167,4.258333],[-61.6,4.245833],[-61.554167,4.25],[-61.533333,4.283333],[-61.520833,4.283333],[-61.508333,4.3125],[-61.508333,4.320833],[-61.520833,4.325],[-61.525,4.383333],[-61.5,4.395833],[-61.5,4.4125],[-61.479167,4.416667],[-61.479167,4.4375],[-61.4625,4.433333],[-61.441667,4.441667],[-61.433333,4.429167],[-61.408333,4.433333],[-61.404167,4.425],[-61.341667,4.425],[-61.316667,4.4625],[-61.295833,4.454167],[-61.295833,4.4625],[-61.275,4.466667],[-61.279167,4.479167],[-61.291667,4.479167],[-61.304167,4.491667],[-61.304167,4.5],[-61.325,4.504167],[-61.320833,4.5375],[-61.279167,4.5375],[-61.270833,4.529167],[-61.266667,4.541667],[-61.258333,4.541667],[-61.254167,4.529167],[-61.2375,4.529167],[-61.2375,4.520833],[-61.216667,4.520833],[-61.2125,4.5375],[-61.170833,4.5375],[-61.166667,4.504167],[-61.133333,4.495833],[-61.125,4.508333],[-61.083333,4.5125],[-61.070833,4.529167],[-61.058333,4.529167],[-61.058333,4.541667],[-61.0375,4.541667],[-61.029167,4.525],[-61.0125,4.520833],[-60.9875,4.5375],[-60.9875,4.545833],[-60.958333,4.545833],[-60.954167,4.579167],[-60.933333,4.583333],[-60.933333,4.6375],[-60.941667,4.6375],[-60.95,4.65],[-60.929167,4.666667],[-60.916667,4.666667],[-60.9125,4.7125],[-60.870833,4.716667],[-60.85,4.708333],[-60.833333,4.729167],[-60.8125,4.729167],[-60.8,4.75],[-60.775,4.754167],[-60.770833,4.7625],[-60.75,4.7625],[-60.741667,4.775],[-60.725,4.779167],[-60.725,4.795833],[-60.716667,4.804167],[-60.6875,4.8125],[-60.683333,4.829167],[-60.654167,4.85],[-60.658333,4.858333],[-60.65,4.879167],[-60.629167,4.883333],[-60.620833,4.916667],[-60.6125,4.925],[-60.595833,4.925],[-60.5875,4.958333],[-60.595833,4.966667],[-60.595833,4.9875],[-60.620833,5.004167],[-60.6125,5.033333],[-60.625,5.033333],[-60.65,5.05],[-60.65,5.1125],[-60.6625,5.120833],[-60.658333,5.15],[-60.675,5.166667],[-60.679167,5.1875],[-60.741667,5.204167],[-60.745833,5.175],[-60.758333,5.170833],[-60.758333,5.1625],[-60.770833,5.1625],[-60.825,5.1875],[-60.829167,5.2625],[-60.841667,5.275],[-60.841667,5.295833],[-60.854167,5.295833],[-60.854167,5.304167],[-60.870833,5.316667],[-60.929167,5.316667],[-60.933333,5.333333],[-60.958333,5.333333],[-60.966667,5.35],[-61.004167,5.354167],[-61.016667,5.425],[-61.05,5.420833],[-61.058333,5.429167],[-61.1,5.429167],[-61.116667,5.479167],[-61.15,5.470833],[-61.15,5.479167],[-61.1625,5.4875],[-61.191667,5.483333],[-61.2,5.491667],[-61.233333,5.495833],[-61.233333,5.504167],[-61.266667,5.508333],[-61.295833,5.5],[-61.316667,5.475],[-61.3625,5.491667],[-61.366667,5.520833],[-61.35,5.55],[-61.370833,5.5625],[-61.375,5.579167],[-61.3875,5.5875],[-61.383333,5.608333],[-61.4,5.6125],[-61.4,5.625],[-61.425,5.641667],[-61.425,5.679167],[-61.416667,5.679167],[-61.4125,5.695833],[-61.383333,5.691667],[-61.383333,5.683333],[-61.375,5.683333],[-61.341667,5.716667],[-61.333333,5.75],[-61.325,5.75],[-61.320833,5.766667],[-61.320833,5.8125],[-61.3,5.833333],[-61.308333,5.8375],[-61.308333,5.85],[-61.3,5.8625],[-61.283333,5.866667],[-61.291667,5.883333],[-61.3,5.875],[-61.379167,5.8625],[-61.391667,5.879167],[-61.391667,5.904167],[-61.416667,5.920833],[-61.4125,5.941667],[-61.441667,5.9375],[-61.445833,5.929167],[-61.454167,5.933333],[-61.458333,5.920833],[-61.491667,5.908333],[-61.491667,5.891667],[-61.5,5.891667],[-61.508333,5.904167],[-61.525,5.904167],[-61.529167,5.9125],[-61.566667,5.9125],[-61.575,5.941667],[-61.616667,5.933333],[-61.620833,5.945833],[-61.6375,5.954167],[-61.675,5.958333],[-61.675,5.970833],[-61.683333,5.970833],[-61.683333,6.0],[-61.729167,6.033333],[-61.758333,6.0125],[-61.766667,6.020833],[-61.8,6.020833],[-61.804167,6.0125],[-61.829167,6.016667],[-61.816667,6.0375],[-61.816667,6.054167],[-61.7875,6.066667],[-61.795833,6.091667],[-61.7625,6.1125],[-61.7875,6.145833],[-61.816667,6.141667],[-61.825,6.120833],[-61.820833,6.091667],[-61.870833,6.083333],[-61.879167,6.045833],[-61.895833,6.045833],[-61.908333,6.029167],[-61.970833,6.041667],[-61.979167,6.0375],[-62.0,6.054167],[-62.033333,6.05],[-62.05,6.0625],[-62.05,6.091667],[-62.1,6.125],[-62.108333,6.145833],[-62.133333,6.15],[-62.133333,6.175],[-62.141667,6.179167],[-62.145833,6.2],[-62.179167,6.195833],[-62.1875,6.204167],[-62.183333,6.1875],[-62.2,6.179167],[-62.2,6.166667],[-62.220833,6.1375],[-62.220833,6.120833],[-62.2375,6.120833],[-62.254167,6.1375],[-62.275,6.133333],[-62.279167,6.141667],[-62.3,6.141667],[-62.308333,6.158333],[-62.3375,6.15],[-62.354167,6.129167],[-62.366667,6.129167],[-62.408333,6.170833],[-62.404167,6.1875],[-62.383333,6.2],[-62.383333,6.2125],[-62.391667,6.216667],[-62.3875,6.233333],[-62.408333,6.2625],[-62.425,6.266667],[-62.425,6.279167],[-62.445833,6.291667],[-62.441667,6.320833],[-62.429167,6.320833],[-62.4375,6.3375],[-62.416667,6.35],[-62.408333,6.370833],[-62.383333,6.379167],[-62.3875,6.404167],[-62.420833,6.404167],[-62.425,6.416667],[-62.441667,6.416667],[-62.441667,6.408333],[-62.45,6.408333],[-62.479167,6.45],[-62.495833,6.45],[-62.5,6.4625],[-62.508333,6.4625],[-62.533333,6.508333],[-62.575,6.504167],[-62.6,6.529167],[-62.675,6.533333],[-62.691667,6.529167],[-62.7,6.5],[-62.720833,6.5],[-62.720833,6.4875],[-62.775,6.4875],[-62.775,6.520833],[-62.758333,6.529167],[-62.766667,6.55],[-62.825,6.55],[-62.816667,6.554167],[-62.820833,6.5875],[-62.8125,6.595833],[-62.8125,6.616667],[-62.775,6.641667],[-62.770833,6.691667],[-62.758333,6.708333],[-62.758333,6.741667],[-62.770833,6.745833],[-62.758333,6.779167],[-62.775,6.7875],[-62.775,6.808333],[-62.791667,6.8125],[-62.791667,6.820833],[-62.7625,6.8625],[-62.754167,6.8625],[-62.75,6.845833],[-62.7375,6.845833],[-62.725,6.8625],[-62.725,6.879167],[-62.7125,6.879167],[-62.7125,6.920833],[-62.683333,6.9375],[-62.683333,6.983333],[-62.675,6.9875],[-62.683333,7.0],[-62.704167,6.995833],[-62.708333,7.020833],[-62.683333,7.045833],[-62.683333,7.054167],[-62.670833,7.058333],[-62.666667,7.083333],[-62.645833,7.0875],[-62.658333,7.1125],[-62.654167,7.129167],[-62.6875,7.158333],[-62.683333,7.166667],[-62.691667,7.166667],[-62.691667,7.183333],[-62.670833,7.195833],[-62.65,7.195833],[-62.645833,7.204167],[-62.625,7.2],[-62.6125,7.229167],[-62.595833,7.245833],[-62.595833,7.2625],[-62.579167,7.295833],[-62.579167,7.320833],[-62.570833,7.325],[-62.5875,7.3375],[-62.591667,7.358333],[-62.6,7.3625],[-62.6,7.383333],[-62.6125,7.395833],[-62.604167,7.429167],[-62.616667,7.4375],[-62.616667,7.466667],[-62.579167,7.491667],[-62.591667,7.5375],[-62.583333,7.55],[-62.566667,7.545833],[-62.558333,7.558333],[-62.566667,7.5875],[-62.554167,7.595833],[-62.554167,7.616667],[-62.570833,7.629167],[-62.591667,7.629167],[-62.595833,7.65],[-62.5625,7.666667],[-62.558333,7.729167],[-62.545833,7.733333],[-62.5375,7.75],[-62.525,7.75],[-62.516667,7.758333],[-62.516667,7.779167],[-62.5,7.783333],[-62.470833,7.816667],[-62.475,7.833333],[-62.495833,7.8375],[-62.491667,7.866667],[-62.483333,7.870833],[-62.4875,7.9],[-62.5125,7.895833],[-62.520833,7.9125],[-62.516667,7.929167],[-62.508333,7.929167],[-62.508333,7.954167],[-62.533333,7.954167],[-62.5375,7.9625],[-62.5375,7.983333],[-62.525,7.995833],[-62.5375,8.0],[-62.5375,8.008333],[-62.520833,8.0125],[-62.516667,8.020833],[-62.520833,8.05],[-62.5125,8.0625],[-62.529167,8.070833],[-62.5375,8.091667],[-62.545833,8.091667],[-62.55,8.125],[-62.5375,8.154167],[-62.520833,8.154167],[-62.516667,8.166667],[-62.575,8.1875],[-62.570833,8.204167],[-62.583333,8.216667],[-62.579167,8.233333],[-62.6,8.245833],[-62.6,8.258333],[-62.6125,8.2625],[-62.620833,8.283333],[-62.6125,8.295833],[-62.6125,8.341667],[-62.6375,8.35],[-62.641667,8.341667],[-62.666667,8.341667],[-62.679167,8.329167],[-62.679167,8.316667],[-62.704167,8.316667],[-62.716667,8.295833],[-62.733333,8.295833],[-62.741667,8.2875],[-62.758333,8.291667],[-62.7875,8.266667],[-62.804167,8.266667],[-62.795833,8.2375],[-62.804167,8.233333],[-62.8375,8.2375],[-62.9125,8.225],[-62.920833,8.1875],[-62.908333,8.170833],[-62.929167,8.15],[-62.941667,8.158333],[-62.966667,8.154167],[-63.0,8.175],[-63.0125,8.175],[-63.029167,8.145833],[-63.083333,8.15],[-63.0875,8.1375],[-63.1,8.1375],[-63.116667,8.116667],[-63.141667,8.116667],[-63.15,8.1],[-63.166667,8.091667],[-63.166667,8.079167],[-63.154167,8.079167],[-63.158333,8.070833],[-63.208333,8.05],[-63.2,8.0375],[-63.2,8.016667],[-63.191667,8.0125],[-63.195833,7.975],[-63.1875,7.9625],[-63.2125,7.958333],[-63.229167,7.933333],[-63.25,7.933333],[-63.254167,7.920833],[-63.266667,7.920833],[-63.291667,7.891667],[-63.304167,7.891667],[-63.320833,7.875],[-63.333333,7.879167],[-63.345833,7.858333],[-63.366667,7.845833],[-63.366667,7.8375],[-63.354167,7.833333],[-63.354167,7.820833],[-63.370833,7.816667],[-63.3625,7.783333],[-63.3875,7.779167],[-63.395833,7.741667],[-63.3875,7.708333],[-63.379167,7.704167],[-63.3875,7.691667],[-63.379167,7.6625],[-63.3875,7.658333],[-63.3875,7.645833],[-63.366667,7.641667],[-63.366667,7.6125],[-63.3875,7.608333],[-63.425,7.616667],[-63.441667,7.591667],[-63.441667,7.579167],[-63.479167,7.579167],[-63.504167,7.608333],[-63.529167,7.604167],[-63.529167,7.591667],[-63.5375,7.5875],[-63.554167,7.591667],[-63.554167,7.575],[-63.575,7.575],[-63.6,7.595833],[-63.616667,7.6],[-63.629167,7.6],[-63.641667,7.579167],[-63.670833,7.583333],[-63.683333,7.595833],[-63.733333,7.591667],[-63.741667,7.604167],[-63.758333,7.604167],[-63.7625,7.595833],[-63.770833,7.6125],[-63.783333,7.6125],[-63.783333,7.633333],[-63.791667,7.633333],[-63.791667,7.641667],[-63.841667,7.65],[-63.858333,7.6375],[-63.875,7.65],[-63.875,7.6375],[-63.9125,7.6375],[-63.925,7.641667],[-63.925,7.654167],[-63.958333,7.645833],[-63.9625,7.629167],[-63.9875,7.6375],[-63.995833,7.6],[-64.025,7.616667],[-64.070833,7.591667],[-64.070833,7.6625],[-64.0875,7.679167],[-64.095833,7.670833],[-64.1125,7.675],[-64.1,7.7],[-64.0875,7.708333],[-64.0875,7.720833],[-64.129167,7.741667],[-64.120833,7.7625],[-64.15,7.783333],[-64.15,7.808333],[-64.183333,7.808333],[-64.183333,7.816667],[-64.195833,7.820833],[-64.229167,7.816667],[-64.233333,7.825],[-64.216667,7.854167],[-64.179167,7.858333],[-64.1625,7.875],[-64.158333,7.891667],[-64.166667,7.904167],[-64.154167,7.908333],[-64.141667,7.933333],[-64.145833,7.966667],[-64.141667,7.979167],[-64.129167,7.983333],[-64.129167,7.995833],[-64.195833,7.983333],[-64.225,7.991667],[-64.2375,7.966667],[-64.25,7.975],[-64.3,7.970833],[-64.316667,7.979167],[-64.320833,7.966667],[-64.341667,7.958333],[-64.35,7.945833],[-64.375,7.954167],[-64.383333,7.941667],[-64.4,7.945833],[-64.4125,7.9375],[-64.4125,7.925],[-64.4375,7.8875],[-64.433333,7.870833],[-64.416667,7.866667],[-64.4125,7.854167],[-64.391667,7.845833],[-64.379167,7.833333],[-64.383333,7.820833],[-64.370833,7.816667],[-64.379167,7.766667],[-64.3625,7.754167],[-64.366667,7.708333],[-64.354167,7.695833],[-64.354167,7.670833],[-64.375,7.65],[-64.375,7.625],[-64.391667,7.6125],[-64.416667,7.625],[-64.416667,7.633333],[-64.429167,7.633333],[-64.441667,7.6125],[-64.429167,7.608333],[-64.420833,7.5875],[-64.391667,7.570833],[-64.3875,7.554167],[-64.370833,7.554167],[-64.3625,7.533333],[-64.3375,7.529167],[-64.345833,7.491667],[-64.354167,7.4875],[-64.354167,7.408333],[-64.366667,7.404167],[-64.370833,7.3875],[-64.35,7.379167],[-64.3375,7.383333],[-64.329167,7.370833],[-64.35,7.329167],[-64.366667,7.329167],[-64.370833,7.320833],[-64.366667,7.291667],[-64.379167,7.266667],[-64.3875,7.266667],[-64.383333,7.241667],[-64.395833,7.233333],[-64.379167,7.216667],[-64.3625,7.2125],[-64.375,7.158333],[-64.35,7.158333],[-64.341667,7.170833],[-64.325,7.175],[-64.325,7.1625],[-64.3125,7.1625],[-64.304167,7.141667],[-64.325,7.075],[-64.3375,7.066667],[-64.3375,7.058333],[-64.4375,7.054167],[-64.458333,7.025],[-64.475,7.025],[-64.495833,7.066667],[-64.520833,7.066667],[-64.529167,7.05],[-64.533333,7.058333],[-64.554167,7.0625],[-64.575,7.0625],[-64.583333,7.054167],[-64.608333,7.058333],[-64.633333,7.0875],[-64.658333,7.091667],[-64.6625,7.116667],[-64.675,7.1125],[-64.679167,7.125],[-64.704167,7.125],[-64.7125,7.133333],[-64.708333,7.1625],[-64.6875,7.170833],[-64.691667,7.191667],[-64.679167,7.195833],[-64.679167,7.208333],[-64.6625,7.2125],[-64.666667,7.275],[-64.658333,7.3],[-64.641667,7.308333],[-64.641667,7.329167],[-64.6625,7.333333],[-64.6625,7.341667],[-64.6875,7.358333],[-64.6875,7.370833],[-64.679167,7.375],[-64.6875,7.375],[-64.6875,7.383333],[-64.675,7.3875],[-64.666667,7.416667],[-64.641667,7.416667],[-64.641667,7.429167],[-64.633333,7.429167],[-64.625,7.441667],[-64.625,7.4625],[-64.6125,7.470833],[-64.629167,7.475],[-64.633333,7.4875],[-64.654167,7.4875],[-64.65,7.5125],[-64.666667,7.520833],[-64.666667,7.554167],[-64.679167,7.558333],[-64.695833,7.5875],[-64.708333,7.5625],[-64.729167,7.55],[-64.766667,7.558333],[-64.775,7.5875],[-64.783333,7.591667],[-64.783333,7.608333],[-64.8,7.620833],[-64.8,7.65],[-64.808333,7.6625],[-64.8375,7.658333],[-64.854167,7.641667],[-64.866667,7.641667],[-64.870833,7.65],[-64.8875,7.6375],[-64.916667,7.6375],[-64.920833,7.629167],[-64.929167,7.629167],[-64.9375,7.645833],[-64.954167,7.645833],[-64.966667,7.6625],[-64.991667,7.6625],[-64.991667,7.654167],[-65.0125,7.654167],[-65.025,7.645833],[-65.066667,7.645833],[-65.066667,7.654167],[-65.1,7.679167],[-65.1,7.704167],[-65.1125,7.708333],[-65.116667,7.7375],[-65.1625,7.7375],[-65.166667,7.75],[-65.195833,7.758333],[-65.2,7.766667],[-65.208333,7.7625],[-65.2125,7.770833],[-65.2625,7.779167],[-65.275,7.779167],[-65.2625,7.7625],[-65.270833,7.745833],[-65.266667,7.720833],[-65.283333,7.716667],[-65.279167,7.708333],[-65.2875,7.708333],[-65.2875,7.7],[-65.345833,7.716667],[-65.345833,7.691667],[-65.3625,7.679167],[-65.358333,7.645833],[-65.4,7.65],[-65.420833,7.625],[-65.425,7.579167],[-65.458333,7.6],[-65.483333,7.5875],[-65.483333,7.570833],[-65.491667,7.5625],[-65.470833,7.558333],[-65.470833,7.541667],[-65.483333,7.525],[-65.475,7.520833],[-65.470833,7.479167],[-65.479167,7.4625],[-65.504167,7.458333],[-65.504167,7.441667],[-65.529167,7.4125],[-65.529167,7.404167],[-65.516667,7.404167],[-65.516667,7.395833],[-65.541667,7.383333],[-65.554167,7.358333],[-65.579167,7.358333],[-65.583333,7.370833],[-65.608333,7.366667],[-65.620833,7.375],[-65.620833,7.3875],[-65.679167,7.3875],[-65.675,7.404167],[-65.666667,7.404167],[-65.666667,7.454167],[-65.683333,7.470833],[-65.6875,7.5],[-65.720833,7.5],[-65.725,7.4875],[-65.758333,7.495833],[-65.758333,7.466667],[-65.770833,7.458333],[-65.7875,7.4625],[-65.7875,7.475],[-65.804167,7.479167],[-65.8,7.495833],[-65.820833,7.516667],[-65.816667,7.533333],[-65.854167,7.541667],[-65.858333,7.558333],[-65.866667,7.5625],[-65.854167,7.616667],[-65.870833,7.629167],[-65.870833,7.658333],[-65.891667,7.666667],[-65.895833,7.683333],[-66.1,7.675],[-66.145833,7.679167],[-66.145833,7.691667],[-66.170833,7.6875],[-66.175,7.7],[-66.195833,7.7],[-66.195833,7.708333],[-66.229167,7.695833],[-66.233333,7.6875],[-66.254167,7.6875],[-66.2625,7.6125],[-66.304167,7.620833],[-66.308333,7.629167],[-66.308333,7.616667],[-66.320833,7.608333],[-66.316667,7.583333],[-66.295833,7.583333],[-66.295833,7.570833],[-66.320833,7.5625],[-66.333333,7.5375],[-66.333333,7.504167],[-66.304167,7.454167],[-66.308333,7.4375],[-66.3625,7.425],[-66.379167,7.429167],[-66.383333,7.441667],[-66.408333,7.445833],[-66.429167,7.4125],[-66.404167,7.383333],[-66.391667,7.383333],[-66.383333,7.3625],[-66.366667,7.35],[-66.354167,7.354167],[-66.329167,7.3375],[-66.325,7.316667],[-66.333333,7.295833],[-66.325,7.295833],[-66.325,7.279167],[-66.295833,7.275],[-66.279167,7.254167],[-66.279167,7.2375],[-66.2625,7.233333],[-66.258333,7.225],[-66.241667,7.225],[-66.241667,7.154167],[-66.225,7.15],[-66.220833,7.141667],[-66.195833,7.145833],[-66.208333,7.116667],[-66.195833,7.108333],[-66.191667,7.0875],[-66.229167,7.058333],[-66.229167,7.045833],[-66.241667,7.0375],[-66.241667,7.020833],[-66.254167,7.0125],[-66.25,6.979167],[-66.241667,6.966667],[-66.233333,6.966667],[-66.229167,6.933333],[-66.233333,6.8875],[-66.254167,6.879167],[-66.254167,6.854167],[-66.241667,6.825],[-66.266667,6.8],[-66.266667,6.754167],[-66.279167,6.720833],[-66.3125,6.716667],[-66.320833,6.704167],[-66.341667,6.704167],[-66.354167,6.695833],[-66.4,6.7],[-66.4125,6.691667],[-66.420833,6.708333],[-66.441667,6.695833],[-66.458333,6.7],[-66.4625,6.708333],[-66.5,6.7125],[-66.520833,6.725],[-66.520833,6.733333],[-66.55,6.729167],[-66.558333,6.7375],[-66.5625,6.729167],[-66.570833,6.733333],[-66.575,6.704167],[-66.595833,6.708333],[-66.608333,6.691667],[-66.65,6.683333],[-66.6625,6.695833],[-66.666667,6.729167],[-66.7,6.741667],[-66.695833,6.779167],[-66.704167,6.7875],[-66.741667,6.791667],[-66.766667,6.829167],[-66.816667,6.841667],[-66.816667,6.858333],[-66.8375,6.8625],[-66.85,6.920833],[-66.895833,6.925],[-66.916667,6.975],[-66.920833,7.033333],[-66.929167,7.041667],[-66.929167,7.054167],[-66.9125,7.066667],[-66.908333,7.083333],[-66.925,7.091667],[-66.941667,7.133333],[-66.958333,7.133333],[-66.958333,7.145833],[-66.995833,7.141667],[-67.016667,7.154167],[-67.033333,7.1375],[-67.054167,7.1375],[-67.0625,7.116667],[-67.0875,7.1125],[-67.0875,7.0875],[-67.1,7.083333],[-67.1,7.025],[-67.091667,7.025],[-67.091667,7.0],[-67.1,7.0],[-67.1,6.979167],[-67.0875,6.970833],[-67.083333,6.9375],[-67.108333,6.9375],[-67.108333,6.945833],[-67.145833,6.954167],[-67.154167,6.9375],[-67.1625,6.9375],[-67.166667,6.916667],[-67.183333,6.9125],[-67.204167,6.891667],[-67.204167,6.866667],[-67.220833,6.841667],[-67.229167,6.808333],[-67.220833,6.795833],[-67.2,6.795833],[-67.1875,6.758333],[-67.158333,6.75],[-67.129167,6.7625],[-67.108333,6.7375],[-67.108333,6.695833],[-67.133333,6.666667],[-67.141667,6.666667],[-67.141667,6.608333],[-67.15,6.5875],[-67.1625,6.579167],[-67.158333,6.566667],[-67.179167,6.558333],[-67.191667,6.533333],[-67.204167,6.533333],[-67.204167,6.5125],[-67.2125,6.5125],[-67.208333,6.504167],[-67.2375,6.495833],[-67.229167,6.479167],[-67.245833,6.458333],[-67.2625,6.454167],[-67.2625,6.441667],[-67.279167,6.4375],[-67.275,6.425],[-67.283333,6.408333],[-67.291667,6.408333],[-67.295833,6.3875],[-67.308333,6.3875],[-67.325,6.3625],[-67.345833,6.366667],[-67.345833,6.358333],[-67.358333,6.35],[-67.383333,6.358333],[-67.395833,6.341667],[-67.4125,6.341667],[-67.416667,6.333333],[-67.429167,6.3375],[-67.441667,6.308333],[-67.458333,6.308333],[-67.458333,6.291667],[-67.470833,6.291667],[-67.475,6.275],[-67.466667,6.270833],[-67.458333,6.2125],[-67.45,6.2125],[-67.45,6.191667],[-67.441667,6.183333],[-67.420833,6.1875],[-67.408333,6.208333],[-67.383333,6.208333],[-67.3625,6.1875],[-67.370833,6.175],[-67.358333,6.175],[-67.358333,6.166667],[-67.345833,6.166667],[-67.341667,6.158333],[-67.333333,6.158333],[-67.333333,6.166667],[-67.320833,6.175],[-67.283333,6.170833],[-67.279167,6.154167],[-67.266667,6.154167],[-67.258333,6.1375],[-67.245833,6.1375],[-67.2375,6.120833],[-67.2125,6.116667],[-67.2,6.125],[-67.1625,6.1],[-67.1625,6.066667],[-67.15,6.066667],[-67.145833,6.045833],[-67.1375,6.041667],[-67.1375,5.983333],[-67.145833,5.975],[-67.141667,5.954167],[-67.15,5.941667],[-67.15,5.920833],[-67.1625,5.916667],[-67.1625,5.9],[-67.191667,5.895833],[-67.183333,5.85],[-67.195833,5.85],[-67.208333,5.833333],[-67.220833,5.833333],[-67.220833,5.816667],[-67.204167,5.8125],[-67.204167,5.791667],[-67.208333,5.775],[-67.220833,5.770833],[-67.220833,5.758333],[-67.233333,5.754167],[-67.233333,5.725],[-67.225,5.725],[-67.2125,5.708333],[-67.179167,5.704167],[-67.175,5.716667],[-67.129167,5.729167],[-67.133333,5.745833],[-67.104167,5.754167],[-67.095833,5.741667],[-67.095833,5.720833],[-67.0625,5.720833],[-67.054167,5.7],[-67.058333,5.670833],[-67.0375,5.65],[-67.016667,5.645833],[-67.004167,5.620833],[-67.025,5.616667],[-67.0375,5.6],[-67.041667,5.554167],[-67.058333,5.5625],[-67.079167,5.558333],[-67.083333,5.529167],[-67.1,5.529167],[-67.108333,5.516667],[-67.125,5.5125],[-67.125,5.504167],[-67.129167,5.5125],[-67.154167,5.5125],[-67.166667,5.495833],[-67.1625,5.470833],[-67.179167,5.470833],[-67.183333,5.458333],[-67.208333,5.454167],[-67.2125,5.466667],[-67.266667,5.466667],[-67.266667,5.458333],[-67.2875,5.45],[-67.2875,5.441667],[-67.308333,5.45],[-67.320833,5.445833],[-67.325,5.433333],[-67.3375,5.433333],[-67.35,5.445833],[-67.366667,5.420833],[-67.391667,5.425],[-67.4,5.416667],[-67.4,5.4],[-67.375,5.391667],[-67.375,5.358333],[-67.3875,5.358333],[-67.391667,5.325],[-67.416667,5.3375],[-67.45,5.3375],[-67.470833,5.345833],[-67.479167,5.370833],[-67.508333,5.370833],[-67.5125,5.354167],[-67.5,5.325],[-67.5125,5.320833],[-67.508333,5.308333],[-67.541667,5.304167],[-67.5625,5.291667],[-67.570833,5.295833],[-67.579167,5.2875],[-67.579167,5.275],[-67.5625,5.270833],[-67.5625,5.2625],[-67.541667,5.266667],[-67.541667,5.254167],[-67.529167,5.245833],[-67.529167,5.229167],[-67.516667,5.229167],[-67.516667,5.216667],[-67.529167,5.216667],[-67.533333,5.2],[-67.541667,5.2],[-67.566667,5.166667],[-67.566667,5.1375],[-67.604167,5.129167],[-67.595833,5.141667],[-67.6,5.154167],[-67.629167,5.154167],[-67.645833,5.129167],[-67.666667,5.125],[-67.6625,5.108333],[-67.670833,5.1],[-67.658333,5.083333],[-67.670833,5.083333],[-67.670833,5.075],[-67.6875,5.079167],[-67.6875,5.1],[-67.7125,5.141667],[-67.720833,5.141667],[-67.720833,5.125],[-67.775,5.129167],[-67.8,5.120833],[-67.816667,5.075],[-67.816667,5.0625],[-67.8,5.058333],[-67.795833,5.033333],[-67.808333,5.0],[-67.775,5.004167],[-67.775,4.979167],[-67.791667,4.9625],[-67.791667,4.916667],[-67.7875,4.895833],[-67.7625,4.854167],[-67.766667,4.8375],[-67.775,4.8375],[-67.766667,4.8],[-67.770833,4.75],[-67.783333,4.75],[-67.779167,4.708333],[-67.791667,4.7],[-67.791667,4.679167],[-67.783333,4.679167],[-67.779167,4.666667],[-67.766667,4.666667],[-67.766667,4.658333],[-67.7875,4.65],[-67.7875,4.6],[-67.795833,4.6],[-67.808333,4.583333],[-67.795833,4.583333],[-67.795833,4.566667],[-67.7875,4.566667],[-67.7875,4.5375],[-67.766667,4.5375],[-67.766667,4.483333],[-67.7375,4.491667],[-67.729167,4.4875],[-67.729167,4.470833],[-67.716667,4.4625],[-67.704167,4.466667],[-67.704167,4.479167],[-67.691667,4.475],[-67.691667,4.458333],[-67.683333,4.458333],[-67.679167,4.3875],[-67.675,4.379167],[-67.658333,4.379167],[-67.65,4.358333],[-67.666667,4.35],[-67.658333,4.333333],[-67.6625,4.325],[-67.65,4.325],[-67.65,4.3125],[-67.629167,4.3125],[-67.616667,4.3],[-67.620833,4.270833],[-67.608333,4.258333],[-67.608333,4.245833],[-67.6625,4.2375],[-67.6625,4.225],[-67.679167,4.216667],[-67.679167,4.208333],[-67.6625,4.2],[-67.629167,4.208333],[-67.629167,4.179167],[-67.608333,4.158333],[-67.608333,4.145833],[-67.616667,4.141667],[-67.6125,4.125],[-67.620833,4.1125],[-67.629167,4.1125],[-67.625,4.091667],[-67.633333,4.091667],[-67.633333,4.066667],[-67.645833,4.070833],[-67.645833,4.079167],[-67.6625,4.079167],[-67.679167,4.075],[-67.683333,4.066667],[-67.679167,4.05],[-67.670833,4.05],[-67.654167,4.029167],[-67.566667,4.025],[-67.5375,4.016667],[-67.533333,4.0],[-67.516667,4.0],[-67.516667,3.983333],[-67.541667,3.979167],[-67.541667,3.958333],[-67.5625,3.941667],[-67.55,3.9125],[-67.554167,3.8875],[-67.541667,3.8875],[-67.525,3.858333],[-67.5,3.854167],[-67.495833,3.845833],[-67.475,3.85],[-67.4375,3.816667],[-67.420833,3.820833],[-67.408333,3.854167],[-67.375,3.833333],[-67.375,3.816667],[-67.316667,3.816667],[-67.308333,3.829167],[-67.3,3.8125],[-67.291667,3.816667],[-67.2625,3.804167],[-67.266667,3.770833],[-67.245833,3.766667],[-67.241667,3.775],[-67.225,3.779167],[-67.2125,3.766667],[-67.1875,3.770833],[-67.175,3.754167],[-67.183333,3.720833],[-67.166667,3.720833],[-67.1625,3.708333],[-67.145833,3.708333],[-67.145833,3.695833],[-67.133333,3.691667],[-67.129167,3.679167],[-67.1125,3.679167],[-67.1125,3.6875],[-67.1,3.683333],[-67.091667,3.704167],[-67.079167,3.704167],[-67.079167,3.695833],[-67.05,3.7],[-67.045833,3.691667],[-67.033333,3.691667],[-67.020833,3.679167],[-67.025,3.666667],[-67.0125,3.625],[-66.995833,3.625],[-66.995833,3.604167],[-66.983333,3.591667],[-66.9625,3.595833],[-66.958333,3.583333],[-66.945833,3.579167],[-66.95,3.5625],[-66.966667,3.554167],[-66.9625,3.533333],[-66.983333,3.529167],[-66.979167,3.495833],[-66.995833,3.491667],[-66.995833,3.470833],[-66.9625,3.454167],[-66.958333,3.433333],[-66.95,3.429167],[-66.954167,3.404167],[-66.945833,3.395833],[-66.929167,3.395833],[-66.925,3.366667],[-66.9,3.3625],[-66.8875,3.35],[-66.8875,3.3375],[-66.858333,3.345833],[-66.845833,3.3375],[-66.8375,3.329167],[-66.841667,3.320833],[-66.825,3.3125],[-66.820833,3.291667],[-66.775,3.291667],[-66.779167,3.279167],[-66.770833,3.275],[-66.766667,3.258333],[-66.75,3.258333],[-66.75,3.25],[-66.720833,3.25],[-66.720833,3.2375],[-66.691667,3.229167],[-66.683333,3.195833],[-66.670833,3.191667],[-66.679167,3.179167],[-66.675,3.1625],[-66.6875,3.154167],[-66.6875,3.145833],[-66.675,3.145833],[-66.675,3.129167],[-66.6375,3.125],[-66.620833,3.095833],[-66.6,3.079167],[-66.5875,3.079167],[-66.583333,3.066667],[-66.533333,3.066667],[-66.533333,3.05],[-66.520833,3.045833],[-66.516667,3.025],[-66.5,3.016667],[-66.508333,3.004167],[-66.504167,2.9875],[-66.4875,2.983333],[-66.491667,2.979167]],[[-62.220833,6.120833],[-62.216667,6.120833],[-62.216667,6.116667],[-62.220833,6.120833]]]}}
