{"type":"Feature","properties":{"mrgid":63698,"name":"Southern Iberia","placeType":"Freshwater Ecoregion of the World (FEOW)","source":"MarineRegions:tnc_wwf_feow_hydrosheds"},"geometry":{"type":"MultiPolygon","coordinates":[[[[-6.216667,36.375],[-6.216667,36.383333],[-6.225,36.383333],[-6.225,36.375],[-6.216667,36.375]]],[[[-6.3125,36.525],[-6.3125,36.533333],[-6.320833,36.533333],[-6.320833,36.525],[-6.3125,36.525]]],[[[-6.475,36.741667],[-6.475,36.733333],[-6.466667,36.733333],[-6.475,36.741667]]],[[[-0.645833,37.658333],[-0.65,37.658333],[-0.65,37.654167],[-0.645833,37.658333]]],[[[-0.745833,37.666667],[-0.75,37.666667],[-0.75,37.6625],[-0.745833,37.666667]]],[[[-0.779167,37.7],[-0.775,37.6875],[-0.7625,37.6875],[-0.766667,37.704167],[-0.779167,37.7]]],[[[-0.804167,37.704167],[-0.8,37.695833],[-0.791667,37.695833],[-0.795833,37.704167],[-0.804167,37.704167]]],[[[-0.7125,37.733333],[-0.7125,37.725],[-0.7,37.725],[-0.7125,37.733333]]],[[[-6.270833,36.516667],[-6.275,36.545833],[-6.308333,36.5375],[-6.308333,36.525],[-6.291667,36.525],[-6.266667,36.4875],[-6.25,36.441667],[-6.233333,36.4375],[-6.220833,36.391667],[-6.208333,36.391667],[-6.2125,36.383333],[-6.204167,36.375],[-6.183333,36.370833],[-6.154167,36.304167],[-6.141667,36.291667],[-6.1125,36.291667],[-6.0875,36.270833],[-6.075,36.229167],[-6.0375,36.179167],[-6.008333,36.183333],[-5.966667,36.175],[-5.95,36.183333],[-5.9125,36.183333],[-5.854167,36.141667],[-5.8,36.075],[-5.770833,36.0875],[-5.7625,36.075],[-5.725,36.058333],[-5.7,36.058333],[-5.6875,36.066667],[-5.670833,36.054167],[-5.654167,36.054167],[-5.616667,36.025],[-5.616667,36.0],[-5.604167,36.0],[-5.6,36.008333],[-5.558333,36.016667],[-5.533333,36.033333],[-5.5125,36.033333],[-5.495833,36.05],[-5.458333,36.05],[-5.429167,36.066667],[-5.420833,36.083333],[-5.4375,36.0875],[-5.441667,36.095833],[-5.429167,36.104167],[-5.429167,36.145833],[-5.441667,36.15],[-5.441667,36.158333],[-5.425,36.175],[-5.4125,36.170833],[-5.4125,36.179167],[-5.383333,36.179167],[-5.383333,36.166667],[-5.358333,36.1625],[-5.354167,36.154167],[-5.366667,36.154167],[-5.370833,36.141667],[-5.354167,36.120833],[-5.354167,36.108333],[-5.341667,36.108333],[-5.333333,36.183333],[-5.316667,36.229167],[-5.308333,36.241667],[-5.291667,36.245833],[-5.279167,36.279167],[-5.266667,36.2875],[-5.266667,36.3],[-5.241667,36.3125],[-5.216667,36.379167],[-5.208333,36.379167],[-5.179167,36.4125],[-5.154167,36.408333],[-5.141667,36.425],[-5.108333,36.429167],[-5.083333,36.45],[-5.0,36.458333],[-4.916667,36.504167],[-4.845833,36.504167],[-4.766667,36.483333],[-4.716667,36.483333],[-4.691667,36.4875],[-4.675,36.504167],[-4.633333,36.504167],[-4.604167,36.5625],[-4.558333,36.579167],[-4.5375,36.575],[-4.529167,36.5875],[-4.508333,36.591667],[-4.483333,36.6375],[-4.445833,36.670833],[-4.4375,36.695833],[-4.4,36.720833],[-4.329167,36.708333],[-4.2375,36.708333],[-4.116667,36.720833],[-4.1,36.725],[-4.079167,36.745833],[-4.0125,36.741667],[-3.95,36.725],[-3.9125,36.741667],[-3.883333,36.7375],[-3.866667,36.75],[-3.808333,36.75],[-3.791667,36.745833],[-3.775,36.729167],[-3.758333,36.729167],[-3.75,36.7375],[-3.7375,36.729167],[-3.7375,36.716667],[-3.725,36.716667],[-3.720833,36.729167],[-3.670833,36.729167],[-3.6625,36.741667],[-3.6,36.741667],[-3.583333,36.720833],[-3.558333,36.7125],[-3.516667,36.720833],[-3.475,36.691667],[-3.416667,36.691667],[-3.404167,36.704167],[-3.358333,36.7125],[-3.358333,36.720833],[-3.3375,36.7375],[-3.291667,36.7375],[-3.25,36.754167],[-3.2125,36.741667],[-3.2,36.75],[-3.1375,36.741667],[-3.133333,36.75],[-3.104167,36.75],[-2.9875,36.7375],[-2.920833,36.75],[-2.895833,36.7375],[-2.85,36.691667],[-2.829167,36.704167],[-2.808333,36.704167],[-2.8,36.691667],[-2.783333,36.691667],[-2.775,36.679167],[-2.695833,36.679167],[-2.691667,36.6875],[-2.641667,36.7],[-2.6125,36.729167],[-2.595833,36.779167],[-2.575,36.795833],[-2.575,36.804167],[-2.566667,36.804167],[-2.566667,36.8125],[-2.458333,36.829167],[-2.433333,36.808333],[-2.420833,36.808333],[-2.404167,36.825],[-2.366667,36.841667],[-2.291667,36.820833],[-2.191667,36.716667],[-2.1625,36.720833],[-2.154167,36.729167],[-2.116667,36.729167],[-2.116667,36.745833],[-2.108333,36.745833],[-2.1,36.7625],[-2.079167,36.7625],[-2.058333,36.775],[-2.054167,36.8125],[-2.045833,36.808333],[-2.0375,36.825],[-1.995833,36.8375],[-1.991667,36.854167],[-2.0,36.858333],[-2.0,36.883333],[-1.991667,36.883333],[-1.983333,36.9],[-1.9625,36.895833],[-1.941667,36.933333],[-1.904167,36.933333],[-1.9,36.945833],[-1.891667,36.945833],[-1.891667,36.979167],[-1.9,36.9875],[-1.875,37.0125],[-1.875,37.033333],[-1.8625,37.0375],[-1.854167,37.0625],[-1.845833,37.066667],[-1.845833,37.104167],[-1.829167,37.116667],[-1.820833,37.179167],[-1.8125,37.179167],[-1.816667,37.191667],[-1.808333,37.195833],[-1.808333,37.2125],[-1.791667,37.233333],[-1.770833,37.2375],[-1.758333,37.2625],[-1.75,37.2625],[-1.7,37.308333],[-1.675,37.354167],[-1.654167,37.35],[-1.641667,37.370833],[-1.625,37.370833],[-1.625,37.379167],[-1.608333,37.383333],[-1.591667,37.4],[-1.558333,37.4],[-1.554167,37.408333],[-1.541667,37.404167],[-1.541667,37.416667],[-1.525,37.420833],[-1.520833,37.429167],[-1.504167,37.429167],[-1.5,37.420833],[-1.475,37.425],[-1.479167,37.454167],[-1.45,37.491667],[-1.4375,37.5],[-1.4,37.504167],[-1.3875,37.525],[-1.370833,37.529167],[-1.354167,37.55],[-1.329167,37.554167],[-1.325,37.5625],[-1.254167,37.554167],[-1.245833,37.575],[-1.2125,37.575],[-1.175,37.5625],[-1.175,37.541667],[-1.166667,37.5375],[-1.104167,37.533333],[-1.125,37.554167],[-1.108333,37.566667],[-1.091667,37.566667],[-1.075,37.583333],[-1.0125,37.570833],[-1.008333,37.583333],[-0.983333,37.583333],[-0.966667,37.566667],[-0.975,37.558333],[-0.9125,37.554167],[-0.891667,37.566667],[-0.875,37.566667],[-0.866667,37.579167],[-0.8125,37.575],[-0.808333,37.583333],[-0.7875,37.583333],[-0.770833,37.595833],[-0.741667,37.595833],[-0.716667,37.604167],[-0.7,37.629167],[-0.683333,37.629167],[-0.683333,37.6375],[-0.708333,37.641667],[-0.733333,37.6875],[-0.7375,37.733333],[-0.729167,37.741667],[-0.720833,37.7375],[-0.720833,37.75],[-0.741667,37.758333],[-0.741667,37.783333],[-0.758333,37.783333],[-0.758333,37.775],[-0.75,37.770833],[-0.741667,37.7375],[-0.741667,37.658333],[-0.725,37.658333],[-0.725,37.6375],[-0.741667,37.633333],[-0.745833,37.645833],[-0.808333,37.6625],[-0.858333,37.720833],[-0.85,37.725],[-0.841667,37.75],[-0.816667,37.758333],[-0.795833,37.779167],[-0.8,37.8],[-0.791667,37.8125],[-0.770833,37.816667],[-0.770833,37.833333],[-0.758333,37.808333],[-0.7625,37.791667],[-0.745833,37.7875],[-0.754167,37.808333],[-0.75,37.825],[-0.758333,37.829167],[-0.75,37.895833],[-0.7375,37.908333],[-0.716667,37.908333],[-0.716667,37.9375],[-0.7,37.941667],[-0.7,37.9625],[-0.654167,37.979167],[-0.645833,37.995833],[-0.65,38.0625],[-0.641667,38.1125],[-0.658333,38.133333],[-0.6625,38.175],[-0.670833,38.183333],[-0.670833,38.308333],[-0.679167,38.3125],[-0.675,38.325],[-0.683333,38.329167],[-0.683333,38.358333],[-0.6625,38.383333],[-0.670833,38.3875],[-0.670833,38.4125],[-0.691667,38.420833],[-0.695833,38.445833],[-0.716667,38.458333],[-0.7125,38.470833],[-0.720833,38.475],[-0.708333,38.504167],[-0.695833,38.5125],[-0.6625,38.5125],[-0.658333,38.525],[-0.679167,38.533333],[-0.691667,38.554167],[-0.720833,38.558333],[-0.733333,38.595833],[-0.75,38.6125],[-0.704167,38.633333],[-0.683333,38.658333],[-0.670833,38.658333],[-0.658333,38.670833],[-0.629167,38.666667],[-0.6125,38.695833],[-0.6,38.695833],[-0.595833,38.708333],[-0.579167,38.7125],[-0.575,38.725],[-0.5625,38.729167],[-0.5625,38.745833],[-0.5875,38.754167],[-0.645833,38.725],[-0.654167,38.733333],[-0.658333,38.7625],[-0.6875,38.758333],[-0.691667,38.75],[-0.708333,38.75],[-0.716667,38.758333],[-0.766667,38.758333],[-0.770833,38.75],[-0.783333,38.75],[-0.795833,38.779167],[-0.8625,38.779167],[-0.9125,38.766667],[-0.925,38.783333],[-0.9375,38.783333],[-0.9375,38.795833],[-0.95,38.804167],[-0.975,38.8],[-0.983333,38.7875],[-1.0,38.804167],[-1.008333,38.795833],[-1.029167,38.8],[-1.05,38.770833],[-1.1,38.775],[-1.116667,38.7875],[-1.145833,38.791667],[-1.154167,38.783333],[-1.154167,38.7625],[-1.141667,38.75],[-1.116667,38.745833],[-1.116667,38.670833],[-1.091667,38.654167],[-1.0625,38.658333],[-1.058333,38.65],[-1.0375,38.666667],[-1.029167,38.6625],[-1.029167,38.6],[-0.991667,38.608333],[-0.9875,38.6],[-0.9625,38.6],[-0.970833,38.5875],[-0.9875,38.5875],[-0.991667,38.504167],[-1.0125,38.504167],[-1.0375,38.491667],[-1.05,38.4625],[-1.0625,38.454167],[-1.0875,38.454167],[-1.091667,38.445833],[-1.120833,38.458333],[-1.1125,38.4875],[-1.116667,38.495833],[-1.1625,38.495833],[-1.183333,38.529167],[-1.183333,38.545833],[-1.204167,38.545833],[-1.204167,38.558333],[-1.229167,38.575],[-1.229167,38.591667],[-1.2375,38.583333],[-1.266667,38.5875],[-1.270833,38.579167],[-1.295833,38.5875],[-1.295833,38.616667],[-1.320833,38.633333],[-1.316667,38.65],[-1.325,38.654167],[-1.325,38.666667],[-1.354167,38.679167],[-1.375,38.704167],[-1.3875,38.704167],[-1.3625,38.7375],[-1.391667,38.75],[-1.395833,38.7625],[-1.4125,38.766667],[-1.416667,38.775],[-1.454167,38.783333],[-1.4625,38.8],[-1.5,38.779167],[-1.508333,38.7625],[-1.525,38.770833],[-1.575,38.775],[-1.6125,38.745833],[-1.629167,38.754167],[-1.695833,38.754167],[-1.704167,38.75],[-1.704167,38.7375],[-1.733333,38.733333],[-1.75,38.704167],[-1.770833,38.695833],[-1.795833,38.7125],[-1.791667,38.729167],[-1.804167,38.729167],[-1.808333,38.741667],[-1.829167,38.733333],[-1.920833,38.733333],[-1.941667,38.708333],[-1.9875,38.708333],[-1.995833,38.720833],[-2.033333,38.733333],[-2.116667,38.720833],[-2.145833,38.708333],[-2.179167,38.708333],[-2.1875,38.6625],[-2.195833,38.6625],[-2.195833,38.65],[-2.220833,38.6375],[-2.220833,38.629167],[-2.2375,38.633333],[-2.245833,38.645833],[-2.2625,38.641667],[-2.2625,38.65],[-2.3,38.645833],[-2.3,38.654167],[-2.3125,38.654167],[-2.3125,38.6625],[-2.325,38.658333],[-2.329167,38.641667],[-2.358333,38.633333],[-2.366667,38.620833],[-2.379167,38.633333],[-2.391667,38.633333],[-2.395833,38.65],[-2.429167,38.675],[-2.425,38.6875],[-2.454167,38.7],[-2.45,38.725],[-2.4625,38.729167],[-2.4625,38.741667],[-2.479167,38.741667],[-2.491667,38.729167],[-2.5125,38.745833],[-2.5125,38.7625],[-2.483333,38.779167],[-2.483333,38.7875],[-2.495833,38.791667],[-2.495833,38.808333],[-2.470833,38.841667],[-2.470833,38.8625],[-2.4625,38.8625],[-2.45,38.879167],[-2.45,38.904167],[-2.458333,38.916667],[-2.45,38.929167],[-2.458333,38.9375],[-2.458333,38.958333],[-2.416667,38.975],[-2.425,38.983333],[-2.425,39.0125],[-2.454167,39.029167],[-2.445833,39.054167],[-2.45,39.083333],[-2.4125,39.129167],[-2.4125,39.15],[-2.395833,39.166667],[-2.375,39.1625],[-2.354167,39.170833],[-2.35,39.2125],[-2.325,39.220833],[-2.316667,39.245833],[-2.283333,39.25],[-2.258333,39.266667],[-2.2625,39.3],[-2.2375,39.295833],[-2.225,39.325],[-2.216667,39.320833],[-2.208333,39.333333],[-2.191667,39.3375],[-2.1875,39.370833],[-2.170833,39.391667],[-2.154167,39.404167],[-2.133333,39.395833],[-2.125,39.445833],[-2.141667,39.458333],[-2.166667,39.4625],[-2.158333,39.4875],[-2.1875,39.504167],[-2.1875,39.520833],[-2.170833,39.533333],[-2.195833,39.545833],[-2.2,39.575],[-2.245833,39.5875],[-2.254167,39.616667],[-2.2625,39.616667],[-2.2625,39.629167],[-2.295833,39.65],[-2.291667,39.6625],[-2.3,39.670833],[-2.366667,39.683333],[-2.408333,39.670833],[-2.433333,39.6875],[-2.425,39.7],[-2.408333,39.704167],[-2.404167,39.725],[-2.4375,39.775],[-2.4625,39.795833],[-2.475,39.825],[-2.45,39.854167],[-2.475,39.883333],[-2.475,39.933333],[-2.466667,39.945833],[-2.433333,39.941667],[-2.429167,39.95],[-2.408333,39.95],[-2.408333,39.966667],[-2.379167,39.970833],[-2.379167,39.979167],[-2.3625,39.991667],[-2.3625,40.0125],[-2.35,40.020833],[-2.354167,40.041667],[-2.345833,40.041667],[-2.345833,40.058333],[-2.383333,40.058333],[-2.425,40.079167],[-2.441667,40.079167],[-2.441667,40.0875],[-2.470833,40.083333],[-2.508333,40.1125],[-2.5375,40.108333],[-2.570833,40.120833],[-2.579167,40.120833],[-2.591667,40.104167],[-2.6125,40.104167],[-2.6125,40.095833],[-2.633333,40.1],[-2.633333,40.083333],[-2.641667,40.075],[-2.658333,40.079167],[-2.6625,40.070833],[-2.675,40.070833],[-2.6875,40.083333],[-2.7,40.079167],[-2.7,40.095833],[-2.720833,40.095833],[-2.741667,40.129167],[-2.7625,40.125],[-2.783333,40.15],[-2.8,40.141667],[-2.829167,40.141667],[-2.833333,40.120833],[-2.854167,40.120833],[-2.870833,40.083333],[-2.891667,40.083333],[-2.9,40.066667],[-2.916667,40.058333],[-2.916667,40.045833],[-2.941667,40.041667],[-2.979167,40.0],[-3.008333,40.0],[-3.0125,40.0125],[-3.033333,40.008333],[-3.025,40.0],[-3.029167,39.966667],[-3.058333,39.954167],[-3.070833,39.941667],[-3.070833,39.929167],[-3.091667,39.916667],[-3.091667,39.904167],[-3.108333,39.883333],[-3.116667,39.883333],[-3.1125,39.866667],[-3.179167,39.85],[-3.204167,39.829167],[-3.291667,39.816667],[-3.3125,39.7875],[-3.333333,39.783333],[-3.3625,39.745833],[-3.3625,39.720833],[-3.379167,39.7125],[-3.379167,39.7],[-3.35,39.695833],[-3.345833,39.679167],[-3.375,39.65],[-3.3875,39.65],[-3.4,39.6625],[-3.429167,39.654167],[-3.429167,39.641667],[-3.45,39.6125],[-3.45,39.575],[-3.475,39.595833],[-3.520833,39.5875],[-3.525,39.595833],[-3.55,39.595833],[-3.566667,39.566667],[-3.608333,39.5625],[-3.6375,39.545833],[-3.691667,39.545833],[-3.741667,39.520833],[-3.7875,39.516667],[-3.783333,39.483333],[-3.791667,39.458333],[-3.754167,39.45],[-3.754167,39.420833],[-3.766667,39.408333],[-3.7625,39.383333],[-3.770833,39.383333],[-3.779167,39.3625],[-3.775,39.35],[-3.7875,39.3375],[-3.783333,39.316667],[-3.8375,39.325],[-3.845833,39.345833],[-3.841667,39.354167],[-3.854167,39.354167],[-3.875,39.383333],[-3.9125,39.379167],[-3.916667,39.391667],[-3.95,39.408333],[-4.004167,39.416667],[-4.016667,39.433333],[-4.008333,39.433333],[-4.004167,39.454167],[-4.020833,39.4625],[-4.020833,39.479167],[-4.058333,39.475],[-4.0625,39.483333],[-4.0625,39.570833],[-4.125,39.5625],[-4.158333,39.579167],[-4.1875,39.575],[-4.208333,39.5625],[-4.225,39.5625],[-4.225,39.554167],[-4.2375,39.55],[-4.245833,39.520833],[-4.2625,39.5125],[-4.3,39.525],[-4.354167,39.520833],[-4.3625,39.529167],[-4.429167,39.529167],[-4.4375,39.545833],[-4.4625,39.55],[-4.475,39.5625],[-4.475,39.575],[-4.508333,39.575],[-4.525,39.583333],[-4.5375,39.583333],[-4.541667,39.575],[-4.595833,39.575],[-4.629167,39.554167],[-4.620833,39.533333],[-4.625,39.525],[-4.645833,39.533333],[-4.658333,39.55],[-4.679167,39.554167],[-4.679167,39.5625],[-4.7,39.5625],[-4.716667,39.5375],[-4.7625,39.55],[-4.845833,39.55],[-4.891667,39.566667],[-4.895833,39.558333],[-4.920833,39.554167],[-4.925,39.533333],[-4.975,39.55],[-4.979167,39.533333],[-4.9875,39.529167],[-4.983333,39.504167],[-4.995833,39.504167],[-5.0,39.495833],[-5.075,39.4875],[-5.095833,39.508333],[-5.1125,39.5125],[-5.158333,39.5625],[-5.166667,39.5625],[-5.208333,39.6],[-5.220833,39.6],[-5.225,39.5875],[-5.270833,39.591667],[-5.275,39.579167],[-5.2875,39.579167],[-5.304167,39.55],[-5.275,39.533333],[-5.2875,39.508333],[-5.304167,39.504167],[-5.3125,39.483333],[-5.329167,39.470833],[-5.404167,39.470833],[-5.408333,39.458333],[-5.433333,39.445833],[-5.416667,39.420833],[-5.433333,39.416667],[-5.433333,39.404167],[-5.445833,39.391667],[-5.466667,39.383333],[-5.5,39.383333],[-5.508333,39.395833],[-5.541667,39.395833],[-5.554167,39.383333],[-5.579167,39.3875],[-5.604167,39.366667],[-5.625,39.358333],[-5.641667,39.3625],[-5.65,39.35],[-5.695833,39.3375],[-5.704167,39.358333],[-5.691667,39.366667],[-5.683333,39.3875],[-5.695833,39.395833],[-5.716667,39.395833],[-5.745833,39.408333],[-5.75,39.4],[-5.775,39.395833],[-5.779167,39.383333],[-5.795833,39.395833],[-5.825,39.391667],[-5.841667,39.366667],[-5.8625,39.366667],[-5.870833,39.3375],[-5.883333,39.3375],[-5.8875,39.320833],[-5.920833,39.320833],[-5.929167,39.3125],[-5.929167,39.283333],[-5.958333,39.283333],[-5.966667,39.2625],[-6.0,39.245833],[-6.016667,39.216667],[-6.041667,39.216667],[-6.05,39.229167],[-6.0625,39.220833],[-6.095833,39.225],[-6.1375,39.2125],[-6.1625,39.233333],[-6.191667,39.2375],[-6.2125,39.220833],[-6.2125,39.204167],[-6.229167,39.2],[-6.229167,39.170833],[-6.254167,39.158333],[-6.320833,39.183333],[-6.325,39.191667],[-6.3625,39.2],[-6.429167,39.258333],[-6.458333,39.266667],[-6.495833,39.295833],[-6.55,39.3125],[-6.579167,39.333333],[-6.570833,39.345833],[-6.583333,39.358333],[-6.604167,39.3625],[-6.625,39.354167],[-6.645833,39.370833],[-6.666667,39.3625],[-6.675,39.379167],[-6.716667,39.404167],[-6.775,39.404167],[-6.783333,39.395833],[-6.804167,39.4],[-6.833333,39.3875],[-6.870833,39.3875],[-6.870833,39.366667],[-6.891667,39.3625],[-6.925,39.370833],[-6.929167,39.395833],[-6.966667,39.404167],[-6.979167,39.416667],[-7.041667,39.429167],[-7.054167,39.425],[-7.066667,39.391667],[-7.079167,39.391667],[-7.079167,39.383333],[-7.108333,39.3625],[-7.104167,39.345833],[-7.175,39.366667],[-7.195833,39.354167],[-7.195833,39.341667],[-7.2625,39.341667],[-7.270833,39.320833],[-7.2875,39.316667],[-7.308333,39.341667],[-7.329167,39.345833],[-7.333333,39.325],[-7.345833,39.3125],[-7.375,39.316667],[-7.383333,39.308333],[-7.404167,39.308333],[-7.391667,39.270833],[-7.379167,39.258333],[-7.391667,39.2375],[-7.4,39.2375],[-7.395833,39.204167],[-7.383333,39.195833],[-7.395833,39.154167],[-7.329167,39.104167],[-7.333333,39.083333],[-7.3625,39.066667],[-7.379167,38.991667],[-7.358333,38.970833],[-7.3375,38.970833],[-7.329167,38.9375],[-7.295833,38.929167],[-7.275,38.933333],[-7.258333,38.9125],[-7.266667,38.883333],[-7.275,38.879167],[-7.3,38.891667],[-7.3375,38.883333],[-7.341667,38.875],[-7.420833,38.875],[-7.441667,38.845833],[-7.458333,38.841667],[-7.475,38.795833],[-7.483333,38.795833],[-7.495833,38.8125],[-7.516667,38.816667],[-7.520833,38.783333],[-7.529167,38.783333],[-7.545833,38.7625],[-7.5375,38.745833],[-7.541667,38.733333],[-7.5875,38.7375],[-7.6,38.725],[-7.604167,38.733333],[-7.629167,38.733333],[-7.679167,38.758333],[-7.7,38.754167],[-7.7125,38.766667],[-7.7375,38.754167],[-7.754167,38.758333],[-7.7625,38.733333],[-7.770833,38.741667],[-7.783333,38.741667],[-7.783333,38.733333],[-7.795833,38.729167],[-7.833333,38.7375],[-7.8375,38.716667],[-7.858333,38.691667],[-7.883333,38.691667],[-7.933333,38.658333],[-7.945833,38.641667],[-7.975,38.633333],[-7.970833,38.608333],[-7.945833,38.604167],[-7.941667,38.583333],[-7.933333,38.583333],[-7.925,38.6],[-7.904167,38.604167],[-7.8875,38.6],[-7.879167,38.583333],[-7.870833,38.583333],[-7.866667,38.554167],[-7.883333,38.545833],[-7.891667,38.520833],[-7.870833,38.516667],[-7.870833,38.491667],[-7.879167,38.479167],[-7.875,38.4375],[-7.883333,38.429167],[-7.875,38.420833],[-7.875,38.404167],[-7.858333,38.391667],[-7.858333,38.375],[-7.804167,38.358333],[-7.754167,38.325],[-7.720833,38.320833],[-7.716667,38.275],[-7.7375,38.25],[-7.758333,38.254167],[-7.783333,38.245833],[-7.795833,38.258333],[-7.808333,38.245833],[-7.841667,38.241667],[-7.845833,38.220833],[-7.8625,38.216667],[-7.866667,38.208333],[-7.883333,38.208333],[-7.883333,38.179167],[-7.9125,38.175],[-7.9125,38.158333],[-7.933333,38.158333],[-7.9375,38.145833],[-7.925,38.141667],[-7.925,38.133333],[-7.945833,38.1],[-7.945833,38.075],[-7.925,38.070833],[-7.916667,38.029167],[-7.866667,38.020833],[-7.8625,38.008333],[-7.879167,38.0],[-7.879167,37.983333],[-7.891667,37.975],[-7.895833,37.954167],[-7.929167,37.941667],[-7.970833,37.883333],[-8.0,37.870833],[-8.004167,37.841667],[-8.016667,37.8375],[-8.016667,37.825],[-8.0625,37.808333],[-8.075,37.8125],[-8.091667,37.8],[-8.091667,37.791667],[-8.1125,37.795833],[-8.116667,37.783333],[-8.1375,37.779167],[-8.158333,37.75],[-8.158333,37.741667],[-8.133333,37.720833],[-8.141667,37.720833],[-8.145833,37.7],[-8.158333,37.7],[-8.158333,37.666667],[-8.1625,37.658333],[-8.175,37.658333],[-8.179167,37.633333],[-8.1625,37.604167],[-8.158333,37.579167],[-8.104167,37.533333],[-8.116667,37.504167],[-8.091667,37.483333],[-8.1,37.441667],[-8.075,37.4125],[-8.075,37.379167],[-8.083333,37.375],[-8.066667,37.358333],[-8.070833,37.345833],[-8.095833,37.329167],[-8.091667,37.3125],[-8.070833,37.3],[-8.070833,37.291667],[-8.054167,37.3],[-8.054167,37.291667],[-8.033333,37.2875],[-8.008333,37.291667],[-8.004167,37.279167],[-7.979167,37.275],[-7.958333,37.254167],[-7.933333,37.245833],[-7.933333,37.233333],[-7.920833,37.229167],[-7.916667,37.216667],[-7.9,37.220833],[-7.845833,37.2],[-7.808333,37.204167],[-7.808333,37.220833],[-7.754167,37.2375],[-7.75,37.245833],[-7.695833,37.254167],[-7.654167,37.245833],[-7.591667,37.25],[-7.5875,37.233333],[-7.5625,37.220833],[-7.558333,37.208333],[-7.520833,37.208333],[-7.5125,37.191667],[-7.4875,37.191667],[-7.483333,37.183333],[-7.408333,37.183333],[-7.404167,37.175],[-7.3875,37.170833],[-7.358333,37.170833],[-7.329167,37.183333],[-7.329167,37.191667],[-7.304167,37.191667],[-7.291667,37.2],[-7.045833,37.208333],[-6.954167,37.166667],[-6.933333,37.175],[-6.925,37.170833],[-6.929167,37.158333],[-6.904167,37.145833],[-6.879167,37.141667],[-6.8625,37.145833],[-6.841667,37.1375],[-6.833333,37.125],[-6.820833,37.129167],[-6.783333,37.116667],[-6.6,37.025],[-6.554167,36.991667],[-6.516667,36.975],[-6.45,36.908333],[-6.4,36.808333],[-6.379167,36.795833],[-6.35,36.795833],[-6.366667,36.779167],[-6.4125,36.7625],[-6.420833,36.745833],[-6.433333,36.75],[-6.445833,36.741667],[-6.441667,36.716667],[-6.4125,36.666667],[-6.4,36.658333],[-6.395833,36.629167],[-6.358333,36.6125],[-6.3375,36.625],[-6.329167,36.6125],[-6.325,36.625],[-6.316667,36.616667],[-6.325,36.6125],[-6.3,36.616667],[-6.279167,36.604167],[-6.270833,36.579167],[-6.2625,36.575],[-6.241667,36.583333],[-6.2375,36.575],[-6.225,36.575],[-6.233333,36.529167],[-6.258333,36.533333],[-6.25,36.504167],[-6.229167,36.5],[-6.220833,36.508333],[-6.204167,36.508333],[-6.195833,36.525],[-6.175,36.520833],[-6.1875,36.504167],[-6.2,36.504167],[-6.195833,36.4875],[-6.2125,36.483333],[-6.2125,36.470833],[-6.229167,36.466667],[-6.254167,36.470833],[-6.2625,36.491667],[-6.254167,36.504167],[-6.270833,36.516667]],[[-6.879167,37.145833],[-6.883333,37.145833],[-6.883333,37.15],[-6.879167,37.145833]],[[-6.883333,37.15],[-6.891667,37.15],[-6.891667,37.154167],[-6.883333,37.15]],[[-6.891667,37.154167],[-6.895833,37.154167],[-6.895833,37.158333],[-6.891667,37.154167]],[[-6.895833,37.158333],[-6.904167,37.158333],[-6.904167,37.1625],[-6.895833,37.158333]],[[-6.904167,37.166667],[-6.9125,37.1625],[-6.916667,37.170833],[-6.908333,37.170833],[-6.904167,37.166667]],[[-6.916667,37.170833],[-6.920833,37.170833],[-6.920833,37.175],[-6.916667,37.170833]],[[-6.920833,37.175],[-6.925,37.175],[-6.925,37.179167],[-6.920833,37.175]],[[-6.925,37.179167],[-6.929167,37.179167],[-6.929167,37.183333],[-6.925,37.179167]],[[-7.475,38.795833],[-7.470833,38.795833],[-7.470833,38.791667],[-7.475,38.795833]],[[-0.758333,37.8],[-0.754167,37.8],[-0.754167,37.795833],[-0.758333,37.8]],[[-0.983333,37.583333],[-0.983333,37.5875],[-0.979167,37.5875],[-0.983333,37.583333]],[[-6.275,36.541667],[-6.275,36.5375],[-6.279167,36.5375],[-6.275,36.541667]],[[-6.954167,37.220833],[-6.95,37.220833],[-6.95,37.2125],[-6.954167,37.220833]],[[-6.954167,37.220833],[-6.958333,37.220833],[-6.958333,37.2375],[-6.954167,37.220833]],[[-6.929167,37.216667],[-6.929167,37.2125],[-6.933333,37.2125],[-6.929167,37.216667]],[[-6.925,37.216667],[-6.929167,37.216667],[-6.929167,37.220833],[-6.925,37.220833],[-6.925,37.216667]],[[-6.9375,37.208333],[-6.945833,37.208333],[-6.945833,37.2125],[-6.9375,37.208333]],[[-0.979167,37.591667],[-0.983333,37.591667],[-0.983333,37.595833],[-0.979167,37.591667]],[[-5.358333,36.133333],[-5.3625,36.133333],[-5.3625,36.141667],[-5.358333,36.133333]]]]}}
