{"type":"Feature","properties":{"mrgid":63719,"name":"Kura - South Caspian Drainages","placeType":"Freshwater Ecoregion of the World (FEOW)","source":"MarineRegions:tnc_wwf_feow_hydrosheds"},"geometry":{"type":"MultiPolygon","coordinates":[[[[49.0625,38.966667],[49.0625,38.958333],[49.075,38.954167],[49.075,38.9625],[49.0625,38.966667]]],[[[49.108333,38.954167],[49.095833,38.954167],[49.1,38.9375],[49.133333,38.941667],[49.170833,38.975],[49.1875,39.0125],[49.179167,39.041667],[49.154167,39.0375],[49.15,39.029167],[49.158333,39.025],[49.141667,39.004167],[49.091667,38.979167],[49.091667,38.970833],[49.108333,38.966667],[49.083333,38.966667],[49.083333,38.958333],[49.108333,38.954167]],[[49.116667,38.958333],[49.1125,38.958333],[49.1125,38.9625],[49.116667,38.958333]],[[49.1375,38.958333],[49.1375,38.954167],[49.133333,38.954167],[49.1375,38.958333]],[[49.141667,38.958333],[49.1375,38.958333],[49.1375,38.9625],[49.141667,38.9625],[49.141667,38.958333]],[[49.129167,38.95],[49.125,38.95],[49.125,38.954167],[49.129167,38.95]],[[49.120833,38.945833],[49.116667,38.945833],[49.116667,38.95],[49.120833,38.945833]]],[[[49.3375,39.020833],[49.329167,39.016667],[49.329167,39.0125],[49.3375,39.0125],[49.3375,39.020833]]],[[[49.1625,39.104167],[49.1625,39.091667],[49.170833,39.091667],[49.170833,39.104167],[49.1625,39.104167]]],[[[49.091667,39.104167],[49.075,39.104167],[49.083333,39.095833],[49.091667,39.104167]]],[[[49.1125,39.1125],[49.1125,39.1],[49.125,39.104167],[49.1125,39.1125]]],[[[49.108333,39.116667],[49.1,39.116667],[49.1,39.108333],[49.108333,39.116667]]],[[[49.170833,39.120833],[49.170833,39.1125],[49.179167,39.1125],[49.179167,39.120833],[49.170833,39.120833]]],[[[49.075,39.129167],[49.070833,39.120833],[49.0875,39.120833],[49.075,39.129167]]],[[[49.404167,39.820833],[49.408333,39.845833],[49.441667,39.858333],[49.4125,39.929167],[49.416667,39.954167],[49.4875,39.995833],[49.4375,40.0375],[49.420833,40.066667],[49.425,40.091667],[49.4375,40.1],[49.495833,40.1125],[49.475,40.141667],[49.479167,40.179167],[49.504167,40.183333],[49.529167,40.204167],[49.5625,40.208333],[49.591667,40.229167],[49.620833,40.233333],[49.625,40.241667],[49.6375,40.2375],[49.6375,40.245833],[49.6625,40.245833],[49.658333,40.254167],[49.670833,40.254167],[49.679167,40.2625],[49.675,40.270833],[49.691667,40.279167],[49.733333,40.275],[49.7375,40.283333],[49.7875,40.304167],[49.833333,40.3],[49.845833,40.341667],[49.8625,40.341667],[49.8625,40.35],[49.841667,40.354167],[49.841667,40.366667],[49.854167,40.370833],[49.920833,40.366667],[49.9375,40.358333],[49.941667,40.345833],[49.954167,40.345833],[49.954167,40.333333],[50.0,40.3375],[50.004167,40.329167],[50.004167,40.3375],[50.0125,40.333333],[50.016667,40.345833],[50.0375,40.354167],[50.0625,40.354167],[50.0625,40.345833],[50.079167,40.35],[50.079167,40.341667],[50.0875,40.341667],[50.091667,40.3625],[50.129167,40.366667],[50.129167,40.375],[50.120833,40.375],[50.116667,40.3875],[50.083333,40.383333],[50.0625,40.4],[50.029167,40.4],[50.004167,40.445833],[49.995833,40.4375],[49.9375,40.441667],[49.929167,40.458333],[49.920833,40.458333],[49.904167,40.5],[49.8625,40.5125],[49.854167,40.529167],[49.8375,40.529167],[49.845833,40.504167],[49.8375,40.5],[49.8375,40.470833],[49.804167,40.479167],[49.795833,40.4875],[49.791667,40.5375],[49.766667,40.545833],[49.75,40.545833],[49.7375,40.525],[49.725,40.525],[49.729167,40.495833],[49.770833,40.4625],[49.766667,40.445833],[49.75,40.433333],[49.75,40.420833],[49.733333,40.416667],[49.733333,40.425],[49.716667,40.433333],[49.670833,40.433333],[49.658333,40.45],[49.633333,40.458333],[49.625,40.458333],[49.625,40.445833],[49.5875,40.45],[49.55,40.429167],[49.520833,40.429167],[49.504167,40.45],[49.495833,40.45],[49.5,40.470833],[49.466667,40.466667],[49.441667,40.4875],[49.395833,40.483333],[49.3875,40.5],[49.370833,40.495833],[49.358333,40.5],[49.358333,40.508333],[49.241667,40.508333],[49.216667,40.495833],[49.191667,40.495833],[49.175,40.5],[49.170833,40.508333],[49.154167,40.504167],[49.125,40.516667],[49.104167,40.516667],[49.091667,40.541667],[49.058333,40.55],[49.041667,40.566667],[49.0125,40.575],[48.975,40.575],[48.95,40.566667],[48.945833,40.554167],[48.9125,40.554167],[48.9,40.570833],[48.875,40.583333],[48.8875,40.604167],[48.883333,40.6375],[48.85,40.6375],[48.85,40.65],[48.8375,40.654167],[48.85,40.683333],[48.833333,40.691667],[48.8375,40.708333],[48.779167,40.7125],[48.779167,40.720833],[48.7625,40.716667],[48.754167,40.741667],[48.729167,40.75],[48.7375,40.7875],[48.708333,40.808333],[48.708333,40.829167],[48.679167,40.829167],[48.654167,40.85],[48.579167,40.879167],[48.570833,40.916667],[48.541667,40.933333],[48.541667,40.945833],[48.529167,40.95],[48.529167,40.958333],[48.495833,40.95],[48.429167,40.966667],[48.4125,40.9875],[48.383333,40.983333],[48.379167,40.991667],[48.35,40.995833],[48.345833,41.004167],[48.304167,41.0],[48.295833,41.016667],[48.266667,41.008333],[48.254167,41.025],[48.220833,41.025],[48.208333,41.033333],[48.191667,41.058333],[48.170833,41.054167],[48.129167,41.066667],[48.1,41.0625],[48.095833,41.079167],[48.033333,41.0875],[48.025,41.104167],[47.991667,41.116667],[47.9875,41.170833],[47.941667,41.170833],[47.9375,41.179167],[47.929167,41.175],[47.9125,41.183333],[47.883333,41.175],[47.875,41.179167],[47.879167,41.191667],[47.858333,41.195833],[47.85,41.216667],[47.8125,41.220833],[47.783333,41.1875],[47.775,41.1875],[47.758333,41.195833],[47.725,41.195833],[47.729167,41.204167],[47.708333,41.2125],[47.704167,41.229167],[47.654167,41.225],[47.6125,41.2375],[47.6125,41.225],[47.575,41.220833],[47.5625,41.204167],[47.554167,41.204167],[47.508333,41.229167],[47.508333,41.266667],[47.5,41.270833],[47.466667,41.2625],[47.4625,41.275],[47.370833,41.275],[47.3625,41.2875],[47.345833,41.2875],[47.333333,41.3],[47.304167,41.308333],[47.266667,41.341667],[47.275,41.358333],[47.2625,41.4],[47.229167,41.404167],[47.229167,41.429167],[47.241667,41.433333],[47.241667,41.45],[47.2125,41.454167],[47.2125,41.470833],[47.195833,41.479167],[47.195833,41.4875],[47.158333,41.5],[47.170833,41.508333],[47.175,41.529167],[47.158333,41.533333],[47.15,41.55],[47.1375,41.545833],[47.125,41.558333],[47.116667,41.591667],[47.108333,41.595833],[47.075,41.579167],[47.066667,41.558333],[47.041667,41.558333],[47.0375,41.566667],[47.025,41.5625],[47.025,41.575],[46.995833,41.591667],[46.995833,41.604167],[47.008333,41.6125],[47.0125,41.629167],[46.941667,41.666667],[46.941667,41.6875],[46.929167,41.691667],[46.929167,41.716667],[46.916667,41.729167],[46.9,41.733333],[46.866667,41.720833],[46.85,41.75],[46.833333,41.754167],[46.833333,41.766667],[46.804167,41.766667],[46.7875,41.791667],[46.770833,41.8],[46.783333,41.820833],[46.7625,41.85],[46.7625,41.8625],[46.720833,41.854167],[46.720833,41.833333],[46.7125,41.829167],[46.679167,41.841667],[46.666667,41.841667],[46.654167,41.829167],[46.625,41.8375],[46.608333,41.816667],[46.579167,41.808333],[46.566667,41.816667],[46.566667,41.833333],[46.554167,41.841667],[46.554167,41.870833],[46.541667,41.875],[46.5375,41.8875],[46.483333,41.891667],[46.470833,41.883333],[46.466667,41.891667],[46.445833,41.891667],[46.441667,41.904167],[46.4125,41.9125],[46.404167,41.933333],[46.358333,41.933333],[46.345833,41.95],[46.329167,41.9375],[46.291667,41.945833],[46.2875,41.958333],[46.295833,41.9625],[46.266667,41.975],[46.254167,41.995833],[46.245833,41.995833],[46.2375,42.016667],[46.154167,41.995833],[46.145833,42.016667],[46.120833,42.0],[46.091667,42.008333],[46.079167,42.041667],[46.05,42.025],[46.029167,42.025],[46.025,42.045833],[45.983333,42.045833],[45.966667,42.029167],[45.95,42.029167],[45.920833,42.066667],[45.933333,42.083333],[45.920833,42.083333],[45.908333,42.1],[45.9,42.1],[45.9,42.108333],[45.883333,42.104167],[45.854167,42.116667],[45.825,42.108333],[45.8,42.116667],[45.7875,42.108333],[45.770833,42.120833],[45.770833,42.129167],[45.741667,42.133333],[45.75,42.145833],[45.745833,42.154167],[45.725,42.154167],[45.720833,42.166667],[45.683333,42.179167],[45.670833,42.191667],[45.645833,42.1875],[45.645833,42.195833],[45.629167,42.2],[45.625,42.2125],[45.608333,42.2125],[45.604167,42.241667],[45.5875,42.2375],[45.583333,42.225],[45.558333,42.233333],[45.541667,42.225],[45.529167,42.25],[45.529167,42.270833],[45.504167,42.279167],[45.479167,42.3],[45.445833,42.3],[45.4375,42.308333],[45.433333,42.3375],[45.45,42.358333],[45.441667,42.375],[45.420833,42.375],[45.404167,42.358333],[45.383333,42.358333],[45.3625,42.375],[45.2875,42.391667],[45.279167,42.404167],[45.254167,42.4125],[45.2375,42.433333],[45.216667,42.429167],[45.191667,42.441667],[45.183333,42.458333],[45.1625,42.454167],[45.141667,42.4625],[45.141667,42.483333],[45.116667,42.483333],[45.1125,42.495833],[45.091667,42.495833],[45.083333,42.504167],[45.058333,42.504167],[45.058333,42.529167],[45.041667,42.55],[45.033333,42.55],[45.029167,42.579167],[45.016667,42.6],[44.929167,42.608333],[44.920833,42.595833],[44.8875,42.595833],[44.883333,42.5875],[44.854167,42.595833],[44.7875,42.533333],[44.770833,42.533333],[44.729167,42.508333],[44.704167,42.508333],[44.7,42.516667],[44.679167,42.516667],[44.666667,42.525],[44.641667,42.495833],[44.629167,42.495833],[44.608333,42.5],[44.6,42.5125],[44.566667,42.5125],[44.5625,42.525],[44.55,42.529167],[44.520833,42.520833],[44.516667,42.5125],[44.4875,42.5125],[44.4875,42.504167],[44.458333,42.504167],[44.445833,42.520833],[44.420833,42.525],[44.416667,42.5375],[44.408333,42.5375],[44.4125,42.55],[44.395833,42.558333],[44.383333,42.55],[44.329167,42.545833],[44.329167,42.554167],[44.304167,42.566667],[44.304167,42.591667],[44.283333,42.595833],[44.279167,42.604167],[44.258333,42.604167],[44.25,42.595833],[44.245833,42.604167],[44.229167,42.608333],[44.229167,42.633333],[44.1875,42.633333],[44.183333,42.620833],[44.166667,42.616667],[44.1625,42.608333],[44.1125,42.620833],[44.0875,42.604167],[44.020833,42.6],[43.975,42.55],[43.933333,42.554167],[43.904167,42.5375],[43.8875,42.5375],[43.883333,42.520833],[43.8375,42.520833],[43.833333,42.483333],[43.7875,42.479167],[43.783333,42.470833],[43.775,42.475],[43.775,42.458333],[43.758333,42.445833],[43.758333,42.429167],[43.770833,42.404167],[43.808333,42.408333],[43.816667,42.4],[43.820833,42.3875],[43.808333,42.379167],[43.820833,42.366667],[43.820833,42.35],[43.8125,42.341667],[43.758333,42.341667],[43.7125,42.329167],[43.708333,42.316667],[43.695833,42.329167],[43.675,42.329167],[43.675,42.3125],[43.654167,42.3],[43.654167,42.291667],[43.6125,42.275],[43.604167,42.2625],[43.604167,42.216667],[43.595833,42.2125],[43.595833,42.191667],[43.583333,42.183333],[43.5875,42.158333],[43.566667,42.15],[43.566667,42.133333],[43.55,42.125],[43.545833,42.1],[43.504167,42.091667],[43.491667,42.054167],[43.475,42.045833],[43.479167,42.0375],[43.495833,42.0375],[43.5,42.004167],[43.441667,41.979167],[43.441667,41.95],[43.45,41.95],[43.445833,41.933333],[43.375,41.916667],[43.366667,41.895833],[43.325,41.895833],[43.3125,41.8875],[43.295833,41.891667],[43.295833,41.879167],[43.216667,41.866667],[43.204167,41.85],[43.154167,41.833333],[43.125,41.833333],[43.120833,41.841667],[42.983333,41.841667],[42.958333,41.816667],[42.9375,41.816667],[42.925,41.820833],[42.916667,41.8375],[42.875,41.825],[42.791667,41.841667],[42.791667,41.829167],[42.766667,41.820833],[42.7625,41.8125],[42.7,41.8125],[42.670833,41.833333],[42.629167,41.8375],[42.616667,41.829167],[42.616667,41.820833],[42.608333,41.820833],[42.608333,41.804167],[42.595833,41.795833],[42.558333,41.795833],[42.545833,41.808333],[42.491667,41.8],[42.420833,41.816667],[42.416667,41.804167],[42.3875,41.808333],[42.379167,41.791667],[42.354167,41.783333],[42.320833,41.791667],[42.316667,41.766667],[42.325,41.75],[42.408333,41.745833],[42.425,41.741667],[42.4375,41.7125],[42.495833,41.7125],[42.504167,41.691667],[42.516667,41.6875],[42.525,41.6625],[42.520833,41.645833],[42.5125,41.641667],[42.5125,41.616667],[42.541667,41.579167],[42.570833,41.579167],[42.579167,41.570833],[42.583333,41.545833],[42.570833,41.529167],[42.575,41.508333],[42.55,41.495833],[42.529167,41.495833],[42.5125,41.4625],[42.520833,41.458333],[42.525,41.429167],[42.533333,41.425],[42.529167,41.395833],[42.520833,41.3875],[42.545833,41.379167],[42.554167,41.366667],[42.570833,41.366667],[42.570833,41.354167],[42.558333,41.345833],[42.558333,41.325],[42.570833,41.325],[42.591667,41.308333],[42.604167,41.270833],[42.5875,41.275],[42.579167,41.266667],[42.5625,41.266667],[42.525,41.220833],[42.508333,41.216667],[42.508333,41.195833],[42.475,41.195833],[42.475,41.1875],[42.458333,41.1875],[42.445833,41.2],[42.425,41.195833],[42.416667,41.170833],[42.425,41.158333],[42.383333,41.158333],[42.375,41.129167],[42.35,41.116667],[42.345833,41.1],[42.275,41.1],[42.279167,41.075],[42.304167,41.058333],[42.308333,41.045833],[42.291667,41.004167],[42.258333,40.983333],[42.2625,40.975],[42.354167,40.979167],[42.3625,40.958333],[42.395833,40.95],[42.391667,40.9375],[42.354167,40.925],[42.345833,40.891667],[42.3375,40.891667],[42.320833,40.866667],[42.320833,40.854167],[42.329167,40.854167],[42.333333,40.841667],[42.333333,40.808333],[42.345833,40.808333],[42.358333,40.791667],[42.366667,40.8],[42.383333,40.795833],[42.3875,40.779167],[42.4,40.770833],[42.425,40.770833],[42.425,40.779167],[42.475,40.775],[42.504167,40.7875],[42.525,40.7875],[42.541667,40.770833],[42.5625,40.775],[42.566667,40.754167],[42.583333,40.741667],[42.583333,40.729167],[42.6125,40.716667],[42.6125,40.6875],[42.633333,40.675],[42.620833,40.6375],[42.625,40.620833],[42.5875,40.620833],[42.575,40.591667],[42.558333,40.591667],[42.554167,40.579167],[42.533333,40.575],[42.533333,40.545833],[42.4875,40.5],[42.4875,40.441667],[42.5125,40.4125],[42.5125,40.391667],[42.5,40.3875],[42.495833,40.375],[42.483333,40.375],[42.470833,40.354167],[42.433333,40.354167],[42.420833,40.341667],[42.395833,40.354167],[42.395833,40.375],[42.370833,40.379167],[42.370833,40.395833],[42.320833,40.375],[42.316667,40.366667],[42.2875,40.366667],[42.279167,40.354167],[42.258333,40.35],[42.254167,40.341667],[42.233333,40.345833],[42.225,40.3375],[42.170833,40.3375],[42.145833,40.345833],[42.133333,40.329167],[42.1125,40.325],[42.1125,40.304167],[42.091667,40.3],[42.075,40.279167],[42.066667,40.279167],[42.066667,40.270833],[42.058333,40.270833],[42.05,40.254167],[42.0375,40.254167],[42.0375,40.229167],[42.029167,40.220833],[42.004167,40.220833],[41.991667,40.204167],[41.954167,40.2],[41.945833,40.191667],[41.95,40.183333],[41.916667,40.154167],[41.829167,40.154167],[41.820833,40.141667],[41.804167,40.158333],[41.804167,40.170833],[41.7875,40.179167],[41.775,40.1625],[41.720833,40.166667],[41.7125,40.158333],[41.683333,40.158333],[41.679167,40.170833],[41.6625,40.170833],[41.654167,40.183333],[41.629167,40.183333],[41.6125,40.195833],[41.570833,40.183333],[41.566667,40.166667],[41.554167,40.158333],[41.554167,40.133333],[41.5375,40.129167],[41.5375,40.120833],[41.504167,40.091667],[41.495833,40.075],[41.475,40.070833],[41.4625,40.083333],[41.433333,40.0625],[41.425,40.045833],[41.4125,40.045833],[41.4,40.033333],[41.404167,40.0],[41.3875,39.983333],[41.3875,39.958333],[41.375,39.958333],[41.366667,39.9375],[41.354167,39.9375],[41.354167,39.925],[41.3625,39.925],[41.375,39.908333],[41.358333,39.895833],[41.354167,39.875],[41.304167,39.841667],[41.304167,39.816667],[41.295833,39.804167],[41.225,39.779167],[41.225,39.770833],[41.254167,39.766667],[41.258333,39.75],[41.279167,39.733333],[41.270833,39.704167],[41.25,39.7],[41.229167,39.675],[41.1875,39.666667],[41.183333,39.654167],[41.191667,39.633333],[41.179167,39.629167],[41.179167,39.616667],[41.220833,39.6125],[41.258333,39.5625],[41.258333,39.55],[41.241667,39.55],[41.233333,39.533333],[41.229167,39.508333],[41.241667,39.508333],[41.241667,39.491667],[41.2375,39.470833],[41.229167,39.470833],[41.229167,39.454167],[41.25,39.445833],[41.254167,39.408333],[41.2875,39.383333],[41.295833,39.358333],[41.345833,39.320833],[41.358333,39.341667],[41.383333,39.35],[41.420833,39.45],[41.45,39.45],[41.466667,39.458333],[41.483333,39.458333],[41.4875,39.45],[41.545833,39.454167],[41.55,39.466667],[41.575,39.475],[41.583333,39.491667],[41.604167,39.495833],[41.6125,39.516667],[41.629167,39.520833],[41.683333,39.520833],[41.704167,39.495833],[41.745833,39.5],[41.7625,39.5125],[41.85,39.504167],[41.858333,39.541667],[41.883333,39.5375],[41.958333,39.575],[42.020833,39.566667],[42.033333,39.583333],[42.05,39.579167],[42.095833,39.5875],[42.104167,39.608333],[42.133333,39.608333],[42.133333,39.654167],[42.145833,39.654167],[42.1625,39.670833],[42.208333,39.670833],[42.225,39.6875],[42.2375,39.6875],[42.2375,39.733333],[42.220833,39.754167],[42.170833,39.754167],[42.15,39.745833],[42.15,39.766667],[42.141667,39.779167],[42.1,39.7875],[42.1,39.820833],[42.116667,39.825],[42.120833,39.833333],[42.145833,39.8375],[42.166667,39.829167],[42.220833,39.841667],[42.225,39.854167],[42.2875,39.85],[42.291667,39.858333],[42.304167,39.854167],[42.329167,39.866667],[42.375,39.8625],[42.395833,39.866667],[42.395833,39.875],[42.4125,39.8875],[42.466667,39.883333],[42.470833,39.866667],[42.508333,39.866667],[42.5125,39.9125],[42.541667,39.904167],[42.566667,39.920833],[42.6375,39.916667],[42.641667,39.933333],[42.654167,39.933333],[42.666667,39.95],[42.679167,39.941667],[42.745833,39.9375],[42.7625,39.954167],[42.85,39.95],[42.8625,39.975],[42.895833,39.983333],[42.95,39.983333],[42.966667,39.975],[42.983333,39.995833],[43.020833,40.008333],[43.120833,40.008333],[43.1375,40.016667],[43.15,40.0125],[43.145833,39.9875],[43.170833,39.983333],[43.2,39.983333],[43.208333,39.991667],[43.270833,39.983333],[43.325,39.9875],[43.325,39.979167],[43.3625,39.9625],[43.379167,39.941667],[43.404167,39.929167],[43.4125,39.908333],[43.425,39.904167],[43.425,39.895833],[43.4125,39.8875],[43.420833,39.85],[43.4125,39.85],[43.4125,39.816667],[43.441667,39.808333],[43.454167,39.795833],[43.454167,39.779167],[43.5,39.779167],[43.495833,39.745833],[43.508333,39.725],[43.5375,39.708333],[43.566667,39.708333],[43.579167,39.695833],[43.641667,39.704167],[43.6625,39.695833],[43.666667,39.670833],[43.683333,39.658333],[43.679167,39.629167],[43.691667,39.620833],[43.691667,39.570833],[43.7375,39.558333],[43.745833,39.529167],[43.7625,39.516667],[43.758333,39.475],[43.791667,39.445833],[43.795833,39.379167],[43.804167,39.379167],[43.829167,39.354167],[43.908333,39.358333],[43.925,39.366667],[43.941667,39.35],[43.954167,39.35],[43.966667,39.3625],[44.004167,39.354167],[44.016667,39.358333],[44.016667,39.375],[44.029167,39.375],[44.041667,39.3625],[44.0375,39.35],[44.075,39.3375],[44.079167,39.295833],[44.104167,39.283333],[44.091667,39.275],[44.091667,39.25],[44.104167,39.241667],[44.1,39.204167],[44.129167,39.183333],[44.145833,39.1875],[44.15,39.179167],[44.166667,39.179167],[44.166667,39.170833],[44.183333,39.166667],[44.2,39.1375],[44.216667,39.133333],[44.220833,39.091667],[44.195833,39.0875],[44.191667,39.070833],[44.195833,39.058333],[44.204167,39.058333],[44.2,39.033333],[44.216667,39.025],[44.2125,39.008333],[44.1875,39.008333],[44.1875,38.966667],[44.2,38.95],[44.195833,38.933333],[44.220833,38.916667],[44.2125,38.8875],[44.229167,38.883333],[44.245833,38.866667],[44.241667,38.854167],[44.258333,38.845833],[44.283333,38.858333],[44.283333,38.85],[44.3,38.841667],[44.3,38.825],[44.308333,38.825],[44.316667,38.804167],[44.304167,38.804167],[44.291667,38.7875],[44.279167,38.729167],[44.2625,38.716667],[44.275,38.679167],[44.283333,38.679167],[44.283333,38.658333],[44.270833,38.65],[44.270833,38.633333],[44.245833,38.625],[44.241667,38.616667],[44.208333,38.616667],[44.204167,38.608333],[44.179167,38.604167],[44.145833,38.604167],[44.125,38.620833],[44.1,38.625],[44.095833,38.604167],[44.0875,38.6],[44.0875,38.575],[44.075,38.5625],[44.075,38.545833],[44.045833,38.55],[44.025,38.525],[43.983333,38.516667],[43.983333,38.483333],[43.970833,38.483333],[43.9625,38.4625],[43.9875,38.458333],[43.995833,38.445833],[44.004167,38.445833],[44.008333,38.429167],[44.016667,38.429167],[44.0125,38.404167],[44.016667,38.391667],[44.029167,38.3875],[44.025,38.379167],[44.045833,38.375],[44.05,38.3625],[44.075,38.358333],[44.079167,38.35],[44.158333,38.345833],[44.170833,38.329167],[44.208333,38.333333],[44.225,38.320833],[44.25,38.333333],[44.283333,38.333333],[44.2875,38.341667],[44.304167,38.341667],[44.304167,38.354167],[44.329167,38.3625],[44.329167,38.370833],[44.354167,38.375],[44.366667,38.375],[44.370833,38.3625],[44.3875,38.358333],[44.45,38.383333],[44.466667,38.358333],[44.520833,38.354167],[44.525,38.3625],[44.545833,38.3625],[44.55,38.370833],[44.6125,38.366667],[44.616667,38.375],[44.6375,38.375],[44.645833,38.366667],[44.670833,38.375],[44.720833,38.375],[44.733333,38.358333],[44.758333,38.3625],[44.770833,38.3375],[44.8,38.325],[44.820833,38.304167],[44.845833,38.329167],[44.891667,38.329167],[44.895833,38.341667],[44.9125,38.345833],[44.954167,38.341667],[44.954167,38.3125],[44.9625,38.308333],[45.025,38.308333],[45.058333,38.325],[45.0875,38.325],[45.091667,38.35],[45.120833,38.370833],[45.175,38.375],[45.175,38.383333],[45.204167,38.395833],[45.295833,38.404167],[45.308333,38.395833],[45.3375,38.395833],[45.345833,38.408333],[45.3625,38.408333],[45.404167,38.3875],[45.433333,38.391667],[45.441667,38.375],[45.466667,38.379167],[45.516667,38.3625],[45.533333,38.341667],[45.533333,38.308333],[45.55,38.304167],[45.591667,38.304167],[45.6,38.316667],[45.629167,38.329167],[45.6625,38.3125],[45.679167,38.3125],[45.679167,38.320833],[45.7,38.325],[45.725,38.308333],[45.779167,38.308333],[45.8,38.325],[45.804167,38.3625],[45.841667,38.358333],[45.858333,38.370833],[45.945833,38.379167],[45.983333,38.370833],[46.004167,38.379167],[46.0125,38.391667],[46.041667,38.383333],[46.041667,38.416667],[46.066667,38.4375],[46.0625,38.454167],[46.083333,38.4625],[46.095833,38.479167],[46.158333,38.466667],[46.170833,38.454167],[46.191667,38.45],[46.2375,38.458333],[46.2375,38.470833],[46.270833,38.466667],[46.279167,38.479167],[46.295833,38.479167],[46.295833,38.470833],[46.308333,38.466667],[46.3375,38.466667],[46.3375,38.483333],[46.366667,38.475],[46.425,38.479167],[46.458333,38.4625],[46.470833,38.466667],[46.5,38.441667],[46.541667,38.433333],[46.554167,38.4],[46.591667,38.404167],[46.608333,38.429167],[46.6375,38.45],[46.675,38.441667],[46.725,38.445833],[46.733333,38.4625],[46.754167,38.4625],[46.745833,38.454167],[46.741667,38.408333],[46.791667,38.395833],[46.791667,38.370833],[46.808333,38.3625],[46.825,38.3625],[46.829167,38.375],[46.854167,38.366667],[46.891667,38.379167],[46.958333,38.370833],[46.975,38.354167],[47.029167,38.35],[47.05,38.333333],[47.179167,38.341667],[47.1875,38.333333],[47.208333,38.333333],[47.2125,38.320833],[47.229167,38.320833],[47.241667,38.304167],[47.320833,38.308333],[47.3375,38.279167],[47.370833,38.270833],[47.370833,38.258333],[47.383333,38.258333],[47.3875,38.25],[47.4,38.25],[47.4,38.241667],[47.425,38.233333],[47.504167,38.25],[47.520833,38.241667],[47.525,38.220833],[47.55,38.225],[47.554167,38.216667],[47.575,38.216667],[47.620833,38.225],[47.620833,38.233333],[47.683333,38.233333],[47.691667,38.220833],[47.704167,38.220833],[47.708333,38.2],[47.7375,38.2],[47.745833,38.2125],[47.779167,38.204167],[47.783333,38.175],[47.775,38.166667],[47.775,38.15],[47.779167,38.141667],[47.804167,38.133333],[47.820833,38.104167],[47.8375,38.095833],[47.866667,38.020833],[47.829167,37.9875],[47.829167,37.970833],[47.808333,37.9625],[47.808333,37.95],[47.8,37.95],[47.8,37.925],[47.8125,37.925],[47.820833,37.908333],[47.841667,37.9],[47.85,37.8875],[47.883333,37.8875],[47.9,37.8625],[47.970833,37.870833],[47.983333,37.875],[47.9875,37.8875],[48.004167,37.891667],[48.008333,37.883333],[48.041667,37.870833],[48.041667,37.854167],[48.058333,37.841667],[48.075,37.845833],[48.079167,37.854167],[48.1,37.85],[48.104167,37.825],[48.1375,37.825],[48.145833,37.8125],[48.170833,37.804167],[48.179167,37.779167],[48.195833,37.779167],[48.2125,37.804167],[48.225,37.808333],[48.241667,37.858333],[48.266667,37.858333],[48.270833,37.870833],[48.308333,37.879167],[48.316667,37.895833],[48.3375,37.8875],[48.341667,37.895833],[48.379167,37.895833],[48.4,37.9125],[48.4375,37.908333],[48.4625,37.920833],[48.4875,37.916667],[48.491667,37.925],[48.5125,37.925],[48.516667,37.933333],[48.541667,37.933333],[48.5375,37.904167],[48.558333,37.908333],[48.558333,37.858333],[48.570833,37.845833],[48.5625,37.8],[48.591667,37.779167],[48.620833,37.7875],[48.641667,37.779167],[48.629167,37.7125],[48.591667,37.704167],[48.5875,37.683333],[48.604167,37.666667],[48.604167,37.641667],[48.6125,37.641667],[48.6125,37.625],[48.654167,37.6125],[48.675,37.591667],[48.679167,37.570833],[48.670833,37.558333],[48.6875,37.533333],[48.6875,37.504167],[48.745833,37.4375],[48.775,37.420833],[48.779167,37.404167],[48.8125,37.3875],[48.816667,37.366667],[48.808333,37.3625],[48.808333,37.35],[48.816667,37.3375],[48.833333,37.329167],[48.845833,37.308333],[48.875,37.295833],[48.866667,37.266667],[48.8875,37.245833],[48.895833,37.2125],[48.925,37.1875],[48.925,37.175],[48.908333,37.1625],[48.908333,37.15],[48.941667,37.133333],[48.945833,37.120833],[48.9875,37.108333],[49.008333,37.075],[49.033333,37.075],[49.054167,37.0625],[49.058333,37.05],[49.0875,37.05],[49.091667,37.041667],[49.108333,37.0375],[49.108333,37.020833],[49.116667,37.020833],[49.116667,37.0125],[49.133333,37.0],[49.133333,36.966667],[49.170833,36.954167],[49.175,36.920833],[49.220833,36.9125],[49.2375,36.895833],[49.266667,36.895833],[49.270833,36.904167],[49.291667,36.904167],[49.3,36.9125],[49.358333,36.9125],[49.383333,36.929167],[49.391667,36.920833],[49.4125,36.920833],[49.416667,36.929167],[49.433333,36.933333],[49.4375,36.925],[49.45,36.925],[49.45,36.908333],[49.458333,36.904167],[49.508333,36.9],[49.516667,36.879167],[49.525,36.879167],[49.516667,36.845833],[49.5375,36.825],[49.554167,36.820833],[49.545833,36.779167],[49.554167,36.766667],[49.533333,36.75],[49.566667,36.729167],[49.6375,36.720833],[49.6375,36.729167],[49.65,36.7375],[49.6875,36.7125],[49.7125,36.716667],[49.720833,36.733333],[49.7375,36.7375],[49.770833,36.7375],[49.783333,36.745833],[49.833333,36.741667],[49.85,36.766667],[49.866667,36.766667],[49.875,36.783333],[49.891667,36.783333],[49.891667,36.7625],[49.908333,36.75],[49.9375,36.766667],[49.979167,36.7625],[49.979167,36.725],[50.0375,36.716667],[50.033333,36.683333],[50.0875,36.683333],[50.120833,36.670833],[50.15,36.670833],[50.158333,36.679167],[50.216667,36.679167],[50.25,36.666667],[50.25,36.675],[50.270833,36.683333],[50.283333,36.670833],[50.316667,36.6625],[50.329167,36.641667],[50.354167,36.629167],[50.354167,36.6],[50.404167,36.591667],[50.408333,36.579167],[50.429167,36.575],[50.433333,36.566667],[50.458333,36.5625],[50.479167,36.570833],[50.491667,36.554167],[50.570833,36.541667],[50.579167,36.529167],[50.595833,36.525],[50.641667,36.525],[50.654167,36.5125],[50.675,36.520833],[50.695833,36.516667],[50.7,36.508333],[50.691667,36.495833],[50.7,36.475],[50.729167,36.4625],[50.729167,36.441667],[50.745833,36.4375],[50.75,36.429167],[50.775,36.4375],[50.775,36.429167],[50.804167,36.4125],[50.8125,36.395833],[50.841667,36.391667],[50.841667,36.383333],[50.870833,36.375],[50.883333,36.345833],[50.9,36.345833],[50.925,36.329167],[50.941667,36.329167],[50.954167,36.341667],[50.9875,36.3375],[51.004167,36.35],[51.05,36.3625],[51.0625,36.375],[51.091667,36.370833],[51.1,36.383333],[51.179167,36.375],[51.1875,36.3875],[51.216667,36.3875],[51.245833,36.4125],[51.245833,36.420833],[51.283333,36.445833],[51.329167,36.441667],[51.3375,36.433333],[51.3375,36.395833],[51.345833,36.3875],[51.3625,36.395833],[51.370833,36.4125],[51.404167,36.420833],[51.433333,36.441667],[51.454167,36.404167],[51.429167,36.375],[51.429167,36.3625],[51.445833,36.341667],[51.445833,36.3125],[51.454167,36.295833],[51.475,36.2875],[51.479167,36.2625],[51.4875,36.258333],[51.533333,36.2625],[51.55,36.254167],[51.6375,36.254167],[51.65,36.241667],[51.695833,36.241667],[51.695833,36.233333],[51.729167,36.225],[51.741667,36.229167],[51.7625,36.258333],[51.8,36.245833],[51.8125,36.254167],[51.833333,36.25],[51.841667,36.275],[51.866667,36.279167],[51.9125,36.258333],[51.966667,36.254167],[52.004167,36.270833],[52.029167,36.2625],[52.033333,36.25],[52.05,36.25],[52.054167,36.241667],[52.070833,36.2375],[52.1125,36.254167],[52.158333,36.245833],[52.204167,36.25],[52.229167,36.220833],[52.270833,36.220833],[52.3,36.233333],[52.341667,36.225],[52.3625,36.245833],[52.4125,36.25],[52.458333,36.220833],[52.483333,36.216667],[52.491667,36.204167],[52.520833,36.2],[52.520833,36.1625],[52.529167,36.15],[52.516667,36.120833],[52.516667,36.079167],[52.5375,36.0625],[52.554167,36.0625],[52.554167,36.054167],[52.579167,36.054167],[52.591667,36.0375],[52.5875,36.020833],[52.608333,36.016667],[52.6125,36.004167],[52.641667,36.008333],[52.641667,36.020833],[52.666667,36.0375],[52.695833,36.0375],[52.695833,36.05],[52.704167,36.05],[52.7125,36.0625],[52.783333,36.079167],[52.7875,36.091667],[52.8125,36.1],[52.820833,36.1125],[52.85,36.108333],[52.8625,36.116667],[52.891667,36.116667],[52.895833,36.1375],[52.916667,36.141667],[52.916667,36.154167],[52.904167,36.1625],[52.908333,36.179167],[52.9,36.1875],[52.9,36.204167],[52.879167,36.204167],[52.870833,36.2125],[52.875,36.233333],[52.845833,36.25],[52.841667,36.266667],[52.858333,36.275],[52.8625,36.3],[52.875,36.295833],[52.895833,36.3125],[52.920833,36.3125],[52.933333,36.3],[52.966667,36.3],[52.983333,36.316667],[52.995833,36.316667],[53.041667,36.308333],[53.058333,36.295833],[53.070833,36.308333],[53.066667,36.333333],[53.083333,36.35],[53.075,36.375],[53.0875,36.3875],[53.0875,36.408333],[53.1125,36.416667],[53.125,36.4375],[53.145833,36.445833],[53.141667,36.4625],[53.158333,36.483333],[53.191667,36.475],[53.2625,36.475],[53.295833,36.4875],[53.325,36.479167],[53.341667,36.483333],[53.329167,36.5125],[53.333333,36.529167],[53.308333,36.55],[53.279167,36.554167],[53.266667,36.570833],[53.241667,36.583333],[53.2375,36.6],[53.216667,36.608333],[53.220833,36.658333],[53.2125,36.679167],[53.1875,36.6875],[53.183333,36.708333],[53.170833,36.708333],[53.166667,36.720833],[53.15,36.725],[53.141667,36.745833],[53.141667,36.783333],[53.1625,36.795833],[53.170833,36.816667],[53.166667,36.825],[53.104167,36.816667],[53.05,36.795833],[52.85,36.745833],[52.679167,36.716667],[52.65,36.720833],[52.645833,36.7125],[52.583333,36.7],[52.554167,36.704167],[52.55,36.695833],[52.433333,36.683333],[52.425,36.675],[52.279167,36.645833],[52.120833,36.6],[51.975,36.575],[51.854167,36.575],[51.820833,36.5875],[51.6625,36.6],[51.604167,36.616667],[51.579167,36.6375],[51.520833,36.65],[51.5125,36.666667],[51.470833,36.666667],[51.4375,36.6875],[51.304167,36.695833],[51.079167,36.7375],[50.9375,36.7875],[50.883333,36.825],[50.783333,36.866667],[50.775,36.879167],[50.6875,36.908333],[50.658333,36.945833],[50.6125,36.958333],[50.5625,36.991667],[50.491667,37.016667],[50.45,37.058333],[50.391667,37.0875],[50.383333,37.104167],[50.3375,37.120833],[50.2875,37.175],[50.279167,37.2125],[50.270833,37.216667],[50.225,37.3125],[50.225,37.354167],[50.208333,37.3625],[50.204167,37.383333],[50.166667,37.395833],[50.041667,37.408333],[49.995833,37.420833],[49.966667,37.4375],[49.966667,37.445833],[49.945833,37.475],[49.904167,37.475],[49.858333,37.445833],[49.816667,37.445833],[49.558333,37.466667],[49.425,37.4875],[49.241667,37.55],[49.2375,37.558333],[49.133333,37.6125],[49.0875,37.654167],[49.079167,37.654167],[49.0,37.7375],[49.0,37.7625],[48.979167,37.7875],[48.983333,37.8375],[48.954167,37.8625],[48.933333,37.9],[48.941667,37.970833],[48.933333,37.975],[48.920833,38.008333],[48.920833,38.058333],[48.9125,38.070833],[48.916667,38.158333],[48.895833,38.204167],[48.895833,38.241667],[48.883333,38.270833],[48.883333,38.316667],[48.875,38.333333],[48.875,38.379167],[48.883333,38.404167],[48.883333,38.520833],[48.875,38.55],[48.879167,38.65],[48.870833,38.758333],[48.85,38.770833],[48.85,38.783333],[48.841667,38.7875],[48.829167,38.816667],[48.829167,38.85],[48.833333,38.8625],[48.866667,38.8625],[48.904167,38.891667],[48.920833,38.929167],[48.929167,38.933333],[48.933333,38.9625],[48.941667,38.9625],[48.954167,38.979167],[48.954167,38.9875],[48.945833,38.9875],[48.941667,39.041667],[48.929167,39.058333],[48.933333,39.070833],[48.941667,39.070833],[48.933333,39.1125],[48.958333,39.15],[48.954167,39.1625],[48.983333,39.170833],[48.991667,39.183333],[49.029167,39.191667],[49.029167,39.208333],[49.041667,39.208333],[49.041667,39.195833],[49.054167,39.2],[49.05,39.183333],[49.0875,39.1875],[49.079167,39.179167],[49.079167,39.154167],[49.1,39.145833],[49.1,39.133333],[49.170833,39.129167],[49.179167,39.141667],[49.170833,39.154167],[49.1875,39.1625],[49.179167,39.175],[49.1875,39.175],[49.191667,39.1875],[49.208333,39.166667],[49.208333,39.1375],[49.195833,39.125],[49.195833,39.116667],[49.204167,39.116667],[49.208333,39.129167],[49.225,39.133333],[49.233333,39.166667],[49.245833,39.329167],[49.25,39.341667],[49.270833,39.354167],[49.308333,39.354167],[49.333333,39.341667],[49.341667,39.329167],[49.341667,39.308333],[49.370833,39.304167],[49.375,39.295833],[49.3875,39.3],[49.3875,39.291667],[49.404167,39.295833],[49.4125,39.283333],[49.4375,39.275],[49.4375,39.2875],[49.4125,39.304167],[49.3875,39.341667],[49.3875,39.3625],[49.404167,39.375],[49.404167,39.383333],[49.383333,39.3875],[49.375,39.404167],[49.3625,39.404167],[49.35,39.420833],[49.3375,39.420833],[49.325,39.441667],[49.295833,39.4625],[49.275,39.508333],[49.291667,39.558333],[49.308333,39.579167],[49.329167,39.645833],[49.354167,39.6625],[49.3625,39.679167],[49.425,39.7],[49.4,39.733333],[49.395833,39.7625],[49.3875,39.770833],[49.3875,39.795833],[49.404167,39.820833]],[[49.3375,39.420833],[49.3375,39.391667],[49.3125,39.4125],[49.3125,39.420833],[49.3375,39.420833]],[[49.170833,39.1375],[49.166667,39.1375],[49.166667,39.141667],[49.170833,39.1375]],[[49.054167,39.2],[49.054167,39.220833],[49.0875,39.216667],[49.070833,39.229167],[49.095833,39.2375],[49.1375,39.233333],[49.116667,39.216667],[49.116667,39.233333],[49.108333,39.233333],[49.104167,39.208333],[49.0875,39.195833],[49.054167,39.2]],[[49.041667,39.208333],[49.041667,39.2125],[49.045833,39.2125],[49.041667,39.208333]],[[49.9625,37.445833],[49.9625,37.441667],[49.958333,37.441667],[49.9625,37.445833]],[[49.1875,39.195833],[49.1875,39.191667],[49.183333,39.191667],[49.1875,39.195833]],[[48.833333,38.870833],[48.825,38.891667],[48.845833,38.929167],[48.85,38.958333],[48.875,38.9875],[48.891667,38.983333],[48.904167,38.991667],[48.9125,38.945833],[48.8875,38.916667],[48.85,38.9125],[48.854167,38.904167],[48.875,38.904167],[48.879167,38.895833],[48.833333,38.870833]],[[48.825,38.879167],[48.825,38.875],[48.820833,38.875],[48.825,38.879167]]],[[[49.433333,39.820833],[49.45,39.808333],[49.441667,39.833333],[49.429167,39.8375],[49.429167,39.85],[49.420833,39.85],[49.425,39.829167],[49.433333,39.829167],[49.433333,39.820833]]],[[[49.708333,39.616667],[49.716667,39.616667],[49.716667,39.625],[49.708333,39.625],[49.708333,39.616667]]],[[[49.433333,39.6375],[49.441667,39.6375],[49.441667,39.645833],[49.433333,39.645833],[49.433333,39.6375]]],[[[49.5875,39.7625],[49.575,39.7625],[49.575,39.754167],[49.5875,39.75],[49.5875,39.7625]]],[[[49.458333,39.8],[49.470833,39.795833],[49.475,39.808333],[49.458333,39.8]]],[[[49.5375,39.829167],[49.5375,39.841667],[49.525,39.8375],[49.525,39.829167],[49.5375,39.829167]]],[[[49.454167,39.945833],[49.454167,39.9375],[49.491667,39.945833],[49.491667,39.954167],[49.454167,39.945833]]],[[[49.625,39.9875],[49.654167,39.983333],[49.658333,39.995833],[49.65,40.008333],[49.633333,40.008333],[49.633333,39.991667],[49.625,39.9875]]],[[[49.583333,40.05],[49.579167,40.033333],[49.595833,40.0375],[49.583333,40.05]]],[[[49.991667,40.2875],[49.9875,40.295833],[49.979167,40.295833],[49.979167,40.283333],[49.991667,40.2875]]],[[[49.908333,40.304167],[49.9,40.291667],[49.941667,40.291667],[49.941667,40.3],[49.908333,40.304167]]],[[[49.9875,40.316667],[49.9875,40.308333],[50.029167,40.308333],[50.029167,40.3125],[49.9875,40.316667]]]]}}
