{"type":"Feature","properties":{"mrgid":63775,"name":"Cuvette Centrale","placeType":"Freshwater Ecoregion of the World (FEOW)","source":"MarineRegions:tnc_wwf_feow_hydrosheds"},"geometry":{"type":"MultiPolygon","coordinates":[[[[23.520833,-3.045833],[23.516667,-3.045833],[23.516667,-3.05],[23.520833,-3.045833]]],[[[22.225,-2.966667],[22.225,-2.9625],[22.220833,-2.9625],[22.225,-2.966667]]],[[[23.520833,-3.058333],[23.5375,-3.079167],[23.566667,-3.095833],[23.575,-3.1125],[23.629167,-3.091667],[23.629167,-3.104167],[23.641667,-3.104167],[23.641667,-3.116667],[23.695833,-3.125],[23.720833,-3.1625],[23.745833,-3.154167],[23.75,-3.166667],[23.766667,-3.170833],[23.770833,-3.179167],[23.820833,-3.195833],[23.820833,-3.208333],[23.804167,-3.220833],[23.804167,-3.2375],[23.825,-3.2375],[23.825,-3.25],[23.85,-3.258333],[23.85,-3.279167],[23.833333,-3.279167],[23.833333,-3.291667],[23.820833,-3.3],[23.820833,-3.316667],[23.8125,-3.325],[23.820833,-3.3375],[23.820833,-3.3625],[23.829167,-3.366667],[23.829167,-3.3875],[23.858333,-3.379167],[23.875,-3.391667],[23.9,-3.3875],[23.9,-3.379167],[23.9125,-3.383333],[23.916667,-3.375],[23.958333,-3.375],[23.958333,-3.3625],[23.970833,-3.358333],[23.9625,-3.345833],[23.9625,-3.325],[23.970833,-3.3125],[23.9625,-3.308333],[23.9625,-3.291667],[23.975,-3.283333],[23.983333,-3.254167],[24.004167,-3.25],[24.008333,-3.258333],[24.033333,-3.254167],[24.05,-3.2625],[24.058333,-3.25],[24.054167,-3.233333],[24.079167,-3.233333],[24.079167,-3.225],[24.104167,-3.229167],[24.104167,-3.220833],[24.120833,-3.216667],[24.120833,-3.208333],[24.145833,-3.208333],[24.145833,-3.2],[24.154167,-3.2],[24.179167,-3.175],[24.166667,-3.158333],[24.15,-3.1625],[24.15,-3.15],[24.079167,-3.145833],[24.058333,-3.120833],[24.0125,-3.1125],[24.0,-3.075],[24.0125,-3.070833],[24.025,-3.033333],[24.079167,-3.029167],[24.083333,-3.016667],[24.091667,-3.016667],[24.116667,-3.033333],[24.15,-3.025],[24.154167,-3.033333],[24.170833,-3.029167],[24.183333,-3.045833],[24.229167,-3.054167],[24.233333,-3.0625],[24.266667,-3.0625],[24.279167,-3.054167],[24.275,-3.0375],[24.2875,-3.029167],[24.2875,-3.016667],[24.308333,-3.016667],[24.3,-3.0],[24.316667,-2.991667],[24.320833,-2.979167],[24.3375,-2.979167],[24.345833,-2.954167],[24.3375,-2.95],[24.3375,-2.9375],[24.3625,-2.929167],[24.370833,-2.916667],[24.370833,-2.891667],[24.3875,-2.875],[24.395833,-2.879167],[24.4,-2.895833],[24.425,-2.904167],[24.425,-2.9125],[24.441667,-2.908333],[24.441667,-2.916667],[24.454167,-2.920833],[24.470833,-2.904167],[24.483333,-2.929167],[24.5,-2.929167],[24.504167,-2.945833],[24.529167,-2.941667],[24.529167,-2.925],[24.558333,-2.8875],[24.558333,-2.870833],[24.595833,-2.833333],[24.604167,-2.808333],[24.5875,-2.808333],[24.570833,-2.825],[24.525,-2.8375],[24.516667,-2.829167],[24.516667,-2.8125],[24.529167,-2.8],[24.529167,-2.7875],[24.55,-2.775],[24.554167,-2.754167],[24.566667,-2.754167],[24.570833,-2.741667],[24.5875,-2.7375],[24.591667,-2.725],[24.604167,-2.720833],[24.595833,-2.6875],[24.608333,-2.679167],[24.625,-2.683333],[24.6375,-2.670833],[24.6625,-2.670833],[24.683333,-2.645833],[24.683333,-2.633333],[24.675,-2.633333],[24.675,-2.6125],[24.633333,-2.629167],[24.604167,-2.625],[24.604167,-2.608333],[24.591667,-2.591667],[24.558333,-2.579167],[24.566667,-2.541667],[24.575,-2.5375],[24.579167,-2.520833],[24.6,-2.5125],[24.6,-2.466667],[24.6125,-2.466667],[24.616667,-2.458333],[24.6375,-2.4625],[24.645833,-2.458333],[24.65,-2.441667],[24.683333,-2.441667],[24.695833,-2.425],[24.695833,-2.4],[24.675,-2.370833],[24.675,-2.341667],[24.654167,-2.333333],[24.6375,-2.308333],[24.6375,-2.2375],[24.583333,-2.241667],[24.533333,-2.220833],[24.529167,-2.2],[24.491667,-2.204167],[24.4875,-2.195833],[24.5,-2.191667],[24.504167,-2.166667],[24.516667,-2.166667],[24.525,-2.125],[24.5375,-2.120833],[24.558333,-2.095833],[24.575,-2.1],[24.575,-2.091667],[24.5875,-2.0875],[24.591667,-2.0625],[24.579167,-2.045833],[24.55,-2.05],[24.5375,-2.0375],[24.5375,-2.016667],[24.529167,-2.004167],[24.508333,-2.0],[24.504167,-1.979167],[24.495833,-1.979167],[24.491667,-1.966667],[24.458333,-1.9625],[24.441667,-1.95],[24.441667,-1.925],[24.4625,-1.916667],[24.466667,-1.879167],[24.479167,-1.870833],[24.483333,-1.85],[24.470833,-1.845833],[24.466667,-1.825],[24.45,-1.825],[24.45,-1.833333],[24.429167,-1.829167],[24.420833,-1.8375],[24.4125,-1.816667],[24.425,-1.8],[24.433333,-1.8],[24.425,-1.7875],[24.425,-1.7625],[24.45,-1.729167],[24.445833,-1.7],[24.454167,-1.654167],[24.445833,-1.654167],[24.445833,-1.645833],[24.458333,-1.6375],[24.45,-1.625],[24.470833,-1.583333],[24.4625,-1.583333],[24.4625,-1.570833],[24.45,-1.566667],[24.445833,-1.554167],[24.454167,-1.533333],[24.445833,-1.5375],[24.441667,-1.516667],[24.420833,-1.508333],[24.420833,-1.5],[24.391667,-1.475],[24.35,-1.483333],[24.341667,-1.470833],[24.320833,-1.470833],[24.316667,-1.4625],[24.283333,-1.4625],[24.2625,-1.466667],[24.258333,-1.475],[24.220833,-1.475],[24.225,-1.454167],[24.233333,-1.45],[24.233333,-1.429167],[24.225,-1.425],[24.229167,-1.383333],[24.208333,-1.366667],[24.191667,-1.320833],[24.158333,-1.304167],[24.1625,-1.25],[24.15,-1.220833],[24.1625,-1.204167],[24.179167,-1.2],[24.179167,-1.175],[24.1875,-1.166667],[24.179167,-1.154167],[24.170833,-1.154167],[24.170833,-1.145833],[24.183333,-1.145833],[24.1875,-1.1375],[24.1875,-1.1125],[24.166667,-1.108333],[24.1625,-1.0875],[24.145833,-1.0875],[24.145833,-1.079167],[24.1375,-1.079167],[24.1375,-1.0625],[24.145833,-1.058333],[24.145833,-1.05],[24.133333,-1.05],[24.141667,-1.0125],[24.1125,-1.0],[24.104167,-0.970833],[24.091667,-0.970833],[24.083333,-0.991667],[24.070833,-0.991667],[24.066667,-1.0],[24.033333,-0.991667],[24.033333,-1.008333],[24.0125,-1.008333],[24.0125,-1.020833],[23.991667,-1.020833],[23.991667,-1.029167],[23.966667,-1.029167],[23.9625,-1.0375],[23.933333,-1.045833],[23.929167,-1.020833],[23.9125,-1.004167],[23.920833,-0.979167],[23.883333,-0.966667],[23.891667,-0.958333],[23.8875,-0.945833],[23.870833,-0.941667],[23.854167,-0.916667],[23.825,-0.9125],[23.795833,-0.933333],[23.795833,-0.941667],[23.7875,-0.941667],[23.758333,-0.916667],[23.683333,-0.916667],[23.683333,-0.829167],[23.679167,-0.816667],[23.666667,-0.8125],[23.6625,-0.795833],[23.654167,-0.804167],[23.6375,-0.804167],[23.633333,-0.825],[23.583333,-0.8125],[23.579167,-0.829167],[23.5625,-0.8375],[23.554167,-0.8375],[23.554167,-0.829167],[23.533333,-0.829167],[23.541667,-0.808333],[23.508333,-0.7625],[23.516667,-0.754167],[23.5,-0.741667],[23.5,-0.720833],[23.5375,-0.695833],[23.5375,-0.679167],[23.5625,-0.683333],[23.570833,-0.670833],[23.566667,-0.641667],[23.575,-0.6375],[23.575,-0.625],[23.5875,-0.625],[23.5875,-0.6125],[23.608333,-0.604167],[23.6125,-0.620833],[23.633333,-0.616667],[23.658333,-0.633333],[23.675,-0.625],[23.675,-0.583333],[23.691667,-0.583333],[23.6875,-0.558333],[23.695833,-0.554167],[23.679167,-0.504167],[23.708333,-0.491667],[23.7125,-0.466667],[23.695833,-0.45],[23.7125,-0.445833],[23.7125,-0.433333],[23.733333,-0.4125],[23.733333,-0.383333],[23.754167,-0.366667],[23.741667,-0.3],[23.708333,-0.2875],[23.704167,-0.2625],[23.691667,-0.2625],[23.679167,-0.295833],[23.65,-0.3125],[23.633333,-0.308333],[23.595833,-0.3375],[23.583333,-0.333333],[23.575,-0.358333],[23.5625,-0.370833],[23.55,-0.370833],[23.545833,-0.345833],[23.554167,-0.333333],[23.55,-0.3125],[23.558333,-0.308333],[23.558333,-0.245833],[23.55,-0.220833],[23.504167,-0.183333],[23.504167,-0.1625],[23.4875,-0.1375],[23.479167,-0.1],[23.466667,-0.1],[23.4625,-0.091667],[23.433333,-0.108333],[23.404167,-0.091667],[23.416667,-0.045833],[23.408333,-0.041667],[23.404167,-0.025],[23.425,0.016667],[23.4,0.0375],[23.4,0.05],[23.383333,0.05],[23.408333,0.070833],[23.391667,0.079167],[23.379167,0.104167],[23.379167,0.133333],[23.395833,0.145833],[23.3875,0.1625],[23.395833,0.1625],[23.408333,0.179167],[23.429167,0.179167],[23.458333,0.166667],[23.458333,0.145833],[23.520833,0.1375],[23.5375,0.15],[23.570833,0.145833],[23.5625,0.158333],[23.554167,0.225],[23.545833,0.233333],[23.558333,0.258333],[23.55,0.2875],[23.529167,0.295833],[23.520833,0.2875],[23.491667,0.283333],[23.470833,0.308333],[23.483333,0.325],[23.470833,0.358333],[23.479167,0.370833],[23.5,0.366667],[23.504167,0.354167],[23.520833,0.358333],[23.529167,0.35],[23.545833,0.35],[23.55,0.366667],[23.595833,0.375],[23.6125,0.370833],[23.6125,0.383333],[23.620833,0.3875],[23.616667,0.4],[23.595833,0.4125],[23.583333,0.445833],[23.55,0.454167],[23.533333,0.479167],[23.516667,0.483333],[23.516667,0.491667],[23.554167,0.508333],[23.554167,0.520833],[23.575,0.533333],[23.579167,0.525],[23.604167,0.525],[23.604167,0.5375],[23.629167,0.533333],[23.645833,0.541667],[23.675,0.5125],[23.704167,0.5125],[23.720833,0.504167],[23.733333,0.5125],[23.733333,0.495833],[23.766667,0.479167],[23.770833,0.466667],[23.7875,0.479167],[23.8125,0.475],[23.833333,0.5],[23.858333,0.508333],[23.858333,0.516667],[23.875,0.520833],[23.883333,0.533333],[23.9125,0.525],[23.929167,0.529167],[23.929167,0.5375],[23.945833,0.533333],[23.95,0.554167],[23.9875,0.5625],[23.995833,0.554167],[24.0125,0.575],[24.029167,0.575],[24.029167,0.5875],[24.045833,0.591667],[24.045833,0.616667],[24.058333,0.620833],[24.054167,0.6375],[24.075,0.654167],[24.070833,0.6625],[24.091667,0.675],[24.095833,0.6875],[24.125,0.679167],[24.129167,0.691667],[24.145833,0.695833],[24.145833,0.720833],[24.1625,0.7375],[24.158333,0.758333],[24.170833,0.758333],[24.183333,0.779167],[24.183333,0.795833],[24.154167,0.8125],[24.158333,0.825],[24.183333,0.816667],[24.183333,0.829167],[24.191667,0.829167],[24.2,0.8125],[24.220833,0.820833],[24.245833,0.795833],[24.2625,0.795833],[24.275,0.8125],[24.3,0.820833],[24.291667,0.791667],[24.333333,0.808333],[24.3375,0.791667],[24.354167,0.7875],[24.354167,0.779167],[24.375,0.779167],[24.379167,0.795833],[24.366667,0.8125],[24.366667,0.8375],[24.375,0.8375],[24.391667,0.875],[24.383333,0.9],[24.4125,0.925],[24.416667,0.983333],[24.429167,0.983333],[24.433333,0.975],[24.4625,0.979167],[24.466667,0.9625],[24.483333,0.954167],[24.491667,0.933333],[24.533333,0.9375],[24.5375,0.925],[24.566667,0.920833],[24.566667,0.9125],[24.579167,0.908333],[24.579167,0.891667],[24.591667,0.9],[24.620833,0.895833],[24.633333,0.904167],[24.625,0.954167],[24.633333,0.958333],[24.629167,0.9875],[24.641667,1.004167],[24.6375,1.025],[24.679167,1.045833],[24.6875,1.0625],[24.729167,1.054167],[24.741667,1.070833],[24.741667,1.0875],[24.779167,1.0875],[24.7875,1.070833],[24.8,1.066667],[24.816667,1.079167],[24.829167,1.075],[24.833333,1.083333],[24.845833,1.083333],[24.85,1.091667],[24.891667,1.0875],[24.929167,1.066667],[24.929167,1.166667],[24.9375,1.175],[24.929167,1.179167],[24.933333,1.2],[24.916667,1.216667],[24.916667,1.229167],[24.925,1.233333],[24.925,1.2625],[24.916667,1.266667],[24.9125,1.320833],[24.904167,1.325],[24.908333,1.3375],[24.891667,1.358333],[24.891667,1.370833],[24.908333,1.370833],[24.929167,1.35],[24.941667,1.308333],[24.941667,1.275],[24.970833,1.258333],[24.983333,1.233333],[24.979167,1.2125],[24.9875,1.195833],[24.995833,1.195833],[25.016667,1.145833],[25.029167,1.145833],[25.033333,1.1375],[25.0625,1.158333],[25.1,1.158333],[25.108333,1.1875],[25.133333,1.195833],[25.133333,1.204167],[25.183333,1.195833],[25.2,1.204167],[25.204167,1.1875],[25.216667,1.183333],[25.220833,1.170833],[25.254167,1.1875],[25.275,1.183333],[25.2875,1.2],[25.308333,1.208333],[25.316667,1.245833],[25.341667,1.258333],[25.354167,1.3],[25.3625,1.3],[25.370833,1.325],[25.416667,1.3375],[25.420833,1.329167],[25.4375,1.325],[25.441667,1.345833],[25.4625,1.358333],[25.4625,1.375],[25.475,1.379167],[25.504167,1.370833],[25.508333,1.379167],[25.525,1.379167],[25.525,1.391667],[25.5375,1.4],[25.554167,1.4],[25.5625,1.379167],[25.591667,1.366667],[25.604167,1.4],[25.65,1.383333],[25.658333,1.404167],[25.683333,1.404167],[25.691667,1.4125],[25.704167,1.404167],[25.704167,1.391667],[25.720833,1.391667],[25.725,1.375],[25.75,1.379167],[25.758333,1.366667],[25.7625,1.383333],[25.7875,1.383333],[25.783333,1.35],[25.8125,1.3375],[25.820833,1.325],[25.833333,1.325],[25.841667,1.333333],[25.829167,1.3625],[25.829167,1.391667],[25.841667,1.4],[25.8375,1.420833],[25.870833,1.433333],[25.866667,1.458333],[25.854167,1.4625],[25.854167,1.470833],[25.8875,1.495833],[25.883333,1.520833],[25.904167,1.545833],[25.945833,1.533333],[25.966667,1.5125],[25.9875,1.508333],[25.995833,1.495833],[26.008333,1.5],[26.008333,1.4875],[26.025,1.475],[26.029167,1.458333],[26.045833,1.458333],[26.045833,1.45],[26.066667,1.441667],[26.0625,1.416667],[26.079167,1.379167],[26.120833,1.383333],[26.120833,1.391667],[26.15,1.395833],[26.154167,1.408333],[26.175,1.408333],[26.195833,1.4],[26.195833,1.391667],[26.208333,1.391667],[26.208333,1.4125],[26.233333,1.420833],[26.279167,1.416667],[26.279167,1.408333],[26.3,1.404167],[26.316667,1.425],[26.333333,1.425],[26.341667,1.416667],[26.358333,1.45],[26.358333,1.470833],[26.391667,1.479167],[26.391667,1.5],[26.4125,1.495833],[26.425,1.516667],[26.4625,1.533333],[26.475,1.529167],[26.495833,1.5],[26.5125,1.495833],[26.533333,1.4625],[26.5625,1.454167],[26.579167,1.425],[26.591667,1.420833],[26.591667,1.391667],[26.583333,1.383333],[26.5875,1.3625],[26.6125,1.366667],[26.620833,1.345833],[26.633333,1.358333],[26.645833,1.3375],[26.658333,1.3375],[26.658333,1.345833],[26.7,1.345833],[26.704167,1.333333],[26.729167,1.320833],[26.75,1.320833],[26.754167,1.308333],[26.775,1.316667],[26.775,1.333333],[26.804167,1.3375],[26.804167,1.329167],[26.8125,1.329167],[26.816667,1.3375],[26.833333,1.341667],[26.8375,1.3875],[26.8625,1.3875],[26.9,1.370833],[26.9375,1.379167],[26.945833,1.366667],[26.970833,1.354167],[26.970833,1.345833],[27.016667,1.3375],[27.033333,1.325],[27.033333,1.316667],[27.058333,1.320833],[27.066667,1.3],[27.091667,1.308333],[27.108333,1.283333],[27.154167,1.295833],[27.154167,1.2875],[27.166667,1.2875],[27.166667,1.275],[27.183333,1.270833],[27.1875,1.258333],[27.208333,1.258333],[27.2125,1.295833],[27.204167,1.316667],[27.204167,1.391667],[27.2125,1.391667],[27.220833,1.408333],[27.241667,1.404167],[27.254167,1.425],[27.279167,1.433333],[27.295833,1.429167],[27.3,1.416667],[27.325,1.416667],[27.325,1.408333],[27.341667,1.4],[27.366667,1.404167],[27.3625,1.375],[27.4,1.370833],[27.4,1.3625],[27.4125,1.3625],[27.429167,1.3375],[27.4875,1.325],[27.4875,1.295833],[27.504167,1.295833],[27.5125,1.283333],[27.533333,1.275],[27.545833,1.245833],[27.558333,1.241667],[27.558333,1.229167],[27.566667,1.225],[27.604167,1.233333],[27.616667,1.220833],[27.654167,1.2125],[27.658333,1.225],[27.6875,1.233333],[27.695833,1.220833],[27.7375,1.216667],[27.725,1.204167],[27.729167,1.1875],[27.766667,1.179167],[27.775,1.133333],[27.8,1.133333],[27.8125,1.1],[27.825,1.1],[27.829167,1.1125],[27.841667,1.108333],[27.845833,1.083333],[27.870833,1.0875],[27.879167,1.070833],[27.920833,1.041667],[27.920833,1.020833],[27.9375,1.004167],[27.941667,0.979167],[27.954167,0.970833],[27.958333,0.945833],[27.979167,0.941667],[27.991667,0.916667],[27.983333,0.883333],[27.970833,0.879167],[27.970833,0.870833],[27.958333,0.870833],[27.95,0.854167],[27.966667,0.8375],[27.966667,0.816667],[27.975,0.816667],[27.975,0.808333],[27.958333,0.8125],[27.954167,0.779167],[27.945833,0.770833],[27.970833,0.754167],[27.970833,0.733333],[27.995833,0.729167],[28.0,0.741667],[28.0125,0.745833],[28.0375,0.729167],[28.05,0.733333],[28.0625,0.725],[28.066667,0.691667],[28.075,0.691667],[28.0875,0.670833],[28.116667,0.675],[28.120833,0.6625],[28.133333,0.666667],[28.133333,0.645833],[28.116667,0.641667],[28.125,0.633333],[28.125,0.5875],[28.1375,0.5875],[28.15,0.570833],[28.158333,0.579167],[28.1875,0.579167],[28.195833,0.5375],[28.179167,0.5],[28.1875,0.5],[28.1875,0.475],[28.195833,0.4625],[28.208333,0.458333],[28.208333,0.4375],[28.233333,0.420833],[28.233333,0.3875],[28.25,0.383333],[28.2625,0.366667],[28.258333,0.35],[28.291667,0.341667],[28.295833,0.354167],[28.345833,0.375],[28.345833,0.383333],[28.3625,0.379167],[28.375,0.3875],[28.379167,0.404167],[28.425,0.4125],[28.445833,0.445833],[28.466667,0.454167],[28.466667,0.433333],[28.479167,0.416667],[28.491667,0.416667],[28.5,0.429167],[28.495833,0.4],[28.475,0.395833],[28.475,0.379167],[28.4875,0.370833],[28.525,0.370833],[28.5375,0.358333],[28.5375,0.333333],[28.5625,0.316667],[28.5625,0.304167],[28.5875,0.291667],[28.5875,0.279167],[28.6125,0.283333],[28.6,0.233333],[28.608333,0.233333],[28.608333,0.220833],[28.620833,0.220833],[28.625,0.195833],[28.670833,0.191667],[28.675,0.204167],[28.6875,0.204167],[28.691667,0.220833],[28.7125,0.220833],[28.720833,0.2375],[28.741667,0.2375],[28.75,0.245833],[28.779167,0.241667],[28.779167,0.216667],[28.808333,0.220833],[28.816667,0.2125],[28.816667,0.191667],[28.829167,0.1875],[28.808333,0.170833],[28.808333,0.145833],[28.816667,0.145833],[28.808333,0.116667],[28.8125,0.1],[28.845833,0.095833],[28.85,0.0875],[28.841667,0.075],[28.854167,0.075],[28.854167,0.066667],[28.866667,0.066667],[28.883333,0.05],[28.904167,0.05],[28.9,0.016667],[28.9375,0.0125],[28.9375,-0.029167],[28.9875,-0.029167],[28.9875,-0.045833],[28.995833,-0.045833],[28.995833,-0.054167],[29.0375,-0.054167],[29.05,-0.0375],[29.066667,-0.033333],[29.083333,-0.095833],[29.1,-0.091667],[29.116667,-0.058333],[29.116667,-0.070833],[29.141667,-0.0875],[29.154167,-0.0875],[29.158333,-0.095833],[29.191667,-0.0875],[29.220833,-0.1],[29.233333,-0.095833],[29.2375,-0.1125],[29.254167,-0.1],[29.304167,-0.1],[29.3125,-0.108333],[29.320833,-0.104167],[29.329167,-0.070833],[29.320833,-0.054167],[29.325,-0.029167],[29.3375,-0.029167],[29.3375,-0.020833],[29.35,-0.0125],[29.3375,0.033333],[29.358333,0.033333],[29.366667,0.0625],[29.354167,0.070833],[29.354167,0.079167],[29.383333,0.0875],[29.370833,0.120833],[29.383333,0.1375],[29.404167,0.145833],[29.408333,0.158333],[29.4,0.2],[29.3875,0.2],[29.383333,0.254167],[29.404167,0.266667],[29.420833,0.295833],[29.416667,0.3125],[29.433333,0.329167],[29.416667,0.333333],[29.416667,0.35],[29.441667,0.383333],[29.4625,0.3875],[29.466667,0.425],[29.475,0.441667],[29.483333,0.441667],[29.483333,0.4625],[29.5,0.470833],[29.504167,0.4875],[29.4875,0.5125],[29.495833,0.533333],[29.479167,0.55],[29.479167,0.579167],[29.491667,0.591667],[29.483333,0.620833],[29.5,0.654167],[29.495833,0.675],[29.516667,0.683333],[29.5125,0.695833],[29.5375,0.704167],[29.533333,0.7125],[29.545833,0.720833],[29.545833,0.729167],[29.558333,0.729167],[29.566667,0.770833],[29.583333,0.783333],[29.6,0.783333],[29.608333,0.858333],[29.6375,0.8625],[29.65,0.9125],[29.679167,0.9375],[29.679167,0.945833],[29.691667,0.95],[29.695833,0.9625],[29.704167,0.9625],[29.708333,0.975],[29.725,0.975],[29.7375,1.004167],[29.770833,1.004167],[29.770833,0.995833],[29.7875,0.991667],[29.791667,0.983333],[29.8125,0.983333],[29.816667,0.995833],[29.841667,0.9875],[29.841667,0.979167],[29.8625,0.983333],[29.8625,0.995833],[29.891667,0.9875],[29.891667,1.008333],[29.908333,1.016667],[29.908333,1.029167],[29.925,1.045833],[29.9375,1.041667],[29.933333,1.05],[29.945833,1.075],[29.966667,1.095833],[29.966667,1.133333],[29.995833,1.145833],[30.025,1.141667],[30.0375,1.166667],[30.058333,1.166667],[30.05,1.1875],[30.054167,1.220833],[30.083333,1.220833],[30.1,1.245833],[30.108333,1.245833],[30.108333,1.258333],[30.1625,1.275],[30.1625,1.2875],[30.220833,1.2875],[30.233333,1.295833],[30.266667,1.345833],[30.279167,1.404167],[30.275,1.420833],[30.291667,1.441667],[30.3125,1.433333],[30.308333,1.458333],[30.316667,1.466667],[30.316667,1.508333],[30.333333,1.529167],[30.354167,1.5375],[30.358333,1.55],[30.375,1.55],[30.3875,1.620833],[30.416667,1.625],[30.420833,1.608333],[30.441667,1.6125],[30.441667,1.6375],[30.454167,1.6375],[30.4625,1.658333],[30.4875,1.658333],[30.495833,1.666667],[30.508333,1.6625],[30.525,1.683333],[30.566667,1.670833],[30.608333,1.6875],[30.616667,1.704167],[30.629167,1.695833],[30.645833,1.720833],[30.645833,1.733333],[30.675,1.741667],[30.704167,1.766667],[30.708333,1.795833],[30.716667,1.8125],[30.725,1.8125],[30.720833,1.833333],[30.758333,1.85],[30.741667,1.879167],[30.745833,1.891667],[30.758333,1.895833],[30.754167,1.925],[30.7625,1.941667],[30.783333,1.945833],[30.779167,1.966667],[30.791667,1.983333],[30.7875,2.008333],[30.8,2.016667],[30.791667,2.058333],[30.804167,2.0625],[30.825,2.058333],[30.829167,2.05],[30.8625,2.05],[30.866667,2.058333],[30.9,2.058333],[30.9,2.083333],[30.8875,2.1125],[30.858333,2.1375],[30.866667,2.158333],[30.858333,2.1625],[30.854167,2.183333],[30.845833,2.179167],[30.825,2.1875],[30.820833,2.2125],[30.804167,2.216667],[30.783333,2.2375],[30.783333,2.275],[30.754167,2.2625],[30.745833,2.283333],[30.733333,2.2875],[30.733333,2.304167],[30.725,2.308333],[30.729167,2.316667],[30.720833,2.333333],[30.708333,2.3375],[30.7,2.358333],[30.6875,2.366667],[30.666667,2.366667],[30.65,2.391667],[30.583333,2.404167],[30.583333,2.366667],[30.591667,2.366667],[30.591667,2.345833],[30.575,2.341667],[30.570833,2.325],[30.545833,2.320833],[30.545833,2.329167],[30.533333,2.333333],[30.529167,2.325],[30.516667,2.325],[30.516667,2.295833],[30.495833,2.295833],[30.495833,2.283333],[30.4875,2.283333],[30.491667,2.216667],[30.483333,2.216667],[30.479167,2.2],[30.4625,2.195833],[30.458333,2.1875],[30.429167,2.195833],[30.420833,2.175],[30.404167,2.1625],[30.391667,2.166667],[30.391667,2.183333],[30.383333,2.1875],[30.3875,2.208333],[30.370833,2.2125],[30.3625,2.233333],[30.3625,2.25],[30.370833,2.25],[30.370833,2.258333],[30.345833,2.2625],[30.354167,2.308333],[30.333333,2.316667],[30.35,2.366667],[30.3625,2.370833],[30.379167,2.4],[30.35,2.4],[30.341667,2.4125],[30.329167,2.408333],[30.329167,2.416667],[30.3125,2.420833],[30.3125,2.4375],[30.3,2.45],[30.3,2.516667],[30.316667,2.533333],[30.3125,2.5625],[30.295833,2.558333],[30.2875,2.575],[30.2625,2.575],[30.245833,2.595833],[30.233333,2.595833],[30.229167,2.583333],[30.2,2.591667],[30.179167,2.579167],[30.166667,2.6],[30.158333,2.6],[30.15,2.620833],[30.120833,2.6125],[30.104167,2.6375],[30.095833,2.633333],[30.095833,2.620833],[30.058333,2.620833],[30.045833,2.633333],[30.008333,2.6375],[30.008333,2.616667],[29.970833,2.608333],[29.933333,2.654167],[29.904167,2.6625],[29.895833,2.7],[29.866667,2.7],[29.8625,2.6875],[29.85,2.691667],[29.841667,2.683333],[29.841667,2.6625],[29.829167,2.6625],[29.825,2.654167],[29.8125,2.654167],[29.791667,2.683333],[29.766667,2.683333],[29.758333,2.6625],[29.75,2.6625],[29.75,2.65],[29.7375,2.641667],[29.741667,2.629167],[29.733333,2.616667],[29.708333,2.6125],[29.704167,2.6],[29.675,2.591667],[29.6625,2.566667],[29.65,2.566667],[29.65,2.5375],[29.666667,2.525],[29.691667,2.529167],[29.691667,2.520833],[29.683333,2.520833],[29.679167,2.479167],[29.658333,2.483333],[29.654167,2.475],[29.670833,2.4625],[29.670833,2.454167],[29.6625,2.445833],[29.6625,2.425],[29.65,2.425],[29.65,2.408333],[29.625,2.4125],[29.625,2.420833],[29.595833,2.416667],[29.5875,2.391667],[29.554167,2.3875],[29.545833,2.379167],[29.541667,2.3875],[29.525,2.3875],[29.529167,2.404167],[29.5125,2.441667],[29.479167,2.445833],[29.479167,2.466667],[29.470833,2.458333],[29.433333,2.454167],[29.4125,2.4875],[29.383333,2.483333],[29.366667,2.495833],[29.3625,2.483333],[29.333333,2.483333],[29.320833,2.491667],[29.3,2.491667],[29.295833,2.475],[29.329167,2.454167],[29.329167,2.433333],[29.320833,2.420833],[29.3375,2.404167],[29.341667,2.379167],[29.354167,2.375],[29.354167,2.345833],[29.345833,2.345833],[29.345833,2.329167],[29.3375,2.329167],[29.341667,2.316667],[29.329167,2.3],[29.3125,2.3],[29.3,2.316667],[29.2875,2.3125],[29.2875,2.304167],[29.2375,2.304167],[29.229167,2.316667],[29.233333,2.341667],[29.220833,2.345833],[29.225,2.366667],[29.204167,2.383333],[29.2,2.4],[29.1875,2.4125],[29.170833,2.4125],[29.166667,2.429167],[29.154167,2.4375],[29.116667,2.4375],[29.1125,2.454167],[29.083333,2.454167],[29.083333,2.470833],[29.070833,2.475],[29.070833,2.5125],[29.054167,2.5125],[29.054167,2.529167],[29.045833,2.529167],[29.0375,2.545833],[29.025,2.545833],[29.020833,2.554167],[29.004167,2.55],[28.995833,2.5625],[28.979167,2.566667],[28.970833,2.604167],[28.941667,2.608333],[28.925,2.595833],[28.916667,2.6125],[28.870833,2.629167],[28.858333,2.645833],[28.8375,2.65],[28.829167,2.6625],[28.820833,2.645833],[28.829167,2.645833],[28.833333,2.633333],[28.820833,2.616667],[28.808333,2.616667],[28.808333,2.625],[28.783333,2.633333],[28.7375,2.633333],[28.733333,2.645833],[28.7125,2.645833],[28.704167,2.658333],[28.6625,2.65],[28.6625,2.625],[28.608333,2.641667],[28.608333,2.633333],[28.579167,2.620833],[28.5625,2.620833],[28.5625,2.6375],[28.541667,2.6375],[28.529167,2.629167],[28.508333,2.629167],[28.508333,2.620833],[28.483333,2.620833],[28.479167,2.65],[28.470833,2.65],[28.445833,2.679167],[28.445833,2.691667],[28.420833,2.7],[28.429167,2.75],[28.4125,2.754167],[28.404167,2.775],[28.391667,2.775],[28.379167,2.7875],[28.35,2.7875],[28.3125,2.816667],[28.266667,2.816667],[28.2625,2.825],[28.245833,2.825],[28.2375,2.808333],[28.216667,2.808333],[28.2125,2.795833],[28.170833,2.7875],[28.154167,2.758333],[28.145833,2.770833],[28.129167,2.775],[28.125,2.795833],[28.1125,2.795833],[28.1125,2.783333],[28.1,2.783333],[28.091667,2.804167],[28.079167,2.7875],[28.0625,2.783333],[28.0625,2.775],[28.05,2.779167],[28.045833,2.791667],[28.020833,2.791667],[28.004167,2.7625],[28.008333,2.745833],[27.9875,2.745833],[27.9875,2.754167],[27.9625,2.770833],[27.9625,2.7875],[27.95,2.795833],[27.9375,2.7875],[27.9125,2.7875],[27.908333,2.795833],[27.875,2.8],[27.866667,2.8125],[27.820833,2.791667],[27.791667,2.795833],[27.791667,2.8125],[27.775,2.825],[27.783333,2.875],[27.779167,2.9],[27.7875,2.9],[27.7875,2.916667],[27.7625,2.933333],[27.75,2.933333],[27.75,2.925],[27.7375,2.920833],[27.704167,2.933333],[27.654167,2.9375],[27.654167,2.925],[27.625,2.916667],[27.6125,2.883333],[27.6,2.891667],[27.595833,2.883333],[27.570833,2.8875],[27.566667,2.875],[27.541667,2.875],[27.529167,2.854167],[27.5375,2.841667],[27.533333,2.820833],[27.520833,2.8125],[27.495833,2.8125],[27.483333,2.7875],[27.470833,2.7875],[27.466667,2.766667],[27.433333,2.754167],[27.429167,2.7375],[27.420833,2.741667],[27.408333,2.733333],[27.404167,2.7125],[27.420833,2.708333],[27.416667,2.679167],[27.3875,2.666667],[27.383333,2.654167],[27.35,2.654167],[27.345833,2.625],[27.333333,2.629167],[27.333333,2.6125],[27.316667,2.604167],[27.304167,2.604167],[27.3,2.629167],[27.2875,2.641667],[27.275,2.641667],[27.270833,2.658333],[27.2625,2.658333],[27.245833,2.6375],[27.233333,2.6375],[27.225,2.675],[27.233333,2.683333],[27.225,2.691667],[27.225,2.7125],[27.208333,2.725],[27.216667,2.745833],[27.225,2.745833],[27.225,2.7625],[27.2125,2.775],[27.220833,2.775],[27.225,2.791667],[27.2125,2.8],[27.204167,2.85],[27.183333,2.870833],[27.170833,2.866667],[27.179167,2.829167],[27.154167,2.8125],[27.154167,2.795833],[27.1625,2.7875],[27.154167,2.766667],[27.141667,2.775],[27.129167,2.770833],[27.125,2.8],[27.104167,2.791667],[27.1,2.8],[27.083333,2.8],[27.075,2.7875],[27.070833,2.8],[27.05,2.808333],[27.033333,2.8],[27.025,2.775],[27.0125,2.770833],[27.0125,2.75],[27.0,2.745833],[27.008333,2.725],[26.9875,2.720833],[26.941667,2.733333],[26.929167,2.691667],[26.916667,2.6875],[26.895833,2.704167],[26.883333,2.704167],[26.879167,2.716667],[26.866667,2.716667],[26.866667,2.704167],[26.85,2.7],[26.85,2.716667],[26.829167,2.720833],[26.825,2.729167],[26.820833,2.708333],[26.8125,2.708333],[26.795833,2.6875],[26.8,2.6625],[26.779167,2.658333],[26.779167,2.65],[26.758333,2.633333],[26.758333,2.675],[26.75,2.675],[26.75,2.6875],[26.733333,2.691667],[26.729167,2.7],[26.716667,2.695833],[26.7125,2.7125],[26.7,2.716667],[26.7125,2.745833],[26.7,2.745833],[26.691667,2.775],[26.666667,2.783333],[26.670833,2.795833],[26.658333,2.791667],[26.641667,2.808333],[26.620833,2.804167],[26.6125,2.8125],[26.583333,2.804167],[26.583333,2.816667],[26.575,2.820833],[26.579167,2.841667],[26.558333,2.854167],[26.566667,2.866667],[26.554167,2.866667],[26.545833,2.891667],[26.5375,2.891667],[26.5375,2.908333],[26.529167,2.9125],[26.533333,2.920833],[26.545833,2.920833],[26.541667,2.9375],[26.55,2.945833],[26.541667,2.995833],[26.529167,3.004167],[26.520833,2.991667],[26.504167,2.991667],[26.504167,2.970833],[26.479167,2.975],[26.491667,3.033333],[26.458333,3.0375],[26.458333,3.020833],[26.429167,3.025],[26.429167,2.9875],[26.4125,2.979167],[26.383333,2.9875],[26.383333,2.979167],[26.370833,2.979167],[26.370833,2.995833],[26.354167,2.995833],[26.341667,2.9875],[26.320833,2.9875],[26.316667,2.975],[26.304167,2.975],[26.2875,2.979167],[26.2875,3.0],[26.279167,3.0],[26.275,3.0125],[26.2875,3.020833],[26.2875,3.0375],[26.275,3.033333],[26.270833,3.041667],[26.241667,3.041667],[26.241667,3.033333],[26.233333,3.033333],[26.225,3.020833],[26.208333,3.020833],[26.204167,3.008333],[26.191667,3.0125],[26.1875,2.995833],[26.170833,2.9875],[26.158333,2.954167],[26.145833,2.954167],[26.141667,2.941667],[26.125,2.933333],[26.1125,2.933333],[26.120833,2.9625],[26.120833,3.0125],[26.1125,3.008333],[26.0875,3.016667],[26.0875,2.979167],[26.070833,2.970833],[26.054167,3.0],[26.033333,3.004167],[26.025,2.991667],[26.004167,2.995833],[25.991667,3.0125],[25.970833,3.0125],[25.970833,2.979167],[25.941667,2.979167],[25.9375,2.958333],[25.920833,2.954167],[25.904167,2.9375],[25.891667,2.9375],[25.891667,2.929167],[25.879167,2.9375],[25.866667,2.929167],[25.854167,2.945833],[25.854167,2.9625],[25.841667,2.970833],[25.8625,3.029167],[25.85,3.033333],[25.845833,3.025],[25.8125,3.0125],[25.791667,3.020833],[25.775,3.0125],[25.766667,3.020833],[25.766667,3.058333],[25.754167,3.066667],[25.733333,3.066667],[25.725,3.058333],[25.691667,3.070833],[25.666667,3.108333],[25.658333,3.145833],[25.645833,3.145833],[25.633333,3.0875],[25.6375,3.075],[25.625,3.070833],[25.616667,3.0375],[25.583333,3.029167],[25.575,3.033333],[25.575,3.058333],[25.541667,3.0625],[25.533333,3.075],[25.520833,3.075],[25.5125,3.066667],[25.495833,3.066667],[25.491667,3.054167],[25.479167,3.05],[25.479167,3.020833],[25.4875,3.0125],[25.479167,3.008333],[25.475,2.9875],[25.4625,2.9875],[25.4625,2.975],[25.4375,2.975],[25.433333,2.991667],[25.420833,2.995833],[25.408333,2.991667],[25.408333,2.975],[25.375,2.966667],[25.370833,2.958333],[25.3625,2.970833],[25.325,2.970833],[25.329167,2.983333],[25.320833,2.983333],[25.325,2.991667],[25.3125,3.0],[25.3125,3.016667],[25.270833,3.020833],[25.270833,3.054167],[25.258333,3.0625],[25.2375,3.058333],[25.2375,3.066667],[25.25,3.075],[25.245833,3.083333],[25.216667,3.079167],[25.2,3.091667],[25.2,3.116667],[25.1875,3.129167],[25.195833,3.141667],[25.1875,3.154167],[25.15,3.166667],[25.15,3.179167],[25.141667,3.183333],[25.154167,3.1875],[25.154167,3.208333],[25.145833,3.2125],[25.141667,3.229167],[25.116667,3.241667],[25.104167,3.275],[25.0875,3.270833],[25.0875,3.283333],[25.075,3.283333],[25.075,3.291667],[25.0625,3.3],[25.058333,3.279167],[25.0625,3.275],[25.041667,3.275],[25.029167,3.258333],[25.020833,3.258333],[25.016667,3.266667],[25.0,3.270833],[24.991667,3.3],[24.954167,3.308333],[24.95,3.3],[24.9375,3.3125],[24.920833,3.3],[24.916667,3.283333],[24.908333,3.283333],[24.904167,3.254167],[24.891667,3.25],[24.883333,3.225],[24.829167,3.220833],[24.820833,3.229167],[24.8125,3.208333],[24.8,3.208333],[24.808333,3.175],[24.791667,3.175],[24.791667,3.183333],[24.758333,3.204167],[24.754167,3.220833],[24.741667,3.220833],[24.729167,3.241667],[24.716667,3.245833],[24.708333,3.266667],[24.716667,3.295833],[24.7125,3.345833],[24.691667,3.341667],[24.675,3.370833],[24.658333,3.370833],[24.641667,3.35],[24.645833,3.333333],[24.6375,3.3125],[24.604167,3.3],[24.6125,3.291667],[24.608333,3.283333],[24.575,3.2875],[24.566667,3.266667],[24.5375,3.258333],[24.504167,3.2875],[24.4875,3.2875],[24.466667,3.279167],[24.458333,3.2625],[24.4375,3.258333],[24.429167,3.270833],[24.429167,3.258333],[24.404167,3.25],[24.4,3.229167],[24.3875,3.220833],[24.3625,3.220833],[24.354167,3.225],[24.345833,3.270833],[24.35,3.295833],[24.341667,3.295833],[24.354167,3.329167],[24.3375,3.345833],[24.341667,3.3625],[24.358333,3.379167],[24.358333,3.4],[24.341667,3.4125],[24.341667,3.420833],[24.316667,3.416667],[24.316667,3.433333],[24.3,3.429167],[24.291667,3.441667],[24.3,3.4625],[24.295833,3.483333],[24.283333,3.483333],[24.283333,3.495833],[24.270833,3.504167],[24.258333,3.504167],[24.258333,3.516667],[24.25,3.516667],[24.241667,3.541667],[24.229167,3.541667],[24.225,3.533333],[24.179167,3.5375],[24.179167,3.558333],[24.15,3.5625],[24.133333,3.575],[24.120833,3.570833],[24.125,3.558333],[24.116667,3.554167],[24.1,3.579167],[24.091667,3.579167],[24.0875,3.595833],[24.070833,3.604167],[24.058333,3.633333],[24.045833,3.629167],[24.0375,3.6],[24.016667,3.6],[24.0125,3.583333],[24.008333,3.591667],[23.995833,3.5875],[23.983333,3.608333],[23.95,3.608333],[23.941667,3.629167],[23.929167,3.629167],[23.904167,3.6125],[23.870833,3.608333],[23.858333,3.595833],[23.85,3.6],[23.845833,3.616667],[23.825,3.616667],[23.825,3.6375],[23.816667,3.633333],[23.8125,3.645833],[23.795833,3.641667],[23.783333,3.654167],[23.766667,3.641667],[23.75,3.654167],[23.75,3.645833],[23.7375,3.641667],[23.7375,3.654167],[23.7,3.670833],[23.695833,3.683333],[23.683333,3.683333],[23.679167,3.695833],[23.670833,3.695833],[23.683333,3.729167],[23.6625,3.733333],[23.6625,3.754167],[23.65,3.758333],[23.65,3.75],[23.6375,3.75],[23.629167,3.754167],[23.629167,3.766667],[23.591667,3.766667],[23.5875,3.75],[23.579167,3.7625],[23.5625,3.7625],[23.558333,3.754167],[23.541667,3.754167],[23.541667,3.745833],[23.533333,3.745833],[23.525,3.733333],[23.5125,3.741667],[23.495833,3.7375],[23.4875,3.725],[23.466667,3.725],[23.466667,3.708333],[23.45,3.7],[23.445833,3.679167],[23.404167,3.691667],[23.4,3.683333],[23.3875,3.683333],[23.3875,3.675],[23.375,3.675],[23.341667,3.704167],[23.333333,3.720833],[23.3375,3.733333],[23.329167,3.7375],[23.325,3.754167],[23.329167,3.766667],[23.304167,3.7625],[23.279167,3.775],[23.254167,3.775],[23.25,3.783333],[23.229167,3.783333],[23.191667,3.75],[23.191667,3.741667],[23.175,3.745833],[23.166667,3.725],[23.133333,3.716667],[23.125,3.704167],[23.1,3.704167],[23.083333,3.6625],[23.083333,3.641667],[23.054167,3.645833],[23.045833,3.629167],[23.033333,3.633333],[23.033333,3.658333],[23.045833,3.666667],[23.045833,3.695833],[23.029167,3.708333],[23.029167,3.716667],[23.0125,3.720833],[23.016667,3.754167],[22.979167,3.779167],[22.9625,3.8125],[22.941667,3.791667],[22.929167,3.791667],[22.920833,3.816667],[22.908333,3.829167],[22.9,3.825],[22.895833,3.845833],[22.870833,3.841667],[22.870833,3.820833],[22.858333,3.820833],[22.845833,3.779167],[22.825,3.7625],[22.825,3.741667],[22.8125,3.7375],[22.8125,3.725],[22.775,3.695833],[22.758333,3.695833],[22.7125,3.716667],[22.683333,3.704167],[22.645833,3.704167],[22.645833,3.7375],[22.6375,3.754167],[22.641667,3.783333],[22.625,3.791667],[22.625,3.8],[22.608333,3.8],[22.6,3.820833],[22.566667,3.825],[22.5625,3.8375],[22.554167,3.829167],[22.529167,3.833333],[22.525,3.825],[22.508333,3.833333],[22.495833,3.8125],[22.445833,3.8],[22.445833,3.8125],[22.429167,3.825],[22.4,3.820833],[22.370833,3.8375],[22.375,3.804167],[22.3375,3.8],[22.329167,3.779167],[22.320833,3.779167],[22.320833,3.795833],[22.308333,3.804167],[22.304167,3.825],[22.295833,3.825],[22.2875,3.8375],[22.270833,3.833333],[22.266667,3.845833],[22.258333,3.841667],[22.225,3.870833],[22.216667,3.870833],[22.204167,3.85],[22.1875,3.841667],[22.191667,3.820833],[22.175,3.795833],[22.175,3.75],[22.15,3.741667],[22.108333,3.741667],[22.1125,3.75],[22.095833,3.7875],[22.079167,3.783333],[22.091667,3.808333],[22.066667,3.8125],[22.05,3.829167],[22.033333,3.825],[22.033333,3.833333],[22.020833,3.833333],[22.025,3.85],[22.0125,3.85],[22.0125,3.875],[22.0,3.879167],[22.0,3.891667],[21.991667,3.895833],[21.991667,3.916667],[22.004167,3.920833],[22.004167,3.929167],[21.9875,3.95],[21.970833,3.941667],[21.958333,3.991667],[21.954167,3.983333],[21.9375,3.9875],[21.916667,3.958333],[21.9,3.958333],[21.9,3.979167],[21.879167,3.979167],[21.875,4.008333],[21.845833,3.991667],[21.795833,3.991667],[21.779167,3.979167],[21.779167,3.970833],[21.75,3.970833],[21.741667,4.0],[21.716667,4.0],[21.704167,4.016667],[21.6875,4.008333],[21.675,4.0125],[21.666667,3.995833],[21.65,3.995833],[21.645833,3.9875],[21.616667,4.008333],[21.616667,3.9875],[21.604167,3.970833],[21.5875,3.975],[21.5875,3.983333],[21.5625,3.9875],[21.554167,4.0],[21.533333,3.991667],[21.533333,3.970833],[21.520833,3.966667],[21.5125,3.945833],[21.483333,3.958333],[21.466667,3.995833],[21.479167,4.004167],[21.483333,4.025],[21.475,4.025],[21.4625,4.041667],[21.425,4.041667],[21.445833,4.1125],[21.416667,4.129167],[21.416667,4.145833],[21.429167,4.1625],[21.404167,4.1625],[21.404167,4.170833],[21.391667,4.1625],[21.3375,4.166667],[21.325,4.158333],[21.295833,4.166667],[21.2875,4.1625],[21.279167,4.133333],[21.2625,4.133333],[21.2625,4.125],[21.241667,4.129167],[21.229167,4.1],[21.204167,4.083333],[21.195833,4.0875],[21.195833,4.1],[21.170833,4.108333],[21.170833,4.1375],[21.158333,4.145833],[21.1625,4.158333],[21.154167,4.166667],[21.129167,4.15],[21.1,4.145833],[21.0875,4.158333],[21.091667,4.170833],[21.083333,4.183333],[21.091667,4.183333],[21.1,4.2],[21.079167,4.2],[21.075,4.183333],[21.05,4.179167],[21.05,4.166667],[21.066667,4.154167],[21.054167,4.1125],[21.054167,4.0625],[21.008333,4.0625],[21.004167,4.070833],[20.991667,4.070833],[20.991667,4.083333],[20.945833,4.0875],[20.941667,4.095833],[20.9125,4.095833],[20.895833,4.079167],[20.875,4.091667],[20.854167,4.091667],[20.825,4.083333],[20.825,4.075],[20.766667,4.066667],[20.766667,4.075],[20.729167,4.075],[20.741667,4.1375],[20.716667,4.133333],[20.7,4.141667],[20.7,4.154167],[20.7125,4.166667],[20.708333,4.1875],[20.691667,4.195833],[20.6875,4.179167],[20.654167,4.166667],[20.625,4.179167],[20.6,4.179167],[20.591667,4.191667],[20.595833,4.216667],[20.579167,4.216667],[20.570833,4.208333],[20.529167,4.208333],[20.529167,4.2375],[20.5125,4.241667],[20.508333,4.266667],[20.4625,4.258333],[20.454167,4.229167],[20.441667,4.220833],[20.441667,4.204167],[20.433333,4.195833],[20.416667,4.195833],[20.416667,4.183333],[20.383333,4.179167],[20.379167,4.191667],[20.366667,4.191667],[20.366667,4.145833],[20.358333,4.145833],[20.345833,4.120833],[20.325,4.120833],[20.325,4.095833],[20.3375,4.079167],[20.333333,4.0625],[20.341667,4.054167],[20.3125,4.041667],[20.3125,4.029167],[20.295833,4.020833],[20.291667,4.008333],[20.2625,3.991667],[20.2625,3.975],[20.241667,3.975],[20.2375,3.954167],[20.216667,3.954167],[20.216667,3.945833],[20.229167,3.941667],[20.241667,3.929167],[20.241667,3.916667],[20.2625,3.908333],[20.270833,3.895833],[20.3125,3.891667],[20.308333,3.879167],[20.320833,3.866667],[20.3375,3.8625],[20.354167,3.870833],[20.358333,3.883333],[20.375,3.883333],[20.375,3.8625],[20.383333,3.854167],[20.4125,3.854167],[20.416667,3.8375],[20.45,3.820833],[20.45,3.779167],[20.433333,3.7625],[20.429167,3.729167],[20.433333,3.716667],[20.441667,3.716667],[20.441667,3.7],[20.466667,3.683333],[20.4625,3.6375],[20.495833,3.625],[20.504167,3.604167],[20.516667,3.595833],[20.516667,3.579167],[20.5,3.579167],[20.5,3.5875],[20.4875,3.591667],[20.475,3.55],[20.4625,3.55],[20.454167,3.5625],[20.425,3.575],[20.420833,3.541667],[20.3875,3.541667],[20.341667,3.575],[20.320833,3.575],[20.3125,3.545833],[20.283333,3.533333],[20.275,3.504167],[20.3,3.491667],[20.308333,3.479167],[20.329167,3.479167],[20.329167,3.454167],[20.316667,3.445833],[20.320833,3.433333],[20.3,3.441667],[20.220833,3.4375],[20.133333,3.5],[20.095833,3.5125],[20.070833,3.4875],[20.075,3.4625],[20.058333,3.454167],[20.058333,3.4375],[20.05,3.4375],[20.045833,3.420833],[20.025,3.425],[20.029167,3.395833],[20.016667,3.383333],[20.020833,3.35],[20.008333,3.354167],[20.004167,3.333333],[19.991667,3.3375],[19.983333,3.329167],[19.979167,3.308333],[19.925,3.308333],[19.879167,3.325],[19.8625,3.316667],[19.829167,3.316667],[19.8375,3.3],[19.825,3.275],[19.841667,3.2625],[19.841667,3.241667],[19.833333,3.2375],[19.829167,3.220833],[19.854167,3.191667],[19.858333,3.166667],[19.866667,3.166667],[19.858333,3.158333],[19.858333,3.1375],[19.866667,3.1375],[19.879167,3.0875],[19.891667,3.083333],[19.883333,3.070833],[19.870833,3.070833],[19.870833,3.0375],[19.766667,3.0375],[19.758333,3.025],[19.741667,3.029167],[19.7375,3.016667],[19.720833,3.016667],[19.695833,2.995833],[19.666667,2.9875],[19.6625,2.975],[19.641667,2.991667],[19.620833,2.979167],[19.608333,2.958333],[19.575,2.9625],[19.55,2.95],[19.529167,2.954167],[19.5125,2.941667],[19.5125,2.908333],[19.504167,2.904167],[19.504167,2.891667],[19.491667,2.883333],[19.466667,2.883333],[19.4625,2.875],[19.4625,2.758333],[19.475,2.7375],[19.4875,2.7375],[19.479167,2.691667],[19.445833,2.6875],[19.433333,2.704167],[19.420833,2.7],[19.404167,2.683333],[19.4,2.6625],[19.370833,2.6625],[19.3625,2.625],[19.35,2.6125],[19.316667,2.604167],[19.316667,2.591667],[19.304167,2.583333],[19.316667,2.5375],[19.3,2.529167],[19.3,2.516667],[19.2875,2.508333],[19.291667,2.454167],[19.308333,2.429167],[19.341667,2.420833],[19.329167,2.3625],[19.341667,2.35],[19.341667,2.3],[19.333333,2.3],[19.333333,2.2875],[19.3125,2.266667],[19.3,2.266667],[19.254167,2.229167],[19.229167,2.2375],[19.229167,2.229167],[19.208333,2.220833],[19.208333,2.208333],[19.220833,2.195833],[19.241667,2.1875],[19.2,2.179167],[19.191667,2.1625],[19.170833,2.1625],[19.158333,2.154167],[19.154167,2.133333],[19.1625,2.129167],[19.170833,2.1],[19.141667,2.1],[19.0875,2.075],[19.045833,2.070833],[19.033333,2.058333],[19.0125,2.054167],[19.016667,2.0375],[19.033333,2.029167],[19.033333,2.008333],[19.045833,2.008333],[19.070833,1.991667],[19.0875,1.9625],[19.104167,1.966667],[19.104167,1.9375],[19.075,1.908333],[19.075,1.9],[19.091667,1.9],[19.095833,1.8625],[19.083333,1.85],[19.0625,1.85],[19.066667,1.820833],[19.054167,1.816667],[19.058333,1.8],[19.033333,1.783333],[19.029167,1.745833],[19.020833,1.745833],[19.0125,1.7125],[18.995833,1.7125],[18.995833,1.7],[18.966667,1.6875],[18.966667,1.7],[18.945833,1.7],[18.941667,1.716667],[18.933333,1.716667],[18.941667,1.720833],[18.941667,1.733333],[18.925,1.733333],[18.925,1.741667],[18.916667,1.741667],[18.908333,1.729167],[18.895833,1.729167],[18.9,1.7125],[18.891667,1.7125],[18.8875,1.695833],[18.875,1.695833],[18.870833,1.6625],[18.845833,1.65],[18.841667,1.633333],[18.829167,1.633333],[18.825,1.620833],[18.808333,1.620833],[18.804167,1.595833],[18.775,1.583333],[18.766667,1.570833],[18.754167,1.570833],[18.754167,1.558333],[18.745833,1.558333],[18.754167,1.520833],[18.791667,1.520833],[18.795833,1.5125],[18.795833,1.475],[18.804167,1.458333],[18.795833,1.445833],[18.783333,1.4375],[18.754167,1.441667],[18.741667,1.425],[18.729167,1.429167],[18.725,1.408333],[18.691667,1.4125],[18.691667,1.404167],[18.679167,1.4],[18.683333,1.3875],[18.658333,1.358333],[18.6375,1.35],[18.633333,1.333333],[18.616667,1.345833],[18.5875,1.345833],[18.579167,1.333333],[18.545833,1.329167],[18.545833,1.2875],[18.5625,1.283333],[18.570833,1.270833],[18.570833,1.25],[18.541667,1.229167],[18.541667,1.216667],[18.525,1.216667],[18.520833,1.208333],[18.491667,1.241667],[18.491667,1.254167],[18.470833,1.254167],[18.4625,1.266667],[18.454167,1.266667],[18.45,1.25],[18.433333,1.245833],[18.425,1.216667],[18.441667,1.216667],[18.45,1.208333],[18.454167,1.183333],[18.4375,1.170833],[18.445833,1.133333],[18.433333,1.125],[18.429167,1.108333],[18.420833,1.108333],[18.416667,1.066667],[18.404167,1.041667],[18.383333,1.033333],[18.366667,1.0],[18.358333,0.945833],[18.35,0.925],[18.3375,0.916667],[18.3375,0.904167],[18.320833,0.891667],[18.295833,0.8875],[18.2875,0.895833],[18.270833,0.895833],[18.270833,0.8875],[18.283333,0.8875],[18.291667,0.820833],[18.329167,0.820833],[18.333333,0.804167],[18.329167,0.779167],[18.320833,0.775],[18.320833,0.75],[18.333333,0.75],[18.329167,0.641667],[18.320833,0.629167],[18.329167,0.595833],[18.320833,0.591667],[18.320833,0.575],[18.304167,0.55],[18.304167,0.5375],[18.3125,0.533333],[18.304167,0.520833],[18.3125,0.495833],[18.3,0.475],[18.304167,0.429167],[18.291667,0.425],[18.3125,0.395833],[18.325,0.395833],[18.325,0.383333],[18.291667,0.333333],[18.291667,0.316667],[18.275,0.320833],[18.258333,0.295833],[18.258333,0.258333],[18.245833,0.258333],[18.241667,0.233333],[18.233333,0.229167],[18.233333,0.208333],[18.241667,0.208333],[18.241667,0.195833],[18.220833,0.170833],[18.220833,0.15],[18.233333,0.15],[18.229167,0.120833],[18.220833,0.116667],[18.204167,0.0625],[18.220833,0.058333],[18.254167,0.029167],[18.254167,0.008333],[18.2625,0.008333],[18.266667,-0.004167],[18.275,-0.004167],[18.275,0.033333],[18.2875,0.0375],[18.329167,0.033333],[18.345833,0.020833],[18.345833,0.008333],[18.358333,0.0125],[18.345833,-0.008333],[18.345833,-0.033333],[18.375,-0.0625],[18.375,-0.079167],[18.3625,-0.091667],[18.370833,-0.095833],[18.375,-0.158333],[18.3625,-0.1625],[18.35,-0.204167],[18.358333,-0.208333],[18.358333,-0.220833],[18.366667,-0.220833],[18.366667,-0.233333],[18.358333,-0.233333],[18.354167,-0.266667],[18.329167,-0.266667],[18.320833,-0.258333],[18.320833,-0.266667],[18.3125,-0.266667],[18.3125,-0.295833],[18.325,-0.3125],[18.3125,-0.329167],[18.320833,-0.333333],[18.325,-0.35],[18.308333,-0.354167],[18.291667,-0.375],[18.3125,-0.383333],[18.3125,-0.425],[18.329167,-0.429167],[18.333333,-0.445833],[18.35,-0.445833],[18.366667,-0.458333],[18.391667,-0.454167],[18.391667,-0.4625],[18.408333,-0.4625],[18.4125,-0.483333],[18.420833,-0.483333],[18.429167,-0.5125],[18.416667,-0.516667],[18.408333,-0.5375],[18.416667,-0.545833],[18.416667,-0.566667],[18.429167,-0.570833],[18.429167,-0.591667],[18.4125,-0.5875],[18.4125,-0.608333],[18.425,-0.616667],[18.416667,-0.629167],[18.404167,-0.629167],[18.4,-0.641667],[18.4125,-0.645833],[18.420833,-0.6625],[18.420833,-0.708333],[18.4375,-0.704167],[18.4375,-0.716667],[18.4625,-0.733333],[18.466667,-0.7625],[18.495833,-0.770833],[18.508333,-0.7875],[18.533333,-0.7875],[18.541667,-0.8],[18.579167,-0.804167],[18.604167,-0.783333],[18.6125,-0.7875],[18.6125,-0.8],[18.6375,-0.8],[18.6625,-0.8125],[18.675,-0.783333],[18.691667,-0.779167],[18.704167,-0.795833],[18.725,-0.791667],[18.733333,-0.808333],[18.745833,-0.804167],[18.758333,-0.829167],[18.808333,-0.829167],[18.8125,-0.8375],[18.820833,-0.833333],[18.816667,-0.820833],[18.825,-0.816667],[18.820833,-0.804167],[18.833333,-0.804167],[18.833333,-0.770833],[18.841667,-0.770833],[18.845833,-0.754167],[18.875,-0.7375],[18.879167,-0.720833],[18.916667,-0.729167],[18.945833,-0.754167],[18.945833,-0.7625],[18.954167,-0.7625],[18.954167,-0.779167],[18.945833,-0.7875],[18.954167,-0.7875],[18.958333,-0.8],[18.958333,-0.829167],[18.945833,-0.841667],[18.95,-0.8625],[18.9375,-0.8625],[18.933333,-0.879167],[18.9125,-0.883333],[18.9,-0.916667],[18.929167,-0.920833],[18.9375,-0.933333],[18.954167,-0.929167],[18.958333,-0.920833],[18.979167,-0.925],[19.016667,-0.966667],[19.0375,-0.941667],[19.05,-0.941667],[19.0625,-0.929167],[19.0625,-0.908333],[19.079167,-0.9125],[19.116667,-0.904167],[19.141667,-0.879167],[19.154167,-0.895833],[19.15,-0.908333],[19.1625,-0.895833],[19.220833,-0.908333],[19.233333,-0.895833],[19.258333,-0.895833],[19.279167,-0.9125],[19.295833,-0.9125],[19.304167,-0.9],[19.316667,-0.904167],[19.325,-0.879167],[19.345833,-0.866667],[19.358333,-0.891667],[19.4,-0.891667],[19.4,-0.908333],[19.416667,-0.904167],[19.425,-0.929167],[19.441667,-0.933333],[19.445833,-0.958333],[19.4625,-0.9625],[19.466667,-0.979167],[19.495833,-0.995833],[19.491667,-1.008333],[19.479167,-1.0125],[19.470833,-1.054167],[19.475,-1.075],[19.466667,-1.095833],[19.454167,-1.108333],[19.441667,-1.108333],[19.441667,-1.1375],[19.458333,-1.145833],[19.454167,-1.158333],[19.466667,-1.1625],[19.475,-1.183333],[19.4625,-1.208333],[19.479167,-1.225],[19.470833,-1.266667],[19.4875,-1.283333],[19.4875,-1.329167],[19.495833,-1.3375],[19.516667,-1.333333],[19.520833,-1.345833],[19.529167,-1.345833],[19.529167,-1.370833],[19.508333,-1.379167],[19.504167,-1.391667],[19.466667,-1.3875],[19.458333,-1.379167],[19.441667,-1.4],[19.429167,-1.4],[19.425,-1.416667],[19.408333,-1.420833],[19.420833,-1.45],[19.4375,-1.45],[19.458333,-1.470833],[19.483333,-1.458333],[19.504167,-1.4875],[19.516667,-1.4875],[19.533333,-1.508333],[19.554167,-1.504167],[19.570833,-1.516667],[19.570833,-1.533333],[19.583333,-1.541667],[19.579167,-1.558333],[19.608333,-1.570833],[19.604167,-1.591667],[19.6125,-1.591667],[19.6125,-1.604167],[19.629167,-1.604167],[19.6375,-1.620833],[19.654167,-1.629167],[19.658333,-1.654167],[19.6625,-1.645833],[19.6875,-1.645833],[19.695833,-1.6625],[19.716667,-1.6625],[19.725,-1.679167],[19.716667,-1.6875],[19.733333,-1.691667],[19.733333,-1.704167],[19.745833,-1.708333],[19.741667,-1.733333],[19.766667,-1.725],[19.766667,-1.733333],[19.8,-1.733333],[19.8125,-1.741667],[19.804167,-1.775],[19.833333,-1.820833],[19.841667,-1.820833],[19.854167,-1.804167],[19.891667,-1.804167],[19.9,-1.8],[19.9,-1.7875],[19.920833,-1.783333],[19.929167,-1.791667],[19.945833,-1.791667],[19.95,-1.783333],[19.975,-1.779167],[19.979167,-1.766667],[19.991667,-1.770833],[19.983333,-1.791667],[20.004167,-1.808333],[20.004167,-1.833333],[20.025,-1.833333],[20.029167,-1.85],[20.025,-1.866667],[20.016667,-1.866667],[20.020833,-1.8875],[20.0125,-1.9],[20.025,-1.929167],[20.0375,-1.9375],[20.033333,-1.954167],[20.041667,-1.958333],[20.041667,-1.983333],[20.029167,-1.991667],[20.041667,-2.025],[20.033333,-2.033333],[20.029167,-2.070833],[20.0375,-2.075],[20.041667,-2.091667],[20.0625,-2.083333],[20.070833,-2.091667],[20.091667,-2.0875],[20.091667,-2.095833],[20.108333,-2.095833],[20.104167,-2.108333],[20.1125,-2.1125],[20.1125,-2.133333],[20.104167,-2.141667],[20.129167,-2.141667],[20.133333,-2.166667],[20.15,-2.1625],[20.15,-2.179167],[20.183333,-2.2],[20.179167,-2.216667],[20.170833,-2.216667],[20.175,-2.233333],[20.195833,-2.233333],[20.204167,-2.254167],[20.2375,-2.279167],[20.229167,-2.304167],[20.241667,-2.308333],[20.245833,-2.320833],[20.258333,-2.320833],[20.258333,-2.329167],[20.275,-2.329167],[20.275,-2.366667],[20.291667,-2.3625],[20.295833,-2.345833],[20.329167,-2.345833],[20.341667,-2.375],[20.370833,-2.370833],[20.379167,-2.391667],[20.391667,-2.391667],[20.391667,-2.408333],[20.408333,-2.416667],[20.404167,-2.425],[20.4125,-2.4375],[20.425,-2.433333],[20.429167,-2.441667],[20.445833,-2.445833],[20.445833,-2.458333],[20.458333,-2.4625],[20.458333,-2.470833],[20.475,-2.475],[20.491667,-2.516667],[20.525,-2.516667],[20.541667,-2.533333],[20.558333,-2.529167],[20.5625,-2.554167],[20.583333,-2.55],[20.6,-2.558333],[20.608333,-2.575],[20.666667,-2.575],[20.683333,-2.5875],[20.691667,-2.6125],[20.7125,-2.6125],[20.716667,-2.6],[20.729167,-2.595833],[20.766667,-2.604167],[20.795833,-2.595833],[20.8125,-2.6],[20.8125,-2.608333],[20.841667,-2.608333],[20.841667,-2.620833],[20.858333,-2.629167],[20.858333,-2.641667],[20.870833,-2.641667],[20.870833,-2.65],[20.883333,-2.645833],[20.8875,-2.658333],[20.9125,-2.654167],[20.9125,-2.666667],[20.929167,-2.679167],[20.945833,-2.670833],[20.975,-2.670833],[20.975,-2.679167],[21.004167,-2.679167],[21.016667,-2.6875],[21.025,-2.720833],[21.045833,-2.733333],[21.05,-2.754167],[21.058333,-2.754167],[21.054167,-2.766667],[21.066667,-2.779167],[21.095833,-2.783333],[21.1,-2.808333],[21.125,-2.8125],[21.125,-2.8375],[21.133333,-2.829167],[21.15,-2.8375],[21.15,-2.829167],[21.191667,-2.829167],[21.208333,-2.85],[21.233333,-2.845833],[21.2375,-2.854167],[21.2625,-2.854167],[21.266667,-2.833333],[21.275,-2.829167],[21.283333,-2.85],[21.325,-2.858333],[21.325,-2.866667],[21.3375,-2.875],[21.3375,-2.9],[21.345833,-2.9],[21.391667,-2.891667],[21.395833,-2.875],[21.404167,-2.870833],[21.441667,-2.870833],[21.470833,-2.841667],[21.470833,-2.833333],[21.483333,-2.833333],[21.483333,-2.841667],[21.508333,-2.866667],[21.516667,-2.866667],[21.520833,-2.879167],[21.529167,-2.879167],[21.520833,-2.895833],[21.520833,-2.925],[21.508333,-2.941667],[21.508333,-2.983333],[21.533333,-2.9875],[21.55,-2.979167],[21.5625,-2.991667],[21.583333,-2.983333],[21.5875,-2.970833],[21.6125,-2.975],[21.625,-2.954167],[21.641667,-2.970833],[21.645833,-2.991667],[21.670833,-2.9875],[21.679167,-3.0],[21.695833,-3.0],[21.7,-3.008333],[21.725,-3.008333],[21.7375,-2.995833],[21.770833,-3.0],[21.795833,-3.045833],[21.820833,-3.041667],[21.825,-3.058333],[21.841667,-3.054167],[21.845833,-3.070833],[21.875,-3.083333],[21.9,-3.05],[21.916667,-3.054167],[21.9125,-3.016667],[21.875,-3.008333],[21.866667,-2.979167],[21.870833,-2.941667],[21.85,-2.945833],[21.85,-2.929167],[21.841667,-2.929167],[21.85,-2.9125],[21.841667,-2.908333],[21.841667,-2.8875],[21.870833,-2.879167],[21.875,-2.866667],[21.9,-2.858333],[21.9125,-2.8375],[21.925,-2.854167],[21.941667,-2.858333],[21.945833,-2.870833],[22.0125,-2.891667],[22.0125,-2.929167],[22.033333,-2.933333],[22.0375,-2.945833],[22.079167,-2.941667],[22.083333,-2.954167],[22.1,-2.958333],[22.108333,-2.975],[22.120833,-2.975],[22.1375,-2.958333],[22.1375,-2.933333],[22.145833,-2.941667],[22.175,-2.941667],[22.179167,-2.958333],[22.204167,-2.954167],[22.204167,-2.9625],[22.220833,-2.9625],[22.225,-2.95],[22.258333,-2.95],[22.270833,-2.933333],[22.283333,-2.933333],[22.283333,-2.920833],[22.291667,-2.920833],[22.308333,-2.9],[22.325,-2.908333],[22.329167,-2.920833],[22.354167,-2.916667],[22.3625,-2.875],[22.420833,-2.841667],[22.441667,-2.85],[22.458333,-2.870833],[22.458333,-2.820833],[22.4875,-2.791667],[22.545833,-2.8],[22.545833,-2.825],[22.558333,-2.8375],[22.55,-2.866667],[22.5625,-2.866667],[22.566667,-2.854167],[22.579167,-2.858333],[22.5875,-2.85],[22.595833,-2.866667],[22.6125,-2.875],[22.6125,-2.904167],[22.625,-2.904167],[22.629167,-2.8875],[22.616667,-2.858333],[22.620833,-2.845833],[22.641667,-2.845833],[22.65,-2.816667],[22.6875,-2.808333],[22.7,-2.808333],[22.708333,-2.825],[22.7375,-2.8375],[22.7625,-2.8375],[22.766667,-2.854167],[22.8125,-2.845833],[22.825,-2.833333],[22.841667,-2.841667],[22.841667,-2.85],[22.85,-2.85],[22.85,-2.841667],[22.875,-2.841667],[22.875,-2.854167],[22.9,-2.870833],[22.9,-2.8875],[22.908333,-2.895833],[22.958333,-2.895833],[22.970833,-2.8875],[22.975,-2.866667],[23.0,-2.870833],[23.004167,-2.879167],[23.025,-2.879167],[23.041667,-2.8375],[23.066667,-2.841667],[23.070833,-2.833333],[23.083333,-2.833333],[23.095833,-2.8375],[23.104167,-2.8625],[23.120833,-2.854167],[23.120833,-2.845833],[23.125,-2.858333],[23.141667,-2.858333],[23.141667,-2.85],[23.15,-2.85],[23.15,-2.866667],[23.166667,-2.866667],[23.170833,-2.883333],[23.183333,-2.883333],[23.183333,-2.895833],[23.2,-2.9],[23.208333,-2.870833],[23.270833,-2.875],[23.2875,-2.8625],[23.2875,-2.845833],[23.3375,-2.8375],[23.341667,-2.858333],[23.375,-2.866667],[23.383333,-2.8875],[23.408333,-2.891667],[23.4125,-2.883333],[23.429167,-2.883333],[23.441667,-2.895833],[23.479167,-2.904167],[23.483333,-2.916667],[23.516667,-2.916667],[23.525,-2.929167],[23.541667,-2.929167],[23.55,-2.941667],[23.566667,-2.933333],[23.579167,-2.95],[23.595833,-2.954167],[23.595833,-3.0],[23.5625,-3.004167],[23.558333,-3.016667],[23.545833,-3.016667],[23.545833,-3.029167],[23.520833,-3.058333]],[[27.6125,2.883333],[27.616667,2.883333],[27.616667,2.879167],[27.6125,2.883333]],[[27.616667,2.879167],[27.620833,2.879167],[27.620833,2.875],[27.616667,2.879167]]]]}}
