{"type":"Feature","properties":{"mrgid":63790,"name":"Namib","placeType":"Freshwater Ecoregion of the World (FEOW)","source":"MarineRegions:tnc_wwf_feow_hydrosheds"},"geometry":{"type":"MultiPolygon","coordinates":[[[[14.954167,-26.345833],[14.95,-26.345833],[14.95,-26.35],[14.954167,-26.345833]]],[[[14.933333,-26.295833],[14.941667,-26.295833],[14.941667,-26.283333],[14.933333,-26.295833]]],[[[14.941667,-26.179167],[14.941667,-26.175],[14.933333,-26.175],[14.941667,-26.179167]]],[[[14.829167,-25.716667],[14.829167,-25.725],[14.833333,-25.720833],[14.829167,-25.716667]]],[[[14.5375,-24.641667],[14.5375,-24.6375],[14.529167,-24.6375],[14.5375,-24.641667]]],[[[15.145833,-26.583333],[15.170833,-26.583333],[15.179167,-26.604167],[15.1625,-26.6125],[15.166667,-26.629167],[15.15,-26.629167],[15.145833,-26.675],[15.1375,-26.666667],[15.141667,-26.641667],[15.133333,-26.6375],[15.133333,-26.625],[15.125,-26.625],[15.125,-26.6375],[15.1125,-26.6375],[15.108333,-26.645833],[15.095833,-26.641667],[15.095833,-26.629167],[15.0875,-26.629167],[15.091667,-26.65],[15.075,-26.645833],[15.075,-26.683333],[15.0875,-26.7375],[15.108333,-26.7375],[15.108333,-26.758333],[15.1,-26.766667],[15.104167,-26.779167],[15.1125,-26.779167],[15.116667,-26.8125],[15.125,-26.8125],[15.120833,-26.820833],[15.129167,-26.825],[15.125,-26.833333],[15.1375,-26.833333],[15.133333,-26.845833],[15.141667,-26.858333],[15.154167,-26.858333],[15.145833,-26.904167],[15.175,-26.9125],[15.1875,-26.920833],[15.1875,-26.929167],[15.195833,-26.916667],[15.2125,-26.916667],[15.229167,-26.933333],[15.2375,-26.979167],[15.229167,-27.004167],[15.229167,-27.054167],[15.254167,-27.0875],[15.254167,-27.104167],[15.245833,-27.104167],[15.245833,-27.1125],[15.270833,-27.175],[15.2625,-27.175],[15.254167,-27.195833],[15.2625,-27.208333],[15.2625,-27.229167],[15.279167,-27.245833],[15.2875,-27.316667],[15.308333,-27.3375],[15.320833,-27.370833],[15.329167,-27.370833],[15.341667,-27.395833],[15.354167,-27.4],[15.358333,-27.416667],[15.366667,-27.420833],[15.366667,-27.441667],[15.404167,-27.466667],[15.4375,-27.508333],[15.4375,-27.525],[15.466667,-27.558333],[15.458333,-27.5625],[15.458333,-27.575],[15.479167,-27.5875],[15.4875,-27.604167],[15.495833,-27.604167],[15.495833,-27.616667],[15.516667,-27.633333],[15.508333,-27.641667],[15.525,-27.645833],[15.529167,-27.658333],[15.516667,-27.6625],[15.516667,-27.670833],[15.525,-27.695833],[15.533333,-27.7],[15.529167,-27.729167],[15.545833,-27.741667],[15.545833,-27.758333],[15.570833,-27.770833],[15.579167,-27.791667],[15.625,-27.825],[15.65,-27.8625],[15.65,-27.875],[15.679167,-27.9],[15.683333,-27.925],[15.675,-27.929167],[15.675,-27.95],[15.6875,-27.970833],[15.704167,-27.979167],[15.7125,-28.0],[15.791667,-28.070833],[15.816667,-28.104167],[15.825,-28.104167],[15.895833,-28.170833],[15.904167,-28.170833],[15.904167,-28.179167],[15.933333,-28.191667],[15.975,-28.233333],[16.025,-28.2625],[16.075,-28.308333],[16.075,-28.316667],[16.083333,-28.316667],[16.0875,-28.329167],[16.095833,-28.329167],[16.116667,-28.358333],[16.145833,-28.375],[16.208333,-28.4375],[16.229167,-28.4375],[16.233333,-28.429167],[16.25,-28.425],[16.279167,-28.429167],[16.2875,-28.4125],[16.320833,-28.383333],[16.329167,-28.391667],[16.3625,-28.391667],[16.366667,-28.4],[16.383333,-28.4],[16.391667,-28.3625],[16.383333,-28.358333],[16.383333,-28.329167],[16.4,-28.325],[16.395833,-28.2875],[16.416667,-28.270833],[16.454167,-28.283333],[16.466667,-28.304167],[16.479167,-28.304167],[16.491667,-28.320833],[16.5,-28.320833],[16.5125,-28.304167],[16.541667,-28.295833],[16.545833,-28.275],[16.533333,-28.245833],[16.55,-28.2375],[16.545833,-28.225],[16.558333,-28.2125],[16.554167,-28.204167],[16.583333,-28.166667],[16.575,-28.158333],[16.579167,-28.145833],[16.55,-28.1375],[16.529167,-28.116667],[16.533333,-28.066667],[16.529167,-28.041667],[16.520833,-28.0375],[16.520833,-28.0125],[16.533333,-27.995833],[16.570833,-28.0],[16.5875,-27.983333],[16.625,-27.979167],[16.620833,-27.958333],[16.591667,-27.929167],[16.595833,-27.904167],[16.579167,-27.870833],[16.5875,-27.866667],[16.5875,-27.833333],[16.575,-27.829167],[16.575,-27.8125],[16.5875,-27.795833],[16.620833,-27.795833],[16.633333,-27.783333],[16.65,-27.783333],[16.65,-27.775],[16.6625,-27.770833],[16.670833,-27.729167],[16.6875,-27.729167],[16.6875,-27.716667],[16.7,-27.7125],[16.708333,-27.691667],[16.733333,-27.704167],[16.741667,-27.666667],[16.754167,-27.666667],[16.766667,-27.683333],[16.770833,-27.716667],[16.783333,-27.729167],[16.804167,-27.729167],[16.816667,-27.7375],[16.804167,-27.745833],[16.804167,-27.758333],[16.829167,-27.758333],[16.858333,-27.783333],[16.875,-27.770833],[16.895833,-27.770833],[16.895833,-27.758333],[16.883333,-27.75],[16.883333,-27.729167],[16.870833,-27.725],[16.866667,-27.708333],[16.845833,-27.691667],[16.8625,-27.6875],[16.883333,-27.666667],[16.8875,-27.675],[16.908333,-27.679167],[16.933333,-27.666667],[16.933333,-27.658333],[16.954167,-27.645833],[16.958333,-27.629167],[16.925,-27.608333],[16.916667,-27.579167],[16.916667,-27.5375],[16.925,-27.533333],[16.920833,-27.475],[16.9,-27.458333],[16.9,-27.433333],[16.904167,-27.420833],[16.916667,-27.416667],[16.916667,-27.404167],[16.883333,-27.3875],[16.875,-27.366667],[16.866667,-27.366667],[16.866667,-27.354167],[16.845833,-27.341667],[16.854167,-27.316667],[16.85,-27.304167],[16.858333,-27.304167],[16.854167,-27.279167],[16.8625,-27.270833],[16.841667,-27.254167],[16.845833,-27.241667],[16.829167,-27.233333],[16.8125,-27.204167],[16.779167,-27.195833],[16.766667,-27.183333],[16.766667,-27.170833],[16.75,-27.154167],[16.75,-27.133333],[16.720833,-27.1375],[16.7125,-27.125],[16.6875,-27.116667],[16.683333,-27.104167],[16.691667,-27.1],[16.691667,-27.079167],[16.679167,-27.066667],[16.679167,-27.054167],[16.6625,-27.054167],[16.641667,-27.041667],[16.629167,-27.045833],[16.6125,-27.0125],[16.595833,-27.0125],[16.5875,-26.995833],[16.554167,-26.979167],[16.55,-26.958333],[16.5375,-26.958333],[16.525,-26.941667],[16.516667,-26.941667],[16.516667,-26.929167],[16.508333,-26.925],[16.491667,-26.883333],[16.483333,-26.883333],[16.475,-26.854167],[16.458333,-26.85],[16.4375,-26.829167],[16.433333,-26.779167],[16.420833,-26.766667],[16.408333,-26.766667],[16.4,-26.733333],[16.4,-26.708333],[16.4125,-26.695833],[16.445833,-26.695833],[16.441667,-26.679167],[16.495833,-26.679167],[16.5,-26.666667],[16.520833,-26.6625],[16.5125,-26.620833],[16.545833,-26.616667],[16.529167,-26.566667],[16.541667,-26.566667],[16.545833,-26.5375],[16.595833,-26.529167],[16.608333,-26.5125],[16.616667,-26.5125],[16.620833,-26.479167],[16.641667,-26.4625],[16.645833,-26.420833],[16.654167,-26.420833],[16.658333,-26.408333],[16.683333,-26.3875],[16.675,-26.375],[16.675,-26.3375],[16.6625,-26.3125],[16.675,-26.3125],[16.683333,-26.270833],[16.6625,-26.25],[16.670833,-26.2125],[16.6625,-26.208333],[16.654167,-26.1375],[16.641667,-26.133333],[16.654167,-26.104167],[16.645833,-26.083333],[16.654167,-26.0625],[16.645833,-26.05],[16.633333,-26.05],[16.616667,-25.9875],[16.604167,-25.983333],[16.6,-25.991667],[16.554167,-26.0],[16.5375,-25.970833],[16.508333,-25.966667],[16.4875,-25.945833],[16.5,-25.9],[16.5125,-25.9],[16.525,-25.8875],[16.525,-25.875],[16.5375,-25.875],[16.533333,-25.866667],[16.541667,-25.866667],[16.529167,-25.7875],[16.525,-25.779167],[16.5125,-25.779167],[16.504167,-25.7875],[16.504167,-25.75],[16.520833,-25.729167],[16.529167,-25.683333],[16.545833,-25.6625],[16.570833,-25.6625],[16.575,-25.645833],[16.583333,-25.641667],[16.583333,-25.629167],[16.575,-25.625],[16.579167,-25.604167],[16.566667,-25.6],[16.566667,-25.591667],[16.575,-25.5875],[16.595833,-25.595833],[16.616667,-25.5875],[16.620833,-25.6],[16.629167,-25.6],[16.670833,-25.591667],[16.6625,-25.5625],[16.675,-25.545833],[16.6875,-25.554167],[16.704167,-25.55],[16.720833,-25.4875],[16.729167,-25.4875],[16.7375,-25.4625],[16.7375,-25.445833],[16.729167,-25.445833],[16.729167,-25.4375],[16.75,-25.429167],[16.75,-25.416667],[16.720833,-25.395833],[16.720833,-25.383333],[16.695833,-25.383333],[16.6875,-25.375],[16.658333,-25.375],[16.645833,-25.366667],[16.645833,-25.35],[16.629167,-25.333333],[16.629167,-25.3125],[16.620833,-25.308333],[16.620833,-25.283333],[16.608333,-25.279167],[16.608333,-25.266667],[16.575,-25.233333],[16.575,-25.225],[16.558333,-25.216667],[16.554167,-25.2],[16.533333,-25.195833],[16.525,-25.175],[16.5375,-25.166667],[16.5375,-25.15],[16.545833,-25.15],[16.545833,-25.120833],[16.529167,-25.108333],[16.525,-25.0875],[16.5375,-25.0875],[16.55,-25.075],[16.545833,-25.058333],[16.520833,-25.045833],[16.520833,-25.0375],[16.508333,-25.0375],[16.508333,-25.029167],[16.4625,-25.029167],[16.454167,-25.016667],[16.4375,-25.016667],[16.4375,-25.008333],[16.429167,-25.008333],[16.4375,-24.991667],[16.433333,-24.975],[16.445833,-24.966667],[16.454167,-24.916667],[16.445833,-24.916667],[16.445833,-24.904167],[16.425,-24.891667],[16.425,-24.879167],[16.408333,-24.875],[16.383333,-24.854167],[16.341667,-24.8625],[16.3375,-24.854167],[16.325,-24.854167],[16.3375,-24.825],[16.316667,-24.820833],[16.304167,-24.779167],[16.279167,-24.770833],[16.266667,-24.7375],[16.254167,-24.7375],[16.245833,-24.645833],[16.283333,-24.6375],[16.3,-24.641667],[16.304167,-24.625],[16.375,-24.625],[16.379167,-24.608333],[16.3875,-24.604167],[16.383333,-24.5875],[16.408333,-24.579167],[16.429167,-24.554167],[16.433333,-24.504167],[16.429167,-24.491667],[16.416667,-24.4875],[16.425,-24.458333],[16.4,-24.445833],[16.395833,-24.425],[16.375,-24.420833],[16.375,-24.4],[16.383333,-24.391667],[16.4125,-24.395833],[16.4125,-24.3875],[16.429167,-24.375],[16.429167,-24.345833],[16.404167,-24.329167],[16.404167,-24.320833],[16.433333,-24.3],[16.4375,-24.283333],[16.445833,-24.279167],[16.45,-24.241667],[16.475,-24.229167],[16.504167,-24.183333],[16.520833,-24.179167],[16.545833,-24.108333],[16.583333,-24.054167],[16.575,-24.025],[16.566667,-24.020833],[16.566667,-24.0],[16.541667,-23.975],[16.525,-23.983333],[16.495833,-23.983333],[16.483333,-24.008333],[16.45,-24.0125],[16.445833,-24.025],[16.425,-24.029167],[16.420833,-24.045833],[16.391667,-24.008333],[16.3375,-24.004167],[16.345833,-23.966667],[16.366667,-23.954167],[16.375,-23.9],[16.391667,-23.891667],[16.404167,-23.870833],[16.395833,-23.85],[16.4,-23.833333],[16.383333,-23.816667],[16.391667,-23.791667],[16.35,-23.791667],[16.333333,-23.783333],[16.308333,-23.816667],[16.2875,-23.825],[16.279167,-23.795833],[16.2625,-23.804167],[16.258333,-23.795833],[16.2375,-23.791667],[16.233333,-23.804167],[16.2125,-23.808333],[16.208333,-23.791667],[16.183333,-23.7875],[16.179167,-23.779167],[16.170833,-23.779167],[16.1625,-23.791667],[16.120833,-23.783333],[16.120833,-23.7625],[16.145833,-23.745833],[16.145833,-23.7375],[16.179167,-23.720833],[16.195833,-23.691667],[16.208333,-23.691667],[16.216667,-23.670833],[16.2375,-23.6625],[16.241667,-23.625],[16.233333,-23.620833],[16.233333,-23.608333],[16.241667,-23.604167],[16.241667,-23.583333],[16.254167,-23.583333],[16.258333,-23.575],[16.3,-23.579167],[16.304167,-23.570833],[16.320833,-23.566667],[16.358333,-23.570833],[16.358333,-23.579167],[16.391667,-23.579167],[16.395833,-23.5625],[16.416667,-23.545833],[16.433333,-23.545833],[16.454167,-23.504167],[16.470833,-23.5],[16.470833,-23.483333],[16.479167,-23.479167],[16.475,-23.45],[16.483333,-23.445833],[16.475,-23.375],[16.516667,-23.358333],[16.525,-23.345833],[16.5625,-23.35],[16.570833,-23.341667],[16.570833,-23.3125],[16.579167,-23.308333],[16.5625,-23.25],[16.525,-23.241667],[16.5125,-23.229167],[16.508333,-23.208333],[16.525,-23.195833],[16.529167,-23.15],[16.55,-23.1375],[16.566667,-23.1375],[16.579167,-23.120833],[16.5875,-23.120833],[16.6,-23.1],[16.6,-23.070833],[16.645833,-23.045833],[16.645833,-23.008333],[16.6625,-23.0],[16.666667,-22.979167],[16.683333,-22.966667],[16.6625,-22.933333],[16.679167,-22.920833],[16.683333,-22.9],[16.7125,-22.9],[16.741667,-22.883333],[16.758333,-22.825],[16.766667,-22.825],[16.770833,-22.8125],[16.816667,-22.795833],[16.820833,-22.779167],[16.833333,-22.779167],[16.883333,-22.725],[16.9125,-22.7125],[16.9125,-22.720833],[16.929167,-22.729167],[17.008333,-22.7375],[17.033333,-22.75],[17.033333,-22.729167],[17.045833,-22.729167],[17.054167,-22.708333],[17.083333,-22.7],[17.0875,-22.6875],[17.133333,-22.670833],[17.15,-22.654167],[17.195833,-22.645833],[17.216667,-22.625],[17.229167,-22.625],[17.229167,-22.575],[17.220833,-22.570833],[17.220833,-22.558333],[17.2,-22.554167],[17.2,-22.545833],[17.175,-22.529167],[17.183333,-22.508333],[17.216667,-22.508333],[17.216667,-22.491667],[17.204167,-22.475],[17.208333,-22.45],[17.195833,-22.3625],[17.183333,-22.35],[17.191667,-22.320833],[17.179167,-22.3125],[17.175,-22.283333],[17.175,-22.245833],[17.1875,-22.233333],[17.1875,-22.216667],[17.2,-22.2125],[17.204167,-22.220833],[17.229167,-22.229167],[17.233333,-22.220833],[17.254167,-22.225],[17.270833,-22.2125],[17.275,-22.225],[17.304167,-22.220833],[17.329167,-22.2375],[17.341667,-22.233333],[17.345833,-22.208333],[17.375,-22.216667],[17.3875,-22.2125],[17.391667,-22.229167],[17.4125,-22.233333],[17.429167,-22.233333],[17.4375,-22.220833],[17.458333,-22.220833],[17.475,-22.191667],[17.466667,-22.1625],[17.479167,-22.158333],[17.479167,-22.141667],[17.504167,-22.1375],[17.495833,-22.116667],[17.504167,-22.1125],[17.5125,-22.079167],[17.4875,-22.058333],[17.479167,-22.025],[17.466667,-22.020833],[17.458333,-22.0],[17.4625,-21.991667],[17.479167,-21.9875],[17.483333,-21.9625],[17.5,-21.9625],[17.5125,-21.941667],[17.525,-21.9375],[17.525,-21.925],[17.541667,-21.908333],[17.575,-21.904167],[17.591667,-21.891667],[17.579167,-21.858333],[17.583333,-21.85],[17.575,-21.845833],[17.5875,-21.808333],[17.558333,-21.779167],[17.55,-21.7375],[17.5375,-21.7375],[17.5125,-21.704167],[17.4875,-21.7],[17.483333,-21.683333],[17.4625,-21.691667],[17.429167,-21.6875],[17.420833,-21.695833],[17.366667,-21.679167],[17.354167,-21.6875],[17.283333,-21.683333],[17.279167,-21.691667],[17.2125,-21.691667],[17.208333,-21.7],[17.179167,-21.7],[17.166667,-21.720833],[17.133333,-21.716667],[17.120833,-21.729167],[17.1,-21.729167],[17.070833,-21.754167],[17.05,-21.75],[17.045833,-21.758333],[17.0375,-21.741667],[16.983333,-21.745833],[16.975,-21.733333],[16.891667,-21.75],[16.858333,-21.75],[16.833333,-21.7375],[16.7625,-21.7375],[16.7375,-21.754167],[16.733333,-21.725],[16.720833,-21.716667],[16.720833,-21.6625],[16.7125,-21.6625],[16.704167,-21.641667],[16.6875,-21.633333],[16.683333,-21.608333],[16.654167,-21.608333],[16.65,-21.595833],[16.620833,-21.591667],[16.608333,-21.575],[16.579167,-21.570833],[16.570833,-21.5375],[16.533333,-21.5],[16.466667,-21.5],[16.470833,-21.475],[16.45,-21.45],[16.458333,-21.4],[16.470833,-21.395833],[16.479167,-21.370833],[16.479167,-21.333333],[16.466667,-21.3125],[16.483333,-21.304167],[16.483333,-21.2875],[16.5125,-21.258333],[16.525,-21.229167],[16.504167,-21.220833],[16.508333,-21.158333],[16.5,-21.154167],[16.504167,-21.1375],[16.495833,-21.129167],[16.495833,-21.041667],[16.479167,-21.029167],[16.479167,-20.979167],[16.416667,-20.904167],[16.445833,-20.883333],[16.475,-20.875],[16.495833,-20.841667],[16.533333,-20.829167],[16.545833,-20.816667],[16.591667,-20.8125],[16.604167,-20.775],[16.633333,-20.7625],[16.6625,-20.729167],[16.683333,-20.720833],[16.683333,-20.675],[16.7,-20.670833],[16.7125,-20.654167],[16.775,-20.654167],[16.795833,-20.65],[16.808333,-20.633333],[16.833333,-20.625],[16.85,-20.629167],[16.85,-20.5875],[16.858333,-20.5625],[16.879167,-20.545833],[16.879167,-20.525],[16.895833,-20.508333],[16.9,-20.491667],[16.9375,-20.466667],[16.958333,-20.466667],[16.979167,-20.441667],[17.004167,-20.429167],[17.0125,-20.404167],[17.004167,-20.3875],[17.0125,-20.370833],[17.008333,-20.333333],[17.029167,-20.25],[17.054167,-20.245833],[17.0625,-20.233333],[17.104167,-20.208333],[17.095833,-20.2],[17.108333,-20.1875],[17.108333,-20.154167],[17.116667,-20.154167],[17.133333,-20.116667],[17.133333,-20.066667],[17.141667,-20.058333],[17.1625,-20.058333],[17.166667,-20.041667],[17.183333,-20.033333],[17.1875,-20.016667],[17.2125,-20.0125],[17.225,-19.9875],[17.254167,-19.975],[17.270833,-19.9375],[17.291667,-19.9375],[17.304167,-19.929167],[17.275,-19.916667],[17.258333,-19.9],[17.2375,-19.929167],[17.216667,-19.925],[17.204167,-19.941667],[17.141667,-19.95],[17.116667,-19.933333],[17.108333,-19.908333],[17.095833,-19.908333],[17.083333,-19.895833],[17.070833,-19.866667],[17.054167,-19.866667],[17.054167,-19.858333],[17.045833,-19.858333],[17.0375,-19.845833],[17.016667,-19.841667],[17.0,-19.816667],[16.970833,-19.808333],[16.966667,-19.795833],[16.941667,-19.779167],[16.941667,-19.766667],[16.929167,-19.766667],[16.9,-19.7375],[16.866667,-19.725],[16.85,-19.7],[16.8375,-19.7],[16.820833,-19.679167],[16.808333,-19.683333],[16.808333,-19.691667],[16.795833,-19.691667],[16.7875,-19.704167],[16.7125,-19.6875],[16.704167,-19.708333],[16.716667,-19.7125],[16.708333,-19.729167],[16.7125,-19.741667],[16.645833,-19.804167],[16.529167,-19.854167],[16.5,-19.858333],[16.491667,-19.841667],[16.479167,-19.85],[16.479167,-19.870833],[16.458333,-19.870833],[16.445833,-19.883333],[16.416667,-19.8875],[16.416667,-19.895833],[16.404167,-19.895833],[16.395833,-19.916667],[16.375,-19.908333],[16.329167,-19.933333],[16.308333,-19.9375],[16.308333,-19.929167],[16.295833,-19.929167],[16.266667,-19.954167],[16.266667,-19.9625],[16.25,-19.966667],[16.25,-19.979167],[16.229167,-19.9875],[16.229167,-19.995833],[16.191667,-20.0],[16.179167,-20.016667],[16.15,-20.020833],[16.15,-20.029167],[16.1375,-20.029167],[16.133333,-20.020833],[16.116667,-20.025],[16.083333,-20.045833],[16.0875,-20.058333],[16.041667,-20.075],[16.0375,-20.083333],[16.0125,-20.0875],[16.0125,-20.1],[16.0,-20.095833],[15.995833,-20.104167],[15.975,-20.104167],[15.9625,-20.1125],[15.9125,-20.108333],[15.841667,-20.120833],[15.829167,-20.1125],[15.795833,-20.116667],[15.795833,-20.108333],[15.7625,-20.116667],[15.754167,-20.108333],[15.691667,-20.1],[15.6875,-20.108333],[15.675,-20.108333],[15.675,-20.125],[15.6625,-20.129167],[15.6625,-20.1375],[15.629167,-20.1375],[15.625,-20.125],[15.608333,-20.125],[15.579167,-20.15],[15.55,-20.083333],[15.5375,-20.079167],[15.533333,-20.058333],[15.520833,-20.054167],[15.516667,-20.029167],[15.495833,-20.025],[15.491667,-20.016667],[15.458333,-20.016667],[15.458333,-19.9875],[15.441667,-19.975],[15.433333,-19.933333],[15.425,-19.929167],[15.429167,-19.908333],[15.4125,-19.895833],[15.416667,-19.879167],[15.4,-19.858333],[15.408333,-19.8125],[15.416667,-19.804167],[15.4125,-19.779167],[15.425,-19.758333],[15.420833,-19.7125],[15.433333,-19.7],[15.45,-19.7],[15.454167,-19.6875],[15.425,-19.679167],[15.425,-19.654167],[15.366667,-19.641667],[15.3625,-19.620833],[15.341667,-19.625],[15.333333,-19.616667],[15.291667,-19.616667],[15.2625,-19.6],[15.220833,-19.604167],[15.220833,-19.583333],[15.2375,-19.575],[15.245833,-19.558333],[15.25,-19.516667],[15.108333,-19.5125],[15.058333,-19.495833],[15.020833,-19.495833],[15.0,-19.508333],[14.9875,-19.495833],[14.966667,-19.491667],[14.954167,-19.4625],[14.925,-19.45],[14.925,-19.441667],[14.9125,-19.441667],[14.916667,-19.45],[14.883333,-19.475],[14.895833,-19.491667],[14.879167,-19.504167],[14.879167,-19.5125],[14.85,-19.504167],[14.820833,-19.516667],[14.820833,-19.525],[14.8,-19.525],[14.7875,-19.5125],[14.754167,-19.516667],[14.7375,-19.5125],[14.733333,-19.504167],[14.670833,-19.495833],[14.670833,-19.483333],[14.695833,-19.454167],[14.691667,-19.425],[14.704167,-19.420833],[14.704167,-19.395833],[14.683333,-19.395833],[14.679167,-19.383333],[14.658333,-19.383333],[14.65,-19.370833],[14.616667,-19.370833],[14.6125,-19.383333],[14.591667,-19.375],[14.583333,-19.358333],[14.5875,-19.341667],[14.575,-19.333333],[14.575,-19.316667],[14.533333,-19.308333],[14.525,-19.295833],[14.545833,-19.283333],[14.558333,-19.25],[14.545833,-19.220833],[14.529167,-19.220833],[14.520833,-19.208333],[14.483333,-19.195833],[14.441667,-19.2],[14.441667,-19.191667],[14.429167,-19.1875],[14.395833,-19.195833],[14.3875,-19.1875],[14.395833,-19.1375],[14.3875,-19.120833],[14.404167,-19.120833],[14.4,-19.083333],[14.383333,-19.0625],[14.379167,-19.041667],[14.370833,-19.041667],[14.366667,-19.020833],[14.354167,-19.020833],[14.35,-19.0],[14.329167,-18.9875],[14.320833,-18.933333],[14.291667,-18.9],[14.316667,-18.904167],[14.333333,-18.916667],[14.379167,-18.920833],[14.395833,-18.904167],[14.391667,-18.883333],[14.383333,-18.883333],[14.35,-18.833333],[14.3,-18.820833],[14.283333,-18.775],[14.266667,-18.766667],[14.254167,-18.741667],[14.233333,-18.741667],[14.220833,-18.716667],[14.191667,-18.7125],[14.175,-18.729167],[14.170833,-18.720833],[14.154167,-18.716667],[14.15,-18.733333],[14.108333,-18.741667],[14.095833,-18.754167],[14.091667,-18.775],[14.0625,-18.7625],[14.058333,-18.725],[14.029167,-18.708333],[14.029167,-18.6875],[14.020833,-18.679167],[14.025,-18.666667],[14.008333,-18.654167],[14.008333,-18.641667],[14.0,-18.641667],[14.004167,-18.6125],[13.991667,-18.595833],[13.991667,-18.566667],[13.979167,-18.55],[13.941667,-18.541667],[13.9375,-18.525],[13.925,-18.516667],[13.920833,-18.479167],[13.95,-18.470833],[13.945833,-18.4375],[13.954167,-18.429167],[13.954167,-18.404167],[13.983333,-18.3875],[13.966667,-18.3625],[13.9375,-18.3625],[13.933333,-18.345833],[13.941667,-18.345833],[13.941667,-18.320833],[13.925,-18.320833],[13.933333,-18.308333],[13.916667,-18.270833],[13.925,-18.266667],[13.925,-18.25],[13.908333,-18.233333],[13.908333,-18.220833],[13.929167,-18.216667],[13.929167,-18.175],[13.945833,-18.179167],[13.966667,-18.141667],[13.9625,-18.1125],[13.975,-18.108333],[13.975,-18.1],[13.991667,-18.1],[13.975,-18.0625],[13.9375,-18.016667],[13.95,-17.983333],[13.958333,-17.979167],[13.9625,-17.945833],[13.975,-17.941667],[13.975,-17.929167],[13.983333,-17.929167],[13.983333,-17.8875],[13.9625,-17.8625],[13.954167,-17.8625],[13.970833,-17.833333],[13.9625,-17.825],[13.966667,-17.808333],[13.933333,-17.7875],[13.933333,-17.779167],[13.920833,-17.779167],[13.895833,-17.7625],[13.904167,-17.733333],[13.916667,-17.733333],[13.920833,-17.720833],[13.9,-17.708333],[13.908333,-17.6875],[13.866667,-17.6375],[13.875,-17.608333],[13.904167,-17.6125],[13.908333,-17.620833],[13.920833,-17.620833],[13.925,-17.608333],[13.9625,-17.620833],[13.983333,-17.6125],[14.025,-17.65],[14.066667,-17.65],[14.075,-17.670833],[14.091667,-17.679167],[14.091667,-17.7],[14.104167,-17.7125],[14.125,-17.716667],[14.133333,-17.708333],[14.154167,-17.708333],[14.154167,-17.691667],[14.175,-17.683333],[14.170833,-17.670833],[14.179167,-17.65],[14.208333,-17.641667],[14.220833,-17.629167],[14.2125,-17.604167],[14.216667,-17.595833],[14.2375,-17.595833],[14.245833,-17.583333],[14.2625,-17.579167],[14.2625,-17.570833],[14.279167,-17.570833],[14.2875,-17.55],[14.304167,-17.545833],[14.304167,-17.5375],[14.345833,-17.5375],[14.345833,-17.525],[14.3625,-17.525],[14.375,-17.508333],[14.375,-17.4875],[14.4,-17.470833],[14.4,-17.454167],[14.379167,-17.4375],[14.379167,-17.425],[14.358333,-17.4125],[14.354167,-17.4],[14.370833,-17.375],[14.425,-17.366667],[14.429167,-17.354167],[14.445833,-17.345833],[14.4875,-17.354167],[14.504167,-17.366667],[14.504167,-17.329167],[14.516667,-17.329167],[14.520833,-17.316667],[14.554167,-17.325],[14.558333,-17.345833],[14.570833,-17.358333],[14.583333,-17.358333],[14.595833,-17.375],[14.604167,-17.366667],[14.620833,-17.366667],[14.625,-17.316667],[14.6375,-17.304167],[14.633333,-17.279167],[14.654167,-17.275],[14.65,-17.266667],[14.658333,-17.266667],[14.658333,-17.254167],[14.6875,-17.254167],[14.6875,-17.233333],[14.7,-17.229167],[14.7,-17.195833],[14.716667,-17.191667],[14.716667,-17.179167],[14.733333,-17.170833],[14.725,-17.15],[14.741667,-17.15],[14.741667,-17.141667],[14.770833,-17.133333],[14.775,-17.120833],[14.8125,-17.116667],[14.8125,-17.108333],[14.825,-17.104167],[14.825,-17.070833],[14.829167,-17.05],[14.841667,-17.0375],[14.845833,-17.0],[14.8375,-17.0],[14.825,-16.983333],[14.825,-16.970833],[14.8375,-16.954167],[14.841667,-16.925],[14.854167,-16.925],[14.866667,-16.908333],[14.866667,-16.883333],[14.85,-16.879167],[14.85,-16.870833],[14.816667,-16.870833],[14.804167,-16.8625],[14.779167,-16.866667],[14.770833,-16.854167],[14.758333,-16.858333],[14.741667,-16.825],[14.7125,-16.804167],[14.7125,-16.754167],[14.720833,-16.75],[14.725,-16.720833],[14.7,-16.666667],[14.708333,-16.641667],[14.691667,-16.6375],[14.691667,-16.625],[14.666667,-16.6],[14.633333,-16.579167],[14.629167,-16.5625],[14.620833,-16.558333],[14.616667,-16.529167],[14.591667,-16.508333],[14.591667,-16.495833],[14.558333,-16.479167],[14.5375,-16.479167],[14.533333,-16.4875],[14.4875,-16.479167],[14.475,-16.4875],[14.429167,-16.4875],[14.420833,-16.475],[14.391667,-16.470833],[14.358333,-16.495833],[14.308333,-16.491667],[14.295833,-16.504167],[14.295833,-16.516667],[14.283333,-16.525],[14.283333,-16.554167],[14.275,-16.5625],[14.25,-16.558333],[14.241667,-16.575],[14.233333,-16.575],[14.229167,-16.591667],[14.216667,-16.595833],[14.2,-16.620833],[14.191667,-16.620833],[14.179167,-16.6625],[14.1625,-16.666667],[14.1625,-16.675],[14.129167,-16.679167],[14.133333,-16.704167],[14.108333,-16.704167],[14.104167,-16.720833],[14.0875,-16.729167],[14.0875,-16.7375],[14.079167,-16.7375],[14.075,-16.725],[14.029167,-16.741667],[14.008333,-16.733333],[13.991667,-16.704167],[14.020833,-16.6625],[14.016667,-16.641667],[14.033333,-16.633333],[14.0375,-16.608333],[14.05,-16.608333],[14.045833,-16.583333],[14.058333,-16.5625],[14.033333,-16.55],[14.033333,-16.5375],[14.004167,-16.5125],[14.008333,-16.5],[13.995833,-16.479167],[13.979167,-16.475],[13.995833,-16.454167],[13.9875,-16.433333],[14.004167,-16.408333],[14.0125,-16.408333],[14.025,-16.375],[14.0125,-16.370833],[14.004167,-16.325],[13.983333,-16.316667],[13.9875,-16.2625],[13.970833,-16.245833],[13.979167,-16.2375],[13.979167,-16.208333],[13.9625,-16.191667],[13.9625,-16.175],[13.941667,-16.15],[13.95,-16.116667],[13.966667,-16.104167],[13.966667,-16.0875],[13.945833,-16.05],[13.95,-16.016667],[13.941667,-16.016667],[13.933333,-15.975],[13.933333,-15.920833],[13.920833,-15.916667],[13.9125,-15.879167],[13.883333,-15.8625],[13.870833,-15.8375],[13.883333,-15.808333],[13.875,-15.8],[13.879167,-15.754167],[13.870833,-15.733333],[13.854167,-15.733333],[13.8375,-15.720833],[13.820833,-15.7375],[13.8,-15.733333],[13.795833,-15.741667],[13.783333,-15.741667],[13.779167,-15.729167],[13.7625,-15.725],[13.7375,-15.733333],[13.729167,-15.745833],[13.729167,-15.7625],[13.720833,-15.770833],[13.720833,-15.7875],[13.733333,-15.791667],[13.725,-15.833333],[13.720833,-15.841667],[13.695833,-15.845833],[13.675,-15.904167],[13.683333,-15.9125],[13.683333,-15.929167],[13.7,-15.929167],[13.720833,-15.941667],[13.704167,-15.9625],[13.704167,-15.991667],[13.6875,-16.033333],[13.675,-16.025],[13.654167,-16.025],[13.65,-16.041667],[13.629167,-16.041667],[13.620833,-16.025],[13.583333,-16.016667],[13.5875,-15.975],[13.570833,-15.966667],[13.570833,-15.941667],[13.5625,-15.9375],[13.558333,-15.916667],[13.520833,-15.9375],[13.529167,-15.9625],[13.525,-15.975],[13.5125,-15.975],[13.520833,-16.0],[13.491667,-16.041667],[13.479167,-16.041667],[13.475,-16.033333],[13.454167,-16.0375],[13.441667,-16.016667],[13.420833,-16.016667],[13.416667,-16.029167],[13.391667,-16.025],[13.383333,-15.983333],[13.366667,-15.995833],[13.358333,-16.020833],[13.345833,-16.025],[13.345833,-16.0375],[13.325,-16.0375],[13.320833,-16.054167],[13.304167,-16.058333],[13.283333,-16.079167],[13.2625,-16.083333],[13.254167,-16.054167],[13.2375,-16.0625],[13.2375,-16.070833],[13.25,-16.075],[13.25,-16.091667],[13.233333,-16.104167],[13.233333,-16.125],[13.220833,-16.125],[13.216667,-16.141667],[13.208333,-16.145833],[13.216667,-16.183333],[13.208333,-16.183333],[13.208333,-16.204167],[13.195833,-16.2125],[13.2,-16.225],[13.170833,-16.225],[13.1625,-16.266667],[13.15,-16.270833],[13.15,-16.279167],[13.1375,-16.279167],[13.133333,-16.291667],[13.108333,-16.295833],[13.095833,-16.308333],[13.083333,-16.279167],[13.045833,-16.2875],[13.0375,-16.283333],[13.033333,-16.266667],[13.025,-16.266667],[13.041667,-16.245833],[13.0375,-16.229167],[13.05,-16.220833],[13.045833,-16.145833],[13.033333,-16.1375],[13.0125,-16.079167],[13.0,-16.070833],[13.0,-16.058333],[12.983333,-16.05],[12.970833,-16.020833],[12.920833,-15.991667],[12.929167,-15.908333],[12.916667,-15.883333],[12.920833,-15.841667],[12.891667,-15.816667],[12.875,-15.816667],[12.875,-15.808333],[12.845833,-15.8125],[12.829167,-15.8],[12.795833,-15.804167],[12.7875,-15.795833],[12.770833,-15.795833],[12.766667,-15.783333],[12.7375,-15.775],[12.733333,-15.741667],[12.679167,-15.745833],[12.658333,-15.741667],[12.654167,-15.729167],[12.625,-15.733333],[12.6125,-15.729167],[12.604167,-15.708333],[12.595833,-15.720833],[12.541667,-15.725],[12.483333,-15.704167],[12.454167,-15.708333],[12.425,-15.691667],[12.4125,-15.6625],[12.3375,-15.6625],[12.333333,-15.65],[12.325,-15.65],[12.295833,-15.6625],[12.283333,-15.65],[12.270833,-15.654167],[12.254167,-15.633333],[12.229167,-15.633333],[12.2125,-15.620833],[12.195833,-15.620833],[12.170833,-15.641667],[12.170833,-15.65],[12.1625,-15.65],[12.166667,-15.666667],[12.154167,-15.675],[12.145833,-15.695833],[12.104167,-15.7],[12.079167,-15.733333],[12.025,-15.729167],[12.0125,-15.725],[12.0125,-15.716667],[11.954167,-15.7],[11.945833,-15.7125],[11.908333,-15.720833],[11.908333,-15.745833],[11.891667,-15.754167],[11.883333,-15.783333],[11.8625,-15.795833],[11.8125,-15.795833],[11.829167,-15.783333],[11.858333,-15.7875],[11.854167,-15.775],[11.825,-15.779167],[11.804167,-15.791667],[11.791667,-15.791667],[11.791667,-15.779167],[11.775,-15.779167],[11.758333,-15.8],[11.729167,-15.870833],[11.733333,-15.9125],[11.783333,-15.975],[11.804167,-16.016667],[11.7875,-16.079167],[11.7875,-16.15],[11.825,-16.441667],[11.820833,-16.591667],[11.8125,-16.591667],[11.820833,-16.604167],[11.8125,-16.620833],[11.820833,-16.633333],[11.8125,-16.679167],[11.820833,-16.695833],[11.8125,-16.733333],[11.816667,-16.754167],[11.808333,-16.7625],[11.804167,-16.804167],[11.7875,-16.820833],[11.779167,-16.816667],[11.795833,-16.770833],[11.791667,-16.7625],[11.770833,-16.766667],[11.779167,-16.891667],[11.770833,-16.904167],[11.770833,-16.925],[11.7625,-16.929167],[11.758333,-17.004167],[11.75,-17.020833],[11.745833,-17.158333],[11.754167,-17.379167],[11.745833,-17.383333],[11.7375,-17.445833],[11.741667,-17.483333],[11.733333,-17.595833],[11.741667,-17.604167],[11.745833,-17.6625],[11.758333,-17.6875],[11.766667,-17.7875],[11.783333,-17.816667],[11.779167,-17.8375],[11.8,-17.8875],[11.8,-17.979167],[11.804167,-18.0],[11.825,-18.029167],[11.833333,-18.075],[11.829167,-18.095833],[11.845833,-18.116667],[11.85,-18.145833],[11.891667,-18.175],[11.958333,-18.266667],[11.9625,-18.283333],[11.954167,-18.2875],[11.954167,-18.308333],[11.995833,-18.3625],[12.0,-18.4375],[12.016667,-18.458333],[12.029167,-18.5],[12.325,-18.741667],[12.329167,-18.7625],[12.3875,-18.825],[12.383333,-18.8375],[12.395833,-18.845833],[12.395833,-18.854167],[12.458333,-18.916667],[12.466667,-18.933333],[12.475,-19.004167],[12.483333,-19.016667],[12.566667,-19.0875],[12.5875,-19.133333],[12.6,-19.1375],[12.616667,-19.2],[12.658333,-19.258333],[12.658333,-19.270833],[12.695833,-19.316667],[12.704167,-19.341667],[12.7,-19.383333],[12.716667,-19.404167],[12.720833,-19.429167],[12.758333,-19.479167],[12.758333,-19.491667],[12.775,-19.504167],[12.795833,-19.5625],[12.8375,-19.616667],[12.841667,-19.6375],[12.854167,-19.645833],[12.858333,-19.675],[12.883333,-19.729167],[12.933333,-19.791667],[12.95,-19.854167],[12.966667,-19.870833],[12.991667,-19.933333],[13.033333,-19.9875],[13.033333,-20.016667],[13.041667,-20.025],[13.0375,-20.033333],[13.05,-20.05],[13.054167,-20.075],[13.066667,-20.083333],[13.075,-20.104167],[13.116667,-20.125],[13.141667,-20.15],[13.154167,-20.1625],[13.154167,-20.175],[13.2,-20.220833],[13.2,-20.266667],[13.2375,-20.320833],[13.241667,-20.341667],[13.25,-20.3875],[13.245833,-20.4625],[13.2625,-20.479167],[13.2625,-20.495833],[13.283333,-20.5125],[13.308333,-20.575],[13.3375,-20.6125],[13.345833,-20.658333],[13.3625,-20.683333],[13.3625,-20.716667],[13.379167,-20.766667],[13.375,-20.8],[13.3875,-20.816667],[13.391667,-20.841667],[13.408333,-20.858333],[13.416667,-20.8875],[13.425,-20.8875],[13.425,-20.895833],[13.454167,-20.916667],[13.454167,-20.933333],[13.475,-20.958333],[13.4875,-20.9625],[13.516667,-21.016667],[13.55,-21.05],[13.55,-21.095833],[13.566667,-21.116667],[13.570833,-21.1375],[13.591667,-21.15],[13.595833,-21.166667],[13.620833,-21.191667],[13.629167,-21.191667],[13.633333,-21.208333],[13.6875,-21.258333],[13.683333,-21.275],[13.7,-21.295833],[13.704167,-21.320833],[13.716667,-21.320833],[13.7375,-21.3375],[13.745833,-21.35],[13.741667,-21.3625],[13.75,-21.3625],[13.7625,-21.383333],[13.804167,-21.420833],[13.816667,-21.4625],[13.858333,-21.504167],[13.854167,-21.529167],[13.866667,-21.545833],[13.866667,-21.5625],[13.875,-21.566667],[13.879167,-21.595833],[13.975,-21.716667],[13.975,-21.745833],[13.95,-21.7625],[13.945833,-21.775],[14.0625,-21.866667],[14.0625,-21.883333],[14.120833,-21.933333],[14.145833,-21.979167],[14.195833,-22.025],[14.2,-22.045833],[14.216667,-22.05],[14.2375,-22.083333],[14.254167,-22.091667],[14.266667,-22.116667],[14.2875,-22.133333],[14.283333,-22.1625],[14.3,-22.191667],[14.316667,-22.2],[14.316667,-22.2125],[14.329167,-22.216667],[14.3375,-22.233333],[14.35,-22.2375],[14.391667,-22.283333],[14.404167,-22.325],[14.425,-22.35],[14.425,-22.375],[14.45,-22.425],[14.445833,-22.45],[14.504167,-22.541667],[14.504167,-22.595833],[14.520833,-22.620833],[14.525,-22.645833],[14.520833,-22.7125],[14.529167,-22.733333],[14.520833,-22.741667],[14.520833,-22.758333],[14.529167,-22.7625],[14.541667,-22.8],[14.5375,-22.9],[14.529167,-22.916667],[14.520833,-22.916667],[14.495833,-22.941667],[14.495833,-22.95],[14.479167,-22.954167],[14.4875,-22.970833],[14.470833,-22.983333],[14.475,-22.958333],[14.445833,-22.958333],[14.433333,-22.970833],[14.445833,-22.925],[14.4375,-22.904167],[14.45,-22.883333],[14.45,-22.866667],[14.433333,-22.870833],[14.429167,-22.933333],[14.416667,-22.933333],[14.404167,-22.945833],[14.4,-22.995833],[14.420833,-23.1],[14.475,-23.229167],[14.495833,-23.304167],[14.495833,-23.3875],[14.4875,-23.4],[14.4625,-23.404167],[14.470833,-23.383333],[14.458333,-23.383333],[14.483333,-23.366667],[14.441667,-23.375],[14.433333,-23.3875],[14.4375,-23.45],[14.508333,-23.620833],[14.508333,-23.645833],[14.5,-23.654167],[14.495833,-23.766667],[14.504167,-23.783333],[14.5,-23.8125],[14.508333,-23.833333],[14.504167,-23.875],[14.5125,-23.9125],[14.508333,-23.920833],[14.4875,-23.920833],[14.475,-23.929167],[14.454167,-23.9625],[14.45,-24.041667],[14.4625,-24.108333],[14.5,-24.225],[14.533333,-24.304167],[14.554167,-24.333333],[14.591667,-24.420833],[14.6,-24.425],[14.6,-24.4375],[14.608333,-24.441667],[14.616667,-24.4875],[14.595833,-24.529167],[14.591667,-24.558333],[14.695833,-24.666667],[14.758333,-24.75],[14.795833,-24.833333],[14.7875,-24.854167],[14.795833,-24.933333],[14.841667,-25.004167],[14.875,-25.079167],[14.875,-25.095833],[14.866667,-25.095833],[14.866667,-25.104167],[14.854167,-25.1125],[14.854167,-25.125],[14.845833,-25.125],[14.8375,-25.158333],[14.841667,-25.195833],[14.825,-25.2125],[14.808333,-25.283333],[14.8,-25.283333],[14.8,-25.304167],[14.808333,-25.3125],[14.808333,-25.391667],[14.841667,-25.429167],[14.833333,-25.4625],[14.879167,-25.533333],[14.875,-25.575],[14.858333,-25.5875],[14.841667,-25.625],[14.833333,-25.6875],[14.845833,-25.704167],[14.845833,-25.729167],[14.825,-25.733333],[14.825,-25.754167],[14.8375,-25.758333],[14.8375,-25.770833],[14.854167,-25.795833],[14.908333,-25.85],[14.9,-25.895833],[14.908333,-25.9375],[14.954167,-25.991667],[14.958333,-26.029167],[14.979167,-26.075],[14.979167,-26.1125],[14.970833,-26.116667],[14.970833,-26.129167],[14.954167,-26.141667],[14.945833,-26.129167],[14.929167,-26.133333],[14.933333,-26.158333],[14.941667,-26.158333],[14.941667,-26.166667],[14.966667,-26.1875],[14.9625,-26.2125],[14.95,-26.220833],[14.954167,-26.241667],[14.945833,-26.283333],[14.954167,-26.3],[14.945833,-26.304167],[14.945833,-26.316667],[14.958333,-26.320833],[14.970833,-26.345833],[14.979167,-26.345833],[14.975,-26.358333],[14.983333,-26.358333],[14.983333,-26.35],[15.0,-26.35],[15.0625,-26.383333],[15.091667,-26.408333],[15.095833,-26.425],[15.120833,-26.441667],[15.1125,-26.466667],[15.125,-26.475],[15.120833,-26.4875],[15.1375,-26.5],[15.145833,-26.583333]],[[17.183333,-22.508333],[17.179167,-22.508333],[17.179167,-22.504167],[17.183333,-22.508333]],[[15.145833,-26.675],[15.15,-26.675],[15.15,-26.679167],[15.145833,-26.675]]],[[[11.729167,-16.7125],[11.741667,-16.7125],[11.741667,-16.675],[11.733333,-16.670833],[11.729167,-16.641667],[11.733333,-16.604167],[11.720833,-16.583333],[11.729167,-16.566667],[11.720833,-16.533333],[11.725,-16.516667],[11.7125,-16.504167],[11.695833,-16.504167],[11.666667,-16.5375],[11.666667,-16.570833],[11.683333,-16.604167],[11.695833,-16.658333],[11.729167,-16.7125]]],[[[15.241667,-27.108333],[15.233333,-27.108333],[15.2375,-27.125],[15.241667,-27.125],[15.241667,-27.108333]]],[[[15.1875,-27.016667],[15.195833,-27.020833],[15.195833,-27.033333],[15.208333,-27.033333],[15.191667,-26.991667],[15.183333,-27.0],[15.1875,-27.016667]]],[[[15.15,-26.625],[15.158333,-26.625],[15.158333,-26.608333],[15.15,-26.608333],[15.15,-26.625]]],[[[15.1625,-26.6],[15.1625,-26.5875],[15.154167,-26.5875],[15.15,-26.604167],[15.1625,-26.6]]],[[[15.120833,-26.495833],[15.120833,-26.4875],[15.1125,-26.491667],[15.120833,-26.495833]]],[[[14.958333,-26.35],[14.954167,-26.358333],[14.9625,-26.358333],[14.958333,-26.35]]]]}}
