{"type":"Feature","properties":{"mrgid":63826,"name":"Irgyz -Turgai","placeType":"Freshwater Ecoregion of the World (FEOW)","source":"MarineRegions:tnc_wwf_feow_hydrosheds"},"geometry":{"type":"Polygon","coordinates":[[[61.770833,47.775],[61.7625,47.754167],[61.75,47.745833],[61.766667,47.7375],[61.7625,47.7125],[61.783333,47.704167],[61.7875,47.666667],[61.804167,47.666667],[61.804167,47.65],[61.7875,47.645833],[61.8,47.629167],[61.791667,47.629167],[61.779167,47.6125],[61.8,47.595833],[61.8125,47.595833],[61.8125,47.5875],[61.825,47.5875],[61.829167,47.566667],[61.854167,47.566667],[61.8625,47.554167],[61.879167,47.554167],[61.895833,47.566667],[61.9,47.55],[61.916667,47.541667],[61.925,47.525],[61.958333,47.525],[61.95,47.508333],[61.925,47.504167],[61.925,47.483333],[61.954167,47.441667],[61.966667,47.441667],[61.970833,47.45],[62.0125,47.445833],[62.0125,47.454167],[62.054167,47.454167],[62.104167,47.4875],[62.191667,47.491667],[62.204167,47.483333],[62.2125,47.495833],[62.254167,47.491667],[62.291667,47.495833],[62.304167,47.504167],[62.325,47.5],[62.325,47.4875],[62.341667,47.483333],[62.341667,47.475],[62.366667,47.475],[62.379167,47.441667],[62.425,47.441667],[62.458333,47.425],[62.458333,47.408333],[62.470833,47.408333],[62.475,47.391667],[62.483333,47.391667],[62.475,47.370833],[62.491667,47.3625],[62.4875,47.345833],[62.475,47.341667],[62.479167,47.325],[62.491667,47.325],[62.504167,47.3125],[62.529167,47.3125],[62.525,47.291667],[62.55,47.283333],[62.558333,47.275],[62.558333,47.258333],[62.5875,47.2375],[62.583333,47.208333],[62.595833,47.2],[62.620833,47.2],[62.633333,47.208333],[62.658333,47.241667],[62.679167,47.254167],[62.6875,47.275],[62.7125,47.283333],[62.7125,47.291667],[62.729167,47.3],[62.7375,47.316667],[62.825,47.370833],[62.825,47.379167],[62.833333,47.379167],[62.833333,47.395833],[62.870833,47.416667],[62.875,47.454167],[62.904167,47.45],[62.904167,47.4625],[62.916667,47.4625],[62.929167,47.475],[62.975,47.475],[63.008333,47.4875],[63.0125,47.5125],[63.029167,47.516667],[63.020833,47.545833],[63.029167,47.558333],[63.1375,47.570833],[63.145833,47.583333],[63.129167,47.591667],[63.129167,47.6125],[63.145833,47.620833],[63.145833,47.633333],[63.175,47.641667],[63.220833,47.641667],[63.233333,47.645833],[63.2375,47.658333],[63.270833,47.658333],[63.283333,47.65],[63.304167,47.666667],[63.345833,47.670833],[63.366667,47.6875],[63.366667,47.695833],[63.395833,47.691667],[63.395833,47.708333],[63.4125,47.708333],[63.4125,47.691667],[63.425,47.7],[63.4375,47.7],[63.45,47.6875],[63.479167,47.695833],[63.516667,47.670833],[63.533333,47.670833],[63.566667,47.7],[63.608333,47.7125],[63.616667,47.733333],[63.633333,47.733333],[63.641667,47.745833],[63.679167,47.745833],[63.683333,47.7625],[63.720833,47.7625],[63.725,47.770833],[63.741667,47.766667],[63.75,47.779167],[63.779167,47.766667],[63.820833,47.775],[63.845833,47.766667],[63.866667,47.770833],[63.866667,47.758333],[63.9,47.7625],[63.904167,47.754167],[63.916667,47.758333],[63.920833,47.770833],[63.945833,47.770833],[63.95,47.758333],[63.958333,47.758333],[63.9625,47.733333],[63.983333,47.720833],[63.983333,47.65],[64.0,47.65],[63.991667,47.608333],[64.008333,47.6],[64.008333,47.583333],[64.020833,47.583333],[64.054167,47.554167],[64.079167,47.554167],[64.079167,47.545833],[64.095833,47.5375],[64.083333,47.508333],[64.1,47.5125],[64.1,47.504167],[64.116667,47.504167],[64.116667,47.466667],[64.129167,47.4625],[64.129167,47.445833],[64.15,47.441667],[64.154167,47.433333],[64.154167,47.416667],[64.145833,47.4125],[64.166667,47.404167],[64.166667,47.391667],[64.195833,47.383333],[64.183333,47.354167],[64.166667,47.366667],[64.158333,47.345833],[64.129167,47.329167],[64.141667,47.283333],[64.166667,47.291667],[64.175,47.275],[64.195833,47.275],[64.204167,47.266667],[64.225,47.266667],[64.225,47.275],[64.2375,47.275],[64.2375,47.291667],[64.254167,47.3],[64.258333,47.320833],[64.275,47.341667],[64.275,47.366667],[64.2625,47.3625],[64.2625,47.408333],[64.279167,47.416667],[64.279167,47.433333],[64.295833,47.445833],[64.320833,47.4375],[64.325,47.454167],[64.341667,47.454167],[64.358333,47.4375],[64.425,47.4375],[64.445833,47.445833],[64.445833,47.433333],[64.4625,47.4375],[64.466667,47.429167],[64.4875,47.429167],[64.520833,47.383333],[64.566667,47.370833],[64.566667,47.358333],[64.579167,47.358333],[64.579167,47.375],[64.6,47.375],[64.6125,47.366667],[64.670833,47.366667],[64.679167,47.358333],[64.716667,47.354167],[64.725,47.345833],[64.729167,47.316667],[64.758333,47.316667],[64.7625,47.304167],[64.8,47.304167],[64.820833,47.295833],[64.820833,47.2875],[64.841667,47.291667],[64.85,47.283333],[64.8875,47.2875],[64.941667,47.279167],[64.95,47.266667],[64.991667,47.2625],[65.008333,47.245833],[64.995833,47.220833],[65.0125,47.216667],[65.016667,47.204167],[65.025,47.204167],[65.025,47.195833],[65.054167,47.170833],[65.054167,47.108333],[65.075,47.1],[65.083333,47.070833],[65.075,47.045833],[65.104167,47.045833],[65.104167,47.033333],[65.116667,47.033333],[65.120833,47.025],[65.120833,47.008333],[65.175,46.995833],[65.195833,46.975],[65.204167,46.983333],[65.245833,46.979167],[65.25,46.966667],[65.2625,46.9625],[65.266667,46.929167],[65.341667,46.916667],[65.3625,46.870833],[65.379167,46.8625],[65.379167,46.8375],[65.3875,46.8375],[65.4,46.820833],[65.395833,46.8],[65.404167,46.791667],[65.420833,46.795833],[65.420833,46.7875],[65.433333,46.7875],[65.45,46.766667],[65.466667,46.766667],[65.466667,46.741667],[65.4875,46.741667],[65.5,46.733333],[65.570833,46.745833],[65.591667,46.758333],[65.6,46.775],[65.641667,46.766667],[65.641667,46.775],[65.675,46.779167],[65.7125,46.770833],[65.725,46.75],[65.741667,46.741667],[65.75,46.754167],[65.7625,46.754167],[65.775,46.766667],[65.775,46.783333],[65.85,46.808333],[65.854167,46.816667],[65.895833,46.820833],[65.904167,46.841667],[66.016667,46.858333],[66.045833,46.866667],[66.058333,46.879167],[66.125,46.891667],[66.133333,46.9],[66.145833,46.895833],[66.158333,46.904167],[66.195833,46.9],[66.208333,46.908333],[66.220833,46.875],[66.245833,46.879167],[66.25,46.870833],[66.308333,46.858333],[66.345833,46.866667],[66.358333,46.883333],[66.395833,46.875],[66.425,46.858333],[66.466667,46.858333],[66.470833,46.870833],[66.479167,46.8625],[66.504167,46.8625],[66.525,46.883333],[66.566667,46.879167],[66.591667,46.891667],[66.6125,46.883333],[66.620833,46.891667],[66.641667,46.891667],[66.666667,46.879167],[66.670833,46.8875],[66.6875,46.8875],[66.704167,46.904167],[66.716667,46.904167],[66.720833,46.916667],[66.741667,46.916667],[66.75,46.925],[66.770833,46.925],[66.770833,46.9125],[66.8125,46.908333],[66.833333,46.891667],[66.883333,46.8875],[66.9,46.916667],[66.916667,46.920833],[66.920833,46.95],[66.933333,46.954167],[66.933333,46.9625],[66.9875,46.966667],[67.025,46.991667],[67.029167,46.983333],[67.05,46.983333],[67.05,46.975],[67.066667,46.979167],[67.070833,46.9875],[67.0875,46.9875],[67.1,47.004167],[67.1125,47.004167],[67.116667,47.045833],[67.133333,47.05],[67.141667,47.108333],[67.166667,47.125],[67.166667,47.1375],[67.183333,47.15],[67.183333,47.158333],[67.208333,47.175],[67.2,47.191667],[67.229167,47.195833],[67.241667,47.225],[67.254167,47.220833],[67.254167,47.241667],[67.270833,47.2625],[67.329167,47.291667],[67.345833,47.325],[67.370833,47.333333],[67.370833,47.341667],[67.4375,47.358333],[67.445833,47.370833],[67.4625,47.370833],[67.466667,47.379167],[67.483333,47.383333],[67.479167,47.4],[67.5,47.416667],[67.4875,47.429167],[67.4875,47.454167],[67.454167,47.458333],[67.45,47.479167],[67.433333,47.4875],[67.4625,47.520833],[67.4375,47.579167],[67.425,47.591667],[67.391667,47.591667],[67.3875,47.6],[67.370833,47.6],[67.3625,47.5875],[67.3375,47.5875],[67.333333,47.595833],[67.316667,47.6],[67.3125,47.625],[67.320833,47.65],[67.3375,47.666667],[67.366667,47.6625],[67.366667,47.670833],[67.345833,47.683333],[67.345833,47.695833],[67.333333,47.704167],[67.308333,47.6875],[67.283333,47.683333],[67.266667,47.729167],[67.25,47.729167],[67.233333,47.75],[67.2125,47.745833],[67.191667,47.775],[67.166667,47.775],[67.1625,47.791667],[67.15,47.8],[67.154167,47.8375],[67.1375,47.85],[67.1375,47.858333],[67.125,47.858333],[67.120833,47.879167],[67.066667,47.8875],[67.05,47.875],[67.025,47.904167],[66.983333,47.920833],[66.966667,47.941667],[66.941667,47.954167],[66.9125,47.958333],[66.908333,47.95],[66.866667,47.945833],[66.858333,47.9625],[66.845833,47.9625],[66.841667,47.970833],[66.820833,47.958333],[66.804167,47.958333],[66.770833,47.933333],[66.725,47.925],[66.679167,47.929167],[66.675,47.920833],[66.658333,47.920833],[66.654167,47.929167],[66.633333,47.929167],[66.620833,47.945833],[66.591667,47.945833],[66.591667,47.954167],[66.570833,47.966667],[66.566667,47.979167],[66.55,47.983333],[66.545833,47.995833],[66.545833,48.0125],[66.554167,48.0125],[66.5625,48.025],[66.558333,48.0375],[66.570833,48.045833],[66.570833,48.058333],[66.595833,48.0875],[66.591667,48.1],[66.570833,48.1],[66.558333,48.108333],[66.558333,48.133333],[66.633333,48.133333],[66.65,48.158333],[66.6625,48.158333],[66.670833,48.175],[66.683333,48.175],[66.691667,48.1875],[66.6875,48.208333],[66.6625,48.220833],[66.65,48.241667],[66.6375,48.245833],[66.65,48.258333],[66.65,48.279167],[66.679167,48.283333],[66.679167,48.3125],[66.6875,48.320833],[66.708333,48.320833],[66.704167,48.333333],[66.716667,48.345833],[66.729167,48.345833],[66.7375,48.358333],[66.741667,48.35],[66.7625,48.354167],[66.766667,48.366667],[66.791667,48.375],[66.7875,48.3875],[66.795833,48.3875],[66.791667,48.404167],[66.8,48.408333],[66.8,48.425],[66.791667,48.445833],[66.816667,48.45],[66.816667,48.479167],[66.825,48.495833],[66.879167,48.491667],[66.916667,48.520833],[66.916667,48.5375],[66.945833,48.541667],[66.958333,48.558333],[66.966667,48.591667],[66.95,48.604167],[66.958333,48.641667],[66.95,48.645833],[66.95,48.6625],[66.966667,48.670833],[66.970833,48.658333],[67.016667,48.6625],[67.045833,48.654167],[67.058333,48.670833],[67.058333,48.691667],[67.070833,48.704167],[67.104167,48.708333],[67.108333,48.720833],[67.1375,48.729167],[67.1375,48.7375],[67.120833,48.75],[67.070833,48.766667],[67.0625,48.791667],[67.045833,48.795833],[67.041667,48.808333],[67.108333,48.820833],[67.116667,48.841667],[67.133333,48.854167],[67.1625,48.85],[67.1625,48.8375],[67.170833,48.833333],[67.204167,48.833333],[67.229167,48.841667],[67.233333,48.85],[67.291667,48.8625],[67.283333,48.883333],[67.270833,48.8875],[67.270833,48.9125],[67.25,48.929167],[67.258333,48.945833],[67.270833,48.945833],[67.270833,48.966667],[67.254167,48.975],[67.245833,48.995833],[67.25,49.025],[67.233333,49.029167],[67.225,49.041667],[67.229167,49.0625],[67.208333,49.095833],[67.216667,49.108333],[67.216667,49.1375],[67.195833,49.1375],[67.1875,49.1625],[67.166667,49.170833],[67.175,49.195833],[67.183333,49.195833],[67.183333,49.225],[67.1625,49.241667],[67.183333,49.241667],[67.208333,49.275],[67.25,49.279167],[67.25,49.291667],[67.2375,49.295833],[67.2375,49.304167],[67.220833,49.304167],[67.220833,49.3375],[67.245833,49.3625],[67.275,49.370833],[67.279167,49.4],[67.320833,49.408333],[67.329167,49.416667],[67.3375,49.4375],[67.3,49.470833],[67.3125,49.529167],[67.3,49.5375],[67.270833,49.5375],[67.254167,49.55],[67.254167,49.558333],[67.233333,49.5625],[67.229167,49.570833],[67.245833,49.6],[67.233333,49.604167],[67.225,49.633333],[67.191667,49.6375],[67.175,49.6625],[67.154167,49.6625],[67.129167,49.658333],[67.125,49.645833],[67.104167,49.65],[67.091667,49.633333],[67.095833,49.625],[67.0875,49.595833],[67.058333,49.5875],[67.029167,49.554167],[67.004167,49.55],[66.975,49.495833],[66.9375,49.4875],[66.891667,49.5125],[66.904167,49.545833],[66.866667,49.558333],[66.858333,49.579167],[66.870833,49.591667],[66.870833,49.6125],[66.8625,49.625],[66.825,49.633333],[66.820833,49.641667],[66.770833,49.6375],[66.770833,49.65],[66.758333,49.654167],[66.758333,49.691667],[66.766667,49.695833],[66.7625,49.733333],[66.770833,49.741667],[66.804167,49.741667],[66.808333,49.758333],[66.8375,49.754167],[66.841667,49.766667],[66.866667,49.766667],[66.870833,49.754167],[66.920833,49.7625],[66.933333,49.795833],[66.954167,49.8],[66.954167,49.808333],[66.970833,49.820833],[66.979167,49.8125],[66.995833,49.816667],[67.008333,49.854167],[66.9875,49.879167],[67.020833,49.904167],[67.016667,49.929167],[67.0375,49.933333],[67.0375,49.979167],[67.05,49.991667],[67.05,50.025],[67.0375,50.033333],[67.025,50.058333],[67.0875,50.079167],[67.083333,50.0875],[67.108333,50.108333],[67.125,50.141667],[67.145833,50.145833],[67.145833,50.154167],[67.133333,50.158333],[67.129167,50.175],[67.120833,50.179167],[67.120833,50.195833],[67.095833,50.208333],[67.095833,50.2625],[67.079167,50.275],[67.045833,50.2875],[67.0125,50.283333],[66.9375,50.3125],[66.904167,50.308333],[66.891667,50.316667],[66.904167,50.3375],[66.929167,50.345833],[66.925,50.370833],[66.9125,50.379167],[66.9125,50.408333],[66.904167,50.416667],[66.9125,50.458333],[66.9625,50.491667],[66.966667,50.504167],[67.0,50.5125],[67.008333,50.525],[67.05,50.545833],[67.008333,50.591667],[66.991667,50.591667],[66.9875,50.6],[66.95,50.6],[66.941667,50.6125],[66.9125,50.6125],[66.883333,50.629167],[66.858333,50.629167],[66.85,50.616667],[66.795833,50.6125],[66.7875,50.620833],[66.791667,50.641667],[66.783333,50.645833],[66.775,50.6375],[66.725,50.629167],[66.708333,50.616667],[66.583333,50.6],[66.541667,50.654167],[66.495833,50.654167],[66.4875,50.670833],[66.475,50.670833],[66.466667,50.683333],[66.445833,50.683333],[66.429167,50.704167],[66.45,50.741667],[66.4625,50.75],[66.466667,50.766667],[66.483333,50.779167],[66.483333,50.791667],[66.491667,50.791667],[66.5,50.8125],[66.5125,50.820833],[66.516667,50.833333],[66.504167,50.845833],[66.408333,50.866667],[66.295833,50.858333],[66.283333,50.866667],[66.25,50.866667],[66.245833,50.875],[66.225,50.875],[66.2125,50.883333],[66.154167,50.879167],[66.141667,50.895833],[66.0875,50.9],[66.058333,50.883333],[66.004167,50.891667],[65.975,50.875],[65.954167,50.875],[65.945833,50.9],[65.958333,50.908333],[65.954167,50.925],[65.945833,50.929167],[65.945833,50.975],[65.954167,50.9875],[65.954167,51.008333],[65.995833,51.045833],[65.983333,51.095833],[65.966667,51.104167],[65.970833,51.125],[65.954167,51.125],[65.945833,51.15],[65.908333,51.154167],[65.9,51.166667],[65.841667,51.170833],[65.833333,51.1625],[65.808333,51.166667],[65.7875,51.158333],[65.770833,51.175],[65.7875,51.258333],[65.804167,51.283333],[65.8,51.320833],[65.791667,51.320833],[65.775,51.345833],[65.754167,51.345833],[65.729167,51.358333],[65.675,51.354167],[65.666667,51.345833],[65.616667,51.35],[65.6,51.3875],[65.5,51.404167],[65.479167,51.429167],[65.458333,51.4375],[65.466667,51.458333],[65.533333,51.525],[65.541667,51.558333],[65.533333,51.579167],[65.545833,51.579167],[65.558333,51.633333],[65.55,51.65],[65.529167,51.658333],[65.516667,51.658333],[65.516667,51.65],[65.495833,51.65],[65.4875,51.658333],[65.441667,51.658333],[65.429167,51.670833],[65.420833,51.670833],[65.416667,51.658333],[65.3875,51.654167],[65.383333,51.645833],[65.358333,51.645833],[65.354167,51.6375],[65.341667,51.6375],[65.341667,51.629167],[65.316667,51.629167],[65.3125,51.641667],[65.295833,51.6375],[65.291667,51.625],[65.270833,51.616667],[65.2625,51.604167],[65.258333,51.6125],[65.245833,51.6125],[65.225,51.575],[65.170833,51.566667],[65.1625,51.545833],[65.120833,51.5375],[65.116667,51.520833],[65.1,51.508333],[65.058333,51.5125],[65.045833,51.5375],[65.008333,51.558333],[64.958333,51.558333],[64.895833,51.504167],[64.883333,51.475],[64.870833,51.475],[64.8625,51.483333],[64.841667,51.479167],[64.829167,51.491667],[64.804167,51.4875],[64.791667,51.504167],[64.7375,51.495833],[64.695833,51.5],[64.695833,51.516667],[64.6625,51.55],[64.645833,51.554167],[64.566667,51.5375],[64.520833,51.55],[64.504167,51.525],[64.479167,51.525],[64.479167,51.533333],[64.4625,51.541667],[64.45,51.541667],[64.445833,51.533333],[64.408333,51.5375],[64.391667,51.525],[64.391667,51.504167],[64.3625,51.491667],[64.358333,51.4625],[64.304167,51.458333],[64.3,51.45],[64.283333,51.445833],[64.216667,51.441667],[64.204167,51.445833],[64.204167,51.458333],[64.179167,51.458333],[64.1,51.4375],[64.058333,51.4625],[63.9875,51.4625],[63.958333,51.441667],[63.929167,51.445833],[63.8875,51.429167],[63.866667,51.391667],[63.816667,51.4],[63.8,51.391667],[63.741667,51.3875],[63.733333,51.391667],[63.733333,51.404167],[63.695833,51.408333],[63.679167,51.45],[63.654167,51.445833],[63.654167,51.4625],[63.6625,51.470833],[63.683333,51.470833],[63.7125,51.483333],[63.708333,51.5],[63.691667,51.495833],[63.683333,51.5],[63.683333,51.5125],[63.6625,51.5125],[63.65,51.5375],[63.633333,51.525],[63.6,51.5375],[63.545833,51.529167],[63.525,51.55],[63.491667,51.554167],[63.491667,51.566667],[63.5125,51.570833],[63.516667,51.579167],[63.508333,51.620833],[63.529167,51.633333],[63.554167,51.666667],[63.475,51.679167],[63.479167,51.720833],[63.4625,51.733333],[63.466667,51.745833],[63.458333,51.7625],[63.375,51.7625],[63.375,51.741667],[63.35,51.741667],[63.325,51.720833],[63.3,51.716667],[63.295833,51.695833],[63.275,51.704167],[63.266667,51.6875],[63.245833,51.679167],[63.241667,51.65],[63.233333,51.654167],[63.2,51.641667],[63.1625,51.654167],[63.154167,51.6375],[63.129167,51.6375],[63.095833,51.625],[63.091667,51.608333],[63.075,51.6],[63.070833,51.579167],[63.025,51.570833],[63.025,51.5625],[63.008333,51.579167],[62.970833,51.579167],[62.954167,51.5625],[62.929167,51.570833],[62.883333,51.554167],[62.879167,51.545833],[62.816667,51.545833],[62.8125,51.5375],[62.8,51.5375],[62.791667,51.520833],[62.775,51.5375],[62.745833,51.525],[62.6875,51.533333],[62.679167,51.525],[62.6625,51.525],[62.6625,51.541667],[62.654167,51.55],[62.620833,51.558333],[62.595833,51.558333],[62.595833,51.541667],[62.566667,51.541667],[62.558333,51.55],[62.508333,51.545833],[62.5,51.570833],[62.458333,51.579167],[62.454167,51.595833],[62.4125,51.591667],[62.3875,51.608333],[62.341667,51.6],[62.3125,51.608333],[62.304167,51.625],[62.275,51.629167],[62.275,51.65],[62.2625,51.65],[62.241667,51.691667],[62.225,51.691667],[62.225,51.683333],[62.179167,51.6875],[62.154167,51.670833],[62.133333,51.675],[62.095833,51.666667],[62.095833,51.675],[62.070833,51.670833],[62.058333,51.679167],[62.016667,51.670833],[62.0125,51.679167],[62.0,51.679167],[61.991667,51.666667],[61.983333,51.666667],[61.983333,51.6875],[61.9375,51.670833],[61.933333,51.679167],[61.920833,51.679167],[61.916667,51.695833],[61.908333,51.695833],[61.8875,51.6875],[61.8875,51.670833],[61.891667,51.658333],[61.916667,51.654167],[61.925,51.6],[61.908333,51.591667],[61.8875,51.545833],[61.858333,51.541667],[61.854167,51.525],[61.808333,51.525],[61.795833,51.508333],[61.7625,51.508333],[61.741667,51.491667],[61.729167,51.491667],[61.729167,51.483333],[61.7125,51.495833],[61.708333,51.483333],[61.679167,51.479167],[61.679167,51.458333],[61.666667,51.445833],[61.670833,51.416667],[61.645833,51.404167],[61.645833,51.391667],[61.6375,51.391667],[61.633333,51.375],[61.616667,51.358333],[61.6,51.358333],[61.5875,51.3375],[61.558333,51.333333],[61.5375,51.316667],[61.470833,51.320833],[61.458333,51.3125],[61.4375,51.3125],[61.429167,51.270833],[61.3875,51.25],[61.370833,51.216667],[61.3125,51.204167],[61.304167,51.1875],[61.270833,51.191667],[61.2375,51.166667],[61.2125,51.179167],[61.2,51.170833],[61.170833,51.170833],[61.170833,51.183333],[61.158333,51.191667],[61.108333,51.1875],[61.104167,51.216667],[61.083333,51.216667],[61.079167,51.241667],[61.066667,51.241667],[61.0625,51.258333],[61.004167,51.233333],[60.991667,51.233333],[60.979167,51.245833],[60.916667,51.241667],[60.854167,51.258333],[60.754167,51.241667],[60.7375,51.245833],[60.7375,51.254167],[60.725,51.2625],[60.683333,51.2625],[60.666667,51.25],[60.629167,51.25],[60.625,51.241667],[60.591667,51.245833],[60.575,51.208333],[60.520833,51.195833],[60.516667,51.170833],[60.529167,51.1625],[60.529167,51.141667],[60.520833,51.125],[60.541667,51.116667],[60.5375,51.091667],[60.508333,51.079167],[60.454167,51.075],[60.429167,51.054167],[60.3875,51.058333],[60.375,51.054167],[60.370833,51.041667],[60.333333,51.0375],[60.316667,51.020833],[60.2875,51.016667],[60.2875,50.995833],[60.245833,50.966667],[60.2625,50.933333],[60.275,50.929167],[60.270833,50.891667],[60.233333,50.8625],[60.216667,50.8625],[60.204167,50.833333],[60.170833,50.820833],[60.158333,50.804167],[60.141667,50.8125],[60.104167,50.8125],[60.091667,50.795833],[60.091667,50.779167],[60.083333,50.775],[60.083333,50.75],[60.0625,50.733333],[60.0375,50.733333],[60.025,50.691667],[60.004167,50.691667],[60.004167,50.675],[59.995833,50.666667],[59.95,50.6625],[59.925,50.645833],[59.925,50.6375],[59.9125,50.6375],[59.9125,50.629167],[59.883333,50.633333],[59.870833,50.604167],[59.841667,50.591667],[59.820833,50.591667],[59.8,50.5625],[59.7625,50.566667],[59.7625,50.558333],[59.745833,50.554167],[59.716667,50.558333],[59.675,50.529167],[59.679167,50.5125],[59.65,50.508333],[59.641667,50.491667],[59.633333,50.495833],[59.629167,50.483333],[59.608333,50.479167],[59.591667,50.45],[59.4875,50.458333],[59.483333,50.45],[59.454167,50.445833],[59.4375,50.45],[59.429167,50.4625],[59.404167,50.458333],[59.4,50.466667],[59.3875,50.466667],[59.375,50.458333],[59.366667,50.470833],[59.358333,50.470833],[59.35,50.45],[59.304167,50.425],[59.304167,50.408333],[59.295833,50.408333],[59.2875,50.391667],[59.304167,50.383333],[59.304167,50.375],[59.325,50.375],[59.333333,50.366667],[59.3375,50.325],[59.345833,50.320833],[59.341667,50.308333],[59.3875,50.3],[59.3875,50.291667],[59.375,50.2875],[59.375,50.275],[59.354167,50.266667],[59.3625,50.216667],[59.35,50.195833],[59.35,50.175],[59.358333,50.15],[59.3875,50.129167],[59.3875,50.083333],[59.395833,50.070833],[59.404167,50.070833],[59.4,50.058333],[59.35,50.05],[59.341667,50.041667],[59.341667,50.025],[59.333333,50.025],[59.341667,49.970833],[59.333333,49.966667],[59.3375,49.920833],[59.325,49.904167],[59.325,49.879167],[59.333333,49.866667],[59.325,49.8625],[59.325,49.8125],[59.295833,49.791667],[59.2625,49.7875],[59.25,49.795833],[59.233333,49.770833],[59.15,49.770833],[59.158333,49.745833],[59.1375,49.733333],[59.120833,49.6875],[59.108333,49.675],[59.091667,49.675],[59.079167,49.6625],[59.045833,49.654167],[59.045833,49.633333],[59.033333,49.625],[59.0375,49.5875],[59.025,49.583333],[59.020833,49.566667],[59.008333,49.5625],[59.004167,49.55],[58.966667,49.55],[58.958333,49.558333],[58.929167,49.554167],[58.920833,49.525],[58.929167,49.525],[58.929167,49.5125],[58.941667,49.504167],[58.9375,49.483333],[58.95,49.475],[58.95,49.458333],[58.958333,49.45],[58.954167,49.425],[58.929167,49.425],[58.9125,49.408333],[58.891667,49.408333],[58.891667,49.3875],[58.883333,49.3875],[58.875,49.366667],[58.845833,49.345833],[58.816667,49.3375],[58.754167,49.3375],[58.754167,49.345833],[58.741667,49.345833],[58.741667,49.329167],[58.758333,49.325],[58.7625,49.304167],[58.754167,49.304167],[58.75,49.275],[58.7375,49.275],[58.716667,49.258333],[58.733333,49.25],[58.733333,49.229167],[58.720833,49.225],[58.720833,49.2125],[58.725,49.2],[58.7375,49.2],[58.733333,49.179167],[58.741667,49.175],[58.741667,49.145833],[58.725,49.1125],[58.708333,49.108333],[58.708333,49.0875],[58.720833,49.079167],[58.75,49.079167],[58.75,49.070833],[58.779167,49.058333],[58.8,49.058333],[58.8,49.029167],[58.820833,49.016667],[58.808333,48.9875],[58.820833,48.945833],[58.816667,48.933333],[58.8,48.925],[58.795833,48.908333],[58.7875,48.908333],[58.783333,48.875],[58.745833,48.875],[58.745833,48.85],[58.733333,48.841667],[58.729167,48.816667],[58.7375,48.8125],[58.7375,48.791667],[58.745833,48.7875],[58.745833,48.758333],[58.683333,48.75],[58.675,48.741667],[58.608333,48.745833],[58.604167,48.729167],[58.558333,48.720833],[58.554167,48.679167],[58.5625,48.675],[58.5625,48.654167],[58.558333,48.641667],[58.541667,48.633333],[58.541667,48.620833],[58.529167,48.616667],[58.529167,48.604167],[58.566667,48.591667],[58.575,48.579167],[58.620833,48.579167],[58.641667,48.570833],[58.658333,48.55],[58.679167,48.545833],[58.683333,48.5375],[58.7125,48.5375],[58.729167,48.520833],[58.7625,48.5125],[58.770833,48.5],[58.8125,48.504167],[58.825,48.4875],[58.879167,48.483333],[58.883333,48.475],[58.908333,48.466667],[58.908333,48.454167],[58.941667,48.429167],[58.945833,48.416667],[58.979167,48.416667],[58.991667,48.404167],[59.0,48.408333],[59.016667,48.4],[59.05,48.408333],[59.133333,48.404167],[59.133333,48.395833],[59.141667,48.395833],[59.141667,48.404167],[59.158333,48.4125],[59.175,48.395833],[59.191667,48.395833],[59.204167,48.404167],[59.204167,48.420833],[59.216667,48.425],[59.233333,48.420833],[59.241667,48.4],[59.2625,48.4],[59.2875,48.429167],[59.320833,48.4375],[59.325,48.445833],[59.345833,48.4375],[59.370833,48.441667],[59.383333,48.454167],[59.383333,48.470833],[59.395833,48.479167],[59.408333,48.479167],[59.425,48.4625],[59.4375,48.466667],[59.445833,48.454167],[59.445833,48.433333],[59.4875,48.441667],[59.491667,48.433333],[59.504167,48.433333],[59.504167,48.441667],[59.554167,48.458333],[59.595833,48.495833],[59.629167,48.491667],[59.6375,48.504167],[59.645833,48.5],[59.679167,48.5375],[59.7125,48.545833],[59.725,48.5375],[59.75,48.566667],[59.758333,48.566667],[59.7625,48.583333],[59.7875,48.554167],[59.804167,48.558333],[59.808333,48.545833],[59.829167,48.545833],[59.8875,48.566667],[59.891667,48.55],[59.920833,48.529167],[59.925,48.516667],[59.9625,48.516667],[59.9625,48.491667],[59.970833,48.491667],[59.970833,48.475],[59.983333,48.466667],[59.979167,48.45],[59.991667,48.4375],[59.9875,48.420833],[60.004167,48.416667],[60.008333,48.408333],[60.054167,48.4],[60.054167,48.383333],[60.0375,48.370833],[60.029167,48.345833],[60.016667,48.345833],[60.004167,48.333333],[59.991667,48.3],[59.995833,48.291667],[59.9875,48.291667],[59.983333,48.270833],[59.995833,48.2625],[60.029167,48.2625],[60.05,48.270833],[60.054167,48.2625],[60.120833,48.258333],[60.125,48.225],[60.116667,48.220833],[60.104167,48.175],[60.083333,48.158333],[60.083333,48.141667],[60.0375,48.1375],[60.008333,48.120833],[59.9875,48.120833],[59.970833,48.095833],[59.958333,48.095833],[59.945833,48.083333],[59.9375,48.058333],[59.941667,48.033333],[59.916667,48.020833],[59.9125,48.008333],[59.895833,48.004167],[59.904167,47.970833],[59.870833,47.95],[59.845833,47.945833],[59.845833,47.933333],[59.866667,47.916667],[59.854167,47.908333],[59.845833,47.883333],[59.795833,47.883333],[59.795833,47.866667],[59.7875,47.8625],[59.795833,47.8375],[59.808333,47.829167],[59.775,47.825],[59.758333,47.808333],[59.7625,47.795833],[59.754167,47.791667],[59.754167,47.775],[59.741667,47.766667],[59.75,47.7625],[59.754167,47.745833],[59.75,47.725],[59.795833,47.725],[59.804167,47.720833],[59.804167,47.708333],[59.816667,47.708333],[59.816667,47.6875],[59.8,47.666667],[59.816667,47.666667],[59.825,47.658333],[59.825,47.641667],[59.845833,47.6125],[59.841667,47.591667],[59.85,47.579167],[59.8875,47.575],[59.9,47.5875],[59.920833,47.5875],[59.925,47.6],[59.9375,47.6],[59.941667,47.608333],[59.9625,47.608333],[59.9625,47.591667],[59.975,47.5875],[59.966667,47.566667],[60.020833,47.5625],[60.029167,47.554167],[60.016667,47.529167],[59.991667,47.508333],[59.966667,47.504167],[59.941667,47.483333],[59.916667,47.483333],[59.908333,47.4625],[59.895833,47.454167],[59.883333,47.458333],[59.8625,47.420833],[59.870833,47.408333],[59.85,47.395833],[59.8125,47.391667],[59.808333,47.383333],[59.825,47.366667],[59.833333,47.329167],[59.8625,47.329167],[59.875,47.308333],[59.933333,47.295833],[59.9375,47.254167],[59.9125,47.245833],[59.9125,47.233333],[59.966667,47.233333],[60.0125,47.216667],[60.029167,47.220833],[60.0375,47.2],[60.058333,47.195833],[60.070833,47.158333],[60.108333,47.158333],[60.141667,47.175],[60.191667,47.170833],[60.2375,47.145833],[60.233333,47.116667],[60.2375,47.104167],[60.25,47.104167],[60.254167,47.095833],[60.279167,47.095833],[60.283333,47.104167],[60.304167,47.108333],[60.325,47.1],[60.325,47.083333],[60.345833,47.079167],[60.3625,47.108333],[60.379167,47.1125],[60.375,47.1375],[60.391667,47.133333],[60.4,47.15],[60.420833,47.158333],[60.441667,47.158333],[60.454167,47.15],[60.466667,47.15],[60.470833,47.158333],[60.504167,47.15],[60.516667,47.154167],[60.520833,47.141667],[60.545833,47.141667],[60.570833,47.145833],[60.570833,47.1625],[60.608333,47.1625],[60.625,47.179167],[60.65,47.170833],[60.654167,47.158333],[60.670833,47.158333],[60.675,47.170833],[60.7,47.1875],[60.7375,47.191667],[60.745833,47.208333],[60.783333,47.208333],[60.783333,47.195833],[60.804167,47.195833],[60.825,47.208333],[60.825,47.220833],[60.833333,47.225],[60.883333,47.220833],[60.891667,47.229167],[60.920833,47.233333],[60.95,47.229167],[60.958333,47.2375],[60.954167,47.266667],[60.9625,47.266667],[60.966667,47.2875],[60.95,47.3],[60.920833,47.304167],[60.9125,47.333333],[60.895833,47.3375],[60.9,47.354167],[60.916667,47.358333],[60.920833,47.366667],[60.945833,47.366667],[60.954167,47.379167],[60.995833,47.3875],[61.0125,47.4],[61.020833,47.420833],[61.033333,47.429167],[61.033333,47.441667],[61.054167,47.445833],[61.058333,47.483333],[61.0875,47.4875],[61.095833,47.5],[61.120833,47.495833],[61.1375,47.508333],[61.1625,47.508333],[61.183333,47.533333],[61.183333,47.545833],[61.154167,47.570833],[61.079167,47.570833],[61.075,47.5625],[61.045833,47.554167],[61.025,47.570833],[61.008333,47.558333],[60.991667,47.558333],[60.991667,47.579167],[60.975,47.5875],[60.9875,47.616667],[60.983333,47.6375],[61.004167,47.645833],[61.0125,47.658333],[61.0125,47.679167],[61.025,47.675],[61.029167,47.6875],[61.066667,47.6875],[61.070833,47.708333],[61.079167,47.7125],[61.079167,47.733333],[61.129167,47.745833],[61.158333,47.775],[61.2,47.779167],[61.208333,47.770833],[61.233333,47.770833],[61.254167,47.754167],[61.291667,47.754167],[61.308333,47.779167],[61.333333,47.7875],[61.366667,47.825],[61.433333,47.820833],[61.441667,47.841667],[61.4375,47.8625],[61.466667,47.870833],[61.479167,47.833333],[61.5125,47.816667],[61.5125,47.783333],[61.529167,47.770833],[61.545833,47.775],[61.5625,47.804167],[61.583333,47.8125],[61.575,47.825],[61.583333,47.8375],[61.579167,47.858333],[61.604167,47.870833],[61.6,47.9],[61.608333,47.9],[61.608333,47.908333],[61.629167,47.916667],[61.645833,47.908333],[61.666667,47.925],[61.6625,47.9375],[61.7,47.941667],[61.704167,47.954167],[61.725,47.9625],[61.7375,47.9875],[61.75,47.9875],[61.754167,47.995833],[61.775,47.995833],[61.8,48.008333],[61.845833,48.008333],[61.875,47.9875],[61.870833,47.966667],[61.891667,47.966667],[61.895833,47.941667],[61.908333,47.925],[61.941667,47.920833],[61.941667,47.908333],[61.954167,47.9],[61.954167,47.883333],[61.9875,47.883333],[61.9875,47.870833],[61.954167,47.854167],[61.945833,47.8375],[61.904167,47.85],[61.8875,47.870833],[61.870833,47.858333],[61.854167,47.858333],[61.841667,47.8375],[61.829167,47.833333],[61.8375,47.808333],[61.829167,47.7875],[61.8,47.779167],[61.7875,47.7875],[61.783333,47.775],[61.770833,47.775]],[[59.816667,47.708333],[59.816667,47.7125],[59.820833,47.7125],[59.816667,47.708333]],[[59.820833,47.7125],[59.820833,47.716667],[59.825,47.716667],[59.820833,47.7125]],[[61.770833,47.766667],[61.775,47.766667],[61.775,47.7625],[61.770833,47.766667]]]}}
