{"type":"Feature","properties":{"mrgid":63892,"name":"Upper Lancang (Mekong)","placeType":"Freshwater Ecoregion of the World (FEOW)","source":"MarineRegions:tnc_wwf_feow_hydrosheds"},"geometry":{"type":"Polygon","coordinates":[[[99.529167,23.070833],[99.55,23.066667],[99.5625,23.05],[99.616667,23.0375],[99.620833,23.05],[99.645833,23.054167],[99.658333,23.070833],[99.691667,23.075],[99.6875,23.066667],[99.695833,23.041667],[99.708333,23.033333],[99.708333,23.020833],[99.729167,22.995833],[99.733333,22.966667],[99.7625,22.958333],[99.770833,22.941667],[99.783333,22.9375],[99.783333,22.920833],[99.804167,22.916667],[99.808333,22.908333],[99.833333,22.908333],[99.8375,22.920833],[99.8625,22.933333],[99.904167,22.933333],[99.904167,22.945833],[99.941667,22.941667],[99.95,22.933333],[99.954167,22.904167],[99.970833,22.8875],[99.970833,22.870833],[99.941667,22.85],[99.941667,22.825],[99.945833,22.804167],[99.966667,22.7875],[99.970833,22.770833],[99.979167,22.779167],[100.025,22.779167],[100.045833,22.745833],[100.0625,22.745833],[100.070833,22.7375],[100.083333,22.745833],[100.0875,22.770833],[100.095833,22.775],[100.095833,22.795833],[100.104167,22.8],[100.1125,22.783333],[100.145833,22.758333],[100.170833,22.758333],[100.179167,22.745833],[100.191667,22.745833],[100.225,22.75],[100.233333,22.758333],[100.245833,22.725],[100.254167,22.725],[100.2625,22.7125],[100.308333,22.716667],[100.308333,22.704167],[100.329167,22.708333],[100.366667,22.683333],[100.3875,22.6875],[100.4125,22.7125],[100.441667,22.708333],[100.45,22.720833],[100.5,22.708333],[100.495833,22.729167],[100.504167,22.729167],[100.504167,22.7375],[100.525,22.729167],[100.541667,22.733333],[100.545833,22.708333],[100.579167,22.708333],[100.591667,22.691667],[100.604167,22.691667],[100.6125,22.704167],[100.6375,22.708333],[100.6375,22.729167],[100.675,22.741667],[100.675,22.733333],[100.6875,22.725],[100.6875,22.704167],[100.7125,22.675],[100.716667,22.65],[100.7375,22.65],[100.741667,22.633333],[100.766667,22.633333],[100.779167,22.616667],[100.8125,22.616667],[100.820833,22.608333],[100.841667,22.620833],[100.858333,22.595833],[100.875,22.595833],[100.875,22.604167],[100.883333,22.604167],[100.870833,22.620833],[100.870833,22.6375],[100.879167,22.6375],[100.879167,22.645833],[100.904167,22.666667],[100.891667,22.675],[100.879167,22.708333],[100.891667,22.729167],[100.908333,22.733333],[100.904167,22.754167],[100.8875,22.779167],[100.870833,22.779167],[100.870833,22.804167],[100.8625,22.829167],[100.854167,22.833333],[100.854167,22.8625],[100.8625,22.866667],[100.8625,22.920833],[100.875,22.916667],[100.883333,22.925],[100.883333,22.95],[100.904167,22.958333],[100.908333,22.941667],[100.916667,22.9375],[100.916667,22.920833],[100.954167,22.929167],[100.983333,22.920833],[100.983333,22.895833],[100.995833,22.891667],[101.016667,22.858333],[101.058333,22.854167],[101.0625,22.870833],[101.070833,22.875],[101.066667,22.895833],[101.091667,22.8875],[101.095833,22.895833],[101.1125,22.895833],[101.116667,22.908333],[101.145833,22.904167],[101.166667,22.925],[101.179167,22.925],[101.183333,22.9375],[101.170833,22.945833],[101.170833,22.9625],[101.1875,22.966667],[101.175,23.0],[101.15,23.004167],[101.141667,23.016667],[101.158333,23.045833],[101.15,23.070833],[101.141667,23.075],[101.141667,23.091667],[101.129167,23.091667],[101.141667,23.108333],[101.1375,23.133333],[101.1125,23.1375],[101.116667,23.1625],[101.095833,23.191667],[101.1,23.229167],[101.091667,23.233333],[101.095833,23.266667],[101.0875,23.283333],[101.1125,23.295833],[101.116667,23.325],[101.104167,23.345833],[101.095833,23.345833],[101.095833,23.3625],[101.079167,23.370833],[101.079167,23.395833],[101.066667,23.408333],[101.066667,23.441667],[101.058333,23.445833],[101.045833,23.483333],[101.033333,23.4875],[101.033333,23.520833],[101.025,23.525],[101.0125,23.5625],[101.0125,23.575],[101.025,23.579167],[101.020833,23.6],[101.008333,23.608333],[101.008333,23.620833],[100.991667,23.625],[101.0,23.654167],[101.029167,23.679167],[101.0125,23.704167],[101.0125,23.733333],[101.020833,23.745833],[101.0125,23.745833],[100.995833,23.766667],[101.0125,23.8],[101.004167,23.829167],[101.016667,23.845833],[101.016667,23.866667],[101.0,23.879167],[100.979167,23.879167],[100.979167,23.891667],[100.954167,23.908333],[100.9625,23.920833],[100.9625,23.941667],[100.945833,23.954167],[100.95,23.995833],[100.945833,24.0125],[100.9375,24.016667],[100.941667,24.054167],[100.929167,24.070833],[100.9,24.070833],[100.9,24.1],[100.8875,24.108333],[100.8875,24.1625],[100.8625,24.166667],[100.866667,24.195833],[100.845833,24.229167],[100.829167,24.233333],[100.820833,24.25],[100.820833,24.283333],[100.791667,24.295833],[100.791667,24.325],[100.8,24.3375],[100.779167,24.354167],[100.733333,24.345833],[100.716667,24.370833],[100.691667,24.383333],[100.691667,24.4375],[100.679167,24.4375],[100.675,24.445833],[100.675,24.483333],[100.6625,24.495833],[100.6625,24.520833],[100.629167,24.533333],[100.633333,24.566667],[100.608333,24.5875],[100.608333,24.595833],[100.6,24.595833],[100.595833,24.625],[100.5875,24.625],[100.579167,24.641667],[100.558333,24.654167],[100.545833,24.6875],[100.5375,24.691667],[100.533333,24.716667],[100.5125,24.725],[100.5125,24.745833],[100.5,24.754167],[100.5,24.770833],[100.483333,24.779167],[100.483333,24.8],[100.45,24.808333],[100.445833,24.825],[100.420833,24.8375],[100.4,24.8375],[100.391667,24.858333],[100.379167,24.858333],[100.333333,24.9],[100.304167,24.908333],[100.291667,24.9625],[100.316667,24.966667],[100.329167,24.983333],[100.329167,25.0],[100.279167,25.0],[100.270833,25.016667],[100.220833,25.054167],[100.220833,25.079167],[100.204167,25.1],[100.208333,25.125],[100.195833,25.133333],[100.195833,25.141667],[100.233333,25.1375],[100.245833,25.166667],[100.233333,25.179167],[100.229167,25.204167],[100.216667,25.2125],[100.216667,25.241667],[100.195833,25.241667],[100.195833,25.25],[100.1875,25.25],[100.1875,25.266667],[100.204167,25.279167],[100.204167,25.295833],[100.1875,25.3],[100.183333,25.316667],[100.175,25.320833],[100.179167,25.354167],[100.15,25.3625],[100.141667,25.4125],[100.129167,25.408333],[100.129167,25.416667],[100.116667,25.425],[100.091667,25.425],[100.1,25.479167],[100.091667,25.4875],[100.045833,25.483333],[100.0375,25.491667],[99.979167,25.491667],[99.979167,25.504167],[99.966667,25.508333],[99.9625,25.529167],[99.95,25.541667],[99.95,25.575],[99.966667,25.6],[99.929167,25.608333],[99.925,25.6],[99.9125,25.6],[99.904167,25.608333],[99.904167,25.629167],[99.883333,25.641667],[99.866667,25.641667],[99.858333,25.675],[99.8375,25.675],[99.816667,25.6875],[99.8,25.720833],[99.783333,25.729167],[99.783333,25.75],[99.758333,25.766667],[99.7625,25.8125],[99.7375,25.816667],[99.729167,25.829167],[99.720833,25.829167],[99.708333,25.858333],[99.729167,25.866667],[99.7375,25.8875],[99.795833,25.9],[99.808333,25.9125],[99.804167,25.929167],[99.791667,25.929167],[99.7875,25.9375],[99.741667,25.929167],[99.729167,25.9375],[99.708333,25.9375],[99.6875,25.966667],[99.670833,25.970833],[99.666667,25.983333],[99.654167,25.983333],[99.65,26.004167],[99.633333,26.008333],[99.625,26.020833],[99.625,26.0625],[99.679167,26.070833],[99.695833,26.091667],[99.758333,26.091667],[99.754167,26.108333],[99.733333,26.116667],[99.729167,26.133333],[99.7125,26.133333],[99.695833,26.145833],[99.695833,26.1625],[99.7125,26.1625],[99.733333,26.175],[99.729167,26.2],[99.75,26.2125],[99.758333,26.266667],[99.75,26.270833],[99.754167,26.283333],[99.745833,26.304167],[99.7625,26.316667],[99.741667,26.4],[99.725,26.4125],[99.733333,26.420833],[99.733333,26.470833],[99.725,26.475],[99.729167,26.5125],[99.716667,26.525],[99.675,26.520833],[99.679167,26.541667],[99.670833,26.545833],[99.670833,26.570833],[99.6625,26.570833],[99.658333,26.583333],[99.704167,26.633333],[99.683333,26.670833],[99.641667,26.683333],[99.629167,26.7],[99.6,26.704167],[99.6,26.7375],[99.5875,26.741667],[99.5875,26.7625],[99.579167,26.770833],[99.583333,26.779167],[99.570833,26.795833],[99.579167,26.820833],[99.570833,26.841667],[99.575,26.870833],[99.5375,26.866667],[99.508333,26.945833],[99.495833,26.95],[99.491667,26.9875],[99.470833,27.008333],[99.470833,27.025],[99.4375,27.0375],[99.4375,27.054167],[99.404167,27.054167],[99.395833,27.0625],[99.4125,27.079167],[99.416667,27.108333],[99.445833,27.108333],[99.454167,27.116667],[99.454167,27.145833],[99.429167,27.154167],[99.425,27.179167],[99.408333,27.208333],[99.404167,27.195833],[99.3875,27.195833],[99.3875,27.1875],[99.370833,27.195833],[99.370833,27.208333],[99.341667,27.241667],[99.333333,27.275],[99.325,27.275],[99.2875,27.3375],[99.275,27.341667],[99.283333,27.370833],[99.270833,27.383333],[99.275,27.416667],[99.225,27.4375],[99.2375,27.445833],[99.2375,27.466667],[99.220833,27.470833],[99.2125,27.4625],[99.195833,27.4625],[99.195833,27.508333],[99.183333,27.529167],[99.195833,27.5375],[99.195833,27.570833],[99.179167,27.6],[99.179167,27.645833],[99.1875,27.654167],[99.170833,27.666667],[99.158333,27.654167],[99.145833,27.654167],[99.120833,27.675],[99.133333,27.7125],[99.125,27.754167],[99.1375,27.766667],[99.1375,27.783333],[99.120833,27.795833],[99.129167,27.845833],[99.1375,27.85],[99.133333,27.883333],[99.116667,27.9],[99.095833,27.9],[99.0875,27.908333],[99.083333,27.95],[99.075,27.9625],[99.05,27.970833],[99.045833,27.983333],[99.020833,27.9875],[99.020833,28.0],[99.0125,28.004167],[99.008333,28.041667],[99.020833,28.045833],[99.016667,28.0625],[99.029167,28.070833],[99.033333,28.0875],[99.045833,28.091667],[99.054167,28.1375],[99.0125,28.145833],[99.008333,28.175],[99.0,28.175],[99.0,28.1875],[98.983333,28.191667],[98.975,28.204167],[98.975,28.329167],[98.958333,28.333333],[98.958333,28.354167],[98.975,28.366667],[99.0,28.370833],[99.016667,28.395833],[99.033333,28.391667],[99.041667,28.420833],[99.020833,28.4375],[99.0125,28.458333],[99.016667,28.475],[98.975,28.491667],[98.9875,28.5125],[98.9875,28.545833],[98.979167,28.55],[98.9875,28.5875],[98.979167,28.658333],[98.9875,28.683333],[98.970833,28.7],[98.970833,28.729167],[98.979167,28.741667],[98.958333,28.75],[98.958333,28.804167],[98.95,28.816667],[98.929167,28.825],[98.9125,28.804167],[98.866667,28.8125],[98.8625,28.804167],[98.845833,28.804167],[98.841667,28.816667],[98.829167,28.820833],[98.8125,28.958333],[98.7875,28.9875],[98.7875,29.0],[98.758333,29.008333],[98.754167,29.025],[98.733333,29.0375],[98.729167,29.075],[98.716667,29.091667],[98.733333,29.104167],[98.7375,29.129167],[98.729167,29.133333],[98.725,29.15],[98.729167,29.1875],[98.7125,29.191667],[98.7,29.208333],[98.7125,29.254167],[98.670833,29.266667],[98.654167,29.295833],[98.641667,29.3],[98.645833,29.325],[98.629167,29.3375],[98.629167,29.354167],[98.604167,29.35],[98.604167,29.3625],[98.583333,29.375],[98.583333,29.45],[98.570833,29.479167],[98.554167,29.483333],[98.545833,29.5],[98.529167,29.504167],[98.504167,29.55],[98.4875,29.554167],[98.491667,29.566667],[98.483333,29.579167],[98.491667,29.595833],[98.466667,29.6625],[98.483333,29.675],[98.483333,29.683333],[98.508333,29.695833],[98.508333,29.708333],[98.495833,29.741667],[98.4875,29.741667],[98.483333,29.758333],[98.475,29.7625],[98.475,29.783333],[98.466667,29.783333],[98.483333,29.829167],[98.458333,29.875],[98.466667,29.879167],[98.475,29.904167],[98.45,29.925],[98.429167,29.970833],[98.404167,29.979167],[98.404167,29.991667],[98.416667,30.025],[98.4375,30.016667],[98.441667,30.0],[98.4625,30.0],[98.4625,30.008333],[98.495833,30.004167],[98.491667,30.020833],[98.483333,30.025],[98.4875,30.045833],[98.475,30.070833],[98.479167,30.1],[98.470833,30.1],[98.458333,30.120833],[98.470833,30.129167],[98.470833,30.145833],[98.479167,30.15],[98.470833,30.1875],[98.475,30.204167],[98.483333,30.208333],[98.495833,30.2],[98.520833,30.220833],[98.508333,30.229167],[98.504167,30.2625],[98.491667,30.279167],[98.495833,30.3],[98.483333,30.316667],[98.504167,30.345833],[98.491667,30.379167],[98.491667,30.404167],[98.508333,30.416667],[98.508333,30.425],[98.4875,30.4375],[98.470833,30.433333],[98.45,30.454167],[98.4375,30.454167],[98.425,30.470833],[98.429167,30.508333],[98.420833,30.508333],[98.416667,30.520833],[98.4,30.516667],[98.3875,30.529167],[98.383333,30.558333],[98.3625,30.566667],[98.3625,30.579167],[98.341667,30.583333],[98.333333,30.604167],[98.3125,30.6],[98.308333,30.616667],[98.3,30.620833],[98.3,30.6375],[98.275,30.6375],[98.266667,30.654167],[98.25,30.654167],[98.233333,30.679167],[98.208333,30.6875],[98.216667,30.704167],[98.225,30.704167],[98.204167,30.75],[98.204167,30.775],[98.2125,30.783333],[98.220833,30.779167],[98.220833,30.791667],[98.204167,30.8],[98.2,30.816667],[98.183333,30.8125],[98.179167,30.791667],[98.1625,30.795833],[98.15,30.7875],[98.133333,30.8],[98.079167,30.795833],[98.066667,30.820833],[98.05,30.825],[98.0375,30.841667],[97.954167,30.85],[97.954167,30.866667],[97.933333,30.879167],[97.925,30.929167],[97.908333,30.941667],[97.925,31.0],[97.9125,31.004167],[97.9125,31.025],[97.891667,31.041667],[97.891667,31.05],[97.8625,31.066667],[97.8625,31.091667],[97.879167,31.133333],[97.854167,31.1375],[97.858333,31.166667],[97.85,31.166667],[97.841667,31.183333],[97.829167,31.183333],[97.825,31.175],[97.816667,31.179167],[97.8125,31.208333],[97.783333,31.204167],[97.779167,31.2125],[97.7625,31.2125],[97.7625,31.2375],[97.733333,31.241667],[97.716667,31.266667],[97.7,31.270833],[97.708333,31.320833],[97.725,31.333333],[97.704167,31.354167],[97.691667,31.404167],[97.716667,31.4125],[97.725,31.433333],[97.7125,31.458333],[97.7125,31.479167],[97.7,31.483333],[97.695833,31.504167],[97.716667,31.520833],[97.741667,31.520833],[97.754167,31.504167],[97.7625,31.504167],[97.766667,31.483333],[97.808333,31.491667],[97.8125,31.5],[97.825,31.5],[97.825,31.491667],[97.85,31.491667],[97.85,31.504167],[97.858333,31.508333],[97.858333,31.545833],[97.85,31.55],[97.858333,31.570833],[97.854167,31.579167],[97.883333,31.604167],[97.908333,31.604167],[97.916667,31.620833],[97.916667,31.633333],[97.891667,31.666667],[97.866667,31.670833],[97.875,31.6875],[97.870833,31.720833],[97.858333,31.729167],[97.8625,31.745833],[97.829167,31.8],[97.829167,31.816667],[97.8375,31.820833],[97.8375,31.833333],[97.854167,31.825],[97.866667,31.8375],[97.866667,31.854167],[97.854167,31.866667],[97.854167,31.883333],[97.820833,31.908333],[97.820833,31.920833],[97.833333,31.920833],[97.841667,31.941667],[97.858333,31.941667],[97.8625,31.954167],[97.8625,31.970833],[97.841667,31.991667],[97.8375,32.033333],[97.845833,32.041667],[97.845833,32.058333],[97.8625,32.066667],[97.870833,32.058333],[97.895833,32.058333],[97.9,32.083333],[97.95,32.0875],[97.95,32.104167],[97.966667,32.129167],[97.966667,32.15],[97.941667,32.15],[97.933333,32.158333],[97.9375,32.170833],[97.9125,32.1875],[97.895833,32.1875],[97.879167,32.220833],[97.8375,32.216667],[97.816667,32.241667],[97.8,32.241667],[97.795833,32.25],[97.7625,32.245833],[97.745833,32.2625],[97.733333,32.2625],[97.7375,32.283333],[97.716667,32.291667],[97.708333,32.279167],[97.679167,32.279167],[97.65,32.308333],[97.641667,32.308333],[97.629167,32.329167],[97.6125,32.329167],[97.608333,32.345833],[97.595833,32.354167],[97.575,32.354167],[97.566667,32.375],[97.525,32.383333],[97.520833,32.370833],[97.483333,32.370833],[97.475,32.3875],[97.454167,32.383333],[97.429167,32.404167],[97.4,32.404167],[97.391667,32.425],[97.370833,32.4375],[97.345833,32.433333],[97.341667,32.445833],[97.35,32.470833],[97.366667,32.475],[97.383333,32.5],[97.370833,32.504167],[97.366667,32.516667],[97.316667,32.525],[97.295833,32.545833],[97.270833,32.55],[97.258333,32.575],[97.220833,32.566667],[97.2125,32.575],[97.195833,32.570833],[97.183333,32.579167],[97.1625,32.575],[97.129167,32.5875],[97.120833,32.604167],[97.075,32.604167],[97.070833,32.5875],[97.054167,32.5875],[97.05,32.6],[97.0125,32.604167],[97.0,32.620833],[96.979167,32.625],[96.970833,32.645833],[96.954167,32.645833],[96.945833,32.658333],[96.9,32.675],[96.883333,32.691667],[96.8875,32.720833],[96.9,32.720833],[96.891667,32.7375],[96.866667,32.754167],[96.829167,32.7625],[96.825,32.783333],[96.8,32.7875],[96.8,32.820833],[96.7875,32.829167],[96.708333,32.858333],[96.704167,32.875],[96.691667,32.883333],[96.7,32.925],[96.658333,32.9625],[96.658333,32.991667],[96.641667,32.991667],[96.6125,32.970833],[96.566667,32.975],[96.545833,32.958333],[96.525,32.966667],[96.470833,32.9625],[96.466667,32.970833],[96.445833,32.970833],[96.433333,32.979167],[96.425,33.029167],[96.4,33.025],[96.379167,33.05],[96.366667,33.041667],[96.345833,33.041667],[96.3375,33.025],[96.329167,33.025],[96.308333,33.041667],[96.2875,33.041667],[96.258333,33.054167],[96.2625,33.070833],[96.25,33.070833],[96.220833,33.095833],[96.208333,33.095833],[96.2,33.104167],[96.204167,33.116667],[96.154167,33.145833],[96.1375,33.183333],[96.125,33.1875],[96.120833,33.2],[96.104167,33.2],[96.104167,33.208333],[96.075,33.233333],[95.9875,33.233333],[95.975,33.225],[95.970833,33.208333],[95.958333,33.208333],[95.958333,33.2],[95.9375,33.2],[95.9375,33.179167],[95.929167,33.175],[95.9125,33.191667],[95.891667,33.191667],[95.8625,33.2125],[95.845833,33.208333],[95.833333,33.225],[95.8125,33.229167],[95.804167,33.245833],[95.791667,33.25],[95.8,33.270833],[95.791667,33.283333],[95.741667,33.283333],[95.7375,33.304167],[95.695833,33.3375],[95.683333,33.333333],[95.6625,33.304167],[95.629167,33.325],[95.620833,33.304167],[95.583333,33.308333],[95.579167,33.3],[95.558333,33.3],[95.554167,33.325],[95.529167,33.333333],[95.529167,33.345833],[95.5,33.35],[95.5,33.341667],[95.483333,33.341667],[95.483333,33.35],[95.475,33.35],[95.445833,33.379167],[95.425,33.3875],[95.404167,33.383333],[95.404167,33.391667],[95.3875,33.391667],[95.379167,33.408333],[95.354167,33.425],[95.308333,33.4375],[95.3,33.429167],[95.3,33.4125],[95.2875,33.4125],[95.279167,33.429167],[95.254167,33.433333],[95.254167,33.441667],[95.245833,33.441667],[95.2375,33.454167],[95.225,33.4375],[95.2125,33.4375],[95.2,33.454167],[95.183333,33.5125],[95.154167,33.525],[95.154167,33.5375],[95.1375,33.558333],[95.141667,33.575],[95.133333,33.583333],[95.1125,33.583333],[95.108333,33.575],[95.0875,33.570833],[95.0875,33.55],[95.0375,33.5375],[95.029167,33.529167],[95.020833,33.529167],[95.020833,33.545833],[95.004167,33.55],[94.9875,33.575],[94.954167,33.5625],[94.916667,33.579167],[94.8875,33.579167],[94.866667,33.566667],[94.858333,33.575],[94.833333,33.575],[94.829167,33.566667],[94.8125,33.5625],[94.8,33.625],[94.820833,33.633333],[94.825,33.670833],[94.770833,33.683333],[94.758333,33.695833],[94.745833,33.691667],[94.745833,33.7],[94.725,33.716667],[94.7125,33.7125],[94.7,33.758333],[94.6875,33.758333],[94.6875,33.770833],[94.6625,33.795833],[94.5875,33.820833],[94.541667,33.820833],[94.541667,33.808333],[94.533333,33.808333],[94.525,33.795833],[94.479167,33.804167],[94.45,33.770833],[94.4375,33.770833],[94.433333,33.75],[94.441667,33.741667],[94.429167,33.7125],[94.416667,33.7125],[94.420833,33.6875],[94.408333,33.6875],[94.4,33.679167],[94.404167,33.670833],[94.3875,33.658333],[94.391667,33.629167],[94.375,33.629167],[94.370833,33.616667],[94.3625,33.616667],[94.341667,33.625],[94.325,33.620833],[94.304167,33.6375],[94.279167,33.6375],[94.270833,33.633333],[94.266667,33.616667],[94.254167,33.6125],[94.241667,33.575],[94.233333,33.575],[94.229167,33.558333],[94.258333,33.533333],[94.258333,33.483333],[94.25,33.454167],[94.2625,33.441667],[94.258333,33.416667],[94.279167,33.408333],[94.279167,33.395833],[94.241667,33.395833],[94.245833,33.375],[94.229167,33.316667],[94.2125,33.316667],[94.208333,33.333333],[94.195833,33.341667],[94.1375,33.325],[94.120833,33.333333],[94.108333,33.354167],[94.095833,33.354167],[94.0875,33.345833],[94.079167,33.35],[94.083333,33.325],[94.041667,33.320833],[94.025,33.3125],[94.0125,33.291667],[93.958333,33.341667],[93.958333,33.35],[93.9375,33.358333],[93.933333,33.35],[93.916667,33.354167],[93.929167,33.291667],[93.904167,33.2875],[93.895833,33.295833],[93.870833,33.279167],[93.866667,33.266667],[93.858333,33.266667],[93.879167,33.220833],[93.883333,33.1875],[93.908333,33.179167],[93.929167,33.1875],[93.9375,33.175],[93.941667,33.133333],[93.9625,33.1125],[93.95,33.095833],[93.95,33.079167],[93.970833,33.070833],[93.979167,33.054167],[94.0125,33.054167],[94.029167,33.029167],[94.05,33.033333],[94.054167,33.025],[94.079167,33.025],[94.070833,33.045833],[94.083333,33.058333],[94.104167,33.058333],[94.116667,33.041667],[94.133333,33.041667],[94.158333,33.0125],[94.204167,33.004167],[94.229167,33.016667],[94.2625,33.016667],[94.2625,33.008333],[94.279167,33.0],[94.320833,33.0],[94.325,33.0125],[94.341667,33.008333],[94.370833,32.979167],[94.395833,32.975],[94.3875,32.9625],[94.391667,32.941667],[94.379167,32.9375],[94.379167,32.920833],[94.3625,32.916667],[94.358333,32.9],[94.35,32.895833],[94.366667,32.875],[94.366667,32.8625],[94.358333,32.845833],[94.35,32.845833],[94.35,32.829167],[94.3625,32.825],[94.370833,32.8],[94.379167,32.8],[94.3625,32.7875],[94.366667,32.770833],[94.358333,32.766667],[94.358333,32.754167],[94.3875,32.754167],[94.395833,32.7375],[94.429167,32.729167],[94.433333,32.720833],[94.458333,32.7375],[94.466667,32.7375],[94.479167,32.720833],[94.491667,32.729167],[94.5125,32.725],[94.520833,32.741667],[94.554167,32.75],[94.583333,32.75],[94.591667,32.7375],[94.608333,32.733333],[94.608333,32.716667],[94.575,32.7125],[94.575,32.695833],[94.5875,32.6875],[94.5875,32.675],[94.604167,32.666667],[94.591667,32.65],[94.591667,32.633333],[94.5625,32.633333],[94.5625,32.625],[94.5375,32.604167],[94.4875,32.604167],[94.483333,32.6125],[94.4625,32.6125],[94.4625,32.575],[94.445833,32.566667],[94.425,32.570833],[94.420833,32.583333],[94.408333,32.583333],[94.404167,32.6],[94.391667,32.604167],[94.383333,32.575],[94.370833,32.566667],[94.383333,32.554167],[94.383333,32.541667],[94.370833,32.5375],[94.366667,32.525],[94.358333,32.525],[94.354167,32.5375],[94.3125,32.533333],[94.291667,32.516667],[94.291667,32.495833],[94.258333,32.520833],[94.225,32.5125],[94.191667,32.516667],[94.175,32.491667],[94.183333,32.479167],[94.183333,32.458333],[94.154167,32.458333],[94.15,32.445833],[94.170833,32.425],[94.1875,32.429167],[94.191667,32.4125],[94.204167,32.4125],[94.208333,32.425],[94.229167,32.4375],[94.25,32.420833],[94.295833,32.4125],[94.295833,32.404167],[94.316667,32.4],[94.3125,32.383333],[94.333333,32.375],[94.341667,32.3625],[94.35,32.375],[94.391667,32.375],[94.395833,32.383333],[94.433333,32.375],[94.4375,32.341667],[94.458333,32.325],[94.4875,32.325],[94.495833,32.291667],[94.5125,32.295833],[94.5125,32.275],[94.529167,32.275],[94.529167,32.204167],[94.541667,32.2],[94.5375,32.166667],[94.570833,32.154167],[94.591667,32.183333],[94.6125,32.179167],[94.641667,32.204167],[94.645833,32.175],[94.6625,32.1625],[94.65,32.154167],[94.641667,32.120833],[94.670833,32.1125],[94.679167,32.095833],[94.7,32.1],[94.720833,32.129167],[94.745833,32.133333],[94.7875,32.104167],[94.7875,32.1125],[94.804167,32.125],[94.804167,32.154167],[94.825,32.154167],[94.829167,32.141667],[94.845833,32.1375],[94.891667,32.145833],[94.904167,32.141667],[94.891667,32.108333],[94.895833,32.083333],[94.925,32.091667],[94.925,32.083333],[94.9375,32.075],[94.966667,32.075],[94.979167,32.0625],[95.004167,32.066667],[95.004167,32.033333],[95.0125,32.033333],[95.008333,32.020833],[95.016667,32.016667],[95.020833,31.991667],[95.033333,31.983333],[95.104167,31.983333],[95.108333,31.975],[95.125,31.975],[95.141667,31.954167],[95.195833,31.9625],[95.2,31.975],[95.2125,31.975],[95.2375,31.9625],[95.2375,31.954167],[95.2875,31.9375],[95.3,31.925],[95.320833,31.933333],[95.3375,31.929167],[95.341667,31.9375],[95.3625,31.9375],[95.370833,31.925],[95.383333,31.929167],[95.391667,31.9125],[95.4125,31.904167],[95.425,31.858333],[95.4375,31.854167],[95.4375,31.8375],[95.458333,31.820833],[95.458333,31.804167],[95.466667,31.795833],[95.483333,31.795833],[95.4875,31.779167],[95.504167,31.775],[95.5125,31.7625],[95.5125,31.75],[95.504167,31.745833],[95.508333,31.716667],[95.5,31.695833],[95.5125,31.6875],[95.520833,31.666667],[95.516667,31.65],[95.533333,31.65],[95.558333,31.604167],[95.5375,31.566667],[95.558333,31.5625],[95.570833,31.566667],[95.575,31.579167],[95.6,31.579167],[95.6125,31.5375],[95.616667,31.545833],[95.683333,31.5375],[95.6875,31.545833],[95.7,31.545833],[95.7,31.5375],[95.7125,31.533333],[95.716667,31.545833],[95.729167,31.545833],[95.733333,31.533333],[95.741667,31.533333],[95.75,31.541667],[95.783333,31.5375],[95.783333,31.545833],[95.804167,31.55],[95.8125,31.5375],[95.825,31.541667],[95.8375,31.516667],[95.808333,31.508333],[95.816667,31.4875],[95.808333,31.4625],[95.854167,31.445833],[95.854167,31.425],[95.9,31.429167],[95.9125,31.408333],[95.929167,31.408333],[95.945833,31.420833],[95.945833,31.391667],[95.991667,31.395833],[96.008333,31.379167],[96.0375,31.370833],[96.045833,31.354167],[96.058333,31.35],[96.054167,31.329167],[96.0875,31.3125],[96.1,31.2875],[96.120833,31.291667],[96.125,31.275],[96.1375,31.279167],[96.141667,31.270833],[96.175,31.270833],[96.208333,31.245833],[96.241667,31.2375],[96.25,31.225],[96.270833,31.233333],[96.279167,31.216667],[96.295833,31.220833],[96.3375,31.2125],[96.375,31.179167],[96.366667,31.1625],[96.375,31.158333],[96.383333,31.129167],[96.4125,31.133333],[96.425,31.129167],[96.429167,31.116667],[96.466667,31.125],[96.483333,31.104167],[96.491667,31.104167],[96.5125,31.075],[96.504167,31.075],[96.491667,31.05],[96.466667,31.045833],[96.470833,31.033333],[96.454167,31.025],[96.445833,30.991667],[96.495833,31.0],[96.508333,30.991667],[96.508333,30.979167],[96.554167,30.9875],[96.566667,30.975],[96.566667,30.9625],[96.583333,30.9625],[96.591667,30.95],[96.608333,30.95],[96.616667,30.9625],[96.6625,30.954167],[96.670833,30.970833],[96.683333,30.970833],[96.704167,30.9875],[96.720833,30.983333],[96.725,30.970833],[96.7375,30.966667],[96.758333,30.966667],[96.770833,30.975],[96.783333,30.954167],[96.816667,30.9375],[96.825,30.920833],[96.841667,30.920833],[96.85,30.9125],[96.854167,30.891667],[96.879167,30.8625],[96.904167,30.8625],[96.920833,30.825],[96.945833,30.825],[96.95,30.8375],[96.970833,30.833333],[96.975,30.841667],[97.0,30.804167],[97.0125,30.804167],[97.0375,30.783333],[97.0375,30.770833],[97.054167,30.7625],[97.083333,30.7625],[97.083333,30.745833],[97.095833,30.729167],[97.141667,30.729167],[97.170833,30.704167],[97.195833,30.704167],[97.208333,30.679167],[97.225,30.675],[97.225,30.645833],[97.208333,30.604167],[97.2125,30.591667],[97.241667,30.583333],[97.245833,30.570833],[97.2625,30.566667],[97.279167,30.55],[97.283333,30.525],[97.3,30.533333],[97.308333,30.55],[97.316667,30.55],[97.316667,30.570833],[97.3375,30.566667],[97.3375,30.575],[97.358333,30.579167],[97.383333,30.545833],[97.395833,30.541667],[97.391667,30.525],[97.420833,30.516667],[97.420833,30.5],[97.441667,30.470833],[97.445833,30.4375],[97.4625,30.433333],[97.470833,30.420833],[97.491667,30.420833],[97.504167,30.4125],[97.508333,30.3875],[97.5,30.375],[97.508333,30.345833],[97.545833,30.320833],[97.5625,30.320833],[97.583333,30.3],[97.5625,30.283333],[97.5625,30.2625],[97.5875,30.245833],[97.604167,30.208333],[97.620833,30.204167],[97.625,30.183333],[97.645833,30.175],[97.6375,30.154167],[97.625,30.158333],[97.6125,30.15],[97.6125,30.129167],[97.629167,30.125],[97.629167,30.1125],[97.645833,30.116667],[97.683333,30.108333],[97.695833,30.120833],[97.75,30.104167],[97.754167,30.116667],[97.766667,30.120833],[97.775,30.108333],[97.791667,30.108333],[97.7875,30.0875],[97.8,30.079167],[97.8,30.054167],[97.8125,30.041667],[97.804167,30.025],[97.820833,30.016667],[97.820833,29.995833],[97.854167,29.983333],[97.854167,29.966667],[97.833333,29.95],[97.841667,29.929167],[97.8375,29.916667],[97.845833,29.9125],[97.85,29.895833],[97.833333,29.891667],[97.833333,29.879167],[97.858333,29.870833],[97.8625,29.841667],[97.879167,29.833333],[97.8875,29.8125],[97.908333,29.804167],[97.920833,29.779167],[97.95,29.783333],[97.979167,29.733333],[97.991667,29.733333],[98.004167,29.716667],[98.004167,29.6375],[98.016667,29.625],[98.0125,29.6125],[98.033333,29.604167],[98.033333,29.591667],[98.041667,29.591667],[98.05,29.579167],[98.05,29.541667],[98.070833,29.520833],[98.066667,29.5125],[98.079167,29.495833],[98.079167,29.441667],[98.095833,29.433333],[98.104167,29.395833],[98.116667,29.391667],[98.125,29.366667],[98.15,29.358333],[98.15,29.3375],[98.158333,29.325],[98.225,29.3],[98.225,29.283333],[98.233333,29.279167],[98.258333,29.291667],[98.254167,29.304167],[98.270833,29.320833],[98.304167,29.320833],[98.308333,29.3125],[98.325,29.3125],[98.316667,29.283333],[98.341667,29.279167],[98.354167,29.2375],[98.366667,29.2375],[98.375,29.220833],[98.395833,29.216667],[98.391667,29.2],[98.416667,29.154167],[98.441667,29.15],[98.458333,29.175],[98.479167,29.170833],[98.479167,29.15],[98.504167,29.116667],[98.504167,29.095833],[98.491667,29.083333],[98.5,29.05],[98.479167,29.0375],[98.4875,28.966667],[98.495833,28.954167],[98.516667,28.9625],[98.525,28.904167],[98.554167,28.9],[98.55,28.825],[98.558333,28.820833],[98.554167,28.808333],[98.566667,28.8],[98.5625,28.779167],[98.570833,28.775],[98.566667,28.7625],[98.579167,28.741667],[98.575,28.7],[98.591667,28.691667],[98.595833,28.666667],[98.608333,28.658333],[98.6125,28.633333],[98.620833,28.629167],[98.616667,28.604167],[98.625,28.6],[98.620833,28.5875],[98.633333,28.5625],[98.633333,28.516667],[98.620833,28.5125],[98.620833,28.495833],[98.679167,28.483333],[98.683333,28.4625],[98.691667,28.458333],[98.6875,28.4375],[98.7125,28.420833],[98.720833,28.375],[98.754167,28.3375],[98.7125,28.304167],[98.7125,28.2375],[98.695833,28.225],[98.691667,28.1875],[98.7,28.179167],[98.704167,28.141667],[98.7125,28.141667],[98.716667,28.129167],[98.754167,28.154167],[98.766667,28.1375],[98.766667,28.120833],[98.754167,28.108333],[98.754167,28.083333],[98.770833,28.058333],[98.783333,28.058333],[98.795833,28.029167],[98.7875,27.9],[98.804167,27.870833],[98.8,27.85],[98.816667,27.833333],[98.833333,27.8375],[98.833333,27.845833],[98.85,27.845833],[98.845833,27.8125],[98.8625,27.8],[98.8625,27.779167],[98.875,27.7625],[98.866667,27.741667],[98.833333,27.729167],[98.833333,27.716667],[98.854167,27.7],[98.854167,27.691667],[98.866667,27.691667],[98.875,27.679167],[98.891667,27.675],[98.916667,27.6375],[98.904167,27.604167],[98.895833,27.604167],[98.883333,27.583333],[98.908333,27.5375],[98.904167,27.5125],[98.891667,27.495833],[98.908333,27.483333],[98.916667,27.458333],[98.916667,27.425],[98.904167,27.408333],[98.904167,27.391667],[98.925,27.366667],[98.920833,27.341667],[98.945833,27.345833],[98.9625,27.333333],[98.995833,27.3375],[98.995833,27.325],[99.008333,27.316667],[99.008333,27.279167],[98.9875,27.275],[98.9875,27.2125],[98.966667,27.2],[98.970833,27.1875],[98.9625,27.183333],[98.970833,27.166667],[98.983333,27.166667],[98.975,27.1375],[98.979167,27.1],[98.970833,27.079167],[98.983333,27.066667],[98.983333,27.05],[98.970833,27.041667],[98.9625,27.008333],[98.975,26.979167],[98.975,26.958333],[98.983333,26.95],[98.975,26.879167],[99.0125,26.854167],[99.0125,26.833333],[99.033333,26.808333],[99.025,26.779167],[99.008333,26.766667],[99.008333,26.754167],[99.025,26.75],[99.016667,26.725],[99.029167,26.716667],[99.020833,26.708333],[99.020833,26.6875],[99.029167,26.683333],[99.025,26.666667],[99.033333,26.641667],[99.0125,26.620833],[99.020833,26.6125],[99.0125,26.575],[99.016667,26.491667],[99.004167,26.4625],[99.020833,26.445833],[99.020833,26.429167],[99.008333,26.416667],[99.016667,26.375],[99.008333,26.35],[99.016667,26.3375],[99.0125,26.275],[99.0375,26.275],[99.0375,26.258333],[99.025,26.241667],[99.020833,26.2125],[99.025,26.1375],[99.016667,26.120833],[99.008333,26.120833],[99.0,26.070833],[99.033333,26.045833],[99.045833,26.004167],[99.058333,26.0],[99.058333,25.970833],[99.070833,25.958333],[99.070833,25.945833],[99.083333,25.9375],[99.104167,25.8625],[99.116667,25.845833],[99.1125,25.8375],[99.15,25.758333],[99.15,25.75],[99.125,25.745833],[99.120833,25.729167],[99.104167,25.720833],[99.108333,25.708333],[99.1,25.695833],[99.095833,25.645833],[99.0875,25.645833],[99.083333,25.633333],[99.058333,25.629167],[99.054167,25.570833],[99.075,25.5375],[99.066667,25.491667],[99.075,25.491667],[99.091667,25.45],[99.083333,25.420833],[99.108333,25.4],[99.1125,25.341667],[99.15,25.3375],[99.166667,25.325],[99.191667,25.320833],[99.2125,25.333333],[99.2375,25.304167],[99.258333,25.304167],[99.258333,25.2875],[99.270833,25.283333],[99.270833,25.275],[99.291667,25.270833],[99.2875,25.241667],[99.308333,25.208333],[99.308333,25.170833],[99.325,25.166667],[99.329167,25.1875],[99.354167,25.195833],[99.3625,25.175],[99.404167,25.175],[99.4125,25.154167],[99.441667,25.15],[99.454167,25.129167],[99.466667,25.125],[99.466667,25.108333],[99.479167,25.095833],[99.483333,25.075],[99.470833,25.05],[99.495833,25.0375],[99.495833,25.016667],[99.5375,25.004167],[99.5625,24.979167],[99.583333,24.979167],[99.591667,25.0],[99.608333,24.995833],[99.604167,24.966667],[99.6125,24.9625],[99.620833,24.925],[99.595833,24.895833],[99.575,24.895833],[99.575,24.883333],[99.566667,24.879167],[99.566667,24.8625],[99.575,24.854167],[99.566667,24.841667],[99.570833,24.816667],[99.591667,24.804167],[99.595833,24.779167],[99.6125,24.770833],[99.608333,24.758333],[99.620833,24.758333],[99.620833,24.7375],[99.608333,24.733333],[99.604167,24.7125],[99.6125,24.708333],[99.620833,24.675],[99.641667,24.670833],[99.645833,24.645833],[99.658333,24.645833],[99.658333,24.620833],[99.675,24.5875],[99.716667,24.595833],[99.741667,24.579167],[99.741667,24.554167],[99.745833,24.5375],[99.754167,24.533333],[99.7625,24.491667],[99.745833,24.466667],[99.766667,24.445833],[99.783333,24.445833],[99.804167,24.429167],[99.8,24.383333],[99.754167,24.379167],[99.745833,24.35],[99.758333,24.325],[99.745833,24.320833],[99.745833,24.3],[99.725,24.279167],[99.716667,24.258333],[99.704167,24.254167],[99.704167,24.220833],[99.658333,24.220833],[99.6375,24.2],[99.641667,24.175],[99.654167,24.1625],[99.65,24.15],[99.658333,24.129167],[99.704167,24.133333],[99.725,24.15],[99.729167,24.170833],[99.770833,24.175],[99.779167,24.191667],[99.829167,24.2],[99.8375,24.2125],[99.833333,24.233333],[99.85,24.25],[99.845833,24.270833],[99.870833,24.266667],[99.925,24.275],[99.9375,24.266667],[99.9875,24.2625],[100.025,24.304167],[100.054167,24.316667],[100.054167,24.325],[100.1,24.320833],[100.1,24.3125],[100.125,24.316667],[100.133333,24.304167],[100.116667,24.241667],[100.15,24.225],[100.15,24.204167],[100.1625,24.195833],[100.158333,24.166667],[100.166667,24.15],[100.154167,24.120833],[100.208333,24.075],[100.225,24.0375],[100.229167,23.975],[100.2,23.9625],[100.195833,23.929167],[100.1875,23.925],[100.183333,23.908333],[100.1875,23.883333],[100.166667,23.879167],[100.170833,23.8375],[100.154167,23.825],[100.15,23.808333],[100.141667,23.808333],[100.15,23.758333],[100.129167,23.758333],[100.133333,23.720833],[100.1125,23.695833],[100.1125,23.683333],[100.075,23.666667],[100.029167,23.675],[100.008333,23.666667],[99.9875,23.733333],[99.954167,23.758333],[99.954167,23.829167],[99.945833,23.829167],[99.933333,23.9],[99.920833,23.916667],[99.9,23.920833],[99.870833,23.9],[99.870833,23.8625],[99.858333,23.841667],[99.85,23.841667],[99.858333,23.833333],[99.854167,23.779167],[99.841667,23.770833],[99.833333,23.75],[99.8125,23.745833],[99.804167,23.725],[99.791667,23.720833],[99.791667,23.708333],[99.733333,23.708333],[99.729167,23.7],[99.704167,23.695833],[99.633333,23.7],[99.620833,23.683333],[99.6125,23.691667],[99.558333,23.6875],[99.545833,23.7],[99.520833,23.7],[99.504167,23.683333],[99.45,23.679167],[99.445833,23.670833],[99.375,23.6375],[99.341667,23.604167],[99.333333,23.604167],[99.308333,23.566667],[99.304167,23.533333],[99.291667,23.508333],[99.270833,23.504167],[99.258333,23.470833],[99.2375,23.466667],[99.229167,23.45],[99.216667,23.445833],[99.204167,23.404167],[99.191667,23.4],[99.183333,23.379167],[99.191667,23.3625],[99.191667,23.329167],[99.2125,23.304167],[99.191667,23.275],[99.170833,23.266667],[99.179167,23.25],[99.170833,23.2375],[99.170833,23.2125],[99.1875,23.191667],[99.1625,23.175],[99.170833,23.145833],[99.1625,23.133333],[99.1625,23.108333],[99.175,23.091667],[99.2,23.095833],[99.2,23.0875],[99.233333,23.083333],[99.233333,23.1],[99.266667,23.1125],[99.3125,23.104167],[99.325,23.1125],[99.325,23.133333],[99.333333,23.145833],[99.3375,23.1375],[99.358333,23.1375],[99.3625,23.116667],[99.3875,23.1],[99.420833,23.095833],[99.433333,23.083333],[99.508333,23.0875],[99.529167,23.070833]]]}}
