{"type":"Feature","id":"ecs.54","geometry_name":"the_geom","properties":{"geoname":"Overlapping claim: Suriname (DOALOS Deposit) / Trinidad and Tobago (CLCS Submission)","pol_type":"ECS Overlapping claim","territory1":"Suriname","mrgid_ter1":2182,"iso_ter1":"SUR","un_ter1":740,"sovereign1":"Suriname","mrgid_sov1":2182,"iso_sov1":"SUR","un_sov1":740,"territory2":"Trinidad and Tobago","mrgid_ter2":2186,"iso_ter2":"TTO","un_ter2":780,"sovereign2":"Trinidad and Tobago","mrgid_sov2":2186,"iso_sov2":"TTO","un_sov2":780,"territory3":null,"mrgid_ter3":null,"iso_ter3":null,"un_ter3":null,"sovereign3":null,"mrgid_sov3":null,"iso_sov3":null,"un_sov3":null,"territory4":null,"mrgid_ter4":null,"iso_ter4":null,"un_ter4":null,"sovereign4":null,"mrgid_sov4":null,"iso_sov4":null,"un_sov4":null,"territory5":null,"mrgid_ter5":null,"iso_ter5":null,"un_ter5":null,"sovereign5":null,"mrgid_sov5":null,"iso_sov5":null,"un_sov5":null,"territory6":null,"mrgid_ter6":null,"iso_ter6":null,"un_ter6":null,"sovereign6":null,"mrgid_sov6":null,"iso_sov6":null,"un_sov6":null,"territory7":null,"mrgid_ter7":null,"iso_ter7":null,"un_ter7":null,"sovereign7":null,"mrgid_sov7":null,"iso_sov7":null,"un_sov7":null,"territory8":null,"mrgid_ter8":null,"iso_ter8":null,"un_ter8":null,"sovereign8":null,"mrgid_sov8":null,"iso_sov8":null,"un_sov8":null,"x_1":-53.83786,"y_1":9.94384,"area_km2":57031,"mrgid":64103,"mrgid_ecs":64103,"name":"Overlapping claim: Suriname (DOALOS Deposit) / Trinidad and Tobago (CLCS Submission)","source":"extended-continental-shelf"},"geometry":{"type":"Polygon","coordinates":[[[-54.55986,11.20867],[-55.752623,9.34751],[-55.567918,9.353191],[-55.249969,9.338073],[-55.024557,9.345547],[-54.647311,9.335456],[-54.297995,9.307293],[-54.078197,9.275148],[-53.582653,9.184062],[-53.135339,9.073178],[-52.994292,9.031987],[-52.718387,8.93134],[-52.427417,8.793199],[-52.21675,9.477077],[-52.324477,9.537002],[-52.168525,9.872132],[-52.378383,10.020293],[-52.566842,10.117325],[-52.632224,10.185819],[-52.739863,10.328626],[-52.878415,10.474454],[-53.007332,10.583161],[-53.175414,10.695743],[-53.364537,10.801793],[-53.560114,10.885867],[-53.764444,10.95285],[-53.913194,10.98438],[-54.108844,11.010476],[-54.364932,11.021586],[-54.567541,11.002991],[-54.55986,11.20867]]]}}
