{"type":"Feature","id":"ecs.138","geometry_name":"the_geom","properties":{"geoname":"Overlapping claim: India (CLCS Submission) / Myanmar (CLCS Submission) / Sri Lanka (CLCS Submission)","pol_type":"ECS Overlapping claim","territory1":"India","mrgid_ter1":2128,"iso_ter1":"IND","un_ter1":356,"sovereign1":"India","mrgid_sov1":2128,"iso_sov1":"IND","un_sov1":356,"territory2":"Myanmar","mrgid_ter2":2219,"iso_ter2":"MMR","un_ter2":104,"sovereign2":"Myanmar","mrgid_sov2":2219,"iso_sov2":"MMR","un_sov2":104,"territory3":"Sri Lanka","mrgid_ter3":2195,"iso_ter3":"LKA","un_ter3":144,"sovereign3":"Sri Lanka","mrgid_sov3":2195,"iso_sov3":"LKA","un_sov3":144,"territory4":null,"mrgid_ter4":null,"iso_ter4":null,"un_ter4":null,"sovereign4":null,"mrgid_sov4":null,"iso_sov4":null,"un_sov4":null,"territory5":null,"mrgid_ter5":null,"iso_ter5":null,"un_ter5":null,"sovereign5":null,"mrgid_sov5":null,"iso_sov5":null,"un_sov5":null,"territory6":null,"mrgid_ter6":null,"iso_ter6":null,"un_ter6":null,"sovereign6":null,"mrgid_sov6":null,"iso_sov6":null,"un_sov6":null,"territory7":null,"mrgid_ter7":null,"iso_ter7":null,"un_ter7":null,"sovereign7":null,"mrgid_sov7":null,"iso_sov7":null,"un_sov7":null,"territory8":null,"mrgid_ter8":null,"iso_ter8":null,"un_ter8":null,"sovereign8":null,"mrgid_sov8":null,"iso_sov8":null,"un_sov8":null,"x_1":88.60405,"y_1":15.46377,"area_km2":136365,"mrgid":64119,"mrgid_ecs":64119,"name":"Overlapping claim: India (CLCS Submission) / Myanmar (CLCS Submission) / Sri Lanka (CLCS Submission)","source":"extended-continental-shelf"},"geometry":{"type":"Polygon","coordinates":[[[89.613115,14.644351],[89.821992,15.109025],[89.909797,15.268863],[90.011052,15.430633],[90.218966,15.709369],[90.228744,15.716835],[90.313783,15.992228],[90.422529,16.258031],[90.558154,16.520053],[90.71342,16.763882],[90.53975,16.986813],[90.389942,17.215308],[90.262677,17.44797],[90.144583,17.710817],[89.43175,16.724639],[89.373549,18.009049],[89.28405,17.974008],[88.75904,17.48949],[88.614731,17.369914],[88.462786,17.257158],[87.900702,16.897136],[86.910425,16.271447],[86.624002,15.974149],[86.407544,15.779837],[86.717613,15.426142],[87.248511,14.647282],[87.221333,13.688279],[88.128143,13.244019],[89.049922,12.866843],[89.261945,13.315633],[89.3331,13.758581],[89.416018,14.082474],[89.613115,14.644351]]]}}
