{"type":"Feature","id":"ecs.58","geometry_name":"the_geom","properties":{"geoname":"Japanese Extended Continental Shelf (CLCS Submission)","pol_type":"ECS CLCS Submission","territory1":"Japan","mrgid_ter1":2121,"iso_ter1":"JPN","un_ter1":392,"sovereign1":"Japan","mrgid_sov1":2121,"iso_sov1":"JPN","un_sov1":392,"territory2":null,"mrgid_ter2":null,"iso_ter2":null,"un_ter2":null,"sovereign2":null,"mrgid_sov2":null,"iso_sov2":null,"un_sov2":null,"territory3":null,"mrgid_ter3":null,"iso_ter3":null,"un_ter3":null,"sovereign3":null,"mrgid_sov3":null,"iso_sov3":null,"un_sov3":null,"territory4":null,"mrgid_ter4":null,"iso_ter4":null,"un_ter4":null,"sovereign4":null,"mrgid_sov4":null,"iso_sov4":null,"un_sov4":null,"territory5":null,"mrgid_ter5":null,"iso_ter5":null,"un_ter5":null,"sovereign5":null,"mrgid_sov5":null,"iso_sov5":null,"un_sov5":null,"territory6":null,"mrgid_ter6":null,"iso_ter6":null,"un_ter6":null,"sovereign6":null,"mrgid_sov6":null,"iso_sov6":null,"un_sov6":null,"territory7":null,"mrgid_ter7":null,"iso_ter7":null,"un_ter7":null,"sovereign7":null,"mrgid_sov7":null,"iso_sov7":null,"un_sov7":null,"territory8":null,"mrgid_ter8":null,"iso_ter8":null,"un_ter8":null,"sovereign8":null,"mrgid_sov8":null,"iso_sov8":null,"un_sov8":null,"x_1":133.367,"y_1":16.13745,"area_km2":13533,"mrgid":64132,"mrgid_ecs":64132,"name":"Japanese Extended Continental Shelf (CLCS Submission)","source":"extended-continental-shelf"},"geometry":{"type":"MultiPolygon","coordinates":[[[[132.692175,12.973237],[132.678702,13.005881],[132.708521,12.858987],[132.699213,12.92406],[132.692175,12.973237]]],[[[136.12486,13.933949],[136.128225,13.877167],[136.207072,13.422909],[136.27888,13.26206],[136.32141,13.088164],[136.395941,13.086076],[136.368322,13.195236],[136.326227,13.305508],[136.271205,13.410186],[136.206953,13.504017],[136.12486,13.933949]]],[[[133.040475,16.845],[132.36639,16.305699],[132.2471,16.280425],[132.126627,16.239688],[132.01229,16.184934],[131.908569,16.118986],[132.226502,15.859397],[132.564059,14.910074],[132.546007,14.829156],[132.529723,14.733513],[132.519815,14.646427],[132.514775,14.563815],[132.528392,14.718593],[132.555647,14.870731],[132.60082,15.032171],[132.662426,15.188406],[132.875585,16.170563],[132.87999,16.387933],[132.912362,16.597566],[132.936645,16.692989],[133.040475,16.845]]],[[[136.611693,17.100264],[136.448118,17.081258],[136.489373,16.91092],[136.499469,16.744048],[136.409116,15.794069],[136.276884,15.102608],[136.122341,14.656384],[136.363521,15.044959],[136.416663,15.169159],[136.452294,15.299136],[136.471559,15.488614],[136.45384,15.676985],[136.521728,16.678992],[136.551567,16.786897],[136.611693,17.100264]]],[[[133.444752,18.17898],[133.426918,18.111737],[133.398607,17.925924],[133.198381,17.075611],[133.673061,17.81985],[133.736777,17.907013],[133.593938,18.032323],[133.444752,18.17898]]]]}}
