{"type":"Feature","id":"ecs.131","geometry_name":"the_geom","properties":{"geoname":"Overlapping claim: Federal Republic of Somalia (CLCS Submission) / Yemen (CLCS Submission)","pol_type":"ECS Overlapping claim","territory1":"Federal Republic of Somalia","mrgid_ter1":2187,"iso_ter1":"SOM","un_ter1":706,"sovereign1":"Federal Republic of Somalia","mrgid_sov1":2187,"iso_sov1":"SOM","un_sov1":706,"territory2":"Yemen","mrgid_ter2":2199,"iso_ter2":"YEM","un_ter2":887,"sovereign2":"Yemen","mrgid_sov2":2199,"iso_sov2":"YEM","un_sov2":887,"territory3":null,"mrgid_ter3":null,"iso_ter3":null,"un_ter3":null,"sovereign3":null,"mrgid_sov3":null,"iso_sov3":null,"un_sov3":null,"territory4":null,"mrgid_ter4":null,"iso_ter4":null,"un_ter4":null,"sovereign4":null,"mrgid_sov4":null,"iso_sov4":null,"un_sov4":null,"territory5":null,"mrgid_ter5":null,"iso_ter5":null,"un_ter5":null,"sovereign5":null,"mrgid_sov5":null,"iso_sov5":null,"un_sov5":null,"territory6":null,"mrgid_ter6":null,"iso_ter6":null,"un_ter6":null,"sovereign6":null,"mrgid_sov6":null,"iso_sov6":null,"un_sov6":null,"territory7":null,"mrgid_ter7":null,"iso_ter7":null,"un_ter7":null,"sovereign7":null,"mrgid_sov7":null,"iso_sov7":null,"un_sov7":null,"territory8":null,"mrgid_ter8":null,"iso_ter8":null,"un_ter8":null,"sovereign8":null,"mrgid_sov8":null,"iso_sov8":null,"un_sov8":null,"x_1":55.63176,"y_1":8.1939,"area_km2":115289,"mrgid":64136,"mrgid_ecs":64136,"name":"Overlapping claim: Federal Republic of Somalia (CLCS Submission) / Yemen (CLCS Submission)"},"geometry":{"type":"Polygon","coordinates":[[[57.642912,11.178633],[57.59145,11.071141],[57.538291,10.969392],[57.488403,10.881171],[57.416239,10.762866],[57.356498,10.672739],[57.29281,10.583068],[57.226234,10.495488],[57.155659,10.40869],[57.084703,10.326968],[57.00863,10.244881],[56.931199,10.166603],[56.840421,10.080945],[56.753564,10.004584],[56.668466,9.934623],[56.581144,9.867433],[56.490183,9.802035],[56.387851,9.733673],[56.2169,9.626709],[56.115256,9.567691],[55.994021,9.502636],[55.897089,9.454121],[55.81042,9.413922],[55.714162,9.372645],[55.613112,9.332993],[55.539005,9.298803],[55.452968,9.261727],[55.369377,9.228342],[55.2668,9.19079],[55.168197,9.158132],[55.069601,9.12875],[54.97016,9.102344],[54.877154,9.080506],[54.774544,9.059553],[54.67118,9.04169],[54.555682,8.993956],[54.445036,8.952753],[54.380816,8.82907],[54.301013,8.689419],[54.297883,8.165165],[53.766599,7.316322],[53.716102,7.286452],[53.667442,7.253688],[53.620784,7.218143],[53.576288,7.179937],[53.534105,7.139202],[53.494379,7.096076],[53.457245,7.050707],[53.422828,7.003251],[53.378605,6.932156],[52.996746,6.2526],[53.179555,6.245869],[53.346899,6.244645],[53.530937,6.248744],[53.698064,6.257417],[53.881544,6.272391],[54.047876,6.290932],[54.230164,6.316729],[54.395126,6.345072],[54.526487,6.371084],[54.657237,6.40005],[54.787309,6.431955],[54.916638,6.466782],[55.02914,6.499639],[55.156901,6.539897],[55.283734,6.583022],[55.402254,6.626231],[55.58019,6.667817],[55.758221,6.715252],[55.934715,6.768175],[56.123244,6.831378],[56.479978,7.433152],[56.56414,7.579999],[56.620669,7.682759],[56.675161,7.786615],[56.727593,7.891527],[56.777944,7.997453],[57.407624,8.782287],[57.466602,8.83114],[57.516454,8.876166],[57.564468,8.923132],[57.608103,8.970077],[57.607941,8.980467],[57.715448,9.976355],[57.729304,10.041895],[57.738728,10.108203],[57.742861,10.158262],[57.744374,10.200092],[57.743534,10.25868],[57.739247,10.317121],[57.71472,11.089239],[57.642912,11.178633]]]}}
