{"type":"Feature","id":"gazetteer_polygon.45","geometry_name":"the_geom","properties":{"mrgid":64211,"name":"Italy - Adriatic Sea","url":"http://marineregions.org/gazetteer.php?p=details&id=64211","source":"gazetteer-misc"},"geometry":{"type":"Polygon","coordinates":[[[13.532853,45.804081],[13.548087,45.790282],[13.542227,45.792835],[13.538357,45.787338],[13.532493,45.790627],[13.529303,45.788466],[13.538303,45.782005],[13.547245,45.786265],[13.525533,45.770729],[13.52428,45.749553],[13.518651,45.748705],[13.517188,45.744625],[13.55223,45.726511],[13.485476,45.704811],[13.451545,45.711197],[13.453816,45.715988],[13.442872,45.72007],[13.433608,45.717755],[13.429417,45.71436],[13.451721,45.715565],[13.449735,45.711624],[13.456002,45.706585],[13.452349,45.70253],[13.459912,45.708775],[13.468443,45.704537],[13.431143,45.677239],[13.385246,45.674983],[13.359416,45.692486],[13.344046,45.689068],[13.245795,45.719501],[13.177899,45.712616],[13.171827,45.704129],[13.149898,45.700268],[13.148873,45.690338],[13.111942,45.66563],[13.097461,45.635505],[12.978314,45.627535],[12.908988,45.614939],[12.889647,45.598164],[12.719598,45.523723],[12.457617,45.442016],[12.426902,45.417972],[12.398287,45.430229],[12.357499,45.392799],[12.329417,45.348979],[12.328498,45.338024],[12.34327,45.333945],[12.32511,45.331623],[12.303677,45.279338],[12.297186,45.236797],[12.314201,45.233176],[12.290924,45.23275],[12.31392,45.231132],[12.299547,45.229416],[12.297312,45.219623],[12.311534,45.181622],[12.33236,45.16278],[12.325698,45.128811],[12.329988,45.088787],[12.351974,45.07919],[12.357295,45.064877],[12.364419,45.067951],[12.394217,45.044343],[12.410656,45.042132],[12.464643,44.991833],[12.502001,44.989151],[12.504578,44.983147],[12.509085,44.988411],[12.553224,44.967285],[12.510916,44.928543],[12.46605,44.843649],[12.410388,44.79669],[12.402805,44.805558],[12.392946,44.787316],[12.336275,44.796927],[12.343475,44.799228],[12.338054,44.805589],[12.371404,44.796817],[12.315395,44.843354],[12.290057,44.84366],[12.258929,44.815624],[12.280565,44.817121],[12.24876,44.761068],[12.239651,44.691579],[12.283374,44.596671],[12.279102,44.517048],[12.285678,44.473331],[12.314949,44.406824],[12.323157,44.358364],[12.356737,44.271445],[12.397801,44.207569],[12.521538,44.100797],[12.554156,44.077854],[12.575178,44.078806],[12.633866,44.022278],[12.696386,43.982673],[12.737913,43.967396],[12.748351,43.969452],[12.768606,43.965209],[12.786051,43.963631],[12.79734,43.96473],[12.903381,43.917408],[12.902268,43.924661],[12.904145,43.92268],[12.904112,43.915729],[12.906851,43.923977],[12.985511,43.865236],[13.064212,43.823982],[13.128889,43.776016],[13.287966,43.677679],[13.45338,43.61004],[13.481545,43.606071],[13.495996,43.61095],[13.490445,43.615451],[13.495569,43.621864],[13.503809,43.612457],[13.508208,43.629275],[13.553183,43.601766],[13.575659,43.568405],[13.625692,43.549673],[13.6237,43.50074],[13.668078,43.430372],[13.709107,43.337639],[13.733448,43.313677],[13.729376,43.312576],[13.778611,43.233569],[13.841486,43.104642],[13.875237,42.978855],[13.920129,42.893657],[13.948802,42.792728],[14.006547,42.692333],[14.077739,42.597271],[14.121335,42.551399],[14.224187,42.466956],[14.218078,42.464222],[14.227563,42.467945],[14.290125,42.421905],[14.410403,42.358303],[14.409731,42.346646],[14.425972,42.335007],[14.426073,42.325565],[14.501475,42.272454],[14.511104,42.250354],[14.61253,42.201834],[14.715433,42.173883],[14.722656,42.125218],[14.718174,42.104778],[14.740078,42.086853],[14.889875,42.024018],[14.999676,42.005505],[15.003777,41.990841],[15.095583,41.935299],[15.182416,41.920614],[15.28802,41.922876],[15.340534,41.916975],[15.363871,41.902528],[15.419283,41.900862],[15.620128,41.928903],[15.692674,41.914283],[15.905809,41.930641],[16.011863,41.950206],[16.06102,41.948979],[16.092713,41.937996],[16.121443,41.915014],[16.153286,41.908511],[16.164263,41.886723],[16.186235,41.883573],[16.177026,41.87916],[16.17501,41.859997],[16.180242,41.844272],[16.192239,41.837339],[16.188385,41.82793],[16.199671,41.826197],[16.193949,41.822044],[16.195766,41.792382],[16.186792,41.772339],[16.1676,41.766354],[16.16391,41.755055],[16.144472,41.74231],[16.121432,41.738929],[16.073559,41.710766],[16.065365,41.693585],[15.946308,41.643978],[15.925111,41.631973],[15.925577,41.623584],[15.921825,41.629498],[15.912613,41.624317],[15.922295,41.62154],[15.900984,41.61599],[15.892798,41.582699],[15.90276,41.535752],[15.925227,41.49305],[15.96342,41.456734],[16.158731,41.372925],[16.205181,41.362835],[16.257279,41.330101],[16.281494,41.323997],[16.291183,41.330749],[16.285755,41.324017],[16.344983,41.310053],[16.399008,41.285023],[16.421499,41.284715],[16.420382,41.27797],[16.452259,41.260014],[16.525625,41.241131],[16.584122,41.207422],[16.626579,41.193796],[16.673899,41.190606],[16.696357,41.176948],[16.778041,41.159952],[16.810053,41.140151],[16.851829,41.14153],[16.844507,41.134489],[16.852203,41.129265],[16.868922,41.133398],[16.862552,41.137004],[16.871121,41.13979],[16.85534,41.143962],[16.866367,41.143276],[16.871972,41.139225],[16.871811,41.129839],[16.876035,41.128365],[16.872684,41.125996],[16.890936,41.118369],[17.093059,41.06318],[17.134956,41.039639],[17.176161,41.028813],[17.201525,41.003556],[17.237036,40.993591],[17.264955,40.973013],[17.306743,40.957208],[17.299244,40.956845],[17.336444,40.927381],[17.349764,40.905869],[17.389957,40.89209],[17.480734,40.828534],[17.559996,40.797577],[17.712209,40.756537],[17.838633,40.691163],[17.926326,40.679496],[17.936967,40.68475],[17.953013,40.663866],[17.970285,40.661672],[17.96859,40.653033],[17.961573,40.662216],[17.952,40.645718],[17.929442,40.639074],[17.94457,40.642493],[17.951633,40.631939],[17.952778,40.644917],[17.986147,40.64383],[17.99928,40.655771],[18.001913,40.654618],[17.998496,40.648903],[18.003912,40.644448],[18.022673,40.641728],[18.014762,40.637525],[18.016592,40.62405],[18.045013,40.597408],[18.034523,40.572285],[18.042253,40.558567],[18.125491,40.493991],[18.201761,40.468414],[18.235178,40.448265],[18.306424,40.391406],[18.31563,40.373127],[18.36001,40.34486],[18.385877,40.314492],[18.4228,40.294426],[18.431824,40.283391],[18.429379,40.273438],[18.44123,40.269222],[18.461494,40.232597],[18.45835,40.203692],[18.478603,40.178927],[18.491714,40.153286],[18.487514,40.148442],[18.503526,40.146885],[18.516849,40.13534],[18.50667,40.126156],[18.518959,40.104553],[18.483233,40.081669],[18.475527,40.044281],[18.435547,40.024529],[18.431675,39.999069],[18.424641,40.00185],[18.414156,39.991469],[18.390343,39.907101],[18.399544,39.880886],[18.384338,39.841],[18.390821,39.817634],[18.3715,39.7956],[18.954833,40.194056],[18.88,40.313889],[18.759723,40.593889],[18.739723,40.669444],[18.671112,40.847222],[18.658612,40.9175],[18.595,41.108055],[18.542778,41.193611],[18.461945,41.2775],[18.216667,41.5],[17.99133,41.646077],[17.616667,41.836667],[17.311667,41.913333],[17.216667,41.991667],[16.590134,42.278639],[16.55452,42.24076],[16.515326,42.213631],[16.419668,42.178735],[16.30406,42.174027],[16.166519,42.198833],[16.074104,42.238308],[16.006062,42.297688],[15.973377,42.360907],[15.971901,42.433528],[15.746667,42.491667],[15.363334,42.613333],[15.158334,42.798333],[15.011667,42.986667],[14.965,43.013333],[14.908334,43.063333],[14.798334,43.176667],[14.581667,43.42],[14.506667,43.526667],[14.44,43.44],[14.408334,43.64],[14.391667,43.671667],[14.356667,43.716667],[14.171667,43.9],[14.015,44.008333],[13.666667,44.18],[13.631667,44.208333],[13.135,44.5],[13.113334,44.738333],[13.078334,44.975],[13.008334,45.185],[13.101667,45.335],[13.206519,45.449545],[13.312129,45.546382],[13.628749,45.631547],[13.71874,45.594721],[13.719279,45.60553],[13.734057,45.610466],[13.783727,45.597702],[13.812871,45.612412],[13.81375,45.614663],[13.800016,45.610115],[13.783705,45.613743],[13.77207,45.62495],[13.775695,45.635615],[13.756101,45.629207],[13.762389,45.634984],[13.744227,45.639168],[13.769441,45.653043],[13.753371,45.680645],[13.71199,45.702378],[13.712192,45.710221],[13.632043,45.770222],[13.556744,45.783734],[13.532853,45.804081]],[[13.531999,45.789437],[13.531983,45.789443],[13.532033,45.78952],[13.531999,45.789437]],[[13.532279,45.79021],[13.532288,45.790133],[13.532258,45.790219],[13.532279,45.79021]],[[13.629209,45.768324],[13.629144,45.768353],[13.629324,45.768315],[13.629209,45.768324]],[[13.518969,45.747011],[13.519032,45.747015],[13.519068,45.747008],[13.518969,45.747011]],[[12.325083,44.796601],[12.32398,44.797814],[12.324544,44.797767],[12.325083,44.796601]],[[12.324187,44.796877],[12.312395,44.799423],[12.307456,44.802224],[12.30845,44.802964],[12.324187,44.796877]],[[12.784435,43.964577],[12.784421,43.964439],[12.784374,43.964437],[12.784435,43.964577]],[[12.784999,43.964424],[12.785053,43.964409],[12.785,43.964262],[12.784999,43.964424]],[[12.905121,43.924467],[12.905329,43.924454],[12.905298,43.924292],[12.905121,43.924467]],[[12.906017,43.924354],[12.905894,43.924236],[12.905842,43.924256],[12.906017,43.924354]],[[12.905939,43.922341],[12.905431,43.922411],[12.905996,43.923045],[12.905939,43.922341]],[[12.904912,43.920075],[12.905256,43.920023],[12.9052,43.91982],[12.904912,43.920075]],[[12.905024,43.919568],[12.904845,43.919071],[12.904734,43.919276],[12.905024,43.919568]],[[12.904757,43.918269],[12.904393,43.91774],[12.904635,43.918828],[12.904757,43.918269]],[[13.016072,43.853118],[13.016184,43.853451],[13.016943,43.852882],[13.016072,43.853118]],[[13.018264,43.852409],[13.019394,43.851712],[13.017332,43.85255],[13.018264,43.852409]],[[13.016149,43.851245],[13.016035,43.851171],[13.015694,43.851651],[13.016149,43.851245]],[[13.016681,43.8513],[13.017292,43.851027],[13.017277,43.851031],[13.016681,43.8513]],[[13.218497,43.722135],[13.218497,43.722228],[13.21888,43.721985],[13.218497,43.722135]],[[13.505368,43.625966],[13.505138,43.626024],[13.505509,43.625935],[13.505368,43.625966]],[[13.501232,43.62461],[13.50152,43.624597],[13.501062,43.624523],[13.501232,43.62461]],[[13.735404,43.312213],[13.736119,43.311233],[13.733859,43.312084],[13.735404,43.312213]],[[13.813092,43.1668],[13.813112,43.1668],[13.81311,43.166719],[13.813092,43.1668]],[[13.890247,42.95752],[13.88995,42.957952],[13.890419,42.957512],[13.890247,42.95752]],[[15.743732,42.226485],[15.751561,42.225748],[15.747298,42.223442],[15.743732,42.226485]],[[15.510657,42.138551],[15.521181,42.138147],[15.508143,42.129456],[15.510657,42.138551]],[[15.523014,42.138632],[15.523564,42.138529],[15.522683,42.138375],[15.523014,42.138632]],[[15.515301,42.128806],[15.513457,42.123274],[15.501638,42.119728],[15.506432,42.122574],[15.515301,42.128806]],[[15.496251,42.12098],[15.490852,42.108917],[15.476699,42.106323],[15.474868,42.112432],[15.490814,42.125666],[15.496251,42.12098]],[[15.50017,42.123764],[15.500292,42.1237],[15.500192,42.123542],[15.50017,42.123764]],[[15.499439,42.123238],[15.500067,42.123343],[15.499519,42.122475],[15.499439,42.123238]],[[15.498939,42.121554],[15.496984,42.122504],[15.497706,42.122883],[15.498939,42.121554]],[[17.686244,40.765239],[17.686265,40.765198],[17.686168,40.764995],[17.686244,40.765239]]]}}
