{"type":"Feature","id":"gazetteer_polygon.49","geometry_name":"the_geom","properties":{"mrgid":64432,"name":"Dorsal de Nasca","url":"http://marineregions.org/gazetteer.php?p=details&id=64432","source":"gazetteer-misc"},"geometry":{"type":"Polygon","coordinates":[[[-76.999817,-17.582092],[-76.494812,-17.150696],[-76.047974,-16.58728],[-75.875366,-15.91272],[-76.2453,-15.587219],[-76.499878,-15.258362],[-76.924866,-14.903931],[-77.65509,-15.082031],[-78.098145,-15.452271],[-78.63385,-15.986633],[-78.791565,-16.524353],[-77.992859,-17.353271],[-77.674316,-17.712769],[-76.999817,-17.582092]]]}}
