{"type":"Feature","id":"gazetteer_polygon.51","geometry_name":"the_geom","properties":{"mrgid":64434,"name":"San Fernando","url":"http://marineregions.org/gazetteer.php?p=details&id=64434"},"geometry":{"type":"Polygon","coordinates":[[[-75.379476,-15.237245],[-75.324656,-15.195243],[-75.259868,-15.142053],[-75.256371,-15.137675],[-75.254562,-15.127737],[-75.246883,-15.121287],[-75.222832,-15.126327],[-75.197915,-15.12695],[-75.158719,-15.114878],[-75.148975,-15.108064],[-75.138772,-15.091347],[-75.136046,-15.078587],[-75.126982,-15.06891],[-75.117236,-15.054613],[-75.122889,-15.040527],[-75.13164,-15.026693],[-75.126418,-15.027531],[-75.122608,-15.023932],[-75.113986,-15.008184],[-75.10555,-15.001017],[-75.100275,-14.992439],[-75.099746,-14.9877],[-75.102031,-14.981609],[-75.102948,-14.970392],[-75.10829,-14.962453],[-75.125026,-14.947618],[-75.132494,-14.943953],[-75.141296,-14.936389],[-75.158174,-14.927284],[-75.179183,-14.922367],[-75.189676,-14.903949],[-75.205783,-14.884799],[-75.212347,-14.873618],[-75.217633,-14.869837],[-75.221885,-14.862724],[-75.225931,-14.85046],[-75.224873,-14.845711],[-75.218448,-14.834583],[-75.221303,-14.827907],[-75.228944,-14.818863],[-75.234786,-14.805319],[-75.243949,-14.799977],[-75.257605,-14.797304],[-75.283217,-14.785558],[-75.295947,-14.774027],[-75.307905,-14.777794],[-75.311663,-14.781011],[-75.316758,-14.792927],[-75.320041,-14.810967],[-75.328999,-14.821211],[-75.334814,-14.833233],[-75.336416,-14.833875],[-75.337484,-14.846332],[-75.3422,-14.860772],[-75.35221,-14.87096],[-75.349715,-14.882768],[-75.366813,-14.882934],[-75.380613,-14.879024],[-75.383344,-14.882377],[-75.387284,-14.881245],[-75.4046,-14.882164],[-75.412787,-14.888156],[-75.422324,-14.890892],[-75.427725,-14.895446],[-75.4374,-14.887824],[-75.445248,-14.877455],[-75.450284,-14.87363],[-75.484296,-14.863434],[-75.481951,-14.842775],[-75.483163,-14.836811],[-75.486585,-14.832512],[-75.489771,-14.832267],[-75.495154,-14.827725],[-75.499077,-14.828193],[-75.504969,-14.832234],[-75.517688,-14.82076],[-75.526142,-14.805503],[-75.528538,-14.806482],[-75.53032,-14.809908],[-75.53963,-14.806139],[-75.537416,-14.813216],[-75.548396,-14.815237],[-75.551787,-14.817518],[-75.552783,-14.822054],[-75.551362,-14.826747],[-75.552152,-14.830122],[-75.549509,-14.833425],[-75.550537,-14.839626],[-75.548922,-14.842251],[-75.55353,-14.845176],[-75.552138,-14.852852],[-75.553856,-14.855934],[-75.549887,-14.861154],[-75.554372,-14.860659],[-75.56339,-14.870843],[-75.562888,-14.87422],[-75.590905,-14.956638],[-75.572053,-15.016771],[-75.512593,-15.059314],[-75.431269,-15.213954],[-75.379476,-15.237245]]]}}
