{"type":"Feature","properties":{"mrgid":64653,"name":"Sur-Occidental (Los Canarreos)","placeType":"Ecological district","source":"MarineRegions:distritos_ecologicos"},"geometry":{"type":"Polygon","coordinates":[[[-81.122554,21.972553],[-81.151998,22.019479],[-81.166327,22.087146],[-81.186513,22.130791],[-81.181563,22.170796],[-81.198834,22.267239],[-81.178056,22.264708],[-81.142922,22.217401],[-81.14183,22.164045],[-81.116133,22.113502],[-81.140903,22.173348],[-81.139828,22.218086],[-81.185929,22.279049],[-81.211077,22.280125],[-81.219398,22.271524],[-81.196359,22.207144],[-81.207842,22.146959],[-81.197847,22.087756],[-81.216084,22.051927],[-81.225781,22.055414],[-81.208507,22.071499],[-81.205422,22.098666],[-81.23595,22.13494],[-81.248628,22.139216],[-81.263199,22.132631],[-81.283554,22.109231],[-81.279006,22.094642],[-81.292138,22.096215],[-81.295082,22.087682],[-81.296015,22.09663],[-81.289508,22.102169],[-81.319747,22.109678],[-81.319278,22.088428],[-81.303243,22.089663],[-81.324668,22.083726],[-81.331803,22.089475],[-81.360777,22.086565],[-81.389895,22.123631],[-81.386156,22.13637],[-81.392526,22.144124],[-81.385602,22.149939],[-81.392802,22.172371],[-81.431988,22.184833],[-81.435727,22.178463],[-81.442511,22.186494],[-81.479205,22.184002],[-81.485876,22.171285],[-81.487928,22.186079],[-81.475743,22.187463],[-81.494297,22.200618],[-81.50579,22.202002],[-81.503175,22.195067],[-81.526247,22.204571],[-81.525252,22.198039],[-81.564146,22.180365],[-81.566681,22.172559],[-81.579304,22.173142],[-81.571523,22.178737],[-81.579244,22.193577],[-81.621158,22.188481],[-81.625935,22.203464],[-81.635477,22.206587],[-81.653063,22.205226],[-81.660282,22.195985],[-81.670335,22.203317],[-81.690954,22.189067],[-81.699931,22.194776],[-81.691456,22.201513],[-81.709793,22.196738],[-81.720848,22.204943],[-81.715707,22.197713],[-81.724281,22.193672],[-81.726226,22.203387],[-81.734815,22.20488],[-81.740393,22.193099],[-81.745129,22.197721],[-81.757945,22.191545],[-81.757381,22.164792],[-81.76937,22.167554],[-81.773561,22.181145],[-81.794378,22.188468],[-81.806395,22.176181],[-81.828541,22.190328],[-81.830788,22.200847],[-81.848906,22.200895],[-81.852553,22.220113],[-81.845637,22.226791],[-81.851537,22.225403],[-81.855303,22.245355],[-81.868197,22.257908],[-81.956465,22.276514],[-82.035504,22.324416],[-82.097762,22.341472],[-82.104247,22.346703],[-82.098037,22.3685],[-82.110091,22.378224],[-82.129829,22.362477],[-82.141258,22.367206],[-82.139836,22.378914],[-82.157991,22.395854],[-82.145896,22.419945],[-82.123258,22.429773],[-81.986041,22.427615],[-81.958158,22.43705],[-81.841809,22.427614],[-81.769086,22.442239],[-81.751392,22.457877],[-81.73874,22.451352],[-81.700685,22.454197],[-81.674716,22.467814],[-81.648159,22.489006],[-81.652285,22.534815],[-81.63731,22.538162],[-81.646191,22.543865],[-81.645163,22.56761],[-81.680941,22.58142],[-81.75491,22.637192],[-81.88047,22.678804],[-81.986308,22.673557],[-82.098117,22.653927],[-82.17917,22.68197],[-82.237899,22.687586],[-82.277759,22.685541],[-82.289828,22.675344],[-82.302734,22.683053],[-82.342168,22.678296],[-82.522439,22.68708],[-82.55602,22.667461],[-82.570468,22.689506],[-82.633834,22.678979],[-82.736369,22.706071],[-82.775353,22.693741],[-82.780708,22.678047],[-82.770744,22.663724],[-82.784818,22.655628],[-82.786687,22.629348],[-82.815956,22.601698],[-82.870011,22.584012],[-82.913105,22.547394],[-82.952961,22.5459],[-82.955826,22.555988],[-82.959313,22.553248],[-82.959313,22.532075],[-82.975006,22.520741],[-83.022335,22.511026],[-83.066675,22.490226],[-83.088596,22.491565],[-83.081174,22.475839],[-83.104538,22.450837],[-83.148629,22.350917],[-83.171795,22.331238],[-83.192595,22.327377],[-83.215513,22.332483],[-83.234693,22.350792],[-83.227345,22.341575],[-83.245031,22.350045],[-83.264585,22.345935],[-83.273927,22.333853],[-83.268594,22.323974],[-83.288538,22.325881],[-83.285759,22.296115],[-83.301452,22.294869],[-83.290616,22.29188],[-83.306943,22.280668],[-83.320568,22.282881],[-83.321965,22.257261],[-83.314163,22.245849],[-83.330583,22.239444],[-83.328836,22.253069],[-83.349681,22.216851],[-83.371924,22.200664],[-83.406627,22.203692],[-83.404182,22.196239],[-83.420951,22.183313],[-83.445057,22.186923],[-83.442029,22.200082],[-83.448551,22.185758],[-83.480459,22.169921],[-83.494666,22.182148],[-83.522382,22.185642],[-83.550519,22.200564],[-83.542684,22.2131],[-83.568428,22.234922],[-83.568696,22.243505],[-83.627167,22.180743],[-83.655463,22.165187],[-83.667667,22.167466],[-83.660827,22.180475],[-83.675043,22.19174],[-83.684028,22.188521],[-83.685369,22.17216],[-83.725065,22.17672],[-83.767711,22.163577],[-83.787827,22.165187],[-83.799494,22.179134],[-83.837044,22.165187],[-83.850723,22.168539],[-83.850455,22.174842],[-83.855685,22.168942],[-83.896194,22.174008],[-83.88948,22.181279],[-83.900074,22.183291],[-83.898906,22.173499],[-83.952644,22.143461],[-83.971553,22.119054],[-83.968925,22.054115],[-83.977245,22.057357],[-83.97021,22.067573],[-83.984648,22.067847],[-83.994925,22.061486],[-83.996393,22.043562],[-83.975376,22.017922],[-83.968007,22.017745],[-83.962991,22.031174],[-83.967885,22.04818],[-83.958525,22.031694],[-83.977308,22.000821],[-83.999896,21.979502],[-84.003957,21.968081],[-83.997553,21.958185],[-83.970937,21.955133],[-83.948032,21.980552],[-83.901634,22.002768],[-83.782379,22.005654],[-83.767971,22.017086],[-83.709372,22.003225],[-83.686169,21.977414],[-83.652939,21.97294],[-83.63291,21.947064],[-83.602653,21.945385],[-83.596985,21.937143],[-83.57634,21.942889],[-83.506777,21.908915],[-83.438007,21.91446],[-83.433548,21.907356],[-83.349546,21.895764],[-83.281637,21.856626],[-83.236123,21.787822],[-83.23034,21.773524],[-83.246009,21.699931],[-83.235185,21.640887],[-83.171621,21.592455],[-83.178347,21.577042],[-83.143466,21.523056],[-83.113357,21.513235],[-83.082645,21.468664],[-83.068246,21.462558],[-83.001041,21.460965],[-82.895471,21.435545],[-82.76948,21.440287],[-82.527085,21.536488],[-82.492155,21.52775],[-82.432308,21.534854],[-82.405103,21.528354],[-82.401485,21.514359],[-82.387049,21.514078],[-82.316991,21.555085],[-82.286233,21.537099],[-82.266718,21.510178],[-82.264701,21.486024],[-82.231356,21.45823],[-82.162707,21.451606],[-82.146415,21.477777],[-82.130281,21.480676],[-82.10418,21.469808],[-82.057042,21.511305],[-82.026654,21.516165],[-81.956055,21.569815],[-81.897218,21.587059],[-81.872879,21.604804],[-81.842584,21.590374],[-81.826156,21.566174],[-81.801577,21.553905],[-81.79626,21.542456],[-81.758127,21.545301],[-81.73102,21.559782],[-81.695165,21.555546],[-81.666455,21.569405],[-81.623586,21.554642],[-81.585767,21.576851],[-81.525012,21.576308],[-81.435238,21.59789],[-81.406151,21.591152],[-81.3811,21.605267],[-81.25207,21.605504],[-81.226852,21.616812],[-81.195861,21.608157],[-81.177014,21.615695],[-81.151985,21.610928],[-81.128064,21.618239],[-81.074469,21.617723],[-81.050356,21.590147],[-80.972135,21.542827],[-80.925281,21.567719],[-80.883687,21.569238],[-80.860754,21.5831],[-80.834681,21.582406],[-80.833521,21.590862],[-80.886938,21.609489],[-80.948446,21.669187],[-81.001548,21.704876],[-81.052202,21.711916],[-81.225247,21.839292],[-81.33741,21.865736],[-81.392579,21.887239],[-81.430804,21.923016],[-81.48585,22.00443],[-81.498868,22.01027],[-81.496292,22.043053],[-81.533625,22.085526],[-81.49371,22.110399],[-81.487318,22.147872],[-81.480024,22.135584],[-81.488017,22.08139],[-81.423163,22.047461],[-81.370121,22.006878],[-81.300154,22.005534],[-81.253861,21.978246],[-81.13176,21.945879],[-81.106806,21.951229],[-81.110042,21.968068],[-81.122554,21.972553]],[[-83.024792,21.546944],[-83.026461,21.544085],[-83.032321,21.548861],[-83.024792,21.546944]],[[-82.165844,21.543225],[-82.178565,21.554731],[-82.178655,21.558896],[-82.174989,21.558554],[-82.165844,21.543225]],[[-83.100234,21.569001],[-83.096413,21.571785],[-83.095108,21.569325],[-83.100234,21.569001]],[[-83.09368,21.564729],[-83.092145,21.569135],[-83.089086,21.567472],[-83.09368,21.564729]],[[-83.076988,21.558709],[-83.083577,21.564094],[-83.082304,21.567568],[-83.078252,21.565917],[-83.076988,21.558709]],[[-83.059626,21.558019],[-83.056218,21.562655],[-83.051273,21.560189],[-83.059626,21.558019]],[[-82.396677,21.558928],[-82.397982,21.561727],[-82.393031,21.562403],[-82.396677,21.558928]],[[-82.280045,21.575606],[-82.322284,21.56899],[-82.33754,21.558784],[-82.346722,21.562037],[-82.331611,21.576997],[-82.320088,21.573478],[-82.315094,21.583124],[-82.280045,21.575606]],[[-82.224085,21.573945],[-82.235572,21.572355],[-82.238758,21.575055],[-82.229218,21.578474],[-82.224085,21.573945]],[[-82.246724,21.575889],[-82.248004,21.579459],[-82.244106,21.58089],[-82.246724,21.575889]],[[-82.363096,21.557043],[-82.378113,21.561211],[-82.351204,21.571397],[-82.363096,21.557043]],[[-83.064036,21.565543],[-83.067345,21.557967],[-83.071589,21.56524],[-83.064036,21.565543]],[[-82.459042,21.574699],[-82.414599,21.562948],[-82.427146,21.551915],[-82.458001,21.5644],[-82.449561,21.568385],[-82.459042,21.574699]],[[-82.585113,21.695167],[-82.5859,21.69995],[-82.581448,21.698271],[-82.585113,21.695167]],[[-82.544479,21.690088],[-82.552867,21.69771],[-82.548631,21.698498],[-82.544479,21.690088]],[[-82.513896,21.694595],[-82.532817,21.69798],[-82.523222,21.703704],[-82.513896,21.694595]],[[-82.577805,21.703828],[-82.577643,21.706739],[-82.57402,21.705447],[-82.577805,21.703828]],[[-82.540677,21.70257],[-82.539925,21.704074],[-82.538151,21.703431],[-82.540677,21.70257]],[[-82.506421,21.699486],[-82.505893,21.700748],[-82.503678,21.699918],[-82.506421,21.699486]],[[-82.511595,21.703391],[-82.512408,21.706006],[-82.508735,21.705307],[-82.511595,21.703391]],[[-82.479526,21.707203],[-82.473194,21.713585],[-82.470579,21.710505],[-82.479526,21.707203]],[[-82.556163,21.737175],[-82.543082,21.744263],[-82.535606,21.731389],[-82.530114,21.740361],[-82.524617,21.716589],[-82.532387,21.713796],[-82.536907,21.722564],[-82.550302,21.712537],[-82.569075,21.715074],[-82.555506,21.719884],[-82.566957,21.734024],[-82.562455,21.748101],[-82.571459,21.76183],[-82.555267,21.750999],[-82.556163,21.737175]],[[-82.52222,21.710631],[-82.52295,21.712258],[-82.51876,21.71215],[-82.52222,21.710631]],[[-82.492355,21.710736],[-82.493519,21.70446],[-82.504237,21.711488],[-82.492355,21.710736]],[[-82.488071,21.706944],[-82.490584,21.711865],[-82.488658,21.715906],[-82.485914,21.712367],[-82.488071,21.706944]],[[-82.257916,21.5745],[-82.260598,21.576581],[-82.252409,21.58217],[-82.257916,21.5745]],[[-82.218368,21.579162],[-82.217325,21.583684],[-82.213809,21.581297],[-82.218368,21.579162]],[[-82.455496,21.635519],[-82.454121,21.639325],[-82.453012,21.639048],[-82.455496,21.635519]],[[-82.458351,21.634768],[-82.464652,21.637595],[-82.463658,21.642606],[-82.459265,21.640001],[-82.458351,21.634768]],[[-82.421373,21.624828],[-82.42837,21.635803],[-82.418726,21.642901],[-82.421373,21.624828]],[[-82.387799,21.613382],[-82.396603,21.617349],[-82.385612,21.625031],[-82.383256,21.623097],[-82.387799,21.613382]],[[-82.363429,21.598959],[-82.351423,21.603429],[-82.35299,21.600197],[-82.363429,21.598959]],[[-81.987993,21.648582],[-81.963789,21.63769],[-81.970445,21.613183],[-82.017341,21.598055],[-82.043361,21.581112],[-82.066052,21.580507],[-82.07755,21.564169],[-82.106898,21.556908],[-82.119,21.561749],[-82.120815,21.567195],[-82.10478,21.567497],[-82.112646,21.575364],[-82.122328,21.57143],[-82.115369,21.578692],[-82.101149,21.57022],[-82.079668,21.591097],[-82.06696,21.588979],[-82.044571,21.608645],[-82.037612,21.604712],[-82.034889,21.613788],[-82.000398,21.617721],[-81.984968,21.627101],[-81.979522,21.639808],[-82.015828,21.641018],[-82.010382,21.648582],[-81.987993,21.648582]],[[-82.213024,21.582437],[-82.205957,21.592919],[-82.203382,21.583754],[-82.213024,21.582437]],[[-82.334682,21.588181],[-82.340578,21.589529],[-82.334839,21.606706],[-82.329503,21.601462],[-82.334682,21.588181]],[[-82.347135,21.603252],[-82.350347,21.604835],[-82.343125,21.608229],[-82.347135,21.603252]],[[-82.117832,21.618284],[-82.127774,21.605922],[-82.097821,21.603804],[-82.059396,21.614998],[-82.054555,21.609552],[-82.086626,21.601081],[-82.100544,21.588071],[-82.115067,21.604409],[-82.136245,21.592912],[-82.131102,21.614393],[-82.122328,21.625588],[-82.117832,21.618284]],[[-81.835393,21.663636],[-81.848138,21.645654],[-81.867193,21.640363],[-81.912061,21.605352],[-81.925625,21.610179],[-81.941226,21.635256],[-81.938408,21.645865],[-81.929671,21.647195],[-81.934931,21.637638],[-81.929129,21.622672],[-81.917017,21.619186],[-81.886223,21.643316],[-81.896152,21.650086],[-81.835393,21.663636]],[[-81.789708,21.639128],[-81.799133,21.642281],[-81.804301,21.652094],[-81.792,21.646365],[-81.789708,21.639128]],[[-81.681124,21.62421],[-81.69436,21.619645],[-81.704256,21.625613],[-81.691403,21.626503],[-81.681124,21.62421]],[[-81.515173,21.626042],[-81.51823,21.633141],[-81.514738,21.63203],[-81.515173,21.626042]],[[-81.601393,21.629315],[-81.588815,21.631915],[-81.591059,21.627174],[-81.601393,21.629315]],[[-81.609317,21.626259],[-81.618001,21.631893],[-81.609211,21.63255],[-81.609317,21.626259]],[[-81.581543,21.62793],[-81.580763,21.632603],[-81.572492,21.629706],[-81.581543,21.62793]],[[-81.66389,21.624104],[-81.66615,21.635851],[-81.653203,21.632362],[-81.653104,21.627834],[-81.66389,21.624104]],[[-81.36068,21.699031],[-81.512678,21.595937],[-81.557002,21.588222],[-81.571374,21.608342],[-81.569031,21.613992],[-81.55858,21.606377],[-81.565641,21.628006],[-81.521755,21.619386],[-81.520544,21.627403],[-81.508223,21.610261],[-81.503859,21.627766],[-81.490327,21.636263],[-81.494676,21.643136],[-81.503147,21.636631],[-81.497747,21.646297],[-81.479467,21.637606],[-81.453226,21.638447],[-81.429475,21.653423],[-81.436585,21.65781],[-81.42055,21.682468],[-81.36068,21.699031]],[[-81.460398,21.642732],[-81.462152,21.643231],[-81.450531,21.648642],[-81.460398,21.642732]],[[-82.4609,21.656102],[-82.462649,21.658689],[-82.456889,21.660347],[-82.4609,21.656102]],[[-81.864058,21.670142],[-81.855669,21.674061],[-81.855502,21.671881],[-81.864058,21.670142]],[[-82.434944,21.690426],[-82.43024,21.693572],[-82.428424,21.690427],[-82.434944,21.690426]],[[-82.441258,21.679369],[-82.435381,21.682008],[-82.434434,21.67966],[-82.441258,21.679369]],[[-82.459929,21.667123],[-82.454335,21.673324],[-82.449854,21.668134],[-82.459929,21.667123]],[[-82.448942,21.671592],[-82.448976,21.674868],[-82.444359,21.674393],[-82.448942,21.671592]],[[-82.440852,21.69347],[-82.439032,21.695958],[-82.436994,21.695172],[-82.440852,21.69347]],[[-81.951301,21.697706],[-81.938374,21.694268],[-81.936256,21.683376],[-81.954107,21.685191],[-81.959553,21.678535],[-81.962276,21.680351],[-81.951301,21.697706]],[[-81.858802,21.682771],[-81.853658,21.695781],[-81.827941,21.704555],[-81.858802,21.682771]],[[-82.44761,21.693774],[-82.455134,21.69566],[-82.446479,21.703441],[-82.44761,21.693774]],[[-82.460673,21.70173],[-82.454304,21.704489],[-82.454766,21.701611],[-82.460673,21.70173]],[[-82.471926,21.701911],[-82.464791,21.707896],[-82.464765,21.699504],[-82.471926,21.701911]],[[-82.064237,21.726036],[-82.077247,21.725431],[-82.077852,21.713329],[-82.092375,21.699412],[-82.079062,21.733903],[-82.070288,21.739651],[-82.064237,21.726036]],[[-83.221761,21.851108],[-83.22386,21.856206],[-83.218554,21.856032],[-83.221761,21.851108]],[[-83.213225,21.838712],[-83.216118,21.848095],[-83.208849,21.841138],[-83.213225,21.838712]],[[-83.616308,21.975952],[-83.633928,21.983387],[-83.634452,21.987136],[-83.626927,21.989332],[-83.616308,21.975952]],[[-83.487702,21.949203],[-83.48702,21.946646],[-83.523273,21.945706],[-83.487702,21.949203]],[[-83.379637,21.950631],[-83.378407,21.945106],[-83.438853,21.938243],[-83.405632,21.951729],[-83.379637,21.950631]],[[-83.455348,21.946271],[-83.455051,21.947893],[-83.452771,21.947587],[-83.455348,21.946271]],[[-83.462184,21.947644],[-83.461558,21.949589],[-83.458454,21.948768],[-83.462184,21.947644]],[[-83.333912,21.949631],[-83.331724,21.948019],[-83.345187,21.949556],[-83.333912,21.949631]],[[-83.357539,21.945558],[-83.358838,21.94738],[-83.353667,21.949347],[-83.357539,21.945558]],[[-83.370651,21.947265],[-83.370309,21.949533],[-83.367052,21.949788],[-83.370651,21.947265]],[[-83.468928,21.947026],[-83.469739,21.949583],[-83.466909,21.950615],[-83.468928,21.947026]],[[-83.543932,21.95486],[-83.611645,21.957987],[-83.614617,21.971004],[-83.543932,21.95486]],[[-82.587727,21.77272],[-82.584503,21.771124],[-82.592189,21.769324],[-82.587727,21.77272]],[[-82.603741,21.777335],[-82.603567,21.779197],[-82.600248,21.778648],[-82.603741,21.777335]],[[-82.624127,21.773725],[-82.623953,21.775586],[-82.620635,21.775038],[-82.624127,21.773725]],[[-82.626171,21.778004],[-82.620869,21.779403],[-82.620846,21.777576],[-82.626171,21.778004]],[[-82.602745,21.845527],[-82.603294,21.84677],[-82.600922,21.847292],[-82.602745,21.845527]],[[-82.60099,21.851478],[-82.599721,21.858715],[-82.59702,21.854395],[-82.60099,21.851478]],[[-83.183205,21.780734],[-83.18793,21.775421],[-83.202644,21.798928],[-83.205141,21.826338],[-83.200126,21.823314],[-83.183205,21.780734]],[[-82.603811,21.806135],[-82.607867,21.809842],[-82.599959,21.817618],[-82.597262,21.814751],[-82.603811,21.806135]],[[-82.588271,21.829616],[-82.59447,21.839967],[-82.587675,21.838733],[-82.588271,21.829616]],[[-82.607581,21.781355],[-82.614406,21.782564],[-82.589712,21.792675],[-82.607581,21.781355]],[[-81.813116,21.872095],[-81.839438,21.865893],[-81.829151,21.8786],[-81.813116,21.872095]],[[-82.598964,21.870906],[-82.602332,21.873211],[-82.600869,21.875501],[-82.598964,21.870906]],[[-82.931963,22.099793],[-82.929525,22.107131],[-82.926062,22.107029],[-82.923859,22.103472],[-82.931963,22.099793]],[[-81.229995,22.104271],[-81.22753,22.100933],[-81.238088,22.106795],[-81.229995,22.104271]],[[-81.818286,22.106306],[-81.823725,22.106792],[-81.823033,22.109657],[-81.818286,22.106306]],[[-82.887341,22.05215],[-82.888463,22.054414],[-82.879252,22.056091],[-82.887341,22.05215]],[[-81.333421,22.053414],[-81.335602,22.050947],[-81.338057,22.054334],[-81.333421,22.053414]],[[-81.607976,22.054003],[-81.607476,22.056871],[-81.605059,22.056743],[-81.607976,22.054003]],[[-81.379962,22.058678],[-81.377903,22.061598],[-81.375514,22.058494],[-81.379962,22.058678]],[[-81.615537,22.053519],[-81.615055,22.059903],[-81.6125,22.058826],[-81.615537,22.053519]],[[-81.641129,22.061394],[-81.641328,22.063762],[-81.6385,22.063159],[-81.641129,22.061394]],[[-82.92668,22.088156],[-82.925201,22.092472],[-82.917589,22.087117],[-82.92668,22.088156]],[[-81.258889,22.090608],[-81.26963,22.085438],[-81.272773,22.087531],[-81.26964,22.090558],[-81.258889,22.090608]],[[-82.924727,22.072271],[-82.922464,22.073441],[-82.92165,22.071654],[-82.924727,22.072271]],[[-81.463374,22.080955],[-81.479655,22.090133],[-81.481664,22.098583],[-81.478531,22.099131],[-81.463374,22.080955]],[[-81.257982,22.06396],[-81.253949,22.065564],[-81.253126,22.063941],[-81.257982,22.06396]],[[-82.92098,22.067471],[-82.921183,22.069509],[-82.916713,22.069562],[-82.92098,22.067471]],[[-82.895841,22.06537],[-82.89641,22.05771],[-82.905542,22.060501],[-82.903606,22.065606],[-82.895841,22.06537]],[[-81.603415,22.065405],[-81.597133,22.065174],[-81.598853,22.062962],[-81.603415,22.065405]],[[-81.607093,22.073153],[-81.61159,22.066311],[-81.619222,22.077856],[-81.607093,22.073153]],[[-81.668293,22.068578],[-81.675293,22.075129],[-81.672005,22.076635],[-81.668293,22.068578]],[[-81.338677,22.076242],[-81.336617,22.079161],[-81.334229,22.076057],[-81.338677,22.076242]],[[-81.253511,22.079355],[-81.249616,22.083792],[-81.243636,22.076694],[-81.253511,22.079355]],[[-81.353616,22.071929],[-81.369038,22.065523],[-81.372808,22.066597],[-81.35898,22.077855],[-81.353616,22.071929]],[[-81.60518,22.073482],[-81.605537,22.075973],[-81.602872,22.075402],[-81.60518,22.073482]],[[-81.365542,22.075018],[-81.371726,22.074787],[-81.370336,22.076741],[-81.365542,22.075018]],[[-81.29114,22.072142],[-81.302996,22.080544],[-81.303574,22.084949],[-81.293241,22.081867],[-81.29114,22.072142]],[[-81.281994,22.077148],[-81.28851,22.082247],[-81.288099,22.084433],[-81.278073,22.083217],[-81.281994,22.077148]],[[-81.667913,22.097657],[-81.670528,22.087725],[-81.674425,22.087265],[-81.678567,22.097878],[-81.667913,22.097657]],[[-81.466788,22.096297],[-81.466726,22.10237],[-81.462589,22.098846],[-81.466788,22.096297]],[[-81.596183,22.083204],[-81.60805,22.083617],[-81.623111,22.098785],[-81.614488,22.108316],[-81.596183,22.083204]],[[-81.392519,22.099729],[-81.399282,22.097788],[-81.401869,22.099973],[-81.397351,22.10458],[-81.392519,22.099729]],[[-81.722656,22.110697],[-81.718712,22.115475],[-81.714143,22.106275],[-81.722656,22.110697]],[[-81.407602,22.110657],[-81.408356,22.107026],[-81.416199,22.109706],[-81.407602,22.110657]],[[-81.431082,22.107405],[-81.439427,22.109776],[-81.436846,22.113243],[-81.431082,22.107405]],[[-81.690458,22.113283],[-81.682113,22.115645],[-81.681914,22.114214],[-81.690458,22.113283]],[[-81.401947,22.112302],[-81.399845,22.114899],[-81.397973,22.112679],[-81.401947,22.112302]],[[-81.771735,22.120631],[-81.772009,22.122974],[-81.769061,22.123473],[-81.771735,22.120631]],[[-81.669434,22.114867],[-81.674384,22.117876],[-81.670325,22.123952],[-81.669467,22.1216],[-81.669434,22.114867]],[[-81.716293,22.119003],[-81.713672,22.123001],[-81.712208,22.121736],[-81.716293,22.119003]],[[-81.119541,21.960884],[-81.120405,21.965468],[-81.117824,21.964897],[-81.119541,21.960884]],[[-82.770295,22.032765],[-82.744517,22.011164],[-82.713358,22.008497],[-82.747324,22.008497],[-82.768097,22.02155],[-82.770295,22.032765]],[[-82.700113,22.010854],[-82.673216,21.998251],[-82.67083,21.985339],[-82.649777,21.980286],[-82.640794,21.969057],[-82.675041,21.981549],[-82.683322,21.999936],[-82.712235,22.006953],[-82.700113,22.010854]],[[-81.265848,22.036964],[-81.297016,22.034812],[-81.281088,22.042559],[-81.265848,22.036964]],[[-81.251195,22.04208],[-81.252434,22.044643],[-81.244548,22.043242],[-81.251195,22.04208]],[[-81.239848,22.043351],[-81.239971,22.045204],[-81.23647,22.04367],[-81.239848,22.043351]],[[-81.224612,22.046265],[-81.231028,22.043383],[-81.23537,22.048177],[-81.224612,22.046265]],[[-81.306161,22.030242],[-81.314288,22.03137],[-81.312554,22.033088],[-81.306161,22.030242]],[[-81.585414,22.039969],[-81.573952,22.032328],[-81.572794,22.024125],[-81.577855,22.024543],[-81.585414,22.039969]],[[-82.969083,21.943836],[-82.922037,21.926494],[-82.849139,21.931072],[-82.812066,21.92069],[-82.785684,21.903419],[-82.779267,21.912135],[-82.752131,21.892093],[-82.743745,21.904241],[-82.724338,21.88711],[-82.690553,21.883041],[-82.67537,21.859501],[-82.692418,21.840731],[-82.693619,21.826499],[-82.705463,21.826126],[-82.677459,21.817249],[-82.679709,21.799795],[-82.655674,21.797684],[-82.625117,21.772894],[-82.624145,21.76025],[-82.622264,21.771211],[-82.604436,21.77178],[-82.598306,21.760617],[-82.606321,21.764794],[-82.605595,21.758438],[-82.584721,21.742873],[-82.580182,21.746337],[-82.575021,21.735842],[-82.58897,21.72074],[-82.580596,21.722129],[-82.578823,21.715579],[-82.594149,21.706559],[-82.587892,21.702286],[-82.597213,21.695091],[-82.604738,21.662788],[-82.581626,21.640014],[-82.562076,21.639367],[-82.566107,21.610443],[-82.557242,21.594956],[-82.541519,21.594371],[-82.546232,21.56061],[-82.561114,21.559118],[-82.628929,21.512797],[-82.656264,21.512909],[-82.714088,21.483712],[-82.837675,21.443703],[-82.904592,21.440487],[-82.926544,21.448561],[-82.92368,21.452885],[-82.954504,21.451774],[-83.001371,21.464336],[-83.072106,21.467871],[-83.083826,21.474743],[-83.115207,21.523886],[-83.135516,21.524087],[-83.146453,21.533362],[-83.147198,21.545542],[-83.173029,21.576791],[-83.165265,21.596398],[-83.19201,21.627238],[-83.127417,21.586925],[-83.119841,21.572748],[-83.110617,21.573911],[-83.113493,21.563312],[-83.099549,21.551452],[-83.066166,21.547362],[-83.05702,21.553779],[-83.030318,21.538798],[-82.995655,21.55505],[-83.00619,21.571972],[-82.985057,21.575715],[-82.970935,21.597296],[-82.964207,21.59298],[-82.984903,21.568058],[-82.974181,21.565233],[-82.959034,21.595738],[-82.937161,21.601804],[-82.939202,21.582328],[-82.954803,21.566678],[-82.949559,21.554361],[-82.944824,21.573795],[-82.936319,21.57803],[-82.93526,21.593362],[-82.937122,21.597992],[-82.925703,21.599955],[-82.949296,21.606589],[-82.95461,21.602748],[-82.975227,21.609494],[-82.978106,21.604421],[-83.007854,21.678435],[-83.03103,21.689342],[-83.048729,21.727861],[-83.092236,21.780279],[-83.058199,21.845453],[-83.004251,21.893716],[-82.948206,21.924265],[-82.947766,21.933436],[-82.95977,21.930464],[-82.969703,21.937924],[-83.001397,21.928862],[-82.969083,21.943836]],[[-82.639531,21.941197],[-82.631952,21.951443],[-82.642759,21.965198],[-82.634899,21.966882],[-82.635601,21.960426],[-82.618758,21.952285],[-82.639531,21.941197]],[[-82.640094,21.899174],[-82.643748,21.910892],[-82.626855,21.89711],[-82.640094,21.899174]],[[-82.582803,21.886842],[-82.591934,21.873432],[-82.596597,21.877619],[-82.590553,21.8863],[-82.608504,21.893143],[-82.582803,21.886842]],[[-82.640935,21.917477],[-82.636864,21.931933],[-82.632373,21.924495],[-82.640935,21.917477]],[[-81.268443,22.049062],[-81.261447,22.050947],[-81.26147,22.049023],[-81.268443,22.049062]],[[-81.59714,22.050894],[-81.59674,22.049009],[-81.602621,22.048355],[-81.59714,22.050894]],[[-81.322788,22.050513],[-81.322813,22.05296],[-81.316558,22.051089],[-81.322788,22.050513]],[[-81.427585,22.070406],[-81.423772,22.057023],[-81.402428,22.036152],[-81.391219,22.040951],[-81.385791,22.0264],[-81.357718,22.037431],[-81.365399,22.055996],[-81.354168,22.05351],[-81.348721,22.065827],[-81.342282,22.040562],[-81.316843,22.027975],[-81.336309,22.020988],[-81.35608,22.028813],[-81.383264,22.021551],[-81.45463,22.074432],[-81.427585,22.070406]],[[-82.756728,22.060569],[-82.772728,22.047657],[-82.776939,22.058604],[-82.809782,22.059446],[-82.842625,22.049341],[-82.857503,22.035025],[-82.8561,22.044007],[-82.875469,22.051587],[-82.863117,22.065061],[-82.866486,22.051025],[-82.860591,22.048499],[-82.803045,22.065341],[-82.756728,22.060569]],[[-81.536274,22.047288],[-81.545808,22.034341],[-81.560725,22.037925],[-81.54972,22.039907],[-81.553939,22.051235],[-81.584455,22.051608],[-81.586271,22.069858],[-81.5943,22.076525],[-81.57528,22.075839],[-81.536274,22.047288]],[[-82.917685,22.12869],[-82.915129,22.118027],[-82.932873,22.123482],[-82.931329,22.128032],[-82.917685,22.12869]],[[-81.905954,22.131285],[-81.903754,22.134846],[-81.894927,22.12839],[-81.905954,22.131285]],[[-81.744733,22.126731],[-81.742832,22.13213],[-81.739389,22.131599],[-81.744733,22.126731]],[[-81.704231,22.122011],[-81.702933,22.13427],[-81.699572,22.134151],[-81.697762,22.129764],[-81.704231,22.122011]],[[-81.900157,22.140622],[-81.904543,22.147596],[-81.901488,22.150077],[-81.899368,22.149596],[-81.900157,22.140622]],[[-81.892498,22.134308],[-81.893179,22.136935],[-81.888854,22.136263],[-81.892498,22.134308]],[[-81.811328,22.133217],[-81.803206,22.148454],[-81.80231,22.130223],[-81.811328,22.133217]],[[-81.470646,22.137188],[-81.467524,22.14096],[-81.466189,22.137893],[-81.470646,22.137188]],[[-81.719562,22.138854],[-81.716606,22.141894],[-81.715846,22.138611],[-81.719562,22.138854]],[[-81.457722,22.144597],[-81.461121,22.146304],[-81.455191,22.151439],[-81.457722,22.144597]],[[-81.469122,22.144322],[-81.465675,22.147764],[-81.464506,22.145991],[-81.469122,22.144322]],[[-81.63361,22.141622],[-81.633052,22.144193],[-81.630575,22.143406],[-81.63361,22.141622]],[[-81.6113,22.172094],[-81.604655,22.147043],[-81.619527,22.112756],[-81.625283,22.127282],[-81.61165,22.150375],[-81.616818,22.157941],[-81.630962,22.151131],[-81.624878,22.163209],[-81.633194,22.170608],[-81.6113,22.172094]],[[-81.651045,22.142976],[-81.651345,22.146253],[-81.64887,22.146086],[-81.651045,22.142976]],[[-81.754972,22.14574],[-81.750123,22.150927],[-81.748671,22.147639],[-81.754972,22.14574]],[[-81.712776,22.145434],[-81.7141,22.149077],[-81.712432,22.149287],[-81.712776,22.145434]],[[-81.789094,22.149302],[-81.794317,22.153909],[-81.789013,22.154449],[-81.789094,22.149302]],[[-81.743576,22.141558],[-81.740312,22.148912],[-81.743049,22.155191],[-81.73738,22.148017],[-81.743576,22.141558]],[[-81.865353,22.155057],[-81.86194,22.157181],[-81.861126,22.150987],[-81.865353,22.155057]],[[-81.461516,22.15495],[-81.461191,22.1582],[-81.457496,22.156399],[-81.461516,22.15495]],[[-81.714621,22.159109],[-81.714364,22.163155],[-81.710574,22.163171],[-81.714621,22.159109]],[[-82.821735,22.220174],[-82.806797,22.230942],[-82.806865,22.228046],[-82.821735,22.220174]],[[-82.02009,22.21712],[-82.010785,22.226865],[-82.013021,22.214923],[-82.02009,22.21712]],[[-81.86164,22.165454],[-81.859376,22.172134],[-81.855752,22.171847],[-81.86164,22.165454]],[[-81.700302,22.171569],[-81.689261,22.166604],[-81.685295,22.155775],[-81.704729,22.165295],[-81.700302,22.171569]],[[-81.462158,22.16996],[-81.458148,22.174407],[-81.456866,22.171912],[-81.462158,22.16996]],[[-81.99084,22.199314],[-81.993268,22.203681],[-81.986239,22.202211],[-81.99084,22.199314]],[[-81.957838,22.210916],[-81.958188,22.212412],[-81.955898,22.212347],[-81.957838,22.210916]],[[-81.927389,22.191877],[-81.917827,22.194011],[-81.92152,22.189237],[-81.927389,22.191877]],[[-81.708457,22.170438],[-81.735635,22.172478],[-81.740588,22.17961],[-81.708457,22.170438]],[[-81.644683,22.164882],[-81.656755,22.159693],[-81.680005,22.164573],[-81.673362,22.168273],[-81.678689,22.182203],[-81.667254,22.174091],[-81.644683,22.164882]],[[-81.650795,22.179567],[-81.653633,22.18711],[-81.648409,22.186079],[-81.650795,22.179567]],[[-81.737588,22.18603],[-81.737317,22.185613],[-81.745201,22.181981],[-81.737588,22.18603]],[[-81.644471,22.185858],[-81.645026,22.189025],[-81.643351,22.188981],[-81.644471,22.185858]],[[-81.710175,22.188586],[-81.706269,22.189513],[-81.706123,22.188214],[-81.710175,22.188586]],[[-81.636352,22.191413],[-81.637282,22.195171],[-81.629208,22.195592],[-81.636352,22.191413]],[[-81.645802,22.194633],[-81.64403,22.197155],[-81.640936,22.19425],[-81.645802,22.194633]],[[-81.912401,22.210635],[-81.913762,22.223502],[-81.906988,22.212943],[-81.912401,22.210635]],[[-82.239274,22.34567],[-82.242937,22.350306],[-82.238439,22.35287],[-82.237357,22.351005],[-82.239274,22.34567]],[[-82.116252,22.346978],[-82.128795,22.352671],[-82.114442,22.356342],[-82.116252,22.346978]],[[-82.273452,22.367808],[-82.280941,22.371824],[-82.278946,22.379503],[-82.275803,22.379528],[-82.273452,22.367808]],[[-82.514957,22.399456],[-82.514294,22.392133],[-82.527389,22.39628],[-82.514957,22.399456]],[[-82.486403,22.40424],[-82.490466,22.409016],[-82.486706,22.409259],[-82.486403,22.40424]],[[-82.298676,22.488612],[-82.301672,22.488307],[-82.298106,22.494057],[-82.298676,22.488612]],[[-82.432916,22.457861],[-82.433546,22.461665],[-82.429076,22.460812],[-82.432916,22.457861]],[[-82.281886,22.471553],[-82.296647,22.465853],[-82.290442,22.473115],[-82.281886,22.471553]],[[-82.448946,22.478766],[-82.448232,22.483247],[-82.444897,22.483201],[-82.448946,22.478766]],[[-82.447483,22.441215],[-82.445537,22.443532],[-82.444867,22.442346],[-82.447483,22.441215]],[[-82.798136,22.240864],[-82.798992,22.246008],[-82.790064,22.252119],[-82.788873,22.244893],[-82.798136,22.240864]],[[-82.744024,22.328464],[-82.738925,22.334114],[-82.733831,22.331715],[-82.744024,22.328464]],[[-82.763681,22.265177],[-82.763927,22.274055],[-82.759846,22.276037],[-82.758609,22.271653],[-82.763681,22.265177]],[[-82.764702,22.291319],[-82.757353,22.294445],[-82.757245,22.293315],[-82.764702,22.291319]],[[-82.690063,22.561814],[-82.688631,22.56616],[-82.685655,22.565502],[-82.690063,22.561814]],[[-82.694261,22.576925],[-82.695376,22.577011],[-82.697635,22.581909],[-82.694261,22.576925]],[[-82.645256,22.572752],[-82.64737,22.563281],[-82.649695,22.562667],[-82.653911,22.574141],[-82.645256,22.572752]],[[-82.50567,22.579198],[-82.507908,22.566613],[-82.525722,22.571381],[-82.50567,22.579198]],[[-82.529118,22.557799],[-82.532281,22.560702],[-82.526123,22.560424],[-82.529118,22.557799]],[[-82.526526,22.563868],[-82.529732,22.568114],[-82.519469,22.564678],[-82.526526,22.563868]],[[-82.509568,22.581868],[-82.523243,22.588181],[-82.513259,22.587908],[-82.509568,22.581868]],[[-82.685803,22.577665],[-82.691915,22.583409],[-82.68372,22.598259],[-82.67798,22.58818],[-82.685803,22.577665]],[[-82.521239,22.591877],[-82.520778,22.597288],[-82.50897,22.594623],[-82.521239,22.591877]],[[-82.510833,22.600968],[-82.521245,22.600071],[-82.520854,22.602892],[-82.510833,22.600968]],[[-82.371288,22.480194],[-82.366111,22.466271],[-82.379948,22.475608],[-82.372431,22.479862],[-82.377623,22.49529],[-82.365193,22.501197],[-82.371288,22.480194]],[[-82.336493,22.503923],[-82.335316,22.507221],[-82.333263,22.506311],[-82.336493,22.503923]],[[-82.492425,22.509267],[-82.491907,22.513049],[-82.487683,22.512213],[-82.492425,22.509267]],[[-82.481248,22.502644],[-82.483133,22.509971],[-82.480382,22.509669],[-82.481248,22.502644]],[[-82.316432,22.503546],[-82.328164,22.504037],[-82.326787,22.507451],[-82.316432,22.503546]],[[-82.540778,22.53391],[-82.543697,22.536507],[-82.539551,22.536997],[-82.540778,22.53391]],[[-82.505241,22.51727],[-82.503245,22.520605],[-82.501889,22.517301],[-82.505241,22.51727]],[[-82.500124,22.516255],[-82.496068,22.516983],[-82.495548,22.515836],[-82.500124,22.516255]],[[-82.525667,22.544536],[-82.527564,22.547824],[-82.525175,22.548095],[-82.525667,22.544536]],[[-82.523321,22.540195],[-82.524983,22.543398],[-82.523478,22.543211],[-82.523321,22.540195]],[[-82.52976,22.551658],[-82.529787,22.553561],[-82.526687,22.553661],[-82.52976,22.551658]],[[-82.536114,22.6489],[-82.534082,22.649459],[-82.533838,22.648422],[-82.536114,22.6489]],[[-82.533222,22.641298],[-82.531874,22.646586],[-82.531385,22.644714],[-82.533222,22.641298]],[[-82.518502,22.605335],[-82.526029,22.608304],[-82.509974,22.617206],[-82.518502,22.605335]],[[-82.670549,22.633395],[-82.669335,22.620513],[-82.691195,22.639481],[-82.670549,22.633395]],[[-82.519264,22.617414],[-82.51121,22.62418],[-82.511948,22.619916],[-82.519264,22.617414]],[[-82.522607,22.624389],[-82.517692,22.636118],[-82.515453,22.626662],[-82.522607,22.624389]],[[-82.523911,22.629887],[-82.528647,22.63881],[-82.523077,22.643058],[-82.521874,22.641401],[-82.523911,22.629887]]]}}
