{"type":"Feature","properties":{"mrgid":720,"name":"Tolleshunt D`Arcy","placeType":"Ward","source":"SAIL:sailcommunes"},"geometry":{"type":"Polygon","coordinates":[[[0.803941,51.789646],[0.816688,51.790981],[0.779101,51.811504],[0.718181,51.797305],[0.721794,51.781593],[0.735739,51.778182],[0.745183,51.76394],[0.732054,51.75404],[0.737225,51.74105],[0.720695,51.739646],[0.744673,51.730851],[0.752105,51.732699],[0.74564,51.736633],[0.776943,51.74387],[0.795297,51.739595],[0.80268,51.723509],[0.848043,51.729268],[0.830813,51.741572],[0.834536,51.758031],[0.82431,51.770307],[0.838682,51.774482],[0.803941,51.789646]]]}}
