{"type":"Feature","properties":{"mrgid":79,"name":"Wingene","placeType":"Town","source":"Belgium:belgium_municipalities"},"geometry":{"type":"MultiPolygon","coordinates":[[[[3.327583,51.099904],[3.327459,51.099942],[3.327407,51.099963],[3.327254,51.10015],[3.327248,51.100202],[3.327255,51.100265],[3.327164,51.100532],[3.327031,51.10079],[3.326861,51.101004],[3.326583,51.101208],[3.326348,51.101372],[3.32569,51.101697],[3.324818,51.102175],[3.324145,51.102492],[3.323712,51.10273],[3.323535,51.102806],[3.321762,51.103706],[3.321065,51.104058],[3.320936,51.104072],[3.320229,51.104168],[3.320018,51.104195],[3.319942,51.104205],[3.319876,51.104216],[3.319705,51.104249],[3.319651,51.104254],[3.319448,51.104271],[3.318566,51.104014],[3.318464,51.103988],[3.318094,51.103833],[3.317821,51.103723],[3.317711,51.103678],[3.317587,51.103624],[3.317503,51.103593],[3.317503,51.103584],[3.317386,51.103464],[3.316679,51.102721],[3.315369,51.102254],[3.315131,51.102233],[3.314813,51.102212],[3.314556,51.102161],[3.314026,51.10203],[3.313765,51.101981],[3.313702,51.101961],[3.313459,51.101949],[3.313146,51.101939],[3.312535,51.101913],[3.312239,51.101898],[3.312178,51.101896],[3.311731,51.101859],[3.311646,51.101848],[3.311349,51.101815],[3.311072,51.101779],[3.310404,51.101719],[3.310291,51.101688],[3.310214,51.101651],[3.310161,51.101632],[3.309758,51.101393],[3.309555,51.101271],[3.309406,51.101205],[3.309292,51.101173],[3.309126,51.101142],[3.308403,51.101049],[3.307704,51.100919],[3.307355,51.100831],[3.307087,51.100765],[3.306379,51.100581],[3.305805,51.100361],[3.305572,51.100256],[3.30533,51.100153],[3.305095,51.100044],[3.304849,51.099935],[3.304637,51.099835],[3.304485,51.099768],[3.304249,51.099618],[3.30375,51.099466],[3.30362,51.099506],[3.303628,51.099477],[3.302857,51.099369],[3.302265,51.099354],[3.30212,51.099343],[3.302114,51.099278],[3.30211,51.099255],[3.302105,51.099193],[3.302099,51.099133],[3.301919,51.097497],[3.301895,51.097141],[3.301887,51.097009],[3.30172,51.097083],[3.301546,51.09717],[3.301327,51.097272],[3.301197,51.097356],[3.300826,51.097634],[3.300609,51.097763],[3.300364,51.097871],[3.30021,51.097915],[3.299885,51.097983],[3.299236,51.097956],[3.297435,51.097897],[3.297389,51.097898],[3.29597,51.097848],[3.291459,51.097689],[3.291283,51.097683],[3.291298,51.096952],[3.284277,51.097405],[3.284088,51.097159],[3.28334,51.097421],[3.283334,51.097414],[3.283267,51.097437],[3.28291,51.096989],[3.28244,51.09638],[3.282376,51.096315],[3.282309,51.096249],[3.281687,51.096045],[3.281558,51.095988],[3.281439,51.095804],[3.281373,51.095397],[3.281324,51.095086],[3.281279,51.09501],[3.281165,51.094878],[3.28095,51.094712],[3.280575,51.09443],[3.280258,51.094214],[3.279971,51.094003],[3.279422,51.093598],[3.279061,51.093338],[3.278847,51.09322],[3.278692,51.093177],[3.278507,51.09313],[3.278138,51.093042],[3.277659,51.092928],[3.276198,51.092586],[3.276069,51.092556],[3.275668,51.092439],[3.275274,51.092594],[3.273776,51.093149],[3.272707,51.093558],[3.272417,51.093675],[3.271172,51.094143],[3.270667,51.094349],[3.269868,51.094976],[3.269118,51.095584],[3.268802,51.095838],[3.268493,51.09609],[3.268023,51.096472],[3.267543,51.096864],[3.266929,51.097361],[3.266514,51.097702],[3.266274,51.097935],[3.26619,51.097532],[3.266139,51.09739],[3.266083,51.097238],[3.266031,51.09717],[3.265785,51.097017],[3.265389,51.096793],[3.264634,51.096401],[3.264542,51.09633],[3.264313,51.095926],[3.263748,51.09555],[3.263359,51.095306],[3.263206,51.09525],[3.263046,51.095198],[3.262457,51.095057],[3.262273,51.095024],[3.261452,51.094888],[3.261337,51.094863],[3.261076,51.094702],[3.260876,51.09465],[3.259769,51.094418],[3.25969,51.094388],[3.259641,51.094345],[3.25965,51.0943],[3.259774,51.094085],[3.259892,51.093842],[3.26022,51.093165],[3.260293,51.093016],[3.261206,51.091228],[3.259837,51.090954],[3.258105,51.090607],[3.258106,51.090606],[3.256382,51.090251],[3.25638,51.090253],[3.255233,51.090019],[3.254686,51.089908],[3.2544,51.089849],[3.254773,51.08956],[3.255019,51.089368],[3.254186,51.088962],[3.253338,51.088549],[3.25319,51.088669],[3.252208,51.08812],[3.252252,51.08808],[3.252319,51.088032],[3.252411,51.087981],[3.252402,51.087959],[3.252094,51.087206],[3.251914,51.087166],[3.251677,51.087116],[3.251405,51.087065],[3.250712,51.086925],[3.250722,51.086863],[3.249178,51.08669],[3.24917,51.086652],[3.249171,51.086643],[3.249063,51.08664],[3.248247,51.086596],[3.248125,51.086591],[3.247587,51.086562],[3.247295,51.086554],[3.246657,51.086533],[3.246557,51.086525],[3.246377,51.086519],[3.246087,51.086516],[3.245968,51.08652],[3.245746,51.08656],[3.24523,51.086576],[3.244357,51.086595],[3.244223,51.086601],[3.24419,51.086602],[3.244209,51.086555],[3.244247,51.086486],[3.244329,51.086377],[3.244369,51.086328],[3.244402,51.086265],[3.244421,51.086201],[3.244448,51.086149],[3.244407,51.086114],[3.24438,51.086076],[3.244387,51.086047],[3.244403,51.086017],[3.2445,51.085961],[3.244553,51.085934],[3.244599,51.085903],[3.24462,51.085862],[3.244649,51.085829],[3.244693,51.085806],[3.244707,51.085775],[3.244706,51.085712],[3.244683,51.085629],[3.244723,51.085547],[3.244722,51.085483],[3.244708,51.085386],[3.244642,51.085279],[3.244664,51.085112],[3.244651,51.085061],[3.24462,51.085019],[3.244686,51.084917],[3.244694,51.084884],[3.244669,51.084838],[3.244604,51.084808],[3.244575,51.084793],[3.244631,51.084738],[3.244807,51.084666],[3.244871,51.084648],[3.24499,51.084608],[3.245064,51.084579],[3.245157,51.084551],[3.245216,51.084542],[3.245332,51.084472],[3.245489,51.084427],[3.245526,51.084399],[3.245579,51.084373],[3.245638,51.084357],[3.245685,51.084324],[3.245726,51.084303],[3.245829,51.084267],[3.245969,51.084164],[3.246252,51.084051],[3.246403,51.083927],[3.246406,51.083882],[3.246436,51.083838],[3.24648,51.083699],[3.246503,51.083634],[3.246522,51.083614],[3.246585,51.083586],[3.246626,51.083547],[3.24666,51.083466],[3.246733,51.083439],[3.246773,51.083393],[3.246756,51.083354],[3.246671,51.083244],[3.246656,51.083211],[3.246656,51.083161],[3.246688,51.083123],[3.246701,51.083083],[3.246697,51.083033],[3.246668,51.082997],[3.246656,51.082952],[3.246668,51.082887],[3.246676,51.082842],[3.246197,51.082716],[3.245673,51.082599],[3.245323,51.082541],[3.244937,51.082474],[3.244389,51.08239],[3.244227,51.082368],[3.243878,51.082325],[3.243739,51.082308],[3.242731,51.08218],[3.242401,51.082122],[3.242189,51.082085],[3.241982,51.082038],[3.241632,51.081919],[3.241288,51.081782],[3.240862,51.081618],[3.240804,51.081579],[3.240825,51.081526],[3.240881,51.081396],[3.240949,51.081234],[3.241076,51.080989],[3.241181,51.080771],[3.241252,51.080574],[3.241267,51.080481],[3.241282,51.080394],[3.241303,51.080044],[3.241191,51.080024],[3.241026,51.079994],[3.240706,51.079936],[3.240365,51.079874],[3.239893,51.079787],[3.238543,51.079539],[3.238307,51.079497],[3.237001,51.079283],[3.236806,51.079248],[3.236768,51.079236],[3.236205,51.079142],[3.235856,51.079085],[3.235492,51.079025],[3.235143,51.078968],[3.234805,51.078913],[3.234414,51.078852],[3.234444,51.078602],[3.234471,51.078362],[3.234495,51.078138],[3.234518,51.077915],[3.234542,51.077684],[3.234567,51.077438],[3.234591,51.077208],[3.234637,51.076755],[3.234694,51.076195],[3.23476,51.075532],[3.234854,51.074596],[3.234945,51.073689],[3.235036,51.072773],[3.235104,51.072086],[3.235193,51.071179],[3.235253,51.070567],[3.235286,51.07026],[3.23531,51.070024],[3.235334,51.069794],[3.235353,51.069604],[3.235381,51.069606],[3.23538,51.069567],[3.235378,51.069564],[3.235169,51.069313],[3.234685,51.068735],[3.234665,51.068703],[3.234568,51.068498],[3.234225,51.067829],[3.23416,51.067691],[3.234073,51.067514],[3.234016,51.067409],[3.234004,51.067386],[3.233886,51.067166],[3.233867,51.06714],[3.233735,51.066958],[3.233685,51.066889],[3.233646,51.066834],[3.23358,51.066743],[3.233563,51.066719],[3.233542,51.06669],[3.23342,51.066521],[3.233399,51.066493],[3.233391,51.06649],[3.23337,51.066475],[3.233287,51.066466],[3.233268,51.066461],[3.233268,51.066414],[3.233181,51.066299],[3.233172,51.06629],[3.232924,51.066053],[3.232706,51.065836],[3.232669,51.065799],[3.232609,51.065737],[3.232537,51.065656],[3.232527,51.065648],[3.232414,51.065575],[3.232282,51.065484],[3.232191,51.065403],[3.232117,51.06536],[3.232116,51.065298],[3.232105,51.065269],[3.232051,51.065143],[3.232047,51.065132],[3.23204,51.065081],[3.232021,51.065006],[3.232001,51.064929],[3.231995,51.064877],[3.231981,51.064747],[3.231979,51.064715],[3.231788,51.064727],[3.231711,51.064733],[3.231623,51.06474],[3.231528,51.064737],[3.231261,51.064727],[3.230981,51.064716],[3.230692,51.064704],[3.230199,51.06468],[3.229785,51.06466],[3.228612,51.064603],[3.228003,51.064573],[3.227716,51.064559],[3.227434,51.064546],[3.227224,51.064536],[3.226818,51.064517],[3.226515,51.064503],[3.226232,51.064489],[3.225931,51.064475],[3.225639,51.06446],[3.225297,51.064443],[3.225043,51.06443],[3.224738,51.064413],[3.224478,51.064398],[3.224158,51.064379],[3.223706,51.065466],[3.223577,51.065772],[3.223524,51.0659],[3.223401,51.065883],[3.223022,51.065835],[3.22278,51.065814],[3.222669,51.065809],[3.222471,51.065812],[3.222086,51.06582],[3.221911,51.065823],[3.221757,51.065822],[3.221732,51.065821],[3.221568,51.065815],[3.221415,51.065796],[3.221366,51.06579],[3.22129,51.065778],[3.221236,51.065768],[3.22118,51.065753],[3.221036,51.065712],[3.221003,51.065699],[3.220863,51.065641],[3.22083,51.065624],[3.220791,51.065599],[3.220715,51.065547],[3.22061,51.065461],[3.220524,51.065473],[3.220327,51.065514],[3.220105,51.065562],[3.219709,51.065653],[3.219572,51.065699],[3.219425,51.065743],[3.219323,51.065793],[3.219067,51.065919],[3.218863,51.066018],[3.218823,51.066037],[3.218599,51.066156],[3.218574,51.066161],[3.216663,51.066301],[3.216457,51.066208],[3.215979,51.065992],[3.215864,51.065987],[3.214859,51.065952],[3.214788,51.065949],[3.214794,51.066381],[3.214812,51.066921],[3.214821,51.067186],[3.214735,51.067352],[3.214961,51.067821],[3.21513,51.068224],[3.213264,51.068163],[3.212682,51.068144],[3.212221,51.06813],[3.212177,51.068129],[3.210887,51.068081],[3.210859,51.06808],[3.209182,51.068017],[3.209077,51.067083],[3.209037,51.067079],[3.208837,51.065984],[3.208901,51.065985],[3.209592,51.066003],[3.209587,51.065726],[3.209492,51.065723],[3.20981,51.065028],[3.20969,51.06497],[3.209562,51.064896],[3.209533,51.064855],[3.209452,51.064557],[3.209385,51.064288],[3.209368,51.064214],[3.209329,51.064059],[3.209299,51.063929],[3.209259,51.063735],[3.209238,51.063737],[3.208518,51.063823],[3.208197,51.063466],[3.207879,51.063466],[3.207627,51.063465],[3.20753,51.063212],[3.207264,51.063245],[3.206927,51.063289],[3.206767,51.063307],[3.206605,51.063326],[3.20646,51.063344],[3.206362,51.063353],[3.20628,51.063358],[3.206271,51.06341],[3.206287,51.063549],[3.206234,51.063525],[3.206185,51.063518],[3.206118,51.063515],[3.206077,51.063514],[3.206007,51.06352],[3.205998,51.063527],[3.205993,51.063529],[3.205959,51.063571],[3.205934,51.063623],[3.205924,51.06363],[3.205906,51.063647],[3.205793,51.063692],[3.205762,51.063699],[3.205738,51.063692],[3.205709,51.063693],[3.205668,51.063625],[3.20562,51.063576],[3.205597,51.06355],[3.205554,51.063544],[3.205476,51.063538],[3.205405,51.063537],[3.20538,51.063537],[3.205067,51.06354],[3.205006,51.063541],[3.204771,51.063544],[3.204442,51.063548],[3.204327,51.063549],[3.204306,51.063771],[3.20429,51.063788],[3.204287,51.063844],[3.204276,51.06397],[3.204237,51.06445],[3.204168,51.065303],[3.204167,51.065337],[3.203642,51.065401],[3.203399,51.065423],[3.203002,51.065461],[3.202875,51.065478],[3.202398,51.06554],[3.202107,51.065579],[3.201965,51.065603],[3.201958,51.065647],[3.201927,51.065783],[3.201819,51.06609],[3.201655,51.066543],[3.201613,51.06664],[3.201529,51.066801],[3.201417,51.066999],[3.201404,51.067017],[3.20135,51.067004],[3.201248,51.066978],[3.201188,51.066979],[3.201092,51.066988],[3.200975,51.066972],[3.200769,51.066967],[3.200747,51.066968],[3.200719,51.066963],[3.200687,51.066898],[3.200643,51.066863],[3.200567,51.066855],[3.200475,51.066823],[3.200426,51.06681],[3.200469,51.066704],[3.200426,51.066695],[3.200079,51.066626],[3.199278,51.066453],[3.199152,51.066428],[3.199158,51.066361],[3.199151,51.066334],[3.199111,51.066292],[3.199097,51.066282],[3.199035,51.06625],[3.198956,51.066219],[3.198673,51.066235],[3.198572,51.066428],[3.19849,51.066585],[3.198378,51.066804],[3.198325,51.066911],[3.198272,51.067016],[3.198248,51.067076],[3.198149,51.067232],[3.198034,51.067436],[3.198255,51.067504],[3.198266,51.067509],[3.198416,51.067592],[3.198448,51.067603],[3.198601,51.067646],[3.19859,51.067716],[3.19857,51.067774],[3.198532,51.067882],[3.198501,51.06797],[3.198447,51.068074],[3.198412,51.068139],[3.198368,51.068197],[3.19832,51.068247],[3.198252,51.068272],[3.198183,51.068281],[3.198098,51.068292],[3.198011,51.068311],[3.19797,51.068342],[3.197949,51.068377],[3.197928,51.068406],[3.197857,51.068459],[3.197711,51.068522],[3.197684,51.068542],[3.197673,51.068538],[3.197329,51.068341],[3.197061,51.068145],[3.197079,51.068115],[3.197097,51.068085],[3.197228,51.06787],[3.197343,51.067683],[3.197323,51.067666],[3.197164,51.067571],[3.196897,51.067415],[3.196633,51.067263],[3.196474,51.067171],[3.196471,51.067172],[3.196354,51.067106],[3.196304,51.067079],[3.196091,51.066963],[3.195812,51.066812],[3.195556,51.066674],[3.195535,51.066663],[3.195378,51.0666],[3.195284,51.066567],[3.19497,51.066469],[3.194973,51.066465],[3.195079,51.066344],[3.195094,51.066329],[3.195116,51.066307],[3.195165,51.066279],[3.195424,51.066168],[3.195505,51.066153],[3.195623,51.06613],[3.195965,51.066062],[3.196315,51.065983],[3.196394,51.065965],[3.196619,51.065903],[3.196949,51.065793],[3.197021,51.065766],[3.197062,51.065745],[3.197077,51.06573],[3.197111,51.065684],[3.197153,51.065616],[3.197262,51.065405],[3.197312,51.065302],[3.197369,51.065191],[3.197444,51.065034],[3.197227,51.064981],[3.196954,51.064904],[3.1965,51.064774],[3.196298,51.064697],[3.19628,51.064621],[3.196279,51.064565],[3.196328,51.064499],[3.196832,51.063982],[3.195836,51.063899],[3.19518,51.063844],[3.194987,51.063838],[3.195001,51.063798],[3.195024,51.063737],[3.1951,51.06366],[3.195222,51.063538],[3.195353,51.063407],[3.195469,51.063291],[3.195171,51.06316],[3.194887,51.063034],[3.194805,51.062998],[3.194422,51.062835],[3.19435,51.062805],[3.194265,51.062769],[3.194145,51.062719],[3.193961,51.062642],[3.193729,51.062542],[3.193664,51.062519],[3.193594,51.062495],[3.193446,51.062459],[3.193327,51.062431],[3.193154,51.06239],[3.192848,51.062423],[3.192765,51.062432],[3.192772,51.062317],[3.1928,51.062204],[3.192822,51.062145],[3.192891,51.06198],[3.192989,51.061772],[3.19309,51.061569],[3.19321,51.061384],[3.193322,51.061165],[3.193448,51.060935],[3.193695,51.060492],[3.193815,51.060274],[3.193931,51.060059],[3.194047,51.059832],[3.194083,51.059755],[3.193906,51.059624],[3.193722,51.059485],[3.193443,51.059276],[3.193223,51.059237],[3.192904,51.059222],[3.192477,51.059198],[3.191955,51.059177],[3.191715,51.059265],[3.191688,51.059274],[3.191528,51.059332],[3.191466,51.059358],[3.191386,51.05942],[3.191368,51.059442],[3.191337,51.059485],[3.191271,51.059577],[3.191237,51.059628],[3.191159,51.059752],[3.191107,51.059776],[3.191085,51.059779],[3.191072,51.059781],[3.191037,51.059781],[3.190803,51.059745],[3.190707,51.059731],[3.190432,51.059703],[3.190117,51.059668],[3.189613,51.059615],[3.189338,51.059566],[3.188848,51.059511],[3.188391,51.059464],[3.188217,51.059449],[3.188224,51.059382],[3.18824,51.059308],[3.18827,51.059085],[3.188284,51.058956],[3.188284,51.058955],[3.188287,51.05893],[3.188287,51.058882],[3.188277,51.05879],[3.188265,51.058734],[3.188261,51.058717],[3.18823,51.058641],[3.188187,51.058558],[3.188091,51.058392],[3.187978,51.058198],[3.187858,51.058012],[3.18778,51.057916],[3.187497,51.05758],[3.187334,51.057048],[3.187274,51.056909],[3.187067,51.056639],[3.186994,51.056547],[3.186967,51.0564],[3.186947,51.05625],[3.186845,51.056269],[3.186832,51.056272],[3.18674,51.056291],[3.186719,51.056309],[3.186662,51.056358],[3.186578,51.056426],[3.186532,51.056463],[3.186377,51.056547],[3.186344,51.056562],[3.186276,51.056591],[3.186092,51.056654],[3.186044,51.056633],[3.18598,51.056601],[3.185941,51.056576],[3.185925,51.056564],[3.185732,51.056721],[3.185472,51.057076],[3.185473,51.057078],[3.185475,51.057083],[3.185506,51.057147],[3.185521,51.057197],[3.185521,51.057319],[3.185516,51.057393],[3.185514,51.057421],[3.185502,51.057472],[3.18555,51.057503],[3.185585,51.057514],[3.185622,51.057526],[3.185611,51.057554],[3.185579,51.057584],[3.185525,51.057622],[3.185461,51.057657],[3.185451,51.05767],[3.185447,51.057678],[3.185428,51.057768],[3.185429,51.057774],[3.185442,51.057825],[3.185443,51.05783],[3.185465,51.057977],[3.185469,51.058001],[3.185467,51.058006],[3.185458,51.058024],[3.185455,51.058032],[3.18542,51.058063],[3.185366,51.058046],[3.185319,51.058022],[3.185227,51.058068],[3.185042,51.058164],[3.185011,51.058179],[3.184953,51.058218],[3.184937,51.058232],[3.184921,51.058256],[3.184919,51.058271],[3.184901,51.058301],[3.184646,51.058326],[3.184305,51.058344],[3.184182,51.058343],[3.183894,51.058329],[3.183772,51.058323],[3.183708,51.058336],[3.183688,51.05834],[3.183599,51.05835],[3.183607,51.05901],[3.18342,51.059079],[3.183306,51.059122],[3.183158,51.059173],[3.183062,51.059207],[3.182995,51.059229],[3.182966,51.059238],[3.182858,51.059265],[3.182778,51.059287],[3.182655,51.059319],[3.182522,51.059341],[3.182462,51.059354],[3.182435,51.05936],[3.182393,51.059368],[3.182224,51.059316],[3.182211,51.059314],[3.182044,51.059329],[3.182001,51.059334],[3.181885,51.059325],[3.181844,51.059321],[3.181813,51.059318],[3.181597,51.059335],[3.181516,51.059334],[3.181152,51.059323],[3.181129,51.059322],[3.180881,51.059309],[3.180542,51.059291],[3.18037,51.059291],[3.180358,51.059418],[3.180326,51.059516],[3.180305,51.059558],[3.180261,51.059649],[3.180231,51.059768],[3.180219,51.059796],[3.180207,51.059828],[3.180194,51.059863],[3.180193,51.059874],[3.180193,51.059954],[3.180172,51.059964],[3.180167,51.059966],[3.180118,51.059978],[3.180056,51.059989],[3.180047,51.059992],[3.180014,51.060007],[3.180001,51.060016],[3.179996,51.060019],[3.179869,51.060153],[3.179826,51.0602],[3.179804,51.060218],[3.179748,51.060257],[3.179728,51.060273],[3.179593,51.060363],[3.179589,51.060365],[3.179488,51.060413],[3.179359,51.060469],[3.179292,51.060491],[3.179178,51.06053],[3.179044,51.060552],[3.178902,51.06057],[3.178799,51.06059],[3.17863,51.060459],[3.178564,51.060461],[3.178486,51.060474],[3.17844,51.060478],[3.178246,51.060503],[3.177941,51.060548],[3.177871,51.060563],[3.177843,51.06057],[3.177741,51.060617],[3.177714,51.060627],[3.177658,51.060663],[3.177608,51.060704],[3.177553,51.060747],[3.177469,51.060803],[3.177339,51.060877],[3.177218,51.060946],[3.177065,51.061063],[3.177003,51.061102],[3.176802,51.061224],[3.17676,51.061214],[3.176752,51.061211],[3.176583,51.061023],[3.176426,51.061111],[3.176183,51.061214],[3.176092,51.061251],[3.176054,51.06127],[3.1758,51.061396],[3.175762,51.061414],[3.175451,51.061551],[3.175444,51.061553],[3.175384,51.06158],[3.175358,51.061589],[3.175281,51.061615],[3.175165,51.061666],[3.175101,51.061698],[3.175023,51.061745],[3.174936,51.061798],[3.174765,51.061892],[3.174515,51.062006],[3.174496,51.062015],[3.17444,51.06204],[3.174404,51.062115],[3.174401,51.062125],[3.174387,51.062173],[3.174361,51.062266],[3.174351,51.062298],[3.174334,51.06235],[3.174322,51.062387],[3.174287,51.062468],[3.174275,51.062475],[3.174234,51.062481],[3.174168,51.062497],[3.174121,51.062508],[3.173687,51.062635],[3.173642,51.062643],[3.1736,51.062647],[3.173555,51.062656],[3.173497,51.062679],[3.17331,51.062785],[3.173235,51.062843],[3.173233,51.062845],[3.173219,51.062864],[3.173122,51.062946],[3.173112,51.062962],[3.173054,51.063082],[3.173035,51.063114],[3.173031,51.063117],[3.173019,51.063127],[3.173002,51.06314],[3.172995,51.063143],[3.172962,51.06315],[3.172905,51.063157],[3.172848,51.063158],[3.172831,51.063157],[3.172791,51.063154],[3.172694,51.063147],[3.172623,51.063153],[3.172539,51.063148],[3.172471,51.063141],[3.172457,51.063137],[3.172277,51.063071],[3.172033,51.062973],[3.171961,51.062944],[3.171918,51.062931],[3.171625,51.062859],[3.171593,51.062845],[3.171559,51.062829],[3.171543,51.062815],[3.171536,51.062806],[3.171535,51.062803],[3.171516,51.062756],[3.171512,51.062641],[3.171509,51.062574],[3.171511,51.062504],[3.171505,51.06248],[3.171494,51.06245],[3.171478,51.062432],[3.171453,51.062408],[3.171381,51.062383],[3.171324,51.062369],[3.171228,51.062358],[3.171157,51.062394],[3.171127,51.062405],[3.171082,51.062423],[3.171073,51.062426],[3.170974,51.062456],[3.170936,51.062471],[3.170865,51.062499],[3.170799,51.062522],[3.170723,51.062543],[3.170684,51.062547],[3.17068,51.062548],[3.170505,51.062565],[3.170418,51.062589],[3.170268,51.062625],[3.170202,51.062642],[3.170153,51.062667],[3.170107,51.0627],[3.170025,51.062755],[3.170019,51.062761],[3.169976,51.062796],[3.169951,51.062815],[3.169908,51.062845],[3.169897,51.062852],[3.169831,51.062885],[3.169799,51.062898],[3.169714,51.062934],[3.169655,51.062941],[3.16957,51.062957],[3.169528,51.062962],[3.169312,51.062989],[3.16931,51.062989],[3.169305,51.062991],[3.16925,51.063053],[3.169189,51.063159],[3.169106,51.063302],[3.169086,51.06333],[3.169047,51.063388],[3.169043,51.063393],[3.169003,51.063447],[3.168978,51.063486],[3.168933,51.063573],[3.168866,51.06375],[3.168833,51.063801],[3.168775,51.063899],[3.168756,51.063939],[3.168721,51.064007],[3.168674,51.064081],[3.168656,51.064102],[3.168635,51.06413],[3.168587,51.064168],[3.168547,51.064197],[3.168535,51.064205],[3.168486,51.064222],[3.168457,51.064231],[3.168431,51.064235],[3.168392,51.064242],[3.168269,51.064251],[3.168255,51.064252],[3.168171,51.064255],[3.168154,51.064255],[3.168061,51.064251],[3.167864,51.064233],[3.167847,51.064232],[3.167556,51.064199],[3.167525,51.064193],[3.167124,51.064117],[3.16707,51.064117],[3.16703,51.06412],[3.167006,51.064139],[3.166996,51.06416],[3.166906,51.064179],[3.166453,51.064202],[3.166323,51.064199],[3.166022,51.064188],[3.165995,51.064187],[3.165947,51.064175],[3.165699,51.06415],[3.165673,51.064144],[3.165662,51.064142],[3.16562,51.064135],[3.16555,51.064095],[3.165545,51.06409],[3.165502,51.064034],[3.165493,51.06402],[3.16544,51.063955],[3.165419,51.063922],[3.165393,51.063901],[3.16537,51.06389],[3.165181,51.0639],[3.164798,51.063924],[3.163777,51.064686],[3.163495,51.064901],[3.163054,51.065249],[3.162943,51.06523],[3.162239,51.064849],[3.162184,51.064736],[3.162072,51.064434],[3.162005,51.064263],[3.1618,51.063846],[3.161453,51.063453],[3.161194,51.063185],[3.160902,51.062675],[3.160652,51.062396],[3.160537,51.062285],[3.159859,51.061818],[3.159255,51.061457],[3.158968,51.061283],[3.158779,51.061148],[3.15847,51.060765],[3.159212,51.060605],[3.158992,51.059896],[3.158735,51.059101],[3.158563,51.058602],[3.158397,51.058193],[3.158152,51.058227],[3.158129,51.058192],[3.158117,51.058173],[3.157987,51.057984],[3.15787,51.057575],[3.157858,51.057294],[3.157779,51.056979],[3.157704,51.056715],[3.157917,51.056273],[3.158009,51.056178],[3.158173,51.056057],[3.158272,51.055988],[3.1584,51.055912],[3.158491,51.055837],[3.158588,51.055683],[3.158671,51.055503],[3.158622,51.05537],[3.158706,51.055271],[3.15914,51.055163],[3.159438,51.054966],[3.159988,51.054543],[3.160244,51.054314],[3.160225,51.053331],[3.16024,51.052765],[3.16034,51.052311],[3.1606,51.051331],[3.160771,51.050405],[3.161244,51.04935],[3.161538,51.049263],[3.161705,51.049172],[3.161849,51.049093],[3.162102,51.04892],[3.16236,51.048713],[3.162505,51.048562],[3.16257,51.048354],[3.162608,51.048188],[3.16274,51.04792],[3.162849,51.047714],[3.162996,51.047495],[3.163161,51.047292],[3.1633,51.047141],[3.163391,51.047023],[3.163426,51.046982],[3.163529,51.04692],[3.163604,51.046892],[3.163609,51.04689],[3.163644,51.046875],[3.163662,51.046863],[3.163663,51.046861],[3.163666,51.046859],[3.163664,51.046854],[3.16366,51.046843],[3.163628,51.046806],[3.163606,51.046787],[3.163577,51.046763],[3.163519,51.046712],[3.163473,51.046668],[3.16339,51.046647],[3.163359,51.046599],[3.163335,51.046594],[3.163303,51.046585],[3.163291,51.046582],[3.163268,51.046581],[3.163243,51.046568],[3.163237,51.046552],[3.163249,51.046511],[3.163251,51.046508],[3.16329,51.046471],[3.163311,51.046453],[3.163333,51.046422],[3.163344,51.046385],[3.163363,51.046359],[3.163372,51.046351],[3.163379,51.046346],[3.163397,51.046291],[3.163406,51.04625],[3.163346,51.046133],[3.163288,51.046048],[3.163205,51.045973],[3.163152,51.045922],[3.163102,51.045818],[3.163083,51.045754],[3.163048,51.045616],[3.163005,51.045544],[3.162997,51.045457],[3.16297,51.045343],[3.162907,51.045291],[3.162918,51.045214],[3.162976,51.045103],[3.163002,51.045065],[3.162985,51.044958],[3.163036,51.04481],[3.163013,51.044724],[3.163047,51.044647],[3.163024,51.044561],[3.163081,51.044505],[3.163161,51.044513],[3.163184,51.044509],[3.163249,51.044492],[3.16326,51.044442],[3.163267,51.044362],[3.16329,51.044305],[3.163263,51.044256],[3.1633,51.044225],[3.163494,51.044191],[3.163526,51.044188],[3.16359,51.044138],[3.163676,51.044092],[3.163689,51.044049],[3.163747,51.043979],[3.1638,51.043959],[3.163868,51.043912],[3.163938,51.043843],[3.164028,51.043754],[3.164084,51.043692],[3.164126,51.043646],[3.164154,51.043638],[3.164283,51.043651],[3.16444,51.043673],[3.164494,51.043693],[3.164535,51.043678],[3.164838,51.043277],[3.164915,51.043182],[3.165141,51.042905],[3.165129,51.042837],[3.165233,51.042796],[3.16526,51.042727],[3.165305,51.042605],[3.165345,51.04255],[3.165364,51.042407],[3.165438,51.042383],[3.165436,51.042324],[3.165508,51.042306],[3.165534,51.042217],[3.165603,51.042189],[3.165676,51.042131],[3.165816,51.042035],[3.16587,51.041945],[3.165886,51.041896],[3.165979,51.041876],[3.166065,51.041863],[3.166168,51.041812],[3.166247,51.041807],[3.16636,51.041814],[3.166449,51.041791],[3.166529,51.041696],[3.166504,51.041611],[3.166442,51.041501],[3.166415,51.041415],[3.166437,51.041289],[3.166465,51.04119],[3.166513,51.041069],[3.166528,51.040929],[3.166529,51.040835],[3.166492,51.040684],[3.166408,51.040582],[3.166388,51.04051],[3.166448,51.040423],[3.166442,51.040367],[3.16649,51.040268],[3.166429,51.040232],[3.166272,51.040173],[3.166183,51.040081],[3.166131,51.039993],[3.166082,51.039887],[3.166091,51.039788],[3.166193,51.039709],[3.166153,51.039666],[3.166034,51.039601],[3.16596,51.039537],[3.165925,51.03942],[3.165886,51.039328],[3.165743,51.03923],[3.165623,51.039149],[3.165555,51.039092],[3.165429,51.039025],[3.165356,51.03895],[3.165341,51.038899],[3.165344,51.038824],[3.165289,51.038744],[3.165243,51.038653],[3.165338,51.038525],[3.165459,51.038459],[3.165531,51.038398],[3.165603,51.038325],[3.16573,51.038204],[3.165795,51.038135],[3.165854,51.038008],[3.165901,51.037908],[3.16596,51.037796],[3.166005,51.037736],[3.16614,51.037627],[3.166315,51.037459],[3.166454,51.037375],[3.166599,51.037245],[3.166698,51.037146],[3.166942,51.036964],[3.16715,51.036812],[3.167278,51.036524],[3.167377,51.036426],[3.167512,51.036352],[3.167599,51.036287],[3.167722,51.036233],[3.167791,51.03615],[3.167903,51.036013],[3.167873,51.035984],[3.167793,51.03594],[3.167709,51.035888],[3.167552,51.035832],[3.167625,51.035786],[3.16784,51.035583],[3.168071,51.035484],[3.168401,51.035346],[3.168877,51.035138],[3.168943,51.035165],[3.169053,51.03521],[3.169136,51.035168],[3.169229,51.03512],[3.169458,51.035031],[3.169712,51.034903],[3.169878,51.034798],[3.169945,51.034748],[3.170019,51.034709],[3.170065,51.034713],[3.170097,51.034727],[3.170179,51.034736],[3.170335,51.034704],[3.170702,51.03463],[3.170823,51.034604],[3.171063,51.034586],[3.171442,51.034521],[3.171952,51.034578],[3.172045,51.034561],[3.172134,51.034557],[3.172299,51.034512],[3.172464,51.034453],[3.172728,51.034373],[3.173008,51.034285],[3.173212,51.034215],[3.173423,51.034122],[3.173636,51.034043],[3.174266,51.034009],[3.174435,51.034001],[3.174554,51.033985],[3.174596,51.033907],[3.174782,51.033648],[3.174895,51.033498],[3.174682,51.033345],[3.174877,51.033124],[3.175233,51.032721],[3.175636,51.03225],[3.175985,51.031739],[3.176041,51.03154],[3.176053,51.031497],[3.176558,51.031079],[3.176882,51.030841],[3.177341,51.030705],[3.177679,51.030633],[3.178026,51.030508],[3.178586,51.030257],[3.178855,51.030134],[3.17905,51.030015],[3.179257,51.029925],[3.179441,51.029829],[3.179707,51.029705],[3.179675,51.029677],[3.179449,51.029518],[3.178906,51.029153],[3.178657,51.02899],[3.178694,51.02897],[3.178907,51.028859],[3.179106,51.028715],[3.180917,51.027766],[3.181007,51.027691],[3.181355,51.02753],[3.181357,51.027512],[3.181365,51.027453],[3.181378,51.027382],[3.181568,51.02676],[3.181587,51.026682],[3.18153,51.026569],[3.181522,51.026551],[3.181445,51.026333],[3.181337,51.02605],[3.181261,51.025874],[3.181087,51.025455],[3.180959,51.025158],[3.180278,51.023651],[3.180056,51.023256],[3.179797,51.022749],[3.179772,51.022688],[3.180465,51.02248],[3.1815,51.022421],[3.181605,51.022416],[3.181577,51.022175],[3.181542,51.021854],[3.181542,51.021495],[3.181594,51.021212],[3.181663,51.020986],[3.1818,51.020667],[3.181947,51.020344],[3.182151,51.019909],[3.182331,51.019537],[3.182504,51.019183],[3.182631,51.018869],[3.182709,51.018454],[3.182789,51.018017],[3.182874,51.017637],[3.182936,51.017319],[3.18301,51.016938],[3.183109,51.016451],[3.183162,51.016179],[3.183183,51.016102],[3.183404,51.016176],[3.184658,51.016902],[3.185337,51.017297],[3.185999,51.017639],[3.186638,51.018061],[3.187123,51.018368],[3.187341,51.018511],[3.187751,51.018711],[3.188119,51.018879],[3.188161,51.01891],[3.188681,51.019294],[3.189381,51.01983],[3.189803,51.020011],[3.190921,51.020426],[3.191709,51.020782],[3.192179,51.021014],[3.192595,51.021242],[3.19279,51.021322],[3.193993,51.021857],[3.194005,51.021847],[3.194024,51.021831],[3.194561,51.021364],[3.194846,51.021572],[3.194907,51.021608],[3.195134,51.021689],[3.195201,51.021701],[3.195221,51.021757],[3.195232,51.021764],[3.19551,51.021903],[3.195982,51.022065],[3.195965,51.022096],[3.196298,51.022296],[3.196578,51.022479],[3.197027,51.022775],[3.197047,51.022777],[3.197135,51.022842],[3.197654,51.023234],[3.197674,51.023226],[3.197839,51.023352],[3.198171,51.0232],[3.198203,51.023265],[3.198204,51.023291],[3.198219,51.02333],[3.198202,51.023363],[3.198213,51.023425],[3.198206,51.023482],[3.198236,51.023516],[3.198292,51.023671],[3.19836,51.023719],[3.198363,51.023775],[3.198377,51.023784],[3.198456,51.023815],[3.198526,51.023829],[3.198534,51.023845],[3.198598,51.02387],[3.198641,51.023915],[3.19872,51.023944],[3.198762,51.023955],[3.198796,51.023962],[3.198835,51.023964],[3.198859,51.023963],[3.198864,51.023986],[3.198883,51.024005],[3.198939,51.024042],[3.198983,51.024081],[3.199039,51.024115],[3.19911,51.024146],[3.199111,51.024147],[3.19959,51.024429],[3.199603,51.024435],[3.199732,51.024458],[3.199768,51.024474],[3.200158,51.024721],[3.200138,51.024759],[3.200024,51.02484],[3.200383,51.025188],[3.200604,51.025122],[3.200911,51.025251],[3.200935,51.02528],[3.200965,51.025316],[3.201004,51.025337],[3.201475,51.025489],[3.201499,51.025491],[3.202322,51.025585],[3.202345,51.025588],[3.20249,51.025605],[3.20251,51.025643],[3.202597,51.025651],[3.202999,51.02569],[3.202997,51.025696],[3.20344,51.025738],[3.20384,51.025778],[3.204276,51.025822],[3.204439,51.025839],[3.205546,51.025957],[3.205775,51.025982],[3.206576,51.02607],[3.206736,51.026088],[3.207966,51.026196],[3.208003,51.026182],[3.20813,51.026193],[3.208256,51.026212],[3.208288,51.026218],[3.208514,51.026257],[3.208605,51.026282],[3.208863,51.026316],[3.208938,51.026362],[3.208946,51.026361],[3.208961,51.026353],[3.209016,51.026345],[3.20905,51.026333],[3.209158,51.026293],[3.209114,51.025958],[3.20923,51.025947],[3.209337,51.025914],[3.209413,51.025894],[3.209467,51.025892],[3.209519,51.025922],[3.209711,51.026041],[3.209774,51.02606],[3.209824,51.026069],[3.21002,51.026057],[3.210098,51.026031],[3.210169,51.025962],[3.210236,51.025898],[3.210261,51.025858],[3.210354,51.025868],[3.210487,51.02589],[3.210536,51.025909],[3.210604,51.025958],[3.210772,51.026045],[3.210837,51.026058],[3.210864,51.026057],[3.210936,51.02603],[3.211155,51.025905],[3.211206,51.025869],[3.211317,51.025796],[3.211492,51.025629],[3.21157,51.025553],[3.211615,51.025492],[3.211716,51.025412],[3.212029,51.025032],[3.211901,51.024866],[3.211939,51.024697],[3.212038,51.024429],[3.212168,51.0242],[3.212142,51.024019],[3.212125,51.023992],[3.21197,51.02392],[3.211962,51.023911],[3.212101,51.023677],[3.21221,51.023498],[3.212257,51.023371],[3.212297,51.023282],[3.21233,51.023215],[3.21243,51.023178],[3.212471,51.02314],[3.212504,51.023072],[3.212514,51.022951],[3.212534,51.022866],[3.212629,51.022722],[3.21282,51.022434],[3.212894,51.022337],[3.213022,51.022069],[3.213027,51.022001],[3.213018,51.021934],[3.213011,51.021879],[3.212958,51.02186],[3.212805,51.021823],[3.212579,51.021757],[3.21253,51.021736],[3.21251,51.021693],[3.212551,51.021655],[3.212597,51.021603],[3.212623,51.021563],[3.21263,51.021506],[3.212611,51.02145],[3.212605,51.021441],[3.212559,51.021431],[3.212534,51.021443],[3.212506,51.02143],[3.21254,51.021294],[3.212574,51.021207],[3.212593,51.021152],[3.212586,51.021138],[3.212526,51.021099],[3.212496,51.021074],[3.212486,51.021027],[3.212521,51.020946],[3.21254,51.02085],[3.212305,51.020647],[3.212213,51.020547],[3.21211,51.020448],[3.212136,51.020422],[3.212239,51.020357],[3.21228,51.020309],[3.212673,51.020099],[3.212796,51.020114],[3.212851,51.020104],[3.212901,51.020063],[3.213001,51.019989],[3.21319,51.019872],[3.213261,51.01982],[3.213327,51.019762],[3.21339,51.019723],[3.213517,51.019701],[3.213799,51.019696],[3.214429,51.019741],[3.214457,51.019787],[3.214627,51.019866],[3.214742,51.019895],[3.214834,51.019887],[3.214977,51.019861],[3.215442,51.019812],[3.215805,51.019769],[3.216025,51.019775],[3.216179,51.019749],[3.2164,51.019757],[3.217064,51.019745],[3.217127,51.019965],[3.217192,51.019991],[3.217244,51.02],[3.217316,51.019991],[3.217396,51.019974],[3.217482,51.019948],[3.217618,51.019955],[3.217754,51.019932],[3.217936,51.019936],[3.218349,51.019892],[3.218422,51.019875],[3.218715,51.019832],[3.218873,51.019781],[3.219348,51.019742],[3.219598,51.019707],[3.219706,51.019684],[3.219802,51.019657],[3.220118,51.019521],[3.220185,51.019459],[3.220265,51.019409],[3.220403,51.019356],[3.220532,51.019344],[3.22097,51.019359],[3.221121,51.019354],[3.221288,51.019326],[3.221404,51.019355],[3.221462,51.019355],[3.221695,51.019331],[3.221754,51.019318],[3.22185,51.019308],[3.221961,51.01929],[3.222066,51.019257],[3.222248,51.019241],[3.222441,51.019227],[3.222534,51.019216],[3.222611,51.019217],[3.222679,51.01922],[3.222766,51.019211],[3.222839,51.019206],[3.222982,51.019226],[3.22306,51.019214],[3.22319,51.019213],[3.22328,51.019216],[3.223441,51.019214],[3.223675,51.019207],[3.223858,51.019236],[3.224029,51.019235],[3.224293,51.019294],[3.224443,51.019314],[3.224516,51.019292],[3.224669,51.019209],[3.224847,51.019169],[3.224893,51.019135],[3.224904,51.019118],[3.224925,51.019109],[3.224972,51.019096],[3.225013,51.019047],[3.225133,51.019039],[3.225255,51.019036],[3.225323,51.019027],[3.22547,51.019009],[3.225619,51.019029],[3.225691,51.01904],[3.225749,51.019055],[3.225778,51.019084],[3.225758,51.019129],[3.225689,51.019216],[3.225572,51.019363],[3.22556,51.01938],[3.225546,51.019424],[3.225593,51.019442],[3.225665,51.019468],[3.225867,51.019532],[3.226127,51.019616],[3.226399,51.019712],[3.226665,51.019809],[3.227031,51.019941],[3.227303,51.020084],[3.227609,51.020274],[3.227764,51.020397],[3.227908,51.020467],[3.22802,51.020541],[3.228089,51.020574],[3.228259,51.020677],[3.228429,51.020811],[3.228601,51.020924],[3.22867,51.020932],[3.228815,51.021002],[3.228977,51.02108],[3.229036,51.02112],[3.229129,51.021153],[3.229213,51.021168],[3.229463,51.021233],[3.229608,51.021261],[3.229954,51.021294],[3.230171,51.021301],[3.230428,51.021336],[3.230658,51.021372],[3.230974,51.021404],[3.231118,51.02142],[3.231263,51.021447],[3.231491,51.021589],[3.231551,51.021654],[3.231745,51.021828],[3.231966,51.022011],[3.232185,51.022188],[3.232411,51.022369],[3.23262,51.022536],[3.232716,51.022613],[3.23293,51.022783],[3.233065,51.02289],[3.233398,51.023153],[3.233466,51.023207],[3.233745,51.023425],[3.234186,51.023773],[3.234403,51.023945],[3.234687,51.024169],[3.235074,51.024474],[3.235392,51.024724],[3.235538,51.024838],[3.235741,51.024998],[3.235954,51.025165],[3.23606,51.025247],[3.23618,51.02534],[3.2364,51.025509],[3.236618,51.025673],[3.23664,51.025689],[3.236682,51.025718],[3.236822,51.025817],[3.236862,51.025911],[3.237297,51.026254],[3.238352,51.02709],[3.238466,51.02718],[3.238844,51.027479],[3.239155,51.027723],[3.239272,51.027814],[3.239361,51.027933],[3.240285,51.028677],[3.240498,51.028846],[3.240972,51.029224],[3.242433,51.030366],[3.242716,51.030593],[3.242766,51.030633],[3.244425,51.031952],[3.244745,51.032204],[3.245383,51.032698],[3.245462,51.032765],[3.245606,51.032887],[3.247182,51.034185],[3.247253,51.034241],[3.247575,51.034496],[3.248741,51.035425],[3.249511,51.036039],[3.249509,51.036039],[3.249556,51.036078],[3.249557,51.036078],[3.249562,51.036082],[3.249578,51.036079],[3.250844,51.036147],[3.251709,51.036184],[3.251854,51.036189],[3.252869,51.036246],[3.253024,51.036254],[3.253263,51.036267],[3.254355,51.036324],[3.255361,51.036375],[3.256999,51.036463],[3.258492,51.036537],[3.259229,51.036575],[3.260097,51.036621],[3.261031,51.036672],[3.261458,51.036694],[3.261489,51.036696],[3.262318,51.036742],[3.263226,51.036794],[3.263386,51.036787],[3.264209,51.036871],[3.265198,51.036816],[3.265393,51.036799],[3.2656,51.036783],[3.265891,51.036745],[3.266342,51.036781],[3.266759,51.036816],[3.267023,51.036848],[3.267324,51.036853],[3.267949,51.036842],[3.268179,51.036817],[3.268384,51.036794],[3.268596,51.036766],[3.268606,51.03674],[3.268712,51.036717],[3.268864,51.036683],[3.268966,51.036656],[3.269238,51.036589],[3.269366,51.036558],[3.269454,51.036544],[3.269598,51.036533],[3.269775,51.036523],[3.269792,51.036521],[3.26987,51.036517],[3.269969,51.036449],[3.269885,51.036406],[3.269804,51.036372],[3.26971,51.036324],[3.269756,51.036278],[3.269916,51.0361],[3.269932,51.036081],[3.270243,51.0357],[3.270289,51.03564],[3.270348,51.035562],[3.270362,51.035562],[3.271688,51.035144],[3.273237,51.034652],[3.273242,51.034651],[3.27326,51.034646],[3.273806,51.034125],[3.273882,51.034159],[3.274055,51.034244],[3.274375,51.034378],[3.27495,51.034566],[3.275449,51.034737],[3.275592,51.03479],[3.275835,51.034854],[3.275922,51.034909],[3.276055,51.035029],[3.276158,51.035094],[3.276228,51.03515],[3.276264,51.035162],[3.276319,51.035173],[3.276376,51.035186],[3.276417,51.035226],[3.276444,51.035261],[3.276495,51.035309],[3.276596,51.035433],[3.27665,51.035476],[3.276787,51.035537],[3.276836,51.03557],[3.276906,51.035606],[3.276959,51.035631],[3.277064,51.035659],[3.27716,51.03568],[3.277259,51.035673],[3.277371,51.035666],[3.277446,51.035662],[3.277506,51.035628],[3.277602,51.035554],[3.277687,51.035484],[3.277767,51.035419],[3.278035,51.035406],[3.278235,51.035392],[3.278399,51.035385],[3.27845,51.035376],[3.278564,51.035423],[3.278983,51.0356],[3.279207,51.035684],[3.279527,51.035789],[3.279916,51.035911],[3.280078,51.035967],[3.280153,51.036004],[3.280257,51.036025],[3.280341,51.036051],[3.280365,51.036077],[3.280338,51.036125],[3.280262,51.036234],[3.280296,51.03626],[3.280449,51.036328],[3.280531,51.036356],[3.280825,51.036479],[3.281095,51.036545],[3.281267,51.036572],[3.281382,51.036561],[3.28153,51.03655],[3.281685,51.036561],[3.281753,51.036559],[3.281853,51.036532],[3.281965,51.036513],[3.28206,51.036517],[3.282174,51.036528],[3.282319,51.036556],[3.282501,51.036589],[3.282692,51.036644],[3.282804,51.036664],[3.282921,51.036708],[3.283025,51.036732],[3.283451,51.036834],[3.283824,51.036932],[3.284148,51.037038],[3.284237,51.037099],[3.284338,51.037139],[3.284417,51.037154],[3.28499,51.037383],[3.285196,51.037466],[3.285345,51.037509],[3.285532,51.037545],[3.28578,51.037547],[3.286018,51.037555],[3.286227,51.037546],[3.2864,51.03752],[3.286556,51.037494],[3.286704,51.03749],[3.286804,51.037492],[3.287019,51.037504],[3.287237,51.037517],[3.28747,51.03751],[3.28757,51.037485],[3.287765,51.037435],[3.288062,51.037371],[3.288278,51.037308],[3.288434,51.037289],[3.288667,51.037268],[3.288889,51.037287],[3.289113,51.037258],[3.289278,51.037244],[3.289444,51.037243],[3.289786,51.037277],[3.29002,51.037302],[3.29011,51.037304],[3.29016,51.037281],[3.290209,51.037252],[3.290311,51.037221],[3.290364,51.037212],[3.290472,51.037243],[3.290604,51.037283],[3.29076,51.037325],[3.290874,51.037336],[3.29098,51.037339],[3.291074,51.037361],[3.291136,51.037394],[3.291154,51.037442],[3.29119,51.037488],[3.291241,51.037497],[3.291276,51.037495],[3.291317,51.037486],[3.291385,51.037456],[3.291449,51.037428],[3.291504,51.037392],[3.2916,51.037361],[3.291737,51.037313],[3.291802,51.0373],[3.291869,51.037284],[3.291943,51.037254],[3.29204,51.037219],[3.292116,51.037202],[3.292947,51.036798],[3.293143,51.036841],[3.29316,51.036843],[3.293253,51.036843],[3.29332,51.036875],[3.293457,51.036941],[3.293487,51.036953],[3.293941,51.037135],[3.293952,51.037165],[3.294047,51.03722],[3.294206,51.037311],[3.294379,51.037384],[3.294466,51.037427],[3.294582,51.037505],[3.294691,51.037561],[3.2948,51.03758],[3.294914,51.037598],[3.295006,51.03761],[3.295056,51.037619],[3.2951,51.037636],[3.295141,51.03766],[3.295182,51.037685],[3.29521,51.037654],[3.295833,51.036953],[3.296239,51.036488],[3.296452,51.036502],[3.296471,51.036506],[3.296514,51.036516],[3.296531,51.036524],[3.296592,51.036566],[3.296675,51.036643],[3.29679,51.036767],[3.296817,51.036793],[3.296979,51.036932],[3.297126,51.037052],[3.297137,51.03706],[3.297437,51.03727],[3.297452,51.037278],[3.297679,51.037403],[3.297904,51.037523],[3.298686,51.037631],[3.299302,51.0377],[3.300329,51.037799],[3.300863,51.037872],[3.301429,51.037861],[3.301339,51.03738],[3.301354,51.037377],[3.301515,51.037346],[3.301544,51.037377],[3.301565,51.03738],[3.301903,51.037396],[3.30221,51.037412],[3.303317,51.037467],[3.303371,51.037469],[3.303546,51.037479],[3.304151,51.037516],[3.30425,51.037523],[3.304383,51.038028],[3.304417,51.03846],[3.306115,51.038738],[3.307404,51.038954],[3.307534,51.03897],[3.308002,51.038951],[3.3083,51.03894],[3.308829,51.038921],[3.309357,51.038902],[3.309693,51.03889],[3.310109,51.038875],[3.310316,51.038867],[3.310584,51.038857],[3.311134,51.038834],[3.311694,51.03882],[3.311921,51.038812],[3.312371,51.038793],[3.312934,51.038782],[3.313,51.038736],[3.313396,51.038715],[3.31363,51.038706],[3.313925,51.038695],[3.314022,51.038696],[3.314064,51.038697],[3.314935,51.038755],[3.31611,51.038838],[3.316221,51.038869],[3.317132,51.039265],[3.317194,51.039287],[3.317951,51.039412],[3.318115,51.03944],[3.31863,51.039532],[3.318744,51.039551],[3.318957,51.039588],[3.319396,51.039664],[3.31956,51.039689],[3.319903,51.039744],[3.320235,51.039797],[3.320596,51.039859],[3.320675,51.039873],[3.320769,51.04004],[3.320876,51.040288],[3.320945,51.040465],[3.321029,51.040781],[3.321094,51.041149],[3.321108,51.041275],[3.321029,51.041614],[3.320921,51.041967],[3.320856,51.04213],[3.320696,51.042573],[3.320518,51.043157],[3.320362,51.043601],[3.320163,51.0442],[3.320041,51.04453],[3.320004,51.04465],[3.319838,51.044861],[3.319653,51.04502],[3.319101,51.045393],[3.319123,51.045426],[3.319533,51.045608],[3.319636,51.04553],[3.319646,51.045523],[3.319683,51.04567],[3.319796,51.046381],[3.319854,51.046739],[3.319868,51.046805],[3.31988,51.04684],[3.319931,51.046958],[3.31994,51.046979],[3.320046,51.04725],[3.320149,51.047507],[3.320102,51.047549],[3.319875,51.047751],[3.320154,51.047849],[3.320055,51.048057],[3.320051,51.048133],[3.320045,51.048171],[3.320024,51.048218],[3.319884,51.048445],[3.319702,51.04876],[3.31973,51.048754],[3.320166,51.0488],[3.320368,51.048823],[3.320683,51.048854],[3.320915,51.048891],[3.321054,51.048936],[3.321077,51.048952],[3.321169,51.04901],[3.321182,51.04902],[3.321225,51.049057],[3.321755,51.049587],[3.321825,51.049669],[3.321855,51.049717],[3.321851,51.049722],[3.321692,51.0499],[3.321688,51.049905],[3.321849,51.049996],[3.321906,51.050032],[3.322004,51.050123],[3.322083,51.050205],[3.322201,51.050313],[3.322255,51.050359],[3.322315,51.05037],[3.322689,51.050443],[3.323003,51.050515],[3.323028,51.050525],[3.323708,51.050844],[3.32467,51.051223],[3.324686,51.051207],[3.324755,51.051233],[3.324887,51.050877],[3.324994,51.050627],[3.325099,51.050343],[3.325307,51.050389],[3.325913,51.0506],[3.326317,51.050744],[3.32652,51.050881],[3.326527,51.050882],[3.326662,51.050908],[3.327111,51.050974],[3.327993,51.051099],[3.328029,51.051097],[3.328719,51.051129],[3.328904,51.051138],[3.329302,51.051188],[3.329302,51.051195],[3.329349,51.051202],[3.329297,51.051555],[3.329291,51.051593],[3.329325,51.051645],[3.329362,51.051692],[3.329414,51.051717],[3.32952,51.051745],[3.330825,51.051992],[3.330882,51.052011],[3.330841,51.052071],[3.330477,51.052596],[3.330647,51.052659],[3.33101,51.052794],[3.331274,51.052868],[3.331876,51.053041],[3.331955,51.05308],[3.332081,51.053169],[3.332208,51.053214],[3.332456,51.053263],[3.332499,51.053271],[3.332532,51.053254],[3.332692,51.053064],[3.332751,51.053073],[3.332912,51.05312],[3.333128,51.053176],[3.333324,51.053244],[3.333396,51.053268],[3.333479,51.053305],[3.333573,51.053359],[3.333642,51.053392],[3.333749,51.053443],[3.33385,51.053484],[3.333916,51.05351],[3.334004,51.053513],[3.334083,51.053507],[3.334168,51.053502],[3.334251,51.053501],[3.334381,51.053476],[3.334517,51.053475],[3.334622,51.053472],[3.334672,51.053505],[3.33473,51.053535],[3.334789,51.053546],[3.334856,51.053554],[3.334945,51.053543],[3.335149,51.05353],[3.335301,51.053549],[3.335421,51.053575],[3.335521,51.053559],[3.335615,51.053544],[3.335738,51.053518],[3.335756,51.053513],[3.335821,51.0535],[3.335964,51.053467],[3.336202,51.053413],[3.336332,51.053392],[3.336543,51.053352],[3.336717,51.053338],[3.33683,51.053329],[3.337039,51.05332],[3.337151,51.053307],[3.33721,51.053287],[3.33725,51.053275],[3.337294,51.053262],[3.337433,51.053244],[3.337524,51.053241],[3.33756,51.053243],[3.337724,51.05326],[3.337884,51.05322],[3.337886,51.05322],[3.337921,51.053222],[3.33793,51.053224],[3.33804,51.053266],[3.338089,51.05328],[3.33814,51.053292],[3.338216,51.053308],[3.338367,51.053334],[3.33842,51.053344],[3.338425,51.053347],[3.338448,51.053359],[3.338502,51.053403],[3.33856,51.053452],[3.338597,51.053479],[3.338666,51.053514],[3.338668,51.053514],[3.338709,51.053523],[3.338728,51.053524],[3.338866,51.053518],[3.339074,51.053507],[3.339286,51.053491],[3.339325,51.053489],[3.339408,51.053477],[3.339441,51.053469],[3.3395,51.053444],[3.339515,51.053437],[3.339567,51.053406],[3.339619,51.053372],[3.339649,51.053356],[3.339654,51.053354],[3.339785,51.053298],[3.339822,51.053284],[3.339892,51.053233],[3.33993,51.053196],[3.340006,51.053109],[3.340083,51.053028],[3.34017,51.052952],[3.340197,51.052928],[3.340209,51.052922],[3.340223,51.05292],[3.340279,51.052919],[3.340396,51.052929],[3.340599,51.052944],[3.340622,51.052943],[3.340773,51.052928],[3.340818,51.052921],[3.340994,51.052891],[3.341041,51.052884],[3.341048,51.052884],[3.341232,51.052907],[3.341255,51.052911],[3.341346,51.052921],[3.341468,51.052933],[3.341496,51.052936],[3.341669,51.052952],[3.341704,51.052952],[3.341754,51.052944],[3.341774,51.052945],[3.341851,51.052948],[3.341969,51.05296],[3.342214,51.052967],[3.34239,51.052968],[3.342528,51.052974],[3.342674,51.053011],[3.343002,51.053022],[3.34304,51.053026],[3.343145,51.053056],[3.34316,51.053073],[3.343176,51.05313],[3.343194,51.053162],[3.343232,51.053173],[3.343345,51.05317],[3.343479,51.053147],[3.343461,51.053223],[3.343448,51.053351],[3.343436,51.053483],[3.343425,51.053617],[3.343413,51.053761],[3.343401,51.05389],[3.343389,51.053987],[3.343374,51.054073],[3.343361,51.054078],[3.343597,51.054076],[3.343779,51.054068],[3.343979,51.054059],[3.344101,51.054051],[3.344168,51.054115],[3.34425,51.054203],[3.34424,51.054214],[3.344209,51.054254],[3.344351,51.054563],[3.344429,51.054719],[3.344444,51.054751],[3.3445,51.054864],[3.344539,51.054947],[3.344543,51.054983],[3.34455,51.055057],[3.344563,51.055157],[3.344566,51.055182],[3.344582,51.055299],[3.344606,51.055473],[3.344625,51.055623],[3.344645,51.055775],[3.34465,51.055816],[3.344661,51.055891],[3.344675,51.055966],[3.344683,51.056018],[3.344684,51.056026],[3.344709,51.0562],[3.344766,51.056602],[3.344791,51.056781],[3.344818,51.056997],[3.344849,51.057255],[3.344865,51.057389],[3.344894,51.05763],[3.344908,51.057765],[3.344918,51.057902],[3.344872,51.058024],[3.344898,51.058278],[3.344904,51.058336],[3.344714,51.058518],[3.344336,51.058916],[3.343867,51.05989],[3.343342,51.060427],[3.34315,51.060623],[3.341552,51.062216],[3.340615,51.063191],[3.340174,51.063665],[3.340028,51.063823],[3.339828,51.064025],[3.339404,51.064481],[3.338798,51.065132],[3.338739,51.065182],[3.33874,51.065232],[3.338702,51.065314],[3.338224,51.065805],[3.337663,51.066365],[3.337621,51.0664],[3.337501,51.066527],[3.337223,51.066808],[3.33688,51.067169],[3.336719,51.067338],[3.335151,51.06894],[3.335127,51.068968],[3.33521,51.069027],[3.335293,51.069107],[3.33536,51.069195],[3.335854,51.0695],[3.336346,51.069779],[3.337035,51.07021],[3.337545,51.07055],[3.337852,51.070753],[3.338645,51.071276],[3.339192,51.071613],[3.339601,51.071849],[3.339782,51.071968],[3.340083,51.072151],[3.340403,51.072416],[3.340621,51.072634],[3.340769,51.072811],[3.340885,51.072936],[3.341098,51.073101],[3.341341,51.07327],[3.341669,51.073549],[3.341757,51.073685],[3.341842,51.073803],[3.342315,51.074454],[3.342404,51.07459],[3.34258,51.074804],[3.342906,51.075118],[3.343574,51.075773],[3.344886,51.077037],[3.345344,51.07748],[3.34558,51.077639],[3.34561,51.077671],[3.346172,51.078211],[3.346361,51.078393],[3.347337,51.079343],[3.347483,51.079485],[3.34758,51.07958],[3.347605,51.079604],[3.347612,51.07961],[3.347836,51.079819],[3.34789,51.079868],[3.347974,51.079943],[3.347977,51.079945],[3.347992,51.079956],[3.347999,51.079967],[3.348076,51.080048],[3.348088,51.080061],[3.348216,51.080191],[3.348447,51.080428],[3.348715,51.08069],[3.349012,51.080973],[3.349094,51.081172],[3.349496,51.081515],[3.349436,51.081614],[3.349158,51.082047],[3.349011,51.082259],[3.348988,51.082288],[3.348844,51.08247],[3.348452,51.082781],[3.347965,51.083165],[3.346986,51.083652],[3.346402,51.083937],[3.345506,51.084377],[3.345168,51.084563],[3.344472,51.08534],[3.343851,51.086038],[3.343563,51.086334],[3.342732,51.087155],[3.342391,51.087439],[3.341564,51.088001],[3.340859,51.088482],[3.340184,51.088946],[3.339598,51.089371],[3.338818,51.089966],[3.338346,51.090357],[3.337534,51.091147],[3.336963,51.091705],[3.336505,51.092151],[3.335975,51.092662],[3.335403,51.09321],[3.33527,51.09333],[3.335044,51.093518],[3.334613,51.093847],[3.333884,51.094371],[3.333032,51.094984],[3.332394,51.095443],[3.331327,51.096203],[3.330902,51.096525],[3.330234,51.097079],[3.329641,51.097693],[3.329566,51.097756],[3.328607,51.098785],[3.327583,51.099904]]],[[[3.32661,51.10121],[3.27565,51.09239],[3.26629,51.09788],[3.23421,51.07861],[3.23171,51.06463],[3.1977,51.06833],[3.18666,51.05617],[3.16317,51.06517],[3.15796,51.05658],[3.18319,51.01606],[3.20956,51.02692],[3.22559,51.01902],[3.24944,51.03593],[3.3206,51.03971],[3.31881,51.04864],[3.3449,51.05421],[3.33528,51.06883],[3.34905,51.08112],[3.32661,51.10121]]]]}}
