{"type":"Feature","properties":{"mrgid":824,"name":"Orsett","placeType":"Ward","source":"SAIL:sailcommunes"},"geometry":{"type":"Polygon","coordinates":[[[0.382021,51.50291],[0.403571,51.498205],[0.407175,51.511232],[0.440282,51.536895],[0.434005,51.546041],[0.416082,51.557309],[0.393538,51.557599],[0.39181,51.567156],[0.313022,51.565825],[0.333902,51.542438],[0.322088,51.535661],[0.335567,51.531087],[0.330057,51.516471],[0.33808,51.500595],[0.361271,51.500176],[0.369942,51.490197],[0.382021,51.50291]]]}}
