{"type":"Feature","properties":{"mrgid":8367,"name":"Moroccan Exclusive Economic Zone","placeType":"EEZ","source":"MarineRegions:eez"},"geometry":{"type":"MultiPolygon","coordinates":[[[[-13.171554,27.67075],[-13.159708,27.696948],[-13.07116,27.735152],[-13.05032,27.751055],[-13.027347,27.794987],[-13.008378,27.808954],[-12.981271,27.889543],[-12.959143,27.920382],[-12.937338,27.929382],[-12.935282,27.945712],[-12.916881,27.953073],[-12.650402,27.982739],[-12.234634,28.052439],[-12.235557,28.040767],[-12.253663,28.030202],[-12.279312,28.035751],[-12.28517,28.031756],[-12.282735,28.01569],[-12.267598,28.002319],[-12.283087,28.025085],[-12.246506,28.028012],[-12.224652,28.041886],[-12.228855,28.055056],[-12.053135,28.096605],[-11.940018,28.155384],[-11.877367,28.1778],[-11.869785,28.173571],[-11.870243,28.180233],[-11.790276,28.210455],[-11.779207,28.203251],[-11.778503,28.21397],[-11.703472,28.242841],[-11.633696,28.261005],[-11.629882,28.252825],[-11.62781,28.262426],[-11.543509,28.294183],[-11.519182,28.280857],[-11.528576,28.291226],[-11.524035,28.301761],[-11.462958,28.337412],[-11.441898,28.377754],[-11.406891,28.405664],[-11.388197,28.439897],[-11.350128,28.471363],[-11.351376,28.480469],[-11.359012,28.473643],[-11.35216,28.481216],[-11.358202,28.483488],[-11.350069,28.482109],[-11.304967,28.531229],[-11.252193,28.569448],[-11.209726,28.617227],[-11.113357,28.687266],[-11.075106,28.731153],[-11.074818,28.741285],[-10.706241,28.914969],[-10.548069,29.002806],[-10.510526,29.0281],[-10.460532,29.08277],[-10.440347,29.094542],[-10.42446,29.129659],[-10.406571,29.137968],[-10.402677,29.155553],[-10.330056,29.236255],[-10.215476,29.313348],[-10.181635,29.377424],[-10.120842,29.439865],[-10.099416,29.481382],[-10.076934,29.502881],[-10.070491,29.515173],[-10.073979,29.532506],[-10.056178,29.552814],[-10.059446,29.564427],[-10.051211,29.568404],[-10.050933,29.58184],[-9.986296,29.660251],[-9.982837,29.675501],[-9.831991,29.805709],[-9.789248,29.865093],[-9.79093,29.876525],[-9.76352,29.912072],[-9.761662,29.927663],[-9.696273,30.048724],[-9.672748,30.075864],[-9.655073,30.05443],[-9.669988,30.080885],[-9.638814,30.184924],[-9.642159,30.204205],[-9.606762,30.358935],[-9.588496,30.361223],[-9.599491,30.362873],[-9.607396,30.376284],[-9.598358,30.39968],[-9.61108,30.422405],[-9.631671,30.418857],[-9.645329,30.428571],[-9.640363,30.415763],[-9.648273,30.422549],[-9.646711,30.435275],[-9.660784,30.445723],[-9.678858,30.501344],[-9.701592,30.540521],[-9.740078,30.55036],[-9.746317,30.57307],[-9.782733,30.608799],[-9.830132,30.627179],[-9.881039,30.624466],[-9.890664,30.639683],[-9.873069,30.700234],[-9.85005,30.721166],[-9.851879,30.732822],[-9.805738,30.814347],[-9.807992,30.835537],[-9.82278,30.837228],[-9.826808,30.847085],[-9.807863,30.891479],[-9.820181,30.911154],[-9.82029,30.953838],[-9.827024,30.963817],[-9.808009,31.006784],[-9.825209,31.058179],[-9.816857,31.091428],[-9.842088,31.106048],[-9.834062,31.122931],[-9.839013,31.137449],[-9.832461,31.16503],[-9.815138,31.192169],[-9.822385,31.199349],[-9.820142,31.237078],[-9.797405,31.281362],[-9.793892,31.327236],[-9.810114,31.378741],[-9.84138,31.390013],[-9.833509,31.41362],[-9.799935,31.443762],[-9.774031,31.486664],[-9.768665,31.484457],[-9.765028,31.506079],[-9.78019,31.508793],[-9.735501,31.541713],[-9.686581,31.604001],[-9.674679,31.635046],[-9.678505,31.69978],[-9.634893,31.729868],[-9.586549,31.793666],[-9.343843,32.032029],[-9.339992,32.046619],[-9.346476,32.046132],[-9.329901,32.065541],[-9.322151,32.113401],[-9.261877,32.175048],[-9.25129,32.217462],[-9.26638,32.251153],[-9.244966,32.299979],[-9.257082,32.312622],[-9.253833,32.312444],[-9.246532,32.306511],[-9.252486,32.319446],[-9.28111,32.329002],[-9.291059,32.36354],[-9.249041,32.416225],[-9.231769,32.475477],[-9.262399,32.503208],[-9.286037,32.542569],[-9.12159,32.661551],[-9.04398,32.738995],[-9.039421,32.733841],[-9.02922,32.744313],[-9.040537,32.742099],[-8.901218,32.840038],[-8.779053,32.96095],[-8.745754,32.976628],[-8.737256,32.990636],[-8.741552,32.990662],[-8.745107,32.988719],[-8.746785,32.979999],[-8.759548,32.978998],[-8.703025,33.027807],[-8.700487,33.035024],[-8.713251,33.024936],[-8.704427,33.039666],[-8.691253,33.046498],[-8.680678,33.065471],[-8.646774,33.095301],[-8.640013,33.109669],[-8.631401,33.112817],[-8.628068,33.119535],[-8.637205,33.1251],[-8.628085,33.121303],[-8.632522,33.125785],[-8.626415,33.123442],[-8.630906,33.127463],[-8.621285,33.134534],[-8.644885,33.123953],[-8.633189,33.134906],[-8.613247,33.140315],[-8.630037,33.161475],[-8.625767,33.171482],[-8.587167,33.208436],[-8.555888,33.223274],[-8.558519,33.233238],[-8.546257,33.24598],[-8.510364,33.26727],[-8.501279,33.264916],[-8.495397,33.257122],[-8.500662,33.25235],[-8.489071,33.244201],[-8.460165,33.245919],[-8.396301,33.275983],[-8.339818,33.317438],[-8.340735,33.292403],[-8.330394,33.265316],[-8.328131,33.269993],[-8.32982,33.278539],[-8.339068,33.28892],[-8.334727,33.323421],[-8.297659,33.366579],[-8.218534,33.382284],[-8.178634,33.403855],[-8.126567,33.413256],[-7.964846,33.477877],[-7.896697,33.494685],[-7.823527,33.53774],[-7.817086,33.527902],[-7.800807,33.528574],[-7.794785,33.540163],[-7.785876,33.535469],[-7.711186,33.571206],[-7.704869,33.585205],[-7.694689,33.583185],[-7.664511,33.599382],[-7.652786,33.614119],[-7.643035,33.603558],[-7.618139,33.606434],[-7.592024,33.620556],[-7.618464,33.605075],[-7.615579,33.602135],[-7.61071,33.602715],[-7.611406,33.608615],[-7.605222,33.602092],[-7.605685,33.607761],[-7.600225,33.602028],[-7.605562,33.610198],[-7.595793,33.605676],[-7.594321,33.613068],[-7.588116,33.603787],[-7.521356,33.625124],[-7.44282,33.678995],[-7.437906,33.689109],[-7.414621,33.699079],[-7.387584,33.733811],[-7.396508,33.720966],[-7.394776,33.708557],[-7.361327,33.710239],[-7.350472,33.721442],[-7.341251,33.717731],[-7.34239,33.730862],[-7.265945,33.78208],[-7.228281,33.796658],[-7.22802,33.803813],[-7.185111,33.805305],[-7.169562,33.821098],[-7.163301,33.815878],[-7.147514,33.828238],[-7.137917,33.820864],[-7.120355,33.829327],[-7.066148,33.870885],[-7.029923,33.878096],[-7.003042,33.901879],[-6.980466,33.90961],[-6.840297,34.037427],[-6.831546,34.028291],[-6.81424,34.026989],[-6.815803,34.028008],[-6.828416,34.028922],[-6.838283,34.040671],[-6.786255,34.08911],[-6.717496,34.176209],[-6.682442,34.24796],[-6.678786,34.259804],[-6.685908,34.262728],[-6.665514,34.2618],[-6.64671,34.271153],[-6.614978,34.305761],[-6.599398,34.309959],[-6.578373,34.307338],[-6.589891,34.267578],[-6.567927,34.269988],[-6.551821,34.336427],[-6.542829,34.324558],[-6.531839,34.343688],[-6.494695,34.334838],[-6.483813,34.344301],[-6.498249,34.344622],[-6.500883,34.351165],[-6.459097,34.373194],[-6.478636,34.405588],[-6.461591,34.373746],[-6.50094,34.352646],[-6.502511,34.347892],[-6.499257,34.343631],[-6.485412,34.343337],[-6.494454,34.336717],[-6.532823,34.345653],[-6.536251,34.343064],[-6.543076,34.32538],[-6.547907,34.336131],[-6.549968,34.337643],[-6.55294,34.336933],[-6.569894,34.291405],[-6.569247,34.270583],[-6.58894,34.267953],[-6.577039,34.306738],[-6.583303,34.310893],[-6.597791,34.311663],[-6.615028,34.30766],[-6.651207,34.270451],[-6.673161,34.264259],[-6.683878,34.265808],[-6.675331,34.266181],[-6.524073,34.471132],[-6.390403,34.69714],[-6.302856,34.868899],[-6.282096,34.866849],[-6.296105,34.840888],[-6.268246,34.81964],[-6.248219,34.839122],[-6.24967,34.859159],[-6.296814,34.873434],[-6.296499,34.884068],[-6.169503,35.193794],[-6.144325,35.197208],[-6.119665,35.213013],[-6.124166,35.214272],[-6.150274,35.203868],[-6.081477,35.395511],[-6.062709,35.421253],[-6.05129,35.455046],[-6.028678,35.472739],[-6.005365,35.527171],[-5.999974,35.564425],[-5.978961,35.592494],[-5.96981,35.584643],[-5.972409,35.596802],[-5.963711,35.596728],[-5.967725,35.598564],[-5.972279,35.598493],[-5.979196,35.593947],[-5.99496,35.574766],[-5.930192,35.787844],[-5.907664,35.801415],[-5.846783,35.801043],[-5.796259,35.791669],[-5.803906,35.781093],[-5.781183,35.776569],[-5.751291,35.798476],[-5.750433,35.817869],[-5.723063,35.824131],[-5.718967,35.831442],[-5.686535,35.839207],[-5.652455,35.826238],[-5.630333,35.835408],[-5.600783,35.829902],[-5.562297,35.848518],[-5.552644,35.844895],[-5.506374,35.886629],[-5.489248,35.89149],[-5.48331,35.908482],[-5.474329,35.905354],[-5.456736,35.914679],[-5.442387,35.904208],[-5.438581,35.910588],[-5.414389,35.910581],[-5.401537,35.922473],[-5.393792,35.909527],[-5.381943,35.91285],[-5.387208,35.930132],[-5.372147,36.005104],[-5.439935,35.983368],[-5.478448,35.980387],[-5.586583,35.940949],[-5.628915,35.935165],[-6.001847,35.966283],[-6.103033,35.962544],[-7.022118,35.809346],[-7.54199,35.756493],[-7.71845,35.637624],[-7.987782,35.474253],[-8.346365,35.290669],[-8.422391,35.259698],[-8.910175,35.167284],[-9.6905,35.077105],[-10.525182,35.011995],[-11.846598,34.894763],[-12.148173,34.877863],[-12.404435,34.631569],[-12.590454,34.41549],[-12.736896,33.237776],[-12.885674,32.732291],[-13.039742,32.289084],[-12.343341,31.334455],[-12.22794,31.164469],[-12.116084,30.9635],[-11.963581,30.632495],[-11.81269,30.343576],[-11.813349,30.307162],[-12.066343,29.45788],[-12.123408,29.316295],[-12.212866,29.136598],[-12.433504,28.913406],[-12.733469,28.701796],[-12.961572,28.577241],[-13.129386,28.503288],[-13.214885,28.434939],[-13.247166,28.401405],[-13.387709,28.183297],[-13.448765,28.068309],[-13.664751,27.833617],[-13.37152,27.729362],[-13.171554,27.67075]],[[-5.429189,35.915691],[-5.412589,35.918457],[-5.416136,35.911013],[-5.429189,35.915691]],[[-7.062066,33.873028],[-7.060274,33.875823],[-7.058977,33.874848],[-7.062066,33.873028]],[[-7.133279,33.830053],[-7.133033,33.829691],[-7.140809,33.826508],[-7.133279,33.830053]],[[-7.18888,33.809526],[-7.183452,33.810691],[-7.184413,33.80929],[-7.18888,33.809526]],[[-8.700404,33.045079],[-8.698732,33.047691],[-8.698232,33.047346],[-8.700404,33.045079]],[[-8.750086,32.977023],[-8.747309,32.978932],[-8.747366,32.976652],[-8.750086,32.977023]],[[-9.782047,31.501583],[-9.785274,31.492912],[-9.792121,31.494275],[-9.782047,31.501583]],[[-10.118642,29.44661],[-10.12103,29.4488],[-10.11894,29.448858],[-10.118642,29.44661]],[[-10.200334,29.35787],[-10.196253,29.362437],[-10.195884,29.360236],[-10.200334,29.35787]],[[-12.228493,28.045496],[-12.228029,28.046026],[-12.227108,28.043009],[-12.228493,28.045496]],[[-12.230541,28.043768],[-12.233461,28.041864],[-12.233759,28.042274],[-12.230541,28.043768]],[[-12.229833,28.041593],[-12.238749,28.038269],[-12.238204,28.038865],[-12.229833,28.041593]],[[-12.247794,28.029442],[-12.245444,28.031893],[-12.24455,28.030855],[-12.247794,28.029442]],[[-12.278789,28.03397],[-12.272498,28.029128],[-12.272734,28.026076],[-12.283445,28.027784],[-12.278789,28.03397]],[[-6.279925,34.866423],[-6.275898,34.863425],[-6.279902,34.859998],[-6.279925,34.866423]],[[-6.25952,34.849929],[-6.258222,34.849093],[-6.259717,34.84782],[-6.25952,34.849929]]],[[[-3.925421,35.99287],[-4.341784,35.879229],[-4.422569,35.877064],[-4.528302,35.897468],[-4.604083,35.877321],[-4.682161,35.805883],[-5.230126,35.791534],[-5.289041,35.823387],[-5.332954,35.8672],[-5.344316,35.870456],[-5.353474,35.844943],[-5.346893,35.771865],[-5.331571,35.705154],[-5.320175,35.683594],[-5.273438,35.684989],[-5.284168,35.66242],[-5.269421,35.602149],[-5.241426,35.550941],[-5.173371,35.531688],[-5.151801,35.503941],[-5.10568,35.476422],[-5.080788,35.435962],[-5.083275,35.425904],[-5.081676,35.425368],[-5.078676,35.429891],[-5.062399,35.407187],[-5.016641,35.403203],[-4.928008,35.318534],[-4.86731,35.301381],[-4.824922,35.262777],[-4.782521,35.238017],[-4.681813,35.204643],[-4.649501,35.214255],[-4.631022,35.195237],[-4.612428,35.188925],[-4.588915,35.191685],[-4.520579,35.174809],[-4.490801,35.175924],[-4.426984,35.154198],[-4.404611,35.158453],[-4.355449,35.147427],[-4.298627,35.169721],[-4.319107,35.198825],[-4.305111,35.197981],[-4.294437,35.170886],[-4.286236,35.180828],[-4.252395,35.187836],[-4.217888,35.18468],[-4.18926,35.197901],[-4.114149,35.204848],[-4.04521,35.236702],[-3.979995,35.23639],[-3.928696,35.261952],[-3.914329,35.254689],[-3.926036,35.243577],[-3.913893,35.220845],[-3.908731,35.219324],[-3.906997,35.214383],[-3.898549,35.20997],[-3.84878,35.196737],[-3.810526,35.201798],[-3.771885,35.222092],[-3.750172,35.274779],[-3.70523,35.288225],[-3.678099,35.285815],[-3.666356,35.269052],[-3.575818,35.221752],[-3.536297,35.217326],[-3.490016,35.199003],[-3.451442,35.205985],[-3.427698,35.192552],[-3.332996,35.186291],[-3.303936,35.204875],[-3.238589,35.223076],[-3.19342,35.223202],[-3.157989,35.251507],[-3.134145,35.285067],[-3.109958,35.271775],[-3.082898,35.280862],[-3.027278,35.351906],[-3.010059,35.383522],[-3.011157,35.39531],[-3.003474,35.397583],[-3.010283,35.401153],[-2.995956,35.417327],[-2.993639,35.435354],[-2.962648,35.439679],[-2.949674,35.427872],[-2.963896,35.411908],[-2.954232,35.404767],[-2.971057,35.364231],[-2.955951,35.34642],[-2.961263,35.330878],[-2.952205,35.320125],[-2.934773,35.336376],[-2.898166,35.349904],[-2.880906,35.320108],[-2.929463,35.270923],[-2.919028,35.270872],[-2.916491,35.282931],[-2.913784,35.277405],[-2.913738,35.276204],[-2.921917,35.264586],[-2.917964,35.258599],[-2.844711,35.195758],[-2.872979,35.208579],[-2.918353,35.253926],[-2.929176,35.250477],[-2.923727,35.224008],[-2.898592,35.211911],[-2.925253,35.197405],[-2.92388,35.183275],[-2.903492,35.160373],[-2.899748,35.145054],[-2.873276,35.127832],[-2.811307,35.10253],[-2.756474,35.098565],[-2.747517,35.106446],[-2.750901,35.118931],[-2.783754,35.138658],[-2.789398,35.151881],[-2.843815,35.193848],[-2.747125,35.124299],[-2.630017,35.087316],[-2.566328,35.081254],[-2.520483,35.089147],[-2.481146,35.10448],[-2.421906,35.148073],[-2.410349,35.137306],[-2.341319,35.123591],[-2.237279,35.089772],[-2.212333,35.084282],[-2.204187,35.089986],[-2.202827,35.190746],[-2.181749,35.293856],[-2.143642,35.421038],[-2.057521,35.642744],[-2.069751,35.752725],[-2.121709,35.88889],[-2.375563,35.753232],[-3.011439,35.688402],[-3.416898,35.668591],[-3.535176,35.728913],[-3.925421,35.99287]],[[-5.338741,35.736511],[-5.337997,35.73843],[-5.334986,35.736725],[-5.338741,35.736511]],[[-3.897513,35.236976],[-3.845877,35.265335],[-3.882728,35.210872],[-3.904721,35.214736],[-3.897513,35.236976]],[[-4.361055,35.152747],[-4.360637,35.153815],[-4.359265,35.152207],[-4.361055,35.152747]],[[-2.423333,35.186667],[-2.383722,35.167952],[-2.464676,35.154429],[-2.524555,35.175535],[-2.441311,35.183212],[-2.423333,35.186667]]]]}}
