{"type":"Feature","properties":{"mrgid":842,"name":"Thaxted","placeType":"Ward","source":"SAIL:sailcommunes"},"geometry":{"type":"Polygon","coordinates":[[[0.295905,51.953162],[0.307595,51.948338],[0.30894,51.931291],[0.329852,51.925815],[0.330017,51.913558],[0.373638,51.912031],[0.369196,51.931551],[0.378513,51.938919],[0.408233,51.934144],[0.411564,51.923201],[0.421397,51.926249],[0.419122,51.941054],[0.430057,51.953766],[0.41136,51.971115],[0.37934,51.960459],[0.345109,51.97502],[0.332561,51.970099],[0.324552,51.979066],[0.295905,51.953162]]]}}
