{"type":"Feature","properties":{"mrgid":8424,"name":"Costa Rican Exclusive Economic Zone","placeType":"EEZ","source":"MarineRegions:eez"},"geometry":{"type":"MultiPolygon","coordinates":[[[[-85.859672,11.046708],[-85.955389,11.086917],[-86.022694,11.097083],[-86.119833,11.069889],[-86.3925,10.958333],[-86.718194,10.868722],[-86.957667,10.774361],[-87.379361,10.578306],[-87.798472,10.35475],[-89.198068,9.723098],[-89.118914,9.390828],[-89.020836,9.076466],[-88.911885,8.812811],[-88.735629,8.460149],[-88.900247,8.360801],[-89.061348,8.250465],[-89.208956,8.136477],[-89.352748,8.011863],[-89.494281,7.87399],[-89.621381,7.734955],[-89.740099,7.589328],[-89.856338,7.42929],[-89.958853,7.269695],[-90.055453,7.098236],[-90.138194,6.92922],[-90.209939,6.759225],[-90.273883,6.580325],[-90.327552,6.398087],[-90.372248,6.205931],[-90.404528,6.018717],[-90.436935,5.660465],[-90.432612,5.311655],[-90.394331,4.977811],[-90.310733,4.570482],[-89.436495,3.443867],[-87.136498,2.147619],[-86.930466,2.150156],[-86.738362,2.164002],[-86.543882,2.189548],[-86.345901,2.227719],[-86.16279,2.274306],[-85.975716,2.333622],[-85.787376,2.40597],[-85.608604,2.4872],[-85.405101,2.595836],[-85.183604,2.733493],[-85.014682,2.854072],[-84.809802,3.023044],[-84.766667,3.05],[-84.316667,3.533333],[-84.316667,5.0],[-82.895833,8.0375],[-82.907503,8.042242],[-82.915972,8.05927],[-82.913066,8.077539],[-82.901214,8.082741],[-82.901786,8.110734],[-82.934384,8.181221],[-82.974136,8.241453],[-83.044588,8.295172],[-83.120286,8.338478],[-83.144339,8.366153],[-83.136301,8.39552],[-83.114285,8.410136],[-83.092112,8.449814],[-83.151413,8.547482],[-83.140067,8.534922],[-83.138702,8.542089],[-83.125212,8.540665],[-83.111931,8.555606],[-83.083363,8.543417],[-83.089903,8.550184],[-83.111511,8.556586],[-83.125516,8.547462],[-83.137271,8.549733],[-83.159646,8.571234],[-83.178385,8.606599],[-83.166845,8.61595],[-83.163014,8.608464],[-83.151464,8.609023],[-83.159404,8.602435],[-83.157081,8.578274],[-83.12407,8.593725],[-83.124892,8.60058],[-83.135167,8.600109],[-83.172536,8.642574],[-83.183374,8.640988],[-83.17333,8.633502],[-83.181864,8.621758],[-83.212132,8.628248],[-83.226247,8.640768],[-83.23423,8.638688],[-83.236313,8.626992],[-83.254045,8.65619],[-83.294995,8.655139],[-83.307248,8.672527],[-83.330102,8.683939],[-83.331814,8.710306],[-83.325422,8.716828],[-83.335498,8.714943],[-83.32258,8.724472],[-83.333213,8.720597],[-83.347273,8.734728],[-83.373062,8.734623],[-83.381757,8.74585],[-83.390827,8.729946],[-83.403864,8.735934],[-83.432978,8.712663],[-83.444363,8.724277],[-83.4794,8.72035],[-83.482084,8.69453],[-83.471339,8.701023],[-83.466024,8.685006],[-83.458277,8.68522],[-83.433825,8.658496],[-83.436124,8.634608],[-83.427516,8.618759],[-83.373276,8.574925],[-83.325423,8.568072],[-83.30595,8.540181],[-83.290942,8.534622],[-83.284214,8.541162],[-83.292364,8.500809],[-83.272537,8.467324],[-83.284413,8.447228],[-83.273291,8.430431],[-83.281837,8.40973],[-83.2785,8.386302],[-83.290987,8.373954],[-83.299853,8.375479],[-83.436596,8.441028],[-83.500749,8.448382],[-83.566839,8.440316],[-83.569261,8.449103],[-83.588778,8.459023],[-83.603057,8.486463],[-83.646619,8.519557],[-83.698913,8.577618],[-83.731833,8.591759],[-83.735116,8.624611],[-83.729083,8.642506],[-83.712957,8.649995],[-83.716217,8.672762],[-83.707599,8.689027],[-83.67355,8.696942],[-83.665605,8.690233],[-83.653468,8.698436],[-83.650375,8.731408],[-83.640131,8.736676],[-83.647139,8.768109],[-83.622666,8.774365],[-83.615339,8.793154],[-83.580859,8.79596],[-83.575116,8.804013],[-83.566375,8.791331],[-83.561427,8.791055],[-83.555016,8.796177],[-83.562752,8.811257],[-83.546329,8.813409],[-83.563176,8.812472],[-83.558706,8.798515],[-83.564517,8.792767],[-83.573111,8.806446],[-83.584506,8.797697],[-83.612003,8.805189],[-83.635252,8.778291],[-83.652626,8.792831],[-83.636425,8.817802],[-83.604248,8.831275],[-83.579306,8.829718],[-83.596348,8.834586],[-83.596574,8.844042],[-83.572054,8.844866],[-83.572084,8.867347],[-83.56134,8.852732],[-83.542125,8.860936],[-83.53317,8.853041],[-83.522045,8.86077],[-83.518342,8.848882],[-83.516171,8.847158],[-83.513624,8.847105],[-83.498674,8.85746],[-83.508822,8.857115],[-83.516381,8.847963],[-83.518869,8.862064],[-83.527572,8.863318],[-83.531897,8.859039],[-83.533412,8.854132],[-83.5413,8.862456],[-83.562065,8.85516],[-83.566291,8.866825],[-83.571799,8.868789],[-83.577248,8.864258],[-83.579337,8.846993],[-83.609188,8.873543],[-83.60454,8.891351],[-83.584264,8.88458],[-83.566218,8.8875],[-83.549325,8.870451],[-83.527097,8.873791],[-83.546627,8.878557],[-83.548978,8.876799],[-83.547464,8.872252],[-83.550587,8.872141],[-83.566745,8.890298],[-83.55505,8.902011],[-83.539278,8.89933],[-83.556435,8.902872],[-83.574954,8.88935],[-83.58909,8.889538],[-83.578274,8.894756],[-83.596374,8.896115],[-83.603758,8.907613],[-83.589366,8.900229],[-83.585391,8.905915],[-83.59995,8.909627],[-83.607874,8.922128],[-83.622429,8.91978],[-83.611519,8.940998],[-83.614697,8.951435],[-83.613363,8.939062],[-83.621857,8.930405],[-83.62131,8.958031],[-83.611108,8.958274],[-83.607288,8.966637],[-83.611635,8.974084],[-83.610034,8.962814],[-83.622204,8.959842],[-83.624528,8.954014],[-83.627568,8.96415],[-83.616602,8.969379],[-83.618652,8.990231],[-83.602338,8.966158],[-83.582765,8.973718],[-83.575101,8.964702],[-83.548354,8.949733],[-83.518361,8.943716],[-83.525736,8.949685],[-83.55003,8.952345],[-83.559049,8.9613],[-83.576208,8.968199],[-83.58167,8.975024],[-83.603675,8.969058],[-83.608177,8.987126],[-83.623558,9.003531],[-83.61712,9.018234],[-83.621412,9.041731],[-83.679022,9.083164],[-83.67732,9.090287],[-83.688966,9.095468],[-83.693992,9.110924],[-83.728653,9.146209],[-83.756576,9.152531],[-83.77973,9.192778],[-83.844984,9.21998],[-83.844689,9.236049],[-83.954027,9.316601],[-84.092054,9.372556],[-84.123933,9.369239],[-84.130172,9.386268],[-84.135421,9.376822],[-84.143966,9.381594],[-84.147429,9.37596],[-84.149334,9.390727],[-84.160042,9.396557],[-84.173511,9.39136],[-84.176795,9.399551],[-84.163682,9.405231],[-84.172454,9.423528],[-84.167967,9.433663],[-84.191542,9.457259],[-84.228101,9.46622],[-84.251573,9.500165],[-84.253931,9.494795],[-84.230433,9.464421],[-84.254804,9.482462],[-84.282771,9.485876],[-84.277198,9.48165],[-84.26257,9.477751],[-84.24938,9.477797],[-84.253027,9.472979],[-84.47533,9.529266],[-84.532919,9.518189],[-84.618413,9.581022],[-84.627756,9.590595],[-84.621413,9.603141],[-84.63702,9.619367],[-84.663338,9.629963],[-84.676874,9.6262],[-84.654737,9.639074],[-84.661509,9.652104],[-84.680558,9.650543],[-84.669216,9.670985],[-84.675007,9.696907],[-84.668928,9.708295],[-84.660355,9.707772],[-84.649897,9.730515],[-84.631381,9.741742],[-84.627349,9.756089],[-84.640518,9.783574],[-84.631822,9.785818],[-84.641902,9.787848],[-84.678835,9.843039],[-84.701303,9.857967],[-84.695592,9.867727],[-84.731367,9.892797],[-84.709352,9.922097],[-84.735844,9.94102],[-84.742213,9.970018],[-84.782917,9.979982],[-84.849013,9.975015],[-84.815686,9.983007],[-84.784747,9.981508],[-84.832049,9.985294],[-84.883345,10.010358],[-84.902691,10.026689],[-84.897259,10.030406],[-84.920322,10.035889],[-84.915008,10.043631],[-84.927801,10.038429],[-84.946465,10.061209],[-84.968583,10.064477],[-84.955737,10.06783],[-84.949821,10.075984],[-84.957639,10.069583],[-84.963893,10.085943],[-85.002468,10.102839],[-85.025563,10.130876],[-85.047347,10.140562],[-85.058671,10.132596],[-85.078658,10.1365],[-85.069568,10.146836],[-85.078221,10.144519],[-85.096206,10.159619],[-85.089283,10.167834],[-85.082704,10.159214],[-85.086463,10.169741],[-85.117196,10.175494],[-85.133678,10.160812],[-85.142653,10.16635],[-85.142829,10.159957],[-85.213975,10.181137],[-85.235119,10.212255],[-85.230152,10.234522],[-85.246692,10.250425],[-85.227113,10.266492],[-85.2484,10.252558],[-85.284202,10.269518],[-85.278318,10.28402],[-85.280132,10.293101],[-85.304705,10.307636],[-85.308976,10.321625],[-85.316213,10.324704],[-85.34111,10.324896],[-85.356749,10.315823],[-85.359496,10.325115],[-85.359067,10.316191],[-85.355553,10.313959],[-85.342146,10.323631],[-85.312678,10.320009],[-85.306604,10.30544],[-85.284571,10.291255],[-85.289482,10.268747],[-85.248001,10.24508],[-85.240851,10.229719],[-85.247416,10.209139],[-85.240203,10.137898],[-85.269542,10.138874],[-85.241695,10.13325],[-85.238687,10.123433],[-85.253572,10.121893],[-85.250006,10.116156],[-85.239711,10.119883],[-85.240058,10.106447],[-85.229182,10.094853],[-85.194874,10.083513],[-85.194583,10.066062],[-85.190908,10.063388],[-85.183813,10.065902],[-85.175263,10.049464],[-85.152401,10.049315],[-85.150109,10.03642],[-85.158484,10.029938],[-85.191684,10.052166],[-85.194343,10.04705],[-85.187412,10.035858],[-85.177353,10.033364],[-85.183319,10.0232],[-85.168389,10.033391],[-85.163998,10.015376],[-85.132476,9.99122],[-85.117662,9.991919],[-85.115741,9.979726],[-85.093854,9.972236],[-85.076828,9.979563],[-85.077132,9.969082],[-85.051721,9.975993],[-85.022395,9.960506],[-85.008505,9.939233],[-84.959678,9.941534],[-84.921517,9.925361],[-84.913903,9.903527],[-84.928347,9.900651],[-84.937488,9.881491],[-84.905685,9.852547],[-84.920853,9.851425],[-84.931114,9.836956],[-84.915335,9.825151],[-84.89458,9.834752],[-84.863448,9.825122],[-84.877549,9.822238],[-84.879271,9.811917],[-84.896223,9.815013],[-84.900946,9.79778],[-84.923965,9.791528],[-84.918286,9.784536],[-84.933538,9.756529],[-84.953578,9.756278],[-84.954836,9.727587],[-84.994092,9.747663],[-85.009308,9.741168],[-85.016493,9.717202],[-84.994046,9.704561],[-85.003574,9.691167],[-85.035764,9.681294],[-85.064722,9.65587],[-85.082808,9.597676],[-85.077125,9.589614],[-85.086507,9.591692],[-85.089458,9.569919],[-85.107726,9.565464],[-85.109549,9.554344],[-85.119776,9.57192],[-85.13201,9.571067],[-85.142327,9.580213],[-85.151305,9.624227],[-85.200669,9.670949],[-85.222799,9.723912],[-85.244372,9.744771],[-85.27646,9.759013],[-85.2636,9.775023],[-85.297513,9.807317],[-85.334498,9.813805],[-85.336397,9.824942],[-85.381115,9.848423],[-85.400268,9.852314],[-85.404164,9.846347],[-85.44754,9.861541],[-85.467837,9.848992],[-85.486795,9.858349],[-85.488421,9.870906],[-85.499382,9.86845],[-85.495339,9.858353],[-85.508924,9.85968],[-85.509204,9.871251],[-85.521632,9.880552],[-85.533346,9.870921],[-85.56153,9.880204],[-85.566748,9.873037],[-85.594459,9.889837],[-85.623286,9.888212],[-85.637249,9.908149],[-85.648373,9.908322],[-85.651611,9.898508],[-85.667581,9.902035],[-85.672753,9.909173],[-85.663434,9.909918],[-85.661884,9.92859],[-85.678478,9.948743],[-85.686324,9.975793],[-85.73034,10.023923],[-85.744983,10.028673],[-85.750753,10.049536],[-85.789805,10.093351],[-85.798743,10.142373],[-85.840458,10.203412],[-85.837469,10.228082],[-85.853782,10.252939],[-85.848195,10.284595],[-85.855613,10.293036],[-85.842675,10.298862],[-85.833417,10.317376],[-85.837816,10.308749],[-85.855453,10.343727],[-85.875598,10.355864],[-85.867104,10.368753],[-85.847098,10.37207],[-85.826045,10.411117],[-85.815444,10.399583],[-85.799016,10.406007],[-85.790583,10.420673],[-85.80015,10.445545],[-85.783401,10.436299],[-85.771894,10.44911],[-85.780819,10.476031],[-85.800775,10.483895],[-85.793662,10.491581],[-85.804546,10.501904],[-85.797393,10.506851],[-85.811509,10.516992],[-85.79101,10.517376],[-85.778499,10.543749],[-85.752244,10.529883],[-85.714504,10.556181],[-85.695175,10.553605],[-85.690798,10.565162],[-85.700127,10.572947],[-85.680127,10.572578],[-85.680732,10.591345],[-85.652612,10.589286],[-85.649285,10.604207],[-85.626269,10.623135],[-85.633884,10.634737],[-85.653989,10.642425],[-85.674304,10.630554],[-85.678956,10.610669],[-85.69083,10.605237],[-85.699882,10.610239],[-85.688484,10.612726],[-85.685111,10.621638],[-85.691418,10.627749],[-85.670917,10.642722],[-85.691044,10.643721],[-85.673427,10.651714],[-85.675904,10.66224],[-85.654249,10.666893],[-85.663889,10.741369],[-85.656898,10.762652],[-85.686224,10.80294],[-85.695588,10.79922],[-85.742473,10.818947],[-85.762829,10.802543],[-85.792501,10.814818],[-85.802635,10.826508],[-85.786975,10.843448],[-85.79448,10.855037],[-85.804718,10.84858],[-85.854072,10.852304],[-85.869899,10.877783],[-85.915736,10.898689],[-85.950682,10.890134],[-85.863798,10.926686],[-85.863193,10.94017],[-85.884223,10.949982],[-85.812783,10.945547],[-85.816911,10.92055],[-85.793412,10.90939],[-85.785834,10.915265],[-85.799965,10.931848],[-85.784693,10.940008],[-85.780552,10.934224],[-85.77817,10.939947],[-85.732803,10.939675],[-85.719842,10.934329],[-85.721428,10.923794],[-85.714254,10.924743],[-85.700324,10.945197],[-85.702012,10.949836],[-85.71283,10.950555],[-85.720898,10.95884],[-85.714442,10.953723],[-85.70254,10.965006],[-85.690716,10.963644],[-85.688974,10.977226],[-85.757243,11.023848],[-85.745889,11.03422],[-85.735566,11.033074],[-85.741704,11.04335],[-85.728209,11.049041],[-85.713185,11.027125],[-85.687889,11.026815],[-85.669196,11.039096],[-85.667852,11.0512],[-85.673037,11.065715],[-85.695627,11.079391],[-85.702661,11.064118],[-85.786417,11.064917],[-85.859672,11.046708]],[[-85.745876,11.004488],[-85.744521,11.001974],[-85.746893,11.000595],[-85.745876,11.004488]],[[-85.713931,10.982539],[-85.71385,10.977952],[-85.714322,10.977789],[-85.713931,10.982539]],[[-85.898279,10.915874],[-85.902874,10.91909],[-85.899526,10.920584],[-85.898279,10.915874]],[[-85.887707,10.872289],[-85.898113,10.870075],[-85.89766,10.874108],[-85.887707,10.872289]],[[-85.918381,10.861145],[-85.898404,10.8585],[-85.914155,10.851091],[-85.927419,10.852533],[-85.918381,10.861145]],[[-85.955049,10.852303],[-85.955933,10.854451],[-85.952337,10.856995],[-85.955049,10.852303]],[[-85.956822,10.853867],[-85.95687,10.853484],[-85.960515,10.852692],[-85.956822,10.853867]],[[-85.936767,10.858467],[-85.935987,10.85591],[-85.946484,10.853499],[-85.936767,10.858467]],[[-85.933081,10.857134],[-85.92783,10.853003],[-85.93115,10.852308],[-85.933081,10.857134]],[[-85.871762,10.841053],[-85.861581,10.848243],[-85.855652,10.84741],[-85.859387,10.843413],[-85.871762,10.841053]],[[-85.696002,10.641748],[-85.692063,10.640922],[-85.693142,10.639245],[-85.696002,10.641748]],[[-85.712745,10.579377],[-85.710013,10.581738],[-85.708948,10.579222],[-85.712745,10.579377]],[[-85.820896,10.504136],[-85.82491,10.509684],[-85.824566,10.511492],[-85.818526,10.509689],[-85.820896,10.504136]],[[-85.872303,10.480623],[-85.872375,10.483016],[-85.869434,10.479729],[-85.872303,10.480623]],[[-85.783978,10.464016],[-85.78125,10.465123],[-85.78187,10.462764],[-85.783978,10.464016]],[[-85.804829,10.450689],[-85.8004,10.448824],[-85.803251,10.444553],[-85.804829,10.450689]],[[-85.797361,10.419602],[-85.795799,10.421571],[-85.795613,10.41948],[-85.797361,10.419602]],[[-85.855278,10.299192],[-85.852508,10.301232],[-85.852953,10.299045],[-85.855278,10.299192]],[[-85.669324,9.9004],[-85.668335,9.901338],[-85.665345,9.898434],[-85.669324,9.9004]],[[-85.639239,9.900282],[-85.636933,9.898013],[-85.639128,9.898159],[-85.639239,9.900282]],[[-85.530777,9.869323],[-85.52879,9.870464],[-85.525939,9.868547],[-85.530777,9.869323]],[[-85.515477,9.860421],[-85.513635,9.862249],[-85.514444,9.858914],[-85.515477,9.860421]],[[-85.114172,9.543383],[-85.111927,9.544956],[-85.109875,9.542245],[-85.114172,9.543383]],[[-84.216827,9.459161],[-84.187534,9.451083],[-84.192684,9.448753],[-84.216827,9.459161]],[[-83.632301,8.978513],[-83.634084,9.023661],[-83.659695,9.065138],[-83.635489,9.04612],[-83.626824,9.020715],[-83.624421,9.025197],[-83.624971,9.001532],[-83.618515,8.970166],[-83.632301,8.978513]],[[-83.596498,8.847957],[-83.60367,8.854867],[-83.602852,8.867771],[-83.601953,8.853535],[-83.591433,8.849752],[-83.596498,8.847957]],[[-83.867583,8.713832],[-83.869754,8.701429],[-83.894544,8.705807],[-83.884906,8.711514],[-83.867583,8.713832]],[[-87.047129,5.564001],[-87.045957,5.562751],[-87.047916,5.559229],[-87.047129,5.564001]],[[-87.04827,5.556682],[-87.041942,5.548295],[-87.032223,5.550635],[-87.029771,5.526949],[-87.079517,5.5007],[-87.092933,5.514128],[-87.093377,5.532809],[-87.087124,5.541011],[-87.06122,5.541589],[-87.061962,5.54959],[-87.04827,5.556682]],[[-83.12651,8.544393],[-83.125012,8.543596],[-83.128464,8.541236],[-83.12651,8.544393]],[[-83.178929,8.61119],[-83.169542,8.624402],[-83.168056,8.620807],[-83.178929,8.61119]],[[-83.544028,8.875069],[-83.545424,8.873052],[-83.548178,8.876833],[-83.544028,8.875069]],[[-84.896055,9.763222],[-84.901737,9.771533],[-84.886717,9.772855],[-84.896055,9.763222]],[[-84.905168,9.777472],[-84.89985,9.784683],[-84.897123,9.776294],[-84.905168,9.777472]],[[-84.865502,9.819216],[-84.848022,9.821463],[-84.855243,9.818089],[-84.865502,9.819216]],[[-84.842281,9.822417],[-84.83376,9.825266],[-84.824053,9.820547],[-84.828236,9.819802],[-84.842281,9.822417]],[[-84.888116,9.83612],[-84.880444,9.840791],[-84.881491,9.851252],[-84.86458,9.850306],[-84.87349,9.839546],[-84.888116,9.83612]],[[-84.894321,9.839656],[-84.890224,9.8454],[-84.887058,9.84375],[-84.88771,9.840586],[-84.894321,9.839656]],[[-84.863559,9.849365],[-84.861205,9.848585],[-84.861571,9.847403],[-84.863559,9.849365]],[[-84.922983,9.883114],[-84.928999,9.887975],[-84.927596,9.891322],[-84.922983,9.883114]],[[-84.87768,9.910298],[-84.881322,9.91108],[-84.879065,9.9133],[-84.87768,9.910298]],[[-84.902261,9.923043],[-84.902182,9.925623],[-84.899589,9.924144],[-84.902261,9.923043]],[[-84.905817,9.93059],[-84.920788,9.943854],[-84.905581,9.944404],[-84.902575,9.950727],[-84.910318,9.95182],[-84.904129,9.95427],[-84.894163,9.951059],[-84.898148,9.945144],[-84.891084,9.936449],[-84.905817,9.93059]],[[-85.084799,9.989296],[-85.058272,9.992939],[-85.041174,9.981816],[-85.070167,9.979192],[-85.084799,9.989296]],[[-85.108375,9.980978],[-85.109598,9.982857],[-85.105815,9.983056],[-85.108375,9.980978]],[[-85.115492,9.988878],[-85.11736,9.99442],[-85.113552,9.991558],[-85.115492,9.988878]],[[-85.039168,9.999085],[-85.049832,10.005672],[-85.017828,9.998223],[-85.039168,9.999085]],[[-85.011097,9.99696],[-84.988741,9.995134],[-84.958938,9.981593],[-84.985485,9.983019],[-85.011097,9.99696]],[[-85.093502,10.096161],[-85.10046,10.084296],[-85.157761,10.073449],[-85.183341,10.083729],[-85.198453,10.114238],[-85.194785,10.120682],[-85.161007,10.125908],[-85.104601,10.10687],[-85.122741,10.104871],[-85.128135,10.100796],[-85.145146,10.105179],[-85.129637,10.099684],[-85.120936,10.103378],[-85.118513,10.092246],[-85.093502,10.096161]],[[-85.230014,10.121875],[-85.234189,10.12542],[-85.235403,10.1279],[-85.233226,10.126577],[-85.230014,10.121875]],[[-85.235813,10.200951],[-85.236181,10.200865],[-85.238669,10.205486],[-85.235813,10.200951]],[[-85.280262,10.281419],[-85.283053,10.279349],[-85.280727,10.288421],[-85.280262,10.281419]],[[-85.317877,10.321481],[-85.320746,10.322913],[-85.317435,10.323193],[-85.317877,10.321481]],[[-85.185054,10.043022],[-85.185623,10.039971],[-85.18759,10.044957],[-85.185054,10.043022]],[[-85.79908,10.9376],[-85.798405,10.939496],[-85.796362,10.937925],[-85.79908,10.9376]],[[-85.711189,11.050156],[-85.706285,11.047795],[-85.707237,11.046093],[-85.711189,11.050156]]],[[[-80.0,11.601708],[-81.159583,11.358639],[-81.361972,11.325528],[-81.656806,11.249694],[-81.966944,11.195417],[-82.291528,11.183556],[-82.760583,11.261806],[-83.348389,11.249028],[-83.49625,11.234361],[-83.6285,11.101139],[-83.680667,11.027389],[-83.694389,10.973028],[-83.698093,10.93931],[-83.65182,10.920671],[-83.622799,10.882014],[-83.605263,10.791629],[-83.61916,10.873534],[-83.588278,10.803982],[-83.592048,10.793787],[-83.592931,10.766327],[-83.606702,10.758371],[-83.636662,10.722656],[-83.641768,10.722012],[-83.64685,10.731909],[-83.651319,10.733585],[-83.656363,10.732242],[-83.659202,10.72471],[-83.667115,10.72161],[-83.671875,10.730469],[-83.683131,10.731038],[-83.703337,10.748944],[-83.716612,10.753014],[-83.735033,10.751963],[-83.747693,10.769686],[-83.767194,10.769457],[-83.741449,10.75572],[-83.73278,10.738163],[-83.740567,10.73117],[-83.741165,10.722656],[-83.731772,10.712283],[-83.706636,10.689108],[-83.684706,10.678069],[-83.675177,10.67609],[-83.669808,10.678586],[-83.660859,10.694439],[-83.646824,10.697649],[-83.646989,10.703146],[-83.655102,10.707562],[-83.654638,10.71293],[-83.633589,10.721303],[-83.613921,10.742144],[-83.607516,10.754441],[-83.594664,10.759068],[-83.587994,10.773287],[-83.586362,10.795445],[-83.580077,10.725596],[-83.574666,10.720816],[-83.57523,10.736328],[-83.542158,10.633357],[-83.504867,10.541185],[-83.510235,10.541701],[-83.523865,10.572862],[-83.507615,10.530839],[-83.427707,10.380833],[-83.425792,10.389208],[-83.49708,10.511323],[-83.504271,10.544787],[-83.523038,10.586737],[-83.449773,10.444893],[-83.391316,10.357119],[-83.398424,10.345565],[-83.395002,10.339323],[-83.399414,10.338079],[-83.388964,10.338334],[-83.396725,10.344763],[-83.386724,10.352526],[-83.349956,10.29781],[-83.354496,10.312722],[-83.279427,10.225165],[-83.281703,10.219277],[-83.271556,10.206288],[-83.273472,10.192047],[-83.2682,10.194532],[-83.270344,10.207189],[-83.279441,10.219995],[-83.276615,10.221474],[-83.192274,10.11877],[-83.200793,10.110097],[-83.197654,10.10956],[-83.194394,10.113217],[-83.192452,10.111874],[-83.190468,10.11612],[-83.187925,10.114657],[-83.107258,10.009965],[-83.078566,9.999437],[-83.078374,10.01091],[-83.064291,10.015165],[-83.024919,10.000414],[-83.019633,9.988463],[-83.031028,9.982063],[-83.023494,9.96106],[-82.896623,9.800106],[-82.896166,9.790475],[-82.894444,9.796305],[-82.850877,9.741938],[-82.829633,9.73389],[-82.816127,9.749581],[-82.808965,9.744983],[-82.813846,9.716527],[-82.781841,9.665155],[-82.76146,9.654326],[-82.746877,9.66002],[-82.727133,9.644249],[-82.702898,9.638447],[-82.6863,9.643691],[-82.664979,9.631447],[-82.64843,9.639664],[-82.622033,9.634852],[-82.620551,9.617047],[-82.600124,9.589888],[-82.5656,9.572286],[-81.435611,10.816667],[-81.25,11.0],[-80.0,11.0],[-80.0,11.601708]],[[-83.59257,10.773117],[-83.591281,10.777494],[-83.590163,10.7738],[-83.59257,10.773117]],[[-83.6435,10.722656],[-83.653238,10.716481],[-83.657056,10.709108],[-83.64845,10.699416],[-83.662738,10.694641],[-83.675509,10.676969],[-83.707885,10.691308],[-83.74061,10.723544],[-83.723956,10.751048],[-83.714797,10.749851],[-83.711873,10.750568],[-83.683602,10.730094],[-83.671875,10.729353],[-83.667858,10.720362],[-83.657873,10.72432],[-83.653187,10.732731],[-83.6435,10.722656]],[[-83.733969,10.744675],[-83.733325,10.741996],[-83.734662,10.745007],[-83.733969,10.744675]],[[-83.729542,10.749419],[-83.732311,10.746433],[-83.735446,10.750155],[-83.729542,10.749419]],[[-83.716147,10.751766],[-83.714574,10.750658],[-83.715036,10.750383],[-83.716147,10.751766]],[[-83.076847,10.019304],[-83.073359,10.016315],[-83.073767,10.015958],[-83.076847,10.019304]],[[-83.013098,9.994625],[-83.01049,9.99603],[-83.01006,9.993776],[-83.013098,9.994625]],[[-82.617188,9.631975],[-82.614616,9.631282],[-82.616197,9.629743],[-82.617188,9.631975]]]]}}
