{"type":"Feature","id":"eez.249","geometry_name":"the_geom","properties":{"mrgid":8441,"geoname":"Kiribati Exclusive Economic Zone (Line Group)","mrgid_ter1":8657,"pol_type":"200NM","mrgid_sov1":2116,"territory1":"Line Group","iso_ter1":"KIR","sovereign1":"Kiribati","mrgid_ter2":null,"mrgid_sov2":null,"territory2":null,"iso_ter2":null,"sovereign2":null,"mrgid_ter3":null,"mrgid_sov3":null,"territory3":null,"iso_ter3":null,"sovereign3":null,"x_1":-154.72634,"y_1":-3.82154,"mrgid_eez":8441,"area_km2":1641193,"iso_sov1":"KIR","iso_sov2":null,"iso_sov3":null,"un_sov1":296,"un_sov2":null,"un_sov3":null,"un_ter1":296,"un_ter2":null,"un_ter3":null,"name":"Kiribati Exclusive Economic Zone (Line Group)"},"geometry":{"type":"Polygon","coordinates":[[[-155.357344,4.700194],[-155.457381,4.770397],[-155.546511,4.828497],[-155.63745,4.883714],[-155.767547,4.957478],[-156.014975,5.076536],[-156.156022,5.138775],[-156.203275,5.248981],[-156.247839,5.343961],[-156.296086,5.438972],[-156.347467,5.532636],[-156.410283,5.638408],[-156.477447,5.742583],[-156.483336,5.755425],[-156.494839,5.768228],[-156.547431,5.842822],[-156.597486,5.910092],[-156.6902,6.026122],[-156.749311,6.094931],[-156.800161,6.151225],[-156.810461,6.165114],[-156.820808,6.1734],[-156.894644,6.249514],[-156.970869,6.323242],[-157.049411,6.394508],[-157.118511,6.453581],[-157.236069,6.549636],[-157.320153,6.614958],[-157.393861,6.668789],[-157.477786,6.726517],[-157.555983,6.777086],[-157.635567,6.825453],[-157.716478,6.871578],[-157.798658,6.915428],[-157.896047,6.963661],[-157.969561,7.040789],[-158.045514,7.115536],[-158.123831,7.187822],[-158.216061,7.267286],[-158.298717,7.333783],[-158.383458,7.397622],[-158.4702,7.458739],[-158.558861,7.517069],[-158.650694,7.573386],[-158.744867,7.627028],[-158.84075,7.677586],[-158.938236,7.725014],[-159.037228,7.769253],[-159.137619,7.810261],[-159.239306,7.847992],[-159.331361,7.879056],[-159.425253,7.771819],[-162.187319,3.935003],[-163.064722,2.659667],[-162.989572,2.564308],[-162.909297,2.469786],[-162.827428,2.380003],[-162.742381,2.293267],[-162.654792,2.210172],[-162.568094,2.133547],[-162.477664,2.059014],[-162.378778,1.983278],[-161.646111,2.042111],[-159.656167,1.721194],[-158.778972,0.756028],[-158.349528,0.276639],[-158.09825,-0.025028],[-156.997444,-1.515389],[-158.185722,-3.179722],[-158.303972,-3.27175],[-158.356378,-3.325817],[-158.428022,-3.403836],[-158.488889,-3.474192],[-158.557419,-3.558381],[-158.613981,-3.632283],[-158.686186,-3.733214],[-158.754639,-3.836761],[-158.827036,-3.9562],[-158.887197,-4.064825],[-158.936531,-4.16165],[-158.982725,-4.260025],[-159.031606,-4.374225],[-159.070906,-4.475581],[-159.106919,-4.578158],[-159.144006,-4.69675],[-159.172853,-4.801589],[-159.198306,-4.907308],[-159.2232,-5.029067],[-159.241286,-5.136303],[-159.2559,-5.244067],[-159.267022,-5.352253],[-159.274642,-5.460739],[-159.27875,-5.569417],[-159.279342,-5.678172],[-159.275789,-5.800506],[-158.100911,-6.561086],[-157.664689,-6.835981],[-157.326133,-7.046975],[-156.775564,-7.380089],[-155.909872,-7.918114],[-154.904914,-8.508367],[-155.376128,-11.005453],[-155.439697,-11.359692],[-155.386647,-11.479519],[-155.331739,-11.591583],[-155.272603,-11.701547],[-155.201122,-11.822553],[-155.191408,-11.898964],[-155.177392,-11.990333],[-155.163756,-12.066161],[-155.14505,-12.156714],[-155.123803,-12.246722],[-155.104161,-12.321264],[-155.078286,-12.410097],[-155.053456,-12.487617],[-152.809167,-13.830833],[-151.0575,-13.838333],[-149.436111,-12.424722],[-147.992222,-11.973889],[-147.033578,-11.159036],[-146.993339,-11.046867],[-146.951867,-10.915761],[-146.916744,-10.788258],[-146.889136,-10.670831],[-146.865481,-10.550672],[-146.846275,-10.42965],[-146.831519,-10.307764],[-146.821289,-10.185425],[-146.815594,-10.062792],[-146.814436,-9.940036],[-146.817808,-9.817319],[-146.825708,-9.694806],[-146.838111,-9.572661],[-146.858458,-9.424778],[-146.881458,-9.294492],[-146.906267,-9.179],[-146.930753,-9.080328],[-146.958222,-8.982436],[-146.985017,-8.896414],[-147.019183,-8.796997],[-147.050933,-8.712664],[-147.090817,-8.615386],[-147.134283,-8.517828],[-147.179186,-8.424825],[-147.229117,-8.329119],[-147.274336,-8.248389],[-147.321753,-8.168925],[-147.371333,-8.090789],[-147.431856,-8.001383],[-147.485986,-7.926319],[-147.551986,-7.840133],[-147.610839,-7.767803],[-147.681986,-7.685503],[-147.74505,-7.616811],[-147.809983,-7.549886],[-147.888031,-7.474103],[-147.956583,-7.411397],[-148.037178,-7.3419],[-148.107967,-7.284375],[-148.192475,-7.219703],[-148.278969,-7.157725],[-148.354625,-7.106792],[-148.442097,-7.051472],[-148.52605,-7.001669],[-148.620078,-6.949656],[-148.701953,-6.907472],[-148.798872,-6.861097],[-148.883081,-6.823819],[-148.968267,-6.78885],[-149.039961,-6.761492],[-149.189086,-6.710414],[-149.337953,-6.666947],[-149.48865,-6.630361],[-149.640856,-6.600733],[-149.794256,-6.578125],[-149.886733,-6.567953],[-149.963986,-6.561425],[-150.118839,-6.553697],[-150.196358,-6.552503],[-150.289386,-6.553422],[-150.382353,-6.556903],[-150.475189,-6.562947],[-150.567842,-6.571542],[-150.660297,-6.582675],[-150.752411,-6.59635],[-150.828861,-6.609686],[-150.920172,-6.628003],[-151.010947,-6.648831],[-151.086133,-6.668094],[-151.175744,-6.693486],[-151.264628,-6.721339],[-151.338092,-6.746417],[-151.410961,-6.773175],[-151.497569,-6.807486],[-151.634117,-6.776611],[-151.787178,-6.748978],[-151.941344,-6.728414],[-152.080767,-6.715994],[-152.236133,-6.708981],[-152.376106,-6.708789],[-152.531489,-6.715378],[-152.670947,-6.727417],[-152.629147,-6.595258],[-152.594272,-6.467175],[-152.506658,-6.379931],[-152.422347,-6.289497],[-152.341456,-6.196006],[-152.264092,-6.099578],[-152.190364,-6.000353],[-152.120364,-5.898461],[-152.054189,-5.794047],[-151.991931,-5.687253],[-151.947853,-5.605683],[-151.906056,-5.522922],[-151.866572,-5.439028],[-151.829428,-5.354072],[-151.794653,-5.268114],[-151.761317,-5.178594],[-151.727397,-5.078644],[-151.700425,-4.990783],[-151.672019,-4.887389],[-151.650311,-4.798075],[-151.621361,-4.664067],[-151.599503,-4.544739],[-151.583922,-4.439733],[-151.570189,-4.319192],[-151.561661,-4.212481],[-151.556489,-4.104883],[-151.554764,-3.997175],[-151.556483,-3.889467],[-151.562664,-3.766514],[-151.571753,-3.659178],[-151.584267,-3.552189],[-151.600189,-3.445661],[-151.619508,-3.3397],[-151.643161,-3.229925],[-151.676803,-3.097603],[-151.715767,-2.966764],[-151.760089,-2.837347],[-151.810508,-2.707644],[-151.859778,-2.594203],[-151.920131,-2.468867],[-151.985592,-2.346156],[-152.056075,-2.226217],[-152.131536,-2.109106],[-152.202619,-2.007736],[-152.286969,-1.896939],[-152.375817,-1.789767],[-152.469008,-1.686403],[-152.566386,-1.587025],[-152.667775,-1.491806],[-152.773006,-1.400908],[-152.881897,-1.314492],[-152.994258,-1.232703],[-153.109894,-1.155689],[-153.228608,-1.083575],[-153.350197,-1.016494],[-153.474447,-0.954558],[-153.601147,-0.897875],[-153.715647,-0.851978],[-153.846386,-0.805467],[-153.978986,-0.764436],[-154.113167,-0.728992],[-154.248692,-0.699197],[-154.385333,-0.675106],[-154.507536,-0.658511],[-154.645633,-0.645297],[-154.784156,-0.637875],[-154.720833,-0.570589],[-154.659692,-0.501972],[-154.600364,-0.431669],[-154.542506,-0.359194],[-154.486664,-0.285133],[-154.432886,-0.209542],[-154.381211,-0.132481],[-154.331675,-0.054003],[-154.284322,0.025825],[-154.239381,0.106564],[-154.197036,0.187753],[-154.156911,0.270075],[-154.119039,0.353472],[-154.083442,0.437878],[-154.050153,0.523233],[-154.019192,0.609475],[-153.990586,0.696533],[-153.961078,0.795881],[-153.937203,0.885489],[-153.915742,0.975583],[-153.896761,1.066239],[-153.880272,1.157389],[-153.866292,1.248961],[-153.854828,1.340886],[-153.846172,1.429575],[-153.839689,1.521128],[-153.835672,1.613497],[-153.834147,1.706281],[-153.835419,1.814389],[-153.838903,1.905878],[-153.844867,1.997239],[-153.853269,2.088089],[-153.863728,2.175864],[-153.878808,2.279511],[-153.891856,2.355653],[-153.909814,2.446597],[-153.930211,2.536833],[-153.952778,2.625622],[-153.977753,2.713756],[-154.000392,2.786653],[-154.029733,2.873417],[-154.061211,2.958911],[-154.094928,3.043456],[-154.131192,3.127808],[-154.169747,3.211128],[-154.203608,3.279728],[-154.246261,3.360986],[-154.290981,3.440997],[-154.345889,3.532744],[-154.403697,3.622678],[-154.479878,3.751961],[-154.553331,3.865272],[-154.606311,3.941567],[-154.661392,4.016356],[-154.738019,4.113622],[-154.757733,4.137489],[-154.770453,4.149353],[-154.777669,4.161172],[-154.838781,4.231086],[-154.910478,4.308561],[-154.984306,4.383528],[-155.050642,4.447039],[-155.118703,4.508692],[-155.200217,4.578208],[-155.283919,4.645064],[-155.357344,4.700194]],[[-160.376745,4.669451],[-160.394671,4.676953],[-160.407196,4.68446],[-160.410671,4.690625],[-160.410453,4.692908],[-160.406452,4.696656],[-160.398963,4.699479],[-160.391066,4.699187],[-160.377325,4.695264],[-160.369873,4.690972],[-160.355289,4.687434],[-160.351796,4.684759],[-160.349108,4.6773],[-160.349908,4.67421],[-160.353227,4.671346],[-160.364601,4.668037],[-160.376745,4.669451]],[[-159.375677,3.8716],[-159.388115,3.882115],[-159.3945,3.893269],[-159.394936,3.901886],[-159.387342,3.917299],[-159.378518,3.926868],[-159.360689,3.936998],[-159.348827,3.941798],[-159.347613,3.939305],[-159.340701,3.937581],[-159.335412,3.932917],[-159.333133,3.933207],[-159.333054,3.928166],[-159.337423,3.92655],[-159.338455,3.928069],[-159.337511,3.932627],[-159.339544,3.932451],[-159.341057,3.93513],[-159.347545,3.93761],[-159.343665,3.930865],[-159.343972,3.928883],[-159.349491,3.929763],[-159.357005,3.925253],[-159.369835,3.925299],[-159.380956,3.918777],[-159.385382,3.911749],[-159.38411,3.898095],[-159.385281,3.892547],[-159.382612,3.886272],[-159.363794,3.874265],[-159.363613,3.868862],[-159.365811,3.861623],[-159.362876,3.861234],[-159.364546,3.858792],[-159.375677,3.8716]],[[-159.340679,3.940493],[-159.335127,3.939981],[-159.332048,3.937572],[-159.328122,3.937225],[-159.320721,3.93034],[-159.318534,3.925877],[-159.316118,3.901109],[-159.308015,3.890654],[-159.292288,3.88234],[-159.262766,3.879993],[-159.255519,3.878024],[-159.246685,3.870426],[-159.241938,3.862168],[-159.239942,3.853565],[-159.239942,3.844515],[-159.243943,3.834355],[-159.250378,3.827302],[-159.278121,3.810034],[-159.286425,3.80757],[-159.316006,3.804762],[-159.330427,3.808094],[-159.33942,3.814563],[-159.358292,3.840004],[-159.36374,3.85485],[-159.362595,3.858387],[-159.357914,3.856728],[-159.356737,3.85306],[-159.352191,3.85032],[-159.347197,3.835049],[-159.340274,3.825526],[-159.334837,3.82408],[-159.330621,3.820901],[-159.323381,3.820225],[-159.307135,3.814829],[-159.297431,3.815555],[-159.29258,3.81848],[-159.28761,3.817772],[-159.285241,3.815995],[-159.284466,3.810294],[-159.282477,3.812669],[-159.284844,3.818828],[-159.282617,3.818918],[-159.277948,3.812615],[-159.277694,3.816444],[-159.280116,3.818769],[-159.27805,3.823648],[-159.273054,3.824527],[-159.269483,3.828066],[-159.266248,3.825167],[-159.263611,3.825349],[-159.268303,3.829764],[-159.267306,3.831301],[-159.255677,3.834096],[-159.245738,3.846118],[-159.248333,3.855891],[-159.253402,3.858945],[-159.250353,3.862448],[-159.248122,3.861804],[-159.245518,3.864213],[-159.24969,3.865234],[-159.247524,3.866739],[-159.25124,3.870536],[-159.250808,3.866515],[-159.254193,3.862973],[-159.257813,3.864118],[-159.2645,3.87054],[-159.268296,3.870342],[-159.271141,3.868265],[-159.291081,3.87226],[-159.296968,3.876534],[-159.295041,3.878765],[-159.299021,3.883622],[-159.302231,3.8854],[-159.304258,3.883717],[-159.298066,3.880303],[-159.2987,3.87785],[-159.316361,3.886745],[-159.321831,3.893555],[-159.327098,3.905642],[-159.326191,3.907444],[-159.324497,3.906068],[-159.325703,3.916641],[-159.321943,3.923016],[-159.323808,3.924586],[-159.321729,3.92572],[-159.323441,3.927655],[-159.322388,3.929087],[-159.326453,3.933241],[-159.33182,3.934176],[-159.333687,3.93701],[-159.337,3.93691],[-159.340679,3.940493]],[[-157.492046,2.045161],[-157.480742,2.047683],[-157.451846,2.048799],[-157.424983,2.040149],[-157.421848,2.037212],[-157.415205,2.024874],[-157.402266,2.014436],[-157.381907,2.001487],[-157.380607,1.99902],[-157.355331,1.991359],[-157.324214,1.989033],[-157.314013,1.986733],[-157.311261,1.984456],[-157.301317,1.969295],[-157.301363,1.960806],[-157.303638,1.953832],[-157.30691,1.949806],[-157.31619,1.944792],[-157.326218,1.941656],[-157.330482,1.937364],[-157.34561,1.902745],[-157.34258,1.891651],[-157.343549,1.874692],[-157.340596,1.85934],[-157.342129,1.857701],[-157.34078,1.845534],[-157.328966,1.830085],[-157.317528,1.826382],[-157.310374,1.816878],[-157.299099,1.810512],[-157.286497,1.805888],[-157.275917,1.805223],[-157.2656,1.796904],[-157.248796,1.790997],[-157.232322,1.779495],[-157.217133,1.776721],[-157.205792,1.771139],[-157.19156,1.767068],[-157.184256,1.767111],[-157.174225,1.76188],[-157.167197,1.749977],[-157.163576,1.729021],[-157.163255,1.709194],[-157.166012,1.70163],[-157.17087,1.698268],[-157.190119,1.697947],[-157.207099,1.692832],[-157.238349,1.701239],[-157.241531,1.702956],[-157.254883,1.719029],[-157.270507,1.728207],[-157.277003,1.730271],[-157.30313,1.748094],[-157.313616,1.757813],[-157.332327,1.763979],[-157.35027,1.773097],[-157.371689,1.777266],[-157.389946,1.77605],[-157.403962,1.780076],[-157.412657,1.780472],[-157.42696,1.783819],[-157.440192,1.789694],[-157.468683,1.814359],[-157.478985,1.840801],[-157.482687,1.846122],[-157.48743,1.850543],[-157.497135,1.854404],[-157.501268,1.858231],[-157.52303,1.852927],[-157.537851,1.846058],[-157.54708,1.852178],[-157.552415,1.857788],[-157.562695,1.872622],[-157.562186,1.876274],[-157.540257,1.89194],[-157.533833,1.901367],[-157.533453,1.905756],[-157.531414,1.908173],[-157.525292,1.912935],[-157.518037,1.915513],[-157.49142,1.935052],[-157.49023,1.934009],[-157.490437,1.928963],[-157.496755,1.925034],[-157.501256,1.924665],[-157.506696,1.912859],[-157.524564,1.903217],[-157.526833,1.903711],[-157.533736,1.89832],[-157.538659,1.884657],[-157.537342,1.874572],[-157.539652,1.87207],[-157.539719,1.869619],[-157.538463,1.868641],[-157.542491,1.865906],[-157.53943,1.86393],[-157.533133,1.865857],[-157.532,1.867819],[-157.527701,1.868192],[-157.527337,1.871483],[-157.530776,1.871766],[-157.520257,1.878217],[-157.515956,1.876805],[-157.513429,1.872225],[-157.511807,1.874712],[-157.51263,1.877077],[-157.508886,1.877912],[-157.501473,1.875337],[-157.491276,1.874405],[-157.487057,1.869439],[-157.484936,1.872748],[-157.488647,1.878597],[-157.496233,1.879347],[-157.490824,1.880816],[-157.485906,1.878324],[-157.483094,1.873639],[-157.473929,1.869022],[-157.473111,1.871515],[-157.470572,1.87024],[-157.46749,1.865592],[-157.468645,1.863388],[-157.46094,1.850881],[-157.460318,1.847131],[-157.453473,1.840229],[-157.449493,1.840888],[-157.443012,1.849716],[-157.442072,1.852588],[-157.443781,1.85373],[-157.441029,1.856434],[-157.441784,1.859866],[-157.439504,1.858934],[-157.440269,1.85223],[-157.435045,1.852283],[-157.43588,1.853938],[-157.43413,1.854815],[-157.433062,1.858524],[-157.429203,1.856076],[-157.437448,1.850135],[-157.437107,1.848369],[-157.433251,1.847015],[-157.420911,1.851377],[-157.420042,1.849683],[-157.424766,1.848162],[-157.425589,1.844652],[-157.429474,1.846373],[-157.429691,1.843567],[-157.420072,1.840843],[-157.416932,1.841684],[-157.414492,1.837503],[-157.416306,1.833521],[-157.413877,1.832429],[-157.411636,1.833674],[-157.408715,1.83209],[-157.407056,1.834368],[-157.410057,1.833845],[-157.412538,1.836331],[-157.410927,1.83831],[-157.410735,1.841454],[-157.412256,1.842973],[-157.410445,1.846651],[-157.41655,1.853295],[-157.420815,1.852998],[-157.420234,1.85794],[-157.426251,1.856052],[-157.427117,1.857858],[-157.424649,1.857605],[-157.423039,1.859551],[-157.425875,1.863047],[-157.428691,1.863068],[-157.430599,1.865345],[-157.433741,1.863353],[-157.439009,1.863146],[-157.4389,1.864848],[-157.433722,1.866119],[-157.43203,1.868108],[-157.43329,1.871276],[-157.437301,1.874519],[-157.436538,1.876021],[-157.434018,1.875868],[-157.429918,1.881322],[-157.431499,1.886667],[-157.430609,1.890424],[-157.427588,1.885794],[-157.427769,1.882066],[-157.432452,1.872121],[-157.424178,1.863336],[-157.422045,1.863534],[-157.420946,1.866233],[-157.418081,1.86727],[-157.418731,1.870545],[-157.412155,1.876087],[-157.414328,1.877909],[-157.420807,1.877401],[-157.421095,1.883629],[-157.417287,1.893289],[-157.414735,1.892232],[-157.419062,1.884744],[-157.418579,1.879011],[-157.417319,1.878287],[-157.415528,1.880049],[-157.408912,1.876282],[-157.416493,1.870646],[-157.415796,1.866443],[-157.41898,1.864789],[-157.420078,1.862275],[-157.417747,1.861411],[-157.413616,1.862831],[-157.415441,1.864813],[-157.414092,1.86589],[-157.412655,1.86593],[-157.411876,1.863846],[-157.410012,1.86507],[-157.410146,1.869569],[-157.407357,1.875404],[-157.408023,1.881548],[-157.4051,1.884024],[-157.404189,1.887554],[-157.400963,1.882963],[-157.400459,1.877357],[-157.402036,1.875941],[-157.400179,1.870381],[-157.395983,1.875265],[-157.392882,1.876214],[-157.390962,1.879632],[-157.39201,1.881513],[-157.398739,1.87821],[-157.392699,1.888842],[-157.392009,1.895826],[-157.396509,1.898543],[-157.401788,1.892653],[-157.404808,1.895613],[-157.403026,1.901523],[-157.400808,1.90084],[-157.401553,1.895417],[-157.397532,1.90223],[-157.403761,1.90433],[-157.403244,1.907288],[-157.399812,1.908022],[-157.399616,1.904219],[-157.393885,1.90486],[-157.391568,1.911602],[-157.390933,1.905569],[-157.395444,1.902799],[-157.396387,1.90053],[-157.390149,1.900245],[-157.389485,1.901586],[-157.391205,1.902548],[-157.388442,1.904087],[-157.390144,1.906408],[-157.390535,1.916847],[-157.393793,1.91874],[-157.39759,1.915622],[-157.396595,1.907419],[-157.398426,1.909824],[-157.400179,1.909737],[-157.401514,1.912945],[-157.401711,1.910132],[-157.403577,1.912073],[-157.406359,1.90755],[-157.412363,1.908141],[-157.413759,1.909594],[-157.40762,1.910624],[-157.404996,1.915134],[-157.406955,1.915769],[-157.407632,1.922395],[-157.405518,1.921303],[-157.406064,1.919189],[-157.404197,1.917925],[-157.40352,1.913958],[-157.402047,1.91854],[-157.400136,1.917783],[-157.399017,1.919408],[-157.398597,1.916187],[-157.397346,1.919367],[-157.390034,1.924417],[-157.392738,1.946017],[-157.389814,1.948534],[-157.388576,1.941131],[-157.385798,1.941734],[-157.386973,1.938743],[-157.385436,1.938053],[-157.382669,1.939902],[-157.385003,1.94321],[-157.384488,1.946004],[-157.387607,1.945907],[-157.386122,1.948544],[-157.389495,1.951853],[-157.388752,1.953861],[-157.385448,1.95391],[-157.38715,1.950859],[-157.382633,1.948617],[-157.377463,1.948806],[-157.376828,1.9508],[-157.3851,1.954839],[-157.388759,1.959389],[-157.391921,1.955333],[-157.394186,1.957183],[-157.396794,1.954597],[-157.399566,1.954872],[-157.399962,1.960415],[-157.403815,1.957704],[-157.406384,1.959497],[-157.406503,1.957102],[-157.411188,1.958543],[-157.410868,1.959888],[-157.408721,1.959802],[-157.409158,1.963147],[-157.413947,1.965795],[-157.41113,1.967175],[-157.413187,1.97046],[-157.411327,1.972444],[-157.410987,1.970517],[-157.407805,1.96893],[-157.404752,1.96934],[-157.403214,1.967883],[-157.400735,1.968971],[-157.409101,1.975373],[-157.414111,1.971787],[-157.41832,1.972287],[-157.414778,1.974895],[-157.420257,1.977237],[-157.419089,1.982775],[-157.420108,1.985081],[-157.418342,1.986491],[-157.413709,1.983618],[-157.413687,1.978019],[-157.411501,1.9756],[-157.409852,1.982523],[-157.405076,1.983978],[-157.404297,1.986189],[-157.40708,1.984556],[-157.411202,1.986959],[-157.413601,1.985361],[-157.420174,1.995599],[-157.423539,1.996077],[-157.426995,2.000029],[-157.435176,2.001014],[-157.437142,2.002734],[-157.436631,2.007123],[-157.440098,2.008958],[-157.43977,2.014692],[-157.441278,2.014566],[-157.440994,2.009336],[-157.443303,2.006533],[-157.442019,2.005592],[-157.442824,2.000396],[-157.448038,2.003691],[-157.450132,2.000133],[-157.44669,1.997962],[-157.448189,1.996343],[-157.453035,1.997819],[-157.454312,2.00159],[-157.451634,2.000837],[-157.454893,2.008497],[-157.452775,2.011944],[-157.447917,2.009827],[-157.446574,2.01112],[-157.451033,2.019233],[-157.456758,2.023557],[-157.458423,2.018834],[-157.460124,2.017945],[-157.46481,2.019197],[-157.461489,2.020282],[-157.467177,2.024963],[-157.463884,2.027833],[-157.462592,2.027423],[-157.4649,2.025544],[-157.463655,2.024276],[-157.46031,2.024553],[-157.457713,2.028833],[-157.458778,2.029861],[-157.465526,2.030222],[-157.468617,2.026896],[-157.480786,2.022303],[-157.484231,2.017912],[-157.484953,2.013796],[-157.480398,2.005896],[-157.476522,1.98605],[-157.474046,1.987666],[-157.47435,1.990002],[-157.47283,1.991202],[-157.470093,1.989454],[-157.471818,1.97955],[-157.475868,1.982113],[-157.477547,1.980616],[-157.479387,1.981171],[-157.478726,1.983374],[-157.483574,2.002286],[-157.495873,2.027703],[-157.496503,2.0347],[-157.492046,2.045161]],[[-157.487434,1.933594],[-157.487444,1.936688],[-157.486876,1.933594],[-157.489399,1.930267],[-157.487434,1.933594]],[[-157.395219,1.937983],[-157.393497,1.936466],[-157.395989,1.9361],[-157.396147,1.932207],[-157.398514,1.930876],[-157.403225,1.935066],[-157.399474,1.933594],[-157.395219,1.937983]],[[-157.419719,1.930524],[-157.414833,1.927246],[-157.415125,1.921789],[-157.416971,1.924552],[-157.419867,1.921896],[-157.420832,1.925045],[-157.425015,1.925449],[-157.427111,1.927249],[-157.419719,1.930524]],[[-157.419909,1.918627],[-157.416855,1.920843],[-157.415862,1.919815],[-157.41738,1.917603],[-157.419909,1.918627]],[[-157.418951,1.904601],[-157.419171,1.907374],[-157.418215,1.908424],[-157.416953,1.904652],[-157.418951,1.904601]],[[-157.411522,1.904405],[-157.407125,1.906318],[-157.40509,1.903638],[-157.406258,1.899372],[-157.408253,1.899295],[-157.407457,1.904078],[-157.411522,1.904405]],[[-157.464189,1.86174],[-157.464118,1.868862],[-157.461041,1.865365],[-157.462318,1.860351],[-157.464189,1.86174]],[[-157.415754,1.846101],[-157.415962,1.84833],[-157.414578,1.848191],[-157.415962,1.845335],[-157.41866,1.845335],[-157.415754,1.846101]],[[-157.48578,1.952005],[-157.485015,1.955804],[-157.481482,1.957577],[-157.484021,1.961415],[-157.482827,1.963728],[-157.480284,1.958162],[-157.480621,1.954095],[-157.48578,1.952005]],[[-157.427695,1.964318],[-157.427755,1.967325],[-157.429629,1.968632],[-157.431475,1.969106],[-157.433715,1.966713],[-157.434772,1.968903],[-157.431278,1.972949],[-157.428037,1.972949],[-157.423713,1.966733],[-157.424458,1.96372],[-157.427695,1.964318]],[[-157.421409,1.985684],[-157.423912,1.989414],[-157.430363,1.989197],[-157.431591,1.997315],[-157.427221,1.997274],[-157.420397,1.991385],[-157.418821,1.988819],[-157.421409,1.985684]],[[-154.917787,-3.994735],[-154.912454,-3.990264],[-154.897682,-3.986607],[-154.892768,-3.986694],[-154.891183,-3.990697],[-154.904225,-4.021932],[-154.90265,-4.038556],[-154.904005,-4.044752],[-154.916142,-4.049416],[-154.918938,-4.052176],[-154.924915,-4.052041],[-154.931413,-4.04523],[-154.94048,-4.041259],[-154.957497,-4.025023],[-154.970356,-4.017549],[-154.971175,-4.013556],[-154.968929,-4.00351],[-154.967162,-3.999344],[-154.964798,-3.998355],[-154.917787,-3.994735]],[[-155.892496,-5.657637],[-155.898426,-5.650342],[-155.908129,-5.643153],[-155.930985,-5.63854],[-155.934758,-5.635106],[-155.934219,-5.631351],[-155.90662,-5.626953],[-155.890987,-5.619979],[-155.878158,-5.623305],[-155.855949,-5.623198],[-155.847863,-5.628133],[-155.838807,-5.637574],[-155.838915,-5.642402],[-155.842472,-5.646694],[-155.857674,-5.651736],[-155.871581,-5.662143],[-155.878373,-5.664611],[-155.892496,-5.657637]],[[-150.207236,-9.934283],[-150.206938,-9.917758],[-150.210596,-9.906971],[-150.209487,-9.903413],[-150.205754,-9.904902],[-150.201839,-9.909456],[-150.198532,-9.921556],[-150.198462,-9.940274],[-150.195453,-9.95312],[-150.197769,-9.958358],[-150.200579,-9.957448],[-150.19794,-9.95528],[-150.197719,-9.953062],[-150.200748,-9.943294],[-150.201639,-9.935691],[-150.199976,-9.932761],[-150.202635,-9.92198],[-150.203821,-9.922397],[-150.204142,-9.933039],[-150.207236,-9.934283]],[[-150.208733,-9.950991],[-150.216975,-9.976923],[-150.219836,-9.975989],[-150.215557,-9.964435],[-150.213293,-9.951032],[-150.211399,-9.949528],[-150.208733,-9.950991]],[[-150.204046,-9.968435],[-150.20005,-9.961216],[-150.198685,-9.964739],[-150.200614,-9.969865],[-150.204046,-9.968435]],[[-150.207415,-9.972656],[-150.205058,-9.975695],[-150.21297,-9.98926],[-150.215076,-9.991447],[-150.217664,-9.99096],[-150.216233,-9.986236],[-150.213695,-9.985293],[-150.213231,-9.980622],[-150.207415,-9.972656]],[[-150.216916,-9.992661],[-150.219362,-9.996737],[-150.221986,-9.995181],[-150.219911,-9.991312],[-150.216916,-9.992661]],[[-150.228532,-9.997282],[-150.228398,-10.001381],[-150.222037,-10.001986],[-150.222035,-10.005388],[-150.22473,-10.010651],[-150.234588,-10.003492],[-150.231801,-9.994427],[-150.228532,-9.997282]],[[-150.229342,-9.992728],[-150.231306,-9.99152],[-150.228078,-9.98329],[-150.226042,-9.986186],[-150.229342,-9.992728]],[[-151.826039,-11.409343],[-151.817155,-11.422462],[-151.809288,-11.44646],[-151.810983,-11.447976],[-151.815434,-11.446003],[-151.82767,-11.426293],[-151.826039,-11.409343]]]}}
