{"type":"Feature","id":"eez.246","geometry_name":"the_geom","properties":{"mrgid":8451,"geoname":"United States Exclusive Economic Zone (Howland and Baker Islands)","mrgid_ter1":48684,"pol_type":"200NM","mrgid_sov1":2204,"territory1":"Howland and Baker Islands","iso_ter1":"UMI","sovereign1":"United States","mrgid_ter2":null,"mrgid_sov2":null,"territory2":null,"iso_ter2":null,"sovereign2":null,"mrgid_ter3":null,"mrgid_sov3":null,"territory3":null,"iso_ter3":null,"sovereign3":null,"x_1":-176.72727,"y_1":0.7913,"mrgid_eez":8451,"area_km2":434894,"iso_sov1":"USA","iso_sov2":null,"iso_sov3":null,"un_sov1":840,"un_sov2":null,"un_sov3":null,"un_ter1":581,"un_ter2":null,"un_ter3":null,"name":"United States Exclusive Economic Zone (Howland and Baker Islands)"},"geometry":{"type":"Polygon","coordinates":[[[-173.202442,0.83013],[-173.226452,0.94478],[-173.250189,1.042329],[-173.280878,1.152942],[-173.313356,1.256582],[-173.331287,1.374477],[-173.352952,1.489599],[-173.378603,1.60389],[-173.408583,1.718589],[-173.447215,1.846728],[-173.491347,1.974525],[-173.535818,2.089168],[-173.588803,2.212006],[-173.658931,2.356771],[-173.733986,2.494664],[-173.811939,2.623445],[-173.895507,2.748464],[-173.984592,2.869577],[-174.08056,2.988487],[-174.135255,3.051582],[-174.191506,3.113283],[-174.29674,3.220882],[-174.4072,3.324079],[-174.470237,3.37896],[-174.534527,3.432159],[-174.600126,3.483725],[-174.666992,3.533626],[-174.735083,3.581829],[-174.804357,3.628304],[-174.874771,3.673023],[-174.946281,3.715956],[-175.081157,3.790578],[-175.155495,3.828373],[-175.230754,3.864286],[-175.36849,3.924158],[-175.446294,3.954767],[-175.524623,3.983333],[-175.603844,4.009988],[-175.683504,4.034578],[-175.763755,4.057156],[-175.844547,4.077708],[-175.991897,4.109718],[-176.073929,4.124531],[-176.156307,4.137276],[-176.305399,4.154992],[-176.388467,4.161906],[-176.471682,4.166728],[-176.632292,4.170109],[-176.715674,4.168792],[-176.798958,4.16538],[-176.882131,4.159873],[-176.965274,4.152261],[-177.114417,4.13329],[-177.196688,4.119867],[-177.278596,4.104378],[-177.424952,4.071324],[-177.505572,4.050107],[-177.585635,4.026869],[-177.665091,4.001623],[-177.74389,3.974387],[-177.821982,3.945177],[-177.899318,3.914011],[-177.97585,3.88091],[-178.051529,3.845894],[-178.126308,3.808985],[-178.200141,3.770207],[-178.27298,3.729584],[-178.344781,3.687141],[-178.415498,3.642907],[-178.485087,3.596907],[-178.553505,3.549172],[-178.62071,3.499731],[-178.739009,3.406133],[-178.802593,3.352085],[-178.864916,3.29636],[-178.925724,3.239184],[-178.9851,3.180483],[-179.043047,3.120253],[-179.099409,3.058655],[-179.154299,2.995566],[-179.207521,2.931212],[-179.259123,2.865541],[-179.309073,2.798593],[-179.394884,2.67476],[-179.440048,2.604464],[-179.483449,2.533054],[-179.525517,2.459776],[-179.565312,2.386275],[-179.6328,2.250484],[-179.667385,2.174364],[-179.700067,2.0974],[-179.730827,2.019637],[-179.759727,1.940911],[-179.8091,1.789762],[-179.851333,1.6363],[-179.87061,1.554885],[-179.887861,1.473011],[-179.903076,1.390729],[-179.916245,1.308091],[-179.927359,1.225147],[-179.936414,1.14195],[-179.943402,1.058551],[-179.94832,0.975003],[-179.951165,0.891357],[-179.951936,0.807516],[-179.948853,0.673609],[-179.939042,0.523291],[-179.924701,0.390165],[-179.902272,0.241224],[-179.880247,0.126171],[-179.850294,-0.004194],[-179.820009,-0.118637],[-179.787861,-0.22537],[-179.770119,-0.34888],[-179.749307,-0.464161],[-179.72194,-0.589484],[-179.690982,-0.70972],[-179.652676,-0.837954],[-179.609312,-0.964546],[-179.560958,-1.089294],[-179.514616,-1.196778],[-179.457119,-1.317533],[-179.394872,-1.43588],[-179.327973,-1.55163],[-179.265705,-1.650635],[-179.190133,-1.761372],[-179.100221,-1.881818],[-179.015778,-1.985453],[-178.916019,-2.097788],[-178.811318,-2.205509],[-178.701901,-2.308383],[-178.600763,-2.395673],[-178.482989,-2.488871],[-178.361226,-2.576594],[-178.235465,-2.658839],[-178.120298,-2.727324],[-177.98805,-2.798516],[-177.867971,-2.856691],[-177.730259,-2.916286],[-177.589811,-2.969657],[-177.452967,-3.014831],[-177.284603,-2.946928],[-173.754836,-0.72975],[-173.142983,0.265247],[-173.149418,0.414991],[-173.160771,0.548409],[-173.177446,0.681604],[-173.202442,0.83013]],[[-176.618611,0.796667],[-176.623889,0.816944],[-176.623055,0.818056],[-176.6175,0.817222],[-176.6125,0.806667],[-176.612707,0.799304],[-176.614722,0.796389],[-176.618611,0.796667]],[[-176.486759,0.192979],[-176.482107,0.20046],[-176.479017,0.200817],[-176.472878,0.198831],[-176.469369,0.194978],[-176.473912,0.189762],[-176.485662,0.190241],[-176.486759,0.192979]]]}}
