{"type":"Feature","properties":{"mrgid":85,"name":"Tielt","placeType":"Town","source":"Belgium:belgium_municipalities"},"geometry":{"type":"MultiPolygon","coordinates":[[[[3.335615,51.053544],[3.335521,51.053559],[3.335421,51.053575],[3.335301,51.053549],[3.335149,51.05353],[3.334945,51.053543],[3.334856,51.053554],[3.334789,51.053546],[3.33473,51.053535],[3.334672,51.053505],[3.334622,51.053472],[3.334517,51.053475],[3.334381,51.053476],[3.334251,51.053501],[3.334168,51.053502],[3.334083,51.053507],[3.334004,51.053513],[3.333916,51.05351],[3.33385,51.053484],[3.333749,51.053443],[3.333642,51.053392],[3.333573,51.053359],[3.333479,51.053305],[3.333396,51.053268],[3.333324,51.053244],[3.333128,51.053176],[3.332912,51.05312],[3.332751,51.053073],[3.332692,51.053064],[3.332532,51.053254],[3.332499,51.053271],[3.332456,51.053263],[3.332208,51.053214],[3.332081,51.053169],[3.331955,51.05308],[3.331876,51.053041],[3.331274,51.052868],[3.33101,51.052794],[3.330647,51.052659],[3.330477,51.052596],[3.330841,51.052071],[3.330882,51.052011],[3.330825,51.051992],[3.32952,51.051745],[3.329414,51.051717],[3.329362,51.051692],[3.329325,51.051645],[3.329291,51.051593],[3.329297,51.051555],[3.329349,51.051202],[3.329302,51.051195],[3.329302,51.051188],[3.328904,51.051138],[3.328719,51.051129],[3.328029,51.051097],[3.327993,51.051099],[3.327111,51.050974],[3.326662,51.050908],[3.326527,51.050882],[3.32652,51.050881],[3.326317,51.050744],[3.325913,51.0506],[3.325307,51.050389],[3.325099,51.050343],[3.324994,51.050627],[3.324887,51.050877],[3.324755,51.051233],[3.324686,51.051207],[3.32467,51.051223],[3.323708,51.050844],[3.323028,51.050525],[3.323003,51.050515],[3.322689,51.050443],[3.322315,51.05037],[3.322255,51.050359],[3.322201,51.050313],[3.322083,51.050205],[3.322004,51.050123],[3.321906,51.050032],[3.321849,51.049996],[3.321688,51.049905],[3.321692,51.0499],[3.321851,51.049722],[3.321855,51.049717],[3.321825,51.049669],[3.321755,51.049587],[3.321225,51.049057],[3.321182,51.04902],[3.321169,51.04901],[3.321077,51.048952],[3.321054,51.048936],[3.320915,51.048891],[3.320683,51.048854],[3.320368,51.048823],[3.320166,51.0488],[3.31973,51.048754],[3.319702,51.04876],[3.319884,51.048445],[3.320024,51.048218],[3.320045,51.048171],[3.320051,51.048133],[3.320055,51.048057],[3.320154,51.047849],[3.319875,51.047751],[3.320102,51.047549],[3.320149,51.047507],[3.320046,51.04725],[3.31994,51.046979],[3.319931,51.046958],[3.31988,51.04684],[3.319868,51.046805],[3.319854,51.046739],[3.319796,51.046381],[3.319683,51.04567],[3.319646,51.045523],[3.319636,51.04553],[3.319533,51.045608],[3.319123,51.045426],[3.319101,51.045393],[3.319653,51.04502],[3.319838,51.044861],[3.320004,51.04465],[3.320041,51.04453],[3.320163,51.0442],[3.320362,51.043601],[3.320518,51.043157],[3.320696,51.042573],[3.320856,51.04213],[3.320921,51.041967],[3.321029,51.041614],[3.321108,51.041275],[3.321094,51.041149],[3.321029,51.040781],[3.320945,51.040465],[3.320876,51.040288],[3.320769,51.04004],[3.320675,51.039873],[3.320596,51.039859],[3.320235,51.039797],[3.319903,51.039744],[3.31956,51.039689],[3.319396,51.039664],[3.318957,51.039588],[3.318744,51.039551],[3.31863,51.039532],[3.318115,51.03944],[3.317951,51.039412],[3.317194,51.039287],[3.317132,51.039265],[3.316221,51.038869],[3.31611,51.038838],[3.314935,51.038755],[3.314064,51.038697],[3.314022,51.038696],[3.313925,51.038695],[3.31363,51.038706],[3.313396,51.038715],[3.313,51.038736],[3.312934,51.038782],[3.312371,51.038793],[3.311921,51.038812],[3.311694,51.03882],[3.311134,51.038834],[3.310584,51.038857],[3.310316,51.038867],[3.310109,51.038875],[3.309693,51.03889],[3.309357,51.038902],[3.308829,51.038921],[3.3083,51.03894],[3.308002,51.038951],[3.307534,51.03897],[3.307404,51.038954],[3.306115,51.038738],[3.304417,51.03846],[3.304383,51.038028],[3.30425,51.037523],[3.304151,51.037516],[3.303546,51.037479],[3.303371,51.037469],[3.303317,51.037467],[3.30221,51.037412],[3.301903,51.037396],[3.301565,51.03738],[3.301544,51.037377],[3.301515,51.037346],[3.301354,51.037377],[3.301339,51.03738],[3.301429,51.037861],[3.300863,51.037872],[3.300329,51.037799],[3.299302,51.0377],[3.298686,51.037631],[3.297904,51.037523],[3.297679,51.037403],[3.297452,51.037278],[3.297437,51.03727],[3.297137,51.03706],[3.297126,51.037052],[3.296979,51.036932],[3.296817,51.036793],[3.29679,51.036767],[3.296675,51.036643],[3.296592,51.036566],[3.296531,51.036524],[3.296514,51.036516],[3.296471,51.036506],[3.296452,51.036502],[3.296239,51.036488],[3.295833,51.036953],[3.29521,51.037654],[3.295182,51.037685],[3.295141,51.03766],[3.2951,51.037636],[3.295056,51.037619],[3.295006,51.03761],[3.294914,51.037598],[3.2948,51.03758],[3.294691,51.037561],[3.294582,51.037505],[3.294466,51.037427],[3.294379,51.037384],[3.294206,51.037311],[3.294047,51.03722],[3.293952,51.037165],[3.293941,51.037135],[3.293487,51.036953],[3.293457,51.036941],[3.29332,51.036875],[3.293253,51.036843],[3.29316,51.036843],[3.293143,51.036841],[3.292947,51.036798],[3.292116,51.037202],[3.29204,51.037219],[3.291943,51.037254],[3.291869,51.037284],[3.291802,51.0373],[3.291737,51.037313],[3.2916,51.037361],[3.291504,51.037392],[3.291449,51.037428],[3.291385,51.037456],[3.291317,51.037486],[3.291276,51.037495],[3.291241,51.037497],[3.29119,51.037488],[3.291154,51.037442],[3.291136,51.037394],[3.291074,51.037361],[3.29098,51.037339],[3.291052,51.0373],[3.291092,51.037272],[3.291242,51.037158],[3.291306,51.037085],[3.291326,51.037052],[3.291372,51.036966],[3.291541,51.03687],[3.291563,51.036852],[3.291544,51.036804],[3.291435,51.03671],[3.291279,51.03657],[3.291138,51.036465],[3.290996,51.036372],[3.290723,51.036196],[3.290506,51.036063],[3.290235,51.035936],[3.290132,51.035893],[3.289966,51.035824],[3.289778,51.035774],[3.289623,51.035731],[3.289432,51.03565],[3.28927,51.035583],[3.289097,51.035535],[3.288976,51.03548],[3.288844,51.035433],[3.288869,51.035397],[3.288935,51.035301],[3.289087,51.035095],[3.289148,51.035014],[3.289244,51.034876],[3.289389,51.03467],[3.289527,51.034473],[3.289673,51.034266],[3.28989,51.033958],[3.290229,51.033474],[3.290646,51.032897],[3.291133,51.032189],[3.291152,51.032128],[3.291137,51.032042],[3.291054,51.031672],[3.29098,51.031389],[3.290969,51.031351],[3.290803,51.030863],[3.290772,51.03078],[3.290757,51.030699],[3.290724,51.030463],[3.290719,51.030419],[3.290671,51.030019],[3.290583,51.029291],[3.290585,51.029283],[3.290601,51.029268],[3.290732,51.028945],[3.290907,51.028517],[3.290997,51.028296],[3.291084,51.028083],[3.291267,51.027637],[3.291283,51.027599],[3.291307,51.027489],[3.291365,51.027359],[3.29138,51.027322],[3.291456,51.027145],[3.291529,51.026972],[3.291548,51.026925],[3.29163,51.026722],[3.291722,51.026494],[3.29181,51.026277],[3.291998,51.025808],[3.292256,51.025193],[3.292288,51.025119],[3.292442,51.024732],[3.292519,51.024543],[3.29268,51.024146],[3.292798,51.023845],[3.292877,51.023642],[3.292918,51.023535],[3.29295,51.023453],[3.292984,51.023367],[3.293036,51.023235],[3.293111,51.02306],[3.293118,51.023052],[3.293149,51.023018],[3.293234,51.022906],[3.293321,51.02284],[3.293509,51.022689],[3.293685,51.022541],[3.293823,51.022392],[3.293905,51.022262],[3.293936,51.02217],[3.293973,51.021981],[3.294026,51.021832],[3.294077,51.021721],[3.294142,51.021616],[3.294295,51.021454],[3.294405,51.021359],[3.294459,51.021323],[3.294552,51.021312],[3.295171,51.021175],[3.295723,51.021058],[3.295868,51.021044],[3.295947,51.021016],[3.296031,51.020962],[3.296321,51.020718],[3.29643,51.020617],[3.296545,51.020432],[3.296693,51.02017],[3.296795,51.020017],[3.29688,51.019935],[3.297108,51.019774],[3.297275,51.019688],[3.29757,51.019563],[3.297894,51.019418],[3.2981,51.019319],[3.298175,51.019259],[3.298183,51.019186],[3.298156,51.019154],[3.298091,51.019063],[3.297919,51.018898],[3.297807,51.018819],[3.297637,51.018652],[3.297246,51.018216],[3.297045,51.017999],[3.296655,51.017721],[3.296288,51.017494],[3.296047,51.017323],[3.295933,51.017177],[3.295857,51.017086],[3.295782,51.017015],[3.29567,51.016935],[3.294977,51.01664],[3.294387,51.016369],[3.294029,51.016258],[3.293475,51.0161],[3.29317,51.016005],[3.292691,51.015817],[3.29252,51.015776],[3.292272,51.015734],[3.292008,51.01568],[3.291819,51.015635],[3.291556,51.015561],[3.291364,51.015491],[3.290887,51.015299],[3.290624,51.015196],[3.290496,51.015138],[3.290365,51.015062],[3.290052,51.014851],[3.289873,51.014737],[3.289634,51.014604],[3.289378,51.014466],[3.289153,51.01433],[3.289034,51.014251],[3.288993,51.014194],[3.288905,51.01408],[3.288793,51.013881],[3.288718,51.013763],[3.288611,51.013665],[3.288489,51.013565],[3.288205,51.013357],[3.288062,51.013251],[3.287944,51.013157],[3.28786,51.013056],[3.287691,51.012885],[3.287494,51.012716],[3.287181,51.012474],[3.287037,51.012372],[3.286799,51.01223],[3.286526,51.012073],[3.286406,51.012025],[3.286466,51.011913],[3.286476,51.011902],[3.286497,51.011877],[3.28659,51.011807],[3.286644,51.011777],[3.286659,51.011786],[3.28671,51.011758],[3.286715,51.011755],[3.28692,51.011645],[3.287064,51.011578],[3.287161,51.011529],[3.287261,51.011481],[3.287368,51.01142],[3.287459,51.011365],[3.287481,51.011349],[3.287519,51.011298],[3.287581,51.011219],[3.287645,51.011127],[3.287652,51.011117],[3.287757,51.010914],[3.287864,51.010709],[3.287966,51.010513],[3.288069,51.010314],[3.288148,51.01014],[3.288386,51.009878],[3.288696,51.009621],[3.289307,51.009229],[3.289786,51.008933],[3.29041,51.008578],[3.290553,51.008484],[3.290869,51.008291],[3.291191,51.00809],[3.29141,51.007948],[3.291431,51.007933],[3.291581,51.007822],[3.29165,51.007767],[3.291731,51.007697],[3.291855,51.007582],[3.291872,51.007566],[3.292067,51.007361],[3.292195,51.007252],[3.292796,51.006792],[3.292845,51.00657],[3.292886,51.006427],[3.292915,51.006418],[3.292998,51.00646],[3.293026,51.006435],[3.293549,51.005985],[3.294054,51.005555],[3.294274,51.00537],[3.294732,51.004975],[3.294806,51.004911],[3.294821,51.004895],[3.294866,51.004845],[3.294883,51.00482],[3.29489,51.004805],[3.294907,51.004748],[3.294907,51.004732],[3.294901,51.00468],[3.294888,51.004616],[3.294884,51.004601],[3.294876,51.004563],[3.294879,51.004503],[3.294902,51.004449],[3.294914,51.004432],[3.294942,51.004404],[3.294979,51.00438],[3.295114,51.004311],[3.295147,51.004297],[3.295249,51.004243],[3.295254,51.004243],[3.295339,51.004155],[3.295459,51.004024],[3.295534,51.003942],[3.295679,51.003786],[3.295897,51.00355],[3.296113,51.003316],[3.296287,51.003137],[3.296293,51.003132],[3.296431,51.003021],[3.296546,51.002912],[3.296972,51.002467],[3.297151,51.002271],[3.297183,51.002234],[3.297203,51.002212],[3.297249,51.002154],[3.297857,51.00143],[3.297917,51.001358],[3.297914,51.001355],[3.297957,51.001329],[3.298311,51.001161],[3.298601,51.001017],[3.29894,51.000845],[3.299037,51.000799],[3.299719,51.000491],[3.299764,51.000468],[3.29981,51.000448],[3.299867,51.000423],[3.299937,51.000393],[3.299977,51.000375],[3.300018,51.000358],[3.300202,51.000287],[3.300288,51.000254],[3.300426,51.000202],[3.300454,51.000217],[3.300468,51.000219],[3.300478,51.000225],[3.300524,51.000262],[3.300586,51.000311],[3.30061,51.000329],[3.300636,51.000347],[3.300874,51.000268],[3.301304,51.000139],[3.301611,51.000046],[3.301715,51.000014],[3.301744,51.000007],[3.301768,51.000001],[3.301868,50.999984],[3.301958,50.999973],[3.302075,50.999962],[3.302521,50.999938],[3.302557,50.999934],[3.302604,50.999921],[3.302638,50.999917],[3.30269,50.999908],[3.302706,50.999905],[3.302777,50.999883],[3.302903,50.999836],[3.302974,50.999807],[3.303013,50.99979],[3.303746,50.999446],[3.304039,50.999307],[3.30409,50.999286],[3.304076,50.999236],[3.304023,50.999073],[3.304008,50.998993],[3.304021,50.998946],[3.304044,50.998895],[3.304088,50.998855],[3.304163,50.998813],[3.304333,50.998731],[3.304552,50.998617],[3.304631,50.998572],[3.304737,50.99849],[3.305026,50.998267],[3.305185,50.998115],[3.305247,50.998044],[3.305351,50.997922],[3.305485,50.997833],[3.305718,50.9977],[3.306143,50.997462],[3.306292,50.997398],[3.306457,50.99734],[3.306576,50.997312],[3.306694,50.997288],[3.306769,50.997274],[3.306747,50.997256],[3.306691,50.99721],[3.306651,50.997173],[3.306646,50.997169],[3.306559,50.997102],[3.306535,50.997082],[3.306504,50.997055],[3.306478,50.997031],[3.306472,50.997026],[3.306443,50.997002],[3.30643,50.99699],[3.306426,50.996984],[3.306405,50.99696],[3.306398,50.996953],[3.306376,50.996926],[3.306365,50.996913],[3.306351,50.996895],[3.30635,50.996894],[3.306345,50.996891],[3.30615,50.996589],[3.306124,50.996561],[3.306107,50.996542],[3.30607,50.996501],[3.306018,50.996442],[3.305981,50.996399],[3.305918,50.996329],[3.305891,50.9963],[3.305912,50.996298],[3.306038,50.996285],[3.306212,50.996228],[3.306335,50.996117],[3.306397,50.996065],[3.306453,50.996014],[3.306463,50.996005],[3.306489,50.995984],[3.306844,50.995668],[3.306852,50.995662],[3.307138,50.995407],[3.307398,50.995174],[3.307554,50.995034],[3.307643,50.994954],[3.307724,50.994881],[3.30779,50.99482],[3.307807,50.994807],[3.307883,50.994742],[3.30789,50.994734],[3.3079,50.994719],[3.307916,50.994695],[3.307928,50.994677],[3.307944,50.994652],[3.307948,50.994646],[3.308021,50.994531],[3.308077,50.994443],[3.308146,50.994418],[3.308206,50.994325],[3.308272,50.994225],[3.308316,50.994154],[3.308404,50.994016],[3.308425,50.993986],[3.308483,50.993904],[3.308536,50.993825],[3.308649,50.993658],[3.308704,50.993575],[3.30883,50.993387],[3.309035,50.993076],[3.309198,50.992828],[3.309321,50.99264],[3.309648,50.992148],[3.309695,50.992077],[3.309805,50.991914],[3.309923,50.991734],[3.309964,50.991688],[3.309978,50.991667],[3.310043,50.991416],[3.310141,50.99104],[3.31018,50.990887],[3.310205,50.990793],[3.310206,50.990787],[3.310216,50.990739],[3.310238,50.990645],[3.310295,50.990409],[3.310339,50.990233],[3.310385,50.990052],[3.310477,50.989691],[3.310512,50.989519],[3.310616,50.989161],[3.310691,50.988905],[3.310771,50.988628],[3.310822,50.988453],[3.310873,50.988279],[3.310878,50.98826],[3.310929,50.988098],[3.310943,50.988053],[3.310959,50.988014],[3.311004,50.987926],[3.311059,50.987835],[3.311134,50.987716],[3.311138,50.98771],[3.311164,50.987592],[3.311201,50.987408],[3.311243,50.987207],[3.311282,50.987019],[3.311321,50.986835],[3.311359,50.986657],[3.311405,50.986439],[3.311515,50.985927],[3.311591,50.985569],[3.311652,50.985284],[3.311685,50.985129],[3.311423,50.985082],[3.311315,50.985052],[3.311278,50.985032],[3.311264,50.98503],[3.311275,50.984993],[3.311394,50.984761],[3.311434,50.984683],[3.311441,50.984641],[3.311448,50.984628],[3.311198,50.984595],[3.310935,50.98456],[3.310661,50.984522],[3.310398,50.984486],[3.310475,50.984357],[3.310512,50.984295],[3.310566,50.984211],[3.310625,50.984109],[3.310635,50.984089],[3.310685,50.983952],[3.310694,50.983902],[3.310695,50.983816],[3.31068,50.983609],[3.310681,50.983598],[3.310815,50.983199],[3.310845,50.983105],[3.31085,50.983089],[3.310864,50.982976],[3.310861,50.982965],[3.310835,50.982937],[3.310818,50.982924],[3.310304,50.9828],[3.310088,50.98275],[3.310048,50.982746],[3.309998,50.982748],[3.309962,50.982659],[3.309956,50.98262],[3.309964,50.982592],[3.31001,50.98243],[3.31002,50.982292],[3.310044,50.982219],[3.310069,50.982095],[3.310083,50.982021],[3.310104,50.981888],[3.310113,50.981829],[3.310173,50.981771],[3.31021,50.981748],[3.3104,50.981618],[3.310465,50.981573],[3.310515,50.981543],[3.310535,50.981532],[3.310605,50.981501],[3.310635,50.981489],[3.310804,50.981428],[3.310824,50.981421],[3.310929,50.981397],[3.310963,50.981383],[3.310977,50.981369],[3.310981,50.981362],[3.311005,50.981321],[3.31101,50.981315],[3.31111,50.981153],[3.311107,50.98112],[3.311078,50.980962],[3.311068,50.980915],[3.311064,50.980819],[3.311072,50.980781],[3.311077,50.980769],[3.311097,50.980721],[3.311102,50.980708],[3.311128,50.980662],[3.311056,50.980613],[3.310892,50.980502],[3.310696,50.980371],[3.31058,50.980282],[3.310695,50.980125],[3.310819,50.979956],[3.310874,50.979882],[3.310896,50.97986],[3.310965,50.979807],[3.31114,50.979671],[3.311335,50.97952],[3.311423,50.979454],[3.311563,50.979354],[3.311652,50.9793],[3.311709,50.979264],[3.311893,50.979125],[3.311943,50.979084],[3.3122,50.978894],[3.312029,50.978614],[3.311622,50.97854],[3.311568,50.978528],[3.311378,50.978493],[3.31129,50.978475],[3.311227,50.978462],[3.311061,50.978431],[3.310909,50.978399],[3.310755,50.978366],[3.310439,50.978291],[3.310198,50.978234],[3.310009,50.978194],[3.30988,50.978167],[3.309626,50.978114],[3.309339,50.978056],[3.309154,50.97802],[3.309129,50.978014],[3.309458,50.977705],[3.310084,50.977081],[3.310283,50.976939],[3.310622,50.976614],[3.310821,50.976426],[3.311264,50.976001],[3.311347,50.975921],[3.311376,50.975895],[3.311427,50.97586],[3.311914,50.975557],[3.311936,50.975546],[3.311931,50.975545],[3.31263,50.975288],[3.313206,50.975079],[3.313371,50.975021],[3.313983,50.97482],[3.314396,50.974685],[3.314472,50.974649],[3.314686,50.974481],[3.314966,50.974268],[3.315749,50.973695],[3.316149,50.973406],[3.316265,50.973312],[3.316346,50.97323],[3.316617,50.97293],[3.31662,50.972901],[3.316603,50.972879],[3.316605,50.972848],[3.316814,50.9724],[3.317023,50.971971],[3.317043,50.971925],[3.317209,50.971538],[3.317222,50.971527],[3.317282,50.971511],[3.317285,50.971503],[3.317359,50.971271],[3.317528,50.970761],[3.317712,50.970211],[3.317715,50.970199],[3.318311,50.970257],[3.318802,50.970304],[3.318929,50.970316],[3.319385,50.97036],[3.31946,50.970367],[3.319929,50.970414],[3.320202,50.970323],[3.321591,50.969863],[3.322313,50.969623],[3.322747,50.96948],[3.322758,50.969478],[3.322854,50.96945],[3.323815,50.969162],[3.323847,50.969152],[3.324566,50.968882],[3.326211,50.968252],[3.326839,50.968013],[3.326951,50.967971],[3.328079,50.967544],[3.328229,50.96744],[3.328369,50.96738],[3.328907,50.967109],[3.329099,50.967013],[3.329811,50.966654],[3.329861,50.966628],[3.330508,50.966305],[3.330511,50.966303],[3.33055,50.966283],[3.330696,50.966204],[3.330759,50.966169],[3.330822,50.966134],[3.330905,50.966103],[3.331038,50.966066],[3.331202,50.966021],[3.331657,50.965899],[3.331798,50.965861],[3.332705,50.965626],[3.333272,50.965476],[3.33345,50.965427],[3.333468,50.965422],[3.334189,50.965234],[3.334949,50.965036],[3.335415,50.964911],[3.335657,50.964849],[3.336135,50.964723],[3.336347,50.964667],[3.33688,50.964524],[3.33693,50.964511],[3.337147,50.964458],[3.337295,50.964416],[3.338438,50.964099],[3.33856,50.964065],[3.338978,50.963951],[3.339217,50.963885],[3.339256,50.963873],[3.339454,50.963811],[3.339533,50.963786],[3.339687,50.963738],[3.340234,50.963551],[3.340698,50.963401],[3.34084,50.963354],[3.340975,50.963305],[3.341589,50.963094],[3.342287,50.962856],[3.342373,50.962827],[3.342422,50.962811],[3.342565,50.962766],[3.342954,50.962639],[3.342975,50.962632],[3.343008,50.962623],[3.343213,50.962589],[3.343622,50.962542],[3.343964,50.962501],[3.344098,50.962482],[3.344225,50.962429],[3.344301,50.962395],[3.344573,50.962267],[3.344896,50.962125],[3.34547,50.96186],[3.345848,50.961683],[3.346508,50.961363],[3.346513,50.961364],[3.346547,50.961348],[3.346679,50.961288],[3.347064,50.961114],[3.347131,50.961119],[3.3472,50.961118],[3.347461,50.961197],[3.347635,50.961222],[3.347744,50.961272],[3.34795,50.961345],[3.348067,50.961369],[3.348231,50.961415],[3.348667,50.961553],[3.348897,50.961624],[3.34925,50.961715],[3.349427,50.961755],[3.349655,50.96181],[3.349938,50.961899],[3.350139,50.962011],[3.350287,50.962075],[3.350541,50.962172],[3.350683,50.962218],[3.350848,50.962257],[3.351006,50.962273],[3.35122,50.962267],[3.351323,50.962252],[3.351429,50.962302],[3.351627,50.962404],[3.351709,50.962537],[3.35177,50.962589],[3.351884,50.96264],[3.352013,50.962671],[3.35244,50.962777],[3.352569,50.962809],[3.352912,50.962875],[3.353327,50.962966],[3.35338,50.962991],[3.353432,50.963044],[3.353509,50.963111],[3.353615,50.963161],[3.353766,50.963201],[3.353908,50.963226],[3.354081,50.963247],[3.354261,50.963291],[3.354399,50.963312],[3.354444,50.963296],[3.354491,50.96328],[3.354606,50.963298],[3.354746,50.963328],[3.354976,50.963386],[3.355168,50.963435],[3.355315,50.963498],[3.355457,50.963555],[3.355521,50.963598],[3.355581,50.963631],[3.355622,50.963653],[3.355686,50.963656],[3.355858,50.96366],[3.356031,50.963675],[3.356174,50.963672],[3.356393,50.963699],[3.356507,50.963718],[3.356621,50.963758],[3.356786,50.96382],[3.35691,50.963866],[3.357055,50.963901],[3.357255,50.963955],[3.357451,50.964019],[3.357528,50.964052],[3.357608,50.964078],[3.357702,50.964095],[3.357801,50.964113],[3.35793,50.964135],[3.358043,50.964162],[3.358085,50.964182],[3.358147,50.96428],[3.358247,50.964401],[3.358279,50.964406],[3.358313,50.964391],[3.358417,50.964336],[3.358535,50.964299],[3.358711,50.964266],[3.358886,50.964244],[3.359023,50.964232],[3.359123,50.96425],[3.359274,50.964298],[3.359416,50.964287],[3.35956,50.964239],[3.359647,50.964224],[3.359739,50.964248],[3.359974,50.964336],[3.360047,50.964365],[3.36013,50.964383],[3.360207,50.964384],[3.360283,50.964342],[3.360384,50.9643],[3.36052,50.964227],[3.36068,50.964148],[3.360774,50.964097],[3.36083,50.964055],[3.360843,50.964081],[3.360903,50.964208],[3.360966,50.964364],[3.360993,50.964428],[3.361021,50.964489],[3.361067,50.964572],[3.361142,50.964666],[3.36118,50.964709],[3.361259,50.964797],[3.361452,50.965244],[3.361434,50.965304],[3.361447,50.965376],[3.361496,50.965467],[3.361544,50.965566],[3.361606,50.965624],[3.361614,50.965771],[3.361585,50.965875],[3.361601,50.966003],[3.361589,50.966034],[3.361564,50.966041],[3.361527,50.966035],[3.361381,50.96603],[3.3613,50.96601],[3.36126,50.966009],[3.361224,50.966021],[3.361196,50.966071],[3.361169,50.966144],[3.361148,50.966288],[3.361173,50.966424],[3.361214,50.966534],[3.361243,50.966582],[3.36128,50.966648],[3.3614,50.966703],[3.361478,50.966743],[3.361529,50.966793],[3.361521,50.966848],[3.361492,50.96687],[3.361368,50.966922],[3.361339,50.96697],[3.361349,50.967009],[3.361385,50.967039],[3.361421,50.967094],[3.361429,50.967139],[3.361442,50.967153],[3.361483,50.967166],[3.361598,50.967166],[3.361625,50.96717],[3.36168,50.967187],[3.361748,50.967222],[3.361863,50.967278],[3.3619,50.967302],[3.361905,50.96733],[3.361896,50.967346],[3.361832,50.967372],[3.36179,50.96739],[3.361704,50.967412],[3.361661,50.967436],[3.361619,50.967463],[3.361614,50.967486],[3.361674,50.967534],[3.361707,50.967571],[3.361751,50.967636],[3.361781,50.967684],[3.36181,50.96772],[3.361825,50.967755],[3.361841,50.967776],[3.361878,50.967814],[3.361964,50.96789],[3.362022,50.96796],[3.362044,50.968026],[3.362056,50.968083],[3.362032,50.968103],[3.361956,50.968169],[3.36189,50.968227],[3.361859,50.968267],[3.36183,50.968299],[3.361773,50.968391],[3.361735,50.968453],[3.36176,50.968473],[3.361797,50.9685],[3.361845,50.968526],[3.361903,50.968542],[3.361971,50.968556],[3.362001,50.96862],[3.362041,50.968689],[3.362079,50.968744],[3.362186,50.96883],[3.362271,50.968903],[3.362303,50.969008],[3.362332,50.969043],[3.362357,50.969162],[3.362393,50.969314],[3.362434,50.969323],[3.362524,50.969341],[3.362573,50.96935],[3.362626,50.969374],[3.362737,50.969446],[3.362779,50.969449],[3.362843,50.969471],[3.362897,50.96952],[3.362972,50.969566],[3.363048,50.969613],[3.363132,50.969678],[3.363184,50.969722],[3.363217,50.969766],[3.36323,50.969882],[3.363337,50.969972],[3.363321,50.970079],[3.363412,50.970144],[3.363484,50.970205],[3.363531,50.970246],[3.36357,50.97029],[3.363623,50.970347],[3.363687,50.970405],[3.363723,50.970449],[3.363783,50.97053],[3.363843,50.970583],[3.363903,50.970634],[3.36395,50.970707],[3.364082,50.970829],[3.364126,50.970879],[3.364187,50.970924],[3.364231,50.970974],[3.36431,50.97104],[3.364331,50.971074],[3.364398,50.971137],[3.364489,50.971225],[3.364622,50.971347],[3.364768,50.971455],[3.364803,50.97149],[3.36479,50.97152],[3.364776,50.971557],[3.364819,50.971599],[3.364898,50.97167],[3.365013,50.971772],[3.36505,50.971811],[3.365121,50.971879],[3.36518,50.971915],[3.365252,50.971946],[3.36524,50.971966],[3.365207,50.971996],[3.365175,50.972025],[3.365215,50.972043],[3.365263,50.97207],[3.365323,50.972109],[3.365396,50.972132],[3.365546,50.972171],[3.365715,50.972203],[3.365922,50.97224],[3.366086,50.97227],[3.366166,50.972288],[3.366276,50.972312],[3.366628,50.972397],[3.366662,50.972403],[3.366766,50.972413],[3.366823,50.972432],[3.36697,50.972463],[3.367108,50.972496],[3.367253,50.972538],[3.367357,50.972575],[3.367437,50.972611],[3.367519,50.972675],[3.367558,50.972726],[3.367603,50.972798],[3.367691,50.972938],[3.367772,50.973064],[3.367805,50.973163],[3.367886,50.973224],[3.367921,50.973289],[3.367943,50.973313],[3.368017,50.973336],[3.368264,50.973395],[3.368418,50.973428],[3.36849,50.973443],[3.368579,50.973475],[3.368589,50.973487],[3.368603,50.973562],[3.36861,50.973623],[3.368687,50.973738],[3.368754,50.973847],[3.368775,50.973939],[3.368776,50.974025],[3.368771,50.974192],[3.368771,50.974302],[3.368738,50.974401],[3.368701,50.974468],[3.368327,50.975124],[3.368211,50.975322],[3.368158,50.975392],[3.368021,50.97558],[3.36816,50.975647],[3.367984,50.975939],[3.367701,50.976415],[3.367324,50.97705],[3.367208,50.977216],[3.367202,50.977256],[3.367201,50.977295],[3.367227,50.977394],[3.367237,50.977497],[3.367228,50.977603],[3.36712,50.977782],[3.366957,50.97797],[3.366928,50.978006],[3.367102,50.978102],[3.367543,50.978333],[3.367713,50.978421],[3.367916,50.978528],[3.368172,50.978677],[3.368313,50.978783],[3.368759,50.979314],[3.368827,50.979347],[3.368892,50.979363],[3.36905,50.979394],[3.369324,50.979424],[3.369666,50.979462],[3.370758,50.979583],[3.371033,50.979596],[3.371353,50.979603],[3.371626,50.979607],[3.372077,50.979608],[3.372238,50.97961],[3.372498,50.979618],[3.37269,50.979678],[3.37292,50.979796],[3.373064,50.979872],[3.373195,50.979934],[3.373249,50.979942],[3.373302,50.979942],[3.373526,50.979916],[3.37401,50.97988],[3.374229,50.979927],[3.374272,50.979935],[3.374297,50.979939],[3.374379,50.979956],[3.374439,50.979976],[3.374547,50.980008],[3.374659,50.980054],[3.374691,50.980065],[3.374726,50.980078],[3.374753,50.980086],[3.374825,50.980107],[3.374933,50.980139],[3.37499,50.980166],[3.374994,50.98017],[3.375091,50.980253],[3.375138,50.980289],[3.37519,50.980328],[3.375251,50.980359],[3.375315,50.980382],[3.375516,50.980457],[3.375561,50.980473],[3.375641,50.980505],[3.375651,50.980509],[3.375789,50.980561],[3.37584,50.980582],[3.375967,50.980633],[3.376058,50.980674],[3.37623,50.980765],[3.376418,50.980867],[3.376507,50.980928],[3.376571,50.980965],[3.376594,50.980979],[3.37663,50.981027],[3.376709,50.981062],[3.376744,50.981075],[3.376792,50.981103],[3.376849,50.981129],[3.376889,50.981161],[3.376981,50.981235],[3.376998,50.981241],[3.377044,50.981255],[3.377158,50.981283],[3.377294,50.981318],[3.377391,50.98134],[3.377468,50.981361],[3.377605,50.981385],[3.37783,50.9814],[3.377953,50.981415],[3.377966,50.981418],[3.378042,50.98143],[3.378057,50.981432],[3.378144,50.981396],[3.378213,50.981357],[3.378229,50.98135],[3.378351,50.981288],[3.378472,50.981235],[3.378514,50.98122],[3.378598,50.981198],[3.378623,50.981195],[3.378733,50.981188],[3.378812,50.981188],[3.378846,50.981191],[3.378856,50.981193],[3.378903,50.981204],[3.379152,50.98129],[3.379322,50.981349],[3.379418,50.981258],[3.379838,50.980903],[3.380085,50.980717],[3.380123,50.980686],[3.380364,50.980714],[3.380601,50.980748],[3.381171,50.980829],[3.381349,50.980859],[3.381601,50.980899],[3.382108,50.980999],[3.382511,50.981084],[3.382582,50.981095],[3.382601,50.98105],[3.382744,50.980829],[3.382955,50.9805],[3.383282,50.979936],[3.383342,50.979831],[3.383375,50.979732],[3.383499,50.979363],[3.383554,50.979297],[3.383622,50.979223],[3.383753,50.979148],[3.383957,50.979043],[3.384261,50.978889],[3.38447,50.97878],[3.384914,50.978549],[3.385343,50.978329],[3.385737,50.978113],[3.38595,50.977897],[3.387367,50.977921],[3.387386,50.977921],[3.387707,50.977916],[3.38801,50.977908],[3.388649,50.977889],[3.388783,50.977889],[3.389011,50.977881],[3.389281,50.977841],[3.389348,50.977843],[3.389458,50.97786],[3.390528,50.977866],[3.390997,50.977868],[3.391332,50.977862],[3.391638,50.977856],[3.392185,50.977852],[3.392423,50.977849],[3.392531,50.977849],[3.392774,50.977865],[3.393386,50.977919],[3.393541,50.977891],[3.393566,50.977884],[3.393612,50.977874],[3.393676,50.977865],[3.393912,50.977855],[3.39453,50.977861],[3.395201,50.977874],[3.395339,50.977863],[3.39573,50.977862],[3.395942,50.977867],[3.39606,50.977866],[3.396316,50.977849],[3.396371,50.977852],[3.396585,50.977902],[3.396807,50.977956],[3.39763,50.978153],[3.397701,50.97817],[3.398311,50.978319],[3.399487,50.978604],[3.399906,50.978709],[3.399933,50.978715],[3.399937,50.978716],[3.401198,50.979138],[3.40163,50.979286],[3.401959,50.979384],[3.401984,50.979391],[3.402065,50.979382],[3.402198,50.979374],[3.402403,50.979369],[3.402641,50.979364],[3.40287,50.979358],[3.403114,50.979333],[3.403307,50.979327],[3.403858,50.979301],[3.404685,50.979254],[3.404756,50.979252],[3.404818,50.979273],[3.404928,50.979325],[3.404968,50.979344],[3.405025,50.979346],[3.405127,50.979347],[3.405181,50.979349],[3.405169,50.979386],[3.405194,50.979543],[3.405209,50.979605],[3.405247,50.979679],[3.405315,50.979757],[3.405364,50.979818],[3.405434,50.97987],[3.405498,50.979892],[3.405668,50.97996],[3.405846,50.980031],[3.40601,50.980092],[3.406278,50.980184],[3.406607,50.980334],[3.406711,50.980365],[3.406734,50.980333],[3.406788,50.980267],[3.406825,50.980235],[3.406921,50.980273],[3.407215,50.980415],[3.407279,50.980438],[3.407794,50.9807],[3.407898,50.980746],[3.407924,50.980774],[3.407993,50.980815],[3.408068,50.980857],[3.408224,50.980916],[3.408365,50.980978],[3.408615,50.981085],[3.408745,50.981142],[3.408854,50.981202],[3.409015,50.981251],[3.409249,50.9813],[3.409365,50.981324],[3.409495,50.981358],[3.409663,50.981413],[3.409763,50.981447],[3.410111,50.981572],[3.410384,50.981668],[3.410446,50.981685],[3.410562,50.981621],[3.410626,50.981591],[3.410688,50.981568],[3.410835,50.981504],[3.410981,50.981445],[3.411158,50.981367],[3.411329,50.981309],[3.411527,50.981254],[3.411606,50.981246],[3.411689,50.98122],[3.411922,50.981164],[3.412116,50.981137],[3.412337,50.981093],[3.412432,50.981071],[3.412697,50.981],[3.412844,50.980943],[3.413073,50.98083],[3.413231,50.98075],[3.413377,50.980666],[3.413676,50.980518],[3.413788,50.98047],[3.413889,50.980433],[3.414142,50.980349],[3.414249,50.980315],[3.414406,50.980273],[3.414694,50.980201],[3.415555,50.980013],[3.415873,50.979938],[3.416084,50.979869],[3.417315,50.979609],[3.417485,50.979582],[3.417822,50.979556],[3.417781,50.979979],[3.41766,50.98005],[3.417696,50.98007],[3.417822,50.980242],[3.417847,50.980273],[3.417914,50.980264],[3.418027,50.980284],[3.418157,50.980292],[3.418667,50.980316],[3.418743,50.98032],[3.419001,50.980398],[3.419173,50.980428],[3.42014,50.98067],[3.420099,50.98073],[3.420426,50.980858],[3.420632,50.98093],[3.420885,50.981005],[3.421417,50.981135],[3.421587,50.981195],[3.421638,50.981223],[3.421903,50.981337],[3.422271,50.981478],[3.422331,50.981504],[3.42244,50.981527],[3.422534,50.981533],[3.42265,50.981528],[3.422729,50.981518],[3.422855,50.981433],[3.423293,50.981452],[3.423301,50.981387],[3.424237,50.981432],[3.424337,50.98145],[3.424703,50.981454],[3.424953,50.981457],[3.425207,50.981444],[3.425494,50.981426],[3.425662,50.98142],[3.425709,50.981391],[3.425838,50.981398],[3.42619,50.981446],[3.426363,50.981468],[3.426421,50.981461],[3.426486,50.981463],[3.427323,50.981463],[3.429472,50.981718],[3.429504,50.98172],[3.429557,50.981757],[3.429565,50.981792],[3.429501,50.981935],[3.429496,50.981963],[3.429554,50.981983],[3.430211,50.982143],[3.430345,50.982187],[3.430647,50.982302],[3.430712,50.982324],[3.4306,50.982393],[3.430544,50.982432],[3.430591,50.982467],[3.430664,50.982519],[3.430684,50.98254],[3.431135,50.983214],[3.431284,50.983403],[3.431459,50.983622],[3.431542,50.983657],[3.43161,50.983684],[3.432382,50.983918],[3.433201,50.984159],[3.433397,50.984241],[3.433443,50.984267],[3.433637,50.984385],[3.433769,50.984495],[3.433812,50.984538],[3.433931,50.984725],[3.43398,50.984842],[3.433957,50.984944],[3.433957,50.984964],[3.433975,50.985054],[3.434007,50.985172],[3.434039,50.985333],[3.434069,50.985528],[3.434069,50.985554],[3.434051,50.985621],[3.43399,50.985729],[3.433968,50.985786],[3.433832,50.985934],[3.43364,50.986101],[3.433383,50.986377],[3.43319,50.986589],[3.43308,50.986736],[3.433061,50.986777],[3.433057,50.986817],[3.4331,50.986934],[3.433165,50.98711],[3.433223,50.98723],[3.433335,50.98736],[3.433434,50.987473],[3.433445,50.987501],[3.433461,50.987948],[3.433449,50.987996],[3.433445,50.988085],[3.43345,50.98819],[3.433466,50.988487],[3.433482,50.988689],[3.433498,50.988907],[3.433725,50.988935],[3.433993,50.988963],[3.434122,50.988981],[3.434214,50.989019],[3.434336,50.989078],[3.4347,50.989244],[3.434947,50.98936],[3.435197,50.989469],[3.43541,50.98953],[3.43563,50.989605],[3.435802,50.989656],[3.435949,50.989695],[3.436067,50.989719],[3.436186,50.989738],[3.436462,50.989775],[3.436545,50.989785],[3.43663,50.989797],[3.436698,50.989813],[3.436777,50.989846],[3.43688,50.989929],[3.436963,50.990002],[3.437089,50.990133],[3.437179,50.990233],[3.437288,50.990386],[3.437549,50.990526],[3.437726,50.990578],[3.43791,50.9906],[3.438078,50.990596],[3.43825,50.990585],[3.438683,50.990547],[3.438884,50.990555],[3.439067,50.990578],[3.439279,50.990638],[3.439418,50.99068],[3.439504,50.99072],[3.439592,50.990825],[3.439619,50.990877],[3.43958,50.991062],[3.43958,50.991285],[3.439582,50.991398],[3.439529,50.991729],[3.439507,50.991761],[3.439538,50.991816],[3.439692,50.99185],[3.43985,50.991879],[3.440068,50.991904],[3.440283,50.991917],[3.440482,50.991928],[3.44077,50.991915],[3.441024,50.991899],[3.441198,50.991876],[3.441449,50.991902],[3.441819,50.991912],[3.442038,50.991949],[3.442219,50.991998],[3.44235,50.992037],[3.442435,50.992039],[3.442623,50.992006],[3.442698,50.992004],[3.442911,50.992039],[3.44338,50.992145],[3.443394,50.992172],[3.443356,50.992279],[3.443432,50.992316],[3.443805,50.99242],[3.444079,50.992508],[3.444667,50.992693],[3.444972,50.992796],[3.445142,50.992826],[3.445345,50.992887],[3.445513,50.992951],[3.445608,50.992976],[3.445708,50.992979],[3.446004,50.993128],[3.446389,50.993299],[3.446705,50.993438],[3.446824,50.993459],[3.447311,50.993644],[3.447449,50.993708],[3.447573,50.993737],[3.447661,50.993765],[3.447695,50.993793],[3.447712,50.993877],[3.447682,50.993961],[3.447686,50.99403],[3.447758,50.994172],[3.447808,50.994218],[3.447923,50.994259],[3.44816,50.994323],[3.448272,50.994341],[3.448345,50.99433],[3.44847,50.994164],[3.448551,50.994085],[3.448688,50.994012],[3.448898,50.993956],[3.449003,50.993914],[3.449061,50.993926],[3.449287,50.994012],[3.449752,50.994201],[3.450061,50.994324],[3.450416,50.994475],[3.450607,50.994569],[3.450729,50.994663],[3.450815,50.99474],[3.450808,50.994744],[3.450599,50.994852],[3.450456,50.99492],[3.450439,50.994929],[3.450358,50.99497],[3.450316,50.995014],[3.450295,50.995019],[3.450243,50.995025],[3.450237,50.995027],[3.450192,50.995045],[3.450009,50.995156],[3.449929,50.995207],[3.449906,50.995227],[3.449827,50.995304],[3.449732,50.995402],[3.449704,50.995425],[3.449354,50.995678],[3.44931,50.99571],[3.449134,50.995809],[3.448996,50.995878],[3.448874,50.995921],[3.448809,50.995939],[3.448763,50.995951],[3.448661,50.995976],[3.448573,50.996013],[3.448506,50.996041],[3.448421,50.996085],[3.448133,50.996234],[3.448122,50.996239],[3.448101,50.996252],[3.447174,50.996884],[3.447139,50.996915],[3.447124,50.996932],[3.447032,50.99709],[3.446624,50.997565],[3.446567,50.997629],[3.446516,50.997677],[3.446189,50.997955],[3.446068,50.998044],[3.446018,50.99808],[3.445973,50.998112],[3.445913,50.998157],[3.44568,50.998302],[3.445647,50.998323],[3.445506,50.99841],[3.445328,50.998522],[3.445317,50.998521],[3.445279,50.998544],[3.444787,50.998815],[3.445154,50.999033],[3.445434,50.999202],[3.445477,50.999231],[3.44535,50.9993],[3.445397,50.999326],[3.446669,51.000172],[3.446968,51.000364],[3.446984,51.000375],[3.447108,51.000458],[3.447131,51.000463],[3.447149,51.000464],[3.447338,51.000331],[3.44778,51.0006],[3.448797,51.001221],[3.448814,51.001248],[3.44884,51.001353],[3.448848,51.001365],[3.448853,51.001372],[3.448873,51.001395],[3.449215,51.001773],[3.449972,51.002603],[3.450007,51.00264],[3.450046,51.002665],[3.450092,51.0027],[3.450695,51.003177],[3.45085,51.003301],[3.450856,51.003305],[3.451902,51.003852],[3.45194,51.003863],[3.452159,51.003901],[3.452127,51.004258],[3.452128,51.004286],[3.452154,51.004295],[3.452212,51.004818],[3.452218,51.004936],[3.45232,51.005047],[3.452376,51.005131],[3.452397,51.005162],[3.45248,51.005285],[3.452503,51.005318],[3.452559,51.0054],[3.452546,51.005498],[3.45251,51.005717],[3.452459,51.005957],[3.452296,51.006738],[3.452294,51.00675],[3.452027,51.006773],[3.451611,51.006809],[3.451577,51.007034],[3.451564,51.007091],[3.451529,51.007225],[3.451428,51.007233],[3.451408,51.00727],[3.451387,51.007366],[3.45137,51.007539],[3.451379,51.007553],[3.451401,51.007574],[3.451397,51.007616],[3.451287,51.007951],[3.451287,51.007961],[3.451259,51.008063],[3.451253,51.008079],[3.451222,51.008182],[3.451154,51.008386],[3.451106,51.008511],[3.451068,51.008601],[3.450945,51.008867],[3.450931,51.008897],[3.450911,51.008927],[3.45088,51.008931],[3.450779,51.008942],[3.450739,51.008945],[3.450581,51.008961],[3.450469,51.008966],[3.450409,51.008964],[3.450207,51.008943],[3.450014,51.009555],[3.449983,51.009655],[3.449923,51.009852],[3.449911,51.009879],[3.449895,51.009904],[3.449871,51.009907],[3.449793,51.009903],[3.449653,51.009883],[3.449586,51.009873],[3.449561,51.009867],[3.449495,51.009853],[3.449377,51.009816],[3.449285,51.009785],[3.449244,51.009766],[3.449112,51.009695],[3.449,51.009659],[3.448867,51.009633],[3.44875,51.009617],[3.448703,51.009615],[3.448615,51.009616],[3.44859,51.009618],[3.448532,51.009627],[3.448136,51.00971],[3.44781,51.009769],[3.447562,51.0098],[3.447541,51.009864],[3.447443,51.009969],[3.447265,51.01049],[3.447226,51.010633],[3.447233,51.010844],[3.447247,51.01125],[3.447317,51.011941],[3.447357,51.012527],[3.447397,51.012963],[3.44742,51.013296],[3.44739,51.013725],[3.447318,51.014357],[3.447246,51.014787],[3.447204,51.015562],[3.447158,51.015634],[3.446918,51.015743],[3.446381,51.015858],[3.445991,51.015894],[3.445574,51.015946],[3.445368,51.016031],[3.445253,51.016117],[3.444833,51.016447],[3.444803,51.016469],[3.444366,51.016771],[3.444096,51.01702],[3.443776,51.017342],[3.44359,51.017534],[3.443489,51.017631],[3.443113,51.018037],[3.442976,51.018186],[3.442581,51.018587],[3.442252,51.018914],[3.442135,51.018993],[3.441948,51.01906],[3.441793,51.019089],[3.441645,51.019174],[3.441188,51.019506],[3.440776,51.019818],[3.439607,51.020726],[3.439395,51.020851],[3.438883,51.021253],[3.438166,51.022035],[3.438025,51.022166],[3.437742,51.022896],[3.437679,51.023112],[3.437545,51.023443],[3.437302,51.024033],[3.437097,51.024435],[3.436887,51.024935],[3.436811,51.025335],[3.436764,51.025437],[3.436652,51.025459],[3.436433,51.025442],[3.436197,51.025416],[3.435957,51.02535],[3.43574,51.025283],[3.435336,51.025197],[3.435102,51.025264],[3.434885,51.025361],[3.434721,51.025461],[3.434474,51.02568],[3.434295,51.025851],[3.433782,51.026383],[3.433541,51.026551],[3.433195,51.026712],[3.432597,51.026973],[3.432336,51.027068],[3.431786,51.027221],[3.431497,51.027308],[3.431399,51.027364],[3.430939,51.028025],[3.430908,51.028099],[3.430976,51.028167],[3.431222,51.028324],[3.431516,51.028532],[3.431809,51.028773],[3.432259,51.02919],[3.432404,51.02937],[3.432557,51.02972],[3.432579,51.029881],[3.432547,51.030029],[3.432213,51.030808],[3.432097,51.031093],[3.431928,51.031443],[3.431793,51.031729],[3.431593,51.032001],[3.431441,51.032161],[3.431311,51.032266],[3.43106,51.03235],[3.430438,51.032502],[3.430246,51.03255],[3.43011,51.032629],[3.42998,51.032796],[3.429925,51.033014],[3.429827,51.03347],[3.429699,51.033954],[3.429599,51.03411],[3.42948,51.034159],[3.429123,51.034125],[3.428945,51.034156],[3.428634,51.034281],[3.428326,51.034294],[3.42777,51.034359],[3.427343,51.034572],[3.42697,51.034764],[3.426772,51.034823],[3.426418,51.034848],[3.426232,51.034858],[3.426091,51.034901],[3.425905,51.034924],[3.425854,51.034875],[3.425755,51.034775],[3.425646,51.034663],[3.425519,51.034538],[3.425411,51.034433],[3.425396,51.03442],[3.425295,51.034343],[3.425228,51.034293],[3.425081,51.03419],[3.424922,51.034079],[3.42477,51.03397],[3.42445,51.033743],[3.424272,51.033616],[3.424164,51.033541],[3.424105,51.0335],[3.424093,51.033489],[3.424005,51.033398],[3.423911,51.033286],[3.423508,51.032828],[3.423456,51.032769],[3.423382,51.032688],[3.423185,51.032467],[3.423154,51.03243],[3.423125,51.032408],[3.423101,51.032381],[3.423013,51.032378],[3.422789,51.032354],[3.422602,51.032329],[3.422591,51.032327],[3.422542,51.032305],[3.422516,51.032287],[3.422416,51.032208],[3.422389,51.032185],[3.422212,51.032045],[3.422047,51.031914],[3.421985,51.031864],[3.4219,51.031796],[3.421702,51.031645],[3.421581,51.031553],[3.421532,51.031515],[3.421398,51.031493],[3.421338,51.031482],[3.42131,51.031474],[3.421263,51.031456],[3.421212,51.031432],[3.421055,51.031358],[3.420957,51.031313],[3.420881,51.031282],[3.420788,51.031252],[3.420776,51.031267],[3.420728,51.031259],[3.420669,51.031246],[3.420476,51.031206],[3.420422,51.031196],[3.420405,51.031304],[3.420246,51.031282],[3.419978,51.031238],[3.419866,51.031216],[3.419659,51.031171],[3.419388,51.03111],[3.419223,51.031115],[3.419,51.03112],[3.418613,51.031128],[3.418551,51.031129],[3.418514,51.03113],[3.418497,51.03113],[3.418402,51.031131],[3.418397,51.031131],[3.418348,51.031129],[3.418303,51.031127],[3.418227,51.031122],[3.418221,51.031121],[3.418115,51.031102],[3.418068,51.031076],[3.417989,51.030989],[3.417887,51.0309],[3.417857,51.030857],[3.417814,51.03082],[3.417735,51.030769],[3.417714,51.030748],[3.417695,51.030728],[3.417632,51.030649],[3.417581,51.030579],[3.417527,51.030524],[3.417522,51.030521],[3.41746,51.030471],[3.417396,51.030428],[3.41735,51.030386],[3.417313,51.030346],[3.416286,51.03061],[3.41587,51.030711],[3.415783,51.030728],[3.415764,51.030733],[3.415832,51.03061],[3.415905,51.030488],[3.415977,51.030375],[3.416009,51.030318],[3.416032,51.030272],[3.416064,51.030168],[3.416081,51.030097],[3.416074,51.030034],[3.415982,51.029852],[3.415948,51.02977],[3.415938,51.029735],[3.415771,51.0297],[3.415628,51.02967],[3.415448,51.029649],[3.415154,51.029635],[3.414964,51.029628],[3.414626,51.029622],[3.414602,51.029621],[3.414606,51.02955],[3.414611,51.029413],[3.414619,51.029232],[3.414619,51.02922],[3.414563,51.029223],[3.414439,51.029237],[3.414384,51.029243],[3.414319,51.029247],[3.414195,51.029256],[3.414128,51.029263],[3.414083,51.02927],[3.413932,51.029255],[3.413715,51.029232],[3.413499,51.029209],[3.413384,51.029196],[3.413342,51.029088],[3.413112,51.029012],[3.412861,51.028932],[3.412652,51.028872],[3.412509,51.028872],[3.412295,51.028883],[3.412133,51.028923],[3.411984,51.029005],[3.41179,51.029115],[3.411561,51.029203],[3.411418,51.029265],[3.411278,51.029359],[3.411029,51.02954],[3.410684,51.029576],[3.410281,51.029602],[3.410079,51.029606],[3.409802,51.029615],[3.409481,51.02966],[3.409285,51.029716],[3.409181,51.029814],[3.409123,51.030068],[3.409022,51.030128],[3.408495,51.030247],[3.408101,51.030334],[3.407926,51.030407],[3.407836,51.030494],[3.407475,51.031079],[3.407312,51.031204],[3.406976,51.031321],[3.406421,51.031517],[3.406109,51.031619],[3.405645,51.031837],[3.405461,51.031917],[3.405417,51.031888],[3.405133,51.031729],[3.404937,51.03164],[3.404841,51.031609],[3.404755,51.03158],[3.404686,51.031563],[3.404587,51.031547],[3.404424,51.031565],[3.404308,51.031556],[3.40409,51.031502],[3.403966,51.031452],[3.403769,51.031367],[3.403468,51.031212],[3.403271,51.031095],[3.403193,51.031037],[3.403127,51.030976],[3.402972,51.030801],[3.402903,51.030712],[3.40288,51.030614],[3.402826,51.030537],[3.402771,51.030515],[3.402666,51.030481],[3.402388,51.03038],[3.402173,51.030272],[3.401977,51.03014],[3.40192,51.030115],[3.401564,51.030137],[3.401305,51.03003],[3.40108,51.029901],[3.400877,51.029762],[3.400629,51.029596],[3.400264,51.029378],[3.400221,51.029353],[3.40013,51.029341],[3.399947,51.029519],[3.399853,51.029604],[3.399704,51.029497],[3.399565,51.029391],[3.399471,51.029297],[3.39944,51.029269],[3.399383,51.029224],[3.399158,51.029176],[3.399084,51.029155],[3.398991,51.029173],[3.398919,51.029179],[3.398822,51.029173],[3.398588,51.029117],[3.398422,51.029023],[3.398241,51.028922],[3.398037,51.028807],[3.397895,51.028741],[3.397736,51.028668],[3.397593,51.028608],[3.397474,51.028555],[3.397483,51.028525],[3.397568,51.028434],[3.397571,51.028401],[3.397478,51.02838],[3.397314,51.028354],[3.397139,51.028334],[3.396759,51.028312],[3.396602,51.028294],[3.39642,51.028285],[3.396262,51.028284],[3.396179,51.028281],[3.396136,51.028257],[3.396064,51.028164],[3.396001,51.028133],[3.395885,51.028102],[3.39574,51.028066],[3.395686,51.028041],[3.395628,51.028006],[3.395531,51.0279],[3.395448,51.027818],[3.395369,51.027796],[3.395339,51.027783],[3.395337,51.027785],[3.393962,51.027185],[3.393574,51.026653],[3.392358,51.026137],[3.392329,51.02616],[3.391992,51.025964],[3.392179,51.025698],[3.392334,51.025525],[3.39226,51.025501],[3.392205,51.025481],[3.392164,51.025462],[3.391983,51.025377],[3.391843,51.025302],[3.391583,51.025166],[3.391528,51.025137],[3.391277,51.024926],[3.3912,51.024861],[3.390996,51.025151],[3.390992,51.025158],[3.38955,51.024536],[3.389398,51.024526],[3.389312,51.024499],[3.389103,51.024432],[3.388956,51.024443],[3.387831,51.024525],[3.387791,51.024534],[3.387587,51.024421],[3.387361,51.024299],[3.387211,51.024216],[3.387167,51.024223],[3.386935,51.024276],[3.385374,51.024524],[3.384908,51.024598],[3.384842,51.024722],[3.384818,51.024769],[3.384792,51.024818],[3.38477,51.02484],[3.384152,51.024592],[3.383819,51.024425],[3.383775,51.024448],[3.383676,51.024491],[3.383656,51.024495],[3.383055,51.024575],[3.381522,51.024785],[3.381302,51.024815],[3.380025,51.024145],[3.379952,51.024239],[3.379113,51.025278],[3.379795,51.025405],[3.379691,51.025583],[3.379027,51.025473],[3.378912,51.02562],[3.378638,51.025971],[3.378567,51.026062],[3.377788,51.027077],[3.37769,51.027189],[3.377654,51.027234],[3.377184,51.027838],[3.377138,51.027896],[3.376373,51.028803],[3.376136,51.029077],[3.376131,51.029084],[3.375933,51.029305],[3.375817,51.029433],[3.375598,51.029672],[3.37536,51.029928],[3.375306,51.029985],[3.375271,51.030021],[3.375253,51.03004],[3.375148,51.030136],[3.374763,51.030545],[3.374647,51.030668],[3.37461,51.03078],[3.374766,51.031178],[3.374787,51.03125],[3.374846,51.031471],[3.374871,51.031628],[3.374811,51.031808],[3.374736,51.031926],[3.374501,51.03226],[3.374375,51.032457],[3.374302,51.032579],[3.374142,51.032678],[3.37377,51.033002],[3.373665,51.033163],[3.373672,51.033225],[3.373806,51.033631],[3.373801,51.03375],[3.373655,51.034068],[3.37329,51.034501],[3.373256,51.034563],[3.373192,51.034945],[3.37306,51.035259],[3.372965,51.035433],[3.372871,51.035758],[3.372788,51.036085],[3.372731,51.036253],[3.372506,51.036604],[3.372358,51.036676],[3.372036,51.03686],[3.37176,51.036996],[3.371693,51.036944],[3.371213,51.036579],[3.371107,51.036481],[3.371014,51.036395],[3.370902,51.036311],[3.370828,51.036253],[3.370772,51.03621],[3.370792,51.03616],[3.370895,51.036055],[3.370996,51.036013],[3.371028,51.035998],[3.370966,51.035848],[3.370953,51.035764],[3.370929,51.035654],[3.370843,51.035517],[3.370739,51.035433],[3.370665,51.035401],[3.370361,51.0354],[3.370015,51.035372],[3.369901,51.035353],[3.369806,51.035356],[3.369725,51.035319],[3.369561,51.035225],[3.369431,51.035129],[3.369361,51.035063],[3.369205,51.034854],[3.369152,51.034783],[3.369128,51.03472],[3.369053,51.034663],[3.36893,51.034593],[3.368897,51.034539],[3.368894,51.034374],[3.368859,51.034295],[3.368861,51.034214],[3.368899,51.034158],[3.368933,51.03408],[3.368886,51.033921],[3.368871,51.033784],[3.368857,51.033747],[3.368743,51.03367],[3.368625,51.033546],[3.368515,51.033444],[3.368482,51.033404],[3.368389,51.033238],[3.368338,51.03318],[3.368272,51.033109],[3.368242,51.032946],[3.368208,51.032874],[3.368196,51.032798],[3.36817,51.032742],[3.368174,51.032695],[3.368224,51.032642],[3.368332,51.032574],[3.368344,51.03254],[3.368326,51.032506],[3.36823,51.032427],[3.368178,51.03237],[3.368085,51.032294],[3.367991,51.032162],[3.367899,51.032047],[3.367917,51.03199],[3.367838,51.031834],[3.367793,51.03172],[3.367805,51.031584],[3.367759,51.031476],[3.367673,51.031366],[3.36757,51.031227],[3.367356,51.030952],[3.367297,51.030858],[3.36727,51.030806],[3.367127,51.030792],[3.366954,51.031015],[3.366851,51.031039],[3.366838,51.031055],[3.366819,51.031085],[3.366705,51.031252],[3.366098,51.031946],[3.366082,51.031969],[3.365858,51.032106],[3.365662,51.032222],[3.365577,51.032287],[3.365492,51.032339],[3.365357,51.03242],[3.365157,51.032553],[3.365011,51.032657],[3.364916,51.032713],[3.364745,51.032809],[3.364537,51.032929],[3.364518,51.032943],[3.36422,51.033214],[3.364341,51.033267],[3.364527,51.033347],[3.36448,51.033428],[3.364439,51.033488],[3.364394,51.033563],[3.364384,51.033582],[3.364374,51.033631],[3.364367,51.033663],[3.364309,51.033778],[3.364297,51.033799],[3.364203,51.03387],[3.364136,51.033916],[3.364007,51.033986],[3.363737,51.034118],[3.363603,51.034177],[3.363299,51.034312],[3.362912,51.034451],[3.36281,51.034493],[3.36278,51.034508],[3.362616,51.034591],[3.362296,51.034748],[3.362059,51.034876],[3.362038,51.034888],[3.361399,51.03458],[3.360945,51.034365],[3.360776,51.034286],[3.360358,51.034087],[3.360277,51.034063],[3.360081,51.034151],[3.360061,51.034159],[3.360011,51.034178],[3.360029,51.03419],[3.360119,51.03426],[3.360462,51.034533],[3.359856,51.034837],[3.359708,51.034912],[3.359444,51.035031],[3.358308,51.036053],[3.357891,51.036429],[3.357716,51.036591],[3.357703,51.036847],[3.357163,51.036647],[3.356195,51.036288],[3.356184,51.036284],[3.356064,51.03624],[3.355995,51.036294],[3.355976,51.036179],[3.355972,51.036161],[3.355922,51.036133],[3.355866,51.036107],[3.355612,51.036005],[3.355242,51.035861],[3.355109,51.035794],[3.355007,51.035733],[3.354819,51.035643],[3.35477,51.035625],[3.354549,51.0356],[3.354362,51.035596],[3.35431,51.035684],[3.353751,51.035617],[3.353329,51.035561],[3.353237,51.035545],[3.353086,51.035517],[3.352935,51.035487],[3.352635,51.035426],[3.352512,51.035402],[3.352241,51.03534],[3.352159,51.035325],[3.351861,51.035306],[3.351818,51.035303],[3.35146,51.035277],[3.351115,51.035247],[3.350759,51.035211],[3.350613,51.035197],[3.350452,51.035177],[3.350184,51.035126],[3.350115,51.035115],[3.349787,51.035295],[3.34963,51.035391],[3.349522,51.035529],[3.349377,51.035716],[3.348919,51.036189],[3.348808,51.036312],[3.348579,51.036654],[3.348463,51.036918],[3.348608,51.036983],[3.348808,51.037072],[3.349089,51.037208],[3.348975,51.037308],[3.348577,51.037701],[3.348345,51.03792],[3.347944,51.038294],[3.347555,51.038642],[3.347282,51.038886],[3.347123,51.039071],[3.347002,51.039206],[3.346954,51.039293],[3.346938,51.039401],[3.346891,51.039646],[3.346883,51.039757],[3.346845,51.03992],[3.34685,51.039975],[3.346879,51.040078],[3.347055,51.040223],[3.347636,51.04044],[3.347971,51.040581],[3.348144,51.040631],[3.348311,51.040649],[3.348524,51.040687],[3.348943,51.040744],[3.349094,51.040775],[3.349209,51.040831],[3.349326,51.040912],[3.349515,51.041054],[3.349792,51.0412],[3.349886,51.041254],[3.349994,51.041334],[3.350282,51.041484],[3.350352,51.041567],[3.350435,51.041913],[3.350509,51.042103],[3.350556,51.04231],[3.350624,51.042497],[3.350738,51.042804],[3.35095,51.043142],[3.351011,51.043275],[3.351034,51.043403],[3.350909,51.043818],[3.350865,51.043891],[3.350828,51.043986],[3.350722,51.044062],[3.350623,51.044113],[3.350456,51.044203],[3.350088,51.044434],[3.349726,51.044614],[3.349507,51.044701],[3.349268,51.044828],[3.348986,51.045008],[3.348895,51.045133],[3.348666,51.045869],[3.348629,51.046242],[3.348591,51.046406],[3.348503,51.046499],[3.34838,51.046545],[3.348062,51.046644],[3.347894,51.046732],[3.347685,51.046903],[3.347584,51.047045],[3.34735,51.047447],[3.347171,51.047668],[3.346997,51.047865],[3.34684,51.048044],[3.346747,51.048117],[3.346577,51.048194],[3.346417,51.04831],[3.346173,51.048562],[3.345898,51.048818],[3.345697,51.048953],[3.345284,51.04918],[3.345018,51.049382],[3.344815,51.049608],[3.344687,51.049849],[3.344593,51.049982],[3.344347,51.050267],[3.34402,51.050763],[3.343563,51.051464],[3.343073,51.052248],[3.342863,51.05259],[3.3426,51.052992],[3.342528,51.052974],[3.34239,51.052968],[3.342214,51.052967],[3.341969,51.05296],[3.341851,51.052948],[3.341774,51.052945],[3.341754,51.052944],[3.341704,51.052952],[3.341669,51.052952],[3.341496,51.052936],[3.341468,51.052933],[3.341346,51.052921],[3.341255,51.052911],[3.341232,51.052907],[3.341048,51.052884],[3.341041,51.052884],[3.340994,51.052891],[3.340818,51.052921],[3.340773,51.052928],[3.340622,51.052943],[3.340599,51.052944],[3.340396,51.052929],[3.340279,51.052919],[3.340223,51.05292],[3.340209,51.052922],[3.340197,51.052928],[3.34017,51.052952],[3.340083,51.053028],[3.340006,51.053109],[3.33993,51.053196],[3.339892,51.053233],[3.339822,51.053284],[3.339785,51.053298],[3.339654,51.053354],[3.339649,51.053356],[3.339619,51.053372],[3.339567,51.053406],[3.339515,51.053437],[3.3395,51.053444],[3.339441,51.053469],[3.339408,51.053477],[3.339325,51.053489],[3.339286,51.053491],[3.339074,51.053507],[3.338866,51.053518],[3.338728,51.053524],[3.338709,51.053523],[3.338668,51.053514],[3.338666,51.053514],[3.338597,51.053479],[3.33856,51.053452],[3.338502,51.053403],[3.338448,51.053359],[3.338425,51.053347],[3.33842,51.053344],[3.338367,51.053334],[3.338216,51.053308],[3.33814,51.053292],[3.338089,51.05328],[3.33804,51.053266],[3.33793,51.053224],[3.337921,51.053222],[3.337886,51.05322],[3.337884,51.05322],[3.337724,51.05326],[3.33756,51.053243],[3.337524,51.053241],[3.337433,51.053244],[3.337294,51.053262],[3.33725,51.053275],[3.33721,51.053287],[3.337151,51.053307],[3.337039,51.05332],[3.33683,51.053329],[3.336717,51.053338],[3.336543,51.053352],[3.336332,51.053392],[3.336202,51.053413],[3.335964,51.053467],[3.335821,51.0535],[3.335756,51.053513],[3.335738,51.053518],[3.335615,51.053544]]],[[[3.35106,51.04346],[3.33405,51.05333],[3.31881,51.04864],[3.3206,51.03971],[3.28947,51.03566],[3.29797,51.01927],[3.28649,51.01209],[3.30661,50.99716],[3.31766,50.97016],[3.347,50.96081],[3.36082,50.96382],[3.36896,50.97911],[3.41852,50.97954],[3.45019,50.99451],[3.44489,50.99905],[3.45106,51.00915],[3.42957,51.03324],[3.38038,51.02418],[3.3719,51.03695],[3.36734,51.03041],[3.35012,51.03544],[3.35106,51.04346]]]]}}
