{"type":"Feature","properties":{"mrgid":850,"name":"The Eastons","placeType":"Ward","source":"SAIL:sailcommunes"},"geometry":{"type":"Polygon","coordinates":[[[0.273644,51.926945],[0.272253,51.916494],[0.265236,51.916175],[0.27427,51.910323],[0.268506,51.902092],[0.285461,51.900452],[0.299077,51.88352],[0.318706,51.882023],[0.323309,51.873721],[0.353968,51.886313],[0.348268,51.89188],[0.356315,51.902804],[0.373049,51.908945],[0.354924,51.915992],[0.330017,51.913558],[0.329852,51.925815],[0.30894,51.931291],[0.307595,51.948338],[0.300721,51.952141],[0.282771,51.947455],[0.295933,51.925897],[0.273644,51.926945]]]}}
