{"type":"Feature","id":"fao.5","geometry_name":"the_geom","properties":{"zone":88,"name":"Pacific, Antarctic","mrgid":8738,"id":4,"source":"fao-fishing-area"},"geometry":{"type":"MultiPolygon","coordinates":[[[[-180.0,-84.305346],[-179.430028,-84.326673],[-179.168919,-84.3714],[-179.075837,-84.38001],[-178.491973,-84.395573],[-177.993073,-84.444737],[-177.8389,-84.491391],[-177.721955,-84.498337],[-177.429173,-84.492782],[-176.660582,-84.443619],[-176.020291,-84.4364],[-175.634737,-84.443619],[-174.517246,-84.443073],[-173.915282,-84.458619],[-172.703919,-84.506664],[-171.931946,-84.547791],[-171.353637,-84.558337],[-170.736119,-84.60751],[-169.223355,-84.663891],[-168.722228,-84.71251],[-168.510564,-84.74751],[-168.455991,-84.769719],[-168.477509,-84.780837],[-168.5564,-84.793337],[-168.595837,-84.815346],[-168.551119,-84.831391],[-168.445282,-84.842228],[-168.236391,-84.847782],[-168.089755,-84.841946],[-168.033355,-84.829728],[-167.988346,-84.793064],[-167.922519,-84.787228],[-167.480282,-84.779728],[-167.211946,-84.788891],[-167.0914,-84.808337],[-167.060773,-84.830082],[-167.2428,-84.866955],[-167.159455,-84.883346],[-166.785582,-84.9014],[-166.105009,-84.973064],[-165.483064,-85.014173],[-165.2392,-85.020573],[-164.8428,-85.051119],[-163.882782,-85.0714],[-163.510009,-85.089173],[-163.352509,-85.103619],[-163.142246,-85.14111],[-162.861391,-85.206119],[-162.688628,-85.235291],[-162.526673,-85.250564],[-161.838628,-85.278337],[-161.180028,-85.327791],[-160.023346,-85.311673],[-159.345309,-85.325291],[-157.483337,-85.448628],[-157.228909,-85.44751],[-156.006955,-85.375837],[-155.19,-85.341673],[-154.1828,-85.329728],[-152.810582,-85.328064],[-152.361973,-85.337782],[-152.017246,-85.35861],[-151.252809,-85.448628],[-151.041409,-85.461946],[-150.497528,-85.470291],[-150.239473,-85.463628],[-149.799746,-85.434173],[-149.753082,-85.421955],[-149.743619,-85.40251],[-149.778491,-85.347091],[-149.804473,-85.33751],[-149.786682,-85.318619],[-149.676973,-85.288346],[-148.943364,-85.1339],[-148.540864,-85.10251],[-148.138337,-85.090837],[-147.763064,-85.09001],[-146.675846,-85.10861],[-145.768346,-85.109728],[-143.572237,-85.144182],[-141.177791,-85.23361],[-140.582519,-85.2489],[-139.661409,-85.24501],[-139.356137,-85.234728],[-139.123628,-85.21001],[-139.081546,-85.1882],[-139.064191,-85.14431],[-139.082655,-85.1257],[-139.105837,-85.116119],[-139.093628,-85.090564],[-138.992246,-85.059446],[-138.589446,-84.984728],[-138.683073,-84.967519],[-140.294737,-84.89111],[-142.640837,-84.828337],[-145.721955,-84.723346],[-148.012791,-84.6339],[-149.294737,-84.561955],[-150.058346,-84.508055],[-150.610291,-84.455846],[-151.296109,-84.379182],[-151.691128,-84.324173],[-152.115291,-84.241391],[-152.643891,-84.109173],[-152.9978,-84.033891],[-153.053073,-84.012791],[-153.1864,-83.943073],[-153.216128,-83.915837],[-153.233609,-83.878346],[-153.232791,-83.818619],[-153.191409,-83.786391],[-152.999591,-83.70931],[-152.954464,-83.668064],[-152.943637,-83.648346],[-152.928891,-83.570146],[-152.943909,-83.543064],[-152.972091,-83.444873],[-152.943219,-83.383482],[-152.927246,-83.366955],[-152.928073,-83.340837],[-152.965164,-83.286955],[-153.031682,-83.223973],[-153.054173,-83.151946],[-153.007509,-83.08751],[-152.800846,-82.97501],[-152.668919,-82.92001],[-152.491119,-82.879728],[-152.328064,-82.81751],[-152.1189,-82.778628],[-151.958891,-82.730282],[-151.803619,-82.636673],[-151.780019,-82.601537],[-151.794191,-82.577791],[-151.853364,-82.549182],[-152.008055,-82.504728],[-152.3428,-82.443346],[-152.919737,-82.355837],[-153.942782,-82.140564],[-154.423891,-82.069455],[-154.4689,-82.0525],[-154.4603,-82.034182],[-154.427937,-82.019182],[-154.409119,-81.994728],[-154.446409,-81.974455],[-154.7692,-81.933628],[-154.839755,-81.920564],[-154.887864,-81.8932],[-154.786819,-81.812373],[-154.723637,-81.786119],[-154.620846,-81.763337],[-154.364746,-81.726964],[-154.0,-81.648346],[-153.992937,-81.622091],[-154.085846,-81.584455],[-154.205019,-81.552228],[-154.498082,-81.495282],[-155.0625,-81.430555],[-155.403628,-81.38001],[-155.897246,-81.336946],[-156.733337,-81.31111],[-156.880009,-81.294173],[-156.940846,-81.276946],[-156.956055,-81.2523],[-156.935028,-81.23251],[-156.755009,-81.140019],[-156.546419,-81.096955],[-155.6514,-81.035846],[-155.3139,-81.005846],[-154.921691,-81.001955],[-154.245846,-81.033619],[-153.711119,-81.071946],[-153.096955,-81.0789],[-152.605009,-81.118346],[-151.798891,-81.127228],[-151.680846,-81.134737],[-151.547519,-81.156682],[-151.324737,-81.225282],[-151.060028,-81.275282],[-150.770019,-81.313619],[-150.455846,-81.337237],[-150.083073,-81.352782],[-149.221682,-81.363064],[-148.413364,-81.35751],[-148.419464,-81.337782],[-148.405582,-81.298891],[-148.355146,-81.251255],[-148.259737,-81.2139],[-148.196682,-81.17001],[-148.182646,-81.151719],[-148.138064,-81.126955],[-148.060028,-81.101391],[-147.451419,-80.963628],[-147.000582,-80.846391],[-146.206973,-80.683337],[-145.885837,-80.630573],[-145.616973,-80.54001],[-145.522382,-80.483337],[-145.524173,-80.460555],[-145.580582,-80.376537],[-145.621673,-80.3325],[-145.697509,-80.288073],[-146.028073,-80.190846],[-146.180846,-80.129455],[-146.283628,-80.072237],[-146.351409,-80.015291],[-146.439728,-79.971391],[-146.653073,-79.916946],[-146.811955,-79.88751],[-147.574737,-79.767791],[-148.4903,-79.662228],[-148.751128,-79.60751],[-149.397519,-79.599164],[-149.990019,-79.524446],[-150.290009,-79.494737],[-151.170837,-79.376955],[-151.896119,-79.267228],[-152.134464,-79.209164],[-152.344173,-79.177228],[-152.724455,-79.158619],[-153.034182,-79.1564],[-153.419191,-79.125],[-153.857237,-79.1064],[-154.298064,-79.057237],[-154.4689,-79.030019],[-154.640837,-78.990282],[-154.8414,-78.924455],[-155.9064,-78.719728],[-155.983064,-78.693619],[-156.013973,-78.663755],[-155.9953,-78.647237],[-155.946409,-78.636128],[-155.508364,-78.586673],[-155.235291,-78.5639],[-154.346955,-78.514173],[-154.185855,-78.496128],[-153.991391,-78.463628],[-153.884328,-78.434319],[-153.852509,-78.418628],[-153.759937,-78.342437],[-153.750446,-78.311673],[-153.761964,-78.28501],[-153.790709,-78.25611],[-153.860291,-78.217228],[-154.009182,-78.16501],[-154.210846,-78.119446],[-154.366973,-78.101964],[-154.527255,-78.099455],[-154.810855,-78.124455],[-155.069182,-78.161955],[-155.514737,-78.190564],[-155.769473,-78.178619],[-156.047791,-78.148619],[-156.114746,-78.1514],[-156.187382,-78.162928],[-156.209164,-78.173619],[-156.277164,-78.244937],[-156.320555,-78.262219],[-156.395846,-78.280837],[-156.5614,-78.288619],[-156.839173,-78.265291],[-157.004182,-78.210555],[-157.229464,-78.150846],[-157.910282,-78.001955],[-158.082791,-77.938337],[-158.123764,-77.916119],[-158.158619,-77.886128],[-158.167646,-77.846946],[-158.0096,-77.781819],[-158.006682,-77.758346],[-158.062809,-77.704728],[-158.080019,-77.673764],[-158.063082,-77.657791],[-157.971955,-77.6339],[-157.747528,-77.60251],[-157.700719,-77.57751],[-157.701691,-77.550564],[-157.741673,-77.407791],[-157.8139,-77.38361],[-157.844173,-77.3639],[-157.848282,-77.31501],[-157.803073,-77.269182],[-157.757382,-77.248482],[-157.741819,-77.224728],[-157.762791,-77.204455],[-157.818637,-77.178891],[-157.854109,-77.148682],[-157.823637,-77.1264],[-157.753082,-77.108064],[-157.572782,-77.084455],[-157.431946,-77.0914],[-157.367937,-77.106255],[-157.340146,-77.119873],[-157.329182,-77.136673],[-157.283909,-77.17001],[-157.039737,-77.258346],[-156.840028,-77.283064],[-156.688355,-77.335846],[-156.483337,-77.35861],[-156.342528,-77.318619],[-156.158082,-77.289464],[-156.077791,-77.267928],[-156.060155,-77.248346],[-156.086546,-77.2282],[-156.213628,-77.185564],[-156.228909,-77.168764],[-156.165282,-77.139728],[-155.948055,-77.094455],[-155.799473,-77.080564],[-155.6828,-77.0789],[-155.538082,-77.082782],[-155.192782,-77.110564],[-155.078919,-77.089173],[-155.020291,-77.086946],[-154.981946,-77.094728],[-154.901673,-77.137791],[-154.873082,-77.141955],[-154.579191,-77.126682],[-154.201419,-77.187791],[-153.939182,-77.169728],[-153.822237,-77.1725],[-153.731964,-77.185291],[-153.636409,-77.215837],[-153.401673,-77.229173],[-153.254455,-77.2464],[-153.110291,-77.274173],[-152.988346,-77.345],[-152.972382,-77.37161],[-153.0325,-77.38751],[-153.184173,-77.395846],[-153.2171,-77.405564],[-153.238891,-77.432991],[-153.223355,-77.45361],[-153.172519,-77.482928],[-153.106419,-77.497228],[-152.441128,-77.475573],[-152.295291,-77.460282],[-152.228073,-77.436528],[-152.198346,-77.4146],[-152.188064,-77.391255],[-152.191273,-77.349591],[-152.175846,-77.335555],[-152.0878,-77.324719],[-152.028073,-77.32861],[-151.911955,-77.366955],[-151.854464,-77.376682],[-151.734746,-77.38251],[-151.494446,-77.376682],[-151.227509,-77.389728],[-151.141691,-77.40611],[-151.098355,-77.472782],[-150.941682,-77.495564],[-150.827791,-77.527237],[-150.425019,-77.595837],[-149.884464,-77.73251],[-149.662228,-77.761128],[-149.419737,-77.761128],[-149.182864,-77.721328],[-149.097655,-77.694382],[-149.345,-77.6514],[-149.488282,-77.59771],[-149.471682,-77.580846],[-149.414182,-77.570846],[-149.198337,-77.5739],[-148.981964,-77.5975],[-148.857237,-77.625564],[-148.673891,-77.619446],[-148.617246,-77.608064],[-148.580428,-77.58751],[-148.574309,-77.562091],[-148.614046,-77.513619],[-148.581119,-77.504455],[-148.053891,-77.458073],[-147.815582,-77.45361],[-147.5914,-77.422228],[-147.562791,-77.401537],[-147.5246,-77.305982],[-147.467228,-77.294446],[-147.407228,-77.295837],[-147.218355,-77.3264],[-147.182646,-77.3357],[-147.173619,-77.358755],[-147.1564,-77.370837],[-147.099455,-77.377228],[-147.068073,-77.361255],[-147.113346,-77.321537],[-147.112382,-77.241246],[-147.032228,-77.220837],[-146.880864,-77.221955],[-146.775573,-77.244446],[-146.521973,-77.336391],[-146.322509,-77.455846],[-146.268619,-77.4664],[-146.240291,-77.463055],[-146.014737,-77.412782],[-145.990419,-77.402228],[-145.989946,-77.3757],[-146.009537,-77.3455],[-145.921691,-77.325837],[-145.884464,-77.309664],[-145.903782,-77.290837],[-145.934173,-77.281673],[-146.107509,-77.246946],[-146.148209,-77.231537],[-146.221819,-77.16181],[-146.008637,-77.161119],[-145.845291,-77.105428],[-145.869173,-77.087237],[-145.889464,-77.0825],[-146.200837,-77.035846],[-146.284746,-77.014455],[-146.301255,-77.002091],[-146.282364,-76.987782],[-146.223909,-76.974164],[-146.166409,-76.972782],[-145.921109,-77.002228],[-145.684446,-77.008619],[-145.432528,-77.040846],[-145.342228,-77.040282],[-145.298891,-77.029173],[-145.3728,-76.952519],[-145.415555,-76.933337],[-145.5025,-76.918337],[-145.822782,-76.899173],[-146.084319,-76.849728],[-146.102237,-76.84001],[-145.994173,-76.826673],[-145.599182,-76.812791],[-145.494755,-76.794173],[-145.470446,-76.7839],[-145.461337,-76.759037],[-145.521664,-76.735837],[-145.780582,-76.695555],[-146.083891,-76.665282],[-146.303346,-76.612228],[-146.545291,-76.526128],[-146.721128,-76.486119],[-146.932255,-76.451955],[-147.240846,-76.4489],[-147.693637,-76.418337],[-147.920009,-76.415846],[-148.034682,-76.431719],[-148.109191,-76.47],[-148.189182,-76.4964],[-148.298337,-76.50501],[-148.872228,-76.457782],[-149.382509,-76.425564],[-149.487246,-76.4075],[-149.503346,-76.382155],[-149.486973,-76.354446],[-149.418337,-76.320846],[-149.287509,-76.295564],[-149.177791,-76.283891],[-148.903355,-76.280837],[-148.691955,-76.262219],[-148.660155,-76.254173],[-148.613064,-76.194591],[-148.539737,-76.163346],[-148.289737,-76.103346],[-148.101291,-76.095655],[-147.9892,-76.1064],[-147.741391,-76.164464],[-147.341128,-76.213628],[-147.196682,-76.224164],[-147.103619,-76.242782],[-146.935028,-76.29501],[-146.491673,-76.36751],[-146.374455,-76.374173],[-145.785582,-76.446946],[-145.640291,-76.4514],[-145.479464,-76.443346],[-145.425019,-76.435564],[-145.398073,-76.418346],[-145.398209,-76.349873],[-145.420437,-76.327237],[-145.496673,-76.299455],[-145.754728,-76.27751],[-145.902255,-76.243055],[-146.1553,-76.138064],[-146.287228,-76.10251],[-146.295291,-76.039737],[-146.112246,-75.930282],[-146.073637,-75.915555],[-145.976682,-75.898891],[-145.868346,-75.895],[-145.699191,-75.909728],[-145.263646,-75.916946],[-145.052519,-75.903064],[-144.778355,-75.868055],[-144.507509,-75.870564],[-144.206391,-75.837782],[-144.207246,-75.788619],[-144.255846,-75.730428],[-144.261537,-75.701255],[-144.248355,-75.681255],[-144.170564,-75.664464],[-143.909182,-75.652782],[-143.665864,-75.616955],[-143.3678,-75.589737],[-143.045009,-75.607228],[-142.848637,-75.637219],[-142.745573,-75.636128],[-142.674746,-75.619173],[-142.649873,-75.593419],[-142.669528,-75.547782],[-142.6153,-75.493482],[-142.566409,-75.480564],[-142.4328,-75.479173],[-142.178891,-75.500837],[-141.601964,-75.496673],[-141.210019,-75.518891],[-140.243619,-75.466946],[-140.128628,-75.449173],[-139.995028,-75.416946],[-139.726964,-75.290846],[-139.506955,-75.16501],[-139.327791,-75.106673],[-139.182528,-75.091946],[-138.917509,-75.09361],[-138.571409,-75.076673],[-137.683628,-75.076128],[-137.550982,-75.06501],[-137.5,-75.033064],[-137.453337,-75.025282],[-137.098637,-75.017228],[-136.976682,-75.006391],[-136.8714,-74.982791],[-136.801464,-74.943964],[-136.717437,-74.82751],[-136.756819,-74.769664],[-136.737519,-74.751682],[-136.667237,-74.74501],[-136.509182,-74.748064],[-136.360291,-74.719455],[-136.2428,-74.708891],[-135.910582,-74.729737],[-135.814182,-74.723619],[-135.762646,-74.710837],[-135.6664,-74.657091],[-135.584473,-74.628346],[-135.357237,-74.597782],[-135.042237,-74.579455],[-134.5889,-74.573628],[-134.303891,-74.532791],[-134.274746,-74.537782],[-134.130982,-74.672991],[-134.1514,-74.702019],[-134.148346,-74.722364],[-134.129728,-74.731128],[-133.8728,-74.754728],[-133.824191,-74.767373],[-133.778628,-74.794873],[-133.762791,-74.820701],[-133.732791,-74.831955],[-133.414464,-74.833891],[-133.262509,-74.847228],[-132.949191,-74.806946],[-132.761137,-74.751119],[-132.632509,-74.729173],[-132.518619,-74.741391],[-132.352782,-74.774173],[-132.275173,-74.777082],[-132.069737,-74.732791],[-131.842228,-74.723891],[-131.728909,-74.727237],[-131.501682,-74.780837],[-131.386409,-74.794446],[-130.876955,-74.775282],[-130.534182,-74.774173],[-130.370573,-74.788619],[-130.228637,-74.816682],[-130.000309,-74.848073],[-129.6503,-74.861391],[-129.304473,-74.825837],[-129.162509,-74.830001],[-128.857509,-74.784728],[-128.638919,-74.787782],[-128.577237,-74.774446],[-128.476409,-74.737228],[-128.4328,-74.730837],[-127.993346,-74.702519],[-127.800564,-74.672501],[-127.623064,-74.681401],[-127.438609,-74.664173],[-127.140009,-74.668901],[-126.978619,-74.646119],[-126.8114,-74.634737],[-126.048609,-74.664173],[-125.650282,-74.655564],[-125.291119,-74.673891],[-124.839446,-74.65001],[-124.294164,-74.714446],[-124.084455,-74.723073],[-123.776946,-74.720001],[-123.470837,-74.743346],[-123.271664,-74.732228],[-123.086937,-74.69751],[-122.925,-74.679173],[-122.743619,-74.672791],[-122.592791,-74.67751],[-122.359173,-74.71001],[-121.966664,-74.695555],[-121.536955,-74.743346],[-121.478346,-74.74251],[-121.317782,-74.723073],[-121.013637,-74.707501],[-120.6564,-74.711391],[-120.255837,-74.659455],[-119.913619,-74.657501],[-119.195555,-74.603619],[-118.531682,-74.613619],[-118.380573,-74.579728],[-118.353055,-74.567228],[-118.345909,-74.535573],[-118.3689,-74.515291],[-118.500837,-74.476964],[-118.537091,-74.455701],[-118.525146,-74.433891],[-118.481946,-74.421401],[-118.193073,-74.396955],[-117.743055,-74.308628],[-117.659446,-74.308337],[-117.618273,-74.321191],[-117.629582,-74.341537],[-117.654164,-74.349164],[-117.62,-74.47591],[-117.558328,-74.505573],[-117.396955,-74.530837],[-116.764455,-74.547228],[-116.166673,-74.524737],[-115.988064,-74.525282],[-115.944737,-74.517791],[-115.881255,-74.491673],[-115.837646,-74.440846],[-115.8175,-74.430846],[-115.7314,-74.409455],[-115.631337,-74.419601],[-115.543619,-74.473619],[-115.433328,-74.493346],[-115.235,-74.488619],[-115.021119,-74.456391],[-114.933064,-74.454182],[-114.697773,-74.469173],[-114.655291,-74.461673],[-114.639455,-74.442228],[-114.640837,-74.325573],[-114.720419,-74.292573],[-114.806673,-74.168337],[-114.816955,-74.136673],[-114.806737,-74.103146],[-114.6539,-74.009446],[-114.552509,-73.964591],[-114.455,-73.952228],[-114.279446,-73.951401],[-114.101673,-73.897782],[-114.003619,-73.889173],[-113.864464,-73.907501],[-113.787509,-73.936255],[-113.762855,-73.96251],[-113.806537,-74.005073],[-113.776946,-74.021391],[-113.347928,-74.066401],[-113.313064,-74.075564],[-113.184864,-74.18501],[-113.364182,-74.223346],[-113.51,-74.301955],[-113.5175,-74.332782],[-113.494173,-74.393891],[-113.448346,-74.462791],[-113.424173,-74.47431],[-113.363891,-74.479173],[-113.150555,-74.436673],[-113.033628,-74.422791],[-112.956128,-74.431401],[-112.933619,-74.446955],[-112.949455,-74.475701],[-112.988346,-74.493482],[-113.270846,-74.572237],[-113.5489,-74.631391],[-113.445419,-74.706401],[-113.378064,-74.712782],[-113.1514,-74.69501],[-112.9425,-74.708073],[-112.721946,-74.685837],[-112.637219,-74.684728],[-112.590209,-74.704801],[-112.604173,-74.727373],[-112.703273,-74.755419],[-112.737782,-74.788473],[-112.735837,-74.817219],[-112.716946,-74.839173],[-112.654164,-74.85861],[-112.129182,-74.859455],[-111.903346,-74.806946],[-111.578337,-74.797501],[-111.397509,-74.774173],[-111.343064,-74.759446],[-111.326109,-74.732928],[-111.340837,-74.711537],[-111.4364,-74.693346],[-111.559037,-74.682646],[-111.701664,-74.611401],[-111.721328,-74.590982],[-111.6989,-74.545291],[-111.651264,-74.514028],[-111.598346,-74.496946],[-111.4575,-74.49001],[-111.409319,-74.480564],[-111.389028,-74.46681],[-111.401946,-74.448901],[-111.425291,-74.436401],[-111.519446,-74.398891],[-111.647373,-74.291819],[-111.649037,-74.267101],[-111.629046,-74.239028],[-111.503891,-74.191682],[-111.377791,-74.170564],[-111.191964,-74.183337],[-110.957228,-74.18251],[-110.816682,-74.201401],[-110.783337,-74.215428],[-110.736391,-74.252228],[-110.669728,-74.270001],[-110.608337,-74.269455],[-110.513637,-74.248337],[-110.352228,-74.243346],[-110.233609,-74.259446],[-110.154719,-74.284182],[-110.054873,-74.39001],[-109.9996,-74.471401],[-109.962928,-74.546955],[-110.050564,-74.632782],[-110.140764,-74.660701],[-110.113764,-74.687928],[-109.97,-74.728346],[-109.931046,-74.748691],[-109.943755,-74.771391],[-110.3325,-74.847501],[-110.398619,-74.868619],[-110.544164,-74.943346],[-110.774437,-74.962782],[-110.789028,-74.9782],[-110.756664,-74.986391],[-110.608064,-74.990282],[-110.585419,-74.998482],[-110.588055,-75.019182],[-110.669728,-75.064728],[-110.8239,-75.098619],[-110.923609,-75.13001],[-110.956391,-75.152991],[-110.9339,-75.172646],[-110.910846,-75.18001],[-110.626119,-75.225146],[-110.527237,-75.2764],[-110.383055,-75.306119],[-110.340282,-75.303619],[-110.152782,-75.2639],[-109.9432,-75.244728],[-109.648355,-75.148891],[-109.553891,-75.127228],[-109.068619,-75.128891],[-108.943337,-75.133055],[-108.852509,-75.147782],[-108.7432,-75.1975],[-108.629182,-75.219455],[-108.478619,-75.229173],[-108.195846,-75.223346],[-108.059728,-75.235291],[-107.960855,-75.256391],[-107.908482,-75.276119],[-107.8657,-75.318891],[-107.815846,-75.330291],[-107.764719,-75.329728],[-107.609737,-75.304737],[-107.355009,-75.298619],[-107.2139,-75.309173],[-107.0414,-75.349455],[-106.979446,-75.347782],[-106.875009,-75.332091],[-106.828055,-75.293064],[-106.465009,-75.289737],[-106.283337,-75.271391],[-106.205564,-75.249737],[-106.164455,-75.196255],[-106.139455,-75.188337],[-105.9989,-75.178073],[-105.863346,-75.13001],[-105.834455,-75.127228],[-105.626682,-75.116391],[-105.3539,-75.115573],[-104.963346,-75.06751],[-104.709455,-75.065],[-104.316119,-75.035282],[-103.898619,-75.054173],[-103.338055,-75.028337],[-103.059446,-75.04501],[-102.6425,-75.052782],[-102.511128,-75.063619],[-102.146,-75.062882],[-102.111819,-75.068755],[-102.081946,-75.084737],[-102.063819,-75.105937],[-102.053346,-75.169728],[-102.037228,-75.19501],[-101.919164,-75.2289],[-101.337782,-75.28751],[-101.088346,-75.303346],[-100.831391,-75.307782],[-100.727782,-75.291955],[-100.699446,-75.272155],[-100.684864,-75.232791],[-100.664455,-75.212091],[-100.6364,-75.204182],[-100.464737,-75.207228],[-100.013346,-75.263337],[-99.900555,-75.254728],[-99.803891,-75.233337],[-99.6564,-75.171673],[-99.537228,-75.112791],[-99.513891,-75.096264],[-99.498346,-75.070282],[-99.510009,-75.039873],[-99.538073,-75.01251],[-99.581955,-74.985837],[-99.672791,-74.941119],[-99.7939,-74.907501],[-99.8739,-74.903337],[-100.100855,-74.915282],[-100.261128,-74.914737],[-100.720564,-74.859728],[-100.815137,-74.838337],[-100.845837,-74.818546],[-100.832782,-74.797646],[-100.318337,-74.784728],[-100.205564,-74.775282],[-100.151746,-74.757155],[-100.154446,-74.734455],[-100.206255,-74.709864],[-100.255282,-74.700564],[-100.401128,-74.696119],[-100.4807,-74.684591],[-100.505973,-74.668546],[-100.429455,-74.648619],[-100.202219,-74.629455],[-100.143755,-74.612991],[-100.155837,-74.595837],[-100.307782,-74.557782],[-100.319664,-74.538337],[-100.224928,-74.508055],[-100.248064,-74.490846],[-100.364455,-74.471264],[-100.389873,-74.459028],[-100.407491,-74.434446],[-100.434446,-74.427228],[-100.650555,-74.420837],[-101.035564,-74.487501],[-101.143064,-74.498337],[-101.254728,-74.495564],[-101.378619,-74.463901],[-101.403346,-74.451673],[-101.437791,-74.371673],[-101.490709,-74.291946],[-101.527782,-74.264455],[-101.6339,-74.216673],[-101.662228,-74.175846],[-101.696391,-74.067364],[-101.693064,-74.042782],[-101.656246,-74.009319],[-101.673337,-73.993901],[-101.785282,-73.988619],[-101.971391,-73.996128],[-102.007646,-73.992237],[-102.0377,-73.972782],[-102.049728,-73.951401],[-102.074455,-73.933901],[-102.102782,-73.92751],[-102.188609,-73.931119],[-102.366391,-73.956682],[-102.420419,-73.947782],[-102.453064,-73.929246],[-102.458346,-73.906955],[-102.480009,-73.899446],[-102.744455,-73.894728],[-102.9014,-73.875837],[-102.930282,-73.865282],[-102.949928,-73.833964],[-102.906109,-73.779455],[-102.814446,-73.731955],[-102.829791,-73.704728],[-103.004728,-73.658201],[-103.013346,-73.637928],[-103.003064,-73.614182],[-102.948628,-73.593064],[-102.835564,-73.585555],[-102.242237,-73.590837],[-101.989182,-73.619173],[-101.738064,-73.625837],[-101.4339,-73.65611],[-101.218337,-73.716946],[-101.096128,-73.737228],[-100.941391,-73.745282],[-100.567782,-73.724455],[-100.310564,-73.750001],[-100.055282,-73.741673],[-99.953064,-73.731128],[-99.891682,-73.719173],[-99.785282,-73.677782],[-99.662228,-73.654446],[-99.573064,-73.654446],[-99.395846,-73.676682],[-99.311673,-73.671955],[-99.207228,-73.645282],[-99.176537,-73.624591],[-99.195555,-73.610564],[-99.240282,-73.606673],[-99.408619,-73.604737],[-99.865973,-73.488619],[-99.880009,-73.42501],[-99.916119,-73.411664],[-100.2675,-73.400846],[-100.460855,-73.366391],[-100.671673,-73.356401],[-100.879728,-73.363891],[-101.057509,-73.353619],[-101.146955,-73.356673],[-101.410846,-73.338901],[-101.781955,-73.351964],[-102.060837,-73.320846],[-102.689182,-73.351964],[-102.9789,-73.33751],[-103.036119,-73.326401],[-103.330564,-73.205001],[-103.408673,-73.130419],[-103.408619,-73.101673],[-103.474455,-73.010846],[-103.601119,-72.896119],[-103.597091,-72.871537],[-103.445691,-72.789591],[-103.228055,-72.737791],[-103.004464,-72.735291],[-102.800846,-72.756664],[-102.636946,-72.749173],[-102.502637,-72.758901],[-102.318746,-72.806119],[-102.357791,-72.911391],[-102.448755,-72.963482],[-102.632091,-72.98501],[-102.663191,-73.002582],[-102.641819,-73.021673],[-102.533619,-73.030291],[-102.122228,-73.008473],[-102.105837,-73.027855],[-102.157364,-73.071182],[-102.099164,-73.084737],[-101.982228,-73.082501],[-101.259455,-72.996401],[-100.781955,-73.023891],[-100.618055,-73.088055],[-100.5289,-73.098619],[-100.3932,-73.084591],[-100.323628,-73.054737],[-100.284728,-73.048064],[-100.085282,-73.036391],[-99.950291,-73.040846],[-99.871946,-73.054173],[-99.794446,-73.057237],[-99.598619,-73.019182],[-99.306428,-72.99841],[-99.0739,-72.995837],[-98.918064,-72.973619],[-98.806673,-72.974164],[-98.449173,-72.998901],[-98.159728,-73.00501],[-98.039464,-73.023619],[-97.9639,-73.054455],[-97.966946,-73.074582],[-98.004455,-73.090282],[-98.162509,-73.121673],[-98.202546,-73.14261],[-98.177228,-73.158619],[-97.829182,-73.147237],[-97.628619,-73.155837],[-97.464737,-73.180555],[-97.303891,-73.216401],[-97.0514,-73.232373],[-96.9682,-73.266537],[-96.9039,-73.280019],[-96.518891,-73.306119],[-96.269182,-73.303346],[-96.08751,-73.318891],[-96.007237,-73.31111],[-95.956955,-73.297228],[-95.886128,-73.263901],[-95.769182,-73.24751],[-95.573628,-73.243055],[-95.404446,-73.22751],[-95.115573,-73.231946],[-94.774173,-73.226119],[-94.6032,-73.240428],[-94.525282,-73.260837],[-94.473482,-73.290982],[-94.395846,-73.310837],[-94.30251,-73.317782],[-94.16,-73.315001],[-93.929455,-73.289173],[-93.909728,-73.273201],[-93.904791,-73.237373],[-93.846119,-73.218901],[-93.63001,-73.228346],[-93.584737,-73.217091],[-93.587364,-73.193619],[-93.535282,-73.176119],[-93.3439,-73.174455],[-93.148346,-73.20361],[-92.912228,-73.216673],[-92.893346,-73.209319],[-92.925355,-73.184382],[-92.898346,-73.176119],[-92.673064,-73.171401],[-92.451955,-73.153628],[-92.282228,-73.161119],[-91.69251,-73.24501],[-91.293064,-73.256119],[-91.149737,-73.275846],[-90.944737,-73.318891],[-90.861119,-73.326673],[-90.788346,-73.315564],[-90.670837,-73.266401],[-90.343337,-73.163619],[-90.269728,-73.153901],[-90.131119,-73.150555],[-89.860291,-73.170837],[-89.7464,-73.165282],[-89.637219,-73.144728],[-89.594455,-73.111119],[-89.567228,-73.100291],[-89.358891,-73.067228],[-89.321055,-73.052437],[-89.237091,-72.904173],[-89.280155,-72.780019],[-89.316955,-72.714446],[-89.338628,-72.693755],[-89.40251,-72.666119],[-89.512928,-72.650701],[-89.52841,-72.633419],[-89.376682,-72.633055],[-88.529728,-72.704455],[-88.338182,-72.821155],[-88.349728,-72.84361],[-88.374455,-72.854446],[-88.551391,-72.892501],[-88.644182,-72.94251],[-88.609728,-72.966401],[-88.591119,-72.996746],[-88.595837,-73.023901],[-88.616119,-73.039173],[-88.795291,-73.086673],[-88.825219,-73.10841],[-88.827519,-73.133055],[-88.78681,-73.15931],[-88.709164,-73.179455],[-88.478346,-73.205564],[-88.378619,-73.208346],[-88.314873,-73.200564],[-88.228619,-73.158064],[-88.132237,-73.135837],[-87.963055,-73.168901],[-87.64111,-73.157501],[-87.563337,-73.17931],[-87.517582,-73.218064],[-87.4664,-73.24501],[-87.320282,-73.290555],[-87.211119,-73.315291],[-87.048619,-73.338628],[-86.840837,-73.336391],[-86.698628,-73.315846],[-86.578619,-73.263901],[-86.510555,-73.24861],[-86.328337,-73.248064],[-86.222228,-73.220837],[-86.135555,-73.175001],[-86.11001,-73.13931],[-86.102782,-73.084737],[-86.089728,-73.057928],[-86.070255,-73.042291],[-85.976391,-73.040428],[-85.948055,-73.059801],[-85.959446,-73.087155],[-85.921955,-73.172791],[-85.8475,-73.230837],[-85.763628,-73.271119],[-85.565673,-73.295346],[-85.543064,-73.303346],[-85.481328,-73.352364],[-85.548064,-73.375564],[-85.687791,-73.458346],[-85.726537,-73.496128],[-85.708619,-73.522646],[-85.599728,-73.558337],[-85.125564,-73.640019],[-84.73251,-73.680846],[-84.451955,-73.680555],[-83.845291,-73.651128],[-83.689873,-73.656255],[-83.634446,-73.66931],[-83.554737,-73.715564],[-83.51251,-73.729173],[-83.34761,-73.753201],[-83.178891,-73.81001],[-83.119737,-73.821401],[-82.979173,-73.829182],[-82.607791,-73.816391],[-82.422928,-73.82251],[-82.346119,-73.846955],[-82.329591,-73.882855],[-82.3039,-73.911537],[-82.243346,-73.931119],[-82.134173,-73.943346],[-82.001119,-73.928619],[-81.614455,-73.851119],[-81.503064,-73.84361],[-81.308337,-73.85001],[-81.229046,-73.838064],[-81.222782,-73.776264],[-81.204873,-73.75681],[-81.063619,-73.726673],[-81.037091,-73.705282],[-81.048337,-73.676119],[-81.166537,-73.593482],[-81.266955,-73.540982],[-81.302928,-73.505355],[-81.307782,-73.428073],[-81.301682,-73.40001],[-81.282091,-73.37361],[-81.255282,-73.363891],[-81.176391,-73.355837],[-80.946673,-73.36501],[-80.8682,-73.390146],[-80.837646,-73.420701],[-80.8114,-73.430555],[-80.605282,-73.459455],[-80.526955,-73.449455],[-80.502791,-73.428073],[-80.483419,-73.358619],[-80.519182,-73.244873],[-80.5625,-73.217519],[-80.698337,-73.173619],[-80.728055,-73.159182],[-80.751255,-73.135419],[-80.768346,-73.08751],[-80.758064,-73.068482],[-80.695555,-73.050564],[-80.585555,-73.054173],[-80.449446,-73.080846],[-80.2814,-73.098891],[-80.021391,-73.101391],[-79.849455,-73.116673],[-79.728619,-73.154173],[-79.545564,-73.237228],[-79.46001,-73.267501],[-78.958891,-73.392501],[-78.886673,-73.422091],[-78.855846,-73.44501],[-78.832228,-73.468482],[-78.805137,-73.515701],[-78.80751,-73.55751],[-78.8439,-73.610001],[-78.860691,-73.659237],[-78.8382,-73.680146],[-78.789737,-73.693073],[-78.7225,-73.695846],[-78.613619,-73.686955],[-78.112791,-73.599728],[-77.40001,-73.523619],[-77.30251,-73.522782],[-77.142791,-73.555282],[-77.098891,-73.557237],[-76.780564,-73.532228],[-76.654037,-73.557919],[-76.624037,-73.572782],[-76.608891,-73.590282],[-76.613064,-73.618201],[-76.638064,-73.636128],[-76.852237,-73.727237],[-77.029728,-73.786955],[-77.092646,-73.818891],[-77.0907,-73.846682],[-77.069737,-73.85861],[-76.962782,-73.873064],[-76.855564,-73.862501],[-76.631664,-73.806946],[-76.441119,-73.788891],[-76.39111,-73.78751],[-76.356119,-73.801673],[-76.335282,-73.82001],[-76.29001,-73.825837],[-76.116955,-73.823628],[-75.665282,-73.740846],[-75.497228,-73.722782],[-75.2039,-73.66251],[-74.811673,-73.674728],[-74.604737,-73.738064],[-74.558628,-73.745282],[-74.52681,-73.742373],[-74.475973,-73.710982],[-74.4389,-73.699591],[-74.1425,-73.656401],[-74.073628,-73.661955],[-73.9789,-73.703064],[-73.93251,-73.710282],[-73.804728,-73.663482],[-73.743337,-73.62501],[-73.437228,-73.53111],[-73.368055,-73.541946],[-73.323337,-73.569737],[-73.228619,-73.572782],[-73.1899,-73.547919],[-73.185428,-73.518755],[-73.070846,-73.488891],[-72.8689,-73.472782],[-72.591946,-73.476964],[-72.446673,-73.43001],[-72.342519,-73.416673],[-72.18251,-73.412782],[-71.772237,-73.38001],[-71.564728,-73.38001],[-71.418337,-73.368055],[-71.150282,-73.288619],[-70.7189,-73.273346],[-70.344455,-73.293346],[-70.0,-73.246548],[-70.0,-72.631048],[-70.515019,-72.692782],[-70.579728,-72.685564],[-70.6264,-72.671673],[-70.668064,-72.646664],[-70.726673,-72.633901],[-70.793337,-72.637219],[-70.908891,-72.677228],[-70.982228,-72.68611],[-71.362228,-72.647237],[-71.5739,-72.661955],[-71.787228,-72.647237],[-72.083346,-72.687501],[-72.3089,-72.728346],[-72.376119,-72.727782],[-72.416946,-72.722228],[-72.528064,-72.67001],[-72.688337,-72.618346],[-72.908064,-72.563619],[-73.146119,-72.474455],[-73.1725,-72.459737],[-73.193755,-72.436119],[-73.182373,-72.409173],[-73.152228,-72.390428],[-73.010837,-72.343901],[-72.874173,-72.321401],[-72.636946,-72.299182],[-72.5114,-72.307782],[-72.423482,-72.325973],[-72.307237,-72.362791],[-72.226673,-72.37001],[-71.997791,-72.361955],[-71.799728,-72.393346],[-71.675,-72.404173],[-71.343337,-72.405837],[-71.153628,-72.415555],[-70.974728,-72.408337],[-70.794582,-72.386946],[-70.741673,-72.367782],[-70.66751,-72.27251],[-70.541673,-72.21861],[-70.524182,-72.204455],[-70.607646,-72.176537],[-70.6389,-72.176391],[-70.7914,-72.234455],[-70.934728,-72.263628],[-71.172791,-72.296401],[-71.306673,-72.300291],[-71.434446,-72.291401],[-71.724164,-72.232228],[-71.930555,-72.214737],[-72.036673,-72.196682],[-72.057646,-72.176464],[-72.024182,-72.153064],[-71.970564,-72.144728],[-71.779446,-72.151946],[-71.747364,-72.145001],[-71.700564,-72.104446],[-71.678891,-72.101119],[-71.214173,-72.09001],[-71.005282,-72.068346],[-70.976391,-72.060291],[-70.950637,-72.040146],[-70.975146,-72.006673],[-71.05,-71.991119],[-71.248337,-72.020846],[-71.4364,-72.011401],[-71.480837,-72.000564],[-71.4898,-71.973128],[-71.508755,-71.952782],[-71.536391,-71.945555],[-71.748337,-71.937791],[-71.850146,-71.917091],[-71.98361,-71.831391],[-72.10001,-71.771391],[-72.122091,-71.749455],[-72.147646,-71.69751],[-72.165555,-71.679173],[-72.229737,-71.652782],[-72.3064,-71.644182],[-72.375564,-71.654446],[-72.41931,-71.674173],[-72.439864,-71.702928],[-72.624455,-71.751955],[-72.643619,-71.763337],[-72.667646,-71.845982],[-72.699173,-71.879728],[-72.757782,-71.909728],[-72.8925,-71.936955],[-73.133619,-71.949446],[-73.218064,-71.943891],[-73.335864,-71.92841],[-73.539173,-71.856673],[-73.6514,-71.86501],[-73.69251,-71.859728],[-73.802646,-71.824446],[-73.852782,-71.819737],[-73.890282,-71.829037],[-73.882782,-71.860001],[-73.857373,-71.884737],[-73.620419,-72.007373],[-73.583891,-72.044873],[-73.611119,-72.068346],[-73.88001,-72.151946],[-73.962646,-72.196255],[-74.043337,-72.208891],[-74.13001,-72.207501],[-74.2821,-72.188755],[-74.35001,-72.157228],[-74.416255,-72.101673],[-74.47751,-72.074173],[-74.560564,-72.056119],[-74.635282,-72.061401],[-74.673064,-72.102782],[-74.696673,-72.10501],[-74.988891,-72.034455],[-75.1839,-72.007237],[-75.313064,-71.98001],[-75.352782,-71.965701],[-75.388064,-71.938901],[-75.460637,-71.843137],[-75.428891,-71.833891],[-75.262646,-71.82251],[-75.256746,-71.79681],[-75.301391,-71.773055],[-75.413891,-71.755846],[-75.4739,-71.735837],[-75.491819,-71.712719],[-75.4664,-71.693073],[-75.287228,-71.646391],[-75.233755,-71.605982],[-75.188619,-71.587237],[-75.051391,-71.572237],[-74.8925,-71.589173],[-74.834564,-71.603428],[-74.762228,-71.670291],[-74.724591,-71.690564],[-74.555282,-71.681946],[-74.435837,-71.693073],[-74.396119,-71.663346],[-74.439728,-71.625564],[-74.509091,-71.510001],[-74.499655,-71.477155],[-74.414173,-71.438901],[-74.301119,-71.427228],[-74.136673,-71.435837],[-73.952519,-71.472782],[-73.904728,-71.487501],[-73.842655,-71.520428],[-73.83431,-71.574528],[-73.801673,-71.596537],[-73.610564,-71.638337],[-73.529173,-71.643346],[-73.475564,-71.637373],[-73.455982,-71.61591],[-73.506673,-71.534173],[-73.6639,-71.470555],[-73.694591,-71.374028],[-73.679173,-71.358064],[-73.645146,-71.344037],[-73.566682,-71.331955],[-73.421955,-71.331955],[-73.240573,-71.347228],[-73.075564,-71.38001],[-72.865564,-71.448482],[-72.836673,-71.451946],[-72.745837,-71.445846],[-72.55501,-71.393619],[-72.490573,-71.370837],[-72.42251,-71.332791],[-72.490419,-71.309246],[-72.962782,-71.240282],[-73.069455,-71.218064],[-73.157055,-71.188782],[-73.000791,-71.130001],[-72.926391,-71.115846],[-72.805282,-71.103764],[-72.600282,-71.119446],[-72.501119,-71.095837],[-72.410282,-71.086946],[-72.263628,-71.110291],[-72.140564,-71.145282],[-71.987364,-71.144582],[-71.724591,-71.184319],[-71.628891,-71.183628],[-71.453064,-71.164173],[-71.365564,-71.14001],[-71.336328,-71.123264],[-71.318346,-71.096673],[-71.321882,-71.068264],[-71.310837,-71.041119],[-71.235837,-71.026128],[-71.057237,-71.035001],[-71.011946,-71.044591],[-70.992228,-71.059319],[-70.981846,-71.094873],[-70.962782,-71.117782],[-70.9307,-71.136401],[-70.852237,-71.15611],[-70.66251,-71.182782],[-70.608755,-71.163064],[-70.589173,-71.141119],[-70.584591,-71.121128],[-70.617237,-71.07251],[-70.6532,-71.040419],[-70.743055,-70.985564],[-70.901946,-70.941391],[-70.942646,-70.911537],[-70.950564,-70.887791],[-70.940982,-70.848482],[-70.958619,-70.830564],[-71.020846,-70.803346],[-71.144182,-70.773891],[-71.513064,-70.708073],[-71.642228,-70.698628],[-71.875837,-70.713346],[-72.335282,-70.645573],[-72.427228,-70.620564],[-72.465428,-70.595291],[-72.467655,-70.574319],[-72.406955,-70.478755],[-72.369737,-70.448337],[-72.329455,-70.43001],[-72.241528,-70.410146],[-71.892228,-70.410846],[-71.860428,-70.40431],[-71.841946,-70.376119],[-71.847228,-70.349164],[-71.835564,-70.326528],[-71.787228,-70.320846],[-71.684582,-70.335291],[-71.582928,-70.326264],[-71.443073,-70.272782],[-71.394319,-70.239873],[-71.402364,-70.219037],[-71.423619,-70.208891],[-71.57501,-70.16751],[-71.677655,-70.124173],[-71.76751,-70.058346],[-71.796955,-70.019173],[-71.8157,-69.974455],[-71.808619,-69.897646],[-71.792091,-69.875837],[-71.66751,-69.815001],[-71.622091,-69.772373],[-71.625,-69.751682],[-71.658264,-69.702864],[-71.695146,-69.677791],[-71.762228,-69.657228],[-71.7858,-69.640273],[-71.7825,-69.62001],[-71.755846,-69.595291],[-71.688619,-69.560291],[-71.649373,-69.528264],[-71.664037,-69.506955],[-71.704728,-69.49251],[-71.8439,-69.471391],[-71.961391,-69.424455],[-72.111264,-69.404873],[-72.138337,-69.391537],[-72.147782,-69.373619],[-72.1364,-69.350837],[-72.198346,-69.25501],[-72.231537,-69.232373],[-72.249246,-69.205701],[-72.094455,-69.069873],[-71.601964,-68.935564],[-71.437228,-68.90001],[-71.167237,-68.860291],[-71.035,-68.867237],[-70.956955,-68.862791],[-70.8,-68.815001],[-70.699173,-68.79501],[-70.5164,-68.767791],[-70.435846,-68.771528],[-70.329455,-68.795291],[-70.164591,-68.845564],[-70.08751,-68.899737],[-70.011128,-69.064182],[-70.069873,-69.119864],[-70.086955,-69.259737],[-70.055973,-69.281255],[-70.0,-69.293246],[-70.0,-60.000001],[-180.0,-60.000001],[-180.0,-84.305346]],[[-163.805573,-79.144591],[-163.757237,-79.106528],[-163.582246,-79.043628],[-163.489864,-78.997655],[-163.468355,-78.975573],[-163.438491,-78.959873],[-163.173619,-78.9064],[-163.030855,-78.851964],[-162.845291,-78.748473],[-162.786137,-78.734173],[-162.650573,-78.716128],[-162.445864,-78.711946],[-162.133364,-78.741119],[-161.695555,-78.7439],[-161.557255,-78.77501],[-161.175846,-78.836391],[-160.928619,-78.940846],[-160.308346,-79.151946],[-159.887237,-79.241391],[-159.379455,-79.32501],[-159.247228,-79.359455],[-159.023073,-79.454728],[-158.976673,-79.504591],[-158.951964,-79.515019],[-158.5614,-79.645564],[-158.544464,-79.658482],[-158.536473,-79.721882],[-158.650846,-79.802782],[-158.726682,-79.828337],[-158.925291,-79.869173],[-159.046109,-79.880573],[-159.187228,-79.875],[-159.362519,-79.852782],[-160.109191,-79.865573],[-161.015019,-79.839446],[-161.1889,-79.82501],[-161.323055,-79.802782],[-161.591946,-79.74251],[-162.465028,-79.645573],[-162.838073,-79.574446],[-162.896137,-79.556673],[-162.9678,-79.518064],[-163.592228,-79.37251],[-163.645846,-79.350573],[-163.743073,-79.281673],[-163.816409,-79.2075],[-163.805573,-79.144591]],[[-151.191128,-77.264446],[-151.143619,-77.241673],[-150.954191,-77.203337],[-150.818909,-77.19501],[-150.679473,-77.206955],[-150.339173,-77.2914],[-150.095855,-77.329455],[-150.076419,-77.340564],[-150.128082,-77.361119],[-150.207519,-77.37001],[-150.505864,-77.356673],[-151.023619,-77.316391],[-151.148073,-77.296673],[-151.183628,-77.285282],[-151.192655,-77.275428],[-151.191128,-77.264446]],[[-150.732509,-76.9407],[-150.7067,-76.924728],[-150.625855,-76.910282],[-150.336391,-76.905564],[-149.829191,-76.863064],[-149.627809,-76.865846],[-149.478364,-76.898346],[-149.0889,-77.075837],[-149.072373,-77.09181],[-149.074464,-77.104182],[-149.125582,-77.118619],[-149.368619,-77.1275],[-149.545837,-77.120837],[-149.72,-77.091128],[-150.162509,-77.081391],[-150.274446,-77.0625],[-150.346409,-77.024173],[-150.399446,-77.005846],[-150.698337,-76.970291],[-150.732928,-76.954319],[-150.732509,-76.9407]],[[-150.693909,-76.711119],[-150.638919,-76.693073],[-150.496673,-76.675846],[-150.012791,-76.659182],[-149.831973,-76.664464],[-149.795564,-76.674728],[-149.770082,-76.698546],[-149.784728,-76.713346],[-149.821682,-76.72501],[-149.971682,-76.751955],[-150.381682,-76.782791],[-150.660282,-76.7439],[-150.691128,-76.732791],[-150.700164,-76.722928],[-150.693909,-76.711119]],[[-149.510837,-77.275282],[-149.434446,-77.2514],[-149.161682,-77.2589],[-149.083346,-77.271955],[-148.846409,-77.332228],[-148.823064,-77.344455],[-148.858609,-77.354737],[-149.196137,-77.354737],[-149.448337,-77.311955],[-149.505582,-77.296673],[-149.518628,-77.287091],[-149.510837,-77.275282]],[[-149.1846,-76.939591],[-149.1189,-76.921955],[-149.020573,-76.908619],[-148.813628,-76.915555],[-148.550564,-76.905291],[-148.281955,-76.950291],[-148.224728,-76.965564],[-148.2067,-76.978055],[-148.305573,-76.999455],[-148.675019,-77.018619],[-148.8439,-77.017228],[-149.143064,-76.988619],[-149.187809,-76.964446],[-149.194737,-76.950564],[-149.1846,-76.939591]],[[-149.150573,-76.718064],[-148.881955,-76.684728],[-148.533909,-76.7225],[-148.359464,-76.719455],[-148.264191,-76.726673],[-148.197782,-76.740573],[-148.159182,-76.761819],[-148.163073,-76.773473],[-148.184446,-76.780564],[-148.377809,-76.808337],[-148.644473,-76.816682],[-148.855837,-76.836946],[-148.952519,-76.8239],[-149.136691,-76.765291],[-149.158628,-76.753346],[-149.166964,-76.729037],[-149.150573,-76.718064]],[[-148.825291,-77.140019],[-148.812228,-77.12361],[-148.780582,-77.109455],[-148.600009,-77.069455],[-148.464446,-77.070555],[-148.202519,-77.09001],[-147.694455,-77.19501],[-147.633909,-77.247228],[-147.591128,-77.335564],[-147.603909,-77.363346],[-147.625855,-77.381119],[-147.681946,-77.411955],[-147.725009,-77.421955],[-148.045291,-77.43611],[-148.170837,-77.424728],[-148.226964,-77.386673],[-148.304746,-77.3589],[-148.5303,-77.334455],[-148.860564,-77.277782],[-148.863491,-77.267091],[-148.825291,-77.140019]],[[-148.709746,-76.617782],[-148.652528,-76.614728],[-148.408355,-76.655019],[-148.367246,-76.672228],[-148.384737,-76.6864],[-148.436955,-76.691391],[-148.653628,-76.681946],[-148.757509,-76.665282],[-148.772664,-76.649455],[-148.709746,-76.617782]],[[-147.948337,-76.582782],[-147.885555,-76.56111],[-147.686128,-76.576673],[-147.548891,-76.603346],[-147.431119,-76.640291],[-147.375309,-76.670291],[-147.378909,-76.6807],[-147.403628,-76.6875],[-147.466673,-76.688619],[-147.754182,-76.661955],[-147.9053,-76.629455],[-147.955846,-76.606128],[-147.948337,-76.582782]],[[-147.818637,-77.028064],[-147.733064,-77.027782],[-147.654728,-77.04001],[-147.632782,-77.05],[-147.6178,-77.083346],[-147.619173,-77.098619],[-147.650846,-77.106946],[-147.677519,-77.104446],[-147.794464,-77.074446],[-147.827519,-77.056119],[-147.835573,-77.038619],[-147.818637,-77.028064]],[[-147.504728,-77.146391],[-147.252228,-77.165555],[-147.101137,-77.161955],[-147.075009,-77.166673],[-147.064864,-77.177082],[-147.224182,-77.237791],[-147.288082,-77.243055],[-147.341128,-77.234728],[-147.5296,-77.155419],[-147.504728,-77.146391]],[[-147.216946,-76.089446],[-147.100282,-76.079728],[-146.853055,-76.0789],[-146.776128,-76.087237],[-146.592528,-76.199719],[-146.564746,-76.237091],[-146.560582,-76.293337],[-146.609746,-76.308628],[-146.738346,-76.301119],[-146.838073,-76.284182],[-146.939455,-76.253619],[-147.071137,-76.195846],[-147.194737,-76.175],[-147.234746,-76.161391],[-147.275709,-76.110146],[-147.216946,-76.089446]],[[-147.238346,-76.569164],[-147.059728,-76.51251],[-146.955564,-76.54001],[-146.818082,-76.555846],[-146.760837,-76.570555],[-146.741673,-76.583073],[-146.730009,-76.69501],[-146.7478,-76.711119],[-146.799473,-76.7164],[-147.072782,-76.702228],[-147.139191,-76.673337],[-147.249173,-76.580419],[-147.238346,-76.569164]],[[-146.999173,-75.813064],[-146.964446,-75.801119],[-146.883909,-75.801955],[-146.812228,-75.815291],[-146.758773,-75.840428],[-146.765019,-75.85001],[-146.790555,-75.855837],[-146.900028,-75.858064],[-146.969455,-75.840564],[-147.003219,-75.822791],[-146.999173,-75.813064]],[[-146.977782,-76.832228],[-146.945864,-76.820282],[-146.853055,-76.811673],[-146.626955,-76.818619],[-146.282809,-76.865282],[-146.238619,-76.877228],[-146.226137,-76.884173],[-146.223355,-76.89751],[-146.241973,-76.916673],[-146.3378,-76.946119],[-146.863619,-76.988064],[-146.882782,-76.981946],[-146.975846,-76.901391],[-146.986691,-76.884446],[-146.991673,-76.851391],[-146.977782,-76.832228]],[[-145.836946,-75.55501],[-145.774746,-75.538891],[-145.695009,-75.537782],[-145.453064,-75.576673],[-145.360019,-75.599455],[-145.177791,-75.663619],[-145.129182,-75.691391],[-145.115291,-75.705],[-145.113637,-75.721537],[-145.1539,-75.736682],[-145.201691,-75.736391],[-145.509182,-75.714173],[-145.606419,-75.69751],[-145.8475,-75.627228],[-145.867282,-75.604555],[-145.836946,-75.55501]],[[-143.267337,-75.477619],[-143.082246,-75.465282],[-143.015837,-75.482791],[-142.961728,-75.515228],[-143.0014,-75.526128],[-143.135564,-75.533337],[-143.185855,-75.528337],[-143.273073,-75.49861],[-143.280855,-75.491673],[-143.267337,-75.477619]],[[-132.653073,-74.412228],[-132.543637,-74.378064],[-132.392519,-74.356673],[-132.256409,-74.369737],[-132.207091,-74.389164],[-132.202273,-74.405719],[-132.221682,-74.428073],[-132.255582,-74.443073],[-132.371946,-74.464173],[-132.422791,-74.46501],[-132.509464,-74.46001],[-132.612519,-74.442782],[-132.645128,-74.432891],[-132.659319,-74.422091],[-132.653073,-74.412228]],[[-131.9964,-74.407228],[-131.896973,-74.353619],[-131.782228,-74.305846],[-131.572237,-74.290282],[-131.4689,-74.297791],[-131.446255,-74.306673],[-131.436673,-74.330001],[-131.389737,-74.346955],[-131.160582,-74.344455],[-130.903073,-74.381119],[-130.791691,-74.370282],[-130.752809,-74.387791],[-130.744755,-74.41501],[-130.772519,-74.487228],[-130.800564,-74.518064],[-130.896391,-74.544173],[-131.052246,-74.546955],[-131.191682,-74.528628],[-131.290282,-74.483337],[-131.321409,-74.481673],[-131.449737,-74.501682],[-131.523619,-74.502791],[-131.908628,-74.461946],[-131.991119,-74.441391],[-132.008364,-74.423064],[-131.9964,-74.407228]],[[-128.160855,-74.254182],[-128.1189,-74.247791],[-127.822509,-74.251955],[-127.694164,-74.271955],[-127.456128,-74.336673],[-127.128064,-74.360564],[-127.039591,-74.389446],[-127.044446,-74.489728],[-127.085009,-74.511128],[-127.367509,-74.576673],[-127.471128,-74.579455],[-127.512509,-74.569164],[-127.572509,-74.520001],[-127.775009,-74.46501],[-127.977228,-74.382237],[-128.165028,-74.272646],[-128.160855,-74.254182]],[[-127.234864,-73.353201],[-127.226819,-73.330846],[-127.240346,-73.306119],[-127.193619,-73.282228],[-127.134455,-73.270846],[-126.773355,-73.233064],[-126.584164,-73.247791],[-126.506255,-73.242646],[-126.381955,-73.21861],[-126.305846,-73.217519],[-126.198337,-73.229446],[-126.085982,-73.261119],[-126.074873,-73.28431],[-126.049037,-73.306401],[-125.995564,-73.316955],[-125.6664,-73.331955],[-125.533337,-73.353201],[-125.490346,-73.376464],[-125.495846,-73.413619],[-125.568337,-73.444591],[-125.587437,-73.465701],[-125.563337,-73.490846],[-125.441964,-73.528901],[-125.217509,-73.562791],[-125.102546,-73.589955],[-125.096119,-73.60751],[-125.1207,-73.628482],[-125.177509,-73.654873],[-125.185491,-73.690428],[-125.143619,-73.715846],[-125.003891,-73.734173],[-124.791673,-73.721391],[-124.725146,-73.707082],[-124.576137,-73.653628],[-124.4939,-73.641682],[-124.414464,-73.650555],[-124.230564,-73.689182],[-124.179028,-73.729455],[-124.193891,-73.749037],[-124.176464,-73.783682],[-124.092228,-73.855001],[-123.998337,-73.896955],[-123.740009,-73.968901],[-123.722782,-73.981946],[-123.710564,-74.03111],[-123.722228,-74.092519],[-123.735291,-74.116955],[-123.755282,-74.131664],[-123.820282,-74.155291],[-123.930555,-74.168064],[-124.926391,-74.113891],[-125.252791,-74.063901],[-125.431955,-74.016401],[-125.635146,-73.974728],[-125.677019,-73.949446],[-125.680837,-73.915701],[-125.706809,-73.904037],[-125.894182,-73.876401],[-125.969455,-73.83501],[-126.025282,-73.820846],[-126.378619,-73.778628],[-126.404382,-73.763619],[-126.382509,-73.740146],[-126.365146,-73.704101],[-126.399728,-73.681673],[-126.476119,-73.662228],[-126.641955,-73.64751],[-126.852509,-73.645846],[-127.131755,-73.663037],[-127.165837,-73.640146],[-127.177373,-73.616955],[-127.163891,-73.593064],[-127.0939,-73.558064],[-127.082782,-73.538755],[-127.337364,-73.501255],[-127.381528,-73.407237],[-127.234864,-73.353201]],[[-123.099864,-73.653482],[-123.012219,-73.623064],[-122.888346,-73.605564],[-122.549728,-73.620282],[-122.272782,-73.598073],[-121.990009,-73.641955],[-121.737791,-73.651673],[-121.415282,-73.713055],[-121.249737,-73.728901],[-120.996673,-73.734728],[-120.545564,-73.789464],[-120.2614,-73.767791],[-120.179455,-73.775282],[-120.114182,-73.793901],[-120.010009,-73.80751],[-119.754464,-73.786391],[-119.505282,-73.805282],[-119.418619,-73.794728],[-119.273064,-73.761401],[-119.204728,-73.756119],[-119.140428,-73.764455],[-119.065846,-73.794173],[-118.814455,-73.797228],[-118.671528,-73.813901],[-118.600291,-73.840282],[-118.551619,-73.924855],[-118.554309,-73.938555],[-118.577791,-73.961391],[-118.658337,-73.997228],[-118.998064,-74.064728],[-119.437791,-74.167237],[-120.055555,-74.202791],[-120.317782,-74.238891],[-120.783073,-74.242782],[-121.124455,-74.318073],[-121.313609,-74.345837],[-121.550846,-74.368346],[-121.728346,-74.375564],[-122.3125,-74.360291],[-122.583073,-74.336946],[-122.603346,-74.332501],[-122.629028,-74.313201],[-122.619319,-74.293901],[-122.587509,-74.268482],[-122.452228,-74.189182],[-122.442373,-74.154028],[-122.447782,-74.132091],[-122.479173,-74.108064],[-122.555973,-74.070428],[-122.572155,-74.041391],[-122.535846,-74.000291],[-122.3998,-73.888473],[-122.420291,-73.867782],[-122.531673,-73.843337],[-122.741673,-73.842791],[-122.793064,-73.835846],[-123.1375,-73.743619],[-123.157346,-73.73091],[-123.099864,-73.653482]],[[-117.171955,-74.157228],[-117.144182,-74.081682],[-117.115573,-74.059728],[-116.830564,-74.021664],[-116.761673,-73.979173],[-116.7289,-73.970564],[-116.470837,-73.959737],[-116.381664,-73.915282],[-116.241673,-73.891401],[-116.024173,-73.888337],[-115.935009,-73.902782],[-115.884173,-73.924728],[-115.902237,-73.949173],[-115.930282,-73.961946],[-116.105291,-73.998901],[-116.143346,-74.016682],[-116.185291,-74.056946],[-116.285282,-74.085846],[-116.301955,-74.106537],[-116.256119,-74.145146],[-116.273619,-74.153628],[-116.471682,-74.178891],[-116.673337,-74.171955],[-116.791673,-74.18501],[-117.241119,-74.187501],[-117.171955,-74.157228]],[[-117.181119,-74.305846],[-117.113346,-74.283064],[-116.871119,-74.233901],[-116.798337,-74.230837],[-116.751682,-74.247228],[-116.753891,-74.261401],[-116.778637,-74.27751],[-117.024437,-74.324446],[-117.161391,-74.337237],[-117.198337,-74.328337],[-117.181119,-74.305846]],[[-105.217791,-73.024173],[-105.143346,-72.956391],[-105.084164,-72.94501],[-105.0239,-72.952791],[-104.985282,-72.984455],[-104.983891,-73.001955],[-104.753619,-73.125564],[-104.594173,-73.161119],[-104.557509,-73.178346],[-104.551537,-73.190419],[-104.561682,-73.201401],[-104.592509,-73.21001],[-104.706128,-73.225846],[-104.890555,-73.240846],[-105.009746,-73.229737],[-105.052509,-73.214173],[-105.225573,-73.103619],[-105.240982,-73.085564],[-105.242509,-73.058901],[-105.217791,-73.024173]],[[-102.537509,-72.100982],[-102.411955,-72.068891],[-101.831128,-71.998337],[-101.570846,-71.938337],[-101.511809,-71.941537],[-101.429173,-71.97751],[-101.361955,-71.983064],[-101.204182,-71.946673],[-101.134746,-71.938337],[-100.928619,-71.943755],[-101.057228,-71.969601],[-101.105146,-71.991055],[-101.114728,-72.01001],[-101.055555,-72.028901],[-100.975282,-72.025555],[-100.770846,-71.976391],[-100.472228,-71.887928],[-100.414464,-71.881391],[-100.253064,-71.892228],[-100.109455,-71.920291],[-100.070137,-71.938573],[-100.095837,-71.952228],[-100.3864,-71.978901],[-100.469591,-71.995846],[-100.506809,-72.015982],[-100.494037,-72.032646],[-100.464173,-72.036955],[-100.303337,-72.033064],[-100.117782,-72.012219],[-100.0709,-72.03021],[-100.096119,-72.058064],[-100.200291,-72.098346],[-100.242573,-72.123555],[-100.211119,-72.129455],[-100.045009,-72.111119],[-99.901946,-72.079455],[-99.841819,-72.048764],[-99.756391,-71.971882],[-99.6989,-71.964173],[-99.647646,-71.969173],[-99.619728,-71.979864],[-99.606537,-71.995701],[-99.631119,-72.069455],[-99.633546,-72.114582],[-99.616673,-72.138064],[-99.5764,-72.136401],[-99.470564,-72.062928],[-99.4064,-72.049455],[-98.857791,-72.130573],[-98.821955,-72.12181],[-98.825009,-72.092228],[-98.894182,-72.033337],[-98.923473,-72.019728],[-99.287509,-71.961673],[-99.305837,-71.948482],[-99.298064,-71.925846],[-99.092519,-71.780564],[-99.021119,-71.765019],[-98.861955,-71.76251],[-98.793764,-71.772364],[-98.769455,-71.784873],[-98.754455,-71.807646],[-98.768619,-71.823901],[-98.840146,-71.868337],[-98.811264,-71.885146],[-98.7514,-71.888337],[-98.654037,-71.874173],[-98.537228,-71.828619],[-98.506391,-71.823628],[-98.4714,-71.825146],[-98.443964,-71.847646],[-98.517228,-71.883619],[-98.531255,-71.905146],[-98.503619,-71.908337],[-98.365282,-71.874728],[-98.306946,-71.870846],[-98.287855,-71.877991],[-98.300709,-71.920428],[-98.322228,-71.939864],[-98.381391,-71.962782],[-98.4707,-71.979037],[-98.496537,-71.993064],[-98.556455,-72.135355],[-98.528064,-72.150282],[-98.478619,-72.145573],[-98.364455,-72.110701],[-98.305555,-72.103901],[-98.227091,-72.109601],[-98.208346,-72.129864],[-98.232928,-72.187573],[-98.196673,-72.199173],[-98.018346,-72.142228],[-97.997655,-72.113901],[-98.015009,-72.095428],[-98.130491,-72.045701],[-98.125419,-72.018201],[-98.096819,-71.98071],[-98.097228,-71.959164],[-98.137319,-71.896728],[-98.113064,-71.890019],[-97.9575,-71.888901],[-97.810009,-71.91001],[-97.712509,-72.010555],[-97.769182,-72.063337],[-97.855982,-72.088619],[-97.868,-72.107437],[-97.752791,-72.17751],[-97.6864,-72.181946],[-97.585555,-72.163346],[-97.415555,-72.081119],[-97.387791,-72.054173],[-97.355564,-71.980282],[-97.338064,-71.910982],[-97.354473,-71.873546],[-97.31751,-71.854446],[-97.223891,-71.84361],[-97.148346,-71.844455],[-97.091391,-71.859455],[-97.034037,-71.890428],[-96.986955,-71.89751],[-96.821946,-71.873337],[-96.692228,-71.868901],[-96.597228,-71.883619],[-96.396664,-71.932237],[-96.361737,-71.952573],[-96.344319,-71.984873],[-96.346319,-72.004855],[-96.39111,-72.018628],[-96.49751,-72.031955],[-96.718337,-72.027237],[-96.75091,-72.037228],[-96.70501,-72.087364],[-96.71751,-72.10431],[-96.788891,-72.125001],[-97.130846,-72.176955],[-97.2239,-72.201401],[-97.252219,-72.223064],[-97.208346,-72.235837],[-96.925846,-72.261673],[-96.850846,-72.258055],[-96.806673,-72.242782],[-96.759173,-72.205001],[-96.695846,-72.185837],[-96.539173,-72.176391],[-96.350573,-72.185564],[-96.235428,-72.175282],[-96.08501,-72.124728],[-96.042646,-72.104728],[-96.024873,-72.08501],[-95.995146,-72.080001],[-95.849728,-72.151673],[-95.823682,-72.17681],[-95.8389,-72.202519],[-95.942782,-72.235291],[-96.023619,-72.250001],[-96.187228,-72.24251],[-96.34001,-72.249455],[-96.569873,-72.272646],[-96.587855,-72.290982],[-96.553891,-72.302228],[-96.291946,-72.303073],[-96.2382,-72.308346],[-96.210237,-72.325119],[-96.06751,-72.340282],[-95.802228,-72.318619],[-95.740673,-72.321619],[-95.688064,-72.33501],[-95.67681,-72.356401],[-95.68751,-72.374873],[-95.715564,-72.392791],[-95.795291,-72.415846],[-96.041119,-72.430555],[-96.249591,-72.454455],[-96.284291,-72.47031],[-96.278473,-72.493901],[-96.222782,-72.521391],[-96.2082,-72.541264],[-96.229591,-72.553201],[-96.265019,-72.557237],[-96.882782,-72.556673],[-97.157228,-72.568619],[-97.393064,-72.564455],[-97.636682,-72.527091],[-97.651673,-72.512364],[-97.642228,-72.482164],[-97.664173,-72.460564],[-97.716946,-72.45361],[-97.743473,-72.459873],[-97.758482,-72.476955],[-97.762373,-72.504591],[-97.784455,-72.520001],[-97.824446,-72.527237],[-97.929455,-72.535573],[-98.124455,-72.536119],[-98.616119,-72.568891],[-98.685837,-72.565846],[-98.814037,-72.545564],[-98.836255,-72.523555],[-98.805564,-72.483891],[-98.837782,-72.469455],[-98.900555,-72.459455],[-99.341673,-72.451401],[-99.549182,-72.46501],[-99.613891,-72.456955],[-99.638546,-72.436055],[-99.584455,-72.411391],[-99.527237,-72.400282],[-99.286673,-72.379173],[-99.271809,-72.36001],[-99.302228,-72.346682],[-99.3439,-72.341673],[-99.7189,-72.363891],[-100.057509,-72.36751],[-100.174455,-72.357228],[-100.351673,-72.320846],[-100.574446,-72.310837],[-100.735564,-72.272919],[-100.792237,-72.267228],[-101.139455,-72.254182],[-101.394182,-72.256955],[-101.547237,-72.240573],[-102.087782,-72.224164],[-102.307791,-72.201955],[-102.461673,-72.175564],[-102.546109,-72.14751],[-102.560137,-72.123064],[-102.537509,-72.100982]],[[-100.850855,-72.650555],[-100.800564,-72.612228],[-100.7489,-72.598619],[-100.335564,-72.556119],[-99.992509,-72.571401],[-99.780564,-72.61751],[-99.690564,-72.625837],[-99.465564,-72.595837],[-99.254455,-72.587782],[-99.067509,-72.611682],[-98.960555,-72.645001],[-98.930419,-72.669446],[-98.932509,-72.683064],[-98.962509,-72.716673],[-99.026673,-72.743055],[-99.379455,-72.801955],[-99.637219,-72.809728],[-100.333891,-72.764728],[-100.619455,-72.733064],[-100.802228,-72.69751],[-100.858609,-72.665555],[-100.850855,-72.650555]],[[-98.327519,-72.686673],[-98.128346,-72.65001],[-98.006391,-72.63751],[-97.884737,-72.643619],[-97.834455,-72.657228],[-97.824591,-72.667928],[-97.830564,-72.678619],[-97.940846,-72.70361],[-98.116955,-72.729446],[-98.196119,-72.728055],[-98.334737,-72.705564],[-98.3407,-72.695701],[-98.327519,-72.686673]],[[-95.446673,-72.612501],[-95.302228,-72.571673],[-94.933337,-72.496401],[-94.888064,-72.49861],[-94.837782,-72.513337],[-94.696764,-72.614201],[-94.886673,-72.63751],[-95.331391,-72.671955],[-95.476964,-72.665846],[-95.510282,-72.657228],[-95.517228,-72.646119],[-95.446673,-72.612501]],[[-94.138064,-72.839173],[-94.117782,-72.820555],[-94.011673,-72.809173],[-93.824719,-72.811401],[-93.788619,-72.82001],[-93.752228,-72.842519],[-93.726964,-72.880573],[-93.726964,-72.894455],[-93.759446,-72.911664],[-93.87251,-72.906955],[-94.130282,-72.868346],[-94.138337,-72.860291],[-94.138064,-72.839173]],[[-93.461428,-72.584519],[-93.353619,-72.566682],[-93.24001,-72.558337],[-93.194337,-72.562255],[-93.172237,-72.579455],[-93.183628,-72.596119],[-93.237791,-72.625291],[-93.319455,-72.647782],[-93.395573,-72.656401],[-93.464446,-72.653337],[-93.475155,-72.642646],[-93.461428,-72.584519]],[[-91.595291,-72.586391],[-91.445846,-72.553619],[-91.238346,-72.529728],[-91.033337,-72.531682],[-90.913073,-72.548891],[-90.845837,-72.571119],[-90.803755,-72.596537],[-90.805555,-72.620564],[-90.839737,-72.679173],[-90.85251,-72.746673],[-90.842519,-72.803073],[-90.851964,-72.916401],[-91.043628,-73.021955],[-91.116673,-73.083891],[-91.173337,-73.119446],[-91.216673,-73.135837],[-91.31001,-73.153901],[-91.363064,-73.158337],[-91.401128,-73.150282],[-91.42111,-73.127501],[-91.42001,-73.106946],[-91.39111,-72.992237],[-91.330291,-72.929455],[-91.321946,-72.90251],[-91.328337,-72.888064],[-91.494173,-72.747791],[-91.618346,-72.625564],[-91.619328,-72.60761],[-91.595291,-72.586391]],[[-90.754037,-68.802791],[-90.699446,-68.771664],[-90.615846,-68.773055],[-90.55751,-68.788891],[-90.502228,-68.814728],[-90.4725,-68.849728],[-90.472782,-68.868346],[-90.480846,-68.888482],[-90.501682,-68.904173],[-90.540282,-68.917782],[-90.632782,-68.923064],[-90.734591,-68.866819],[-90.753064,-68.841401],[-90.754037,-68.802791]],[[-90.3625,-72.981401],[-90.337782,-72.955564],[-90.270282,-72.936673],[-90.180555,-72.941955],[-90.130846,-72.970564],[-90.039737,-72.969728],[-90.022091,-72.961119],[-90.019455,-72.95001],[-90.054455,-72.913064],[-90.049873,-72.898891],[-90.0,-72.86171],[-89.943073,-72.845001],[-89.865846,-72.844455],[-89.74501,-72.875564],[-89.57001,-72.874455],[-89.509737,-72.882782],[-89.459037,-72.902928],[-89.459173,-72.917782],[-89.48001,-72.933064],[-89.669173,-73.038073],[-89.735291,-73.058064],[-89.898619,-73.069455],[-90.12001,-73.061673],[-90.280837,-73.083073],[-90.3239,-73.078901],[-90.37001,-73.061401],[-90.379455,-73.047791],[-90.3625,-72.981401]],[[-79.448482,-72.543619],[-79.319164,-72.44251],[-79.24751,-72.40251],[-79.160846,-72.384446],[-79.011946,-72.375837],[-78.889728,-72.384446],[-78.815,-72.401128],[-78.759173,-72.422655],[-78.650555,-72.505282],[-78.57251,-72.538073],[-78.3439,-72.580001],[-78.214446,-72.589446],[-78.115282,-72.57861],[-77.991955,-72.543337],[-77.955291,-72.526128],[-77.885837,-72.471955],[-77.809446,-72.464173],[-77.68001,-72.475282],[-77.563337,-72.502919],[-77.485564,-72.543901],[-77.439182,-72.588628],[-77.4482,-72.622855],[-77.472646,-72.656873],[-77.58,-72.726955],[-77.588064,-72.746264],[-77.548619,-72.874037],[-77.561673,-72.892501],[-77.594455,-72.910001],[-77.688064,-72.923337],[-77.929737,-72.928619],[-78.269182,-72.989455],[-78.473619,-73.045291],[-78.7789,-73.173891],[-78.844728,-73.185291],[-79.039464,-73.166673],[-79.1764,-73.113619],[-79.293337,-73.048619],[-79.416673,-72.959382],[-79.39571,-72.939591],[-79.366673,-72.931946],[-79.109728,-72.903628],[-79.02751,-72.883619],[-78.926955,-72.845291],[-78.8539,-72.797237],[-78.843555,-72.762301],[-78.866955,-72.726673],[-78.926955,-72.68001],[-79.024319,-72.621673],[-79.076391,-72.604591],[-79.286955,-72.577228],[-79.437091,-72.575291],[-79.4632,-72.563201],[-79.448482,-72.543619]],[[-78.346119,-73.252791],[-78.330564,-73.241119],[-78.252228,-73.220564],[-78.070846,-73.209455],[-77.929455,-73.21251],[-77.7939,-73.238064],[-77.705564,-73.265564],[-77.638755,-73.296673],[-77.637082,-73.317646],[-77.692782,-73.356946],[-77.94251,-73.43001],[-78.048064,-73.442228],[-78.196946,-73.446119],[-78.276946,-73.431946],[-78.356673,-73.403064],[-78.368337,-73.385573],[-78.371673,-73.350428],[-78.346119,-73.252791]],[[-76.604737,-71.01611],[-76.528482,-70.986537],[-76.313064,-70.959455],[-76.19251,-70.915846],[-76.0464,-70.884173],[-75.910282,-70.873337],[-75.503346,-70.881119],[-75.316119,-70.852782],[-75.171673,-70.805555],[-75.11501,-70.773201],[-75.07861,-70.718064],[-75.007782,-70.671673],[-74.985837,-70.669446],[-74.837782,-70.713628],[-74.6664,-70.792928],[-74.535,-70.821119],[-74.502437,-70.80931],[-74.501955,-70.779446],[-74.527928,-70.74841],[-74.522791,-70.715701],[-74.484319,-70.652573],[-74.454728,-70.641955],[-74.413073,-70.643619],[-74.285,-70.682782],[-74.198891,-70.693755],[-74.162228,-70.689864],[-74.117164,-70.634582],[-74.09001,-70.625291],[-73.891955,-70.631119],[-73.73251,-70.661664],[-73.639173,-70.700291],[-73.599173,-70.740846],[-73.61,-70.783891],[-73.6432,-70.814873],[-73.710282,-70.863064],[-73.769182,-70.891955],[-74.084737,-70.949446],[-74.234173,-70.99751],[-74.371128,-71.016401],[-74.560837,-71.020573],[-74.86751,-71.060291],[-75.080846,-71.063901],[-75.456682,-71.120282],[-75.680282,-71.172501],[-75.725573,-71.176682],[-76.161664,-71.17001],[-76.368619,-71.205564],[-76.466673,-71.199719],[-76.536119,-71.171955],[-76.580419,-71.144455],[-76.6116,-71.111182],[-76.630282,-71.082501],[-76.631328,-71.049319],[-76.604737,-71.01611]],[[-76.088628,-73.176682],[-75.970837,-73.094455],[-75.946946,-73.089737],[-75.714446,-73.129182],[-75.669446,-73.13001],[-75.444737,-73.07861],[-75.39001,-73.056819],[-75.36091,-73.019801],[-75.380282,-72.99821],[-75.475846,-72.986391],[-75.5914,-73.000837],[-75.635564,-72.99861],[-75.691391,-72.972501],[-75.715564,-72.948964],[-75.694737,-72.933064],[-75.597237,-72.909728],[-75.489728,-72.843337],[-75.432237,-72.82501],[-75.318073,-72.811673],[-75.184728,-72.809173],[-74.83501,-72.828901],[-74.565564,-72.879182],[-74.2589,-72.952782],[-74.222782,-72.976119],[-74.175837,-73.027228],[-74.178619,-73.056537],[-74.208619,-73.085555],[-74.363619,-73.208073],[-74.448055,-73.24931],[-74.50681,-73.329591],[-74.476119,-73.393891],[-74.4389,-73.426955],[-74.289455,-73.511682],[-74.270628,-73.534864],[-74.286955,-73.560837],[-74.318346,-73.579728],[-74.411119,-73.630846],[-74.465564,-73.648346],[-74.605282,-73.65001],[-74.823628,-73.608337],[-75.672228,-73.417782],[-75.950837,-73.316119],[-76.09251,-73.206182],[-76.088628,-73.176682]],[[-75.848482,-70.018482],[-75.816955,-69.997228],[-75.680555,-69.94251],[-75.671673,-69.920837],[-75.673064,-69.883055],[-75.637219,-69.839173],[-75.598891,-69.830564],[-75.566955,-69.837237],[-75.518619,-69.881664],[-75.417237,-69.900282],[-75.359455,-69.879455],[-75.336119,-69.833619],[-75.318891,-69.821673],[-75.234455,-69.811401],[-75.063064,-69.82001],[-74.86,-69.810564],[-74.842228,-69.815846],[-74.829182,-69.832791],[-74.83,-69.850573],[-74.853346,-69.87181],[-74.852237,-69.888901],[-74.842519,-69.896664],[-74.781682,-69.919728],[-74.500291,-69.988346],[-74.454182,-70.011682],[-74.452519,-70.021664],[-74.497791,-70.044446],[-74.554455,-70.058901],[-74.731946,-70.035564],[-74.742364,-70.045146],[-74.725573,-70.083346],[-74.722782,-70.125564],[-74.7551,-70.150119],[-74.798619,-70.163891],[-74.87001,-70.173619],[-74.999728,-70.161664],[-75.210555,-70.181401],[-75.339737,-70.168064],[-75.461119,-70.143619],[-75.647782,-70.130846],[-75.735,-70.113619],[-75.799182,-70.097228],[-75.840282,-70.077519],[-75.86181,-70.051119],[-75.848482,-70.018482]],[[-74.053073,-73.312501],[-73.798337,-73.224455],[-73.7559,-73.169337],[-73.724455,-73.153628],[-73.541673,-73.136128],[-73.506955,-73.146955],[-73.491673,-73.166673],[-73.505428,-73.200573],[-73.545837,-73.249173],[-73.628619,-73.32001],[-73.74751,-73.383901],[-73.89111,-73.425001],[-73.914464,-73.428891],[-73.958619,-73.416401],[-74.033064,-73.369737],[-74.064182,-73.325564],[-74.053073,-73.312501]],[[-72.902237,-69.556946],[-72.8414,-69.528337],[-72.74001,-69.50501],[-72.575837,-69.490846],[-72.465282,-69.493619],[-72.414173,-69.503064],[-72.360973,-69.524591],[-72.315846,-69.591401],[-72.276128,-69.613346],[-72.1125,-69.654446],[-72.064182,-69.672228],[-72.045428,-69.69001],[-72.066119,-69.712237],[-72.096119,-69.723073],[-72.150282,-69.738346],[-72.276673,-69.755573],[-72.525846,-69.755573],[-72.63751,-69.745837],[-72.760564,-69.716128],[-72.94251,-69.611119],[-72.945282,-69.600846],[-72.902237,-69.556946]]],[[[150.0,-68.430872],[150.115291,-68.453901],[150.566546,-68.466946],[150.769882,-68.440437],[150.829882,-68.406401],[150.870573,-68.398637],[150.9725,-68.390291],[151.0296,-68.405301],[151.110564,-68.48821],[151.1292,-68.525291],[151.131882,-68.566882],[151.125855,-68.593764],[151.038073,-68.709455],[150.960919,-68.860082],[150.984464,-68.890282],[151.0289,-68.92111],[151.142791,-68.97141],[151.194746,-68.980719],[151.286137,-68.975155],[151.366546,-68.925846],[151.425291,-68.901682],[151.514737,-68.879201],[151.6528,-68.863082],[151.923337,-68.885028],[152.033082,-68.879728],[152.332246,-68.781819],[152.460573,-68.765855],[152.561128,-68.778901],[152.8053,-68.858337],[153.079464,-68.876955],[153.179173,-68.892519],[153.267091,-68.914882],[153.383055,-68.961682],[153.447919,-68.972928],[153.480855,-68.966546],[153.490282,-68.942855],[153.4532,-68.875164],[153.468473,-68.86071],[153.499191,-68.851273],[153.558491,-68.865082],[153.610564,-68.898891],[153.699191,-68.929737],[153.800019,-68.91391],[153.869046,-68.89391],[153.899673,-68.872591],[153.880982,-68.760982],[153.863064,-68.739473],[153.684309,-68.631682],[153.693619,-68.610573],[153.724046,-68.602782],[153.878909,-68.621264],[153.907928,-68.594528],[153.888337,-68.567791],[153.869173,-68.556137],[153.6996,-68.487646],[153.656128,-68.455019],[153.630019,-68.423628],[153.625837,-68.397382],[153.665028,-68.350846],[153.720309,-68.338346],[153.778355,-68.343628],[153.910855,-68.376955],[154.0603,-68.457501],[154.251819,-68.515019],[154.310991,-68.520855],[154.414309,-68.513501],[154.453764,-68.519873],[154.643346,-68.592228],[154.693346,-68.621401],[154.7128,-68.646119],[154.711682,-68.673619],[154.666964,-68.699191],[154.571682,-68.698346],[154.459473,-68.669464],[154.411955,-68.665291],[154.388073,-68.679455],[154.400028,-68.705019],[154.428009,-68.72411],[154.547382,-68.775155],[154.564191,-68.794046],[154.540164,-68.822237],[154.516964,-68.828355],[154.318909,-68.824046],[154.288973,-68.859946],[154.478637,-68.905564],[154.5439,-68.929191],[154.732509,-69.053619],[154.856691,-69.102528],[154.915864,-69.115573],[155.064182,-69.11391],[155.147664,-69.10891],[155.278064,-69.081682],[155.3078,-69.083619],[155.450291,-69.143628],[155.722228,-69.218337],[155.838073,-69.220001],[155.993619,-69.176701],[156.135009,-69.165282],[156.201964,-69.17641],[156.226609,-69.192791],[156.246128,-69.220146],[156.2728,-69.23361],[156.326264,-69.240155],[156.379609,-69.235146],[156.431264,-69.19321],[156.507237,-69.177782],[156.581391,-69.179473],[156.653491,-69.201955],[156.706973,-69.209455],[156.796264,-69.191964],[156.842419,-69.155664],[157.069182,-69.162801],[157.149464,-69.156819],[157.170564,-69.13731],[157.158355,-69.11391],[157.111391,-69.084164],[157.092091,-69.060701],[157.107373,-68.988355],[157.120846,-68.960282],[157.142246,-68.945573],[157.186128,-68.937237],[157.244873,-68.945582],[157.267791,-68.956537],[157.3035,-68.996964],[157.315582,-69.023637],[157.4028,-69.136137],[157.553073,-69.238628],[157.647246,-69.265582],[157.757509,-69.278355],[157.825991,-69.281255],[157.852373,-69.272091],[157.8414,-69.24821],[157.875582,-69.238637],[157.954746,-69.240282],[158.133637,-69.265855],[158.407791,-69.324591],[158.445282,-69.338346],[158.503219,-69.379173],[158.536819,-69.391682],[158.657809,-69.388337],[158.7225,-69.394473],[158.770846,-69.410019],[158.839464,-69.439328],[158.838546,-69.511601],[158.872228,-69.528628],[159.0903,-69.582791],[159.461391,-69.622237],[159.677373,-69.662519],[159.7639,-69.700573],[159.941682,-69.743901],[160.013064,-69.769746],[160.070909,-69.803555],[160.114046,-69.853619],[160.111128,-69.885701],[160.118055,-69.909182],[160.134737,-69.920837],[160.355282,-69.948346],[160.434191,-69.970291],[160.455719,-69.985291],[160.440019,-70.001546],[160.414737,-70.008364],[160.373628,-70.05251],[160.488619,-70.073346],[160.695009,-70.13751],[160.775573,-70.168919],[160.918064,-70.241682],[160.9689,-70.255573],[161.536682,-70.207501],[161.676391,-70.205019],[161.705155,-70.21251],[161.816819,-70.288628],[161.819109,-70.321473],[161.851682,-70.346973],[161.891537,-70.350719],[161.9223,-70.334037],[161.923764,-70.312237],[162.004182,-70.206537],[162.035709,-70.199046],[162.070282,-70.212164],[162.073337,-70.244755],[162.028073,-70.283619],[162.010282,-70.367664],[162.046328,-70.418419],[162.070982,-70.422664],[162.0975,-70.363346],[162.151409,-70.32501],[162.209164,-70.307255],[162.523073,-70.26611],[162.745146,-70.279046],[162.798337,-70.297246],[162.953064,-70.431673],[162.992237,-70.505155],[163.166828,-70.553337],[163.172519,-70.598491],[163.198337,-70.621691],[163.227782,-70.634446],[163.392382,-70.64571],[163.520846,-70.675001],[163.612637,-70.671955],[163.7766,-70.625855],[163.611128,-70.57321],[163.515428,-70.490301],[163.5271,-70.469191],[163.553891,-70.465282],[163.651128,-70.483491],[163.759464,-70.51781],[163.898619,-70.51781],[164.024873,-70.505991],[164.100009,-70.489455],[164.371673,-70.47641],[164.651673,-70.505573],[164.728055,-70.541546],[164.936955,-70.573064],[165.188873,-70.558337],[165.391082,-70.558919],[165.516937,-70.59001],[165.578337,-70.629201],[165.647355,-70.65571],[165.794446,-70.675846],[165.805637,-70.697364],[165.793064,-70.716137],[165.820828,-70.718064],[165.885009,-70.704728],[166.084746,-70.640855],[166.311373,-70.603364],[166.518864,-70.598355],[166.771664,-70.611682],[166.823119,-70.624673],[166.896237,-70.697728],[166.870564,-70.71391],[166.848055,-70.714446],[166.703182,-70.696137],[166.618191,-70.672664],[166.5878,-70.672246],[166.472273,-70.710428],[166.555546,-70.747237],[166.660855,-70.774464],[166.736082,-70.775846],[166.824737,-70.761401],[166.922209,-70.770001],[167.208073,-70.736682],[167.492246,-70.740573],[167.652082,-70.755864],[167.767519,-70.780837],[167.865291,-70.829728],[167.920273,-70.86961],[167.931364,-70.896673],[167.917073,-70.919464],[167.871937,-70.937655],[167.823637,-70.935564],[167.7934,-70.943773],[167.830173,-70.988691],[168.154728,-71.086537],[168.197346,-71.126682],[168.237637,-71.151819],[168.3378,-71.174182],[168.531673,-71.187228],[168.918609,-71.23751],[169.043609,-71.287801],[169.230573,-71.342937],[169.244719,-71.359055],[169.219482,-71.407791],[169.245846,-71.433073],[169.284728,-71.436673],[169.4639,-71.418355],[169.547637,-71.432528],[169.563464,-71.478564],[169.612764,-71.49861],[169.844728,-71.492237],[169.881573,-71.502719],[169.914719,-71.547246],[169.9435,-71.564601],[170.262646,-71.658764],[170.300691,-71.658637],[170.308882,-71.634746],[170.267364,-71.598073],[170.346237,-71.522655],[170.410537,-71.499737],[170.432237,-71.481119],[170.312228,-71.380846],[170.2225,-71.283973],[170.321928,-71.297519],[170.453037,-71.351673],[170.561128,-71.470582],[170.655819,-71.548891],[170.791537,-71.642519],[170.807891,-71.666819],[170.829455,-71.747655],[170.907928,-71.791119],[170.990355,-71.855682],[170.778319,-71.962237],[170.129973,-72.05141],[169.988873,-72.182664],[170.025009,-72.265019],[170.030409,-72.334319],[169.990819,-72.355564],[169.895573,-72.366682],[169.873028,-72.375864],[169.933046,-72.388073],[170.054173,-72.390291],[170.191255,-72.32181],[170.294573,-72.299182],[170.314728,-72.306673],[170.3317,-72.348073],[170.354737,-72.476137],[170.318055,-72.583355],[170.235019,-72.613637],[170.1358,-72.595837],[170.091646,-72.595291],[170.061528,-72.607437],[170.173764,-72.6496],[170.202482,-72.677228],[170.149991,-72.693637],[170.082219,-72.693891],[170.008473,-72.709446],[169.929582,-72.7878],[169.916264,-72.831955],[169.892919,-72.862391],[169.846682,-72.889173],[169.718473,-72.938628],[169.692382,-72.957664],[169.6898,-72.982591],[169.723073,-73.031819],[169.681637,-73.053073],[169.644591,-73.067646],[169.516419,-73.091128],[169.448064,-73.090573],[169.3461,-73.073346],[169.270982,-73.080991],[169.248082,-73.122791],[169.252919,-73.149746],[169.3168,-73.196473],[169.280273,-73.231137],[169.226964,-73.254473],[169.111391,-73.253619],[169.056473,-73.364255],[169.080019,-73.387219],[169.1736,-73.41961],[169.189846,-73.444455],[169.079164,-73.527528],[169.021119,-73.538082],[168.945009,-73.539464],[168.8414,-73.523219],[168.750273,-73.485291],[168.646364,-73.4164],[168.626682,-73.422519],[168.582519,-73.532246],[168.522491,-73.596955],[168.457219,-73.624728],[168.383882,-73.626128],[168.062228,-73.572919],[168.041091,-73.560982],[168.037509,-73.536128],[168.061937,-73.474446],[168.042637,-73.446691],[167.9861,-73.422373],[167.697755,-73.393346],[167.6118,-73.396264],[167.562773,-73.406819],[167.611546,-73.428619],[167.646955,-73.467091],[167.623455,-73.480573],[167.198637,-73.567791],[166.996646,-73.576419],[166.896664,-73.594464],[166.840028,-73.60751],[166.804219,-73.629328],[166.872528,-73.647519],[166.911237,-73.667655],[166.873082,-73.685564],[166.639164,-73.716128],[166.368346,-73.782246],[166.203037,-73.760564],[166.166809,-73.762937],[166.042928,-73.825291],[165.889728,-73.842655],[165.856091,-73.863828],[165.863037,-73.883482],[165.978473,-73.912382],[165.9968,-73.927991],[165.908055,-73.930555],[165.699191,-73.9003],[165.641419,-73.898637],[165.563619,-73.920855],[165.556855,-73.942728],[165.611082,-73.961137],[165.9003,-73.984455],[166.209746,-74.037228],[166.231737,-74.058064],[166.151519,-74.116528],[166.121109,-74.129319],[166.003355,-74.130846],[165.549709,-74.069746],[165.229428,-74.05],[165.186373,-74.055555],[164.989109,-74.111328],[164.9939,-74.140146],[165.017155,-74.163773],[164.996673,-74.186419],[164.935582,-74.18781],[164.789046,-74.134737],[164.767246,-74.160028],[164.768909,-74.196119],[164.784609,-74.219319],[164.803619,-74.234455],[164.933073,-74.279328],[165.016664,-74.358919],[165.061191,-74.434319],[165.159009,-74.488491],[165.325546,-74.525573],[165.354582,-74.5396],[165.3604,-74.561264],[165.355682,-74.597528],[165.334855,-74.669046],[165.313328,-74.6767],[165.237764,-74.669464],[165.178055,-74.652228],[165.109464,-74.6103],[165.076664,-74.603073],[164.994173,-74.6039],[164.783628,-74.623828],[164.546964,-74.626955],[164.492664,-74.634037],[164.476546,-74.6521],[164.594746,-74.738491],[164.604037,-74.762319],[164.572509,-74.7753],[164.540555,-74.774182],[164.3782,-74.732937],[164.267209,-74.678619],[164.180846,-74.620564],[164.142519,-74.616119],[164.006682,-74.645855],[163.709164,-74.744173],[163.661546,-74.769873],[163.648755,-74.810155],[163.678346,-74.835864],[163.843082,-74.912373],[163.877637,-74.946828],[163.653491,-74.979319],[163.585573,-75.011691],[163.428346,-75.029446],[163.128082,-75.032246],[162.731691,-75.0564],[162.596128,-75.076128],[162.5475,-75.09801],[162.505582,-75.210019],[162.546419,-75.279191],[162.625309,-75.298355],[162.671291,-75.32821],[162.610019,-75.391537],[162.607509,-75.428828],[162.626128,-75.445864],[162.860019,-75.499728],[163.046846,-75.523946],[163.063628,-75.536137],[163.088,-75.574728],[163.054746,-75.615573],[163.010564,-75.638073],[162.963628,-75.681682],[162.970564,-75.708137],[163.018064,-75.722228],[163.039182,-75.771119],[162.899873,-75.892373],[162.915846,-75.905019],[162.958619,-75.911137],[163.105564,-75.918637],[163.130573,-75.933691],[163.098355,-75.947528],[163.072782,-75.948055],[162.904728,-75.933628],[162.856964,-75.93781],[162.830291,-75.947655],[162.816682,-75.966691],[162.814728,-76.005846],[162.826146,-76.022519],[162.790282,-76.060564],[162.689455,-76.088628],[162.4503,-76.127655],[162.367664,-76.14891],[162.343137,-76.170773],[162.3678,-76.193346],[162.475582,-76.2178],[162.795564,-76.226137],[162.868482,-76.244591],[162.885282,-76.264119],[162.8696,-76.290428],[162.776964,-76.316273],[162.781819,-76.336682],[162.798082,-76.351682],[162.894473,-76.393628],[162.928891,-76.464446],[162.932255,-76.583082],[162.847228,-76.594746],[162.693082,-76.597228],[162.627109,-76.616273],[162.641537,-76.631119],[162.713346,-76.6539],[163.010564,-76.695573],[163.0571,-76.7132],[163.069737,-76.730855],[162.904728,-76.8414],[162.881409,-76.847228],[162.749455,-76.833082],[162.648364,-76.837091],[162.581409,-76.890019],[162.580564,-76.910019],[162.3421,-76.948773],[162.428909,-77.001255],[162.640291,-76.986128],[162.852782,-77.01251],[163.140837,-77.021664],[163.197237,-77.029728],[163.243855,-77.0498],[163.278628,-77.103364],[163.469455,-77.188337],[163.553619,-77.249173],[163.634464,-77.36281],[163.836391,-77.419173],[163.897664,-77.470164],[163.890028,-77.496137],[163.863219,-77.508764],[163.612928,-77.5539],[163.643064,-77.572528],[163.745009,-77.599882],[163.755719,-77.624464],[163.738064,-77.636691],[163.682528,-77.646955],[163.587919,-77.679746],[163.610837,-77.696119],[163.701691,-77.699719],[163.871673,-77.690291],[163.943909,-77.683337],[164.069455,-77.657246],[164.3114,-77.642519],[164.361691,-77.650555],[164.530028,-77.716946],[164.568073,-77.745155],[164.546109,-77.776128],[164.498082,-77.800846],[164.528355,-77.849182],[164.591964,-77.893346],[164.599746,-77.934328],[164.558873,-77.999655],[164.457791,-78.076955],[164.234191,-78.118637],[164.204528,-78.133473],[164.232791,-78.147782],[164.341128,-78.143628],[164.518619,-78.121946],[164.599728,-78.089046],[164.928891,-78.035855],[164.969319,-78.042373],[165.004155,-78.060028],[165.002228,-78.094591],[164.909528,-78.158764],[164.926682,-78.245291],[164.948919,-78.254473],[165.023591,-78.25031],[165.149419,-78.2253],[165.196673,-78.21071],[165.216946,-78.195291],[165.202482,-78.173628],[165.163891,-78.155146],[165.150755,-78.1341],[165.183591,-78.119464],[165.389164,-78.069455],[165.499982,-78.004873],[165.540009,-78.003355],[165.690809,-78.0653],[165.703609,-78.089455],[165.673891,-78.118064],[165.627809,-78.139455],[165.448637,-78.190855],[165.526091,-78.228364],[165.755555,-78.280837],[165.7803,-78.292928],[165.779446,-78.322528],[165.695828,-78.365282],[165.6786,-78.386128],[165.706119,-78.398055],[166.038082,-78.449464],[166.443364,-78.476137],[166.938628,-78.483919],[167.085846,-78.50031],[167.165009,-78.516964],[167.202346,-78.535855],[167.279691,-78.622791],[167.263673,-78.657164],[167.221409,-78.667237],[167.146364,-78.67111],[166.970855,-78.679182],[166.900546,-78.674191],[167.001919,-78.63981],[166.988191,-78.605428],[166.914464,-78.586682],[166.650546,-78.551955],[166.217773,-78.52],[165.841946,-78.539746],[165.640291,-78.576128],[165.488309,-78.586964],[165.175564,-78.591128],[164.899746,-78.572237],[164.652528,-78.577528],[164.494446,-78.569746],[164.315309,-78.585864],[164.112519,-78.621691],[164.0278,-78.678073],[163.988619,-78.688082],[163.666964,-78.696119],[163.545564,-78.706391],[163.4346,-78.730428],[163.3475,-78.762219],[163.136137,-78.79611],[162.901128,-78.8064],[162.879728,-78.811673],[162.856419,-78.83751],[162.866955,-78.870219],[162.835019,-78.9375],[162.781673,-78.948346],[162.671419,-78.951673],[162.550291,-78.938082],[162.530019,-78.921119],[162.547364,-78.902246],[162.519882,-78.880019],[162.47,-78.86031],[162.436673,-78.856673],[161.825291,-78.865864],[161.781537,-78.872528],[161.750264,-78.899837],[161.799191,-78.952237],[161.781682,-78.964755],[161.726964,-78.9753],[161.449737,-78.973355],[161.290864,-78.981137],[161.195864,-78.995282],[161.066409,-79.035282],[160.958891,-79.045291],[160.855009,-79.044737],[160.550564,-79.01251],[160.494173,-79.020855],[160.167509,-79.097228],[160.054873,-79.137928],[160.040009,-79.152782],[160.100282,-79.173064],[160.394473,-79.193346],[160.509046,-79.221955],[160.555928,-79.287582],[160.543064,-79.30751],[160.3714,-79.333082],[160.347519,-79.351819],[160.393619,-79.366119],[160.595,-79.373064],[160.736819,-79.447928],[160.715028,-79.460019],[160.493073,-79.501128],[160.469591,-79.512782],[160.481555,-79.5396],[160.4603,-79.558628],[160.178619,-79.6239],[159.947237,-79.763919],[159.800564,-79.82861],[159.705291,-79.858082],[159.596682,-79.8792],[159.249728,-79.922246],[159.121946,-79.956128],[159.097791,-79.974446],[159.198337,-79.991973],[159.356137,-79.9939],[159.750028,-79.955564],[159.991673,-79.955846],[160.2153,-79.91251],[160.374173,-79.913082],[160.482237,-79.9267],[160.528355,-79.944455],[160.568482,-79.986691],[160.560973,-80.018064],[160.524446,-80.0414],[160.406955,-80.077528],[160.177519,-80.117528],[159.872528,-80.145855],[158.500855,-80.238346],[158.086119,-80.27501],[158.066755,-80.288619],[158.307528,-80.361682],[158.3739,-80.398891],[158.402237,-80.455155],[158.441955,-80.46251],[158.638646,-80.458355],[158.810028,-80.483337],[158.930846,-80.479737],[159.210019,-80.43611],[159.744173,-80.397519],[160.119446,-80.40141],[160.287228,-80.384182],[160.770019,-80.360564],[160.891964,-80.3775],[161.011673,-80.464182],[160.988064,-80.493473],[160.883909,-80.510846],[160.678891,-80.5128],[160.604737,-80.533337],[160.298619,-80.564455],[160.221682,-80.565855],[160.113346,-80.549382],[160.086119,-80.533337],[160.018346,-80.529446],[159.842528,-80.54611],[159.782228,-80.556673],[159.763691,-80.572728],[159.820555,-80.5928],[160.1564,-80.648055],[160.438082,-80.640028],[160.786409,-80.591691],[160.865291,-80.587237],[160.928073,-80.597782],[160.945709,-80.620573],[160.969728,-80.629728],[161.174473,-80.635555],[161.200009,-80.669173],[161.181673,-80.682782],[160.824191,-80.712237],[160.738891,-80.7428],[160.738346,-80.769746],[160.706973,-80.776673],[160.141109,-80.758364],[160.042237,-80.773055],[160.017091,-80.79391],[160.086673,-80.8167],[160.336946,-80.849728],[160.548064,-80.895],[160.798891,-80.888919],[160.846264,-80.896682],[160.824464,-80.906673],[160.554173,-80.939455],[160.524446,-80.9453],[160.509737,-80.961546],[160.650846,-81.041119],[160.794191,-81.067228],[160.835982,-81.086619],[160.803346,-81.099728],[160.641419,-81.104446],[160.607237,-81.117164],[160.722791,-81.1464],[160.740628,-81.164737],[160.695282,-81.185855],[160.6214,-81.200019],[160.713346,-81.213055],[160.977237,-81.211964],[161.000309,-81.217519],[160.978209,-81.228482],[161.061128,-81.241682],[161.543064,-81.235019],[161.960573,-81.2039],[162.115291,-81.2039],[162.208073,-81.226673],[162.188628,-81.300846],[162.133364,-81.319455],[161.961673,-81.341128],[161.601409,-81.361391],[161.457791,-81.376955],[161.430009,-81.395773],[161.439119,-81.4246],[161.418064,-81.447782],[161.3078,-81.47641],[161.099455,-81.485564],[160.588346,-81.485855],[160.409455,-81.506664],[160.398891,-81.524464],[160.641109,-81.576955],[160.814728,-81.6003],[161.031955,-81.5914],[161.358609,-81.556964],[161.453064,-81.556964],[161.753082,-81.585864],[161.923064,-81.631955],[162.275846,-81.662228],[162.309309,-81.670719],[162.346128,-81.720582],[162.347228,-81.758073],[162.298491,-81.774873],[162.320009,-81.78391],[162.522519,-81.806673],[162.736119,-81.8114],[162.851682,-81.8239],[162.889173,-81.839873],[162.901746,-81.865146],[162.797928,-81.890846],[162.928073,-81.935028],[163.171964,-81.949719],[163.234746,-81.981673],[163.464173,-82.016691],[163.755864,-82.0753],[163.803073,-82.101137],[163.844055,-82.136973],[163.858082,-82.178482],[163.8064,-82.20531],[163.698337,-82.223073],[163.459164,-82.243346],[163.439746,-82.259891],[163.473909,-82.270582],[164.172519,-82.3553],[164.787228,-82.369464],[165.319455,-82.421955],[165.4147,-82.451419],[165.458055,-82.494864],[165.413328,-82.513919],[165.266664,-82.535019],[165.240146,-82.553891],[165.261691,-82.563337],[165.6478,-82.6178],[166.066955,-82.6364],[166.333619,-82.656673],[166.363482,-82.66531],[166.339446,-82.676955],[166.1947,-82.697528],[166.148528,-82.7139],[166.163637,-82.727491],[166.523346,-82.78891],[166.675809,-82.797246],[166.929746,-82.761137],[167.079164,-82.755846],[167.303037,-82.777255],[167.349455,-82.788637],[167.366673,-82.802782],[167.299164,-82.814182],[167.151091,-82.821682],[166.813082,-82.822782],[166.772491,-82.838064],[166.790555,-82.854446],[166.859709,-82.871419],[167.126128,-82.898364],[167.159864,-82.91181],[167.139164,-82.925582],[166.7872,-82.953082],[166.723355,-82.968073],[166.752809,-82.977528],[167.282473,-83.006137],[167.612519,-83.001955],[168.019437,-82.973073],[168.360264,-82.994173],[168.457355,-83.017655],[168.5264,-83.077528],[168.654146,-83.120837],[168.688264,-83.150564],[168.672764,-83.170291],[168.508637,-83.232237],[168.448637,-83.243346],[167.913909,-83.275846],[167.789319,-83.295437],[167.874037,-83.324182],[167.846409,-83.33751],[167.530273,-83.36391],[167.483037,-83.380846],[167.454319,-83.400282],[167.447637,-83.429319],[167.469728,-83.439182],[167.840819,-83.466691],[168.156373,-83.469173],[168.2753,-83.452528],[168.446682,-83.409728],[168.812228,-83.340573],[168.9483,-83.328355],[169.250828,-83.330019],[169.340273,-83.339446],[169.453037,-83.369464],[169.758637,-83.37361],[169.917237,-83.385282],[170.127809,-83.430028],[170.2103,-83.44],[170.673891,-83.447528],[170.703709,-83.473873],[170.746646,-83.494464],[170.813328,-83.504728],[171.0697,-83.511137],[171.411409,-83.501419],[171.449982,-83.506137],[171.4686,-83.5164],[171.4447,-83.527528],[171.313328,-83.553364],[171.274173,-83.572655],[171.408909,-83.577237],[171.790837,-83.549728],[172.000828,-83.5517],[172.226409,-83.566119],[172.284428,-83.577791],[172.317273,-83.600773],[172.253055,-83.644473],[172.207764,-83.658082],[171.896946,-83.71251],[171.872528,-83.72961],[171.868346,-83.7525],[171.885819,-83.789055],[171.905028,-83.8017],[172.009182,-83.793064],[172.176364,-83.72],[172.250582,-83.70891],[172.361082,-83.7164],[172.596409,-83.79781],[172.680255,-83.841264],[172.730282,-83.856137],[173.105528,-83.866119],[173.2933,-83.9053],[173.345855,-83.909191],[173.496091,-83.898891],[173.746946,-83.85861],[173.890837,-83.846119],[174.448064,-83.82141],[174.741673,-83.828355],[174.991119,-83.856419],[175.035946,-83.872237],[175.048582,-83.89211],[175.021528,-83.917655],[175.051364,-83.935028],[175.208073,-83.954464],[175.560819,-83.955846],[176.396664,-84.002246],[177.081364,-84.076128],[177.216646,-84.104446],[177.4411,-84.107791],[177.846409,-84.088055],[178.045837,-84.090028],[178.097837,-84.105846],[178.028746,-84.159046],[178.102509,-84.175846],[178.189419,-84.184191],[178.461391,-84.19501],[178.5986,-84.192228],[179.108919,-84.143346],[179.511691,-84.155019],[179.615128,-84.174746],[179.593873,-84.194746],[179.388609,-84.219464],[179.3232,-84.242237],[179.360264,-84.253355],[179.528628,-84.272519],[180.0,-84.302246],[180.0,-60.000001],[150.0,-60.000001],[150.0,-68.430872]],[[154.978637,-68.981137],[155.040555,-68.936401],[155.0907,-68.922146],[155.263337,-68.951955],[155.3064,-68.978073],[155.310855,-69.008073],[155.263646,-69.034455],[155.200837,-69.04611],[155.014737,-69.049728],[154.964755,-69.036391],[154.954609,-69.015846],[154.978637,-68.981137]],[[155.524873,-69.004046],[155.540555,-68.99501],[155.664464,-69.008073],[155.8837,-69.058973],[155.918337,-69.089446],[155.916264,-69.112655],[155.906955,-69.131391],[155.873628,-69.151128],[155.776128,-69.151128],[155.736691,-69.142228],[155.638646,-69.098637],[155.536137,-69.086682],[155.515719,-69.065837],[155.524873,-69.004046]],[[162.297928,-66.191964],[162.327519,-66.171955],[162.363891,-66.166401],[162.470582,-66.240282],[162.610837,-66.361955],[162.613355,-66.375991],[162.592228,-66.417528],[162.568082,-66.435028],[162.549746,-66.436673],[162.402255,-66.365864],[162.350009,-66.32501],[162.306946,-66.264737],[162.282655,-66.217246],[162.297928,-66.191964]],[[162.959473,-66.568073],[163.021391,-66.567519],[163.098355,-66.600301],[163.118346,-66.623064],[163.136691,-66.691973],[163.137791,-66.71251],[163.1228,-66.744464],[163.106964,-66.756137],[163.077791,-66.758073],[163.054473,-66.748355],[163.020573,-66.716946],[162.948909,-66.585864],[162.948346,-66.575573],[162.959473,-66.568073]],[[164.559309,-67.274873],[164.631682,-67.252501],[164.678073,-67.256137],[164.703919,-67.268346],[164.770846,-67.335019],[164.837391,-67.419873],[164.881409,-67.524464],[164.879455,-67.551137],[164.801391,-67.590282],[164.766109,-67.60001],[164.737519,-67.595582],[164.665282,-67.553891],[164.6203,-67.511973],[164.616546,-67.498082],[164.636964,-67.463055],[164.644864,-67.413073],[164.556546,-67.28821],[164.559309,-67.274873]],[[166.081364,-78.101964],[166.1058,-78.098073],[166.279691,-78.11501],[166.686128,-78.17751],[166.769928,-78.219382],[166.745273,-78.239746],[166.434691,-78.284455],[166.3522,-78.313628],[166.290255,-78.310564],[166.142764,-78.278073],[166.098355,-78.255573],[166.188873,-78.220291],[166.197491,-78.210582],[166.186109,-78.169873],[166.072755,-78.135028],[166.064709,-78.117937],[166.081364,-78.101964]],[[166.420837,-77.483082],[166.619846,-77.384237],[166.591646,-77.35751],[166.413328,-77.305028],[166.372228,-77.276882],[166.423464,-77.2371],[166.631655,-77.17281],[166.896119,-77.179182],[167.063219,-77.208764],[167.091946,-77.226964],[167.153746,-77.290419],[167.140291,-77.319737],[167.229191,-77.353073],[167.3797,-77.383619],[167.804173,-77.410282],[168.036409,-77.392228],[168.229428,-77.35751],[168.353337,-77.355564],[168.873628,-77.402255],[169.094173,-77.433337],[169.355528,-77.447528],[169.450837,-77.47],[169.451109,-77.496691],[169.421964,-77.528355],[169.2861,-77.568891],[168.940555,-77.640291],[168.565309,-77.687228],[168.301937,-77.67641],[168.163082,-77.641964],[168.103637,-77.639173],[167.8197,-77.64281],[167.680546,-77.633364],[167.547209,-77.6414],[167.348909,-77.6917],[167.284728,-77.727246],[166.940846,-77.786682],[166.890291,-77.814182],[166.856519,-77.849182],[166.776646,-77.857791],[166.745273,-77.85751],[166.690128,-77.83931],[166.678619,-77.821955],[166.705019,-77.804737],[166.788755,-77.77891],[166.873691,-77.729382],[166.839719,-77.720582],[166.589146,-77.719746],[166.557773,-77.708828],[166.584446,-77.696682],[166.809146,-77.692228],[166.876173,-77.679028],[166.858582,-77.665573],[166.533909,-77.648364],[166.375,-77.6239],[166.242646,-77.577091],[166.2171,-77.535437],[166.420837,-77.483082]],[[166.874173,-78.194746],[167.146364,-78.134737],[167.322755,-78.076673],[167.349455,-78.064746],[167.378482,-78.036128],[167.379155,-78.024055],[167.393864,-78.008073],[167.425019,-77.997528],[167.483919,-77.996419],[167.585537,-78.014737],[167.677091,-78.120846],[167.653873,-78.156419],[167.625582,-78.181673],[167.524419,-78.236973],[167.485019,-78.248355],[167.061673,-78.251955],[166.924709,-78.229446],[166.871646,-78.208082],[166.874173,-78.194746]],[[168.373628,-76.155837],[168.420291,-76.147519],[168.490819,-76.158619],[168.542782,-76.1814],[168.603337,-76.232791],[168.506955,-76.225846],[168.435819,-76.205564],[168.3714,-76.1767],[168.3622,-76.166546],[168.373628,-76.155837]],[[169.4603,-73.510564],[169.509428,-73.480028],[169.525846,-73.429182],[169.574191,-73.365282],[169.673891,-73.303619],[169.845309,-73.289173],[169.8907,-73.297655],[169.8497,-73.338628],[169.852937,-73.375428],[169.929855,-73.445164],[169.918028,-73.554182],[169.909182,-73.560291],[169.824437,-73.595582],[169.799164,-73.598355],[169.542482,-73.594746],[169.388182,-73.536419],[169.4603,-73.510564]]]]}}
