{"type":"Feature","properties":{"mrgid":9069,"name":"São Paulo","placeType":"State","source":"World:brazil_states"},"geometry":{"type":"MultiPolygon","coordinates":[[[[-48.002389,-25.246222],[-48.004019,-25.248338],[-48.001949,-25.249101],[-48.002389,-25.246222]]],[[[-46.901854,-24.390681],[-46.90473,-24.386924],[-46.903862,-24.397133],[-46.901854,-24.390681]]],[[[-46.909876,-24.374337],[-46.911305,-24.379554],[-46.909227,-24.381456],[-46.909876,-24.374337]]],[[[-46.978963,-24.366663],[-46.980395,-24.37188],[-46.978318,-24.373783],[-46.978963,-24.366663]]],[[[-46.294124,-24.027641],[-46.295092,-24.028143],[-46.294862,-24.028635],[-46.294124,-24.027641]]],[[[-46.29211,-24.024663],[-46.293755,-24.025555],[-46.293035,-24.026275],[-46.29211,-24.024663]]],[[[-46.254138,-24.00159],[-46.255802,-24.000869],[-46.253735,-24.002668],[-46.254138,-24.00159]]],[[[-46.183851,-23.97281],[-46.18419,-23.974872],[-46.182708,-23.975355],[-46.183851,-23.97281]]],[[[-46.175859,-23.969894],[-46.176491,-23.969892],[-46.176831,-23.97053],[-46.175859,-23.969894]]],[[[-46.165936,-23.96698],[-46.167672,-23.966421],[-46.167893,-23.967792],[-46.165936,-23.96698]]],[[[-46.169768,-23.927285],[-46.170387,-23.927524],[-46.170141,-23.92785],[-46.169768,-23.927285]]],[[[-45.296609,-23.917477],[-45.298031,-23.91871],[-45.296584,-23.920214],[-45.296609,-23.917477]]],[[[-45.323834,-23.916991],[-45.326455,-23.917332],[-45.325653,-23.918659],[-45.323834,-23.916991]]],[[[-46.129193,-23.889212],[-46.136314,-23.892376],[-46.135364,-23.894796],[-46.129193,-23.889212]]],[[[-45.260437,-23.889092],[-45.263107,-23.888305],[-45.261722,-23.890031],[-45.260437,-23.889092]]],[[[-46.121525,-23.878993],[-46.12766,-23.880467],[-46.123308,-23.882822],[-46.121525,-23.878993]]],[[[-46.131039,-23.866772],[-46.135253,-23.87103],[-46.133317,-23.871848],[-46.131039,-23.866772]]],[[[-45.775766,-23.859992],[-45.785346,-23.858935],[-45.787576,-23.868151],[-45.782204,-23.871013],[-45.775766,-23.859992]]],[[[-45.280133,-23.852057],[-45.281008,-23.853187],[-45.279964,-23.85457],[-45.280133,-23.852057]]],[[[-45.522654,-23.85493],[-45.520446,-23.848636],[-45.523203,-23.846169],[-45.526588,-23.849956],[-45.522654,-23.85493]]],[[[-45.445892,-23.834504],[-45.448606,-23.835191],[-45.447806,-23.8374],[-45.445892,-23.834504]]],[[[-45.410202,-23.829359],[-45.411856,-23.829522],[-45.409848,-23.831141],[-45.410202,-23.829359]]],[[[-45.392769,-23.828039],[-45.393747,-23.828814],[-45.392895,-23.829704],[-45.392769,-23.828039]]],[[[-45.154483,-23.827673],[-45.160181,-23.831239],[-45.153845,-23.837004],[-45.154483,-23.827673]]],[[[-46.024901,-23.826138],[-46.025988,-23.825856],[-46.026624,-23.827229],[-46.024901,-23.826138]]],[[[-45.227902,-23.813714],[-45.23035,-23.815005],[-45.227787,-23.816589],[-45.227902,-23.813714]]],[[[-45.66765,-23.804097],[-45.671206,-23.805693],[-45.670821,-23.807971],[-45.66765,-23.804097]]],[[[-45.719089,-23.799023],[-45.72623,-23.80228],[-45.716101,-23.806802],[-45.719089,-23.799023]]],[[[-45.140221,-23.800374],[-45.138731,-23.792943],[-45.161693,-23.80589],[-45.146598,-23.821439],[-45.132442,-23.812872],[-45.117526,-23.816168],[-45.115258,-23.807561],[-45.140221,-23.800374]]],[[[-45.714398,-23.794398],[-45.709143,-23.789136],[-45.717059,-23.791923],[-45.714398,-23.794398]]],[[[-45.704939,-23.787282],[-45.708051,-23.789588],[-45.705897,-23.790213],[-45.704939,-23.787282]]],[[[-45.799,-23.773028],[-45.800815,-23.773358],[-45.799134,-23.773885],[-45.799,-23.773028]]],[[[-45.015058,-23.747252],[-45.025218,-23.745373],[-45.025644,-23.75228],[-45.015919,-23.766099],[-45.009164,-23.7601],[-45.010247,-23.752562],[-45.018225,-23.75394],[-45.015058,-23.747252]]],[[[-45.024007,-23.741397],[-45.025801,-23.74125],[-45.024963,-23.742585],[-45.024007,-23.741397]]],[[[-45.318579,-23.723468],[-45.341518,-23.727756],[-45.348885,-23.765229],[-45.372242,-23.818618],[-45.461763,-23.887582],[-45.459826,-23.915626],[-45.427421,-23.941459],[-45.358724,-23.928798],[-45.348195,-23.917144],[-45.338529,-23.924583],[-45.324432,-23.91201],[-45.290743,-23.910515],[-45.28038,-23.926839],[-45.286545,-23.940159],[-45.278989,-23.951748],[-45.267739,-23.963764],[-45.251046,-23.966065],[-45.227152,-23.941251],[-45.236179,-23.94238],[-45.238569,-23.908545],[-45.224653,-23.903224],[-45.243018,-23.892149],[-45.247875,-23.901911],[-45.272295,-23.892033],[-45.277433,-23.883831],[-45.269374,-23.875001],[-45.288123,-23.873098],[-45.290266,-23.866334],[-45.272762,-23.838792],[-45.238683,-23.843773],[-45.228261,-23.838668],[-45.241798,-23.839182],[-45.238737,-23.831493],[-45.248697,-23.824957],[-45.239001,-23.818854],[-45.24236,-23.809019],[-45.23003,-23.776886],[-45.258836,-23.759292],[-45.261974,-23.742649],[-45.318579,-23.723468]],[[-45.387361,-23.831763],[-45.385008,-23.831715],[-45.393657,-23.83893],[-45.387361,-23.831763]]],[[[-45.289754,-23.592651],[-45.296278,-23.602166],[-45.283336,-23.601904],[-45.28128,-23.593578],[-45.289754,-23.592651]]],[[[-45.309443,-23.586122],[-45.311443,-23.586955],[-45.308474,-23.588808],[-45.309443,-23.586122]]],[[[-45.311866,-23.581788],[-45.313896,-23.583342],[-45.311866,-23.584166],[-45.311866,-23.581788]]],[[[-45.158512,-23.559704],[-45.163902,-23.568402],[-45.158064,-23.573321],[-45.146934,-23.57159],[-45.158512,-23.559704]]],[[[-45.025282,-23.549645],[-45.026644,-23.550141],[-45.025079,-23.550774],[-45.025282,-23.549645]]],[[[-45.216317,-23.549725],[-45.217885,-23.549525],[-45.217812,-23.550837],[-45.216317,-23.549725]]],[[[-45.028923,-23.547113],[-45.030542,-23.547834],[-45.029592,-23.548517],[-45.028923,-23.547113]]],[[[-45.212391,-23.531794],[-45.213541,-23.532609],[-45.211649,-23.5334],[-45.212391,-23.531794]]],[[[-45.078294,-23.535793],[-45.080961,-23.52586],[-45.078404,-23.564752],[-45.039816,-23.534865],[-45.059736,-23.526633],[-45.064037,-23.537651],[-45.078294,-23.535793]]],[[[-45.041222,-23.516212],[-45.043394,-23.519228],[-45.041962,-23.520448],[-45.041222,-23.516212]]],[[[-44.904409,-23.423122],[-44.907786,-23.423533],[-44.907844,-23.427295],[-44.904409,-23.423122]]],[[[-44.862786,-23.422819],[-44.864685,-23.423095],[-44.8633,-23.424345],[-44.862786,-23.422819]]],[[[-44.852618,-23.422145],[-44.855812,-23.41551],[-44.861926,-23.425881],[-44.852618,-23.422145]]],[[[-44.851856,-23.404491],[-44.853344,-23.405632],[-44.851514,-23.405974],[-44.851856,-23.404491]]],[[[-44.852163,-23.398195],[-44.854274,-23.398359],[-44.854146,-23.401551],[-44.852163,-23.398195]]],[[[-44.93678,-23.388511],[-44.936914,-23.387723],[-44.938684,-23.388909],[-44.93678,-23.388511]]],[[[-44.943512,-23.385255],[-44.94795,-23.386261],[-44.947025,-23.388649],[-44.943512,-23.385255]]],[[[-44.888761,-23.381629],[-44.891479,-23.385835],[-44.887994,-23.38585],[-44.888761,-23.381629]]],[[[-44.902676,-23.377466],[-44.905549,-23.376959],[-44.907134,-23.379219],[-44.902676,-23.377466]]],[[[-44.902773,-23.3494],[-44.907621,-23.35257],[-44.906503,-23.355036],[-44.902773,-23.3494]]],[[[-50.417133,-19.801136],[-50.471918,-19.779656],[-50.49897,-19.795784],[-50.57454,-19.814505],[-50.607347,-19.857967],[-50.636184,-19.875063],[-50.658105,-19.907147],[-50.783602,-19.937229],[-50.851583,-19.969767],[-50.872874,-19.989597],[-50.908135,-19.994257],[-50.947054,-20.031252],[-50.969129,-20.036445],[-50.996534,-20.077315],[-51.069163,-20.250049],[-51.132414,-20.295532],[-51.295685,-20.328482],[-51.342705,-20.35466],[-51.40928,-20.459571],[-51.449229,-20.482815],[-51.463783,-20.501453],[-51.500222,-20.568216],[-51.594148,-20.643848],[-51.634899,-20.754848],[-51.622398,-20.776872],[-51.632977,-20.821558],[-51.629701,-20.861453],[-51.613478,-20.890078],[-51.623587,-20.944433],[-51.659646,-20.968504],[-51.72223,-20.976768],[-51.768482,-21.036522],[-51.789671,-21.10212],[-51.82359,-21.12684],[-51.875862,-21.136147],[-51.879574,-21.199431],[-51.848514,-21.266638],[-51.86196,-21.341618],[-51.907536,-21.386456],[-51.928682,-21.455816],[-51.952399,-21.473604],[-51.967903,-21.501762],[-52.000368,-21.516626],[-52.066452,-21.504592],[-52.093107,-21.537759],[-52.102164,-21.569814],[-52.072426,-21.593101],[-52.04952,-21.643089],[-52.049862,-21.663103],[-52.062866,-21.689634],[-52.103789,-21.746054],[-52.140049,-21.75573],[-52.161262,-21.770774],[-52.183984,-21.814461],[-52.190561,-21.846145],[-52.301485,-21.942169],[-52.319019,-21.972132],[-52.345435,-22.061975],[-52.377218,-22.106678],[-52.396404,-22.118867],[-52.415019,-22.148826],[-52.479966,-22.200882],[-52.489842,-22.218295],[-52.571019,-22.248428],[-52.650277,-22.301001],[-52.695134,-22.314611],[-52.745835,-22.343313],[-52.798331,-22.378273],[-52.857843,-22.441483],[-52.998579,-22.493181],[-53.014361,-22.520666],[-53.039801,-22.527396],[-53.077984,-22.553338],[-53.110112,-22.610225],[-53.087787,-22.658445],[-53.074724,-22.64134],[-52.984858,-22.57635],[-52.924743,-22.565624],[-52.858363,-22.608001],[-52.81544,-22.597043],[-52.708251,-22.628062],[-52.663037,-22.611917],[-52.589344,-22.566097],[-52.575774,-22.571974],[-52.545377,-22.611743],[-52.502677,-22.634556],[-52.44071,-22.607214],[-52.368611,-22.629337],[-52.305375,-22.636817],[-52.278695,-22.62039],[-52.250413,-22.615426],[-52.235077,-22.62568],[-52.222577,-22.675535],[-52.156678,-22.644719],[-52.162492,-22.601175],[-52.147575,-22.546462],[-52.127602,-22.519923],[-52.105852,-22.516662],[-52.060048,-22.537766],[-52.012651,-22.541696],[-51.940513,-22.567343],[-51.865563,-22.631168],[-51.774487,-22.614418],[-51.751624,-22.618082],[-51.734345,-22.625466],[-51.718174,-22.669021],[-51.627879,-22.658241],[-51.58918,-22.686462],[-51.559569,-22.697179],[-51.531838,-22.687157],[-51.498902,-22.690529],[-51.44641,-22.652952],[-51.424726,-22.653511],[-51.397122,-22.667811],[-51.373649,-22.658133],[-51.306495,-22.67449],[-51.2652,-22.667697],[-51.228336,-22.716017],[-51.182535,-22.732263],[-51.154306,-22.75337],[-51.057615,-22.766057],[-51.005549,-22.793821],[-50.97189,-22.782448],[-50.944588,-22.80466],[-50.892251,-22.794926],[-50.842387,-22.831398],[-50.830665,-22.862173],[-50.792952,-22.894354],[-50.803992,-22.945737],[-50.795935,-22.951179],[-50.758664,-22.947654],[-50.73637,-22.963351],[-50.709839,-22.953442],[-50.682083,-22.906197],[-50.661585,-22.895477],[-50.620315,-22.91216],[-50.611604,-22.923603],[-50.577057,-22.903944],[-50.534766,-22.914311],[-50.52444,-22.937869],[-50.511019,-22.944639],[-50.482739,-22.936935],[-50.430302,-22.946407],[-50.418277,-22.931288],[-50.418948,-22.913933],[-50.379075,-22.905406],[-50.358584,-22.917068],[-50.336159,-22.950397],[-50.273388,-22.931001],[-50.247611,-22.937798],[-50.240982,-22.95304],[-50.23061,-22.954114],[-50.216882,-22.947899],[-50.183393,-22.953773],[-50.151433,-22.93516],[-50.121067,-22.941341],[-50.092826,-22.922505],[-50.06747,-22.927515],[-50.047853,-22.901964],[-50.01624,-22.910335],[-50.006058,-22.926929],[-49.994874,-22.929719],[-49.998078,-22.900235],[-49.986165,-22.897505],[-49.962049,-22.923313],[-49.974198,-22.954497],[-49.969333,-22.964478],[-49.899585,-23.002005],[-49.915903,-23.034788],[-49.911602,-23.051119],[-49.886767,-23.064653],[-49.87905,-23.059685],[-49.869326,-23.071222],[-49.833659,-23.065943],[-49.789179,-23.103346],[-49.740239,-23.099168],[-49.725551,-23.109438],[-49.734903,-23.133731],[-49.730489,-23.141446],[-49.711272,-23.156201],[-49.701369,-23.15308],[-49.698489,-23.164315],[-49.67832,-23.165062],[-49.683266,-23.173611],[-49.653752,-23.212037],[-49.647104,-23.251712],[-49.625803,-23.28665],[-49.631397,-23.304416],[-49.621694,-23.33189],[-49.631294,-23.344178],[-49.636213,-23.339771],[-49.637096,-23.35162],[-49.607194,-23.357391],[-49.590402,-23.382793],[-49.592473,-23.389574],[-49.6011,-23.383968],[-49.620607,-23.388718],[-49.621012,-23.397419],[-49.600418,-23.396719],[-49.603676,-23.407812],[-49.581017,-23.413851],[-49.580805,-23.431718],[-49.566624,-23.42642],[-49.572952,-23.443944],[-49.57913,-23.436936],[-49.59564,-23.440382],[-49.603261,-23.452525],[-49.598577,-23.477157],[-49.61488,-23.472201],[-49.6134,-23.486831],[-49.621379,-23.493325],[-49.612817,-23.508272],[-49.621751,-23.505944],[-49.629387,-23.514254],[-49.600206,-23.535624],[-49.605717,-23.541665],[-49.599688,-23.557428],[-49.60799,-23.565232],[-49.602849,-23.583974],[-49.61891,-23.594343],[-49.621278,-23.608509],[-49.606352,-23.623715],[-49.617146,-23.639586],[-49.585307,-23.658875],[-49.579876,-23.678328],[-49.561736,-23.685696],[-49.549199,-23.704016],[-49.555437,-23.720477],[-49.549891,-23.737737],[-49.565744,-23.734073],[-49.563813,-23.750081],[-49.573463,-23.75604],[-49.560505,-23.761307],[-49.570547,-23.778367],[-49.560719,-23.789679],[-49.560546,-23.814924],[-49.572678,-23.827047],[-49.593008,-23.830302],[-49.586673,-23.84226],[-49.608038,-23.83938],[-49.595881,-23.848424],[-49.610125,-23.853191],[-49.598906,-23.858494],[-49.602464,-23.868282],[-49.585349,-23.890429],[-49.573601,-23.877955],[-49.57753,-23.895982],[-49.554465,-23.915297],[-49.55699,-23.922731],[-49.532208,-23.930106],[-49.523597,-23.916234],[-49.511605,-23.9259],[-49.510372,-23.937156],[-49.524466,-23.935153],[-49.519791,-23.947026],[-49.503922,-23.947173],[-49.500212,-23.959622],[-49.516728,-23.96971],[-49.504474,-23.967719],[-49.493685,-23.977596],[-49.498351,-23.992887],[-49.481422,-24.005224],[-49.492069,-24.014265],[-49.487792,-24.02351],[-49.474382,-24.02006],[-49.473759,-24.027315],[-49.463425,-24.027502],[-49.45754,-24.049485],[-49.437823,-24.058786],[-49.438983,-24.068747],[-49.429786,-24.068709],[-49.43539,-24.075095],[-49.430011,-24.088536],[-49.404882,-24.095849],[-49.409153,-24.108256],[-49.3891,-24.119629],[-49.370847,-24.114383],[-49.361428,-24.128112],[-49.336962,-24.137046],[-49.332459,-24.150121],[-49.340345,-24.15718],[-49.346509,-24.192414],[-49.341544,-24.203122],[-49.35684,-24.211543],[-49.305374,-24.251431],[-49.299041,-24.28637],[-49.288713,-24.291794],[-49.28304,-24.308864],[-49.268689,-24.307826],[-49.250437,-24.319364],[-49.248876,-24.330512],[-49.231213,-24.330395],[-49.224287,-24.340228],[-49.200679,-24.344414],[-49.237819,-24.37902],[-49.25396,-24.407662],[-49.250234,-24.413865],[-49.241003,-24.402072],[-49.235549,-24.409552],[-49.252662,-24.434152],[-49.246922,-24.469098],[-49.263851,-24.474427],[-49.269494,-24.49213],[-49.295261,-24.499903],[-49.279905,-24.535925],[-49.293331,-24.553037],[-49.305573,-24.546392],[-49.315989,-24.555509],[-49.310872,-24.580995],[-49.316355,-24.587554],[-49.303597,-24.596949],[-49.314096,-24.608273],[-49.307076,-24.621738],[-49.316428,-24.638998],[-49.299625,-24.654957],[-49.312015,-24.663533],[-49.305398,-24.67365],[-49.275681,-24.694376],[-49.211819,-24.702365],[-49.206011,-24.687238],[-49.185651,-24.67275],[-49.134823,-24.67556],[-49.111595,-24.688352],[-49.105591,-24.674712],[-49.089071,-24.68054],[-49.079833,-24.672609],[-49.064405,-24.686025],[-49.0374,-24.66042],[-49.032875,-24.641942],[-49.040983,-24.643282],[-49.040034,-24.636847],[-49.015037,-24.641877],[-49.003202,-24.633509],[-49.009427,-24.660369],[-48.990929,-24.655244],[-48.988453,-24.665247],[-48.963289,-24.673215],[-48.958453,-24.685283],[-48.942475,-24.672276],[-48.91526,-24.682912],[-48.905313,-24.67038],[-48.865395,-24.667326],[-48.847876,-24.673878],[-48.858505,-24.6577],[-48.840401,-24.664977],[-48.823986,-24.654798],[-48.811924,-24.674143],[-48.788207,-24.681189],[-48.778652,-24.696732],[-48.757286,-24.679854],[-48.75242,-24.69518],[-48.734536,-24.684482],[-48.703812,-24.680382],[-48.689891,-24.693852],[-48.694088,-24.670683],[-48.676974,-24.671611],[-48.67151,-24.698669],[-48.677195,-24.698411],[-48.660487,-24.706757],[-48.658173,-24.692048],[-48.641642,-24.689667],[-48.645315,-24.681525],[-48.637811,-24.677668],[-48.628174,-24.680511],[-48.61662,-24.668673],[-48.60403,-24.668297],[-48.589253,-24.68053],[-48.582035,-24.670702],[-48.569197,-24.700812],[-48.529175,-24.73159],[-48.53084,-24.738389],[-48.499306,-24.738968],[-48.515673,-24.778416],[-48.555011,-24.80492],[-48.567814,-24.8475],[-48.566676,-24.863958],[-48.54973,-24.867496],[-48.544786,-24.878964],[-48.558344,-24.884586],[-48.559307,-24.901183],[-48.57206,-24.895013],[-48.565511,-24.918687],[-48.570179,-24.931542],[-48.562868,-24.939429],[-48.569676,-24.945246],[-48.562981,-24.950326],[-48.572671,-24.954929],[-48.567371,-24.972267],[-48.576287,-24.984437],[-48.58846,-24.986439],[-48.600831,-25.010506],[-48.598188,-25.020008],[-48.588869,-25.019706],[-48.582662,-25.051646],[-48.56907,-25.051062],[-48.557939,-25.063973],[-48.556008,-25.086553],[-48.528584,-25.100789],[-48.501531,-25.062886],[-48.483292,-25.053192],[-48.474049,-25.012552],[-48.415198,-24.988134],[-48.411153,-24.980232],[-48.37995,-24.995907],[-48.354748,-25.019962],[-48.351228,-25.036489],[-48.324141,-25.036748],[-48.333671,-25.070574],[-48.308615,-25.046705],[-48.307462,-25.035483],[-48.297777,-25.033602],[-48.29717,-25.023389],[-48.287524,-25.039969],[-48.277917,-25.032974],[-48.269586,-24.997535],[-48.254804,-24.996498],[-48.25928,-24.986651],[-48.250281,-24.977418],[-48.229471,-25.001351],[-48.233471,-25.006941],[-48.223356,-25.009124],[-48.230358,-25.021148],[-48.209467,-25.027184],[-48.216054,-25.076672],[-48.205251,-25.098258],[-48.181642,-25.133836],[-48.156886,-25.144653],[-48.191361,-25.196241],[-48.16272,-25.209837],[-48.147946,-25.230854],[-48.114884,-25.250702],[-48.098582,-25.241253],[-48.062106,-25.240085],[-48.057447,-25.218335],[-48.045523,-25.226341],[-48.038707,-25.218622],[-48.026911,-25.221993],[-48.027568,-25.236107],[-48.083109,-25.281997],[-48.099475,-25.312321],[-48.029049,-25.242818],[-47.943328,-25.173593],[-47.921464,-25.160215],[-47.908856,-25.167506],[-47.918909,-25.145717],[-47.908442,-25.118241],[-47.894776,-25.106895],[-47.909934,-25.053387],[-47.887136,-25.052694],[-47.868052,-25.004346],[-47.811138,-24.946595],[-47.573184,-24.763141],[-47.437156,-24.694049],[-47.40163,-24.667996],[-47.403705,-24.662437],[-47.250789,-24.575826],[-47.227959,-24.571052],[-47.228546,-24.559053],[-47.187321,-24.53364],[-47.186846,-24.524723],[-47.152811,-24.496876],[-47.079792,-24.44544],[-47.00814,-24.413424],[-47.001199,-24.397736],[-47.017858,-24.382571],[-47.00576,-24.36654],[-47.001085,-24.334366],[-46.92066,-24.265023],[-46.823424,-24.205932],[-46.521451,-24.049777],[-46.418691,-24.013857],[-46.399733,-24.018105],[-46.399857,-24.033335],[-46.390493,-24.016407],[-46.3839,-24.017472],[-46.392094,-23.998629],[-46.374995,-23.988158],[-46.388898,-23.976231],[-46.37864,-23.969355],[-46.368671,-23.983282],[-46.36855,-23.974426],[-46.357885,-23.970708],[-46.317007,-23.97931],[-46.305848,-23.993247],[-46.321135,-23.998777],[-46.324376,-24.022385],[-46.313107,-24.020431],[-46.311451,-24.028755],[-46.294786,-24.016696],[-46.283655,-24.026147],[-46.289875,-24.039836],[-46.282635,-24.042137],[-46.280424,-24.021285],[-46.263131,-24.014114],[-46.266949,-24.004463],[-46.248643,-23.993321],[-46.21182,-23.985685],[-46.201996,-24.000423],[-46.191084,-23.989747],[-46.182832,-23.991405],[-46.185162,-23.964719],[-46.160865,-23.945255],[-46.178076,-23.93907],[-46.179829,-23.925649],[-46.162406,-23.907237],[-46.146079,-23.905517],[-46.153053,-23.899779],[-46.138491,-23.891448],[-46.139885,-23.874968],[-46.124508,-23.8603],[-46.133001,-23.850601],[-46.118755,-23.835579],[-46.060068,-23.813562],[-46.044477,-23.830955],[-46.038607,-23.81558],[-46.021033,-23.803652],[-45.997286,-23.802834],[-45.989082,-23.791699],[-45.922839,-23.770029],[-45.822326,-23.756981],[-45.803551,-23.761016],[-45.802852,-23.769767],[-45.765946,-23.762227],[-45.75706,-23.770482],[-45.699669,-23.772787],[-45.693053,-23.782639],[-45.681791,-23.774566],[-45.665257,-23.777781],[-45.665838,-23.785725],[-45.643265,-23.777518],[-45.642013,-23.784356],[-45.625399,-23.787071],[-45.622876,-23.804716],[-45.586782,-23.792017],[-45.560551,-23.791886],[-45.554659,-23.810289],[-45.534685,-23.81776],[-45.539676,-23.828667],[-45.512909,-23.831325],[-45.514257,-23.841743],[-45.491227,-23.837066],[-45.48982,-23.829715],[-45.467214,-23.818871],[-45.446462,-23.832846],[-45.440225,-23.826493],[-45.423523,-23.829499],[-45.404899,-23.819708],[-45.406473,-23.809061],[-45.39612,-23.808885],[-45.396798,-23.780366],[-45.412395,-23.753235],[-45.397152,-23.723465],[-45.420515,-23.72589],[-45.430775,-23.682224],[-45.42864,-23.657613],[-45.408381,-23.62496],[-45.388223,-23.634611],[-45.378203,-23.624397],[-45.370712,-23.630404],[-45.35979,-23.625563],[-45.330665,-23.586882],[-45.297253,-23.571699],[-45.278636,-23.574137],[-45.278263,-23.587239],[-45.263083,-23.588349],[-45.262866,-23.596365],[-45.257223,-23.589111],[-45.24124,-23.594005],[-45.232189,-23.583652],[-45.209299,-23.583472],[-45.213138,-23.569136],[-45.207513,-23.565592],[-45.227743,-23.551069],[-45.225404,-23.538108],[-45.193199,-23.521159],[-45.184316,-23.541949],[-45.159915,-23.543332],[-45.155734,-23.530762],[-45.164402,-23.530242],[-45.160471,-23.518509],[-45.170764,-23.513079],[-45.172495,-23.501985],[-45.167045,-23.494186],[-45.159581,-23.501592],[-45.135009,-23.503467],[-45.135973,-23.513815],[-45.111749,-23.521663],[-45.111384,-23.528297],[-45.103902,-23.525897],[-45.105676,-23.509987],[-45.12133,-23.503374],[-45.104857,-23.490795],[-45.102638,-23.500247],[-45.084345,-23.496693],[-45.080966,-23.52339],[-45.064709,-23.49512],[-45.072266,-23.489574],[-45.062126,-23.471746],[-45.014426,-23.46374],[-45.032744,-23.462116],[-45.034832,-23.450225],[-45.053119,-23.461382],[-45.05911,-23.457441],[-45.067351,-23.439151],[-45.057371,-23.432431],[-45.059404,-23.422589],[-45.048365,-23.41985],[-45.042015,-23.42797],[-45.03023,-23.416259],[-45.011952,-23.420921],[-45.006969,-23.408352],[-44.991107,-23.39951],[-44.976177,-23.403316],[-44.908061,-23.334201],[-44.887625,-23.337532],[-44.883821,-23.346187],[-44.89162,-23.373082],[-44.871759,-23.359832],[-44.853954,-23.361507],[-44.838428,-23.369906],[-44.843643,-23.388704],[-44.792371,-23.370101],[-44.784396,-23.378901],[-44.750396,-23.366827],[-44.725814,-23.370379],[-44.759944,-23.341228],[-44.77715,-23.338499],[-44.7867,-23.299972],[-44.807851,-23.283574],[-44.826721,-23.291621],[-44.823759,-23.280692],[-44.839993,-23.26339],[-44.836056,-23.256172],[-44.871993,-23.248955],[-44.889321,-23.226595],[-44.87368,-23.183846],[-44.823112,-23.157675],[-44.825444,-23.143719],[-44.811114,-23.12572],[-44.815984,-23.108073],[-44.809789,-23.099045],[-44.818575,-23.091148],[-44.807326,-23.062128],[-44.811567,-23.054511],[-44.803226,-23.050351],[-44.796289,-23.02605],[-44.793155,-23.010244],[-44.802343,-22.998552],[-44.793314,-22.993714],[-44.792481,-22.982166],[-44.755289,-22.980308],[-44.743554,-22.947518],[-44.711734,-22.929988],[-44.687287,-22.935773],[-44.673251,-22.918293],[-44.659112,-22.927758],[-44.607482,-22.885298],[-44.600462,-22.890868],[-44.57573,-22.878018],[-44.555953,-22.888092],[-44.543652,-22.884945],[-44.532603,-22.869311],[-44.495413,-22.846956],[-44.478721,-22.850868],[-44.480134,-22.866504],[-44.465709,-22.885282],[-44.437645,-22.8731],[-44.423059,-22.850496],[-44.410679,-22.846359],[-44.372878,-22.857924],[-44.325274,-22.837761],[-44.322936,-22.849843],[-44.296522,-22.827877],[-44.285657,-22.828243],[-44.283365,-22.836157],[-44.267679,-22.829244],[-44.261311,-22.806259],[-44.246379,-22.803966],[-44.240029,-22.791988],[-44.256523,-22.787491],[-44.256249,-22.765585],[-44.238778,-22.755725],[-44.242499,-22.748649],[-44.227009,-22.733727],[-44.19896,-22.735287],[-44.204073,-22.718564],[-44.176061,-22.705658],[-44.176574,-22.692378],[-44.161365,-22.678258],[-44.17145,-22.659428],[-44.190885,-22.647334],[-44.184277,-22.637299],[-44.204368,-22.626344],[-44.207426,-22.612022],[-44.221032,-22.61666],[-44.226019,-22.60456],[-44.253388,-22.612471],[-44.268736,-22.598774],[-44.285691,-22.609731],[-44.29543,-22.598463],[-44.345448,-22.587994],[-44.356024,-22.614899],[-44.362791,-22.605407],[-44.359862,-22.593054],[-44.370421,-22.589746],[-44.359808,-22.581174],[-44.382398,-22.573494],[-44.39237,-22.572494],[-44.409486,-22.588296],[-44.398151,-22.602902],[-44.40662,-22.608848],[-44.431193,-22.598627],[-44.464877,-22.61597],[-44.486988,-22.60517],[-44.507487,-22.640535],[-44.514922,-22.630222],[-44.531005,-22.630206],[-44.535005,-22.638107],[-44.537812,-22.633038],[-44.526304,-22.619292],[-44.537538,-22.618194],[-44.550279,-22.603761],[-44.564087,-22.611993],[-44.574057,-22.601734],[-44.583778,-22.626215],[-44.602076,-22.607772],[-44.612659,-22.617368],[-44.622987,-22.605123],[-44.640249,-22.608058],[-44.645705,-22.604207],[-44.645081,-22.555165],[-44.661533,-22.550936],[-44.677783,-22.561122],[-44.669894,-22.538641],[-44.700331,-22.511319],[-44.716072,-22.514485],[-44.710328,-22.500791],[-44.724921,-22.483534],[-44.718358,-22.467306],[-44.733885,-22.433248],[-44.755904,-22.415164],[-44.804674,-22.403946],[-44.807984,-22.414111],[-44.833653,-22.431263],[-44.871506,-22.424086],[-44.889731,-22.432124],[-44.899388,-22.453739],[-44.94007,-22.452669],[-44.965859,-22.475193],[-44.991814,-22.466173],[-45.02715,-22.470227],[-45.028403,-22.463198],[-45.139596,-22.501693],[-45.160009,-22.516917],[-45.164515,-22.537929],[-45.178046,-22.549877],[-45.260173,-22.582053],[-45.261407,-22.607116],[-45.27424,-22.616238],[-45.332962,-22.617639],[-45.397876,-22.653424],[-45.410821,-22.65058],[-45.412932,-22.622216],[-45.435547,-22.618321],[-45.473857,-22.588894],[-45.481072,-22.590804],[-45.474709,-22.597886],[-45.4888,-22.628785],[-45.499128,-22.625011],[-45.539908,-22.65258],[-45.574614,-22.656926],[-45.58437,-22.651689],[-45.555355,-22.626441],[-45.57652,-22.601703],[-45.618128,-22.637914],[-45.666185,-22.651201],[-45.681078,-22.636336],[-45.65886,-22.59811],[-45.660574,-22.577841],[-45.678717,-22.573291],[-45.695439,-22.586339],[-45.716841,-22.577704],[-45.737429,-22.608539],[-45.728845,-22.62048],[-45.717469,-22.62101],[-45.693993,-22.65171],[-45.716183,-22.661992],[-45.742807,-22.659167],[-45.787859,-22.693357],[-45.811641,-22.698708],[-45.817992,-22.711368],[-45.819822,-22.7233],[-45.801456,-22.738618],[-45.756464,-22.72104],[-45.72814,-22.723684],[-45.713412,-22.756947],[-45.711918,-22.773228],[-45.729029,-22.785238],[-45.730334,-22.798594],[-45.713024,-22.813025],[-45.741707,-22.807917],[-45.743802,-22.794735],[-45.754917,-22.792912],[-45.770945,-22.805927],[-45.766965,-22.842346],[-45.790854,-22.858606],[-45.809802,-22.829387],[-45.837245,-22.832072],[-45.848127,-22.837831],[-45.863852,-22.86871],[-45.888915,-22.875817],[-45.891031,-22.844673],[-45.90819,-22.830975],[-45.904304,-22.819254],[-45.912665,-22.816595],[-45.936947,-22.845252],[-45.992354,-22.869596],[-45.992084,-22.877491],[-46.008443,-22.889223],[-46.02733,-22.884669],[-46.051273,-22.896326],[-46.095218,-22.894429],[-46.139094,-22.922755],[-46.15399,-22.9124],[-46.136886,-22.890542],[-46.145028,-22.85719],[-46.234145,-22.881823],[-46.238171,-22.894156],[-46.258531,-22.890575],[-46.266864,-22.875687],[-46.279026,-22.878348],[-46.295029,-22.897819],[-46.314001,-22.886994],[-46.344638,-22.904535],[-46.356311,-22.900303],[-46.377836,-22.87924],[-46.375501,-22.871007],[-46.384192,-22.869966],[-46.372579,-22.860097],[-46.370698,-22.835072],[-46.376811,-22.827819],[-46.361695,-22.788941],[-46.332566,-22.766116],[-46.334541,-22.7603],[-46.36048,-22.761345],[-46.383835,-22.741232],[-46.452723,-22.727582],[-46.457334,-22.707057],[-46.468639,-22.70131],[-46.471672,-22.706341],[-46.47864,-22.697829],[-46.469976,-22.693976],[-46.479804,-22.677521],[-46.470422,-22.673243],[-46.413419,-22.659851],[-46.405005,-22.663435],[-46.405863,-22.67256],[-46.393059,-22.662974],[-46.396312,-22.645982],[-46.42462,-22.633599],[-46.423005,-22.624845],[-46.404758,-22.620893],[-46.424201,-22.599547],[-46.412443,-22.585449],[-46.428723,-22.583926],[-46.433755,-22.573876],[-46.411417,-22.554313],[-46.406952,-22.539933],[-46.426308,-22.547569],[-46.454817,-22.521906],[-46.48457,-22.519242],[-46.491179,-22.510387],[-46.50529,-22.517047],[-46.506991,-22.506959],[-46.542147,-22.494356],[-46.530667,-22.470853],[-46.549865,-22.469549],[-46.554814,-22.44665],[-46.572654,-22.453142],[-46.585134,-22.439448],[-46.603468,-22.443074],[-46.611923,-22.435443],[-46.631607,-22.435836],[-46.6664,-22.415245],[-46.660923,-22.366041],[-46.675907,-22.369289],[-46.69762,-22.343212],[-46.701226,-22.321761],[-46.710983,-22.312788],[-46.717952,-22.316944],[-46.72326,-22.306624],[-46.705284,-22.295824],[-46.710516,-22.284995],[-46.702337,-22.277879],[-46.710892,-22.263947],[-46.688625,-22.248768],[-46.693142,-22.237631],[-46.678168,-22.224042],[-46.674302,-22.176305],[-46.646292,-22.181322],[-46.640458,-22.15772],[-46.613041,-22.150253],[-46.598617,-22.135288],[-46.616116,-22.130655],[-46.622731,-22.109931],[-46.63434,-22.107666],[-46.646755,-22.091893],[-46.700814,-22.095197],[-46.718837,-22.088679],[-46.723443,-22.076821],[-46.664786,-22.068863],[-46.657746,-22.060476],[-46.676365,-22.055439],[-46.685425,-22.037305],[-46.67522,-22.022234],[-46.662203,-22.023696],[-46.649176,-22.009286],[-46.613262,-22.014963],[-46.615869,-21.995545],[-46.643395,-21.976107],[-46.653644,-21.941705],[-46.667975,-21.930578],[-46.665013,-21.920597],[-46.673778,-21.911053],[-46.653168,-21.896013],[-46.647536,-21.880461],[-46.657161,-21.878101],[-46.666731,-21.849054],[-46.67653,-21.850626],[-46.690971,-21.836964],[-46.651202,-21.789443],[-46.654314,-21.779734],[-46.62603,-21.766226],[-46.63082,-21.741522],[-46.622451,-21.715539],[-46.629928,-21.702669],[-46.621595,-21.675543],[-46.576948,-21.68506],[-46.564631,-21.678679],[-46.566698,-21.659202],[-46.550364,-21.652594],[-46.552615,-21.637039],[-46.518228,-21.612822],[-46.521994,-21.584509],[-46.500049,-21.554532],[-46.524176,-21.52185],[-46.50889,-21.489127],[-46.509252,-21.469899],[-46.51956,-21.462018],[-46.519053,-21.448953],[-46.560223,-21.44233],[-46.576514,-21.426957],[-46.60189,-21.443961],[-46.615257,-21.441468],[-46.61846,-21.4212],[-46.638626,-21.409348],[-46.64873,-21.391721],[-46.647199,-21.364193],[-46.666724,-21.361292],[-46.705962,-21.404844],[-46.714722,-21.392662],[-46.73437,-21.39417],[-46.758685,-21.378788],[-46.764705,-21.360064],[-46.791761,-21.373683],[-46.830839,-21.366132],[-46.842084,-21.389108],[-46.855788,-21.389723],[-46.868125,-21.403723],[-46.920776,-21.427131],[-46.964709,-21.418113],[-46.984367,-21.426695],[-47.011508,-21.422273],[-47.007714,-21.410673],[-47.016168,-21.396503],[-47.004582,-21.383569],[-47.009536,-21.37075],[-46.996839,-21.357698],[-46.998585,-21.349087],[-47.016527,-21.342363],[-47.020988,-21.321631],[-47.035181,-21.311023],[-47.029773,-21.299556],[-47.04237,-21.289955],[-47.052282,-21.246519],[-47.077288,-21.240223],[-47.078912,-21.230595],[-47.061761,-21.210862],[-47.086573,-21.207417],[-47.099258,-21.214193],[-47.118788,-21.185752],[-47.118599,-21.149044],[-47.133505,-21.133456],[-47.113151,-21.104921],[-47.142296,-21.088236],[-47.1391,-21.069282],[-47.15703,-21.018825],[-47.143739,-20.982386],[-47.147814,-20.972493],[-47.186619,-20.949493],[-47.19004,-20.928218],[-47.210458,-20.924139],[-47.240044,-20.885282],[-47.214484,-20.827219],[-47.224754,-20.800099],[-47.207069,-20.775531],[-47.188818,-20.770625],[-47.182292,-20.741293],[-47.175192,-20.739262],[-47.186261,-20.731134],[-47.169509,-20.717697],[-47.173125,-20.711919],[-47.164756,-20.70146],[-47.115301,-20.707205],[-47.101235,-20.683166],[-47.096896,-20.644528],[-47.111816,-20.638988],[-47.108735,-20.620805],[-47.12529,-20.608795],[-47.12309,-20.593792],[-47.132396,-20.590784],[-47.142628,-20.566014],[-47.141521,-20.541016],[-47.15115,-20.522047],[-47.211488,-20.502297],[-47.292766,-20.447734],[-47.287289,-20.435149],[-47.2961,-20.427256],[-47.285456,-20.40574],[-47.298208,-20.348436],[-47.28496,-20.33199],[-47.276729,-20.291638],[-47.246266,-20.261444],[-47.231074,-20.219152],[-47.255867,-20.190771],[-47.257044,-20.166204],[-47.296402,-20.145888],[-47.309673,-20.124498],[-47.358676,-20.103982],[-47.374571,-20.083663],[-47.404959,-20.082736],[-47.438708,-20.051089],[-47.444236,-20.027961],[-47.425124,-20.013345],[-47.463322,-19.965789],[-47.470512,-19.960702],[-47.506937,-19.982412],[-47.540158,-19.984325],[-47.552638,-19.996026],[-47.583825,-19.996665],[-47.600725,-20.033348],[-47.634764,-20.049248],[-47.672238,-20.020628],[-47.67615,-20.001916],[-47.704235,-19.979904],[-47.751106,-19.990289],[-47.805658,-19.985132],[-47.83468,-19.996066],[-47.853047,-19.989821],[-47.875831,-20.02141],[-47.87582,-20.03241],[-47.858992,-20.049927],[-47.86927,-20.061865],[-47.875077,-20.098373],[-47.895463,-20.125258],[-47.934102,-20.107854],[-47.948482,-20.055758],[-47.975969,-20.035373],[-47.988517,-20.040348],[-47.990553,-20.076923],[-48.012753,-20.114633],[-48.038194,-20.116997],[-48.049387,-20.137236],[-48.070442,-20.146616],[-48.105487,-20.146356],[-48.147722,-20.12414],[-48.158326,-20.10305],[-48.178606,-20.09618],[-48.191056,-20.060982],[-48.207771,-20.03937],[-48.228499,-20.028214],[-48.246997,-20.03388],[-48.253425,-20.077921],[-48.217747,-20.125289],[-48.254688,-20.143816],[-48.283422,-20.138844],[-48.317134,-20.113347],[-48.374936,-20.123103],[-48.405777,-20.113511],[-48.491116,-20.138123],[-48.574414,-20.130885],[-48.642129,-20.166496],[-48.707108,-20.160217],[-48.731341,-20.149382],[-48.781137,-20.163852],[-48.82933,-20.163225],[-48.855392,-20.180144],[-48.856759,-20.226884],[-48.886546,-20.271163],[-48.88876,-20.294847],[-48.875666,-20.314999],[-48.88003,-20.348349],[-48.867039,-20.398349],[-48.881698,-20.433198],[-48.899863,-20.441336],[-48.966731,-20.397937],[-48.961786,-20.263301],[-48.972023,-20.20779],[-48.984096,-20.173722],[-49.016643,-20.153641],[-49.06748,-20.154744],[-49.122411,-20.273545],[-49.17128,-20.311746],[-49.225294,-20.305343],[-49.235807,-20.294535],[-49.259156,-20.260204],[-49.264276,-20.231263],[-49.299246,-20.167076],[-49.308538,-20.103893],[-49.296311,-20.015574],[-49.280588,-20.003921],[-49.262533,-20.006926],[-49.248339,-19.999637],[-49.245959,-19.978463],[-49.256311,-19.96519],[-49.297538,-19.960545],[-49.356486,-19.986717],[-49.434539,-19.982385],[-49.458242,-19.975931],[-49.487569,-19.955274],[-49.503453,-19.919929],[-49.551485,-19.905841],[-49.606025,-19.916505],[-49.631026,-19.931205],[-49.785623,-19.925224],[-49.835275,-19.933315],[-49.855573,-19.946825],[-49.888337,-19.945305],[-49.962155,-19.920224],[-50.018763,-19.925397],[-50.047239,-19.91539],[-50.097243,-19.875479],[-50.162414,-19.878314],[-50.215652,-19.866648],[-50.245156,-19.876758],[-50.285631,-19.867818],[-50.30641,-19.874086],[-50.336631,-19.869793],[-50.352759,-19.864602],[-50.417133,-19.801136]]]]}}
