{"type":"Feature","properties":{"ALL_Uniq":273740,"name":"Flores","Area_Geode":14037.4111946,"Plate":"Timor"},"geometry":{"type":"Polygon","coordinates":[[[122.86643,-8.063271],[122.850597,-8.074824],[122.844292,-8.070109],[122.84211,-8.074073],[122.84556,-8.079058],[122.838966,-8.081637],[122.830393,-8.096116],[122.814525,-8.095106],[122.80251,-8.101113],[122.80268,-8.104707],[122.796428,-8.10905],[122.789215,-8.1037],[122.782106,-8.10832],[122.777959,-8.135111],[122.784381,-8.150197],[122.777315,-8.162414],[122.761049,-8.178427],[122.759292,-8.19364],[122.750004,-8.198096],[122.734895,-8.212093],[122.730009,-8.222557],[122.733565,-8.227867],[122.741547,-8.228988],[122.746725,-8.226082],[122.755876,-8.229816],[122.762677,-8.225002],[122.769467,-8.231663],[122.787299,-8.235416],[122.791241,-8.226936],[122.797261,-8.223053],[122.799339,-8.207277],[122.809028,-8.198101],[122.819123,-8.194722],[122.820327,-8.191094],[122.82241,-8.194512],[122.832272,-8.193127],[122.847191,-8.181336],[122.84972,-8.188525],[122.855449,-8.187742],[122.86573,-8.175419],[122.870528,-8.179662],[122.881582,-8.180511],[122.886691,-8.175166],[122.89728,-8.178895],[122.900484,-8.175724],[122.901441,-8.179646],[122.918442,-8.193638],[122.924658,-8.194498],[122.925775,-8.192154],[122.931871,-8.195037],[122.938121,-8.192659],[122.939391,-8.199505],[122.935218,-8.203101],[122.9241,-8.204297],[122.912242,-8.217233],[122.908154,-8.225162],[122.907538,-8.236972],[122.895239,-8.255553],[122.893232,-8.277185],[122.87371,-8.293398],[122.850313,-8.289925],[122.835167,-8.295833],[122.826522,-8.29262],[122.818255,-8.298768],[122.810372,-8.298079],[122.797867,-8.312188],[122.788811,-8.316404],[122.765164,-8.362907],[122.734108,-8.357911],[122.723924,-8.360313],[122.705392,-8.373931],[122.688611,-8.378092],[122.685402,-8.382854],[122.668897,-8.389064],[122.65607,-8.390415],[122.632568,-8.381825],[122.620343,-8.383533],[122.615231,-8.388951],[122.617001,-8.396032],[122.610208,-8.399564],[122.603262,-8.392126],[122.596712,-8.392914],[122.59708,-8.401094],[122.590137,-8.410912],[122.591937,-8.42298],[122.582183,-8.429202],[122.571045,-8.428231],[122.563907,-8.44346],[122.548645,-8.461231],[122.548133,-8.464477],[122.551781,-8.462497],[122.549623,-8.46475],[122.535268,-8.462982],[122.531653,-8.47209],[122.529616,-8.468103],[122.529194,-8.470194],[122.517553,-8.466978],[122.491518,-8.473277],[122.478865,-8.492994],[122.493682,-8.514306],[122.518098,-8.52688],[122.513853,-8.537527],[122.517343,-8.546758],[122.506113,-8.556796],[122.494895,-8.579865],[122.48563,-8.584822],[122.484403,-8.594644],[122.472157,-8.609247],[122.461442,-8.603117],[122.45018,-8.603073],[122.433287,-8.60791],[122.417837,-8.607689],[122.408692,-8.61196],[122.398856,-8.607921],[122.363731,-8.611177],[122.350893,-8.618679],[122.338587,-8.616544],[122.329918,-8.618484],[122.318132,-8.632111],[122.312402,-8.632229],[122.295778,-8.642151],[122.280557,-8.636516],[122.271167,-8.636714],[122.266275,-8.63301],[122.250687,-8.632941],[122.220948,-8.620223],[122.215696,-8.608227],[122.210703,-8.605792],[122.207765,-8.607578],[122.206778,-8.602586],[122.202079,-8.604062],[122.203541,-8.597988],[122.20052,-8.601433],[122.196715,-8.599248],[122.158531,-8.554354],[122.139293,-8.550152],[122.131855,-8.543027],[122.127472,-8.544257],[122.10437,-8.529007],[122.093499,-8.53247],[122.088685,-8.529582],[122.09164,-8.539823],[122.086197,-8.54349],[122.080533,-8.541181],[122.07776,-8.527131],[122.065151,-8.521158],[122.06037,-8.522835],[122.059501,-8.52976],[122.047165,-8.525656],[122.042238,-8.519254],[122.036719,-8.528645],[122.02412,-8.525723],[122.020285,-8.530264],[122.015685,-8.529456],[122.009134,-8.519398],[122.010103,-8.513671],[122.005598,-8.510576],[122.012039,-8.505263],[122.008834,-8.49149],[122.014202,-8.48826],[122.009134,-8.487051],[122.018794,-8.472589],[122.01017,-8.464073],[122.018424,-8.466422],[122.014254,-8.459292],[122.022196,-8.457254],[122.019894,-8.451803],[122.023012,-8.451323],[122.025773,-8.445121],[122.024062,-8.440344],[122.018251,-8.443001],[122.013037,-8.44029],[122.008071,-8.442237],[122.004063,-8.4489],[121.994932,-8.448965],[121.993275,-8.452401],[121.983564,-8.446836],[121.980616,-8.452942],[121.966606,-8.458923],[121.962366,-8.468831],[121.955251,-8.473179],[121.952519,-8.468519],[121.958346,-8.46246],[121.948719,-8.45713],[121.960519,-8.446968],[121.957475,-8.443034],[121.954616,-8.44828],[121.944754,-8.453846],[121.942004,-8.458929],[121.945961,-8.461518],[121.941075,-8.470177],[121.930982,-8.478169],[121.931406,-8.48227],[121.913295,-8.49577],[121.905306,-8.493688],[121.898334,-8.496882],[121.895157,-8.494742],[121.885135,-8.498496],[121.881055,-8.496109],[121.871029,-8.498754],[121.854205,-8.493858],[121.843622,-8.481814],[121.832952,-8.489372],[121.828997,-8.498978],[121.821,-8.503352],[121.81416,-8.501503],[121.810403,-8.507336],[121.800369,-8.510366],[121.786562,-8.507871],[121.787113,-8.499614],[121.77164,-8.503066],[121.7545,-8.497464],[121.729183,-8.494463],[121.709817,-8.500177],[121.693145,-8.514079],[121.694682,-8.50959],[121.67834,-8.511687],[121.668284,-8.504958],[121.664547,-8.492621],[121.660227,-8.49317],[121.65337,-8.500651],[121.639706,-8.4966],[121.6375,-8.487051],[121.645277,-8.48043],[121.640346,-8.473783],[121.629466,-8.471098],[121.622626,-8.477747],[121.618722,-8.471606],[121.614618,-8.475139],[121.612275,-8.484186],[121.606245,-8.478414],[121.6043,-8.493914],[121.60672,-8.497441],[121.602449,-8.50657],[121.607001,-8.514887],[121.601917,-8.524294],[121.60137,-8.541168],[121.608554,-8.547628],[121.61122,-8.558583],[121.606055,-8.559645],[121.597882,-8.553113],[121.591442,-8.546407],[121.592326,-8.542487],[121.578782,-8.5413],[121.577289,-8.534966],[121.57097,-8.530381],[121.56364,-8.54048],[121.566033,-8.542963],[121.564994,-8.551412],[121.573122,-8.559614],[121.579413,-8.561341],[121.581063,-8.570395],[121.575016,-8.576099],[121.55345,-8.575923],[121.541293,-8.584871],[121.540391,-8.599791],[121.532214,-8.601141],[121.529145,-8.599115],[121.530418,-8.595041],[121.526008,-8.595569],[121.522651,-8.601055],[121.528543,-8.607243],[121.526332,-8.611933],[121.509102,-8.614642],[121.505209,-8.610155],[121.513156,-8.608277],[121.499774,-8.599116],[121.501889,-8.593631],[121.497858,-8.588457],[121.502147,-8.583214],[121.50075,-8.578627],[121.497031,-8.576941],[121.485536,-8.580636],[121.477193,-8.570685],[121.475907,-8.563773],[121.461818,-8.560834],[121.460601,-8.564198],[121.440491,-8.575418],[121.430686,-8.586297],[121.420861,-8.584276],[121.422898,-8.590015],[121.418346,-8.591745],[121.415886,-8.582989],[121.408313,-8.574315],[121.392883,-8.57258],[121.383138,-8.564024],[121.368366,-8.56314],[121.358622,-8.554323],[121.344053,-8.547756],[121.325461,-8.523768],[121.325709,-8.517241],[121.329352,-8.516631],[121.323131,-8.513633],[121.312524,-8.498954],[121.306926,-8.479412],[121.305541,-8.481473],[121.301794,-8.478612],[121.299372,-8.481488],[121.299718,-8.478098],[121.26946,-8.46774],[121.267631,-8.464087],[121.259433,-8.466],[121.263913,-8.465731],[121.262946,-8.469383],[121.253021,-8.465903],[121.2434,-8.469137],[121.229239,-8.463008],[121.234399,-8.469877],[121.228023,-8.46382],[121.214478,-8.459926],[121.191106,-8.437945],[121.166033,-8.443509],[121.145437,-8.429715],[121.142575,-8.424739],[121.138631,-8.428156],[121.128653,-8.425739],[121.114896,-8.428155],[121.103451,-8.42516],[121.094298,-8.418243],[121.087341,-8.419795],[121.064191,-8.410662],[121.050421,-8.411489],[121.041015,-8.415503],[121.02951,-8.411755],[121.024148,-8.414077],[121.01872,-8.407497],[121.022383,-8.405847],[121.013667,-8.401999],[121.014315,-8.397524],[121.009066,-8.396573],[121.010001,-8.392129],[120.997262,-8.395799],[120.995991,-8.392401],[120.9894,-8.391729],[120.991992,-8.390536],[120.990356,-8.384096],[120.985621,-8.382829],[120.984402,-8.37434],[120.978629,-8.376246],[120.975677,-8.382831],[120.972853,-8.377609],[120.968349,-8.376569],[120.971447,-8.371868],[120.962978,-8.370166],[120.965128,-8.364037],[120.971735,-8.366259],[120.973818,-8.370192],[120.978741,-8.368811],[120.985816,-8.352505],[120.977288,-8.346554],[120.944355,-8.343926],[120.943558,-8.348007],[120.956152,-8.369344],[120.951322,-8.371855],[120.946035,-8.371009],[120.946678,-8.362481],[120.938459,-8.356684],[120.941755,-8.352764],[120.945064,-8.353704],[120.939769,-8.348161],[120.921348,-8.356209],[120.904762,-8.357016],[120.89315,-8.352818],[120.887518,-8.358724],[120.889041,-8.363304],[120.88452,-8.370215],[120.883696,-8.361054],[120.886635,-8.354051],[120.88194,-8.349258],[120.853217,-8.357281],[120.836127,-8.347641],[120.821556,-8.34701],[120.807968,-8.338181],[120.781485,-8.34544],[120.768683,-8.341861],[120.761863,-8.336292],[120.748809,-8.348084],[120.733764,-8.348911],[120.717183,-8.337229],[120.714853,-8.325809],[120.691182,-8.329029],[120.688155,-8.332992],[120.686086,-8.326362],[120.677292,-8.322136],[120.676918,-8.309398],[120.661921,-8.305722],[120.655922,-8.28949],[120.622152,-8.265173],[120.613236,-8.264005],[120.601446,-8.255225],[120.594836,-8.256774],[120.593572,-8.25441],[120.590744,-8.259599],[120.592941,-8.266087],[120.605268,-8.277013],[120.599561,-8.290118],[120.591743,-8.296583],[120.570324,-8.296127],[120.558531,-8.300117],[120.541511,-8.288219],[120.529826,-8.27242],[120.509499,-8.283948],[120.50539,-8.283249],[120.503062,-8.288549],[120.496203,-8.292132],[120.496392,-8.305898],[120.492014,-8.314687],[120.494436,-8.296158],[120.489757,-8.293424],[120.465888,-8.295283],[120.458832,-8.286739],[120.451212,-8.284735],[120.452186,-8.268272],[120.444063,-8.249843],[120.427824,-8.240875],[120.419415,-8.24391],[120.413486,-8.250918],[120.41285,-8.272758],[120.40745,-8.280657],[120.39495,-8.282966],[120.387894,-8.288009],[120.3777,-8.286732],[120.366393,-8.294464],[120.360779,-8.295021],[120.352116,-8.288618],[120.340515,-8.287173],[120.334737,-8.281315],[120.297773,-8.285045],[120.29093,-8.280554],[120.265327,-8.284531],[120.261003,-8.282693],[120.240056,-8.301437],[120.215684,-8.309573],[120.200585,-8.305355],[120.183046,-8.336405],[120.185899,-8.347782],[120.177657,-8.351102],[120.170941,-8.348471],[120.167294,-8.359111],[120.163366,-8.361727],[120.162272,-8.368969],[120.166293,-8.374414],[120.163246,-8.37744],[120.157303,-8.372953],[120.151127,-8.379865],[120.146741,-8.380151],[120.146317,-8.366556],[120.140279,-8.364301],[120.130913,-8.366707],[120.125539,-8.356543],[120.120816,-8.35683],[120.120946,-8.366636],[120.116746,-8.371437],[120.115361,-8.382152],[120.116436,-8.406829],[120.120799,-8.414105],[120.126878,-8.416765],[120.118122,-8.424473],[120.112434,-8.434766],[120.113402,-8.438611],[120.109832,-8.441071],[120.104026,-8.437344],[120.093383,-8.440079],[120.090957,-8.443736],[120.091282,-8.44038],[120.084952,-8.436935],[120.082002,-8.426363],[120.092148,-8.421065],[120.09622,-8.413482],[120.093541,-8.406897],[120.086329,-8.414407],[120.079802,-8.41452],[120.084512,-8.408001],[120.076856,-8.41026],[120.085123,-8.400558],[120.08115,-8.397699],[120.085642,-8.393333],[120.086181,-8.387549],[120.070145,-8.393206],[120.069994,-8.397374],[120.066109,-8.396986],[120.063287,-8.402761],[120.049666,-8.404926],[120.048613,-8.398826],[120.059539,-8.398707],[120.058271,-8.393809],[120.072946,-8.383404],[120.074534,-8.376964],[120.06686,-8.379909],[120.063409,-8.378113],[120.058656,-8.387713],[120.05344,-8.389705],[120.053014,-8.394468],[120.047099,-8.393159],[120.041176,-8.397444],[120.036695,-8.391969],[120.042805,-8.385944],[120.03544,-8.386356],[120.030683,-8.382091],[120.019221,-8.383799],[120.018797,-8.391715],[120.011344,-8.399054],[120.017235,-8.408431],[120.015301,-8.412743],[120.012668,-8.414421],[120.008014,-8.411757],[119.997848,-8.416332],[120.002537,-8.430302],[120.012064,-8.433368],[120.017757,-8.439641],[120.01261,-8.446972],[120.006567,-8.446309],[119.997393,-8.461022],[119.983676,-8.453468],[119.981882,-8.442785],[119.979341,-8.445928],[119.973416,-8.44507],[119.976807,-8.432671],[119.973407,-8.432961],[119.969465,-8.427928],[119.963432,-8.431498],[119.965435,-8.438601],[119.956663,-8.443126],[119.961407,-8.450104],[119.959285,-8.45206],[119.95702,-8.449502],[119.94424,-8.458883],[119.939392,-8.455401],[119.932765,-8.456779],[119.92226,-8.466122],[119.916009,-8.466529],[119.907494,-8.47531],[119.89995,-8.464902],[119.88696,-8.460777],[119.881017,-8.463696],[119.876874,-8.459258],[119.878295,-8.449493],[119.890054,-8.442662],[119.87691,-8.442655],[119.882749,-8.438503],[119.879302,-8.434996],[119.881948,-8.43009],[119.879781,-8.426922],[119.87111,-8.427123],[119.860966,-8.431933],[119.857478,-8.429881],[119.862551,-8.441097],[119.860477,-8.452897],[119.87085,-8.457351],[119.871528,-8.465019],[119.88086,-8.477668],[119.874444,-8.48927],[119.87844,-8.498275],[119.873304,-8.516709],[119.854353,-8.535389],[119.851151,-8.531417],[119.844113,-8.539431],[119.833221,-8.539301],[119.83099,-8.550404],[119.826628,-8.555615],[119.814088,-8.559786],[119.804428,-8.571616],[119.804271,-8.580901],[119.798619,-8.57912],[119.794448,-8.583234],[119.807487,-8.585049],[119.79983,-8.590272],[119.798186,-8.598847],[119.811338,-8.604664],[119.806234,-8.614853],[119.809744,-8.624425],[119.806246,-8.635816],[119.811073,-8.668368],[119.808813,-8.671755],[119.803883,-8.671053],[119.795751,-8.691704],[119.798154,-8.695024],[119.796586,-8.701852],[119.803285,-8.709454],[119.802153,-8.719909],[119.796828,-8.727922],[119.801803,-8.727623],[119.807325,-8.732268],[119.80567,-8.73826],[119.796291,-8.741673],[119.800245,-8.742743],[119.798732,-8.746594],[119.802056,-8.7499],[119.807266,-8.749466],[119.808938,-8.754405],[119.800905,-8.757548],[119.799026,-8.764949],[119.802175,-8.764864],[119.80389,-8.770369],[119.808071,-8.769412],[119.808192,-8.775747],[119.813754,-8.775917],[119.814129,-8.780344],[119.82182,-8.77884],[119.82209,-8.782424],[119.817319,-8.785979],[119.820328,-8.788692],[119.829593,-8.787444],[119.830023,-8.792993],[119.83667,-8.80027],[119.833264,-8.80647],[119.837687,-8.806996],[119.844726,-8.797119],[119.848951,-8.804615],[119.859845,-8.802059],[119.863623,-8.807803],[119.86242,-8.813516],[119.869861,-8.807614],[119.875695,-8.811368],[119.883538,-8.808969],[119.885272,-8.812677],[119.890027,-8.81257],[119.883605,-8.820213],[119.887911,-8.820742],[119.883867,-8.824596],[119.88702,-8.829082],[119.882801,-8.828825],[119.883584,-8.841265],[119.894617,-8.843766],[119.887165,-8.849736],[119.886864,-8.853578],[119.891876,-8.85323],[119.889851,-8.858758],[119.898225,-8.858581],[119.898771,-8.863062],[119.900708,-8.860746],[119.906015,-8.866836],[119.910781,-8.867163],[119.913142,-8.862899],[119.919088,-8.865763],[119.921865,-8.860653],[119.91667,-8.846226],[119.911663,-8.84449],[119.909774,-8.838751],[119.922865,-8.8434],[119.924923,-8.833529],[119.942468,-8.821146],[119.967375,-8.825122],[119.968295,-8.822735],[119.969151,-8.826154],[119.982482,-8.820036],[120.016187,-8.819196],[120.0223,-8.814389],[120.052371,-8.811907],[120.101261,-8.792563],[120.132268,-8.78977],[120.131263,-8.786876],[120.127814,-8.788928],[120.130946,-8.785934],[120.124543,-8.780751],[120.129076,-8.772606],[120.125394,-8.780602],[120.136499,-8.787638],[120.151749,-8.78581],[120.171602,-8.792067],[120.198928,-8.822893],[120.203675,-8.821705],[120.211536,-8.829276],[120.213565,-8.83642],[120.222216,-8.835965],[120.228941,-8.842337],[120.245065,-8.844573],[120.250291,-8.848293],[120.267696,-8.846998],[120.276703,-8.853684],[120.297023,-8.844304],[120.313574,-8.855549],[120.338554,-8.833309],[120.350762,-8.832367],[120.364562,-8.824533],[120.367323,-8.815981],[120.38607,-8.818181],[120.39085,-8.824258],[120.397848,-8.825483],[120.42012,-8.816917],[120.429721,-8.819439],[120.437534,-8.813823],[120.489648,-8.821068],[120.506632,-8.818703],[120.514823,-8.820798],[120.527811,-8.813062],[120.537781,-8.811398],[120.550508,-8.816484],[120.564454,-8.817595],[120.579627,-8.818125],[120.593643,-8.814638],[120.606413,-8.822152],[120.606016,-8.818207],[120.61965,-8.843931],[120.646111,-8.867135],[120.656022,-8.870134],[120.689188,-8.870714],[120.702642,-8.881923],[120.738504,-8.888766],[120.745029,-8.893593],[120.773903,-8.887367],[120.779192,-8.876147],[120.785546,-8.872992],[120.785603,-8.849389],[120.789433,-8.840304],[120.816132,-8.841813],[120.820096,-8.836458],[120.816173,-8.833534],[120.825013,-8.834272],[120.837336,-8.829195],[120.849383,-8.834915],[120.854775,-8.84138],[120.857836,-8.854066],[120.867141,-8.866407],[120.866463,-8.874803],[120.872388,-8.885953],[120.884146,-8.889354],[120.890187,-8.898607],[120.901369,-8.905481],[120.903928,-8.912355],[120.928342,-8.928163],[120.931725,-8.933403],[120.964723,-8.946379],[120.979496,-8.943494],[120.986698,-8.951464],[121.000828,-8.95609],[121.015213,-8.956374],[121.021646,-8.953414],[121.029882,-8.956648],[121.050087,-8.946727],[121.057923,-8.947717],[121.07537,-8.930588],[121.080824,-8.930736],[121.095363,-8.920314],[121.128581,-8.909149],[121.136013,-8.900678],[121.138527,-8.901652],[121.13875,-8.898219],[121.14841,-8.89814],[121.15667,-8.893607],[121.164371,-8.894894],[121.170499,-8.887197],[121.1795,-8.885271],[121.18809,-8.886898],[121.19152,-8.892438],[121.197509,-8.894395],[121.225195,-8.889278],[121.233852,-8.895721],[121.241316,-8.888758],[121.252549,-8.891507],[121.256807,-8.897638],[121.255901,-8.893451],[121.259934,-8.888035],[121.271438,-8.886041],[121.275435,-8.891681],[121.285425,-8.893395],[121.291792,-8.903266],[121.299974,-8.907841],[121.314463,-8.911106],[121.324772,-8.906012],[121.341967,-8.905402],[121.368996,-8.878373],[121.372012,-8.852355],[121.369047,-8.838664],[121.372549,-8.836326],[121.367456,-8.824783],[121.377202,-8.796917],[121.387354,-8.78931],[121.46181,-8.799257],[121.484934,-8.798748],[121.504239,-8.80489],[121.544621,-8.80924],[121.568262,-8.797387],[121.590705,-8.804439],[121.604116,-8.8221],[121.634094,-8.833544],[121.641155,-8.839769],[121.642531,-8.848455],[121.629964,-8.874584],[121.625067,-8.893188],[121.627559,-8.899178],[121.644264,-8.905721],[121.652209,-8.899717],[121.656919,-8.889875],[121.662477,-8.889426],[121.664413,-8.873052],[121.661243,-8.85569],[121.670867,-8.848063],[121.68321,-8.846168],[121.700462,-8.850832],[121.721774,-8.861894],[121.733793,-8.877107],[121.751617,-8.879321],[121.756394,-8.877178],[121.757575,-8.879833],[121.775255,-8.882241],[121.799273,-8.871265],[121.81417,-8.870339],[121.824071,-8.858331],[121.84079,-8.850515],[121.849207,-8.850946],[121.860732,-8.835161],[121.88499,-8.827839],[121.924281,-8.831311],[121.943476,-8.825361],[121.968794,-8.812246],[121.976347,-8.814021],[121.995267,-8.805764],[122.000613,-8.807314],[122.015687,-8.79473],[122.020913,-8.797901],[122.030528,-8.794642],[122.036112,-8.783977],[122.045921,-8.779233],[122.053095,-8.767542],[122.074555,-8.759291],[122.078666,-8.746299],[122.083548,-8.741671],[122.112183,-8.733195],[122.115734,-8.729499],[122.17565,-8.729757],[122.184169,-8.735155],[122.196043,-8.750194],[122.212914,-8.749653],[122.216461,-8.744341],[122.234478,-8.744532],[122.238583,-8.741589],[122.277913,-8.754529],[122.283581,-8.754489],[122.287823,-8.748407],[122.307614,-8.741356],[122.324068,-8.74213],[122.333081,-8.739172],[122.348935,-8.741343],[122.368835,-8.752355],[122.376877,-8.752032],[122.382871,-8.744577],[122.410999,-8.745339],[122.41649,-8.740507],[122.420969,-8.743995],[122.43562,-8.732736],[122.438584,-8.736177],[122.443014,-8.732729],[122.445529,-8.736441],[122.45276,-8.736718],[122.461494,-8.731919],[122.469858,-8.732373],[122.477331,-8.722509],[122.490082,-8.718958],[122.498941,-8.721592],[122.505684,-8.716294],[122.509742,-8.71809],[122.522017,-8.707978],[122.528283,-8.708945],[122.532524,-8.703671],[122.539895,-8.701137],[122.556511,-8.666482],[122.58676,-8.662323],[122.604386,-8.649171],[122.610278,-8.648703],[122.618286,-8.655321],[122.63116,-8.639262],[122.654399,-8.636992],[122.661074,-8.628482],[122.672443,-8.622792],[122.696495,-8.626801],[122.698259,-8.623087],[122.701768,-8.62332],[122.71779,-8.62902],[122.720951,-8.633754],[122.726025,-8.633228],[122.726803,-8.619641],[122.734903,-8.609012],[122.751155,-8.604964],[122.779938,-8.612487],[122.783658,-8.606685],[122.79345,-8.601777],[122.80182,-8.602492],[122.805036,-8.598541],[122.816907,-8.597376],[122.831248,-8.589798],[122.831656,-8.584017],[122.841763,-8.571739],[122.844501,-8.563001],[122.842096,-8.559018],[122.843405,-8.546614],[122.832298,-8.517948],[122.826502,-8.515659],[122.812652,-8.501279],[122.800404,-8.495741],[122.796719,-8.487231],[122.790443,-8.483904],[122.784651,-8.461985],[122.77878,-8.457294],[122.779381,-8.451424],[122.786305,-8.44705],[122.786826,-8.439414],[122.783107,-8.432726],[122.787385,-8.426278],[122.782605,-8.423397],[122.791026,-8.421497],[122.809898,-8.424445],[122.808998,-8.43182],[122.814054,-8.433551],[122.818243,-8.427948],[122.825268,-8.428755],[122.831014,-8.434239],[122.828692,-8.437807],[122.859806,-8.45267],[122.872292,-8.454842],[122.887517,-8.448609],[122.89302,-8.420079],[122.890023,-8.402698],[122.882054,-8.397652],[122.883303,-8.390091],[122.8785,-8.384168],[122.884512,-8.370805],[122.892418,-8.366675],[122.890916,-8.364159],[122.901996,-8.3474],[122.909677,-8.343482],[122.908149,-8.339159],[122.913201,-8.337232],[122.913817,-8.328021],[122.928751,-8.327698],[122.932454,-8.334855],[122.964212,-8.351877],[122.972451,-8.347351],[122.982434,-8.347253],[123.019625,-8.317609],[123.021304,-8.306964],[123.018304,-8.281421],[122.997993,-8.269663],[122.989412,-8.253844],[122.982848,-8.251044],[122.981165,-8.244442],[122.984114,-8.23689],[122.977955,-8.222361],[122.979198,-8.21454],[122.961449,-8.196243],[122.95697,-8.196052],[122.966232,-8.190981],[122.970352,-8.178706],[122.973053,-8.160326],[122.971927,-8.132608],[122.961828,-8.127884],[122.954674,-8.120215],[122.943774,-8.116569],[122.935002,-8.108357],[122.921727,-8.104734],[122.891221,-8.08692],[122.885169,-8.076533],[122.86643,-8.063271]]]}}
