{"type":"Feature","properties":{"ALL_Uniq":273815,"name":"Guadalcanal","Area_Geode":5359.93376569,"Plate":"Pacific"},"geometry":{"type":"Polygon","coordinates":[[[159.698878,-9.250123],[159.679117,-9.253977],[159.672818,-9.2627],[159.665444,-9.266258],[159.659448,-9.263134],[159.654392,-9.270831],[159.648667,-9.27095],[159.642627,-9.279134],[159.632295,-9.284854],[159.627086,-9.283013],[159.622593,-9.286737],[159.61643,-9.286267],[159.608885,-9.300773],[159.596631,-9.305241],[159.592802,-9.324262],[159.596844,-9.333352],[159.592866,-9.336233],[159.59734,-9.341886],[159.5979,-9.348849],[159.587242,-9.355005],[159.588719,-9.360769],[159.583103,-9.367309],[159.590038,-9.367975],[159.596799,-9.377472],[159.598418,-9.388261],[159.592312,-9.392287],[159.600595,-9.395491],[159.600425,-9.39909],[159.607582,-9.406297],[159.606961,-9.408823],[159.593686,-9.410552],[159.595017,-9.417434],[159.602755,-9.419941],[159.599302,-9.428237],[159.601366,-9.434131],[159.592821,-9.436637],[159.597904,-9.443275],[159.595299,-9.447868],[159.603818,-9.459699],[159.602049,-9.469988],[159.613216,-9.47146],[159.617333,-9.480078],[159.613241,-9.494166],[159.608899,-9.497999],[159.599373,-9.495368],[159.58453,-9.49785],[159.584801,-9.503398],[159.589037,-9.507903],[159.585805,-9.512341],[159.589571,-9.517603],[159.586364,-9.523754],[159.591922,-9.527716],[159.60216,-9.522618],[159.606748,-9.524548],[159.603354,-9.534861],[159.612136,-9.537211],[159.615761,-9.543556],[159.620765,-9.545298],[159.624594,-9.552764],[159.622489,-9.558842],[159.627242,-9.558796],[159.624162,-9.561096],[159.629426,-9.557922],[159.638547,-9.560664],[159.636758,-9.573074],[159.642319,-9.575218],[159.643271,-9.585581],[159.652024,-9.586531],[159.658488,-9.593814],[159.669864,-9.619057],[159.667115,-9.628161],[159.655922,-9.635563],[159.653786,-9.640824],[159.66268,-9.650265],[159.671698,-9.649323],[159.67378,-9.654862],[159.686338,-9.653851],[159.695952,-9.657949],[159.69199,-9.668128],[159.701612,-9.676544],[159.699868,-9.684754],[159.712141,-9.682945],[159.715377,-9.686571],[159.716459,-9.693054],[159.709834,-9.697288],[159.704962,-9.709744],[159.707179,-9.71605],[159.721336,-9.720659],[159.736996,-9.720956],[159.744065,-9.728144],[159.752799,-9.728842],[159.753498,-9.737852],[159.757413,-9.735486],[159.764448,-9.737486],[159.770063,-9.742032],[159.769374,-9.747497],[159.775314,-9.75431],[159.777558,-9.75305],[159.787305,-9.759285],[159.789372,-9.776958],[159.809408,-9.784343],[159.817371,-9.79794],[159.835976,-9.801214],[159.843361,-9.79713],[159.843167,-9.788313],[159.84667,-9.797199],[159.873611,-9.783749],[159.890008,-9.78131],[159.89827,-9.78638],[159.907719,-9.787018],[159.914658,-9.795784],[159.925549,-9.799874],[159.954489,-9.80126],[159.961667,-9.806075],[159.978261,-9.806669],[159.993801,-9.817134],[160.020573,-9.813675],[160.033617,-9.821706],[160.051767,-9.82148],[160.064369,-9.826311],[160.093763,-9.817975],[160.130449,-9.81553],[160.170738,-9.818762],[160.261661,-9.807201],[160.270457,-9.807497],[160.280421,-9.813651],[160.323751,-9.811522],[160.341332,-9.815582],[160.364297,-9.829349],[160.374918,-9.84561],[160.389897,-9.852258],[160.404227,-9.864136],[160.425403,-9.896067],[160.450251,-9.887257],[160.477366,-9.887787],[160.503018,-9.897407],[160.520548,-9.900201],[160.526461,-9.906038],[160.547539,-9.913446],[160.552867,-9.922477],[160.569814,-9.917935],[160.588728,-9.921759],[160.612379,-9.940773],[160.628075,-9.946237],[160.63272,-9.943467],[160.631466,-9.935375],[160.635789,-9.930712],[160.659321,-9.919063],[160.695947,-9.905073],[160.706415,-9.90851],[160.711402,-9.904493],[160.733818,-9.900982],[160.736398,-9.904149],[160.743153,-9.904147],[160.759846,-9.892112],[160.763479,-9.895021],[160.771181,-9.893371],[160.776068,-9.891226],[160.775201,-9.888872],[160.785731,-9.887701],[160.790089,-9.88158],[160.797054,-9.884214],[160.829722,-9.862085],[160.829007,-9.856416],[160.834303,-9.85292],[160.833245,-9.848802],[160.823198,-9.839021],[160.816762,-9.840575],[160.809915,-9.836212],[160.803332,-9.808116],[160.798593,-9.803042],[160.801392,-9.798857],[160.795381,-9.795827],[160.796059,-9.792207],[160.792595,-9.79014],[160.794673,-9.78892],[160.791547,-9.787603],[160.801425,-9.787439],[160.812474,-9.772755],[160.803164,-9.764598],[160.801026,-9.77369],[160.793902,-9.759571],[160.791859,-9.762373],[160.784856,-9.752491],[160.783039,-9.756203],[160.777357,-9.755124],[160.770254,-9.74738],[160.772836,-9.73737],[160.792811,-9.746595],[160.774414,-9.734457],[160.760446,-9.735737],[160.755548,-9.728263],[160.742276,-9.728148],[160.712159,-9.705895],[160.693103,-9.704766],[160.678128,-9.707726],[160.661425,-9.701194],[160.656761,-9.670368],[160.660803,-9.644913],[160.658147,-9.645405],[160.661312,-9.641842],[160.638252,-9.611988],[160.635657,-9.598622],[160.614804,-9.586926],[160.615215,-9.576001],[160.604294,-9.576955],[160.57795,-9.549048],[160.56776,-9.548972],[160.529648,-9.536365],[160.486526,-9.532487],[160.481104,-9.525979],[160.479377,-9.510537],[160.474149,-9.508813],[160.468054,-9.493827],[160.454863,-9.47899],[160.442344,-9.469796],[160.400289,-9.451099],[160.392471,-9.441399],[160.384777,-9.421874],[160.363689,-9.416362],[160.352481,-9.40997],[160.337326,-9.414763],[160.33779,-9.412443],[160.319867,-9.421966],[160.30368,-9.425296],[160.296264,-9.42334],[160.292323,-9.415627],[160.284869,-9.412635],[160.262144,-9.414287],[160.215671,-9.426102],[160.208466,-9.42498],[160.196346,-9.414033],[160.162707,-9.407755],[160.156225,-9.403339],[160.126906,-9.42331],[160.105054,-9.4323],[160.082201,-9.427979],[160.028981,-9.405361],[160.028991,-9.416094],[160.02608,-9.405652],[160.02056,-9.408938],[160.021227,-9.413897],[160.019224,-9.410277],[160.001285,-9.427925],[159.973073,-9.434448],[159.963459,-9.433668],[159.958397,-9.429992],[159.958528,-9.425851],[159.95483,-9.429901],[159.924491,-9.423157],[159.907228,-9.425811],[159.889227,-9.401141],[159.880426,-9.397207],[159.864943,-9.368492],[159.857814,-9.365988],[159.837705,-9.343712],[159.815717,-9.332222],[159.811883,-9.323525],[159.804684,-9.321763],[159.803729,-9.316726],[159.786266,-9.298747],[159.767243,-9.289135],[159.75982,-9.281737],[159.749843,-9.281634],[159.737598,-9.27674],[159.718853,-9.254522],[159.698878,-9.250123]]]}}
