{"type":"Feature","properties":{"ALL_Uniq":273825,"name":"Lombok","Area_Geode":4540.28734715,"Plate":"Sunda"},"geometry":{"type":"Polygon","coordinates":[[[116.371098,-8.210146],[116.358741,-8.213858],[116.349697,-8.210979],[116.336899,-8.214782],[116.299431,-8.231486],[116.291905,-8.240021],[116.281111,-8.239305],[116.254109,-8.253884],[116.223078,-8.278167],[116.220006,-8.285538],[116.214208,-8.288364],[116.202254,-8.303292],[116.192697,-8.30694],[116.186162,-8.319698],[116.18742,-8.325634],[116.177143,-8.343476],[116.151487,-8.34387],[116.143178,-8.355113],[116.136639,-8.357872],[116.13561,-8.362107],[116.129176,-8.364549],[116.123098,-8.358733],[116.11937,-8.369397],[116.108647,-8.361119],[116.099146,-8.36114],[116.105258,-8.379112],[116.10363,-8.390081],[116.087389,-8.400071],[116.080551,-8.401023],[116.077391,-8.405759],[116.073004,-8.406006],[116.068831,-8.401498],[116.06082,-8.40525],[116.056572,-8.403712],[116.052648,-8.41705],[116.042292,-8.421762],[116.047288,-8.425603],[116.046149,-8.432177],[116.036628,-8.435268],[116.039231,-8.439502],[116.033405,-8.441997],[116.032524,-8.446226],[116.037604,-8.468843],[116.037602,-8.480268],[116.034155,-8.484047],[116.039079,-8.494976],[116.044613,-8.496265],[116.044726,-8.50248],[116.051551,-8.502311],[116.063724,-8.519657],[116.071791,-8.551434],[116.069713,-8.551033],[116.074553,-8.622723],[116.068658,-8.658836],[116.072597,-8.665463],[116.068419,-8.677065],[116.073878,-8.678804],[116.080469,-8.676406],[116.073486,-8.679865],[116.0684,-8.678382],[116.055684,-8.732877],[116.055982,-8.735652],[116.068498,-8.695553],[116.069939,-8.701527],[116.065341,-8.716401],[116.062716,-8.716763],[116.063009,-8.730159],[116.083695,-8.728901],[116.073078,-8.737782],[116.069754,-8.735715],[116.066398,-8.746105],[116.058948,-8.752837],[116.064393,-8.768465],[116.069936,-8.768131],[116.065185,-8.774132],[116.070959,-8.777946],[116.06575,-8.777248],[116.065808,-8.78252],[116.061109,-8.78139],[116.056027,-8.772186],[116.062616,-8.766441],[116.057603,-8.767297],[116.057363,-8.770893],[116.050168,-8.759415],[116.043973,-8.765536],[116.039591,-8.763082],[116.040572,-8.755533],[116.036039,-8.749595],[116.04646,-8.745568],[116.041939,-8.737766],[116.047029,-8.726414],[116.045794,-8.723287],[116.035009,-8.724275],[116.034033,-8.719293],[116.028466,-8.729443],[116.029883,-8.738569],[116.034602,-8.74044],[116.026709,-8.739212],[116.01096,-8.751284],[115.98765,-8.729245],[115.981287,-8.7354],[115.974588,-8.732446],[115.968765,-8.733736],[115.965747,-8.729797],[115.96427,-8.738304],[115.955574,-8.74451],[115.9485,-8.745441],[115.942299,-8.752446],[115.941374,-8.761681],[115.935678,-8.768734],[115.922411,-8.767785],[115.916997,-8.775019],[115.905654,-8.771435],[115.903069,-8.765937],[115.894054,-8.760115],[115.900162,-8.750029],[115.897664,-8.745169],[115.888259,-8.763353],[115.883243,-8.764133],[115.880413,-8.751872],[115.865198,-8.742543],[115.8692,-8.728996],[115.866177,-8.720694],[115.858542,-8.725428],[115.852204,-8.719781],[115.839308,-8.727405],[115.837324,-8.740176],[115.821516,-8.751761],[115.825587,-8.770036],[115.832802,-8.779853],[115.826365,-8.794661],[115.830078,-8.794549],[115.829655,-8.799474],[115.834409,-8.799454],[115.831793,-8.803714],[115.8355,-8.808977],[115.832094,-8.814552],[115.848103,-8.812546],[115.84495,-8.819272],[115.84769,-8.825406],[115.864155,-8.822424],[115.87015,-8.817907],[115.881175,-8.82914],[115.886862,-8.825134],[115.891216,-8.830231],[115.902492,-8.830035],[115.90642,-8.837705],[115.918342,-8.844745],[115.922902,-8.835455],[115.93326,-8.833031],[115.945927,-8.841654],[115.947377,-8.851178],[115.963685,-8.86075],[115.961929,-8.867347],[115.972579,-8.869103],[115.972768,-8.878151],[115.979554,-8.875869],[115.982044,-8.881108],[115.986334,-8.879115],[115.98974,-8.889195],[115.996866,-8.887734],[115.999611,-8.892009],[115.99649,-8.896256],[116.002801,-8.89716],[116.009057,-8.90328],[116.017393,-8.899004],[116.02351,-8.902471],[116.016099,-8.893779],[116.019428,-8.889595],[116.023863,-8.890523],[116.027925,-8.883569],[116.021389,-8.875875],[116.010226,-8.873026],[116.01267,-8.862903],[116.031293,-8.856944],[116.037176,-8.864195],[116.044851,-8.859847],[116.047407,-8.85378],[116.054874,-8.850735],[116.070714,-8.855124],[116.075602,-8.86237],[116.059112,-8.862894],[116.046024,-8.868633],[116.049799,-8.88458],[116.056931,-8.882534],[116.072004,-8.884473],[116.077699,-8.895179],[116.07729,-8.884822],[116.084018,-8.872671],[116.104761,-8.868795],[116.109866,-8.87202],[116.116998,-8.866376],[116.137008,-8.869867],[116.149593,-8.862912],[116.155341,-8.864037],[116.162138,-8.872961],[116.157581,-8.877065],[116.161033,-8.885267],[116.156785,-8.893738],[116.162377,-8.895575],[116.164789,-8.900187],[116.161699,-8.906229],[116.163931,-8.90781],[116.16691,-8.904976],[116.168148,-8.90968],[116.173716,-8.91326],[116.19125,-8.911119],[116.195191,-8.916709],[116.199289,-8.911245],[116.199718,-8.902528],[116.214227,-8.901168],[116.218265,-8.907532],[116.225406,-8.908674],[116.227896,-8.906401],[116.225781,-8.902342],[116.229161,-8.90005],[116.233775,-8.903419],[116.234435,-8.915351],[116.239581,-8.917508],[116.24507,-8.913174],[116.243279,-8.905357],[116.248635,-8.902233],[116.275682,-8.91243],[116.274816,-8.895387],[116.279844,-8.89306],[116.290382,-8.896388],[116.29998,-8.910526],[116.302527,-8.907078],[116.314332,-8.908214],[116.31962,-8.920465],[116.324088,-8.9168],[116.320675,-8.910374],[116.327804,-8.908485],[116.331621,-8.912104],[116.330632,-8.919416],[116.333068,-8.915217],[116.336698,-8.9163],[116.342635,-8.921964],[116.342235,-8.927472],[116.347222,-8.930512],[116.351292,-8.926555],[116.347023,-8.920557],[116.349098,-8.91578],[116.337106,-8.901502],[116.346352,-8.897408],[116.350712,-8.90013],[116.351395,-8.905107],[116.357758,-8.904471],[116.359815,-8.91051],[116.376465,-8.90359],[116.380927,-8.909367],[116.36668,-8.9262],[116.372885,-8.944647],[116.368098,-8.953332],[116.372215,-8.950507],[116.376896,-8.955814],[116.388972,-8.94752],[116.393847,-8.952215],[116.39633,-8.946885],[116.394467,-8.943899],[116.397946,-8.940624],[116.393934,-8.923154],[116.398828,-8.906331],[116.404887,-8.899154],[116.39826,-8.890501],[116.398685,-8.886113],[116.39529,-8.88511],[116.398502,-8.883084],[116.395024,-8.88107],[116.395186,-8.874797],[116.385885,-8.865926],[116.389649,-8.858615],[116.396195,-8.855327],[116.401347,-8.856435],[116.401245,-8.864128],[116.40432,-8.864997],[116.409579,-8.843321],[116.419183,-8.835523],[116.422053,-8.827874],[116.427248,-8.827095],[116.434527,-8.833291],[116.437125,-8.840743],[116.440699,-8.841238],[116.443252,-8.830628],[116.453697,-8.831775],[116.464683,-8.821704],[116.470903,-8.824137],[116.47228,-8.827173],[116.467496,-8.832766],[116.473926,-8.836448],[116.470113,-8.846373],[116.459163,-8.850867],[116.46017,-8.863505],[116.457704,-8.871153],[116.454584,-8.872155],[116.448564,-8.899394],[116.431431,-8.913351],[116.4358,-8.91969],[116.472609,-8.921066],[116.496507,-8.911574],[116.510549,-8.883227],[116.510689,-8.87021],[116.512819,-8.879505],[116.522956,-8.88676],[116.518447,-8.891824],[116.520231,-8.894602],[116.516044,-8.897021],[116.521741,-8.900258],[116.527554,-8.899275],[116.519822,-8.904169],[116.521053,-8.908065],[116.509282,-8.911206],[116.509368,-8.91484],[116.513976,-8.915106],[116.5285,-8.905219],[116.540435,-8.903499],[116.541711,-8.899021],[116.555147,-8.898684],[116.557341,-8.894713],[116.561332,-8.895997],[116.570609,-8.891624],[116.570761,-8.877754],[116.575245,-8.876242],[116.57534,-8.871826],[116.579179,-8.869643],[116.585497,-8.870579],[116.584458,-8.865217],[116.586932,-8.862938],[116.591673,-8.8652],[116.594381,-8.86128],[116.592158,-8.858582],[116.587966,-8.856427],[116.585251,-8.859359],[116.576531,-8.858313],[116.567317,-8.867382],[116.565506,-8.863204],[116.561548,-8.863975],[116.565777,-8.853511],[116.557766,-8.858822],[116.552156,-8.855855],[116.545544,-8.85826],[116.544652,-8.855655],[116.542165,-8.860319],[116.548832,-8.864571],[116.544352,-8.864282],[116.541974,-8.868211],[116.539428,-8.865628],[116.542304,-8.863172],[116.533794,-8.85933],[116.542087,-8.851944],[116.532711,-8.848352],[116.545036,-8.846568],[116.542048,-8.841105],[116.537563,-8.841385],[116.540995,-8.83254],[116.522843,-8.825474],[116.522817,-8.829421],[116.529396,-8.832325],[116.520881,-8.83229],[116.531051,-8.836561],[116.529649,-8.840172],[116.523271,-8.836741],[116.523075,-8.839936],[116.516916,-8.838557],[116.519179,-8.835239],[116.514933,-8.831703],[116.512503,-8.835719],[116.518368,-8.843888],[116.513154,-8.843954],[116.510065,-8.840513],[116.50422,-8.841609],[116.504707,-8.85035],[116.510228,-8.852387],[116.510332,-8.85604],[116.503988,-8.859047],[116.494746,-8.853384],[116.492536,-8.847911],[116.497371,-8.841924],[116.494427,-8.836515],[116.496109,-8.830863],[116.499515,-8.829812],[116.497119,-8.826285],[116.500592,-8.82119],[116.500858,-8.810981],[116.484155,-8.816771],[116.480183,-8.813689],[116.480455,-8.808293],[116.485398,-8.805203],[116.491928,-8.806882],[116.49299,-8.810293],[116.497621,-8.808596],[116.50489,-8.798335],[116.508811,-8.779624],[116.514081,-8.776641],[116.519308,-8.777953],[116.545827,-8.752572],[116.552874,-8.739791],[116.553249,-8.72604],[116.575195,-8.699746],[116.57397,-8.696448],[116.58562,-8.668332],[116.598343,-8.657744],[116.620749,-8.626721],[116.625473,-8.601263],[116.664369,-8.563421],[116.667143,-8.555832],[116.659406,-8.547428],[116.657487,-8.532994],[116.666168,-8.51314],[116.677362,-8.50458],[116.675285,-8.487973],[116.677883,-8.480795],[116.673516,-8.486338],[116.668815,-8.483872],[116.676054,-8.494527],[116.670807,-8.50305],[116.662123,-8.495202],[116.661267,-8.489549],[116.696335,-8.452217],[116.711293,-8.442921],[116.709225,-8.428426],[116.713801,-8.423791],[116.710572,-8.413605],[116.722638,-8.396517],[116.724795,-8.367396],[116.715995,-8.354746],[116.717786,-8.34792],[116.703161,-8.337129],[116.689089,-8.333289],[116.688488,-8.330979],[116.691054,-8.331462],[116.683505,-8.321491],[116.651679,-8.288624],[116.621102,-8.280507],[116.599654,-8.281253],[116.577839,-8.268682],[116.551954,-8.263195],[116.52846,-8.253303],[116.505871,-8.255377],[116.489772,-8.241485],[116.460281,-8.226887],[116.44186,-8.228194],[116.430637,-8.220688],[116.423737,-8.221439],[116.407855,-8.216089],[116.388774,-8.216872],[116.371098,-8.210146]]]}}
