{"type":"Feature","properties":{"ALL_Uniq":273893,"name":"Malakula","Area_Geode":2046.56694993,"Plate":"New Hebrides"},"geometry":{"type":"Polygon","coordinates":[[[167.225531,-15.878617],[167.217527,-15.880263],[167.211294,-15.888007],[167.189395,-15.893518],[167.177509,-15.907045],[167.173972,-15.927141],[167.181188,-15.948541],[167.183167,-15.965805],[167.190504,-15.978783],[167.183731,-15.9873],[167.186314,-15.993035],[167.180765,-15.994574],[167.18065,-16.003541],[167.174269,-16.012962],[167.17666,-16.018951],[167.174423,-16.027307],[167.158643,-16.047184],[167.159107,-16.056581],[167.153779,-16.075322],[167.15751,-16.08154],[167.155676,-16.088427],[167.166644,-16.091628],[167.172294,-16.097306],[167.178237,-16.109485],[167.176433,-16.120774],[167.191285,-16.141833],[167.193703,-16.136599],[167.200309,-16.135726],[167.22017,-16.146725],[167.22854,-16.145199],[167.239481,-16.163378],[167.251829,-16.165884],[167.284394,-16.144285],[167.291896,-16.134876],[167.290967,-16.128834],[167.295035,-16.124203],[167.316938,-16.118698],[167.331223,-16.110428],[167.339206,-16.139635],[167.355161,-16.16452],[167.375128,-16.184718],[167.383906,-16.187448],[167.391833,-16.181302],[167.394338,-16.182417],[167.384466,-16.205169],[167.380668,-16.233215],[167.39115,-16.246677],[167.386047,-16.25416],[167.38987,-16.265224],[167.398711,-16.272299],[167.384468,-16.285416],[167.386843,-16.2977],[167.380666,-16.31076],[167.384948,-16.316467],[167.385206,-16.330653],[167.375833,-16.348923],[167.382361,-16.348109],[167.385978,-16.350849],[167.389256,-16.363473],[167.385577,-16.367666],[167.38972,-16.369408],[167.390729,-16.374197],[167.396165,-16.373191],[167.40406,-16.378662],[167.407266,-16.390217],[167.404655,-16.395376],[167.407606,-16.41593],[167.400401,-16.42239],[167.439846,-16.457534],[167.445586,-16.476273],[167.442845,-16.489226],[167.434724,-16.498112],[167.428761,-16.498417],[167.422243,-16.492553],[167.417898,-16.494542],[167.420555,-16.50564],[167.417978,-16.513965],[167.422264,-16.52834],[167.430856,-16.537736],[167.434701,-16.537033],[167.44261,-16.542758],[167.453767,-16.556057],[167.462263,-16.557802],[167.458569,-16.562305],[167.461688,-16.569042],[167.488961,-16.568632],[167.491668,-16.572813],[167.48934,-16.576548],[167.492584,-16.57475],[167.494922,-16.577754],[167.490658,-16.586726],[167.495795,-16.588742],[167.502423,-16.585921],[167.501468,-16.571027],[167.508591,-16.567746],[167.515609,-16.569949],[167.514646,-16.574061],[167.521459,-16.583574],[167.534238,-16.580552],[167.535866,-16.575178],[167.531347,-16.569467],[167.539586,-16.569797],[167.539673,-16.556651],[167.542896,-16.552499],[167.540791,-16.548173],[167.548965,-16.539735],[167.549214,-16.543422],[167.563544,-16.545926],[167.564948,-16.548731],[167.561227,-16.554181],[167.564377,-16.556909],[167.583497,-16.548558],[167.587856,-16.534159],[167.574208,-16.526166],[167.57448,-16.521764],[167.581241,-16.512278],[167.594,-16.507318],[167.595497,-16.492928],[167.60325,-16.487424],[167.624473,-16.503549],[167.630041,-16.499332],[167.632554,-16.503016],[167.638716,-16.503533],[167.641292,-16.500094],[167.645783,-16.503571],[167.662727,-16.497716],[167.670486,-16.504073],[167.684734,-16.50414],[167.696695,-16.511362],[167.707437,-16.510902],[167.710444,-16.515144],[167.720638,-16.513866],[167.722717,-16.522911],[167.738736,-16.536559],[167.740513,-16.54204],[167.747623,-16.546669],[167.757925,-16.544035],[167.767044,-16.546626],[167.767432,-16.523913],[167.773064,-16.513115],[167.787526,-16.505393],[167.79164,-16.49724],[167.787694,-16.488251],[167.79802,-16.480428],[167.802877,-16.486846],[167.813436,-16.484344],[167.815615,-16.470422],[167.810562,-16.470113],[167.811645,-16.466666],[167.818248,-16.46754],[167.824733,-16.475289],[167.835571,-16.467716],[167.831476,-16.450619],[167.825662,-16.445565],[167.819861,-16.428736],[167.80695,-16.419763],[167.799919,-16.428584],[167.783325,-16.437141],[167.786498,-16.439896],[167.785671,-16.447676],[167.777912,-16.457467],[167.783795,-16.469815],[167.782406,-16.475749],[167.776893,-16.47599],[167.779217,-16.470131],[167.776474,-16.463756],[167.772035,-16.469829],[167.771117,-16.459508],[167.76662,-16.451689],[167.773274,-16.444164],[167.778488,-16.425555],[167.785907,-16.425357],[167.792455,-16.415812],[167.789633,-16.411994],[167.781191,-16.409965],[167.789738,-16.395505],[167.782256,-16.384881],[167.781598,-16.374293],[167.776321,-16.370591],[167.778681,-16.368057],[167.778145,-16.355282],[167.769995,-16.337656],[167.764415,-16.332734],[167.760451,-16.334408],[167.758098,-16.343185],[167.745685,-16.341297],[167.734867,-16.330319],[167.717564,-16.325342],[167.717462,-16.320663],[167.708561,-16.308797],[167.694746,-16.310578],[167.688351,-16.298297],[167.677138,-16.296241],[167.67338,-16.285954],[167.682665,-16.281213],[167.690243,-16.272554],[167.689379,-16.268626],[167.677934,-16.264804],[167.666986,-16.265124],[167.660412,-16.271804],[167.646557,-16.270434],[167.646059,-16.268039],[167.64082,-16.269862],[167.644675,-16.266729],[167.620586,-16.250449],[167.616632,-16.234123],[167.61185,-16.22853],[167.605221,-16.227006],[167.59613,-16.218231],[167.575313,-16.217569],[167.564131,-16.196142],[167.556085,-16.197419],[167.551352,-16.194166],[167.548294,-16.188209],[167.548795,-16.172021],[167.543361,-16.163552],[167.539848,-16.162425],[167.534052,-16.166234],[167.537753,-16.174876],[167.531278,-16.176387],[167.52035,-16.169854],[167.514747,-16.156788],[167.501141,-16.163467],[167.496309,-16.16041],[167.490914,-16.148575],[167.500244,-16.144539],[167.502995,-16.128163],[167.499165,-16.123617],[167.494965,-16.126679],[167.494574,-16.132403],[167.490425,-16.131315],[167.492437,-16.1269],[167.486914,-16.124059],[167.484081,-16.111536],[167.472487,-16.096983],[167.46532,-16.094338],[167.474134,-16.108351],[167.47231,-16.111269],[167.476283,-16.115094],[167.477994,-16.131016],[167.485905,-16.142688],[167.478781,-16.139233],[167.473769,-16.140791],[167.47391,-16.137888],[167.472627,-16.138758],[167.472441,-16.140529],[167.468319,-16.13969],[167.452543,-16.119084],[167.431933,-16.109238],[167.414544,-16.090781],[167.407365,-16.091148],[167.403074,-16.086276],[167.403642,-16.082433],[167.417778,-16.075009],[167.41805,-16.070842],[167.407203,-16.07019],[167.400699,-16.063526],[167.393457,-16.06561],[167.388738,-16.059178],[167.406758,-16.033457],[167.401151,-16.020435],[167.407299,-16.012684],[167.403756,-16.011236],[167.398589,-16.014716],[167.391514,-16.011679],[167.382888,-16.003595],[167.372212,-15.98456],[167.361858,-15.980152],[167.35822,-15.974095],[167.34625,-15.970979],[167.344235,-15.962016],[167.339212,-15.957992],[167.327602,-15.935562],[167.328436,-15.929335],[167.336694,-15.925652],[167.333667,-15.918272],[167.32442,-15.912065],[167.320746,-15.913625],[167.302542,-15.908703],[167.284592,-15.897531],[167.279458,-15.900135],[167.279508,-15.896164],[167.265283,-15.887077],[167.225531,-15.878617]]]}}
