{"type":"Feature","properties":{"ALL_Uniq":273856,"name":"Makira","Area_Geode":3065.42149216,"Plate":"Pacific"},"geometry":{"type":"Polygon","coordinates":[[[161.335008,-10.190438],[161.329224,-10.202167],[161.31895,-10.211861],[161.289764,-10.207063],[161.281747,-10.208988],[161.27709,-10.215534],[161.274079,-10.250303],[161.280273,-10.263053],[161.27415,-10.268033],[161.270347,-10.278059],[161.273264,-10.290801],[161.269536,-10.293417],[161.26974,-10.30254],[161.267064,-10.305167],[161.26792,-10.311498],[161.274063,-10.317805],[161.26925,-10.323709],[161.273079,-10.339025],[161.278526,-10.336408],[161.289847,-10.337806],[161.313573,-10.347502],[161.314133,-10.350667],[161.319055,-10.348297],[161.345362,-10.349348],[161.352025,-10.335398],[161.359411,-10.334056],[161.374203,-10.339115],[161.378385,-10.333459],[161.381671,-10.3385],[161.398752,-10.34345],[161.396551,-10.354966],[161.409539,-10.354122],[161.414499,-10.350705],[161.416613,-10.352882],[161.414242,-10.358326],[161.417053,-10.358738],[161.420398,-10.353897],[161.417271,-10.349922],[161.420317,-10.348064],[161.422589,-10.35151],[161.427591,-10.345373],[161.429974,-10.355235],[161.440768,-10.352357],[161.452014,-10.363558],[161.47095,-10.36664],[161.491492,-10.376362],[161.494455,-10.385115],[161.487347,-10.389534],[161.478919,-10.402609],[161.48343,-10.406333],[161.480509,-10.411804],[161.484512,-10.418746],[161.469485,-10.426778],[161.486036,-10.43069],[161.488324,-10.428984],[161.485919,-10.420948],[161.488272,-10.420228],[161.495923,-10.428227],[161.503917,-10.430595],[161.497952,-10.439822],[161.492405,-10.439802],[161.490345,-10.433757],[161.485441,-10.439688],[161.486952,-10.442671],[161.484076,-10.446029],[161.490698,-10.445877],[161.495341,-10.456238],[161.48847,-10.460597],[161.48082,-10.460501],[161.483988,-10.46504],[161.478953,-10.468635],[161.485163,-10.475127],[161.48927,-10.476778],[161.496165,-10.470645],[161.503869,-10.475672],[161.499979,-10.465023],[161.508635,-10.468704],[161.517499,-10.45937],[161.521968,-10.462124],[161.513686,-10.473885],[161.516153,-10.481325],[161.520357,-10.481494],[161.522526,-10.4866],[161.51726,-10.48654],[161.518457,-10.491782],[161.513986,-10.496628],[161.517123,-10.496925],[161.520256,-10.491432],[161.526011,-10.495534],[161.5217,-10.507962],[161.516071,-10.513469],[161.518332,-10.520129],[161.521008,-10.518074],[161.52603,-10.521861],[161.519875,-10.527676],[161.522783,-10.531703],[161.521966,-10.53814],[161.516725,-10.539646],[161.512596,-10.547886],[161.519058,-10.557571],[161.511295,-10.564477],[161.512372,-10.569185],[161.52172,-10.575434],[161.52975,-10.569318],[161.530942,-10.578026],[161.533803,-10.579468],[161.541348,-10.569958],[161.539067,-10.562539],[161.545702,-10.572132],[161.540906,-10.578596],[161.544462,-10.58109],[161.553039,-10.566932],[161.559401,-10.56676],[161.561683,-10.560148],[161.569368,-10.557459],[161.568412,-10.572975],[161.581274,-10.575547],[161.580042,-10.582395],[161.586949,-10.574121],[161.593658,-10.579896],[161.588648,-10.582261],[161.584894,-10.594021],[161.588455,-10.595348],[161.59753,-10.590541],[161.6011,-10.594543],[161.608453,-10.594928],[161.606697,-10.598264],[161.612248,-10.604678],[161.611146,-10.610153],[161.606994,-10.605668],[161.602118,-10.605431],[161.601807,-10.608682],[161.621112,-10.620802],[161.61824,-10.628245],[161.620468,-10.644419],[161.623555,-10.645707],[161.628642,-10.63881],[161.632744,-10.641112],[161.636887,-10.629692],[161.643753,-10.6274],[161.644727,-10.618602],[161.653456,-10.616481],[161.655927,-10.620699],[161.654402,-10.627134],[161.658458,-10.624791],[161.661077,-10.629157],[161.65145,-10.640457],[161.653042,-10.644856],[161.658159,-10.635825],[161.66639,-10.636158],[161.67182,-10.642745],[161.670735,-10.646764],[161.664891,-10.648345],[161.665197,-10.65972],[161.669363,-10.662688],[161.672479,-10.654707],[161.679805,-10.653384],[161.682595,-10.658103],[161.681328,-10.663989],[161.684928,-10.666768],[161.691761,-10.65612],[161.687794,-10.646459],[161.695035,-10.646884],[161.700689,-10.653725],[161.695878,-10.665601],[161.70792,-10.665051],[161.702504,-10.677794],[161.692146,-10.67602],[161.69878,-10.684133],[161.689964,-10.689506],[161.688589,-10.693939],[161.694508,-10.692154],[161.70191,-10.696122],[161.707515,-10.693252],[161.710413,-10.698051],[161.716658,-10.691676],[161.720505,-10.69192],[161.725734,-10.69753],[161.722009,-10.706073],[161.723288,-10.712332],[161.728087,-10.710651],[161.734716,-10.701104],[161.73751,-10.702858],[161.744487,-10.698385],[161.746505,-10.701559],[161.744146,-10.710136],[161.755648,-10.70267],[161.762081,-10.707365],[161.755748,-10.715648],[161.755738,-10.721455],[161.765217,-10.717206],[161.773889,-10.720203],[161.773914,-10.733301],[161.759294,-10.738814],[161.75978,-10.741129],[161.768202,-10.740964],[161.77078,-10.744673],[161.780642,-10.737985],[161.786373,-10.741454],[161.792458,-10.739081],[161.799275,-10.747514],[161.798914,-10.75676],[161.806185,-10.742851],[161.816696,-10.753277],[161.820218,-10.747159],[161.824997,-10.754598],[161.832398,-10.756624],[161.8361,-10.772125],[161.84051,-10.770184],[161.839221,-10.752769],[161.843387,-10.749587],[161.855985,-10.776965],[161.863816,-10.775997],[161.868387,-10.77944],[161.876211,-10.772749],[161.883204,-10.783711],[161.89959,-10.777857],[161.904625,-10.781686],[161.90439,-10.786715],[161.910483,-10.781124],[161.922023,-10.780027],[161.923746,-10.78375],[161.931593,-10.783013],[161.930096,-10.793942],[161.939557,-10.797179],[161.944251,-10.791323],[161.949221,-10.798512],[161.959823,-10.797745],[161.96217,-10.793541],[161.968203,-10.793174],[161.969084,-10.787827],[161.973488,-10.790785],[161.977598,-10.787589],[161.983782,-10.791856],[161.994175,-10.789715],[161.998032,-10.792948],[162.004532,-10.787858],[162.010955,-10.788111],[162.015117,-10.791118],[162.016347,-10.798511],[162.028624,-10.803009],[162.030092,-10.807942],[162.038028,-10.812412],[162.037607,-10.81822],[162.044487,-10.820497],[162.052452,-10.828702],[162.059465,-10.824757],[162.062148,-10.831943],[162.071149,-10.832489],[162.081835,-10.824757],[162.090772,-10.831964],[162.097851,-10.831812],[162.099404,-10.836828],[162.100909,-10.834697],[162.109056,-10.836615],[162.118654,-10.84224],[162.135087,-10.835526],[162.136705,-10.836143],[162.138177,-10.838684],[162.140554,-10.836326],[162.145427,-10.837918],[162.150453,-10.829595],[162.157751,-10.838203],[162.16078,-10.832347],[162.16706,-10.835473],[162.168309,-10.830711],[162.173639,-10.828521],[162.17999,-10.834395],[162.179341,-10.821601],[162.195619,-10.820647],[162.200131,-10.814296],[162.205589,-10.81288],[162.208272,-10.822794],[162.217722,-10.821813],[162.220398,-10.824958],[162.23263,-10.827309],[162.238728,-10.835196],[162.25538,-10.83662],[162.265959,-10.840951],[162.272381,-10.850809],[162.279688,-10.844994],[162.297678,-10.839834],[162.308841,-10.846496],[162.314111,-10.840722],[162.320402,-10.842205],[162.325438,-10.83741],[162.347443,-10.846],[162.352186,-10.843606],[162.36974,-10.846766],[162.377314,-10.841909],[162.379004,-10.837001],[162.376262,-10.826748],[162.368304,-10.821528],[162.361888,-10.823935],[162.358603,-10.820723],[162.350695,-10.821246],[162.347983,-10.824718],[162.344223,-10.819356],[162.338989,-10.824414],[162.328251,-10.824767],[162.319408,-10.829026],[162.317161,-10.82451],[162.313034,-10.826573],[162.311015,-10.819952],[162.289668,-10.812673],[162.284404,-10.816619],[162.290041,-10.828225],[162.284494,-10.821259],[162.267843,-10.822784],[162.256985,-10.818968],[162.258783,-10.816572],[162.253227,-10.801855],[162.223333,-10.810428],[162.227351,-10.799196],[162.24634,-10.800139],[162.25293,-10.790828],[162.258446,-10.788864],[162.258606,-10.784646],[162.27248,-10.781553],[162.280568,-10.771574],[162.280839,-10.761205],[162.276737,-10.756318],[162.271754,-10.756838],[162.275389,-10.74528],[162.272032,-10.740033],[162.277386,-10.736638],[162.272508,-10.711398],[162.266401,-10.708463],[162.267137,-10.700944],[162.262896,-10.700373],[162.262405,-10.689471],[162.253005,-10.68949],[162.247418,-10.695118],[162.23707,-10.691515],[162.235726,-10.685435],[162.231598,-10.689172],[162.22864,-10.684063],[162.220417,-10.684694],[162.217942,-10.688025],[162.219085,-10.683743],[162.19881,-10.666503],[162.192006,-10.652875],[162.195215,-10.638092],[162.192002,-10.634277],[162.189746,-10.61648],[162.180873,-10.608063],[162.173515,-10.61476],[162.17385,-10.611094],[162.163484,-10.601787],[162.158583,-10.592239],[162.158244,-10.576657],[162.154532,-10.573923],[162.15633,-10.5669],[162.150443,-10.558028],[162.1419,-10.554031],[162.138004,-10.53995],[162.117376,-10.5163],[162.113715,-10.50677],[162.107691,-10.504502],[162.10941,-10.499217],[162.089869,-10.486958],[162.085294,-10.482087],[162.084104,-10.474464],[162.071909,-10.478925],[162.067664,-10.472848],[162.054111,-10.466078],[162.04284,-10.502113],[162.027165,-10.504885],[162.018018,-10.512331],[162.019032,-10.508691],[162.024003,-10.504932],[161.998871,-10.498875],[161.970189,-10.480328],[161.969515,-10.485932],[161.967772,-10.482758],[161.968245,-10.478028],[161.961042,-10.471249],[161.960723,-10.46613],[161.956208,-10.464567],[161.956614,-10.457168],[161.951974,-10.454713],[161.937321,-10.457892],[161.925857,-10.445331],[161.919887,-10.448285],[161.917272,-10.45689],[161.913931,-10.45831],[161.907749,-10.457474],[161.901597,-10.448565],[161.885464,-10.445547],[161.878384,-10.449087],[161.875537,-10.456054],[161.853719,-10.458469],[161.852537,-10.455258],[161.844314,-10.458203],[161.810735,-10.442833],[161.80236,-10.434432],[161.791917,-10.41057],[161.784624,-10.410031],[161.781501,-10.414279],[161.779306,-10.410274],[161.77602,-10.415597],[161.76555,-10.415344],[161.754106,-10.40352],[161.749934,-10.409913],[161.742717,-10.413222],[161.734498,-10.410299],[161.727999,-10.416374],[161.731592,-10.411013],[161.722009,-10.409978],[161.702105,-10.396167],[161.700615,-10.387417],[161.688065,-10.374285],[161.688593,-10.371277],[161.693384,-10.370194],[161.689224,-10.365114],[161.679389,-10.362594],[161.670588,-10.364193],[161.664721,-10.37029],[161.656064,-10.367681],[161.651634,-10.359907],[161.655602,-10.355334],[161.646305,-10.356027],[161.644506,-10.345082],[161.623681,-10.336879],[161.618183,-10.32843],[161.607782,-10.325026],[161.604674,-10.320848],[161.595236,-10.321289],[161.589187,-10.317743],[161.584227,-10.299314],[161.577785,-10.303246],[161.572826,-10.297645],[161.565039,-10.296773],[161.55459,-10.280721],[161.542564,-10.277589],[161.532179,-10.267489],[161.523704,-10.265457],[161.518649,-10.260184],[161.503281,-10.258469],[161.492507,-10.247529],[161.48049,-10.247737],[161.471959,-10.2439],[161.463996,-10.231381],[161.441304,-10.220577],[161.434555,-10.220211],[161.425136,-10.211954],[161.381954,-10.196035],[161.335008,-10.190438]]]}}
