{"type":"Feature","properties":{"ALL_Uniq":274052,"name":"Batanta","Area_Geode":449.856501387,"Plate":"Birds Head"},"geometry":{"type":"Polygon","coordinates":[[[130.803946,-0.751685],[130.798926,-0.759093],[130.803711,-0.76637],[130.798717,-0.764905],[130.798593,-0.769064],[130.794877,-0.770689],[130.801015,-0.769743],[130.800985,-0.775039],[130.810932,-0.773489],[130.815865,-0.778704],[130.813278,-0.781981],[130.8177,-0.785543],[130.808933,-0.785748],[130.813998,-0.791749],[130.809808,-0.793425],[130.809447,-0.797179],[130.816375,-0.799653],[130.817278,-0.81477],[130.821839,-0.816717],[130.820932,-0.821922],[130.813282,-0.826507],[130.818054,-0.820333],[130.811366,-0.815633],[130.815898,-0.811979],[130.813455,-0.804537],[130.809774,-0.805995],[130.809906,-0.802083],[130.801716,-0.803667],[130.802624,-0.810306],[130.800308,-0.806344],[130.795759,-0.809635],[130.795564,-0.820564],[130.785759,-0.813483],[130.792928,-0.811917],[130.793019,-0.802739],[130.799126,-0.797633],[130.79847,-0.793681],[130.782636,-0.807091],[130.779889,-0.80765],[130.779737,-0.804171],[130.773899,-0.80616],[130.774097,-0.81401],[130.769897,-0.818971],[130.766664,-0.819197],[130.75611,-0.809046],[130.74537,-0.810709],[130.737308,-0.820309],[130.721158,-0.813646],[130.723712,-0.826079],[130.717514,-0.830015],[130.704613,-0.828173],[130.711009,-0.822155],[130.713698,-0.809904],[130.702455,-0.8058],[130.698438,-0.809268],[130.682093,-0.806012],[130.674163,-0.797719],[130.669362,-0.798915],[130.674649,-0.802684],[130.672867,-0.810573],[130.685401,-0.814212],[130.688678,-0.821325],[130.681422,-0.823562],[130.672618,-0.818748],[130.664897,-0.818745],[130.665878,-0.826278],[130.662123,-0.825702],[130.660827,-0.819849],[130.64997,-0.821624],[130.641069,-0.81401],[130.650093,-0.812991],[130.649853,-0.802139],[130.636184,-0.80516],[130.634064,-0.79725],[130.639115,-0.793061],[130.636623,-0.790962],[130.627356,-0.79531],[130.629343,-0.801674],[130.614018,-0.81728],[130.608248,-0.814723],[130.603201,-0.822425],[130.591759,-0.825804],[130.585399,-0.833244],[130.579026,-0.826259],[130.587576,-0.822157],[130.585759,-0.816901],[130.588678,-0.808876],[130.579816,-0.805261],[130.575046,-0.810309],[130.577353,-0.799187],[130.571892,-0.793706],[130.567022,-0.793394],[130.560145,-0.811468],[130.566008,-0.815297],[130.566561,-0.82135],[130.555643,-0.820947],[130.548336,-0.828012],[130.554478,-0.832124],[130.550419,-0.83641],[130.538782,-0.839723],[130.537441,-0.833305],[130.533843,-0.839675],[130.532287,-0.836015],[130.516643,-0.830896],[130.507736,-0.83243],[130.502834,-0.827108],[130.486096,-0.829997],[130.481531,-0.821053],[130.482608,-0.81718],[130.495984,-0.809193],[130.505432,-0.797136],[130.483209,-0.789398],[130.47284,-0.797484],[130.474498,-0.807819],[130.479243,-0.810717],[130.476636,-0.812615],[130.480856,-0.814215],[130.480044,-0.817036],[130.469937,-0.82007],[130.462649,-0.815438],[130.463219,-0.800154],[130.457301,-0.801502],[130.452671,-0.810228],[130.448595,-0.830792],[130.457487,-0.852575],[130.455789,-0.855843],[130.449995,-0.856798],[130.452016,-0.863118],[130.445925,-0.864706],[130.440711,-0.85834],[130.433261,-0.861436],[130.438545,-0.865421],[130.438641,-0.873068],[130.457139,-0.882126],[130.450666,-0.893839],[130.435342,-0.891238],[130.43315,-0.894428],[130.424451,-0.889372],[130.424016,-0.899987],[130.41828,-0.903616],[130.409995,-0.895384],[130.406199,-0.910547],[130.388259,-0.92344],[130.39253,-0.923827],[130.396293,-0.920067],[130.402108,-0.921355],[130.407049,-0.915231],[130.415575,-0.921093],[130.417934,-0.913391],[130.423596,-0.908002],[130.430401,-0.911117],[130.437876,-0.903148],[130.443342,-0.903028],[130.448573,-0.898235],[130.462025,-0.898327],[130.465294,-0.905371],[130.461312,-0.912976],[130.4719,-0.9179],[130.473086,-0.910538],[130.46827,-0.902547],[130.469947,-0.895873],[130.474093,-0.896634],[130.478893,-0.904373],[130.488779,-0.906558],[130.491023,-0.902043],[130.497189,-0.903852],[130.503309,-0.899567],[130.506328,-0.901714],[130.519003,-0.895015],[130.525079,-0.902142],[130.507133,-0.919172],[130.512928,-0.919719],[130.517071,-0.912611],[130.523798,-0.90954],[130.529398,-0.911264],[130.53531,-0.918437],[130.542807,-0.916255],[130.54694,-0.90498],[130.554421,-0.906385],[130.56028,-0.914936],[130.568902,-0.909274],[130.575927,-0.910131],[130.57983,-0.914135],[130.584468,-0.908476],[130.590932,-0.913584],[130.605212,-0.909279],[130.610144,-0.911968],[130.629158,-0.909802],[130.634992,-0.904718],[130.649641,-0.905489],[130.662481,-0.899057],[130.67645,-0.89926],[130.688569,-0.893593],[130.692934,-0.887468],[130.717142,-0.886861],[130.735778,-0.87562],[130.748396,-0.88226],[130.751032,-0.877549],[130.763001,-0.871571],[130.77689,-0.876131],[130.797658,-0.870708],[130.802407,-0.86597],[130.800469,-0.860786],[130.804166,-0.864769],[130.810331,-0.863216],[130.81361,-0.867456],[130.821652,-0.868014],[130.822844,-0.864611],[130.817047,-0.861378],[130.824676,-0.861076],[130.826353,-0.865338],[130.850651,-0.859327],[130.844763,-0.850607],[130.845601,-0.842249],[130.852924,-0.854267],[130.858225,-0.855364],[130.86518,-0.846899],[130.865159,-0.842785],[130.861198,-0.839982],[130.866204,-0.839182],[130.865622,-0.83467],[130.873788,-0.834699],[130.870639,-0.845161],[130.874116,-0.848642],[130.88551,-0.838199],[130.891985,-0.839988],[130.899105,-0.83482],[130.899636,-0.830396],[130.890146,-0.827079],[130.880803,-0.831659],[130.873891,-0.828512],[130.87388,-0.833189],[130.869978,-0.823877],[130.866327,-0.823383],[130.870593,-0.818004],[130.868969,-0.814505],[130.8639,-0.81843],[130.857443,-0.814827],[130.857974,-0.811272],[130.86489,-0.808407],[130.863911,-0.804544],[130.87162,-0.806257],[130.874982,-0.797974],[130.879372,-0.803047],[130.88199,-0.793668],[130.890252,-0.794571],[130.894046,-0.798231],[130.91738,-0.799276],[130.921465,-0.796837],[130.927177,-0.783232],[130.921366,-0.774016],[130.91606,-0.783356],[130.910781,-0.782422],[130.915825,-0.780928],[130.914686,-0.776995],[130.898714,-0.776889],[130.906176,-0.767509],[130.896568,-0.763233],[130.890898,-0.768133],[130.888209,-0.781544],[130.885151,-0.775546],[130.888825,-0.764867],[130.87798,-0.771047],[130.873551,-0.77935],[130.870359,-0.778651],[130.874667,-0.774701],[130.870529,-0.764903],[130.864479,-0.766244],[130.860973,-0.772374],[130.859385,-0.769165],[130.854809,-0.771262],[130.856591,-0.766499],[130.854098,-0.764312],[130.850691,-0.766358],[130.849117,-0.781198],[130.858152,-0.787529],[130.857472,-0.792249],[130.870008,-0.794834],[130.860832,-0.801183],[130.855755,-0.796458],[130.849419,-0.796052],[130.851896,-0.790213],[130.844805,-0.790092],[130.846878,-0.786086],[130.844211,-0.782087],[130.844438,-0.767076],[130.835106,-0.770285],[130.839059,-0.785386],[130.834631,-0.783458],[130.83038,-0.789062],[130.832845,-0.776802],[130.826758,-0.782623],[130.824549,-0.776981],[130.829024,-0.76972],[130.823803,-0.770836],[130.822061,-0.7798],[130.818406,-0.78039],[130.812676,-0.770426],[130.816646,-0.759507],[130.812058,-0.753304],[130.803946,-0.751685]]]}}
