{"type":"Feature","properties":{"ALL_Uniq":274027,"name":"Sudest","Area_Geode":807.887768104,"Plate":"Australia"},"geometry":{"type":"Polygon","coordinates":[[[153.202849,-11.323383],[153.194642,-11.325608],[153.183601,-11.343755],[153.178153,-11.343342],[153.174282,-11.347539],[153.173212,-11.367723],[153.178265,-11.378168],[153.18793,-11.382444],[153.186647,-11.392994],[153.190787,-11.396421],[153.202824,-11.398822],[153.210656,-11.396668],[153.21512,-11.39992],[153.215106,-11.403638],[153.207509,-11.409901],[153.206492,-11.416468],[153.224455,-11.441049],[153.227302,-11.441],[153.228491,-11.43095],[153.236324,-11.43061],[153.237662,-11.426596],[153.246349,-11.428775],[153.257215,-11.437747],[153.252705,-11.446865],[153.261335,-11.459617],[153.300577,-11.473297],[153.297641,-11.480067],[153.274974,-11.494951],[153.267014,-11.496693],[153.26811,-11.504113],[153.276138,-11.505247],[153.288394,-11.500904],[153.307177,-11.487759],[153.333581,-11.499865],[153.337726,-11.49823],[153.34072,-11.4902],[153.360342,-11.493271],[153.360159,-11.502177],[153.354296,-11.506575],[153.360159,-11.510263],[153.353269,-11.51099],[153.350015,-11.515641],[153.348084,-11.533625],[153.356387,-11.542307],[153.353466,-11.553988],[153.358171,-11.558578],[153.365136,-11.559134],[153.37086,-11.55512],[153.404484,-11.561077],[153.417102,-11.569917],[153.423468,-11.567447],[153.42404,-11.559072],[153.409893,-11.548618],[153.410938,-11.543336],[153.434781,-11.553308],[153.438347,-11.565344],[153.448635,-11.55118],[153.457156,-11.55007],[153.457581,-11.560184],[153.465208,-11.564046],[153.471491,-11.577498],[153.469975,-11.580159],[153.459771,-11.579958],[153.456614,-11.584154],[153.450079,-11.585353],[153.45164,-11.587922],[153.480277,-11.595548],[153.48289,-11.588605],[153.489093,-11.584832],[153.495903,-11.587727],[153.503459,-11.583728],[153.507015,-11.588366],[153.506107,-11.59362],[153.515902,-11.596423],[153.516336,-11.606283],[153.531861,-11.617089],[153.545545,-11.61461],[153.556052,-11.601288],[153.553727,-11.608022],[153.559893,-11.619933],[153.555629,-11.623419],[153.556026,-11.634046],[153.543934,-11.636769],[153.526779,-11.635124],[153.531103,-11.644486],[153.547699,-11.647084],[153.549196,-11.65341],[153.552665,-11.655086],[153.575854,-11.626593],[153.586168,-11.617147],[153.593255,-11.618115],[153.592217,-11.615497],[153.600299,-11.624499],[153.635233,-11.617683],[153.642975,-11.628353],[153.652285,-11.629046],[153.656186,-11.636161],[153.668866,-11.640285],[153.676558,-11.635521],[153.672583,-11.627433],[153.673546,-11.620629],[153.692099,-11.623885],[153.698016,-11.632727],[153.710527,-11.618729],[153.723357,-11.620075],[153.725398,-11.617665],[153.736828,-11.621066],[153.748637,-11.616596],[153.755899,-11.624304],[153.76364,-11.62627],[153.77219,-11.619455],[153.775457,-11.603487],[153.743499,-11.576068],[153.742649,-11.570673],[153.746856,-11.561392],[153.731426,-11.560464],[153.708695,-11.544506],[153.707239,-11.537138],[153.691627,-11.512884],[153.685084,-11.510919],[153.6784,-11.513866],[153.646824,-11.496419],[153.636958,-11.49557],[153.636367,-11.499263],[153.63043,-11.499308],[153.617454,-11.491288],[153.609683,-11.492304],[153.597039,-11.487481],[153.594052,-11.489351],[153.569738,-11.481496],[153.565372,-11.477266],[153.559215,-11.479856],[153.559803,-11.47786],[153.554856,-11.477309],[153.555569,-11.483519],[153.552531,-11.485567],[153.547919,-11.477286],[153.539548,-11.478532],[153.530673,-11.471351],[153.507987,-11.466917],[153.503655,-11.462978],[153.495353,-11.46425],[153.487763,-11.459361],[153.486796,-11.454939],[153.474003,-11.451832],[153.470034,-11.444671],[153.441174,-11.438653],[153.421803,-11.42877],[153.407226,-11.425719],[153.400873,-11.418377],[153.389725,-11.413675],[153.349828,-11.404429],[153.338057,-11.39109],[153.326852,-11.387693],[153.315663,-11.375982],[153.293713,-11.373946],[153.290326,-11.364063],[153.273101,-11.368892],[153.263797,-11.367213],[153.253041,-11.360518],[153.240207,-11.345526],[153.229843,-11.344032],[153.213795,-11.327194],[153.202849,-11.323383]]]}}
