{"type":"Feature","properties":{"ALL_Uniq":274121,"name":"Long","Area_Geode":406.078492533,"Plate":"North America"},"geometry":{"type":"Polygon","coordinates":[[[-75.328494,23.686119],[-75.338349,23.675979],[-75.346893,23.674632],[-75.339659,23.670603],[-75.342739,23.658978],[-75.335353,23.659831],[-75.334855,23.66648],[-75.323796,23.659872],[-75.33339,23.658792],[-75.331043,23.650767],[-75.335669,23.637984],[-75.344713,23.627812],[-75.344694,23.615657],[-75.341418,23.624127],[-75.327856,23.635022],[-75.319183,23.655414],[-75.317291,23.654703],[-75.317201,23.647404],[-75.314614,23.651753],[-75.315971,23.64127],[-75.32647,23.628582],[-75.336334,23.624089],[-75.33569,23.621538],[-75.328351,23.625878],[-75.335243,23.620334],[-75.333379,23.615118],[-75.333041,23.619002],[-75.316281,23.6256],[-75.311821,23.635138],[-75.306838,23.631795],[-75.309962,23.634305],[-75.308799,23.640293],[-75.303323,23.637575],[-75.300292,23.623768],[-75.302004,23.616916],[-75.30593,23.617241],[-75.302202,23.614637],[-75.305387,23.612657],[-75.303325,23.607021],[-75.310553,23.582859],[-75.320181,23.566082],[-75.308672,23.574403],[-75.296715,23.58906],[-75.286684,23.591012],[-75.277487,23.587747],[-75.272818,23.575913],[-75.276409,23.567607],[-75.28085,23.566348],[-75.276621,23.563405],[-75.277287,23.558438],[-75.256735,23.542742],[-75.250733,23.526686],[-75.253668,23.518036],[-75.248571,23.514573],[-75.248309,23.507127],[-75.257693,23.492844],[-75.246031,23.489123],[-75.228147,23.472388],[-75.222407,23.460099],[-75.223286,23.453376],[-75.229651,23.449626],[-75.226935,23.436199],[-75.210728,23.431182],[-75.201415,23.418082],[-75.203076,23.409181],[-75.20941,23.404873],[-75.201459,23.404184],[-75.196898,23.39889],[-75.188577,23.401512],[-75.180849,23.390331],[-75.168905,23.389115],[-75.154907,23.381395],[-75.145405,23.381006],[-75.141091,23.370911],[-75.150693,23.368858],[-75.161701,23.354743],[-75.154666,23.350393],[-75.153898,23.356421],[-75.147143,23.362955],[-75.135757,23.364322],[-75.121392,23.337834],[-75.117332,23.318477],[-75.120124,23.31429],[-75.127757,23.314924],[-75.11868,23.303008],[-75.122921,23.29093],[-75.109564,23.292881],[-75.102752,23.276373],[-75.114428,23.262592],[-75.140157,23.243854],[-75.140183,23.238803],[-75.129895,23.248158],[-75.12838,23.245878],[-75.131939,23.240215],[-75.137177,23.2406],[-75.135984,23.238557],[-75.146909,23.230308],[-75.140302,23.228632],[-75.141208,23.233316],[-75.136798,23.233048],[-75.141224,23.22539],[-75.12304,23.214439],[-75.126808,23.205974],[-75.132029,23.21015],[-75.14502,23.199317],[-75.142294,23.193855],[-75.134898,23.191566],[-75.139113,23.190207],[-75.13287,23.181999],[-75.132291,23.187249],[-75.129749,23.186374],[-75.130488,23.18212],[-75.127876,23.180652],[-75.133349,23.180622],[-75.135507,23.184041],[-75.134775,23.177746],[-75.121959,23.177269],[-75.119484,23.175271],[-75.119905,23.167444],[-75.115944,23.170325],[-75.105465,23.164974],[-75.115774,23.165779],[-75.116357,23.16792],[-75.118262,23.164732],[-75.094791,23.15897],[-75.087426,23.147305],[-75.088931,23.143475],[-75.07776,23.139542],[-75.064826,23.129569],[-75.057752,23.107265],[-75.062494,23.101691],[-75.063651,23.109063],[-75.064296,23.101099],[-75.067406,23.102817],[-75.067675,23.109344],[-75.070115,23.106179],[-75.067206,23.101526],[-75.070104,23.097702],[-75.060741,23.093971],[-75.059824,23.087929],[-75.045406,23.083151],[-75.052026,23.081409],[-75.067061,23.084961],[-75.053916,23.080058],[-75.010769,23.079758],[-74.997253,23.071747],[-74.980208,23.067581],[-74.970902,23.058835],[-74.957519,23.053013],[-74.938434,23.020692],[-74.935322,23.008173],[-74.919838,22.992126],[-74.896817,22.925491],[-74.889124,22.919364],[-74.891658,22.920961],[-74.887049,22.904369],[-74.886356,22.909946],[-74.88854,22.918339],[-74.880733,22.905029],[-74.872361,22.881519],[-74.872735,22.878528],[-74.875753,22.88136],[-74.87579,22.878324],[-74.865409,22.872203],[-74.860419,22.850307],[-74.851778,22.857384],[-74.836832,22.861567],[-74.827132,22.879725],[-74.832427,22.887551],[-74.837342,22.914463],[-74.842933,22.92043],[-74.841534,22.923953],[-74.839222,22.923062],[-74.839539,22.927719],[-74.841156,22.930687],[-74.844156,22.927242],[-74.846973,22.930133],[-74.847196,22.935004],[-74.84135,22.934006],[-74.851014,22.94927],[-74.849381,22.962161],[-74.846471,22.963613],[-74.847552,22.975233],[-74.850209,22.976474],[-74.85232,22.971517],[-74.856386,22.979929],[-74.857168,22.990241],[-74.849722,22.988983],[-74.85839,23.00695],[-74.884088,23.030774],[-74.902353,23.058728],[-74.91189,23.065292],[-74.937353,23.096971],[-74.943461,23.09345],[-74.934232,23.08547],[-74.955262,23.093066],[-74.96227,23.099533],[-74.960917,23.103469],[-74.99391,23.107789],[-75.006213,23.103509],[-75.011804,23.10966],[-75.01354,23.10702],[-75.020522,23.108183],[-75.063062,23.144808],[-75.081681,23.190405],[-75.088933,23.218936],[-75.088988,23.245802],[-75.08621,23.252498],[-75.082027,23.253799],[-75.082069,23.270453],[-75.088812,23.292623],[-75.091782,23.290824],[-75.093809,23.29362],[-75.090672,23.29822],[-75.092367,23.301798],[-75.096717,23.302157],[-75.099471,23.308712],[-75.099584,23.325479],[-75.132861,23.373337],[-75.139487,23.389388],[-75.15373,23.410324],[-75.157088,23.410752],[-75.189504,23.45537],[-75.201626,23.495807],[-75.202475,23.524735],[-75.208197,23.534619],[-75.270305,23.60106],[-75.276002,23.613569],[-75.277727,23.636218],[-75.28698,23.642787],[-75.304734,23.665616],[-75.310473,23.661413],[-75.312141,23.667229],[-75.309767,23.669567],[-75.328494,23.686119]]]}}
