{"type":"Feature","properties":{"ALL_Uniq":274103,"name":"Santiago","Area_Geode":574.145666954,"Plate":"Nazca"},"geometry":{"type":"Polygon","coordinates":[[[-90.79051,-0.146327],[-90.81556,-0.15584],[-90.824389,-0.166509],[-90.828486,-0.163393],[-90.827022,-0.171328],[-90.838003,-0.178529],[-90.833987,-0.185335],[-90.834957,-0.194793],[-90.828861,-0.200149],[-90.831314,-0.208457],[-90.844815,-0.22133],[-90.850613,-0.236396],[-90.857535,-0.243313],[-90.861896,-0.240685],[-90.864874,-0.242352],[-90.869233,-0.248397],[-90.867103,-0.258309],[-90.871121,-0.265106],[-90.870243,-0.26946],[-90.861804,-0.275404],[-90.857265,-0.275653],[-90.854143,-0.271942],[-90.848044,-0.275495],[-90.843461,-0.281985],[-90.844939,-0.290985],[-90.837519,-0.291671],[-90.830263,-0.298928],[-90.833413,-0.306747],[-90.832309,-0.330756],[-90.820203,-0.327174],[-90.803272,-0.335031],[-90.796871,-0.328732],[-90.789862,-0.327009],[-90.784481,-0.33703],[-90.779876,-0.338679],[-90.771183,-0.334998],[-90.766558,-0.343774],[-90.740963,-0.359912],[-90.732947,-0.360286],[-90.723881,-0.355462],[-90.719335,-0.358623],[-90.710216,-0.357979],[-90.702777,-0.353028],[-90.694809,-0.357862],[-90.684224,-0.351366],[-90.674334,-0.354368],[-90.671151,-0.347396],[-90.668178,-0.353736],[-90.656443,-0.35689],[-90.653976,-0.363281],[-90.637987,-0.364189],[-90.630865,-0.369439],[-90.615996,-0.369145],[-90.604134,-0.374958],[-90.588404,-0.371081],[-90.586598,-0.367115],[-90.579485,-0.364271],[-90.570134,-0.336423],[-90.566882,-0.334763],[-90.56834,-0.32875],[-90.549818,-0.319805],[-90.546953,-0.312212],[-90.551128,-0.29954],[-90.56545,-0.292367],[-90.565671,-0.284598],[-90.575212,-0.281721],[-90.572843,-0.268335],[-90.576631,-0.256406],[-90.580585,-0.253742],[-90.578496,-0.246821],[-90.581103,-0.245979],[-90.582343,-0.238263],[-90.588361,-0.235726],[-90.588791,-0.23183],[-90.597308,-0.229246],[-90.600376,-0.224014],[-90.604864,-0.224382],[-90.604097,-0.219281],[-90.606911,-0.216452],[-90.617429,-0.215001],[-90.624955,-0.207288],[-90.631931,-0.209904],[-90.635408,-0.20542],[-90.645258,-0.203383],[-90.646985,-0.195734],[-90.652349,-0.197513],[-90.663778,-0.194298],[-90.670928,-0.197523],[-90.674619,-0.196123],[-90.676165,-0.190028],[-90.688357,-0.187021],[-90.696929,-0.189143],[-90.700824,-0.18434],[-90.699521,-0.175838],[-90.703323,-0.172546],[-90.737946,-0.164589],[-90.749189,-0.150958],[-90.766324,-0.152257],[-90.780506,-0.146634],[-90.79051,-0.146327]]]}}
