{"type":"Feature","properties":{"ALL_Uniq":274285,"name":"Hunter","Area_Geode":370.250259504,"Plate":"North America"},"geometry":{"type":"Polygon","coordinates":[[[-127.994127,52.075987],[-128.017377,52.071443],[-128.015897,52.068638],[-128.019026,52.066429],[-128.010368,52.059375],[-128.020497,52.06473],[-128.028925,52.061499],[-128.030786,52.064129],[-128.031778,52.061794],[-128.05016,52.065253],[-128.054332,52.061677],[-128.051276,52.056916],[-128.065934,52.062228],[-128.065053,52.060469],[-128.055063,52.056871],[-128.054149,52.054781],[-128.061054,52.053629],[-128.056622,52.049678],[-128.065111,52.052955],[-128.066921,52.057145],[-128.072641,52.056565],[-128.065958,52.044817],[-128.073989,52.049461],[-128.076049,52.05497],[-128.07981,52.052599],[-128.081265,52.05497],[-128.081197,52.050237],[-128.08984,52.048356],[-128.093201,52.056246],[-128.089992,52.059164],[-128.093184,52.062077],[-128.088723,52.066335],[-128.093262,52.069855],[-128.097957,52.067665],[-128.096933,52.065301],[-128.10628,52.068014],[-128.112695,52.073601],[-128.114681,52.06884],[-128.109108,52.063795],[-128.112566,52.061353],[-128.105353,52.050551],[-128.121321,52.062815],[-128.128714,52.058442],[-128.123716,52.055107],[-128.128111,52.055522],[-128.133426,52.049712],[-128.146218,52.045529],[-128.152898,52.038914],[-128.156994,52.039317],[-128.153587,52.037227],[-128.157276,52.034207],[-128.157678,52.027885],[-128.164556,52.025322],[-128.167303,52.02055],[-128.163534,52.004497],[-128.167288,52.002389],[-128.164124,51.997771],[-128.177481,51.993787],[-128.182055,51.990306],[-128.18162,51.986682],[-128.19313,51.979713],[-128.187855,51.977076],[-128.189225,51.974266],[-128.196076,51.974114],[-128.195963,51.968346],[-128.199524,51.969561],[-128.204479,51.964297],[-128.198056,51.953196],[-128.20228,51.95175],[-128.202589,51.946885],[-128.196932,51.935476],[-128.19088,51.938306],[-128.188271,51.932959],[-128.18434,51.935378],[-128.172259,51.931677],[-128.16598,51.933464],[-128.171722,51.933996],[-128.159958,51.93514],[-128.151576,51.939625],[-128.153504,51.936793],[-128.144057,51.937836],[-128.137075,51.941851],[-128.129655,51.938686],[-128.156137,51.934523],[-128.156733,51.932482],[-128.153359,51.932495],[-128.158924,51.931505],[-128.161033,51.928971],[-128.15716,51.927074],[-128.161111,51.925686],[-128.163266,51.929586],[-128.161085,51.934015],[-128.184014,51.927036],[-128.185841,51.928847],[-128.182213,51.930173],[-128.187463,51.930191],[-128.186241,51.925205],[-128.18798,51.927809],[-128.192905,51.926506],[-128.187815,51.923282],[-128.192082,51.921181],[-128.190847,51.909834],[-128.193847,51.905237],[-128.20334,51.906459],[-128.205665,51.900431],[-128.212551,51.89753],[-128.209751,51.892846],[-128.216028,51.895833],[-128.214855,51.9003],[-128.221492,51.898202],[-128.2254,51.901427],[-128.230361,51.896854],[-128.238361,51.899783],[-128.238675,51.896357],[-128.233069,51.894633],[-128.237564,51.888782],[-128.246145,51.891991],[-128.255912,51.889747],[-128.240462,51.883312],[-128.245949,51.881888],[-128.240757,51.87748],[-128.235706,51.884636],[-128.234568,51.88179],[-128.229927,51.882251],[-128.235758,51.879064],[-128.231805,51.879277],[-128.230946,51.871867],[-128.232599,51.875758],[-128.236525,51.875688],[-128.234799,51.876852],[-128.237526,51.877117],[-128.238459,51.874677],[-128.232582,51.870845],[-128.231112,51.861868],[-128.212385,51.862687],[-128.213647,51.87122],[-128.20297,51.859835],[-128.201882,51.85652],[-128.205143,51.854324],[-128.206581,51.86044],[-128.215212,51.856345],[-128.217373,51.849236],[-128.212606,51.847772],[-128.216022,51.841432],[-128.207483,51.842101],[-128.211472,51.840662],[-128.210484,51.835179],[-128.214885,51.835898],[-128.21547,51.833591],[-128.208868,51.83006],[-128.202247,51.846111],[-128.197286,51.840645],[-128.202306,51.837944],[-128.198915,51.838026],[-128.197513,51.834597],[-128.187165,51.846112],[-128.183083,51.841903],[-128.175732,51.841668],[-128.180051,51.846925],[-128.182088,51.845218],[-128.180813,51.859818],[-128.200664,51.860935],[-128.186271,51.862149],[-128.184031,51.865033],[-128.179572,51.861804],[-128.177156,51.865004],[-128.172282,51.864191],[-128.17057,51.861466],[-128.176166,51.851415],[-128.167174,51.84595],[-128.161932,51.852095],[-128.163234,51.869498],[-128.156817,51.871225],[-128.158454,51.87734],[-128.163235,51.876484],[-128.161081,51.880576],[-128.156553,51.882458],[-128.156741,51.879393],[-128.151462,51.878653],[-128.15377,51.875105],[-128.150677,51.872876],[-128.148082,51.875755],[-128.142664,51.871778],[-128.139163,51.87551],[-128.133487,51.875062],[-128.129359,51.880531],[-128.127926,51.891332],[-128.121212,51.897101],[-128.119408,51.894763],[-128.12608,51.887082],[-128.122331,51.885071],[-128.126863,51.875642],[-128.123748,51.873467],[-128.117808,51.875911],[-128.105504,51.89412],[-128.09357,51.902268],[-128.100739,51.922974],[-128.098911,51.937141],[-128.113292,51.934347],[-128.107549,51.940302],[-128.108646,51.943645],[-128.119212,51.947779],[-128.123284,51.942994],[-128.127902,51.949256],[-128.121249,51.95233],[-128.128157,51.952449],[-128.122298,51.954097],[-128.127835,51.957966],[-128.106388,51.958006],[-128.09891,51.952234],[-128.102645,51.949061],[-128.098678,51.945376],[-128.087823,51.951801],[-128.085716,51.951379],[-128.089134,51.947872],[-128.082974,51.948072],[-128.089647,51.945837],[-128.08762,51.943222],[-128.076026,51.949033],[-128.07862,51.947151],[-128.074655,51.947112],[-128.075881,51.936548],[-128.073001,51.933508],[-128.063255,51.93482],[-128.052312,51.931679],[-128.046097,51.935457],[-128.049498,51.939834],[-128.041527,51.943537],[-128.043865,51.948887],[-128.041093,51.95013],[-128.024485,51.945878],[-128.033057,51.944939],[-128.032423,51.930031],[-128.039807,51.936168],[-128.048421,51.932553],[-128.043146,51.932353],[-128.043147,51.929247],[-128.053144,51.931035],[-128.054447,51.927563],[-128.056943,51.931559],[-128.060628,51.929739],[-128.069784,51.932674],[-128.070368,51.927091],[-128.078464,51.929153],[-128.087443,51.922412],[-128.091046,51.912877],[-128.087629,51.904173],[-128.111724,51.882755],[-128.108862,51.875997],[-128.112793,51.872794],[-128.110518,51.868368],[-128.11619,51.858117],[-128.127356,51.857408],[-128.121111,51.848372],[-128.116826,51.852852],[-128.1124,51.851478],[-128.111859,51.845975],[-128.118739,51.847459],[-128.119802,51.836292],[-128.113965,51.841049],[-128.110687,51.838661],[-128.104918,51.841011],[-128.10348,51.837946],[-128.110623,51.83752],[-128.112403,51.826837],[-128.118432,51.830517],[-128.12063,51.823666],[-128.118663,51.822248],[-128.132789,51.81886],[-128.134076,51.812522],[-128.128796,51.814357],[-128.133547,51.80796],[-128.119957,51.806905],[-128.114277,51.811544],[-128.110848,51.823225],[-128.107757,51.819218],[-128.112043,51.815381],[-128.10731,51.814576],[-128.108515,51.810924],[-128.101893,51.810951],[-128.099424,51.814088],[-128.098053,51.811361],[-128.100839,51.805574],[-128.106368,51.803745],[-128.101578,51.802221],[-128.110099,51.794647],[-128.104542,51.792633],[-128.108193,51.791436],[-128.107972,51.788557],[-128.104808,51.78555],[-128.088679,51.786895],[-128.077968,51.792218],[-128.080245,51.788207],[-128.077439,51.786076],[-128.0726,51.792236],[-128.070584,51.791919],[-128.073952,51.788817],[-128.062841,51.79338],[-128.060723,51.802481],[-128.058362,51.798765],[-128.049879,51.805016],[-128.052171,51.805299],[-128.050961,51.812149],[-128.055677,51.813096],[-128.058951,51.818507],[-128.0521,51.819012],[-128.044891,51.827516],[-128.041503,51.82557],[-128.041607,51.817378],[-128.035829,51.818515],[-128.032626,51.825155],[-128.03142,51.817407],[-128.019411,51.816583],[-128.017781,51.820184],[-128.022842,51.828366],[-128.020197,51.831985],[-128.023472,51.834521],[-128.026089,51.833797],[-128.024796,51.826104],[-128.02893,51.821993],[-128.02747,51.831435],[-128.032903,51.836407],[-128.062979,51.839305],[-128.030596,51.839197],[-128.022527,51.84941],[-128.023339,51.841665],[-128.014306,51.843283],[-128.017175,51.849044],[-128.01691,51.862168],[-128.010755,51.870629],[-128.013137,51.873474],[-128.004877,51.889659],[-128.004848,51.895917],[-128.010129,51.895965],[-128.012219,51.890711],[-128.01404,51.896772],[-128.033032,51.900554],[-128.02526,51.903289],[-128.021864,51.898755],[-128.002507,51.897967],[-127.999084,51.902696],[-127.993938,51.900647],[-127.98761,51.905256],[-127.989438,51.907096],[-127.985066,51.915638],[-127.981218,51.909775],[-127.973092,51.916603],[-127.975937,51.920705],[-127.967926,51.927691],[-127.968941,51.934117],[-127.965792,51.937174],[-127.970023,51.938698],[-127.965563,51.939456],[-127.965941,51.943116],[-127.960656,51.948179],[-127.9622,51.951365],[-127.957423,51.958682],[-127.954931,51.978311],[-127.949323,51.991886],[-127.95116,51.996637],[-127.946331,52.002536],[-127.948824,52.012384],[-127.961424,52.02438],[-127.95794,52.029083],[-127.958132,52.038731],[-127.949062,52.043847],[-127.948931,52.049894],[-127.95356,52.045177],[-127.95226,52.054173],[-127.954691,52.056712],[-127.948546,52.061435],[-127.994127,52.075987]]]}}
