{"type":"Feature","properties":{"ALL_Uniq":274227,"name":"Little Cornwallis","Area_Geode":415.791125614,"Plate":"North America"},"geometry":{"type":"Polygon","coordinates":[[[-96.324817,75.658725],[-96.358587,75.651461],[-96.382663,75.651146],[-96.380548,75.64529],[-96.403566,75.641063],[-96.400659,75.636377],[-96.402999,75.633455],[-96.39528,75.62969],[-96.397067,75.621596],[-96.391654,75.612671],[-96.384802,75.608788],[-96.386825,75.60543],[-96.368369,75.591275],[-96.374084,75.584922],[-96.445893,75.584336],[-96.47523,75.587292],[-96.581282,75.569757],[-96.598573,75.560397],[-96.614214,75.55739],[-96.65559,75.558214],[-96.676413,75.561733],[-96.688665,75.56735],[-96.694848,75.563888],[-96.711505,75.562998],[-96.726049,75.552587],[-96.759055,75.540964],[-96.884319,75.530428],[-96.949946,75.520438],[-97.013433,75.504194],[-97.01636,75.492245],[-97.006543,75.486541],[-96.983948,75.485623],[-96.988384,75.484813],[-96.98065,75.482608],[-97.002303,75.477293],[-96.990872,75.472356],[-97.011837,75.459754],[-96.997758,75.45764],[-96.981489,75.449232],[-96.97986,75.445908],[-96.988387,75.440455],[-96.98289,75.436435],[-96.933887,75.427727],[-96.910576,75.416657],[-96.927212,75.411352],[-96.92171,75.406784],[-96.910858,75.405596],[-96.912433,75.402261],[-96.950352,75.398917],[-96.959522,75.395016],[-96.943867,75.386332],[-96.916107,75.378711],[-96.903275,75.386241],[-96.868133,75.388114],[-96.845662,75.3762],[-96.840458,75.363292],[-96.844699,75.357223],[-96.81114,75.356625],[-96.795241,75.360463],[-96.810198,75.367725],[-96.796346,75.366618],[-96.800798,75.370487],[-96.798219,75.373238],[-96.803138,75.373007],[-96.78803,75.375798],[-96.772619,75.382995],[-96.72001,75.386445],[-96.723679,75.387344],[-96.695456,75.383848],[-96.670144,75.392708],[-96.621804,75.394112],[-96.595282,75.404115],[-96.595684,75.406215],[-96.622983,75.404874],[-96.682193,75.41678],[-96.679439,75.420705],[-96.667516,75.42327],[-96.6682,75.427109],[-96.665157,75.429061],[-96.658066,75.427767],[-96.645413,75.431338],[-96.641372,75.435489],[-96.652287,75.436749],[-96.647574,75.438778],[-96.63933,75.440131],[-96.631192,75.434771],[-96.587766,75.437198],[-96.542181,75.433684],[-96.527106,75.427417],[-96.521184,75.421322],[-96.498996,75.418325],[-96.491516,75.421366],[-96.514184,75.425097],[-96.50769,75.426585],[-96.541805,75.435723],[-96.536334,75.441456],[-96.526621,75.442362],[-96.526938,75.445518],[-96.523031,75.446475],[-96.524523,75.449774],[-96.514698,75.450742],[-96.518045,75.453555],[-96.506153,75.460051],[-96.484017,75.462529],[-96.455677,75.459571],[-96.453752,75.463955],[-96.478451,75.472839],[-96.480075,75.478868],[-96.476972,75.482375],[-96.481885,75.484842],[-96.517579,75.486075],[-96.518935,75.492721],[-96.51485,75.503087],[-96.507646,75.508584],[-96.518382,75.513641],[-96.514635,75.518106],[-96.51724,75.526339],[-96.507154,75.53051],[-96.506691,75.533356],[-96.489916,75.537251],[-96.483427,75.541621],[-96.483466,75.548459],[-96.464771,75.54932],[-96.416744,75.558995],[-96.391601,75.558781],[-96.394625,75.565927],[-96.382066,75.571219],[-96.393714,75.571971],[-96.401651,75.576058],[-96.395595,75.579186],[-96.384112,75.578918],[-96.383868,75.575708],[-96.369096,75.578393],[-96.362678,75.575318],[-96.367034,75.573318],[-96.343021,75.573013],[-96.339407,75.570059],[-96.336828,75.570969],[-96.339067,75.572703],[-96.33029,75.573273],[-96.317426,75.56665],[-96.325687,75.562539],[-96.356856,75.561385],[-96.358777,75.559582],[-96.353818,75.55802],[-96.363641,75.555987],[-96.357565,75.553482],[-96.36074,75.551747],[-96.390651,75.556286],[-96.397233,75.554657],[-96.383947,75.547169],[-96.369417,75.543778],[-96.384834,75.544689],[-96.379961,75.542353],[-96.389404,75.54281],[-96.390786,75.537223],[-96.409355,75.535258],[-96.404999,75.532731],[-96.418093,75.52728],[-96.370367,75.522062],[-96.366652,75.514367],[-96.357598,75.511336],[-96.315736,75.508323],[-96.251257,75.495641],[-96.248112,75.492424],[-96.251834,75.491501],[-96.245974,75.487399],[-96.24774,75.48412],[-96.236291,75.478571],[-96.240518,75.474258],[-96.240218,75.467718],[-96.23087,75.46389],[-96.191768,75.459288],[-96.118069,75.463117],[-96.126804,75.465572],[-96.11455,75.467957],[-96.111279,75.474299],[-96.129186,75.476449],[-96.105579,75.482036],[-96.108513,75.483482],[-96.105343,75.486496],[-96.102439,75.483057],[-96.092955,75.492148],[-96.061864,75.49272],[-96.064239,75.496951],[-96.046192,75.499706],[-96.028054,75.498145],[-96.025842,75.49935],[-96.02894,75.505039],[-96.006293,75.509992],[-95.993503,75.51812],[-95.996251,75.525004],[-96.013057,75.526249],[-96.007248,75.52915],[-96.01331,75.531883],[-96.007508,75.533479],[-96.008121,75.535507],[-95.965261,75.533449],[-95.914067,75.556639],[-95.907754,75.565716],[-95.913832,75.56733],[-95.905568,75.567107],[-95.900742,75.572196],[-95.915946,75.582404],[-95.995776,75.612605],[-96.030965,75.615061],[-96.044175,75.613952],[-96.057621,75.608059],[-96.107709,75.607803],[-96.115972,75.613953],[-96.261656,75.642044],[-96.291233,75.650382],[-96.304621,75.658149],[-96.324817,75.658725]]]}}
