{"type":"Feature","properties":{"ALL_Uniq":274378,"name":"Rossel","Area_Geode":293.855951204,"Plate":"Molucca Sea"},"geometry":{"type":"Polygon","coordinates":[[[154.210716,-11.291001],[154.206513,-11.293179],[154.200879,-11.291054],[154.194218,-11.300112],[154.181074,-11.302279],[154.162282,-11.299913],[154.154501,-11.303075],[154.151845,-11.297789],[154.142856,-11.305692],[154.14437,-11.314933],[154.133684,-11.318604],[154.130361,-11.326585],[154.125597,-11.326219],[154.123979,-11.320578],[154.137099,-11.312233],[154.130443,-11.30937],[154.139513,-11.304149],[154.136494,-11.297798],[154.13288,-11.297853],[154.124466,-11.307976],[154.119844,-11.29755],[154.115131,-11.296154],[154.104829,-11.301511],[154.098475,-11.297792],[154.096412,-11.304167],[154.089821,-11.305841],[154.082514,-11.304418],[154.079024,-11.298046],[154.057509,-11.296452],[154.056069,-11.301068],[154.059747,-11.303748],[154.059846,-11.308431],[154.076665,-11.312894],[154.084578,-11.319499],[154.084795,-11.322464],[154.079847,-11.323861],[154.063888,-11.324867],[154.085329,-11.331682],[154.087478,-11.32962],[154.092066,-11.334369],[154.10036,-11.330406],[154.104779,-11.335348],[154.102693,-11.337546],[154.109598,-11.338517],[154.122784,-11.34946],[154.100903,-11.354124],[154.094879,-11.358358],[154.081822,-11.352478],[154.082622,-11.358357],[154.073896,-11.361897],[154.069118,-11.354655],[154.063115,-11.360538],[154.047332,-11.353293],[154.047372,-11.361228],[154.043439,-11.365119],[154.024007,-11.354781],[154.01237,-11.339805],[154.004038,-11.344091],[154.011814,-11.35211],[154.009867,-11.361532],[153.97963,-11.361664],[153.97335,-11.366874],[153.973347,-11.377127],[153.978022,-11.380963],[153.997383,-11.378896],[153.996982,-11.38628],[154.002213,-11.393621],[154.009559,-11.394181],[154.012317,-11.389504],[154.012702,-11.397258],[154.010507,-11.400974],[154.014883,-11.407361],[154.026252,-11.414936],[154.050832,-11.420066],[154.083744,-11.419834],[154.086024,-11.423806],[154.091883,-11.424414],[154.104475,-11.419489],[154.104854,-11.413195],[154.11251,-11.413321],[154.114491,-11.40936],[154.107266,-11.394802],[154.112731,-11.387488],[154.121451,-11.396733],[154.130056,-11.415226],[154.143684,-11.406715],[154.146793,-11.408451],[154.150831,-11.403861],[154.148467,-11.397528],[154.150067,-11.387507],[154.15798,-11.398743],[154.162101,-11.398045],[154.17157,-11.404171],[154.180478,-11.401977],[154.18277,-11.396989],[154.188233,-11.397691],[154.195646,-11.392091],[154.203795,-11.401975],[154.22408,-11.404523],[154.251844,-11.417633],[154.265242,-11.40751],[154.277464,-11.40336],[154.284547,-11.393234],[154.284797,-11.376303],[154.281235,-11.368934],[154.273569,-11.363654],[154.27727,-11.354802],[154.273328,-11.350515],[154.269675,-11.335826],[154.2642,-11.333841],[154.262639,-11.327703],[154.253235,-11.319926],[154.245905,-11.318994],[154.22352,-11.307133],[154.223873,-11.302132],[154.212738,-11.301743],[154.215562,-11.295514],[154.210716,-11.291001]]]}}
