{"type":"Feature","properties":{"ALL_Uniq":274347,"name":"Nosy Be","Area_Geode":280.506041836,"Plate":"Somalia"},"geometry":{"type":"Polygon","coordinates":[[[48.268241,-13.19889],[48.256748,-13.204264],[48.248453,-13.213725],[48.244838,-13.212198],[48.246904,-13.214659],[48.244399,-13.221499],[48.246891,-13.221759],[48.253293,-13.237467],[48.252173,-13.245931],[48.262269,-13.265787],[48.255263,-13.275597],[48.238831,-13.278691],[48.235246,-13.274577],[48.237182,-13.269325],[48.229161,-13.262901],[48.229412,-13.272068],[48.211639,-13.27791],[48.211361,-13.267072],[48.199169,-13.260271],[48.198683,-13.252927],[48.195519,-13.250666],[48.190558,-13.248179],[48.1864,-13.253708],[48.181921,-13.250384],[48.172676,-13.252623],[48.171838,-13.259208],[48.181903,-13.265353],[48.175601,-13.270393],[48.178257,-13.269568],[48.185757,-13.278448],[48.188067,-13.272402],[48.191274,-13.275948],[48.198127,-13.274264],[48.199937,-13.277836],[48.191092,-13.297593],[48.182567,-13.303118],[48.184299,-13.32143],[48.180788,-13.330033],[48.183613,-13.343531],[48.190237,-13.355007],[48.187663,-13.373323],[48.194881,-13.380953],[48.192437,-13.388979],[48.203939,-13.392555],[48.207858,-13.403119],[48.211582,-13.400958],[48.214625,-13.404174],[48.214412,-13.385984],[48.222125,-13.393445],[48.225237,-13.392776],[48.224538,-13.387807],[48.230767,-13.397698],[48.237928,-13.399482],[48.247173,-13.405372],[48.247103,-13.409283],[48.250762,-13.408645],[48.251787,-13.413367],[48.260502,-13.416227],[48.26775,-13.403626],[48.277108,-13.408171],[48.280793,-13.407642],[48.277577,-13.402221],[48.281618,-13.404282],[48.285702,-13.402199],[48.288571,-13.404547],[48.287651,-13.408801],[48.294942,-13.400689],[48.298753,-13.400693],[48.3019,-13.401982],[48.309956,-13.42262],[48.318992,-13.424704],[48.331418,-13.419482],[48.342148,-13.405954],[48.345251,-13.405111],[48.347178,-13.40956],[48.359682,-13.409595],[48.35246,-13.402069],[48.352261,-13.388614],[48.348862,-13.3818],[48.344426,-13.383605],[48.343832,-13.387828],[48.337586,-13.387025],[48.334969,-13.380671],[48.321896,-13.37114],[48.31443,-13.360185],[48.321987,-13.34318],[48.323697,-13.346956],[48.328194,-13.341452],[48.339383,-13.34956],[48.346071,-13.347286],[48.345255,-13.319295],[48.338654,-13.311977],[48.323302,-13.310753],[48.324296,-13.299026],[48.331622,-13.28189],[48.325233,-13.273465],[48.326631,-13.265379],[48.322829,-13.263296],[48.321227,-13.271495],[48.312204,-13.278591],[48.309135,-13.277489],[48.309956,-13.274898],[48.301635,-13.273018],[48.312165,-13.273005],[48.306635,-13.270753],[48.311097,-13.265961],[48.299166,-13.265831],[48.294413,-13.256942],[48.296657,-13.245483],[48.308015,-13.24097],[48.30358,-13.237211],[48.305125,-13.232836],[48.313015,-13.229576],[48.310246,-13.223213],[48.312738,-13.218469],[48.302217,-13.209676],[48.303888,-13.201816],[48.292516,-13.208725],[48.286917,-13.205066],[48.287586,-13.201672],[48.268241,-13.19889]]]}}
