{"type":"Feature","properties":{"ALL_Uniq":274369,"name":"Semitsiaq","Area_Geode":73.8871586179,"Plate":"North America"},"geometry":{"type":"Polygon","coordinates":[[[-51.410619,64.351266],[-51.439165,64.344991],[-51.441054,64.343539],[-51.434368,64.344785],[-51.434603,64.342368],[-51.423236,64.345565],[-51.430049,64.340393],[-51.42179,64.3395],[-51.445709,64.339127],[-51.455083,64.33529],[-51.446577,64.334421],[-51.456691,64.329908],[-51.456879,64.327064],[-51.460963,64.32828],[-51.462811,64.32464],[-51.488213,64.315616],[-51.486766,64.313874],[-51.493081,64.311452],[-51.480318,64.310516],[-51.482988,64.306343],[-51.499527,64.299549],[-51.505949,64.30029],[-51.508231,64.296679],[-51.489353,64.295762],[-51.482121,64.30057],[-51.476814,64.297679],[-51.490506,64.294141],[-51.510728,64.295179],[-51.533277,64.287137],[-51.552846,64.287078],[-51.556203,64.284105],[-51.552767,64.278573],[-51.57393,64.274386],[-51.568229,64.271529],[-51.580415,64.271897],[-51.575856,64.274714],[-51.595037,64.275505],[-51.613259,64.270881],[-51.616471,64.264243],[-51.603119,64.25778],[-51.610846,64.243002],[-51.583823,64.238615],[-51.555848,64.239454],[-51.54991,64.248023],[-51.541993,64.252058],[-51.501083,64.261303],[-51.489511,64.268753],[-51.481458,64.26963],[-51.474139,64.276294],[-51.467625,64.276151],[-51.470918,64.278444],[-51.445041,64.287615],[-51.428871,64.291705],[-51.412941,64.289778],[-51.439973,64.273845],[-51.444493,64.267508],[-51.467763,64.257892],[-51.467084,64.253471],[-51.436465,64.246725],[-51.414371,64.253201],[-51.367148,64.283022],[-51.322728,64.300086],[-51.313433,64.310158],[-51.315059,64.319061],[-51.323563,64.320345],[-51.323491,64.323978],[-51.330229,64.314674],[-51.33346,64.318882],[-51.335026,64.316259],[-51.352515,64.322154],[-51.358318,64.320971],[-51.35119,64.320487],[-51.35434,64.31867],[-51.365428,64.321599],[-51.372006,64.318969],[-51.367848,64.321714],[-51.37368,64.326112],[-51.366987,64.324609],[-51.363859,64.327461],[-51.369431,64.331038],[-51.380821,64.329161],[-51.389802,64.331635],[-51.391607,64.335297],[-51.401722,64.339196],[-51.410619,64.351266]]]}}
