{"type":"Feature","properties":{"ALL_Uniq":274346,"name":"Hierro","Area_Geode":271.76279083,"Plate":"Africa"},"geometry":{"type":"Polygon","coordinates":[[[-17.9278,27.849464],[-17.941947,27.847039],[-17.946418,27.841131],[-17.958215,27.841058],[-17.983732,27.822356],[-17.997119,27.823983],[-17.991115,27.82073],[-17.986293,27.812167],[-17.989105,27.799379],[-17.996416,27.791768],[-18.015132,27.783214],[-18.019071,27.775571],[-18.036716,27.762831],[-18.067185,27.754176],[-18.083519,27.753561],[-18.111459,27.758861],[-18.120027,27.763846],[-18.120948,27.769842],[-18.132924,27.771693],[-18.141007,27.763613],[-18.151673,27.760954],[-18.156227,27.752859],[-18.151727,27.746402],[-18.151919,27.733474],[-18.159481,27.72752],[-18.159969,27.714917],[-18.1462,27.7033],[-18.124497,27.704773],[-18.050856,27.692465],[-18.027988,27.678365],[-18.028488,27.671321],[-18.020703,27.666661],[-18.019237,27.659944],[-18.008839,27.64884],[-17.997901,27.645822],[-17.99643,27.640816],[-17.990833,27.63812],[-17.977873,27.638925],[-17.969939,27.648729],[-17.972205,27.671769],[-17.966701,27.67831],[-17.964278,27.689475],[-17.958965,27.691896],[-17.957828,27.718148],[-17.949076,27.727877],[-17.928594,27.730196],[-17.917297,27.756759],[-17.90921,27.764949],[-17.913547,27.769756],[-17.902694,27.785638],[-17.895068,27.787268],[-17.888607,27.798804],[-17.882186,27.80331],[-17.885518,27.81735],[-17.893591,27.823009],[-17.891789,27.825408],[-17.894561,27.833536],[-17.902337,27.83749],[-17.90147,27.841447],[-17.9278,27.849464]]]}}
