{"type":"Feature","properties":{"ALL_Uniq":274305,"name":"Karl Alexander","Area_Geode":332.660181401,"Plate":"Eurasia"},"geometry":{"type":"Polygon","coordinates":[[[57.692198,81.561063],[57.451931,81.555055],[57.395479,81.557732],[57.391196,81.556482],[57.39536,81.555174],[57.392564,81.553389],[57.452762,81.551033],[57.445516,81.546821],[57.454082,81.545108],[57.424993,81.544359],[57.425814,81.541646],[57.443125,81.538719],[57.38837,81.535458],[57.390559,81.531341],[57.330554,81.522982],[57.155045,81.53626],[57.101127,81.535593],[57.086136,81.531406],[57.021938,81.53488],[56.969162,81.530834],[56.946319,81.525647],[56.944177,81.522602],[56.95122,81.517557],[57.020177,81.51356],[57.032313,81.506564],[57.024651,81.503138],[56.948603,81.497284],[56.924618,81.49224],[56.957645,81.489765],[56.94846,81.485006],[56.847714,81.483055],[56.834627,81.478344],[56.845239,81.473299],[56.841527,81.469016],[56.817352,81.467493],[56.820433,81.466797],[56.81596,81.460236],[56.856935,81.452951],[56.985604,81.44373],[57.11933,81.444385],[57.127123,81.441232],[57.128491,81.435521],[57.154843,81.433796],[57.214092,81.433082],[57.247075,81.4426],[57.289263,81.441672],[57.31696,81.439102],[57.317388,81.435533],[57.33809,81.431978],[57.363845,81.43392],[57.479315,81.426782],[57.513668,81.42091],[57.507213,81.418404],[57.578074,81.41888],[57.599537,81.415548],[57.597596,81.414173],[57.60245,81.41265],[57.563237,81.403228],[57.568281,81.40199],[57.563713,81.399337],[57.571149,81.397077],[57.63236,81.402193],[57.642116,81.400765],[57.652645,81.394578],[57.704874,81.395649],[57.779114,81.386845],[57.775513,81.384152],[57.863648,81.376824],[57.986523,81.373302],[58.13938,81.373112],[58.237128,81.376538],[58.301849,81.380821],[58.379172,81.392794],[58.500296,81.400333],[58.53142,81.407243],[58.546724,81.416951],[58.549294,81.42426],[58.541642,81.433112],[58.552321,81.434483],[58.504294,81.445904],[58.507329,81.448169],[58.419266,81.463517],[58.275261,81.48103],[58.195882,81.485693],[58.157906,81.490928],[58.060157,81.489025],[58.016756,81.490452],[57.97621,81.495782],[57.906064,81.49721],[57.909014,81.503397],[57.902066,81.506062],[57.83744,81.513866],[57.844198,81.519101],[57.823925,81.523765],[57.821831,81.527667],[57.812408,81.530142],[57.828303,81.533663],[57.818214,81.538517],[57.822306,81.546417],[57.814621,81.548987],[57.815751,81.552437],[57.790529,81.550891],[57.692198,81.561063]]]}}
