{"type":"Feature","properties":{"ALL_Uniq":274319,"name":"Tennent","Area_Geode":318.09330068,"Plate":"North America"},"geometry":{"type":"Polygon","coordinates":[[[-96.653172,69.593478],[-96.679481,69.589157],[-96.696901,69.593182],[-96.695024,69.589995],[-96.702353,69.589374],[-96.698737,69.585299],[-96.704063,69.583689],[-96.675104,69.575105],[-96.676251,69.571192],[-96.660839,69.565658],[-96.657071,69.557949],[-96.648765,69.557392],[-96.643793,69.561136],[-96.627625,69.555672],[-96.622364,69.545572],[-96.608793,69.540345],[-96.605115,69.529942],[-96.592571,69.526586],[-96.592446,69.518896],[-96.57858,69.512819],[-96.570116,69.501138],[-96.541188,69.484105],[-96.474491,69.464401],[-96.442279,69.466538],[-96.422251,69.461694],[-96.415756,69.46601],[-96.404081,69.461162],[-96.371662,69.46191],[-96.369945,69.459906],[-96.380632,69.453683],[-96.345185,69.431944],[-96.35255,69.430485],[-96.340577,69.428708],[-96.346123,69.422822],[-96.343654,69.420771],[-96.323423,69.419601],[-96.322682,69.41541],[-96.307535,69.408109],[-96.276802,69.402089],[-96.256871,69.39086],[-96.215557,69.382451],[-96.193738,69.373224],[-96.193574,69.369327],[-96.187279,69.3647],[-96.165291,69.363835],[-96.12415,69.352291],[-96.108024,69.351743],[-96.103245,69.354491],[-96.103999,69.363791],[-96.110058,69.368003],[-96.10664,69.369493],[-96.109844,69.372208],[-96.10846,69.386112],[-96.098035,69.39067],[-96.101482,69.403386],[-96.086471,69.408777],[-96.098778,69.414088],[-96.091582,69.416819],[-96.098931,69.420951],[-96.120878,69.423255],[-96.118469,69.426462],[-96.121358,69.439808],[-96.114011,69.441254],[-96.110531,69.447353],[-96.103999,69.448996],[-96.071238,69.448515],[-96.056255,69.457816],[-96.056249,69.47848],[-96.063706,69.486657],[-96.059623,69.490985],[-96.049281,69.493934],[-96.05755,69.499941],[-96.053062,69.500135],[-96.06156,69.501931],[-96.071534,69.511948],[-96.074796,69.519123],[-96.071112,69.528721],[-96.085258,69.536953],[-96.085772,69.541158],[-96.077637,69.542862],[-96.077039,69.546239],[-96.088174,69.547974],[-96.126639,69.572376],[-96.14239,69.577107],[-96.145137,69.589414],[-96.171986,69.58858],[-96.163505,69.581589],[-96.172449,69.570098],[-96.191865,69.568923],[-96.208822,69.56303],[-96.223731,69.564596],[-96.223883,69.559887],[-96.235928,69.552915],[-96.23719,69.542323],[-96.247484,69.536906],[-96.287853,69.530418],[-96.311402,69.540219],[-96.312165,69.543292],[-96.307956,69.546492],[-96.310146,69.548924],[-96.318036,69.546588],[-96.329419,69.549349],[-96.332996,69.555138],[-96.326087,69.55551],[-96.328805,69.560551],[-96.352811,69.565764],[-96.379335,69.582138],[-96.399085,69.577853],[-96.416551,69.580251],[-96.433427,69.572214],[-96.4581,69.568956],[-96.483115,69.572434],[-96.486463,69.567915],[-96.496006,69.566553],[-96.519624,69.569752],[-96.530357,69.568176],[-96.536264,69.574539],[-96.541262,69.575141],[-96.549633,69.572618],[-96.550666,69.566014],[-96.585545,69.563854],[-96.586986,69.569712],[-96.598872,69.569499],[-96.599026,69.567896],[-96.591023,69.568626],[-96.593248,69.566315],[-96.588794,69.563151],[-96.596814,69.567318],[-96.60756,69.567871],[-96.603347,69.562348],[-96.611726,69.560863],[-96.63099,69.56983],[-96.624651,69.572005],[-96.630189,69.573994],[-96.619923,69.573286],[-96.620633,69.576139],[-96.643049,69.585442],[-96.653172,69.593478]]]}}
