{"type":"Feature","properties":{"ALL_Uniq":274414,"name":"Malta","Area_Geode":245.81488765,"Plate":"North America"},"geometry":{"type":"Polygon","coordinates":[[[14.367992,35.998178],[14.361977,35.996236],[14.366165,35.992048],[14.357446,35.989155],[14.352954,35.991553],[14.351279,35.986604],[14.32954,35.987023],[14.328055,35.989421],[14.328436,35.986833],[14.334642,35.983977],[14.323753,35.978228],[14.318842,35.971642],[14.324058,35.968368],[14.336812,35.969472],[14.338182,35.962657],[14.33567,35.96201],[14.341647,35.960487],[14.338182,35.958393],[14.341951,35.954396],[14.337687,35.951083],[14.336469,35.944954],[14.328512,35.942175],[14.331634,35.937911],[14.344654,35.933304],[14.344502,35.928545],[14.339248,35.927213],[14.343398,35.92687],[14.344045,35.920703],[14.335099,35.922987],[14.3327,35.918342],[14.341038,35.906083],[14.328093,35.906007],[14.331786,35.902162],[14.329388,35.896108],[14.335479,35.890855],[14.336507,35.8797],[14.341989,35.873722],[14.354591,35.87022],[14.352002,35.868164],[14.364147,35.858837],[14.380023,35.848481],[14.395899,35.843037],[14.396279,35.838506],[14.415125,35.833976],[14.416647,35.827961],[14.434274,35.825753],[14.450683,35.81928],[14.457041,35.822212],[14.475354,35.813836],[14.494085,35.814255],[14.517156,35.806336],[14.535202,35.807478],[14.542169,35.811362],[14.546775,35.819014],[14.54057,35.822783],[14.542055,35.815854],[14.533488,35.821641],[14.530938,35.819966],[14.529758,35.825105],[14.533488,35.827885],[14.529872,35.830055],[14.538324,35.832872],[14.544758,35.829788],[14.545176,35.841209],[14.554732,35.831844],[14.559263,35.81928],[14.562042,35.820004],[14.559377,35.82461],[14.563184,35.826286],[14.561395,35.831273],[14.563908,35.834966],[14.559567,35.837859],[14.565164,35.837022],[14.561433,35.841476],[14.563984,35.842885],[14.570037,35.839306],[14.572664,35.840715],[14.567677,35.844826],[14.571979,35.849547],[14.565583,35.849699],[14.563603,35.854116],[14.576319,35.860892],[14.569199,35.864966],[14.561776,35.863405],[14.575215,35.86706],[14.570722,35.87258],[14.542016,35.893291],[14.524961,35.898773],[14.527702,35.893101],[14.522867,35.892606],[14.526331,35.887733],[14.516699,35.892606],[14.521001,35.886781],[14.520049,35.881489],[14.51944,35.886476],[14.514262,35.891007],[14.517118,35.880728],[14.513996,35.886629],[14.5068,35.885487],[14.498615,35.875702],[14.500633,35.879052],[14.496826,35.880157],[14.501661,35.881223],[14.497701,35.884954],[14.508742,35.889141],[14.518374,35.897251],[14.520316,35.903152],[14.512816,35.902276],[14.497511,35.893063],[14.496978,35.896299],[14.491077,35.895004],[14.500633,35.898355],[14.49576,35.90319],[14.498425,35.907035],[14.51491,35.906845],[14.498805,35.918761],[14.493856,35.914573],[14.490277,35.919104],[14.495113,35.919256],[14.493019,35.921045],[14.495531,35.923025],[14.493019,35.923558],[14.495493,35.926946],[14.487955,35.925423],[14.492714,35.929078],[14.480112,35.936693],[14.459402,35.937835],[14.458107,35.94168],[14.455023,35.940423],[14.454414,35.946781],[14.450074,35.943088],[14.44444,35.951274],[14.433361,35.954738],[14.421292,35.945525],[14.425785,35.958888],[14.429439,35.960944],[14.417904,35.956985],[14.405036,35.948761],[14.398449,35.950589],[14.384477,35.945601],[14.391254,35.955728],[14.39015,35.959269],[14.396584,35.958393],[14.396736,35.967568],[14.385162,35.969777],[14.382574,35.967645],[14.379376,35.971642],[14.354363,35.966084],[14.34987,35.971376],[14.364337,35.983673],[14.375683,35.987442],[14.367992,35.998178]]]}}
