{"type":"Feature","properties":{"ALL_Uniq":274402,"name":"Sao Vicente","Area_Geode":224.785587509,"Plate":"Pacific"},"geometry":{"type":"Polygon","coordinates":[[[-24.91936,16.923258],[-24.932318,16.921268],[-24.93283,16.916762],[-24.938378,16.913982],[-24.936926,16.90908],[-24.945182,16.905745],[-24.964212,16.914425],[-24.961873,16.9224],[-24.972037,16.918268],[-24.976571,16.910226],[-24.989264,16.911838],[-24.990245,16.905986],[-24.99853,16.906738],[-24.997833,16.901431],[-24.992094,16.895365],[-24.99911,16.890057],[-24.98924,16.887535],[-24.994785,16.878972],[-25.000459,16.876473],[-25.018102,16.876902],[-25.023726,16.880087],[-25.027756,16.88749],[-25.033513,16.886724],[-25.036894,16.882198],[-25.043421,16.884779],[-25.044069,16.880217],[-25.051198,16.883304],[-25.04954,16.878112],[-25.053458,16.877646],[-25.056116,16.866015],[-25.070711,16.861825],[-25.068195,16.856142],[-25.071649,16.854321],[-25.069939,16.852388],[-25.074554,16.852117],[-25.074571,16.847305],[-25.082951,16.845396],[-25.077185,16.8392],[-25.084191,16.82791],[-25.07538,16.829723],[-25.06696,16.827286],[-25.061128,16.822083],[-25.05948,16.811909],[-25.051454,16.804336],[-25.04544,16.806799],[-25.021775,16.799543],[-25.014959,16.793954],[-25.00875,16.79403],[-25.000598,16.785843],[-24.984632,16.777133],[-24.974417,16.778644],[-24.973963,16.782874],[-24.969333,16.785688],[-24.915476,16.79735],[-24.897163,16.81046],[-24.873238,16.809491],[-24.862888,16.814843],[-24.858267,16.835932],[-24.863754,16.838295],[-24.868237,16.8498],[-24.85994,16.856075],[-24.859869,16.861752],[-24.866942,16.86504],[-24.876406,16.86129],[-24.885085,16.86244],[-24.910644,16.879444],[-24.913731,16.889337],[-24.909177,16.89604],[-24.912617,16.898709],[-24.910898,16.901722],[-24.905217,16.900021],[-24.903167,16.908921],[-24.912427,16.920249],[-24.91936,16.923258]]]}}
