{"type":"Feature","properties":{"ALL_Uniq":274440,"name":"Smola","Area_Geode":253.684721334,"Plate":"Antarctica"},"geometry":{"type":"Polygon","coordinates":[[[7.9759,63.478026],[7.962715,63.472802],[7.9828,63.470862],[7.953853,63.470406],[7.966094,63.470151],[7.960041,63.465478],[7.967496,63.460181],[7.946305,63.460179],[7.950933,63.455736],[7.958064,63.455058],[7.94308,63.452634],[7.952159,63.448472],[7.940673,63.444877],[7.945673,63.441096],[7.940323,63.440421],[7.94729,63.439005],[7.938985,63.438606],[7.936875,63.43607],[7.942069,63.436223],[7.941294,63.434192],[7.935307,63.435794],[7.933121,63.439519],[7.920719,63.433936],[7.933523,63.441795],[7.929587,63.445711],[7.929185,63.442273],[7.921785,63.441213],[7.928123,63.446118],[7.926071,63.448143],[7.915311,63.446177],[7.913981,63.442777],[7.918951,63.444283],[7.920295,63.440129],[7.908134,63.442983],[7.908401,63.434725],[7.906074,63.436542],[7.897273,63.434633],[7.902011,63.433754],[7.900566,63.431741],[7.894817,63.432707],[7.904396,63.429737],[7.905497,63.426854],[7.898881,63.430595],[7.886209,63.43098],[7.894169,63.43831],[7.890722,63.440304],[7.888233,63.437096],[7.867919,63.437852],[7.865995,63.430681],[7.87235,63.431562],[7.864157,63.42745],[7.862882,63.434874],[7.858256,63.437853],[7.841111,63.437621],[7.839249,63.433847],[7.844572,63.432704],[7.839841,63.431067],[7.842998,63.428481],[7.857814,63.434849],[7.845532,63.426341],[7.837977,63.427031],[7.842398,63.425683],[7.840734,63.423386],[7.816792,63.421697],[7.803976,63.416478],[7.810558,63.416821],[7.808937,63.41451],[7.778992,63.406041],[7.781777,63.403126],[7.786654,63.40769],[7.804404,63.404928],[7.802629,63.403158],[7.79296,63.404121],[7.795163,63.399397],[7.798244,63.402832],[7.803913,63.399979],[7.793521,63.397446],[7.796339,63.395126],[7.787828,63.397668],[7.796248,63.391053],[7.802238,63.391225],[7.794352,63.387003],[7.820082,63.391193],[7.791665,63.384759],[7.789665,63.382106],[7.792709,63.37837],[7.788049,63.382371],[7.780673,63.380181],[7.783929,63.377976],[7.781644,63.374658],[7.786892,63.375038],[7.786674,63.372247],[7.776623,63.374532],[7.775848,63.37087],[7.772859,63.372389],[7.76787,63.368769],[7.793249,63.371306],[7.79136,63.369213],[7.779259,63.367246],[7.780942,63.364629],[7.776258,63.36358],[7.784457,63.356506],[7.787726,63.358545],[7.783243,63.360211],[7.786023,63.360236],[7.790607,63.357632],[7.793759,63.363446],[7.795502,63.360579],[7.798737,63.361991],[7.798177,63.364566],[7.809406,63.362682],[7.815731,63.357956],[7.80978,63.359177],[7.810593,63.356804],[7.804074,63.36082],[7.794792,63.359114],[7.814964,63.354621],[7.817657,63.355611],[7.815652,63.35754],[7.819926,63.356264],[7.823974,63.359944],[7.826015,63.356788],[7.841138,63.356797],[7.889284,63.370495],[7.906572,63.371736],[7.868202,63.361044],[7.863311,63.356804],[7.859048,63.358931],[7.846537,63.355729],[7.859356,63.353539],[7.86318,63.355673],[7.901713,63.355967],[7.901648,63.350086],[7.867504,63.354055],[7.844535,63.350284],[7.846158,63.34904],[7.842818,63.347671],[7.846934,63.346059],[7.834298,63.346504],[7.841874,63.34556],[7.819354,63.338853],[7.837282,63.337175],[7.823605,63.335484],[7.814005,63.337035],[7.804179,63.331732],[7.81802,63.334676],[7.822634,63.331517],[7.842115,63.333129],[7.84539,63.339262],[7.845523,63.334768],[7.849992,63.334509],[7.846329,63.33274],[7.846818,63.329661],[7.860827,63.326355],[7.874139,63.333292],[7.875487,63.330903],[7.890317,63.334185],[7.882383,63.336378],[7.894092,63.340001],[7.892668,63.336907],[7.900017,63.335493],[7.906315,63.33898],[7.920151,63.34007],[7.925449,63.338642],[7.91273,63.338155],[7.909373,63.336471],[7.911617,63.335007],[7.906415,63.334201],[7.914519,63.333896],[7.912859,63.335354],[7.916571,63.337093],[7.933967,63.33791],[7.960729,63.330371],[7.958104,63.332285],[7.961248,63.333238],[7.950015,63.338211],[7.959987,63.337363],[7.968259,63.335386],[7.962459,63.33515],[7.962911,63.330009],[7.960842,63.329736],[7.966027,63.326641],[7.989325,63.325689],[7.988285,63.323371],[7.97108,63.321917],[7.984083,63.319591],[7.994454,63.326571],[7.996856,63.322311],[8.020895,63.323377],[8.020518,63.326564],[8.033556,63.32714],[8.044548,63.323773],[8.036265,63.321742],[8.025721,63.324151],[8.019297,63.320694],[7.998225,63.321999],[7.98238,63.314335],[7.986101,63.311803],[7.981341,63.31061],[7.982372,63.308635],[7.990624,63.306863],[7.986449,63.305104],[8.008104,63.302868],[8.021876,63.308778],[8.040109,63.310929],[8.024943,63.307814],[8.037146,63.307695],[8.034912,63.306356],[8.037461,63.304275],[8.046433,63.309673],[8.044984,63.311718],[8.053906,63.31101],[8.059942,63.31742],[8.067756,63.313936],[8.080376,63.315103],[8.059283,63.319316],[8.046605,63.317214],[8.051873,63.321219],[8.0476,63.323497],[8.052381,63.325502],[8.080638,63.324779],[8.077109,63.329836],[8.117571,63.325786],[8.117707,63.329486],[8.124095,63.327402],[8.127307,63.328119],[8.124801,63.330605],[8.134545,63.329359],[8.130096,63.330999],[8.133247,63.331967],[8.130938,63.334681],[8.145915,63.330921],[8.151666,63.331473],[8.152808,63.333548],[8.144891,63.332384],[8.149365,63.335303],[8.14489,63.336705],[8.147565,63.337901],[8.118187,63.335843],[8.168987,63.342002],[8.163466,63.348678],[8.141136,63.348324],[8.152459,63.353537],[8.171762,63.350339],[8.187299,63.353322],[8.189114,63.358325],[8.196787,63.359416],[8.182374,63.363717],[8.197749,63.363813],[8.203521,63.367081],[8.200974,63.370992],[8.212458,63.371731],[8.194476,63.377663],[8.200302,63.378949],[8.205438,63.385762],[8.200924,63.386877],[8.204374,63.390646],[8.202715,63.394166],[8.193961,63.392358],[8.185613,63.394064],[8.194393,63.394911],[8.189123,63.397713],[8.165347,63.398116],[8.168026,63.404356],[8.164819,63.407527],[8.170156,63.413451],[8.167086,63.417643],[8.162156,63.416675],[8.163664,63.419444],[8.159192,63.421601],[8.164689,63.429509],[8.144963,63.431488],[8.150219,63.434358],[8.145604,63.445654],[8.135809,63.44873],[8.129683,63.455611],[8.120446,63.457898],[8.114364,63.463399],[8.096781,63.468891],[8.09183,63.468823],[8.091293,63.464878],[8.076913,63.466448],[8.065359,63.461908],[8.079814,63.462891],[8.083003,63.45919],[8.053328,63.461121],[8.058882,63.464094],[8.053705,63.467271],[8.048417,63.464177],[8.052077,63.461252],[8.050017,63.459483],[8.033204,63.460833],[8.030341,63.462606],[8.031673,63.466181],[8.020977,63.463303],[8.019208,63.468617],[8.005271,63.464867],[8.002476,63.467791],[7.996414,63.464315],[7.982256,63.467468],[7.989255,63.472628],[7.996564,63.470243],[8.000065,63.473667],[7.992182,63.472973],[7.991792,63.477503],[7.979517,63.475896],[7.9759,63.478026]]]}}
