{"type":"Feature","properties":{"ALL_Uniq":274533,"name":"Sukkwan","Area_Geode":178.372137519,"Plate":"Australia"},"geometry":{"type":"Polygon","coordinates":[[[-132.839179,55.201117],[-132.844923,55.195463],[-132.841693,55.193522],[-132.844348,55.190207],[-132.840965,55.188811],[-132.849449,55.187833],[-132.845382,55.185514],[-132.852806,55.187377],[-132.855386,55.185083],[-132.850901,55.179969],[-132.85278,55.177771],[-132.859953,55.177061],[-132.870661,55.164507],[-132.893095,55.162242],[-132.89719,55.153607],[-132.882953,55.151615],[-132.886394,55.150055],[-132.884399,55.146716],[-132.890951,55.149027],[-132.888286,55.143812],[-132.884296,55.142876],[-132.8885,55.141792],[-132.892076,55.135194],[-132.888625,55.134643],[-132.884951,55.141222],[-132.881134,55.134302],[-132.876756,55.136523],[-132.879918,55.12982],[-132.87494,55.127514],[-132.873267,55.122821],[-132.885626,55.116432],[-132.878925,55.115289],[-132.878966,55.11011],[-132.88341,55.109088],[-132.877066,55.10456],[-132.87828,55.100394],[-132.863706,55.098408],[-132.861652,55.095485],[-132.85664,55.097582],[-132.846837,55.08713],[-132.843076,55.088879],[-132.848897,55.092421],[-132.840158,55.094945],[-132.836661,55.090911],[-132.833907,55.093226],[-132.834916,55.089398],[-132.830461,55.08418],[-132.821017,55.086921],[-132.820596,55.090537],[-132.813145,55.09492],[-132.808612,55.093513],[-132.809381,55.087588],[-132.823169,55.075063],[-132.83475,55.07122],[-132.841084,55.073032],[-132.840005,55.066921],[-132.847499,55.069007],[-132.843887,55.063795],[-132.850438,55.059671],[-132.873964,55.063067],[-132.875069,55.060031],[-132.87006,55.056591],[-132.869867,55.052932],[-132.855828,55.055629],[-132.856067,55.058021],[-132.848743,55.053834],[-132.850773,55.051032],[-132.861297,55.050664],[-132.863667,55.046961],[-132.880921,55.05635],[-132.881795,55.053026],[-132.874884,55.048178],[-132.876002,55.044321],[-132.878983,55.047204],[-132.879491,55.044603],[-132.884996,55.043967],[-132.883855,55.041352],[-132.890899,55.042074],[-132.892819,55.036004],[-132.888114,55.035576],[-132.888248,55.031135],[-132.873101,55.024376],[-132.856974,55.023222],[-132.849989,55.019753],[-132.843136,55.021836],[-132.809949,55.007617],[-132.80536,55.008824],[-132.808792,55.012559],[-132.802682,55.015237],[-132.806872,55.018264],[-132.803179,55.020367],[-132.817953,55.043829],[-132.808406,55.042335],[-132.802927,55.033357],[-132.805238,55.032205],[-132.800749,55.030333],[-132.804438,55.026551],[-132.795538,55.017114],[-132.792133,55.020257],[-132.79501,55.02587],[-132.789199,55.023525],[-132.786324,55.026987],[-132.777583,55.027466],[-132.777221,55.020897],[-132.772269,55.015187],[-132.782063,55.020294],[-132.78802,55.015565],[-132.782751,55.01296],[-132.785043,55.011803],[-132.78255,55.00847],[-132.77166,55.008326],[-132.766942,54.998762],[-132.758456,54.995933],[-132.753514,54.988491],[-132.749612,54.988836],[-132.746628,54.995887],[-132.757032,55.004776],[-132.755331,55.007576],[-132.75043,55.007108],[-132.752097,55.009999],[-132.743635,55.01156],[-132.736808,55.004115],[-132.725391,55.007124],[-132.725451,55.010549],[-132.720458,55.011761],[-132.710655,55.022091],[-132.711279,55.014639],[-132.705163,55.017617],[-132.705755,55.021315],[-132.696259,55.019771],[-132.701215,55.02196],[-132.698599,55.023848],[-132.700571,55.029958],[-132.692962,55.021726],[-132.69373,55.024484],[-132.685425,55.028221],[-132.691587,55.035042],[-132.68435,55.034704],[-132.686198,55.040709],[-132.683581,55.047138],[-132.691522,55.05512],[-132.691148,55.060138],[-132.703383,55.068866],[-132.7015,55.071948],[-132.697288,55.071612],[-132.704461,55.077781],[-132.700232,55.078931],[-132.705807,55.079405],[-132.700046,55.081167],[-132.716849,55.081789],[-132.706442,55.089463],[-132.715008,55.095125],[-132.710822,55.101099],[-132.717823,55.10218],[-132.719778,55.09878],[-132.731415,55.10827],[-132.725822,55.113523],[-132.720773,55.109571],[-132.722446,55.117509],[-132.712218,55.109526],[-132.701297,55.10519],[-132.696489,55.106603],[-132.698011,55.115831],[-132.692423,55.117127],[-132.688719,55.124811],[-132.692426,55.126979],[-132.697733,55.12466],[-132.71348,55.1396],[-132.720552,55.14075],[-132.730649,55.140389],[-132.731545,55.128115],[-132.735981,55.130837],[-132.734778,55.135018],[-132.745144,55.138126],[-132.748794,55.143908],[-132.764695,55.152541],[-132.769403,55.152675],[-132.770887,55.159541],[-132.777362,55.164396],[-132.812515,55.174681],[-132.827023,55.17422],[-132.815323,55.178351],[-132.823007,55.181747],[-132.82155,55.188373],[-132.830018,55.191436],[-132.833426,55.200222],[-132.839179,55.201117]]]}}
