{"type":"Feature","properties":{"ALL_Uniq":274528,"name":"Santa Maria","Area_Geode":173.289105765,"Plate":"North America"},"geometry":{"type":"Polygon","coordinates":[[[-90.425458,-1.220112],[-90.428159,-1.225425],[-90.439886,-1.226646],[-90.440255,-1.230523],[-90.442808,-1.229076],[-90.454945,-1.239749],[-90.463328,-1.238364],[-90.468173,-1.229832],[-90.47897,-1.233097],[-90.481795,-1.246981],[-90.488161,-1.252092],[-90.48847,-1.276707],[-90.496226,-1.287606],[-90.495221,-1.295918],[-90.501838,-1.30045],[-90.510803,-1.315695],[-90.506712,-1.327023],[-90.498202,-1.332072],[-90.499201,-1.339669],[-90.492842,-1.339564],[-90.489077,-1.345668],[-90.485347,-1.343531],[-90.473763,-1.346546],[-90.454318,-1.359948],[-90.433212,-1.360243],[-90.406944,-1.344656],[-90.399833,-1.344507],[-90.386928,-1.332416],[-90.379357,-1.317805],[-90.380598,-1.312886],[-90.364561,-1.300076],[-90.356605,-1.278118],[-90.352657,-1.277326],[-90.358586,-1.263586],[-90.370075,-1.260734],[-90.371839,-1.254673],[-90.380197,-1.248473],[-90.39347,-1.246202],[-90.401483,-1.239042],[-90.420727,-1.232953],[-90.423511,-1.227977],[-90.41978,-1.223197],[-90.425458,-1.220112]]]}}
