{"type":"Feature","properties":{"ALL_Uniq":274535,"name":"French","Area_Geode":173.597457881,"Plate":"Eurasia"},"geometry":{"type":"Polygon","coordinates":[[[145.304604,-38.281748],[145.293183,-38.28194],[145.287788,-38.286213],[145.284535,-38.3042],[145.286398,-38.308202],[145.28106,-38.319409],[145.281274,-38.336224],[145.273636,-38.357342],[145.276778,-38.378483],[145.272164,-38.382673],[145.27504,-38.384901],[145.275508,-38.393658],[145.269316,-38.40255],[145.270227,-38.408699],[145.281717,-38.404814],[145.280005,-38.397715],[145.287316,-38.396275],[145.313735,-38.403271],[145.319548,-38.412784],[145.325153,-38.410407],[145.328685,-38.414029],[145.336944,-38.412733],[145.352272,-38.419928],[145.361257,-38.406496],[145.371315,-38.403804],[145.378906,-38.40945],[145.380815,-38.406443],[145.385559,-38.406656],[145.384311,-38.399544],[145.392576,-38.395784],[145.390784,-38.384455],[145.406477,-38.37177],[145.475703,-38.366023],[145.501869,-38.352367],[145.489724,-38.339492],[145.471889,-38.330695],[145.459855,-38.31042],[145.452767,-38.306217],[145.424534,-38.306767],[145.406898,-38.303076],[145.370488,-38.312413],[145.347174,-38.307534],[145.340135,-38.303985],[145.328923,-38.291213],[145.304604,-38.281748]]]}}
