{"type":"Feature","properties":{"ALL_Uniq":274674,"name":"Sant'Antioco","Area_Geode":111.388073161,"Plate":"Australia"},"geometry":{"type":"Polygon","coordinates":[[[8.458498,39.06632],[8.455423,39.084991],[8.431312,39.096184],[8.425725,39.109003],[8.410776,39.102591],[8.401116,39.10473],[8.380093,39.099891],[8.376189,39.11007],[8.37078,39.114952],[8.364559,39.109087],[8.35989,39.109793],[8.360325,39.098643],[8.35019,39.097633],[8.357915,39.086757],[8.35296,39.081333],[8.349404,39.08337],[8.348799,39.079372],[8.360587,39.052061],[8.360137,39.038025],[8.36931,39.022593],[8.373488,39.02303],[8.370342,39.019286],[8.375014,39.01206],[8.384537,39.008476],[8.38223,39.003005],[8.38768,38.992385],[8.393442,38.989593],[8.396548,38.97599],[8.403146,38.973691],[8.402989,38.962568],[8.409536,38.95656],[8.413919,38.9555],[8.419566,38.96133],[8.432329,38.961382],[8.436536,38.963278],[8.436972,38.967222],[8.444383,38.969522],[8.440428,38.978961],[8.450873,38.989513],[8.44848,38.998833],[8.450404,39.01912],[8.469468,39.051234],[8.458498,39.06632]]]}}
