{"type":"Feature","properties":{"ALL_Uniq":274635,"name":"Timbun Mata","Area_Geode":128.44735133,"Plate":"Burma"},"geometry":{"type":"Polygon","coordinates":[[[118.446945,4.698542],[118.43927,4.686569],[118.437514,4.691274],[118.435254,4.682537],[118.431137,4.684045],[118.427908,4.679772],[118.426843,4.683499],[118.42353,4.682935],[118.424626,4.676889],[118.433122,4.669945],[118.429268,4.662842],[118.415375,4.664126],[118.4064,4.660677],[118.400046,4.666579],[118.398415,4.662811],[118.387553,4.666035],[118.371158,4.661738],[118.354555,4.667351],[118.343666,4.667346],[118.340634,4.663678],[118.328568,4.663169],[118.320562,4.656992],[118.342001,4.645308],[118.353606,4.64421],[118.370654,4.648224],[118.381276,4.64128],[118.390938,4.640666],[118.408785,4.633373],[118.411734,4.62942],[118.422524,4.632613],[118.427682,4.632007],[118.427428,4.62886],[118.438701,4.629332],[118.449026,4.614159],[118.447535,4.608966],[118.454488,4.612378],[118.460463,4.607086],[118.466937,4.606225],[118.472283,4.61499],[118.479394,4.617746],[118.513668,4.596798],[118.532812,4.597108],[118.533644,4.60203],[118.529134,4.60503],[118.531066,4.610982],[118.538062,4.617437],[118.543268,4.616667],[118.543167,4.609291],[118.552336,4.588957],[118.557901,4.595009],[118.560143,4.612007],[118.56474,4.618001],[118.570604,4.621815],[118.578295,4.619714],[118.58671,4.626484],[118.58374,4.636579],[118.572319,4.641207],[118.56826,4.638885],[118.564338,4.643857],[118.550204,4.649127],[118.545958,4.655467],[118.540181,4.657038],[118.541463,4.653221],[118.535391,4.645574],[118.518988,4.648822],[118.520731,4.655056],[118.515919,4.661437],[118.507575,4.660546],[118.506934,4.646702],[118.501005,4.640502],[118.496093,4.641022],[118.494837,4.659165],[118.492186,4.661456],[118.489246,4.659124],[118.48413,4.668374],[118.486991,4.675677],[118.473396,4.676343],[118.463394,4.686634],[118.465438,4.694795],[118.461394,4.699645],[118.446945,4.698542]]]}}
