{"type":"Feature","properties":{"ALL_Uniq":274664,"name":"Saipan","Area_Geode":120.161726069,"Plate":"Pacific"},"geometry":{"type":"Polygon","coordinates":[[[145.811606,15.290305],[145.786437,15.267061],[145.77795,15.253448],[145.75384,15.242794],[145.744535,15.232965],[145.739299,15.231456],[145.738383,15.226261],[145.732536,15.225291],[145.730202,15.219194],[145.716918,15.21908],[145.716839,15.196301],[145.713045,15.178375],[145.70815,15.164786],[145.700187,15.156768],[145.700095,15.147051],[145.69236,15.130303],[145.693645,15.123125],[145.689917,15.120273],[145.703606,15.1134],[145.707483,15.106296],[145.740705,15.105103],[145.749459,15.091677],[145.757261,15.120798],[145.746057,15.128093],[145.741639,15.139119],[145.749526,15.158167],[145.765981,15.162525],[145.774869,15.151306],[145.792527,15.149472],[145.788849,15.154345],[145.79265,15.16329],[145.79794,15.16668],[145.78702,15.173369],[145.784991,15.182108],[145.77888,15.188827],[145.778047,15.194976],[145.782617,15.203266],[145.779417,15.209591],[145.790791,15.225314],[145.79978,15.229463],[145.802914,15.236091],[145.810565,15.241323],[145.807694,15.244783],[145.812228,15.252212],[145.810729,15.257921],[145.815748,15.261179],[145.827001,15.259914],[145.831098,15.27034],[145.82058,15.285351],[145.811606,15.290305]]]}}
