{"type":"Feature","properties":{"ALL_Uniq":274704,"name":"Vicosa","Area_Geode":1380.32214371,"Plate":"Eurasia"},"geometry":{"type":"Polygon","coordinates":[[[-50.31444,0.655683],[-50.317067,0.650694],[-50.313855,0.642245],[-50.315524,0.634752],[-50.31551,0.641569],[-50.321709,0.653714],[-50.325891,0.648265],[-50.321427,0.645562],[-50.327445,0.646196],[-50.329174,0.64058],[-50.318894,0.629622],[-50.31608,0.632707],[-50.310094,0.627284],[-50.317547,0.628944],[-50.315106,0.622614],[-50.31888,0.626107],[-50.321411,0.632132],[-50.331805,0.637002],[-50.327842,0.612006],[-50.330631,0.602393],[-50.332623,0.603561],[-50.328726,0.611119],[-50.335436,0.635342],[-50.337643,0.638625],[-50.343618,0.638387],[-50.346168,0.63526],[-50.343273,0.63125],[-50.349494,0.634904],[-50.352628,0.631443],[-50.35056,0.629085],[-50.353689,0.629434],[-50.35804,0.623244],[-50.349211,0.619492],[-50.343559,0.613717],[-50.352694,0.619827],[-50.356099,0.618615],[-50.349499,0.610482],[-50.358333,0.617848],[-50.369542,0.615991],[-50.386672,0.589215],[-50.393259,0.585],[-50.392585,0.579783],[-50.39536,0.580989],[-50.398105,0.577988],[-50.41137,0.538467],[-50.416513,0.511213],[-50.415899,0.504294],[-50.413072,0.504025],[-50.413182,0.507668],[-50.412243,0.504617],[-50.412863,0.502659],[-50.415035,0.502652],[-50.418079,0.506261],[-50.424604,0.472878],[-50.415334,0.470833],[-50.41479,0.475085],[-50.410404,0.476396],[-50.404738,0.474222],[-50.404583,0.46926],[-50.400167,0.467366],[-50.397671,0.470461],[-50.400738,0.465681],[-50.405928,0.469531],[-50.405511,0.472909],[-50.40992,0.471923],[-50.411035,0.474825],[-50.414016,0.47424],[-50.414748,0.469772],[-50.42425,0.470195],[-50.430754,0.446642],[-50.430759,0.440993],[-50.414291,0.432006],[-50.402302,0.436659],[-50.391586,0.446485],[-50.37735,0.441191],[-50.370993,0.443417],[-50.368312,0.448831],[-50.369,0.462965],[-50.36614,0.454875],[-50.370459,0.442343],[-50.379492,0.439809],[-50.395899,0.442463],[-50.404608,0.432395],[-50.392852,0.427962],[-50.37277,0.435205],[-50.367334,0.430702],[-50.356215,0.428423],[-50.35214,0.420006],[-50.354725,0.419671],[-50.356216,0.427343],[-50.367329,0.429355],[-50.372567,0.43387],[-50.393392,0.42635],[-50.407526,0.430887],[-50.4174,0.429557],[-50.421329,0.422046],[-50.424575,0.424218],[-50.419234,0.426803],[-50.421184,0.431972],[-50.424729,0.434425],[-50.432914,0.432708],[-50.44264,0.401266],[-50.436655,0.395347],[-50.43579,0.400694],[-50.428431,0.399491],[-50.430664,0.397035],[-50.430047,0.399593],[-50.435073,0.400101],[-50.435835,0.393754],[-50.443624,0.39693],[-50.446879,0.376566],[-50.440799,0.374224],[-50.434017,0.36545],[-50.425157,0.371812],[-50.423174,0.383689],[-50.415829,0.381375],[-50.40695,0.388545],[-50.396638,0.383859],[-50.409428,0.386113],[-50.414553,0.379891],[-50.411244,0.374398],[-50.422408,0.382051],[-50.424029,0.369129],[-50.417721,0.36307],[-50.424786,0.368405],[-50.435183,0.363309],[-50.44299,0.372371],[-50.446635,0.371037],[-50.458499,0.348588],[-50.467761,0.320823],[-50.48899,0.288362],[-50.479618,0.281766],[-50.477073,0.270374],[-50.473975,0.26929],[-50.468179,0.285323],[-50.461287,0.286864],[-50.463117,0.293219],[-50.459823,0.303647],[-50.441333,0.31029],[-50.443162,0.314041],[-50.44199,0.315805],[-50.438671,0.316452],[-50.437935,0.322789],[-50.437866,0.316458],[-50.442356,0.314587],[-50.439997,0.311141],[-50.441091,0.309708],[-50.460366,0.300953],[-50.460195,0.297171],[-50.462299,0.292596],[-50.45835,0.291699],[-50.461588,0.285192],[-50.46737,0.285052],[-50.468325,0.277384],[-50.472663,0.269258],[-50.476026,0.267485],[-50.475758,0.252902],[-50.462453,0.25386],[-50.454272,0.251809],[-50.430448,0.276428],[-50.416547,0.280948],[-50.424184,0.276281],[-50.430179,0.275889],[-50.43386,0.269532],[-50.440696,0.26376],[-50.434048,0.260433],[-50.438959,0.260623],[-50.442517,0.262979],[-50.452445,0.251735],[-50.456186,0.249829],[-50.462921,0.252508],[-50.476011,0.251493],[-50.480421,0.279612],[-50.490609,0.283225],[-50.51399,0.270228],[-50.518745,0.26283],[-50.532252,0.269161],[-50.547311,0.263906],[-50.549358,0.26575],[-50.539886,0.232706],[-50.52265,0.202227],[-50.47243,0.180062],[-50.465111,0.185335],[-50.466397,0.182278],[-50.470033,0.181063],[-50.470375,0.179047],[-50.431401,0.162258],[-50.429798,0.201227],[-50.438748,0.20396],[-50.444462,0.20043],[-50.445388,0.194699],[-50.44786,0.191162],[-50.45417,0.190429],[-50.446253,0.194608],[-50.446377,0.19822],[-50.441709,0.204226],[-50.432666,0.204801],[-50.429481,0.202484],[-50.42625,0.212771],[-50.431999,0.222827],[-50.442301,0.216704],[-50.448238,0.219277],[-50.445471,0.219053],[-50.442236,0.217258],[-50.434066,0.222997],[-50.439342,0.226017],[-50.431516,0.224998],[-50.425527,0.214828],[-50.412104,0.234368],[-50.388289,0.247094],[-50.383217,0.247886],[-50.370366,0.241741],[-50.357396,0.243859],[-50.346847,0.23776],[-50.338168,0.238857],[-50.335952,0.243169],[-50.340119,0.241789],[-50.340126,0.244927],[-50.330092,0.245055],[-50.331839,0.248339],[-50.326853,0.250401],[-50.328885,0.252102],[-50.326318,0.252056],[-50.322675,0.260007],[-50.317624,0.263816],[-50.31808,0.260703],[-50.314774,0.260388],[-50.310365,0.265847],[-50.300385,0.29852],[-50.298688,0.317871],[-50.288299,0.321057],[-50.291378,0.330593],[-50.284597,0.322629],[-50.280226,0.328491],[-50.278008,0.324311],[-50.267251,0.337261],[-50.271708,0.34083],[-50.255742,0.347975],[-50.246818,0.355772],[-50.244483,0.362124],[-50.237379,0.362825],[-50.238084,0.368024],[-50.214734,0.385724],[-50.21338,0.406596],[-50.225069,0.411583],[-50.228261,0.421183],[-50.233378,0.414256],[-50.23882,0.417646],[-50.233711,0.415046],[-50.229088,0.423061],[-50.223585,0.417743],[-50.219305,0.419406],[-50.219717,0.4233],[-50.217905,0.420422],[-50.213976,0.42252],[-50.218661,0.41191],[-50.210709,0.408526],[-50.203305,0.397605],[-50.184114,0.398874],[-50.16732,0.410779],[-50.154055,0.43811],[-50.158886,0.450064],[-50.16287,0.448845],[-50.161687,0.445789],[-50.16742,0.446478],[-50.171357,0.437736],[-50.175404,0.436647],[-50.181378,0.436091],[-50.193427,0.444394],[-50.201654,0.438833],[-50.200556,0.441886],[-50.196391,0.44393],[-50.197893,0.446821],[-50.182396,0.440113],[-50.173176,0.44154],[-50.171347,0.443742],[-50.180908,0.454466],[-50.175646,0.455791],[-50.176857,0.460237],[-50.173462,0.456813],[-50.171293,0.459192],[-50.155695,0.458069],[-50.150721,0.438542],[-50.14559,0.432884],[-50.138954,0.431489],[-50.122289,0.439345],[-50.120739,0.443817],[-50.112286,0.445033],[-50.107424,0.451583],[-50.110513,0.453504],[-50.106177,0.452434],[-50.104566,0.450925],[-50.099436,0.452535],[-50.100862,0.456719],[-50.096922,0.455546],[-50.091577,0.461697],[-50.093033,0.466712],[-50.088543,0.46891],[-50.090783,0.473427],[-50.096151,0.474284],[-50.099212,0.470827],[-50.096858,0.477723],[-50.093957,0.475147],[-50.085507,0.477522],[-50.07581,0.472143],[-50.070926,0.478814],[-50.067315,0.478484],[-50.06375,0.48643],[-50.065159,0.492025],[-50.068195,0.493672],[-50.074497,0.489154],[-50.07579,0.491187],[-50.058682,0.500519],[-50.058921,0.506021],[-50.063965,0.505171],[-50.055803,0.511448],[-50.052014,0.511016],[-50.048945,0.51573],[-50.054754,0.51951],[-50.043342,0.522872],[-50.043505,0.529097],[-50.034168,0.546628],[-50.036746,0.549642],[-50.033664,0.550061],[-50.02792,0.561802],[-50.030572,0.563486],[-50.026824,0.571662],[-50.029552,0.589802],[-50.03477,0.599675],[-50.038611,0.600769],[-50.043608,0.613287],[-50.048011,0.614519],[-50.047652,0.617625],[-50.056555,0.626764],[-50.062846,0.627999],[-50.061718,0.632462],[-50.081382,0.642703],[-50.082228,0.640657],[-50.087631,0.644025],[-50.089756,0.640638],[-50.089206,0.645915],[-50.097105,0.644811],[-50.106563,0.636193],[-50.102692,0.632009],[-50.09387,0.630892],[-50.090729,0.63155],[-50.091955,0.636755],[-50.088323,0.634014],[-50.090085,0.631494],[-50.08672,0.630005],[-50.084789,0.627356],[-50.088504,0.620286],[-50.08456,0.61815],[-50.085085,0.615851],[-50.087915,0.614799],[-50.084824,0.617322],[-50.089306,0.620287],[-50.085602,0.626751],[-50.088028,0.629977],[-50.10518,0.630887],[-50.10671,0.62796],[-50.115622,0.627605],[-50.12458,0.614039],[-50.119888,0.614212],[-50.125958,0.611381],[-50.126883,0.606173],[-50.129998,0.606528],[-50.134155,0.600222],[-50.133086,0.60468],[-50.1375,0.600379],[-50.135518,0.592653],[-50.140815,0.594505],[-50.145368,0.590546],[-50.141281,0.573015],[-50.128827,0.58152],[-50.122408,0.581266],[-50.113939,0.576106],[-50.114305,0.567049],[-50.106911,0.563861],[-50.113538,0.565458],[-50.115143,0.567357],[-50.115454,0.569416],[-50.114159,0.571952],[-50.116292,0.573012],[-50.114159,0.573833],[-50.116385,0.576681],[-50.12619,0.581277],[-50.138253,0.570844],[-50.142609,0.571892],[-50.149691,0.591796],[-50.147204,0.602292],[-50.16042,0.599286],[-50.156457,0.5881],[-50.157548,0.585165],[-50.161775,0.58265],[-50.163669,0.584952],[-50.158969,0.585104],[-50.157867,0.590658],[-50.162681,0.598174],[-50.166099,0.597596],[-50.164593,0.600334],[-50.17415,0.601863],[-50.173834,0.605233],[-50.176092,0.602064],[-50.180098,0.606341],[-50.179532,0.603425],[-50.185753,0.604676],[-50.184985,0.599639],[-50.188976,0.604681],[-50.197343,0.599823],[-50.195007,0.593982],[-50.200606,0.598679],[-50.198222,0.602916],[-50.199961,0.606045],[-50.204884,0.605753],[-50.208423,0.599648],[-50.211361,0.600569],[-50.207777,0.606862],[-50.211017,0.604004],[-50.213097,0.606359],[-50.220189,0.604969],[-50.225144,0.597772],[-50.220625,0.588972],[-50.226512,0.585821],[-50.223591,0.583336],[-50.222224,0.578087],[-50.224045,0.579538],[-50.223887,0.582574],[-50.226415,0.584297],[-50.227017,0.585792],[-50.225359,0.589053],[-50.222782,0.588696],[-50.224391,0.594405],[-50.231834,0.596724],[-50.235733,0.603612],[-50.241527,0.605921],[-50.237646,0.60618],[-50.238715,0.608178],[-50.245048,0.605025],[-50.246961,0.605695],[-50.242748,0.60818],[-50.253602,0.609861],[-50.271966,0.603104],[-50.282368,0.583803],[-50.276402,0.598727],[-50.285298,0.59299],[-50.29305,0.592253],[-50.29801,0.567041],[-50.298722,0.570265],[-50.294429,0.587356],[-50.29651,0.592276],[-50.293963,0.595562],[-50.287611,0.593347],[-50.282878,0.596228],[-50.278575,0.602987],[-50.279826,0.607045],[-50.273402,0.612698],[-50.279053,0.615777],[-50.289756,0.615335],[-50.293819,0.619637],[-50.296481,0.62921],[-50.29242,0.62015],[-50.275197,0.617945],[-50.251707,0.622311],[-50.250253,0.628538],[-50.264448,0.640771],[-50.275688,0.645397],[-50.282737,0.637145],[-50.278526,0.644498],[-50.281889,0.651048],[-50.289761,0.649942],[-50.294672,0.644972],[-50.292554,0.641153],[-50.296019,0.64568],[-50.29348,0.649698],[-50.299959,0.650244],[-50.302326,0.64573],[-50.303073,0.653686],[-50.31444,0.655683]]]}}
