{"type":"Feature","properties":{"ALL_Uniq":274717,"name":"Hinchinbrook","Area_Geode":390.540187587,"Plate":"Australia"},"geometry":{"type":"Polygon","coordinates":[[[146.223625,-18.193363],[146.221292,-18.202717],[146.223957,-18.217905],[146.222812,-18.222648],[146.216478,-18.227139],[146.229831,-18.233804],[146.227864,-18.236119],[146.238343,-18.244438],[146.24844,-18.247371],[146.238038,-18.244946],[146.228697,-18.238581],[146.228669,-18.242322],[146.254091,-18.258765],[146.260007,-18.255322],[146.274952,-18.25634],[146.278942,-18.253853],[146.27548,-18.256894],[146.259359,-18.25725],[146.26424,-18.259835],[146.253348,-18.260126],[146.241161,-18.250514],[146.227019,-18.244843],[146.232465,-18.253088],[146.243531,-18.255878],[146.25107,-18.260629],[146.26762,-18.265183],[146.251199,-18.26147],[146.241648,-18.256146],[146.232114,-18.254868],[146.241145,-18.265236],[146.252648,-18.265833],[146.254646,-18.268633],[146.249067,-18.266337],[146.241851,-18.268957],[146.261654,-18.275871],[146.251066,-18.274642],[146.232694,-18.265341],[146.257338,-18.283421],[146.251392,-18.280378],[146.25058,-18.285184],[146.250597,-18.280964],[146.23405,-18.269328],[146.229691,-18.269695],[146.234034,-18.278122],[146.256313,-18.291647],[146.25236,-18.291057],[146.240343,-18.284148],[146.242676,-18.292993],[146.252157,-18.293602],[146.262988,-18.299823],[146.252638,-18.294394],[146.247777,-18.295786],[146.246942,-18.300438],[146.251264,-18.3059],[146.255053,-18.304094],[146.260303,-18.307982],[146.255196,-18.30461],[146.251664,-18.307007],[146.246671,-18.30152],[146.245993,-18.296013],[146.240773,-18.29553],[146.243916,-18.306751],[146.242878,-18.311157],[146.245913,-18.313467],[146.244006,-18.313156],[146.242069,-18.310887],[146.243634,-18.307813],[146.24021,-18.301517],[146.240897,-18.297133],[146.224454,-18.284469],[146.214058,-18.281012],[146.225119,-18.295663],[146.229521,-18.296474],[146.22514,-18.296451],[146.209362,-18.280419],[146.194958,-18.277313],[146.192701,-18.271557],[146.181604,-18.264247],[146.165957,-18.262271],[146.153704,-18.253619],[146.150023,-18.245368],[146.140518,-18.245245],[146.127653,-18.23512],[146.112118,-18.236129],[146.105601,-18.233491],[146.070149,-18.247075],[146.100862,-18.285643],[146.110999,-18.289587],[146.12327,-18.30157],[146.144686,-18.307912],[146.159613,-18.323105],[146.164619,-18.323284],[146.159066,-18.324629],[146.171241,-18.345764],[146.175531,-18.349343],[146.17798,-18.346713],[146.178949,-18.346742],[146.180252,-18.34898],[146.178235,-18.347266],[146.176312,-18.351309],[146.181175,-18.355438],[146.185659,-18.355741],[146.185918,-18.352127],[146.18653,-18.355754],[146.185262,-18.356591],[146.181538,-18.356301],[146.177406,-18.354328],[146.19492,-18.372146],[146.205883,-18.368933],[146.206239,-18.363473],[146.20881,-18.363162],[146.207055,-18.368086],[146.212054,-18.367483],[146.209186,-18.369313],[146.212602,-18.374343],[146.20741,-18.369598],[146.195719,-18.3745],[146.197344,-18.378884],[146.206636,-18.378787],[146.209888,-18.383276],[146.211194,-18.381188],[146.211126,-18.386191],[146.217108,-18.391883],[146.222175,-18.386987],[146.226607,-18.388756],[146.22223,-18.3882],[146.2169,-18.392975],[146.206939,-18.382832],[146.201644,-18.383215],[146.204123,-18.392654],[146.214356,-18.404251],[146.217726,-18.404254],[146.218455,-18.396553],[146.227763,-18.399057],[146.21948,-18.397384],[146.218799,-18.404788],[146.21469,-18.405665],[146.206863,-18.398174],[146.203578,-18.414489],[146.210055,-18.413778],[146.215918,-18.418587],[146.221097,-18.410051],[146.234979,-18.412126],[146.238517,-18.40801],[146.23739,-18.411522],[146.23459,-18.413177],[146.220287,-18.411936],[146.219476,-18.41557],[146.223724,-18.418263],[146.220623,-18.421525],[146.209832,-18.418651],[146.21362,-18.425562],[146.209245,-18.423627],[146.209132,-18.419514],[146.205133,-18.418619],[146.201402,-18.423577],[146.201672,-18.441382],[146.212325,-18.450769],[146.221785,-18.471006],[146.221613,-18.476488],[146.242504,-18.487835],[146.278486,-18.48948],[146.291256,-18.486243],[146.289809,-18.488329],[146.295479,-18.49264],[146.305187,-18.494035],[146.326593,-18.484555],[146.331436,-18.479149],[146.326731,-18.461586],[146.328877,-18.444866],[146.332567,-18.447616],[146.337008,-18.431842],[146.344321,-18.431761],[146.351953,-18.424404],[146.350971,-18.420812],[146.357904,-18.419063],[146.339096,-18.410961],[146.334947,-18.401428],[146.323753,-18.399341],[146.326944,-18.381661],[146.32188,-18.384812],[146.324341,-18.379828],[146.326324,-18.379598],[146.334728,-18.386239],[146.339574,-18.381241],[146.337934,-18.376077],[146.329944,-18.372122],[146.334453,-18.369372],[146.331959,-18.363393],[146.318457,-18.352343],[146.314817,-18.356334],[146.311591,-18.353664],[146.304604,-18.354629],[146.300459,-18.340253],[146.289547,-18.33391],[146.290458,-18.32701],[146.278234,-18.322329],[146.275242,-18.316604],[146.276034,-18.300488],[146.283867,-18.27509],[146.296555,-18.248354],[146.305616,-18.242531],[146.305577,-18.239722],[146.301944,-18.239319],[146.298854,-18.231306],[146.283827,-18.23911],[146.263539,-18.2402],[146.250038,-18.23748],[146.241206,-18.222775],[146.231882,-18.219908],[146.228039,-18.206645],[146.231493,-18.196931],[146.223625,-18.193363]]]}}
