{"type":"Feature","properties":{"ALL_Uniq":274898,"name":"Milingimbi","Area_Geode":49.0764706788,"Plate":"Australia"},"geometry":{"type":"Polygon","coordinates":[[[134.853728,-12.042085],[134.84839,-12.043817],[134.846751,-12.048036],[134.855196,-12.061731],[134.866607,-12.071566],[134.863206,-12.087134],[134.86668,-12.103948],[134.863711,-12.109537],[134.869865,-12.118221],[134.868608,-12.126057],[134.887126,-12.13167],[134.899548,-12.139367],[134.904063,-12.138769],[134.915163,-12.126808],[134.914999,-12.1195],[134.919981,-12.116642],[134.918206,-12.113378],[134.929154,-12.099906],[134.9294,-12.091755],[134.918319,-12.07528],[134.908376,-12.067503],[134.881371,-12.063326],[134.853728,-12.042085]]]}}
