{"type":"Feature","properties":{"ALL_Uniq":274977,"name":"Glauert","Area_Geode":9.80219982894,"Plate":"Australia"},"geometry":{"type":"Polygon","coordinates":[[[124.975903,-15.041038],[124.969018,-15.041907],[124.968056,-15.053913],[124.963856,-15.055137],[124.961891,-15.062734],[124.956871,-15.066222],[124.95581,-15.071414],[124.958097,-15.0725],[124.961645,-15.067803],[124.960372,-15.077294],[124.962951,-15.076128],[124.964892,-15.080114],[124.962982,-15.083319],[124.961711,-15.079931],[124.954211,-15.089322],[124.953172,-15.099181],[124.970192,-15.088694],[124.977651,-15.068326],[124.983454,-15.065155],[124.984805,-15.055441],[124.975903,-15.041038]]]}}
