{"type":"Feature","properties":{"ALL_Uniq":274906,"name":"Grant","Area_Geode":12.8965363232,"Plate":"Australia"},"geometry":{"type":"Polygon","coordinates":[[[132.914668,-11.140364],[132.911209,-11.143338],[132.906007,-11.140427],[132.904004,-11.143063],[132.894506,-11.140922],[132.879591,-11.14711],[132.870931,-11.146246],[132.861084,-11.140652],[132.856532,-11.150089],[132.871583,-11.156901],[132.876552,-11.171633],[132.8959,-11.16176],[132.903879,-11.161053],[132.905803,-11.15267],[132.902063,-11.152298],[132.903212,-11.150946],[132.904631,-11.15092],[132.907424,-11.152677],[132.906174,-11.158091],[132.909602,-11.1591],[132.904826,-11.161853],[132.917709,-11.171074],[132.920104,-11.169711],[132.913952,-11.157155],[132.914668,-11.140364]]]}}
