{"type":"Feature","properties":{"ALL_Uniq":275045,"name":"Lachlan","Area_Geode":12.9289831202,"Plate":"Australia"},"geometry":{"type":"Polygon","coordinates":[[[123.520987,-16.60628],[123.512155,-16.611423],[123.514466,-16.613568],[123.511765,-16.617748],[123.502407,-16.623095],[123.503244,-16.626664],[123.509823,-16.627874],[123.506144,-16.631845],[123.490319,-16.614905],[123.456552,-16.617312],[123.46686,-16.625593],[123.470711,-16.623824],[123.476023,-16.630978],[123.481493,-16.629489],[123.480872,-16.633946],[123.506404,-16.641021],[123.515535,-16.638766],[123.516442,-16.633816],[123.527652,-16.623382],[123.527938,-16.617677],[123.523734,-16.619803],[123.532228,-16.60855],[123.523785,-16.609687],[123.520987,-16.60628]]]}}
