{"type":"Feature","properties":{"ALL_Uniq":275198,"name":"MacLeay","Area_Geode":7.27820914171,"Plate":"Australia"},"geometry":{"type":"Polygon","coordinates":[[[153.361108,-27.580372],[153.356497,-27.583106],[153.357739,-27.588305],[153.349198,-27.602297],[153.347289,-27.622145],[153.356092,-27.625422],[153.362631,-27.632358],[153.370621,-27.62748],[153.376385,-27.61854],[153.36838,-27.606242],[153.365654,-27.60932],[153.368266,-27.616096],[153.360512,-27.61445],[153.362928,-27.593196],[153.367766,-27.590031],[153.362433,-27.588359],[153.364779,-27.584382],[153.361108,-27.580372]]]}}
