{"type":"Feature","properties":{"ALL_Uniq":275116,"name":"Eyre","Area_Geode":11.1615314361,"Plate":"Australia"},"geometry":{"type":"Polygon","coordinates":[[[133.82623,-32.351749],[133.812557,-32.355182],[133.795627,-32.354473],[133.787919,-32.359382],[133.805231,-32.366055],[133.81838,-32.375899],[133.837081,-32.378748],[133.856591,-32.387225],[133.852061,-32.379584],[133.852472,-32.37253],[133.832941,-32.360847],[133.837079,-32.361499],[133.846875,-32.366442],[133.834032,-32.358426],[133.836907,-32.357225],[133.835016,-32.354277],[133.82623,-32.351749]]]}}
