{"type":"Feature","properties":{"ALL_Uniq":275158,"name":"Clark","Area_Geode":82.8731608116,"Plate":"Australia"},"geometry":{"type":"Polygon","coordinates":[[[148.245135,-40.47863],[148.227483,-40.485434],[148.221247,-40.496838],[148.211054,-40.503388],[148.206193,-40.502539],[148.193166,-40.489401],[148.184153,-40.490263],[148.166317,-40.499348],[148.13079,-40.502115],[148.126226,-40.510108],[148.115606,-40.508903],[148.113586,-40.516594],[148.102394,-40.520762],[148.103381,-40.523289],[148.095131,-40.532669],[148.098514,-40.537089],[148.115546,-40.534438],[148.121151,-40.537191],[148.116409,-40.543216],[148.118983,-40.544891],[148.114826,-40.54528],[148.119046,-40.547793],[148.115099,-40.556644],[148.118196,-40.560156],[148.114311,-40.560368],[148.113174,-40.564963],[148.12413,-40.568708],[148.125345,-40.572339],[148.132568,-40.56551],[148.140979,-40.569724],[148.149339,-40.564891],[148.155271,-40.573467],[148.167742,-40.580777],[148.177351,-40.594443],[148.191221,-40.587533],[148.198183,-40.590157],[148.19934,-40.582503],[148.192415,-40.578967],[148.194607,-40.570867],[148.208854,-40.554728],[148.225771,-40.545092],[148.225053,-40.542302],[148.235186,-40.532938],[148.228523,-40.525429],[148.232778,-40.517246],[148.234089,-40.504041],[148.246775,-40.49737],[148.248139,-40.480752],[148.245135,-40.47863]]]}}
