{"type":"Feature","properties":{"ALL_Uniq":275219,"name":"Keppel","Area_Geode":40.97468641,"Plate":"South America"},"geometry":{"type":"Polygon","coordinates":[[[-59.956271,-51.282385],[-59.977419,-51.293713],[-59.981481,-51.287855],[-59.989107,-51.285669],[-59.988711,-51.289033],[-59.995102,-51.290874],[-59.996422,-51.299346],[-60.024806,-51.298309],[-60.044176,-51.305121],[-60.030118,-51.320053],[-60.021155,-51.325746],[-60.016236,-51.324773],[-59.988019,-51.344865],[-59.953508,-51.352781],[-59.950435,-51.357305],[-59.928353,-51.355596],[-59.920812,-51.344784],[-59.923695,-51.339651],[-59.919218,-51.336384],[-59.928401,-51.337073],[-59.940162,-51.331078],[-59.936603,-51.324236],[-59.92838,-51.322685],[-59.938753,-51.316404],[-59.928661,-51.316962],[-59.922971,-51.32133],[-59.925872,-51.324062],[-59.918217,-51.326319],[-59.903325,-51.318061],[-59.908353,-51.315288],[-59.914977,-51.317907],[-59.923612,-51.315222],[-59.923249,-51.307243],[-59.944685,-51.300376],[-59.944538,-51.290873],[-59.952508,-51.290411],[-59.956271,-51.282385]]]}}
