{"type":"Feature","properties":{"ALL_Uniq":275245,"name":"New","Area_Geode":20.4910296808,"Plate":"South America"},"geometry":{"type":"Polygon","coordinates":[[[-61.26034,-51.675892],[-61.268462,-51.67734],[-61.263189,-51.681861],[-61.261854,-51.688975],[-61.275442,-51.694964],[-61.297562,-51.693109],[-61.311911,-51.699022],[-61.319524,-51.690211],[-61.329072,-51.689658],[-61.329838,-51.69223],[-61.324615,-51.691893],[-61.322852,-51.701698],[-61.31413,-51.707726],[-61.31321,-51.719388],[-61.307887,-51.724553],[-61.307884,-51.735227],[-61.311286,-51.734926],[-61.309814,-51.739091],[-61.312294,-51.741562],[-61.315877,-51.741136],[-61.315097,-51.746066],[-61.307078,-51.748726],[-61.310484,-51.74926],[-61.307357,-51.750107],[-61.309402,-51.752843],[-61.301683,-51.753842],[-61.303484,-51.756096],[-61.29678,-51.762803],[-61.277474,-51.757439],[-61.284932,-51.752317],[-61.276943,-51.749895],[-61.27444,-51.744715],[-61.298716,-51.742676],[-61.304043,-51.739331],[-61.29522,-51.730369],[-61.299384,-51.720912],[-61.288629,-51.723291],[-61.279054,-51.721209],[-61.292937,-51.711664],[-61.292103,-51.705821],[-61.269515,-51.697712],[-61.250114,-51.713786],[-61.238731,-51.717359],[-61.255014,-51.698866],[-61.244053,-51.702],[-61.234921,-51.699365],[-61.220951,-51.70442],[-61.21035,-51.701603],[-61.211186,-51.689399],[-61.218049,-51.687783],[-61.217641,-51.693569],[-61.223525,-51.695531],[-61.236908,-51.689092],[-61.248653,-51.690109],[-61.253939,-51.686175],[-61.250024,-51.682349],[-61.253644,-51.682514],[-61.26034,-51.675892]]]}}
