{"type":"Feature","properties":{"ALL_Uniq":275281,"name":"North East","Area_Geode":3.16519942521,"Plate":"South America"},"geometry":{"type":"Polygon","coordinates":[[[-58.386363,-51.994472],[-58.391602,-51.99582],[-58.389998,-52.000003],[-58.369871,-52.009075],[-58.372582,-52.012179],[-58.381885,-52.010369],[-58.376229,-52.017504],[-58.350229,-52.017774],[-58.351366,-52.014928],[-58.368686,-52.010742],[-58.358585,-52.008072],[-58.355642,-52.001166],[-58.35373,-52.003117],[-58.354412,-52.004838],[-58.34863,-52.005157],[-58.354687,-52.001811],[-58.353455,-51.996628],[-58.368082,-52.001401],[-58.386363,-51.994472]]]}}
