{"type":"Feature","properties":{"ALL_Uniq":275209,"name":"Kangaroo","Area_Geode":6.80544571821,"Plate":"Australia"},"geometry":{"type":"Polygon","coordinates":[[[153.362993,-27.742874],[153.356456,-27.749941],[153.369323,-27.764802],[153.370787,-27.779431],[153.387371,-27.78138],[153.417011,-27.775388],[153.41213,-27.77279],[153.408884,-27.776501],[153.411824,-27.771744],[153.40693,-27.771167],[153.409497,-27.772944],[153.408008,-27.776202],[153.407122,-27.774891],[153.408266,-27.772795],[153.383457,-27.768108],[153.38088,-27.76287],[153.368636,-27.757058],[153.36381,-27.750902],[153.362993,-27.742874]]]}}
