{"type":"Feature","properties":{"ALL_Uniq":275263,"name":"George","Area_Geode":27.188919621,"Plate":"South America"},"geometry":{"type":"Polygon","coordinates":[[[-59.679598,-52.301079],[-59.692164,-52.308602],[-59.69565,-52.307477],[-59.696646,-52.303004],[-59.71781,-52.308731],[-59.717224,-52.31238],[-59.720735,-52.309159],[-59.731191,-52.311642],[-59.739911,-52.317224],[-59.747424,-52.316896],[-59.741623,-52.315029],[-59.744229,-52.313033],[-59.742761,-52.306525],[-59.752474,-52.308684],[-59.764151,-52.317646],[-59.763907,-52.326495],[-59.760989,-52.329198],[-59.767417,-52.335385],[-59.760157,-52.335515],[-59.763043,-52.335943],[-59.761259,-52.341581],[-59.766114,-52.347339],[-59.772203,-52.343148],[-59.779701,-52.344429],[-59.783684,-52.340183],[-59.808321,-52.352361],[-59.816168,-52.361059],[-59.800158,-52.362304],[-59.800839,-52.365768],[-59.784865,-52.361474],[-59.789183,-52.377533],[-59.78122,-52.378964],[-59.782431,-52.376848],[-59.778668,-52.376032],[-59.775111,-52.380806],[-59.760007,-52.383507],[-59.740568,-52.370526],[-59.741205,-52.367677],[-59.747452,-52.368583],[-59.735111,-52.359639],[-59.747956,-52.355987],[-59.752857,-52.348333],[-59.74525,-52.348752],[-59.737324,-52.344396],[-59.732268,-52.336166],[-59.72084,-52.336027],[-59.713038,-52.327096],[-59.720248,-52.324875],[-59.716557,-52.321699],[-59.720475,-52.320563],[-59.715615,-52.31571],[-59.689135,-52.315321],[-59.685973,-52.305196],[-59.679381,-52.303704],[-59.679598,-52.301079]]]}}
