{"type":"Feature","properties":{"ALL_Uniq":275369,"name":"Arapawa","Area_Geode":77.8557902466,"Plate":"Kermadec"},"geometry":{"type":"Polygon","coordinates":[[[174.381317,-41.087601],[174.378008,-41.090098],[174.38095,-41.091832],[174.38034,-41.098349],[174.372233,-41.106157],[174.364847,-41.107115],[174.357187,-41.117174],[174.348982,-41.115967],[174.341956,-41.120269],[174.337999,-41.127168],[174.331571,-41.129114],[174.324188,-41.127415],[174.321854,-41.12025],[174.315617,-41.117555],[174.318963,-41.124427],[174.303435,-41.126215],[174.28754,-41.140491],[174.296329,-41.137489],[174.300823,-41.139575],[174.30699,-41.131849],[174.321087,-41.130468],[174.327579,-41.132735],[174.325203,-41.142866],[174.328995,-41.146796],[174.334565,-41.144462],[174.339284,-41.146333],[174.352878,-41.143049],[174.352169,-41.137836],[174.359074,-41.139015],[174.368095,-41.124848],[174.373899,-41.124867],[174.374734,-41.137338],[174.362994,-41.151281],[174.364216,-41.155195],[174.360313,-41.158189],[174.350644,-41.157717],[174.346564,-41.162767],[174.340685,-41.160135],[174.332801,-41.167453],[174.341294,-41.175927],[174.325389,-41.173297],[174.323397,-41.176504],[174.312111,-41.176763],[174.310706,-41.174457],[174.321353,-41.160713],[174.306813,-41.164405],[174.302204,-41.162276],[174.301084,-41.16679],[174.290777,-41.166648],[174.293061,-41.168856],[174.289819,-41.1762],[174.282958,-41.174974],[174.289554,-41.179302],[174.288143,-41.181885],[174.27755,-41.178421],[174.274077,-41.182162],[174.269437,-41.17925],[174.258122,-41.180681],[174.249503,-41.192588],[174.259781,-41.192997],[174.264802,-41.196303],[174.254657,-41.19817],[174.254247,-41.202879],[174.243985,-41.201893],[174.237123,-41.20754],[174.226314,-41.202773],[174.231485,-41.210948],[174.236759,-41.21196],[174.231877,-41.216625],[174.214516,-41.205934],[174.205016,-41.211024],[174.194343,-41.208651],[174.189652,-41.213221],[174.195208,-41.218233],[174.18397,-41.215627],[174.181477,-41.221207],[174.175687,-41.220538],[174.175223,-41.227424],[174.165451,-41.228081],[174.160329,-41.241416],[174.166459,-41.243642],[174.173718,-41.23907],[174.184864,-41.240923],[174.189539,-41.234512],[174.209129,-41.236065],[174.218404,-41.231715],[174.215041,-41.22565],[174.221041,-41.22717],[174.222587,-41.223233],[174.22884,-41.221542],[174.232151,-41.225682],[174.231209,-41.235761],[174.236012,-41.236897],[174.245091,-41.232871],[174.253049,-41.236605],[174.258584,-41.228675],[174.247895,-41.221869],[174.261467,-41.226352],[174.266824,-41.219698],[174.273935,-41.219874],[174.273501,-41.215423],[174.279861,-41.215019],[174.280296,-41.208386],[174.295634,-41.209934],[174.311043,-41.201066],[174.313101,-41.205809],[174.31994,-41.20623],[174.324019,-41.211506],[174.32637,-41.204322],[174.332431,-41.205821],[174.34187,-41.191116],[174.354226,-41.192775],[174.358866,-41.199432],[174.363658,-41.199915],[174.365531,-41.195434],[174.370648,-41.196403],[174.370758,-41.193616],[174.373944,-41.193865],[174.374517,-41.182304],[174.367244,-41.173585],[174.369921,-41.170349],[174.368629,-41.164806],[174.371526,-41.164228],[174.370223,-41.158129],[174.376604,-41.152482],[174.383109,-41.139958],[174.383203,-41.132141],[174.386866,-41.129787],[174.386705,-41.122171],[174.391696,-41.117655],[174.388818,-41.107788],[174.392253,-41.093381],[174.381317,-41.087601]]]}}
