{"type":"Feature","properties":{"ALL_Uniq":275339,"name":"Norfolk","Area_Geode":36.7172986668,"Plate":"Pacific"},"geometry":{"type":"Polygon","coordinates":[[[167.920574,-28.995821],[167.9196,-29.005836],[167.914101,-29.008004],[167.923524,-29.008956],[167.91886,-29.034273],[167.923143,-29.046932],[167.919051,-29.051976],[167.931995,-29.053119],[167.936944,-29.062256],[167.943416,-29.062636],[167.943607,-29.057782],[167.950079,-29.055974],[167.962452,-29.063303],[167.973017,-29.056164],[167.986723,-29.055974],[167.988055,-29.052548],[167.983867,-29.047503],[167.991291,-29.048074],[167.99624,-29.044838],[167.994908,-29.031323],[167.997192,-29.02723],[167.971589,-29.020663],[167.956646,-29.0061],[167.944749,-29.001056],[167.930567,-29.00058],[167.920574,-28.995821]]]}}
