{"type":"Feature","properties":{"ALL_Uniq":275338,"name":"Lord Howe","Area_Geode":16.2372948263,"Plate":"Pacific"},"geometry":{"type":"Polygon","coordinates":[[[159.064089,-31.510698],[159.043423,-31.51184],[159.043816,-31.514696],[159.037927,-31.512019],[159.03707,-31.516944],[159.039343,-31.522835],[159.044815,-31.517451],[159.051567,-31.52337],[159.053768,-31.519265],[159.057575,-31.520306],[159.077146,-31.543268],[159.074142,-31.550198],[159.075563,-31.569124],[159.065105,-31.587185],[159.067417,-31.59574],[159.070881,-31.594788],[159.073641,-31.597891],[159.092879,-31.57764],[159.097673,-31.564315],[159.102673,-31.566273],[159.105417,-31.564057],[159.101744,-31.562666],[159.104278,-31.558133],[159.098068,-31.559239],[159.094927,-31.554171],[159.097639,-31.552279],[159.092857,-31.547639],[159.094927,-31.545176],[159.088253,-31.545105],[159.081186,-31.539716],[159.081078,-31.526867],[159.075118,-31.527081],[159.072798,-31.518015],[159.063518,-31.516908],[159.064089,-31.510698]]]}}
