{"type":"Feature","properties":{"ALL_Uniq":275415,"name":"Deceit","Area_Geode":36.908946731,"Plate":"Scotia"},"geometry":{"type":"Polygon","coordinates":[[[-67.101423,-55.813802],[-67.099571,-55.819543],[-67.102031,-55.821389],[-67.111447,-55.819615],[-67.110414,-55.822502],[-67.12229,-55.822056],[-67.12805,-55.827398],[-67.136831,-55.825826],[-67.160007,-55.840016],[-67.16607,-55.840159],[-67.166757,-55.845688],[-67.177685,-55.857728],[-67.1766,-55.865293],[-67.171069,-55.869251],[-67.172571,-55.873379],[-67.168407,-55.874605],[-67.166135,-55.880511],[-67.159069,-55.879155],[-67.140264,-55.888286],[-67.138003,-55.892925],[-67.132887,-55.892569],[-67.123251,-55.90173],[-67.117064,-55.901135],[-67.118135,-55.904228],[-67.113376,-55.906964],[-67.106237,-55.903514],[-67.096957,-55.910058],[-67.093388,-55.907678],[-67.065978,-55.90766],[-67.082251,-55.892026],[-67.082073,-55.884655],[-67.097561,-55.880733],[-67.101583,-55.875446],[-67.114092,-55.870086],[-67.112974,-55.867109],[-67.108275,-55.867223],[-67.107149,-55.863984],[-67.109753,-55.863359],[-67.106732,-55.86088],[-67.08448,-55.858943],[-67.090858,-55.856981],[-67.09194,-55.853044],[-67.114806,-55.850006],[-67.119983,-55.845408],[-67.119968,-55.840172],[-67.110874,-55.839287],[-67.107978,-55.841706],[-67.108272,-55.83741],[-67.101253,-55.840901],[-67.096899,-55.836864],[-67.086874,-55.838443],[-67.084305,-55.83553],[-67.074027,-55.834873],[-67.089555,-55.825125],[-67.0778,-55.824654],[-67.079639,-55.821062],[-67.087048,-55.821718],[-67.08623,-55.81589],[-67.101423,-55.813802]]]}}
