{"type":"Feature","properties":{"ALL_Uniq":275530,"name":"Hevia","Area_Geode":79.5270065423,"Plate":"Scotia"},"geometry":{"type":"Polygon","coordinates":[[[-73.273769,-53.802206],[-73.282835,-53.805976],[-73.273603,-53.806993],[-73.293789,-53.809764],[-73.290982,-53.811202],[-73.299233,-53.816331],[-73.294228,-53.816923],[-73.300572,-53.819046],[-73.294838,-53.818146],[-73.286506,-53.822667],[-73.270447,-53.820246],[-73.265579,-53.823714],[-73.258674,-53.820945],[-73.259172,-53.818444],[-73.25733,-53.82149],[-73.265501,-53.824618],[-73.263849,-53.827189],[-73.270927,-53.828388],[-73.26979,-53.831554],[-73.247791,-53.829388],[-73.244239,-53.831525],[-73.234102,-53.825785],[-73.23396,-53.822383],[-73.230093,-53.823828],[-73.233185,-53.826889],[-73.225119,-53.829388],[-73.219114,-53.829076],[-73.214448,-53.826832],[-73.21784,-53.825278],[-73.216226,-53.823265],[-73.208066,-53.82165],[-73.205843,-53.824203],[-73.212995,-53.825693],[-73.212709,-53.827951],[-73.207854,-53.82937],[-73.206111,-53.827848],[-73.209222,-53.826503],[-73.204421,-53.827769],[-73.200424,-53.824839],[-73.194396,-53.828038],[-73.179695,-53.827143],[-73.183394,-53.83019],[-73.202147,-53.83079],[-73.20718,-53.839095],[-73.21357,-53.836044],[-73.205217,-53.830218],[-73.254301,-53.833455],[-73.273887,-53.839874],[-73.27104,-53.837886],[-73.278893,-53.837504],[-73.28227,-53.839502],[-73.27648,-53.839284],[-73.290111,-53.843658],[-73.278127,-53.84669],[-73.284423,-53.84704],[-73.2797,-53.850059],[-73.290868,-53.852319],[-73.290305,-53.849633],[-73.299438,-53.850462],[-73.308952,-53.859522],[-73.299751,-53.862519],[-73.276188,-53.85412],[-73.274264,-53.850174],[-73.258957,-53.852066],[-73.264981,-53.854545],[-73.26476,-53.85713],[-73.252279,-53.853645],[-73.241064,-53.855522],[-73.232851,-53.853867],[-73.234221,-53.850729],[-73.222274,-53.850252],[-73.227511,-53.852329],[-73.224994,-53.852129],[-73.226449,-53.854431],[-73.243977,-53.858031],[-73.237064,-53.860301],[-73.247263,-53.863804],[-73.242691,-53.864416],[-73.233335,-53.861395],[-73.22344,-53.851809],[-73.204462,-53.84856],[-73.198482,-53.850941],[-73.190491,-53.84793],[-73.193469,-53.845867],[-73.182665,-53.844681],[-73.185795,-53.843017],[-73.183214,-53.83735],[-73.185931,-53.835089],[-73.179697,-53.834318],[-73.179443,-53.838831],[-73.178911,-53.83561],[-73.167483,-53.835876],[-73.162137,-53.839564],[-73.165275,-53.841979],[-73.161071,-53.842771],[-73.180671,-53.844356],[-73.160567,-53.846569],[-73.172455,-53.847478],[-73.179362,-53.852015],[-73.18895,-53.850997],[-73.205077,-53.85978],[-73.206784,-53.856434],[-73.193753,-53.851251],[-73.217506,-53.855039],[-73.217445,-53.857124],[-73.207422,-53.85724],[-73.217563,-53.86075],[-73.215662,-53.862515],[-73.223089,-53.860383],[-73.229152,-53.862902],[-73.224937,-53.863431],[-73.230996,-53.87139],[-73.219381,-53.867881],[-73.220418,-53.866072],[-73.21608,-53.866997],[-73.223535,-53.86938],[-73.228374,-53.876424],[-73.20935,-53.866246],[-73.207805,-53.862585],[-73.204234,-53.86443],[-73.198583,-53.860147],[-73.191347,-53.861143],[-73.197918,-53.858087],[-73.194267,-53.856099],[-73.185626,-53.857226],[-73.188777,-53.861114],[-73.186466,-53.862511],[-73.178893,-53.857444],[-73.172752,-53.860059],[-73.173998,-53.855104],[-73.178751,-53.854938],[-73.176997,-53.853654],[-73.172954,-53.854782],[-73.17008,-53.859806],[-73.164348,-53.859669],[-73.167475,-53.861342],[-73.162742,-53.864886],[-73.167652,-53.863843],[-73.153788,-53.869997],[-73.168192,-53.871658],[-73.169335,-53.867193],[-73.164847,-53.866171],[-73.171871,-53.86281],[-73.17118,-53.866014],[-73.177616,-53.86288],[-73.191432,-53.865316],[-73.172182,-53.869101],[-73.175309,-53.873352],[-73.168664,-53.874195],[-73.174496,-53.877292],[-73.170349,-53.881095],[-73.16365,-53.879277],[-73.167163,-53.882126],[-73.136804,-53.888686],[-73.136056,-53.883384],[-73.145873,-53.877727],[-73.140094,-53.876896],[-73.134228,-53.883234],[-73.129981,-53.877165],[-73.123983,-53.876359],[-73.120404,-53.879116],[-73.123779,-53.882121],[-73.113195,-53.884697],[-73.11568,-53.886764],[-73.10798,-53.890483],[-73.112172,-53.891878],[-73.103823,-53.894049],[-73.102747,-53.88904],[-73.098537,-53.887848],[-73.101072,-53.884416],[-73.106006,-53.885625],[-73.106238,-53.881982],[-73.101552,-53.880235],[-73.105772,-53.876645],[-73.101782,-53.872873],[-73.106556,-53.871023],[-73.104168,-53.867137],[-73.098282,-53.868837],[-73.097198,-53.872323],[-73.099793,-53.873769],[-73.088353,-53.882278],[-73.092789,-53.883125],[-73.087486,-53.88758],[-73.091758,-53.889405],[-73.088897,-53.892101],[-73.092014,-53.892324],[-73.082916,-53.898038],[-73.092018,-53.899295],[-73.093094,-53.902331],[-73.089337,-53.90002],[-73.089236,-53.902389],[-73.081907,-53.903807],[-73.083312,-53.906413],[-73.077072,-53.905073],[-73.079865,-53.901153],[-73.070536,-53.895031],[-73.071372,-53.888486],[-73.079588,-53.881877],[-73.080295,-53.876045],[-73.088487,-53.876732],[-73.094414,-53.867486],[-73.089159,-53.867466],[-73.082762,-53.875163],[-73.073528,-53.876217],[-73.073218,-53.873691],[-73.07854,-53.871838],[-73.072235,-53.871931],[-73.06977,-53.868257],[-73.073045,-53.863131],[-73.074703,-53.864902],[-73.080127,-53.861287],[-73.068937,-53.854534],[-73.077559,-53.85096],[-73.098503,-53.851524],[-73.09645,-53.847744],[-73.091881,-53.850067],[-73.092138,-53.845316],[-73.080602,-53.848528],[-73.06917,-53.84546],[-73.085023,-53.840518],[-73.077797,-53.835609],[-73.070327,-53.837987],[-73.069978,-53.830401],[-73.073256,-53.827039],[-73.135773,-53.817278],[-73.149773,-53.818887],[-73.160101,-53.815381],[-73.193128,-53.815369],[-73.192622,-53.810533],[-73.202238,-53.814009],[-73.254485,-53.810171],[-73.234204,-53.807788],[-73.23086,-53.805112],[-73.234676,-53.803534],[-73.273112,-53.806638],[-73.246741,-53.800295],[-73.273769,-53.802206]]]}}
