{"type":"Feature","properties":{"ALL_Uniq":275568,"name":"Morro Conway","Area_Geode":3.83002419606,"Plate":"Scotia"},"geometry":{"type":"Polygon","coordinates":[[[-73.523515,-53.119214],[-73.520593,-53.119682],[-73.522682,-53.121514],[-73.519263,-53.123127],[-73.514919,-53.133744],[-73.51757,-53.140001],[-73.515471,-53.141243],[-73.518877,-53.141239],[-73.51661,-53.150246],[-73.486092,-53.131815],[-73.488692,-53.127354],[-73.503971,-53.13189],[-73.502068,-53.126863],[-73.515138,-53.125719],[-73.502541,-53.121222],[-73.523515,-53.119214]]]}}
