{"type":"Feature","properties":{"ALL_Uniq":275669,"name":"Peel","Area_Geode":17.6962645494,"Plate":"South America"},"geometry":{"type":"Polygon","coordinates":[[[-74.137367,-50.779788],[-74.141692,-50.782887],[-74.14413,-50.797088],[-74.142101,-50.796257],[-74.139513,-50.805599],[-74.135344,-50.806022],[-74.137627,-50.807726],[-74.133936,-50.810329],[-74.138731,-50.811688],[-74.142517,-50.815291],[-74.140734,-50.818516],[-74.143872,-50.818669],[-74.140506,-50.820721],[-74.137612,-50.816734],[-74.133855,-50.82311],[-74.129626,-50.822394],[-74.134987,-50.825325],[-74.141631,-50.824284],[-74.136946,-50.831087],[-74.139754,-50.834464],[-74.127003,-50.838893],[-74.13202,-50.839651],[-74.126516,-50.844703],[-74.117265,-50.842135],[-74.112401,-50.845957],[-74.11359,-50.848742],[-74.088365,-50.850151],[-74.075458,-50.854066],[-74.078645,-50.846713],[-74.076582,-50.845908],[-74.08536,-50.834106],[-74.085777,-50.823483],[-74.102311,-50.817448],[-74.105474,-50.812716],[-74.114484,-50.811497],[-74.121592,-50.797383],[-74.137367,-50.779788]]]}}
