{"type":"Feature","properties":{"ALL_Uniq":275631,"name":"Gomez Carreno","Area_Geode":10.8108657866,"Plate":"South America"},"geometry":{"type":"Polygon","coordinates":[[[-74.833691,-51.455405],[-74.849506,-51.457064],[-74.862235,-51.462472],[-74.878697,-51.475116],[-74.873956,-51.492393],[-74.875705,-51.495534],[-74.877397,-51.491066],[-74.878791,-51.495032],[-74.875302,-51.501022],[-74.876846,-51.512219],[-74.869722,-51.506838],[-74.869759,-51.50451],[-74.874469,-51.504545],[-74.872199,-51.500221],[-74.865927,-51.508877],[-74.869575,-51.510592],[-74.862218,-51.510713],[-74.86159,-51.513877],[-74.848456,-51.511984],[-74.847074,-51.499958],[-74.852043,-51.496408],[-74.858284,-51.496816],[-74.860184,-51.493611],[-74.856491,-51.489235],[-74.866333,-51.483011],[-74.860832,-51.483362],[-74.860817,-51.478654],[-74.853507,-51.490359],[-74.848907,-51.481253],[-74.854459,-51.477729],[-74.853692,-51.473068],[-74.84634,-51.482329],[-74.840584,-51.477738],[-74.840478,-51.468758],[-74.837226,-51.464106],[-74.832485,-51.463922],[-74.836727,-51.460083],[-74.831431,-51.45804],[-74.833691,-51.455405]]]}}
