{"type":"Feature","properties":{"ALL_Uniq":275767,"name":"Cirujano","Area_Geode":8.58833730375,"Plate":"South America"},"geometry":{"type":"Polygon","coordinates":[[[-74.336517,-46.855946],[-74.347546,-46.863471],[-74.376128,-46.865451],[-74.373832,-46.875819],[-74.385555,-46.873811],[-74.38745,-46.882835],[-74.368281,-46.879974],[-74.37078,-46.880827],[-74.35683,-46.887065],[-74.359691,-46.888686],[-74.356835,-46.891392],[-74.361025,-46.894131],[-74.355505,-46.894422],[-74.34648,-46.883503],[-74.343656,-46.88631],[-74.335664,-46.868908],[-74.328561,-46.865581],[-74.332091,-46.858144],[-74.336517,-46.855946]]]}}
