{"type":"Feature","properties":{"ALL_Uniq":275872,"name":"Forsyth","Area_Geode":89.6305960286,"Plate":"South America"},"geometry":{"type":"Polygon","coordinates":[[[-74.319402,-44.224614],[-74.322143,-44.228607],[-74.33989,-44.22949],[-74.353148,-44.235051],[-74.376074,-44.230583],[-74.388228,-44.238121],[-74.386551,-44.242617],[-74.393792,-44.243228],[-74.399693,-44.247783],[-74.405393,-44.244306],[-74.402998,-44.247727],[-74.411045,-44.246731],[-74.418465,-44.250621],[-74.412991,-44.256363],[-74.406183,-44.254882],[-74.409049,-44.257188],[-74.406574,-44.261458],[-74.399492,-44.262108],[-74.396958,-44.265561],[-74.391479,-44.26399],[-74.382148,-44.268636],[-74.383157,-44.270875],[-74.380053,-44.269964],[-74.377062,-44.275719],[-74.383113,-44.279642],[-74.383129,-44.287604],[-74.37631,-44.286633],[-74.376335,-44.289507],[-74.36712,-44.293839],[-74.362027,-44.29041],[-74.343669,-44.303814],[-74.325177,-44.307082],[-74.292373,-44.303589],[-74.272786,-44.312469],[-74.251897,-44.307621],[-74.237317,-44.308397],[-74.231845,-44.303806],[-74.235024,-44.292913],[-74.240095,-44.287615],[-74.234479,-44.279983],[-74.252857,-44.255625],[-74.295809,-44.230839],[-74.319402,-44.224614]]]}}
