{"type":"Feature","properties":{"ALL_Uniq":275871,"name":"Johnson","Area_Geode":40.3212128826,"Plate":"South America"},"geometry":{"type":"Polygon","coordinates":[[[-74.324089,-44.320273],[-74.343787,-44.327626],[-74.355408,-44.334394],[-74.356863,-44.3388],[-74.365559,-44.339989],[-74.379367,-44.34811],[-74.371008,-44.357935],[-74.363931,-44.35752],[-74.355484,-44.365943],[-74.356601,-44.371939],[-74.360813,-44.372531],[-74.355239,-44.376963],[-74.355798,-44.3795],[-74.360215,-44.378943],[-74.359615,-44.376106],[-74.361322,-44.378073],[-74.358605,-44.385966],[-74.351791,-44.385454],[-74.350458,-44.382257],[-74.349114,-44.386257],[-74.340001,-44.386544],[-74.301576,-44.369351],[-74.27081,-44.370687],[-74.254519,-44.376876],[-74.243674,-44.372489],[-74.247151,-44.356786],[-74.253647,-44.349997],[-74.30869,-44.340981],[-74.31737,-44.331522],[-74.315359,-44.327898],[-74.324089,-44.320273]]]}}
