{"type":"Feature","properties":{"ALL_Uniq":275921,"name":"Caguache","Area_Geode":9.89693249276,"Plate":"South America"},"geometry":{"type":"Polygon","coordinates":[[[-73.293343,-42.462135],[-73.294643,-42.469587],[-73.286186,-42.475893],[-73.284398,-42.4836],[-73.271873,-42.496414],[-73.271486,-42.503485],[-73.265279,-42.513259],[-73.262372,-42.514126],[-73.248725,-42.503855],[-73.245999,-42.491085],[-73.250069,-42.480196],[-73.261284,-42.473176],[-73.269193,-42.472919],[-73.275183,-42.47716],[-73.293343,-42.462135]]]}}
