{"type":"Feature","properties":{"ALL_Uniq":276065,"name":"Varillas de Barrancones","Area_Geode":11.3794822023,"Plate":"North America"},"geometry":{"type":"Polygon","coordinates":[[[-87.465692,13.341875],[-87.467508,13.339512],[-87.464311,13.328313],[-87.470978,13.314791],[-87.463515,13.318035],[-87.467886,13.3134],[-87.474766,13.311137],[-87.469625,13.281911],[-87.463492,13.27828],[-87.46,13.281708],[-87.458577,13.300257],[-87.452736,13.304274],[-87.450969,13.315724],[-87.449591,13.312304],[-87.445482,13.315546],[-87.445415,13.32363],[-87.449459,13.327869],[-87.448699,13.332941],[-87.455533,13.333311],[-87.459199,13.339082],[-87.465692,13.341875]]]}}
