{"type":"Feature","properties":{"ALL_Uniq":276080,"name":"San Ignacio","Area_Geode":37.9221127627,"Plate":"North America"},"geometry":{"type":"Polygon","coordinates":[[[-109.011746,25.444078],[-109.022851,25.443779],[-109.024902,25.440765],[-109.020896,25.437897],[-108.951876,25.429776],[-108.905398,25.418693],[-108.798603,25.370872],[-108.807249,25.393337],[-108.815966,25.398295],[-108.825093,25.414933],[-108.827528,25.409352],[-108.833708,25.415736],[-108.845854,25.416631],[-108.892732,25.437022],[-108.906339,25.440017],[-108.91214,25.437407],[-108.91694,25.440543],[-108.929762,25.43548],[-108.961788,25.440038],[-108.991034,25.437068],[-109.011746,25.444078]]]}}
