{"type":"Feature","properties":{"ALL_Uniq":276156,"name":"Shaw","Area_Geode":19.9429638502,"Plate":"North America"},"geometry":{"type":"Polygon","coordinates":[[[-122.966703,48.59493],[-122.969222,48.590435],[-122.987638,48.59148],[-123.005808,48.584211],[-123.012296,48.587131],[-123.014556,48.586074],[-123.012207,48.581376],[-123.01694,48.580263],[-122.999016,48.581719],[-122.983942,48.569358],[-122.984903,48.565712],[-122.980139,48.569044],[-122.979986,48.565655],[-122.971751,48.558698],[-122.978016,48.557301],[-122.981021,48.560718],[-122.988374,48.561505],[-122.985401,48.556257],[-122.977957,48.551359],[-122.968888,48.555607],[-122.966753,48.549493],[-122.961199,48.551597],[-122.949038,48.546476],[-122.940996,48.552686],[-122.949019,48.560696],[-122.938163,48.557525],[-122.938453,48.563414],[-122.921988,48.562172],[-122.92453,48.566056],[-122.918711,48.564069],[-122.903034,48.579273],[-122.921343,48.586628],[-122.930176,48.583894],[-122.932124,48.58],[-122.930025,48.574853],[-122.936501,48.573192],[-122.944711,48.579975],[-122.940771,48.582996],[-122.942137,48.586022],[-122.965947,48.589651],[-122.966703,48.59493]]]}}
