{"type":"Feature","properties":{"ALL_Uniq":276146,"name":"Fox","Area_Geode":13.4959027893,"Plate":"North America"},"geometry":{"type":"Polygon","coordinates":[[[-122.664999,47.278758],[-122.670094,47.274395],[-122.66898,47.271004],[-122.634681,47.243723],[-122.612954,47.220109],[-122.603867,47.217607],[-122.590465,47.227652],[-122.589368,47.236417],[-122.59948,47.242105],[-122.601362,47.238958],[-122.607176,47.249871],[-122.628093,47.259747],[-122.628464,47.267121],[-122.634463,47.266612],[-122.639844,47.261845],[-122.648848,47.267105],[-122.647055,47.27117],[-122.652273,47.269645],[-122.650347,47.274963],[-122.653262,47.272602],[-122.664999,47.278758]]]}}
