{"type":"Feature","properties":{"ALL_Uniq":276238,"name":"Crease","Area_Geode":4.61834116335,"Plate":"North America"},"geometry":{"type":"Polygon","coordinates":[[[-126.632208,50.629144],[-126.66988,50.623691],[-126.667208,50.619734],[-126.674994,50.621819],[-126.674901,50.616328],[-126.679925,50.6096],[-126.672426,50.606502],[-126.665977,50.609725],[-126.646146,50.610856],[-126.643112,50.612604],[-126.647871,50.613334],[-126.647842,50.617211],[-126.637251,50.620297],[-126.632208,50.629144]]]}}
