{"type":"Feature","properties":{"ALL_Uniq":276293,"name":"Bunsby","Area_Geode":2.55950064165,"Plate":"North America"},"geometry":{"type":"Polygon","coordinates":[[[-127.531551,50.109528],[-127.544476,50.106223],[-127.548796,50.097066],[-127.544035,50.098068],[-127.547943,50.095094],[-127.534928,50.094946],[-127.53548,50.089341],[-127.524003,50.093368],[-127.525895,50.091418],[-127.522987,50.089706],[-127.521086,50.092327],[-127.523321,50.097666],[-127.529133,50.097988],[-127.522719,50.101066],[-127.531551,50.109528]]]}}
