{"type":"Feature","properties":{"ALL_Uniq":276336,"name":"Estevan","Area_Geode":19.4330649985,"Plate":"North America"},"geometry":{"type":"Polygon","coordinates":[[[-129.606288,53.057779],[-129.619849,53.048525],[-129.607095,53.036577],[-129.605704,53.039201],[-129.602141,53.035749],[-129.597605,53.038882],[-129.598407,53.032276],[-129.601828,53.031426],[-129.599868,53.025033],[-129.593022,53.020656],[-129.585526,53.020585],[-129.580958,53.014212],[-129.573094,53.015179],[-129.576459,53.011326],[-129.571747,53.011437],[-129.566324,53.003295],[-129.567814,53.000228],[-129.562019,52.999957],[-129.553415,53.009011],[-129.543141,53.003465],[-129.544106,53.01093],[-129.539381,53.007639],[-129.537121,52.998631],[-129.537333,53.003854],[-129.532857,53.001876],[-129.538206,53.012566],[-129.53394,53.017325],[-129.535716,53.023298],[-129.530482,53.022608],[-129.532356,53.028666],[-129.54503,53.03357],[-129.548915,53.02986],[-129.549886,53.035121],[-129.553296,53.035703],[-129.561075,53.030672],[-129.56081,53.034839],[-129.555543,53.039332],[-129.557812,53.039687],[-129.553351,53.041468],[-129.566385,53.051042],[-129.570657,53.049499],[-129.576044,53.052141],[-129.586348,53.043862],[-129.589586,53.045219],[-129.576777,53.052695],[-129.580607,53.059105],[-129.606288,53.057779]]]}}
