{"type":"Feature","properties":{"ALL_Uniq":276309,"name":"Chatfield","Area_Geode":47.7815082867,"Plate":"North America"},"geometry":{"type":"Polygon","coordinates":[[[-128.045067,52.308903],[-128.087954,52.297534],[-128.095489,52.291962],[-128.100968,52.292675],[-128.098339,52.287102],[-128.099905,52.28259],[-128.089491,52.279721],[-128.088772,52.27633],[-128.086807,52.278657],[-128.085541,52.273637],[-128.079532,52.274073],[-128.083867,52.268284],[-128.089062,52.26769],[-128.08766,52.272793],[-128.095151,52.267673],[-128.104311,52.272507],[-128.1141,52.271127],[-128.120007,52.266584],[-128.129452,52.270857],[-128.151603,52.260299],[-128.154042,52.254829],[-128.149037,52.25082],[-128.151894,52.250018],[-128.149323,52.246983],[-128.176017,52.248244],[-128.181804,52.243612],[-128.183686,52.237557],[-128.175523,52.236989],[-128.170291,52.242864],[-128.164826,52.237485],[-128.153478,52.241494],[-128.136657,52.234717],[-128.138891,52.231066],[-128.121622,52.231245],[-128.123896,52.22688],[-128.12019,52.225379],[-128.111057,52.228874],[-128.110112,52.225425],[-128.105649,52.225907],[-128.095988,52.232868],[-128.089915,52.228866],[-128.079799,52.231087],[-128.053386,52.252105],[-128.04354,52.279989],[-128.040926,52.277305],[-128.043051,52.272883],[-128.034715,52.272258],[-128.029746,52.277872],[-128.026936,52.275304],[-128.023163,52.281061],[-128.030885,52.287685],[-128.029208,52.28999],[-128.019644,52.280883],[-128.015402,52.289205],[-128.01162,52.286013],[-128.005133,52.28726],[-128.003558,52.284133],[-128.001385,52.286054],[-128.00133,52.292536],[-128.005342,52.296371],[-128.001107,52.300202],[-128.006842,52.300501],[-128.007312,52.297608],[-128.014156,52.30348],[-128.045067,52.308903]]]}}
