{"type":"Feature","properties":{"ALL_Uniq":276422,"name":"Baker","Area_Geode":117.298819163,"Plate":"North America"},"geometry":{"type":"Polygon","coordinates":[[[-133.578467,55.432048],[-133.592382,55.431488],[-133.594194,55.426485],[-133.603705,55.425291],[-133.612891,55.418568],[-133.613235,55.410616],[-133.6047,55.409094],[-133.604254,55.40409],[-133.595752,55.403699],[-133.599742,55.403105],[-133.597061,55.401097],[-133.607094,55.402938],[-133.611296,55.40153],[-133.610417,55.398426],[-133.618833,55.398567],[-133.621326,55.392489],[-133.6198,55.384714],[-133.627203,55.383902],[-133.63135,55.391546],[-133.642107,55.394871],[-133.646311,55.392968],[-133.647074,55.388727],[-133.652072,55.390719],[-133.649397,55.386007],[-133.640809,55.389423],[-133.642666,55.383927],[-133.647431,55.38572],[-133.657131,55.382353],[-133.650578,55.382445],[-133.641904,55.378628],[-133.643247,55.376898],[-133.654244,55.378959],[-133.676807,55.374536],[-133.67399,55.369581],[-133.670206,55.373028],[-133.659069,55.373578],[-133.649983,55.370824],[-133.649194,55.367144],[-133.629755,55.369543],[-133.623043,55.364608],[-133.624428,55.361237],[-133.631269,55.360521],[-133.628413,55.357829],[-133.630637,55.350468],[-133.643902,55.350088],[-133.63619,55.342164],[-133.650656,55.339822],[-133.641588,55.325182],[-133.647629,55.32459],[-133.657012,55.330134],[-133.659872,55.325905],[-133.667172,55.328576],[-133.676717,55.318933],[-133.691663,55.317082],[-133.675813,55.310625],[-133.679345,55.308377],[-133.687565,55.309387],[-133.680945,55.308242],[-133.682978,55.307055],[-133.691561,55.307517],[-133.688262,55.300862],[-133.672314,55.304165],[-133.65834,55.31347],[-133.654034,55.311787],[-133.654401,55.308979],[-133.645426,55.310775],[-133.650414,55.307319],[-133.657383,55.309111],[-133.662282,55.303332],[-133.659683,55.301189],[-133.665516,55.299028],[-133.665348,55.294991],[-133.673004,55.294009],[-133.662382,55.287381],[-133.647275,55.289372],[-133.668428,55.284324],[-133.665293,55.279779],[-133.669275,55.277509],[-133.63759,55.267313],[-133.643677,55.267583],[-133.645258,55.26373],[-133.642122,55.261668],[-133.646073,55.259941],[-133.634626,55.25924],[-133.634791,55.254037],[-133.628365,55.254236],[-133.635279,55.252506],[-133.633633,55.248299],[-133.625678,55.245482],[-133.62688,55.242659],[-133.613588,55.239309],[-133.614424,55.236709],[-133.606997,55.239651],[-133.604682,55.237072],[-133.603893,55.240896],[-133.610814,55.253743],[-133.60648,55.264043],[-133.60256,55.264801],[-133.597946,55.272941],[-133.597322,55.284531],[-133.592002,55.292395],[-133.595217,55.294344],[-133.602931,55.290786],[-133.597915,55.296482],[-133.602171,55.300439],[-133.583689,55.305481],[-133.580394,55.310257],[-133.58276,55.313909],[-133.575662,55.314088],[-133.571246,55.322029],[-133.573887,55.325653],[-133.570744,55.333612],[-133.577234,55.339839],[-133.588075,55.339052],[-133.597278,55.330284],[-133.593655,55.334073],[-133.596473,55.336314],[-133.589839,55.339274],[-133.595124,55.34823],[-133.603485,55.347378],[-133.609005,55.336189],[-133.617772,55.332428],[-133.611809,55.347954],[-133.592303,55.36235],[-133.598613,55.368672],[-133.581309,55.371108],[-133.588452,55.360377],[-133.578669,55.349364],[-133.543249,55.335061],[-133.532875,55.34495],[-133.515234,55.35318],[-133.51092,55.357221],[-133.510625,55.362959],[-133.529906,55.374098],[-133.542193,55.373833],[-133.551814,55.369279],[-133.564121,55.374163],[-133.555512,55.381061],[-133.536477,55.384105],[-133.526841,55.37982],[-133.515894,55.380027],[-133.50458,55.367463],[-133.493594,55.36631],[-133.466508,55.373906],[-133.459449,55.379342],[-133.463148,55.394282],[-133.458347,55.40015],[-133.464591,55.408601],[-133.471098,55.411819],[-133.485061,55.412153],[-133.500173,55.419412],[-133.50888,55.415119],[-133.514226,55.416396],[-133.518117,55.412412],[-133.528769,55.416443],[-133.538056,55.412415],[-133.543938,55.414546],[-133.561327,55.411076],[-133.56636,55.416153],[-133.561849,55.418669],[-133.562697,55.420987],[-133.569257,55.419475],[-133.578467,55.432048]]]}}
