{"type":"Feature","properties":{"ALL_Uniq":276497,"name":"Moser","Area_Geode":21.0942167785,"Plate":"North America"},"geometry":{"type":"Polygon","coordinates":[[[-135.684657,57.705256],[-135.692464,57.701224],[-135.717952,57.702436],[-135.692338,57.67919],[-135.681702,57.677429],[-135.666137,57.664067],[-135.664411,57.666704],[-135.659329,57.665569],[-135.663178,57.66533],[-135.665662,57.66113],[-135.655938,57.658072],[-135.644852,57.647637],[-135.628935,57.644578],[-135.619647,57.637885],[-135.613646,57.646707],[-135.592476,57.650677],[-135.594774,57.653187],[-135.589535,57.658805],[-135.594982,57.665053],[-135.613322,57.666498],[-135.630393,57.675715],[-135.631539,57.680095],[-135.643267,57.686429],[-135.642351,57.689827],[-135.654293,57.690481],[-135.681278,57.703078],[-135.686094,57.70126],[-135.684657,57.705256]]]}}
