{"type":"Feature","properties":{"ALL_Uniq":276519,"name":"Wingham","Area_Geode":5.71873950477,"Plate":"North America"},"geometry":{"type":"Polygon","coordinates":[[[-144.391364,60.052026],[-144.397006,60.047645],[-144.392245,60.045028],[-144.395717,60.042231],[-144.389856,60.040564],[-144.391364,60.025703],[-144.381256,60.019587],[-144.383585,60.018364],[-144.381177,60.01181],[-144.39162,60.003182],[-144.387413,60.000738],[-144.39355,59.993402],[-144.385085,59.994839],[-144.37425,59.99131],[-144.374616,59.986827],[-144.370228,59.986066],[-144.365826,59.990794],[-144.369796,59.997409],[-144.367467,60.00224],[-144.377383,60.031996],[-144.376634,60.041848],[-144.385091,60.051964],[-144.391364,60.052026]]]}}
