{"type":"Feature","properties":{"ALL_Uniq":276543,"name":"Evans","Area_Geode":75.4736450422,"Plate":"North America"},"geometry":{"type":"Polygon","coordinates":[[[-147.975412,60.159824],[-147.975775,60.153689],[-147.982648,60.149474],[-147.978685,60.144524],[-147.980375,60.141522],[-147.994222,60.134398],[-147.991936,60.130239],[-147.998571,60.129776],[-147.997452,60.124061],[-147.988368,60.117375],[-147.999628,60.117166],[-147.997838,60.114671],[-148.00259,60.110573],[-147.993213,60.105312],[-148.002011,60.103201],[-147.998903,60.099549],[-148.011747,60.100865],[-148.013983,60.107552],[-148.011905,60.109654],[-148.020611,60.111607],[-148.021206,60.116299],[-148.017023,60.12229],[-148.025464,60.117743],[-148.026437,60.111378],[-148.039238,60.111234],[-148.04199,60.10598],[-148.037758,60.095206],[-148.04408,60.096847],[-148.043437,60.100726],[-148.053525,60.097764],[-148.052595,60.09543],[-148.045564,60.096045],[-148.062772,60.079074],[-148.066669,60.080276],[-148.078019,60.0709],[-148.083653,60.072189],[-148.098461,60.06382],[-148.10606,60.057354],[-148.10864,60.04831],[-148.118717,60.050638],[-148.117214,60.046818],[-148.120422,60.04555],[-148.124227,60.029509],[-148.127954,60.027192],[-148.117643,60.025853],[-148.117814,60.023538],[-148.133236,60.021252],[-148.139143,60.015681],[-148.157297,60.011452],[-148.142111,60.012937],[-148.133421,60.010175],[-148.135183,60.006542],[-148.12959,60.002917],[-148.132312,59.998487],[-148.156999,59.996057],[-148.134789,59.986018],[-148.120549,59.98604],[-148.095662,60.002531],[-148.09317,60.011492],[-148.060901,60.033526],[-148.055943,60.040359],[-148.050215,60.039391],[-148.045377,60.044158],[-148.039375,60.044275],[-148.039924,60.046607],[-148.033248,60.042915],[-148.026711,60.045911],[-148.028794,60.049592],[-148.036544,60.046968],[-148.037608,60.049262],[-148.033704,60.051885],[-148.037283,60.053631],[-148.043472,60.047759],[-148.055565,60.043955],[-148.055332,60.046309],[-148.063974,60.047481],[-148.067273,60.051281],[-148.062143,60.054645],[-148.024226,60.065476],[-148.021322,60.064573],[-148.023163,60.062811],[-148.008131,60.063131],[-148.009871,60.066768],[-148.00025,60.073825],[-147.993013,60.070812],[-147.995872,60.067232],[-147.989733,60.063578],[-147.993367,60.060417],[-147.974359,60.066831],[-147.975665,60.063733],[-147.973133,60.06311],[-147.964799,60.071105],[-147.934921,60.080881],[-147.935481,60.085904],[-147.912767,60.091408],[-147.889535,60.103831],[-147.888676,60.111111],[-147.892802,60.118548],[-147.897754,60.11811],[-147.913114,60.13233],[-147.921453,60.123728],[-147.928947,60.12403],[-147.936866,60.130409],[-147.945971,60.127174],[-147.939957,60.126642],[-147.942949,60.123746],[-147.953752,60.124738],[-147.953945,60.118922],[-147.958372,60.11769],[-147.960065,60.112388],[-147.956107,60.108938],[-147.964861,60.107334],[-147.966795,60.112131],[-147.962729,60.128435],[-147.959565,60.130898],[-147.960092,60.146152],[-147.975412,60.159824]]]}}
