{"type":"Feature","properties":{"ALL_Uniq":276569,"name":"Little Raspberry","Area_Geode":3.24768173262,"Plate":"North America"},"geometry":{"type":"Polygon","coordinates":[[[-152.907742,58.004675],[-152.915053,58.000898],[-152.923407,58.003855],[-152.929819,58.00251],[-152.915086,57.99515],[-152.914937,57.990451],[-152.905423,57.990337],[-152.898104,57.984481],[-152.894022,57.985949],[-152.901942,57.987735],[-152.902532,57.990315],[-152.89114,57.988992],[-152.888263,57.984723],[-152.881121,57.990896],[-152.874634,57.987347],[-152.884368,57.981244],[-152.864142,57.987483],[-152.871541,57.988049],[-152.867394,57.989333],[-152.868025,57.991707],[-152.886577,57.992316],[-152.889469,57.997318],[-152.900861,57.998784],[-152.901553,58.002414],[-152.907742,58.004675]]]}}
