{"type":"Feature","properties":{"ALL_Uniq":276669,"name":"Skagul","Area_Geode":4.60334359499,"Plate":"North America"},"geometry":{"type":"Polygon","coordinates":[[[-178.579429,51.608188],[-178.596093,51.606556],[-178.60106,51.60121],[-178.603635,51.604127],[-178.609651,51.595943],[-178.592797,51.593031],[-178.595347,51.58867],[-178.593488,51.582174],[-178.590828,51.581533],[-178.587995,51.588808],[-178.576942,51.582653],[-178.574391,51.584356],[-178.578088,51.587552],[-178.577011,51.591705],[-178.56658,51.602828],[-178.574264,51.603136],[-178.579429,51.608188]]]}}
