{"type":"Feature","properties":{"ALL_Uniq":276680,"name":"Walrus","Area_Geode":16.7551933391,"Plate":"North America"},"geometry":{"type":"Polygon","coordinates":[[[-160.300021,58.7296],[-160.304182,58.728225],[-160.302451,58.72429],[-160.309324,58.717657],[-160.303235,58.705207],[-160.307582,58.698144],[-160.315501,58.69721],[-160.318547,58.690266],[-160.317436,58.68338],[-160.299834,58.67306],[-160.274397,58.664015],[-160.271387,58.660965],[-160.274319,58.653469],[-160.270322,58.649633],[-160.276713,58.644377],[-160.276745,58.637567],[-160.26586,58.638294],[-160.253409,58.647752],[-160.245568,58.666959],[-160.256435,58.678351],[-160.270138,58.67736],[-160.275871,58.680866],[-160.278938,58.68932],[-160.27438,58.709154],[-160.279189,58.714815],[-160.275216,58.717343],[-160.283448,58.719172],[-160.300021,58.7296]]]}}
