{"type":"Feature","properties":{"ALL_Uniq":276892,"name":"Isla Young","Area_Geode":7.4574524815,"Plate":"South America"},"geometry":{"type":"Polygon","coordinates":[[[-73.609814,-51.756979],[-73.615329,-51.761807],[-73.624763,-51.760274],[-73.627518,-51.767254],[-73.624076,-51.773025],[-73.634481,-51.782718],[-73.625964,-51.78568],[-73.634972,-51.786669],[-73.641511,-51.79402],[-73.64001,-51.79711],[-73.629189,-51.798337],[-73.636036,-51.800855],[-73.620441,-51.796841],[-73.613938,-51.789635],[-73.604117,-51.789494],[-73.606991,-51.783793],[-73.604151,-51.783464],[-73.612098,-51.780879],[-73.610158,-51.77858],[-73.607294,-51.780407],[-73.606324,-51.778069],[-73.597441,-51.786129],[-73.599982,-51.788177],[-73.593652,-51.786828],[-73.609814,-51.756979]]]}}
