{"type":"Feature","properties":{"ALL_Uniq":276881,"name":"Isla Silva Renard","Area_Geode":19.1137441005,"Plate":"South America"},"geometry":{"type":"Polygon","coordinates":[[[-74.035751,-52.064277],[-74.036591,-52.070821],[-74.030503,-52.073429],[-74.033013,-52.076828],[-74.02832,-52.074583],[-74.026672,-52.081197],[-74.029066,-52.083407],[-74.024054,-52.084981],[-74.024714,-52.087298],[-74.018381,-52.088098],[-74.023675,-52.084172],[-74.023297,-52.080694],[-74.019572,-52.081214],[-74.013505,-52.084018],[-74.018018,-52.086338],[-74.013108,-52.091356],[-74.011215,-52.089838],[-74.002238,-52.094677],[-74.003573,-52.097542],[-74.007754,-52.097218],[-74.005513,-52.098658],[-73.990877,-52.098632],[-73.993909,-52.092563],[-73.990632,-52.095981],[-73.982804,-52.095265],[-73.981831,-52.098899],[-73.973659,-52.098469],[-73.975683,-52.101539],[-73.968751,-52.104777],[-73.972742,-52.106815],[-73.968756,-52.112321],[-73.982459,-52.11655],[-73.977762,-52.121837],[-73.97121,-52.121948],[-73.977533,-52.123048],[-73.975007,-52.126967],[-73.967769,-52.126411],[-73.948605,-52.114835],[-73.955657,-52.108722],[-73.949452,-52.108726],[-73.947061,-52.114034],[-73.944375,-52.113768],[-73.937012,-52.10918],[-73.936303,-52.104155],[-73.929769,-52.106469],[-73.922385,-52.100118],[-73.936027,-52.09334],[-73.941155,-52.095662],[-73.950237,-52.086352],[-73.966911,-52.087088],[-73.974503,-52.078262],[-73.992308,-52.076553],[-74.00361,-52.068565],[-74.035751,-52.064277]]]}}
