{"type":"Feature","properties":{"ALL_Uniq":276966,"name":"Ilha de São Francisco","Area_Geode":271.133574664,"Plate":"South America"},"geometry":{"type":"Polygon","coordinates":[[[-48.531862,-26.162796],[-48.540415,-26.17057],[-48.557732,-26.17123],[-48.559226,-26.17673],[-48.561496,-26.174746],[-48.571666,-26.187265],[-48.583614,-26.192524],[-48.564063,-26.188948],[-48.557064,-26.195217],[-48.558215,-26.197252],[-48.55221,-26.195509],[-48.553298,-26.196954],[-48.55719,-26.198163],[-48.556235,-26.204986],[-48.563266,-26.212588],[-48.57727,-26.214277],[-48.585907,-26.211606],[-48.592257,-26.216311],[-48.582919,-26.218511],[-48.590285,-26.218541],[-48.594265,-26.214842],[-48.605973,-26.220277],[-48.613986,-26.229592],[-48.635081,-26.231054],[-48.638634,-26.233703],[-48.634919,-26.238143],[-48.640203,-26.240759],[-48.648177,-26.262492],[-48.664055,-26.275113],[-48.673113,-26.276635],[-48.681845,-26.29074],[-48.706493,-26.297349],[-48.713543,-26.307174],[-48.712778,-26.317236],[-48.715729,-26.321202],[-48.711883,-26.325506],[-48.692357,-26.328618],[-48.681809,-26.343492],[-48.684152,-26.346201],[-48.676574,-26.352182],[-48.66184,-26.360117],[-48.660555,-26.358216],[-48.65495,-26.358245],[-48.654399,-26.359208],[-48.660184,-26.359617],[-48.650053,-26.365704],[-48.640603,-26.364852],[-48.644544,-26.361021],[-48.64228,-26.359849],[-48.629304,-26.372826],[-48.613925,-26.404408],[-48.622976,-26.434595],[-48.611072,-26.449253],[-48.603162,-26.454103],[-48.595062,-26.452417],[-48.599508,-26.432971],[-48.591713,-26.405204],[-48.564339,-26.358383],[-48.547508,-26.311698],[-48.507333,-26.242649],[-48.498577,-26.233605],[-48.500084,-26.230037],[-48.496426,-26.227948],[-48.493146,-26.218664],[-48.496568,-26.216705],[-48.500867,-26.218933],[-48.504922,-26.226404],[-48.516704,-26.223936],[-48.522164,-26.219593],[-48.520096,-26.218788],[-48.52762,-26.194661],[-48.523858,-26.16845],[-48.531862,-26.162796]]]}}
