{"type":"Feature","properties":{"ALL_Uniq":277028,"name":"Susui Island","Area_Geode":3.64752091,"Plate":"Australia"},"geometry":{"type":"Polygon","coordinates":[[[-178.945278,-17.33723],[-178.948847,-17.342846],[-178.95868,-17.337322],[-178.966104,-17.344061],[-178.969002,-17.340848],[-178.963905,-17.341519],[-178.96796,-17.337693],[-178.971158,-17.338964],[-178.970701,-17.341976],[-178.9728,-17.338635],[-178.97437,-17.341277],[-178.970487,-17.344746],[-178.975569,-17.345345],[-178.961445,-17.356121],[-178.948704,-17.345083],[-178.935093,-17.341133],[-178.945278,-17.33723]]]}}
