{"type":"Feature","properties":{"ALL_Uniq":277084,"name":"Ilha Chiqueiro","Area_Geode":59.3820832998,"Plate":"South America"},"geometry":{"type":"Polygon","coordinates":[[[-49.263427,-1.56333],[-49.271012,-1.572996],[-49.283234,-1.571741],[-49.284436,-1.582667],[-49.290233,-1.584416],[-49.295417,-1.594271],[-49.282814,-1.599098],[-49.278235,-1.604373],[-49.277308,-1.620078],[-49.270544,-1.624175],[-49.265302,-1.621205],[-49.262486,-1.610635],[-49.260182,-1.610857],[-49.264223,-1.620936],[-49.268147,-1.624639],[-49.265859,-1.629072],[-49.231301,-1.624809],[-49.220753,-1.626654],[-49.198695,-1.621567],[-49.18175,-1.627739],[-49.169365,-1.617967],[-49.164232,-1.59763],[-49.17712,-1.595689],[-49.19947,-1.603762],[-49.205661,-1.598312],[-49.195717,-1.58147],[-49.201493,-1.578704],[-49.218802,-1.582544],[-49.221372,-1.591562],[-49.228718,-1.594553],[-49.236334,-1.587462],[-49.240223,-1.576333],[-49.263427,-1.56333]]]}}
