{"type":"Feature","properties":{"ALL_Uniq":277051,"name":"Ilha de Bolpeba","Area_Geode":80.4040120407,"Plate":"South America"},"geometry":{"type":"Polygon","coordinates":[[[-38.950763,-13.56797],[-38.965344,-13.571817],[-38.966295,-13.578412],[-38.96924,-13.579556],[-38.991163,-13.572059],[-38.998251,-13.578333],[-38.997975,-13.589407],[-38.986268,-13.598732],[-38.98286,-13.608867],[-38.973962,-13.616947],[-38.969157,-13.618885],[-38.963837,-13.616078],[-38.968377,-13.61978],[-38.964636,-13.62993],[-38.967839,-13.637989],[-38.966389,-13.671973],[-38.950714,-13.670615],[-38.943945,-13.662322],[-38.929227,-13.657635],[-38.921554,-13.659945],[-38.921971,-13.666748],[-38.91421,-13.676042],[-38.896709,-13.665023],[-38.899385,-13.661967],[-38.897865,-13.653707],[-38.904433,-13.656029],[-38.906198,-13.643776],[-38.914945,-13.642988],[-38.905635,-13.641865],[-38.902909,-13.647739],[-38.903842,-13.655521],[-38.897422,-13.651543],[-38.895263,-13.657424],[-38.891587,-13.652882],[-38.891075,-13.640594],[-38.906648,-13.619725],[-38.904226,-13.616108],[-38.90662,-13.609877],[-38.901048,-13.600441],[-38.914406,-13.590269],[-38.915087,-13.577475],[-38.919921,-13.580097],[-38.926693,-13.578507],[-38.931043,-13.58383],[-38.941253,-13.58492],[-38.935575,-13.582285],[-38.931582,-13.582751],[-38.92961,-13.581033],[-38.94378,-13.575715],[-38.950763,-13.56797]]]}}
