{"type":"Feature","properties":{"ALL_Uniq":277165,"name":"Bouvetøya","Area_Geode":48.3027548174,"Plate":"Antarctica"},"geometry":{"type":"Polygon","coordinates":[[[3.355762,-54.388014],[3.350511,-54.388156],[3.350937,-54.393691],[3.331351,-54.397807],[3.300695,-54.400078],[3.292889,-54.397097],[3.293882,-54.401639],[3.28636,-54.407316],[3.289766,-54.413987],[3.288489,-54.424489],[3.293456,-54.431444],[3.320422,-54.452023],[3.333196,-54.452307],[3.363,-54.445211],[3.376767,-54.447481],[3.414803,-54.444501],[3.425022,-54.438256],[3.433396,-54.421651],[3.428428,-54.411432],[3.420622,-54.405755],[3.387979,-54.393124],[3.360588,-54.392698],[3.355762,-54.388014]]]}}
