{"type":"Feature","properties":{"ALL_Uniq":277585,"name":"Pulau Tayandu","Area_Geode":27.2739697777,"Plate":"Banda Sea"},"geometry":{"type":"Polygon","coordinates":[[[132.318441,-5.521048],[132.30608,-5.525746],[132.303099,-5.533389],[132.315957,-5.548349],[132.320687,-5.562464],[132.324879,-5.561603],[132.32485,-5.565451],[132.3163,-5.566927],[132.317195,-5.571098],[132.321613,-5.571513],[132.323377,-5.580275],[132.334764,-5.584115],[132.347175,-5.581654],[132.356383,-5.576232],[132.363556,-5.562048],[132.378213,-5.553321],[132.376262,-5.534852],[132.375219,-5.540158],[132.364779,-5.549515],[132.352596,-5.55283],[132.343835,-5.548688],[132.343434,-5.529219],[132.331519,-5.532867],[132.318441,-5.521048]]]}}
