{"type":"Feature","properties":{"ALL_Uniq":277547,"name":"Pulau Legundi","Area_Geode":19.1932709359,"Plate":"Australia"},"geometry":{"type":"Polygon","coordinates":[[[105.291477,-5.788131],[105.286317,-5.799151],[105.282179,-5.799521],[105.283967,-5.804379],[105.277991,-5.814197],[105.272207,-5.814199],[105.274295,-5.806579],[105.271722,-5.80488],[105.259936,-5.81878],[105.251239,-5.820964],[105.249628,-5.814309],[105.228545,-5.830368],[105.234049,-5.83499],[105.248628,-5.833413],[105.268335,-5.837962],[105.272763,-5.835861],[105.279647,-5.840144],[105.285806,-5.837373],[105.295343,-5.818409],[105.306992,-5.819902],[105.308246,-5.814762],[105.306309,-5.80739],[105.296631,-5.797934],[105.293892,-5.802349],[105.291893,-5.801277],[105.291477,-5.788131]]]}}
