{"type":"Feature","properties":{"ALL_Uniq":277684,"name":"Pulau Bahubulu","Area_Geode":32.4479368637,"Plate":"Maoke"},"geometry":{"type":"Polygon","coordinates":[[[122.321797,-3.530915],[122.294015,-3.535295],[122.2966,-3.541841],[122.278594,-3.569977],[122.285303,-3.583656],[122.28076,-3.5877],[122.283508,-3.592023],[122.2893,-3.58825],[122.289977,-3.582463],[122.306269,-3.576495],[122.317251,-3.582616],[122.334341,-3.58453],[122.335521,-3.580577],[122.353155,-3.574873],[122.357916,-3.579363],[122.368009,-3.576876],[122.3674,-3.57085],[122.353223,-3.57375],[122.341797,-3.565451],[122.336831,-3.566132],[122.333596,-3.562812],[122.336254,-3.558139],[122.334956,-3.55045],[122.339952,-3.546849],[122.34562,-3.547833],[122.346455,-3.542368],[122.340697,-3.542191],[122.329184,-3.532333],[122.321797,-3.530915]]]}}
