{"type":"Feature","properties":{"ALL_Uniq":277663,"name":"Pulau Padamarang","Area_Geode":32.9652923502,"Plate":"Birds Head"},"geometry":{"type":"Polygon","coordinates":[[[121.412211,-4.084584],[121.415933,-4.091052],[121.412461,-4.097571],[121.413207,-4.104486],[121.404004,-4.114032],[121.398834,-4.110102],[121.393101,-4.111067],[121.388863,-4.103637],[121.383092,-4.104792],[121.386624,-4.124549],[121.397805,-4.124688],[121.403526,-4.136192],[121.399692,-4.146641],[121.394143,-4.149537],[121.393743,-4.165009],[121.416945,-4.154265],[121.427988,-4.161609],[121.427916,-4.168743],[121.441485,-4.168463],[121.445541,-4.160581],[121.438347,-4.159258],[121.429211,-4.130345],[121.43939,-4.127054],[121.443008,-4.130773],[121.450629,-4.131153],[121.45726,-4.137484],[121.46252,-4.134186],[121.455042,-4.119736],[121.457029,-4.116573],[121.463107,-4.118404],[121.46923,-4.114575],[121.470578,-4.11014],[121.464581,-4.104453],[121.458748,-4.102806],[121.454735,-4.105464],[121.450504,-4.10231],[121.445745,-4.11218],[121.438659,-4.117033],[121.415198,-4.111341],[121.41762,-4.101236],[121.423688,-4.099723],[121.419704,-4.094806],[121.422235,-4.087998],[121.426941,-4.086492],[121.412211,-4.084584]]]}}
