{"type":"Feature","properties":{"ALL_Uniq":277677,"name":"Pulau Ambelau","Area_Geode":70.4741609394,"Plate":"South Bismarck"},"geometry":{"type":"Polygon","coordinates":[[[127.197573,-3.81577],[127.191278,-3.816926],[127.182934,-3.825178],[127.16379,-3.823934],[127.158022,-3.832112],[127.148428,-3.837677],[127.142469,-3.852839],[127.164598,-3.88874],[127.176933,-3.885853],[127.178341,-3.889272],[127.187287,-3.8928],[127.199962,-3.894398],[127.205839,-3.890452],[127.207142,-3.897847],[127.213876,-3.904612],[127.223004,-3.904977],[127.227113,-3.882684],[127.233317,-3.876477],[127.239256,-3.878806],[127.243979,-3.874939],[127.237557,-3.870085],[127.242637,-3.863617],[127.238926,-3.860812],[127.242386,-3.85397],[127.235436,-3.849876],[127.238092,-3.843401],[127.236172,-3.837976],[127.22658,-3.834835],[127.224282,-3.830119],[127.197573,-3.81577]]]}}
