{"type":"Feature","properties":{"ALL_Uniq":277773,"name":"Pulau Amutu Besar","Area_Geode":80.6603773427,"Plate":"North Bismarck"},"geometry":{"type":"Polygon","coordinates":[[[133.492362,-2.413241],[133.4873,-2.416064],[133.483531,-2.430096],[133.5008,-2.449018],[133.510191,-2.447226],[133.513051,-2.449162],[133.514883,-2.453085],[133.510842,-2.448323],[133.504838,-2.449425],[133.503992,-2.455905],[133.51158,-2.47381],[133.519667,-2.482971],[133.523042,-2.483261],[133.524587,-2.478241],[133.525549,-2.483219],[133.536275,-2.490562],[133.548314,-2.484451],[133.540412,-2.489978],[133.560545,-2.504053],[133.56535,-2.501852],[133.572345,-2.491191],[133.568829,-2.499942],[133.564526,-2.504262],[133.55927,-2.505751],[133.560064,-2.508792],[133.564718,-2.514263],[133.585002,-2.52236],[133.596364,-2.520671],[133.60667,-2.506858],[133.612767,-2.504269],[133.611589,-2.498739],[133.615462,-2.502109],[133.614675,-2.485057],[133.599286,-2.457777],[133.593469,-2.45595],[133.603376,-2.470299],[133.599653,-2.478983],[133.602819,-2.471045],[133.595616,-2.463731],[133.592302,-2.457498],[133.56048,-2.44399],[133.550389,-2.451857],[133.542816,-2.469983],[133.546198,-2.471382],[133.555696,-2.461772],[133.566686,-2.461383],[133.555345,-2.462588],[133.547314,-2.471352],[133.543979,-2.472486],[133.541716,-2.468689],[133.549775,-2.449504],[133.546167,-2.441042],[133.505773,-2.417094],[133.492362,-2.413241]]]}}
