{"type":"Feature","properties":{"ALL_Uniq":277838,"name":"Pulau Kurudu","Area_Geode":21.9208149666,"Plate":"Birds Head"},"geometry":{"type":"Polygon","coordinates":[[[137.020803,-1.83034],[136.991284,-1.836796],[136.955102,-1.833305],[136.95026,-1.837817],[136.953887,-1.842411],[136.985485,-1.850242],[136.991363,-1.846004],[137.012644,-1.857507],[137.016699,-1.855439],[137.039065,-1.862712],[137.046054,-1.869627],[137.054247,-1.869032],[137.056664,-1.864138],[137.047791,-1.849103],[137.032654,-1.834172],[137.020803,-1.83034]]]}}
