{"type":"Feature","properties":{"ALL_Uniq":277845,"name":"Pulau Manupampi","Area_Geode":8.03882676329,"Plate":"Molucca Sea"},"geometry":{"type":"Polygon","coordinates":[[[135.811946,-1.784538],[135.801173,-1.786507],[135.798169,-1.790852],[135.800528,-1.797918],[135.794688,-1.798978],[135.796816,-1.80405],[135.794733,-1.809772],[135.797076,-1.813075],[135.799423,-1.810465],[135.804281,-1.817101],[135.812052,-1.812332],[135.817519,-1.815965],[135.81683,-1.809111],[135.824825,-1.803998],[135.823163,-1.795636],[135.81753,-1.795114],[135.817231,-1.788091],[135.811946,-1.784538]]]}}
