{"type":"Feature","properties":{"ALL_Uniq":277960,"name":"Pulau Perangatan","Area_Geode":49.0084380558,"Plate":"Birds Head"},"geometry":{"type":"Polygon","coordinates":[[[117.358762,-0.810301],[117.349455,-0.788078],[117.339093,-0.780451],[117.331009,-0.78592],[117.329338,-0.79421],[117.331277,-0.804908],[117.341138,-0.809937],[117.345168,-0.8167],[117.346734,-0.835129],[117.338889,-0.84212],[117.31646,-0.848985],[117.310718,-0.856203],[117.314542,-0.87492],[117.319865,-0.880894],[117.318589,-0.887853],[117.325463,-0.893434],[117.329663,-0.905427],[117.336834,-0.910866],[117.34838,-0.907855],[117.359496,-0.894051],[117.358356,-0.877536],[117.352413,-0.880144],[117.348814,-0.872647],[117.339631,-0.87363],[117.340144,-0.872571],[117.345158,-0.870735],[117.35021,-0.872133],[117.353226,-0.878758],[117.373791,-0.83864],[117.372092,-0.827694],[117.358762,-0.810301]],[[117.34353,-0.869587],[117.340144,-0.872571],[117.342772,-0.867146],[117.336864,-0.861035],[117.342452,-0.862455],[117.344112,-0.866349],[117.34353,-0.869587]]]}}
