{"type":"Feature","properties":{"ALL_Uniq":277925,"name":"Pulau Tapat","Area_Geode":27.9265209031,"Plate":"Sunda"},"geometry":{"type":"Polygon","coordinates":[[[127.411476,-1.136186],[127.397171,-1.142192],[127.39551,-1.147049],[127.405112,-1.152433],[127.404409,-1.15897],[127.409196,-1.163327],[127.407111,-1.199122],[127.415481,-1.211859],[127.428089,-1.221349],[127.441219,-1.211303],[127.444228,-1.187316],[127.435136,-1.176486],[127.432087,-1.159765],[127.425322,-1.146233],[127.411476,-1.136186]]]}}
