{"type":"Feature","properties":{"ALL_Uniq":278029,"name":"Pulau Gemien","Area_Geode":9.28738593881,"Plate":"Sunda"},"geometry":{"type":"Polygon","coordinates":[[[130.496318,-0.299162],[130.488262,-0.302719],[130.493241,-0.303264],[130.490076,-0.306578],[130.493314,-0.309388],[130.491901,-0.314712],[130.486654,-0.312955],[130.486036,-0.320065],[130.494031,-0.322616],[130.493344,-0.327787],[130.496626,-0.331676],[130.503217,-0.328265],[130.505846,-0.329814],[130.509281,-0.323204],[130.513896,-0.32741],[130.524759,-0.321476],[130.524803,-0.31759],[130.520734,-0.315107],[130.513595,-0.315488],[130.520479,-0.311466],[130.519968,-0.303544],[130.512585,-0.303494],[130.509959,-0.306663],[130.504549,-0.301627],[130.496138,-0.301778],[130.496318,-0.299162]]]}}
