{"type":"Feature","properties":{"ALL_Uniq":278043,"name":"Pulau Muari","Area_Geode":24.9625612125,"Plate":"Sunda"},"geometry":{"type":"Polygon","coordinates":[[[127.140984,-0.17578],[127.138247,-0.178612],[127.127955,-0.177138],[127.130252,-0.184206],[127.12743,-0.18241],[127.1274,-0.180909],[127.121499,-0.187877],[127.123508,-0.191208],[127.119853,-0.190329],[127.107088,-0.214148],[127.10138,-0.215842],[127.094791,-0.210479],[127.090485,-0.215668],[127.087783,-0.230353],[127.091427,-0.23089],[127.093819,-0.226941],[127.09769,-0.228931],[127.092045,-0.238488],[127.094726,-0.244292],[127.091245,-0.250555],[127.092907,-0.254604],[127.108939,-0.251909],[127.11422,-0.2423],[127.121869,-0.240045],[127.126723,-0.234658],[127.132456,-0.222658],[127.131874,-0.210867],[127.127668,-0.204349],[127.13565,-0.202285],[127.152365,-0.183884],[127.144744,-0.17982],[127.143134,-0.182383],[127.140671,-0.179546],[127.137629,-0.181834],[127.140984,-0.17578]]]}}
