{"type":"Feature","properties":{"ALL_Uniq":278104,"name":"Pulau Buaya","Area_Geode":12.3830429622,"Plate":"Sunda"},"geometry":{"type":"Polygon","coordinates":[[[104.231559,0.200309],[104.214134,0.191582],[104.217805,0.185826],[104.213388,0.184652],[104.212145,0.178814],[104.207192,0.177908],[104.207297,0.174235],[104.200154,0.172154],[104.201462,0.167258],[104.209914,0.16343],[104.215896,0.166593],[104.220772,0.16494],[104.227088,0.155578],[104.230742,0.156722],[104.231979,0.163903],[104.240171,0.168309],[104.241852,0.176375],[104.235962,0.189714],[104.236667,0.19889],[104.231559,0.200309]]]}}
