{"type":"Feature","properties":{"ALL_Uniq":278209,"name":"Pulau Combol","Area_Geode":57.7669593397,"Plate":"Sunda"},"geometry":{"type":"Polygon","coordinates":[[[103.811001,0.899582],[103.809089,0.890535],[103.828822,0.846789],[103.855973,0.820984],[103.865549,0.817625],[103.883576,0.797196],[103.88674,0.805461],[103.889213,0.799898],[103.894437,0.80239],[103.904711,0.819942],[103.905778,0.844342],[103.898144,0.854262],[103.874457,0.872818],[103.86759,0.873529],[103.863086,0.880937],[103.836172,0.883973],[103.811001,0.899582]]]}}
