{"type":"Feature","properties":{"ALL_Uniq":278504,"name":"Ilha de Como","Area_Geode":197.577876263,"Plate":"Africa"},"geometry":{"type":"Polygon","coordinates":[[[-15.329363,11.249745],[-15.339636,11.244491],[-15.348004,11.249797],[-15.351038,11.241214],[-15.360254,11.240311],[-15.354199,11.233697],[-15.346579,11.23836],[-15.34332,11.235357],[-15.342543,11.228721],[-15.33168,11.227247],[-15.3318,11.221214],[-15.332828,11.223211],[-15.332063,11.225856],[-15.341083,11.226529],[-15.343504,11.228323],[-15.344834,11.235743],[-15.348823,11.235724],[-15.351835,11.232154],[-15.348881,11.22802],[-15.352209,11.222329],[-15.350633,11.215281],[-15.354142,11.212323],[-15.353864,11.203968],[-15.354292,11.208523],[-15.35745,11.209745],[-15.353048,11.214779],[-15.353598,11.22236],[-15.35027,11.227143],[-15.362487,11.23846],[-15.360059,11.242833],[-15.35202,11.242735],[-15.351712,11.245064],[-15.373318,11.244068],[-15.364283,11.235991],[-15.36355,11.231077],[-15.374434,11.223681],[-15.387444,11.227575],[-15.387095,11.225079],[-15.40142,11.234784],[-15.405508,11.229174],[-15.407146,11.217668],[-15.401659,11.202052],[-15.403585,11.203471],[-15.405254,11.209241],[-15.406446,11.203297],[-15.392678,11.181641],[-15.372492,11.171214],[-15.358364,11.159801],[-15.349219,11.160356],[-15.350432,11.166231],[-15.35495,11.169354],[-15.349448,11.167874],[-15.345826,11.16025],[-15.35443,11.158162],[-15.353072,11.153436],[-15.338592,11.146758],[-15.328661,11.134278],[-15.32204,11.131745],[-15.323009,11.135026],[-15.314377,11.133963],[-15.313535,11.131016],[-15.304431,11.135074],[-15.301658,11.13839],[-15.303875,11.140334],[-15.297224,11.143666],[-15.28742,11.158833],[-15.287199,11.167019],[-15.293001,11.15897],[-15.297175,11.161391],[-15.298325,11.166745],[-15.288527,11.171969],[-15.283305,11.186231],[-15.277741,11.192572],[-15.295241,11.190652],[-15.301126,11.186437],[-15.303108,11.179801],[-15.303306,11.184141],[-15.300389,11.188045],[-15.296109,11.190313],[-15.295289,11.19813],[-15.294997,11.191724],[-15.278118,11.193963],[-15.276381,11.191511],[-15.281773,11.186357],[-15.286222,11.171632],[-15.296097,11.165395],[-15.292282,11.161203],[-15.290442,11.168165],[-15.286992,11.169267],[-15.283603,11.16594],[-15.288386,11.151259],[-15.298594,11.138038],[-15.290548,11.132318],[-15.289448,11.120918],[-15.282236,11.121463],[-15.263461,11.113826],[-15.255852,11.116296],[-15.257043,11.126652],[-15.261014,11.123175],[-15.262382,11.124071],[-15.27193,11.135057],[-15.269923,11.138659],[-15.273941,11.145805],[-15.269774,11.146467],[-15.27253,11.151137],[-15.266661,11.156062],[-15.267492,11.15234],[-15.271931,11.150929],[-15.268603,11.148052],[-15.268968,11.145923],[-15.273121,11.145769],[-15.269997,11.140901],[-15.263608,11.140026],[-15.267589,11.136997],[-15.26728,11.131504],[-15.260852,11.124245],[-15.259133,11.127763],[-15.251103,11.13308],[-15.257486,11.135988],[-15.251662,11.142136],[-15.257208,11.146424],[-15.255186,11.16063],[-15.253322,11.152837],[-15.249437,11.152628],[-15.249974,11.149089],[-15.246951,11.148646],[-15.247302,11.156415],[-15.241841,11.158449],[-15.242648,11.155962],[-15.244564,11.155185],[-15.246637,11.155832],[-15.245481,11.149625],[-15.24664,11.147856],[-15.251929,11.149479],[-15.251001,11.152407],[-15.256086,11.147546],[-15.250237,11.143334],[-15.256183,11.135957],[-15.251957,11.138501],[-15.244362,11.136189],[-15.239741,11.138407],[-15.244205,11.135634],[-15.252764,11.137602],[-15.249953,11.132359],[-15.255186,11.12701],[-15.251895,11.120421],[-15.248522,11.118689],[-15.244185,11.121741],[-15.231407,11.115078],[-15.224398,11.116306],[-15.223655,11.122007],[-15.231443,11.121278],[-15.23278,11.12367],[-15.229814,11.128961],[-15.228625,11.128985],[-15.223753,11.124379],[-15.22042,11.128553],[-15.227197,11.129234],[-15.230264,11.130879],[-15.224447,11.137034],[-15.223074,11.132047],[-15.220361,11.13273],[-15.221735,11.130634],[-15.224747,11.133733],[-15.224691,11.136463],[-15.229447,11.130638],[-15.220075,11.129679],[-15.219436,11.12844],[-15.22327,11.123689],[-15.227519,11.125551],[-15.228536,11.128129],[-15.229914,11.127713],[-15.23193,11.123488],[-15.222814,11.122704],[-15.222911,11.117014],[-15.218565,11.118279],[-15.208575,11.14949],[-15.220236,11.170912],[-15.22883,11.2053],[-15.243815,11.211455],[-15.253202,11.20869],[-15.263325,11.212019],[-15.269146,11.227533],[-15.267091,11.234747],[-15.275091,11.238404],[-15.28808,11.234708],[-15.285171,11.224556],[-15.278603,11.216233],[-15.281637,11.213134],[-15.27936,11.216305],[-15.285431,11.223091],[-15.289146,11.234797],[-15.29814,11.236114],[-15.299715,11.232855],[-15.300236,11.246438],[-15.329363,11.249745]]]}}
