{"type":"Feature","properties":{"ALL_Uniq":278875,"name":"Clare Island","Area_Geode":1.88203974528,"Plate":"North America"},"geometry":{"type":"Polygon","coordinates":[[[-128.138302,51.835865],[-128.142186,51.832301],[-128.137528,51.832657],[-128.136889,51.828583],[-128.13939,51.825498],[-128.141358,51.827231],[-128.143308,51.821887],[-128.138578,51.823725],[-128.136902,51.819903],[-128.146259,51.816345],[-128.142345,51.813867],[-128.129976,51.82646],[-128.130593,51.821992],[-128.126152,51.820645],[-128.12043,51.830533],[-128.126766,51.830234],[-128.129487,51.826853],[-128.127504,51.832615],[-128.138302,51.835865]]]}}
