{"type":"Feature","properties":{"ALL_Uniq":278971,"name":"Sherard Osborn Island","Area_Geode":53.0913479189,"Plate":"North America"},"geometry":{"type":"Polygon","coordinates":[[[-99.653138,76.75541],[-99.689429,76.75485],[-99.743644,76.744364],[-99.77809,76.744071],[-99.779462,76.73934],[-99.79708,76.736814],[-99.939141,76.740588],[-99.950345,76.735474],[-100.00251,76.734797],[-100.001089,76.729318],[-99.988026,76.72605],[-99.936028,76.724412],[-99.922717,76.724983],[-99.918284,76.729446],[-99.943698,76.732556],[-99.942673,76.734318],[-99.901571,76.736802],[-99.866537,76.727524],[-99.89648,76.727418],[-99.872591,76.723573],[-99.840614,76.712844],[-99.721885,76.705817],[-99.659828,76.698814],[-99.646421,76.699125],[-99.640431,76.704007],[-99.644125,76.705475],[-99.641309,76.706624],[-99.585579,76.703964],[-99.589935,76.707836],[-99.587846,76.710377],[-99.533467,76.711759],[-99.497641,76.709321],[-99.485642,76.711457],[-99.468228,76.70815],[-99.492766,76.704174],[-99.508504,76.696147],[-99.52347,76.693433],[-99.57636,76.693149],[-99.619001,76.687215],[-99.632564,76.688825],[-99.641706,76.68024],[-99.641197,76.676994],[-99.580057,76.671056],[-99.492594,76.675673],[-99.470664,76.681924],[-99.473068,76.6869],[-99.478624,76.689246],[-99.476387,76.691757],[-99.439996,76.698539],[-99.402125,76.697213],[-99.397322,76.700558],[-99.399411,76.704643],[-99.392764,76.705914],[-99.446684,76.712044],[-99.454543,76.71871],[-99.469965,76.723041],[-99.550151,76.737611],[-99.571329,76.736676],[-99.573177,76.729353],[-99.560992,76.721766],[-99.586212,76.720927],[-99.621576,76.731176],[-99.636564,76.739059],[-99.633163,76.740153],[-99.634591,76.742161],[-99.620827,76.744353],[-99.584299,76.741946],[-99.577117,76.744442],[-99.578724,76.749404],[-99.653138,76.75541]]]}}
