{"type":"Feature","properties":{"ALL_Uniq":278992,"name":"Bell Island","Area_Geode":29.0922606905,"Plate":"North America"},"geometry":{"type":"Polygon","coordinates":[[[-52.921152,47.65794],[-52.96127,47.65088],[-52.977982,47.642528],[-52.982977,47.635665],[-53.00493,47.623931],[-53.018786,47.609827],[-53.025158,47.607369],[-53.007372,47.593561],[-52.98444,47.596815],[-52.973333,47.601955],[-52.92762,47.629558],[-52.918863,47.631042],[-52.910162,47.650453],[-52.914386,47.653173],[-52.913169,47.656278],[-52.921152,47.65794]]]}}
