{"type":"Feature","properties":{"ALL_Uniq":279064,"name":"Île du Lac","Area_Geode":6.21491780291,"Plate":"North America"},"geometry":{"type":"Polygon","coordinates":[[[-60.093135,50.198987],[-60.094332,50.195181],[-60.090359,50.194518],[-60.088529,50.198157],[-60.082809,50.195594],[-60.101464,50.18883],[-60.111398,50.187731],[-60.108947,50.193294],[-60.114195,50.191949],[-60.117477,50.187796],[-60.115979,50.184503],[-60.120158,50.184894],[-60.122313,50.176246],[-60.112242,50.180911],[-60.112665,50.177205],[-60.065247,50.182414],[-60.065346,50.186045],[-60.072703,50.184911],[-60.060743,50.190376],[-60.07027,50.189657],[-60.0696,50.193841],[-60.0754,50.192728],[-60.068814,50.197639],[-60.076692,50.197452],[-60.076074,50.201111],[-60.093135,50.198987]]]}}
