{"type":"Feature","properties":{"ALL_Uniq":279116,"name":"Île de l'Anse au Portage","Area_Geode":4.9324756149,"Plate":"North America"},"geometry":{"type":"Polygon","coordinates":[[[-58.319767,51.224985],[-58.353759,51.208619],[-58.362754,51.209293],[-58.360418,51.204209],[-58.363575,51.202425],[-58.358579,51.201341],[-58.354928,51.206644],[-58.357697,51.200951],[-58.355955,51.19702],[-58.346386,51.195078],[-58.346119,51.199402],[-58.340531,51.196761],[-58.331045,51.204425],[-58.33689,51.211182],[-58.326973,51.206411],[-58.323746,51.208342],[-58.326638,51.210349],[-58.317883,51.214549],[-58.319343,51.218985],[-58.308753,51.216123],[-58.319767,51.224985]]]}}
