{"type":"Feature","properties":{"ALL_Uniq":279167,"name":"Hawke Island","Area_Geode":59.5254100468,"Plate":"North America"},"geometry":{"type":"Polygon","coordinates":[[[-55.793655,53.098426],[-55.790885,53.09529],[-55.805946,53.099306],[-55.8103,53.094788],[-55.818134,53.095241],[-55.833154,53.085381],[-55.835322,53.087709],[-55.841151,53.083976],[-55.849709,53.085395],[-55.846266,53.088537],[-55.854511,53.086159],[-55.855437,53.090145],[-55.862382,53.087127],[-55.889626,53.047997],[-55.882054,53.029331],[-55.874658,53.024585],[-55.873697,53.019633],[-55.859996,53.013926],[-55.83545,53.029255],[-55.823958,53.02426],[-55.828588,53.021746],[-55.835648,53.025713],[-55.839967,53.017982],[-55.83044,53.016061],[-55.819946,53.021685],[-55.804903,53.020958],[-55.799463,53.030241],[-55.804182,53.032044],[-55.801392,53.035416],[-55.811986,53.036354],[-55.808848,53.038058],[-55.810738,53.041374],[-55.791102,53.035659],[-55.790674,53.030633],[-55.783307,53.026323],[-55.768864,53.026858],[-55.764898,53.029589],[-55.769899,53.029582],[-55.768599,53.031612],[-55.761468,53.031486],[-55.757959,53.041316],[-55.775628,53.04085],[-55.77887,53.043687],[-55.770969,53.048883],[-55.753344,53.052796],[-55.749059,53.061464],[-55.752183,53.065237],[-55.746597,53.065548],[-55.750863,53.066637],[-55.748006,53.073398],[-55.750559,53.07219],[-55.750984,53.075848],[-55.756948,53.079589],[-55.769686,53.0746],[-55.766292,53.078427],[-55.766293,53.084908],[-55.773132,53.081865],[-55.773423,53.085286],[-55.768123,53.087349],[-55.773537,53.088265],[-55.778354,53.08326],[-55.776029,53.088986],[-55.786442,53.094991],[-55.777691,53.095602],[-55.778418,53.098396],[-55.793655,53.098426]]]}}
