{"type":"Feature","properties":{"ALL_Uniq":279229,"name":"Blow Hard Island","Area_Geode":4.78357898891,"Plate":"North America"},"geometry":{"type":"Polygon","coordinates":[[[-61.561527,57.484731],[-61.564474,57.482899],[-61.559933,57.478669],[-61.560669,57.473508],[-61.554037,57.472801],[-61.544724,57.464591],[-61.529041,57.458365],[-61.502221,57.451848],[-61.488631,57.459081],[-61.482051,57.459252],[-61.492813,57.460727],[-61.506406,57.456204],[-61.515765,57.464445],[-61.532313,57.471817],[-61.529447,57.476897],[-61.531404,57.479261],[-61.535656,57.475842],[-61.544384,57.481724],[-61.561527,57.484731]]]}}
