{"type":"Feature","properties":{"ALL_Uniq":279201,"name":"Ney Island","Area_Geode":22.5812347518,"Plate":"North America"},"geometry":{"type":"Polygon","coordinates":[[[-78.9983,56.324152],[-78.999882,56.319218],[-78.994291,56.315051],[-78.998655,56.310643],[-79.025979,56.299708],[-79.050018,56.285402],[-79.056932,56.271498],[-79.068076,56.264382],[-79.06228,56.262166],[-79.06946,56.24622],[-79.066302,56.243292],[-79.075396,56.230312],[-79.069829,56.229625],[-79.071047,56.221405],[-79.064692,56.222811],[-79.066767,56.23634],[-79.063061,56.232952],[-79.047336,56.238036],[-79.039384,56.235689],[-79.03114,56.249815],[-79.020106,56.26088],[-79.011051,56.264559],[-78.998153,56.278812],[-78.994865,56.283835],[-78.997473,56.287288],[-78.991893,56.292242],[-78.995037,56.292843],[-78.996804,56.298077],[-79.002054,56.299019],[-78.998388,56.303662],[-78.999925,56.306376],[-78.993017,56.307385],[-78.981169,56.315756],[-78.981546,56.318864],[-78.988845,56.316572],[-78.987075,56.324467],[-78.993694,56.323036],[-78.987652,56.326795],[-78.9983,56.324152]]]}}
