{"type":"Feature","properties":{"ALL_Uniq":279367,"name":"Emma Island","Area_Geode":15.9814981131,"Plate":"North America"},"geometry":{"type":"Polygon","coordinates":[[[-71.060847,62.828591],[-71.039085,62.821467],[-71.086556,62.825659],[-71.068983,62.82126],[-71.098559,62.823095],[-71.078725,62.819577],[-71.089563,62.818382],[-71.128645,62.821883],[-71.150605,62.816752],[-71.142402,62.810611],[-71.126963,62.807258],[-71.125744,62.802837],[-71.118291,62.799602],[-71.123347,62.798496],[-71.112462,62.794872],[-71.115582,62.794064],[-71.112555,62.792518],[-71.091314,62.793333],[-71.08655,62.796931],[-71.096132,62.802202],[-71.026665,62.796547],[-71.021841,62.798035],[-71.021456,62.804568],[-71.015397,62.804976],[-71.015937,62.807797],[-71.024687,62.809845],[-71.022395,62.812378],[-71.031701,62.814964],[-71.023204,62.816148],[-71.039285,62.819649],[-71.029247,62.820841],[-71.03656,62.822057],[-71.027571,62.823728],[-71.060847,62.828591]]]}}
