{"type":"Feature","properties":{"ALL_Uniq":279377,"name":"Daniel Island","Area_Geode":5.12125451707,"Plate":"North America"},"geometry":{"type":"Polygon","coordinates":[[[-67.77758,63.111447],[-67.771105,63.103833],[-67.763089,63.100342],[-67.770796,63.097392],[-67.749338,63.089778],[-67.74501,63.089491],[-67.745697,63.092729],[-67.726667,63.090852],[-67.725537,63.094001],[-67.711952,63.09836],[-67.693399,63.097036],[-67.689291,63.099557],[-67.705116,63.104026],[-67.716646,63.101625],[-67.746548,63.109404],[-67.77758,63.111447]]]}}
