{"type":"Feature","properties":{"ALL_Uniq":279389,"name":"Brook Island","Area_Geode":4.57959875619,"Plate":"North America"},"geometry":{"type":"Polygon","coordinates":[[[-67.894643,63.325018],[-67.899091,63.322677],[-67.894214,63.314824],[-67.885435,63.308773],[-67.901775,63.311196],[-67.898498,63.30702],[-67.883882,63.301072],[-67.869776,63.301033],[-67.845647,63.293722],[-67.845624,63.289757],[-67.827541,63.288722],[-67.835147,63.296417],[-67.843112,63.295132],[-67.850323,63.298421],[-67.846903,63.300321],[-67.852073,63.306362],[-67.861846,63.306476],[-67.863497,63.310721],[-67.894643,63.325018]]]}}
