{"type":"Feature","properties":{"ALL_Uniq":279384,"name":"Rogers Island","Area_Geode":21.6824355166,"Plate":"North America"},"geometry":{"type":"Polygon","coordinates":[[[-64.747162,63.261166],[-64.755214,63.257282],[-64.758448,63.250567],[-64.74817,63.241558],[-64.741,63.240277],[-64.743341,63.2373],[-64.739358,63.235259],[-64.743305,63.233075],[-64.740477,63.230876],[-64.742547,63.228652],[-64.730774,63.226857],[-64.728602,63.221664],[-64.73422,63.214873],[-64.729022,63.206522],[-64.699541,63.198329],[-64.703376,63.194909],[-64.68211,63.192162],[-64.684875,63.195048],[-64.683213,63.196683],[-64.673385,63.197075],[-64.679466,63.198767],[-64.675882,63.202627],[-64.653168,63.205703],[-64.655034,63.216027],[-64.668956,63.225448],[-64.670869,63.2326],[-64.667942,63.23617],[-64.675904,63.240985],[-64.673911,63.243302],[-64.701215,63.243963],[-64.696545,63.246803],[-64.707476,63.249102],[-64.70686,63.254385],[-64.7115,63.252356],[-64.709501,63.255146],[-64.715085,63.255975],[-64.711217,63.258709],[-64.743513,63.257929],[-64.747883,63.258824],[-64.747162,63.261166]]]}}
