{"type":"Feature","properties":{"ALL_Uniq":279381,"name":"Qeqertarsuatsiaq","Area_Geode":84.4995218793,"Plate":"North America"},"geometry":{"type":"Polygon","coordinates":[[[-50.574826,63.193042],[-50.595801,63.193218],[-50.601048,63.191012],[-50.598995,63.18867],[-50.60956,63.189987],[-50.607908,63.183885],[-50.624419,63.17977],[-50.626386,63.184353],[-50.644108,63.18036],[-50.660754,63.190017],[-50.674077,63.187786],[-50.666112,63.180985],[-50.667964,63.179516],[-50.686079,63.189448],[-50.691598,63.185891],[-50.68926,63.185518],[-50.690922,63.182266],[-50.707747,63.176834],[-50.708825,63.179211],[-50.723335,63.180808],[-50.73796,63.172979],[-50.739892,63.165474],[-50.736272,63.160679],[-50.731032,63.161341],[-50.732022,63.158009],[-50.720964,63.147505],[-50.699802,63.138277],[-50.696819,63.140841],[-50.703446,63.146535],[-50.693595,63.144871],[-50.697676,63.142602],[-50.687477,63.143437],[-50.68547,63.145285],[-50.689964,63.146684],[-50.688899,63.152749],[-50.6835,63.151503],[-50.679329,63.154805],[-50.693478,63.16098],[-50.69274,63.164949],[-50.67961,63.158779],[-50.676327,63.161365],[-50.683496,63.166269],[-50.688912,63.164764],[-50.689438,63.169739],[-50.674158,63.164964],[-50.670831,63.167081],[-50.657964,63.161192],[-50.660075,63.164008],[-50.65785,63.165719],[-50.648061,63.165088],[-50.6497,63.16971],[-50.658931,63.175408],[-50.631656,63.173642],[-50.628469,63.178371],[-50.624347,63.178353],[-50.626905,63.173928],[-50.614932,63.169088],[-50.630081,63.166906],[-50.632717,63.168974],[-50.637494,63.164616],[-50.626814,63.160066],[-50.624411,63.155021],[-50.631545,63.157919],[-50.626505,63.152388],[-50.633659,63.154168],[-50.63899,63.151512],[-50.639721,63.156254],[-50.644631,63.158752],[-50.648524,63.154676],[-50.644297,63.152898],[-50.650367,63.152214],[-50.64986,63.149601],[-50.656288,63.150219],[-50.654008,63.151365],[-50.659851,63.156851],[-50.668605,63.149364],[-50.672774,63.149416],[-50.672183,63.152485],[-50.675999,63.149999],[-50.674712,63.145107],[-50.683549,63.141858],[-50.675834,63.131352],[-50.687326,63.134027],[-50.684181,63.130086],[-50.686465,63.128934],[-50.67905,63.126006],[-50.685138,63.125951],[-50.679876,63.124045],[-50.689442,63.122232],[-50.671863,63.104898],[-50.66085,63.10138],[-50.650604,63.107516],[-50.640272,63.102878],[-50.640434,63.099295],[-50.636439,63.09928],[-50.638773,63.097379],[-50.626729,63.093819],[-50.623226,63.097566],[-50.614645,63.09603],[-50.615817,63.099191],[-50.608514,63.099421],[-50.60059,63.094357],[-50.59661,63.096018],[-50.61736,63.110487],[-50.609224,63.107576],[-50.606959,63.110215],[-50.594172,63.105863],[-50.594259,63.103008],[-50.585813,63.102225],[-50.592036,63.113927],[-50.597565,63.116849],[-50.594656,63.118045],[-50.579918,63.113465],[-50.581586,63.119353],[-50.574866,63.115967],[-50.573273,63.1183],[-50.549493,63.108353],[-50.543793,63.116682],[-50.537833,63.109977],[-50.53463,63.116684],[-50.515671,63.112142],[-50.515773,63.114794],[-50.488656,63.116466],[-50.479127,63.121587],[-50.480858,63.138411],[-50.47771,63.139431],[-50.484241,63.149768],[-50.496424,63.152065],[-50.504693,63.159488],[-50.511894,63.161165],[-50.511613,63.156874],[-50.519943,63.161452],[-50.526584,63.156907],[-50.530655,63.157737],[-50.525582,63.164609],[-50.520344,63.165306],[-50.521724,63.168965],[-50.538945,63.176297],[-50.546536,63.184572],[-50.553537,63.1844],[-50.551051,63.187757],[-50.55672,63.195312],[-50.574826,63.193042]]]}}
