{"type":"Feature","properties":{"ALL_Uniq":279471,"name":"Georgina Island","Area_Geode":17.0286125692,"Plate":"North America"},"geometry":{"type":"Polygon","coordinates":[[[-84.331971,66.222911],[-84.346021,66.220974],[-84.347746,66.215644],[-84.345559,66.204169],[-84.337482,66.193098],[-84.316371,66.18306],[-84.309304,66.184009],[-84.313354,66.179808],[-84.293529,66.18328],[-84.282574,66.181483],[-84.284418,66.17818],[-84.31341,66.177583],[-84.317555,66.175018],[-84.315354,66.170153],[-84.299443,66.168765],[-84.291255,66.172056],[-84.289431,66.176492],[-84.281874,66.176819],[-84.274477,66.172255],[-84.253823,66.172195],[-84.254963,66.167964],[-84.247054,66.164183],[-84.241646,66.16638],[-84.243199,66.170892],[-84.25019,66.170858],[-84.246094,66.177291],[-84.236255,66.178804],[-84.244504,66.182069],[-84.237565,66.186443],[-84.242614,66.190166],[-84.241386,66.194264],[-84.246782,66.19566],[-84.253043,66.191144],[-84.261326,66.200466],[-84.277997,66.207982],[-84.331971,66.222911]]]}}
