{"type":"Feature","properties":{"ALL_Uniq":279454,"name":"Akuglek Island","Area_Geode":12.8362745871,"Plate":"North America"},"geometry":{"type":"Polygon","coordinates":[[[-62.472621,65.641071],[-62.490924,65.63301],[-62.487371,65.62793],[-62.473884,65.627292],[-62.473515,65.624176],[-62.498192,65.614749],[-62.49208,65.607552],[-62.495165,65.604991],[-62.485902,65.599237],[-62.491201,65.596585],[-62.482412,65.590095],[-62.484376,65.588003],[-62.458874,65.586628],[-62.442022,65.58884],[-62.44353,65.59174],[-62.426634,65.59263],[-62.42706,65.59605],[-62.445548,65.595837],[-62.443826,65.597544],[-62.449145,65.601795],[-62.441712,65.605041],[-62.44484,65.608152],[-62.442371,65.611893],[-62.429417,65.609831],[-62.421497,65.612043],[-62.421169,65.617527],[-62.428022,65.617669],[-62.432318,65.624038],[-62.438191,65.622194],[-62.446135,65.62443],[-62.444108,65.627454],[-62.448842,65.629816],[-62.447096,65.632352],[-62.459267,65.639942],[-62.472621,65.641071]]]}}
