{"type":"Feature","properties":{"ALL_Uniq":279452,"name":"Kekertuk Island","Area_Geode":32.0547869392,"Plate":"North America"},"geometry":{"type":"Polygon","coordinates":[[[-62.874092,65.616003],[-62.892656,65.612193],[-62.903505,65.58751],[-62.902231,65.582178],[-62.906428,65.579685],[-62.8993,65.576583],[-62.89829,65.568085],[-62.865118,65.553422],[-62.862179,65.549212],[-62.857258,65.549366],[-62.840945,65.535763],[-62.834619,65.535601],[-62.841287,65.534283],[-62.835976,65.529713],[-62.835965,65.525252],[-62.8394,65.523092],[-62.835495,65.520118],[-62.823369,65.517372],[-62.808604,65.52195],[-62.79209,65.519026],[-62.788465,65.526055],[-62.791621,65.526462],[-62.785254,65.534804],[-62.788396,65.53768],[-62.787068,65.543452],[-62.773561,65.542727],[-62.762115,65.550324],[-62.762641,65.555501],[-62.767086,65.558568],[-62.799808,65.555912],[-62.831467,65.567277],[-62.827585,65.574641],[-62.837732,65.584604],[-62.838096,65.594587],[-62.844459,65.602123],[-62.835171,65.608103],[-62.85495,65.614896],[-62.874092,65.616003]]]}}
