{"type":"Feature","properties":{"ALL_Uniq":279501,"name":"Saint Mary’s","Area_Geode":6.69566446498,"Plate":"Eurasia"},"geometry":{"type":"Polygon","coordinates":[[[-6.308805,49.93404],[-6.313639,49.927316],[-6.308124,49.922722],[-6.312087,49.920883],[-6.307602,49.916411],[-6.320815,49.917101],[-6.326821,49.911242],[-6.318278,49.908522],[-6.31719,49.912992],[-6.313037,49.913312],[-6.303264,49.902849],[-6.300303,49.90891],[-6.302872,49.911405],[-6.283347,49.911562],[-6.285658,49.91674],[-6.278235,49.916415],[-6.277386,49.925625],[-6.281014,49.926863],[-6.281441,49.93081],[-6.287767,49.930967],[-6.290913,49.936191],[-6.308805,49.93404]]]}}
