{"type":"Feature","properties":{"ALL_Uniq":279540,"name":"Clare Island","Area_Geode":16.6647910779,"Plate":"Eurasia"},"geometry":{"type":"Polygon","coordinates":[[[-9.979898,53.828553],[-9.987175,53.826052],[-9.99676,53.813805],[-10.034712,53.807532],[-10.036149,53.804353],[-10.046418,53.805336],[-10.049923,53.801189],[-10.044651,53.796916],[-10.051006,53.795308],[-10.04607,53.794837],[-10.046555,53.792267],[-10.055881,53.787212],[-10.023522,53.790842],[-9.986185,53.789511],[-9.950608,53.79737],[-9.952885,53.800763],[-9.943624,53.806568],[-9.943866,53.811288],[-9.962818,53.81246],[-9.979898,53.828553]]]}}
