{"type":"Feature","properties":{"ALL_Uniq":279742,"name":"Alikdjuak Island","Area_Geode":23.7699986163,"Plate":"North America"},"geometry":{"type":"Polygon","coordinates":[[[-65.441073,68.075437],[-65.461793,68.079725],[-65.484501,68.077009],[-65.512299,68.06599],[-65.536784,68.064614],[-65.542672,68.061578],[-65.538476,68.058202],[-65.530385,68.058342],[-65.527266,68.052576],[-65.512327,68.043787],[-65.51573,68.041544],[-65.513136,68.040406],[-65.508616,68.042799],[-65.443773,68.036062],[-65.417358,68.03792],[-65.39367,68.033908],[-65.396038,68.037338],[-65.39045,68.039538],[-65.393629,68.043737],[-65.388079,68.045026],[-65.383975,68.050892],[-65.396881,68.070643],[-65.386457,68.074136],[-65.386403,68.077039],[-65.393993,68.080255],[-65.404106,68.079001],[-65.400497,68.080891],[-65.441073,68.075437]]]}}
