{"type":"Feature","properties":{"ALL_Uniq":279754,"name":"Qorsunnitsoq","Area_Geode":234.988669941,"Plate":"North America"},"geometry":{"type":"Polygon","coordinates":[[[-51.497273,68.25867],[-51.52843,68.250868],[-51.54922,68.249232],[-51.543607,68.251868],[-51.561537,68.255701],[-51.580406,68.253281],[-51.578106,68.255072],[-51.602149,68.258397],[-51.616039,68.256492],[-51.617868,68.255568],[-51.605561,68.251252],[-51.630931,68.248665],[-51.645897,68.243712],[-51.623653,68.235969],[-51.635524,68.230174],[-51.643455,68.232326],[-51.648696,68.238445],[-51.667707,68.239792],[-51.682079,68.235757],[-51.718986,68.237362],[-51.720981,68.233378],[-51.733343,68.232229],[-51.742415,68.227153],[-51.756169,68.229834],[-51.784875,68.227088],[-51.79437,68.216008],[-51.791762,68.214018],[-51.793161,68.211041],[-51.817127,68.205853],[-51.819709,68.206288],[-51.814178,68.208988],[-51.82939,68.208893],[-51.8275,68.214443],[-51.853488,68.211263],[-51.864019,68.217163],[-51.90453,68.214153],[-51.912548,68.20646],[-51.924413,68.205821],[-51.930428,68.202035],[-51.924841,68.197506],[-51.938635,68.19616],[-51.937869,68.198773],[-51.948766,68.201568],[-51.947111,68.204721],[-51.921693,68.209677],[-51.921494,68.212536],[-51.940311,68.215307],[-51.943403,68.218649],[-51.923366,68.221795],[-51.927535,68.224526],[-51.922462,68.226841],[-51.953636,68.220599],[-51.95692,68.217136],[-51.952698,68.211845],[-51.962584,68.208836],[-51.955576,68.20613],[-51.995657,68.213623],[-52.032071,68.215278],[-52.06078,68.21067],[-52.063725,68.205372],[-52.068703,68.204706],[-52.065136,68.203196],[-52.080311,68.200629],[-52.070466,68.197296],[-52.108546,68.188826],[-52.105432,68.183684],[-52.107915,68.181865],[-52.11663,68.18352],[-52.115177,68.186304],[-52.119307,68.187785],[-52.169165,68.18536],[-52.181335,68.178657],[-52.19601,68.181311],[-52.197183,68.175706],[-52.214565,68.174309],[-52.210307,68.176065],[-52.228832,68.177922],[-52.223196,68.184158],[-52.22885,68.188045],[-52.28816,68.184268],[-52.301479,68.170587],[-52.31485,68.172957],[-52.316477,68.169025],[-52.334441,68.164539],[-52.32594,68.159313],[-52.334702,68.158885],[-52.336632,68.154277],[-52.287061,68.154084],[-52.284131,68.152943],[-52.28776,68.149847],[-52.269069,68.14615],[-52.285755,68.141994],[-52.254864,68.137668],[-52.213288,68.137135],[-52.196063,68.147337],[-52.152583,68.149001],[-52.100256,68.160025],[-52.087902,68.15843],[-52.087465,68.162153],[-52.050464,68.17241],[-52.009139,68.170302],[-51.981535,68.177352],[-51.985446,68.179629],[-51.956525,68.193989],[-51.941366,68.188463],[-51.957658,68.18344],[-51.953975,68.176264],[-51.960905,68.172636],[-51.956737,68.170739],[-51.95848,68.168687],[-51.97723,68.167547],[-51.990545,68.161409],[-52.015749,68.156537],[-52.052737,68.159156],[-52.080617,68.152506],[-52.069631,68.151686],[-52.112987,68.150581],[-52.12644,68.147663],[-52.115659,68.147887],[-52.113102,68.145257],[-52.147282,68.140327],[-52.149905,68.138877],[-52.147301,68.137422],[-52.151499,68.136071],[-52.132879,68.135801],[-52.208585,68.130209],[-52.178861,68.13367],[-52.176353,68.135105],[-52.188926,68.140494],[-52.160153,68.144376],[-52.16458,68.144666],[-52.190671,68.142486],[-52.214299,68.132286],[-52.225308,68.134295],[-52.215715,68.132474],[-52.216377,68.129336],[-52.231696,68.130388],[-52.248744,68.12698],[-52.216577,68.12118],[-52.217316,68.118802],[-52.228305,68.119582],[-52.209263,68.110476],[-52.175316,68.109363],[-52.085007,68.117181],[-52.023097,68.114756],[-51.974971,68.119082],[-51.971564,68.120625],[-51.976792,68.121456],[-51.971698,68.1231],[-51.919802,68.127422],[-51.891435,68.126357],[-51.85601,68.139332],[-51.863905,68.14107],[-51.854198,68.1508],[-51.800698,68.167911],[-51.799901,68.176979],[-51.741127,68.1727],[-51.735888,68.175654],[-51.665875,68.18026],[-51.611384,68.194786],[-51.545597,68.194559],[-51.546652,68.196629],[-51.536401,68.201487],[-51.522855,68.202954],[-51.522424,68.206025],[-51.509989,68.214151],[-51.496175,68.215621],[-51.487825,68.224766],[-51.487916,68.231682],[-51.473771,68.241011],[-51.480084,68.241744],[-51.483654,68.246217],[-51.462441,68.251033],[-51.495645,68.248149],[-51.511939,68.251465],[-51.491033,68.256372],[-51.497273,68.25867]]]}}
