{"type":"Feature","properties":{"ALL_Uniq":279804,"name":"Neerlonakto Island","Area_Geode":28.6337143951,"Plate":"North America"},"geometry":{"type":"Polygon","coordinates":[[[-81.6608,69.532536],[-81.672459,69.531391],[-81.674647,69.528119],[-81.67231,69.524271],[-81.676787,69.521543],[-81.67311,69.519958],[-81.678546,69.516713],[-81.701115,69.511015],[-81.737179,69.511261],[-81.74171,69.506823],[-81.722156,69.499181],[-81.646521,69.487002],[-81.63349,69.481934],[-81.603688,69.478911],[-81.596846,69.474114],[-81.537657,69.46436],[-81.540945,69.463165],[-81.533824,69.458508],[-81.546833,69.458012],[-81.533512,69.452557],[-81.46984,69.4388],[-81.466359,69.440885],[-81.480818,69.444099],[-81.4713,69.442336],[-81.469587,69.444615],[-81.47567,69.446026],[-81.467505,69.445046],[-81.467651,69.448921],[-81.462157,69.449756],[-81.460937,69.446329],[-81.446137,69.455418],[-81.450008,69.460031],[-81.484799,69.469548],[-81.487813,69.472986],[-81.498956,69.474076],[-81.496833,69.470978],[-81.50037,69.471147],[-81.500132,69.474031],[-81.508782,69.475437],[-81.503593,69.47175],[-81.511626,69.471679],[-81.508984,69.473485],[-81.515617,69.477835],[-81.529002,69.477008],[-81.529196,69.474172],[-81.534011,69.473035],[-81.582086,69.483833],[-81.588202,69.490183],[-81.599923,69.493025],[-81.625279,69.508638],[-81.62848,69.516557],[-81.619193,69.524411],[-81.652369,69.532232],[-81.666978,69.529014],[-81.666477,69.523708],[-81.67272,69.52784],[-81.6608,69.532536]]]}}
