{"type":"Feature","properties":{"ALL_Uniq":279857,"name":"Akuliaruseq","Area_Geode":61.2479256317,"Plate":"North America"},"geometry":{"type":"Polygon","coordinates":[[[-55.002964,72.596454],[-55.027262,72.591087],[-55.054986,72.592589],[-55.050769,72.590014],[-55.043582,72.591552],[-55.03782,72.588387],[-55.042804,72.588429],[-55.032723,72.586218],[-55.059321,72.588501],[-55.05212,72.589299],[-55.05503,72.590257],[-55.067399,72.586779],[-55.095085,72.58858],[-55.092909,72.584864],[-55.122281,72.586747],[-55.173554,72.581539],[-55.16346,72.581257],[-55.169987,72.577924],[-55.182537,72.580265],[-55.179628,72.577947],[-55.189121,72.575166],[-55.197297,72.579887],[-55.184488,72.583427],[-55.199239,72.583772],[-55.212929,72.581499],[-55.20992,72.579496],[-55.22687,72.578068],[-55.225897,72.576255],[-55.259135,72.574594],[-55.263355,72.573032],[-55.259727,72.570361],[-55.301517,72.559486],[-55.303982,72.555247],[-55.306416,72.557782],[-55.303918,72.560075],[-55.325755,72.55394],[-55.335662,72.556801],[-55.343561,72.55516],[-55.336731,72.553694],[-55.344898,72.553278],[-55.344737,72.550377],[-55.354934,72.552244],[-55.368938,72.54689],[-55.380589,72.547123],[-55.331023,72.533946],[-55.248241,72.532285],[-55.187816,72.521798],[-55.159343,72.524229],[-55.1439,72.522368],[-55.129822,72.527245],[-55.118659,72.537145],[-55.096945,72.539091],[-55.09326,72.545999],[-55.085913,72.549512],[-55.068124,72.549555],[-55.064233,72.548668],[-55.077937,72.542859],[-55.064546,72.535469],[-55.069528,72.527534],[-55.021081,72.526133],[-55.01362,72.528073],[-55.00793,72.535671],[-55.01025,72.547269],[-55.006569,72.550287],[-55.009712,72.552659],[-55.006567,72.557724],[-55.012946,72.562942],[-55.002834,72.567955],[-55.007308,72.574496],[-54.996351,72.585801],[-54.998112,72.589625],[-54.99336,72.59017],[-55.002964,72.596454]]]}}
