{"type":"Feature","properties":{"ALL_Uniq":279888,"name":"Qallunaat","Area_Geode":61.3634793174,"Plate":"North America"},"geometry":{"type":"Polygon","coordinates":[[[-56.273715,73.662307],[-56.307529,73.653898],[-56.310328,73.652414],[-56.309345,73.648896],[-56.32651,73.642058],[-56.293231,73.640969],[-56.291562,73.637906],[-56.293842,73.636789],[-56.287276,73.636461],[-56.309627,73.633976],[-56.318398,73.628479],[-56.282238,73.631287],[-56.281661,73.62462],[-56.263264,73.62583],[-56.277935,73.620743],[-56.268372,73.61992],[-56.278537,73.617593],[-56.268428,73.615192],[-56.301174,73.617031],[-56.311361,73.614542],[-56.288583,73.608264],[-56.296916,73.607351],[-56.356509,73.619187],[-56.372494,73.615371],[-56.37254,73.611976],[-56.367576,73.608761],[-56.380486,73.605988],[-56.390319,73.606613],[-56.383231,73.610779],[-56.398395,73.613528],[-56.413112,73.612414],[-56.419211,73.608414],[-56.475908,73.606493],[-56.478191,73.604974],[-56.462142,73.604765],[-56.507831,73.595126],[-56.502869,73.594085],[-56.508951,73.592478],[-56.502332,73.588803],[-56.509953,73.589183],[-56.515256,73.58154],[-56.519978,73.579976],[-56.499067,73.576409],[-56.51035,73.569964],[-56.527774,73.565482],[-56.533996,73.556246],[-56.52543,73.553424],[-56.486666,73.557458],[-56.448792,73.552859],[-56.430125,73.546102],[-56.430955,73.544263],[-56.417217,73.551225],[-56.410935,73.55099],[-56.405244,73.549551],[-56.405181,73.545445],[-56.388103,73.541304],[-56.35533,73.543472],[-56.353151,73.54884],[-56.328869,73.545913],[-56.326321,73.549293],[-56.329955,73.552779],[-56.322909,73.555536],[-56.296144,73.55675],[-56.304946,73.559962],[-56.293719,73.565104],[-56.299246,73.565995],[-56.293186,73.569235],[-56.300314,73.57057],[-56.292079,73.572962],[-56.300324,73.57509],[-56.298861,73.576795],[-56.312877,73.577991],[-56.307948,73.579478],[-56.31216,73.581157],[-56.350181,73.587311],[-56.314993,73.586042],[-56.304634,73.589798],[-56.292486,73.58849],[-56.286701,73.591599],[-56.293091,73.593476],[-56.287193,73.593587],[-56.27329,73.592727],[-56.267804,73.587733],[-56.271042,73.586596],[-56.257455,73.586604],[-56.258819,73.592143],[-56.25621,73.59375],[-56.268539,73.595335],[-56.247621,73.597428],[-56.249518,73.59998],[-56.273119,73.600323],[-56.288693,73.604827],[-56.280962,73.607328],[-56.256984,73.605997],[-56.201018,73.621043],[-56.18568,73.620065],[-56.162191,73.62521],[-56.170449,73.626598],[-56.167033,73.628477],[-56.166191,73.634545],[-56.206508,73.626538],[-56.179712,73.638661],[-56.187926,73.643677],[-56.201898,73.641501],[-56.199116,73.638418],[-56.20335,73.632942],[-56.218603,73.633781],[-56.222466,73.638993],[-56.202671,73.642139],[-56.202968,73.644738],[-56.189906,73.647994],[-56.198185,73.649027],[-56.186642,73.652586],[-56.237513,73.649287],[-56.255315,73.652051],[-56.282203,73.642674],[-56.285472,73.645786],[-56.275654,73.651393],[-56.280361,73.654667],[-56.268891,73.656766],[-56.273715,73.662307]]]}}
