{"type":"Feature","properties":{"ALL_Uniq":279905,"name":"Wolstenholme Island","Area_Geode":38.3360835412,"Plate":"North America"},"geometry":{"type":"Polygon","coordinates":[[[-70.029996,76.462179],[-70.020423,76.459446],[-70.031752,76.460167],[-70.046962,76.455504],[-70.037727,76.452967],[-70.049483,76.453983],[-70.04437,76.452234],[-70.063733,76.448895],[-70.094922,76.45104],[-70.148969,76.449143],[-70.163073,76.452382],[-70.161891,76.447387],[-70.167183,76.445239],[-70.158126,76.444432],[-70.163101,76.441632],[-70.202514,76.441578],[-70.19905,76.438992],[-70.20046,76.433272],[-70.162048,76.426784],[-70.143003,76.426652],[-70.173779,76.425938],[-70.175822,76.421841],[-70.171886,76.418454],[-70.161017,76.418948],[-70.114075,76.41008],[-70.078013,76.410319],[-70.064221,76.403611],[-70.024728,76.40467],[-70.01147,76.400656],[-69.955943,76.394436],[-69.951689,76.395919],[-69.957757,76.396959],[-69.955589,76.39948],[-69.940979,76.401773],[-69.941214,76.405725],[-69.893809,76.410666],[-69.889962,76.4129],[-69.925423,76.415323],[-69.911132,76.41576],[-69.912476,76.419949],[-69.902187,76.426192],[-69.864442,76.434643],[-69.854363,76.440229],[-69.881424,76.446991],[-69.882297,76.446271],[-69.86087,76.441157],[-69.879075,76.439452],[-69.899609,76.445893],[-69.91285,76.445116],[-69.918711,76.4482],[-69.894792,76.449229],[-69.917395,76.454248],[-69.991384,76.455888],[-70.029996,76.462179]]]}}
