{"type":"Feature","properties":{"ALL_Uniq":280140,"name":"Dēra","Area_Geode":19.5482998639,"Plate":"India"},"geometry":{"type":"Polygon","coordinates":[[[69.924296,22.551798],[69.922623,22.548575],[69.913489,22.550993],[69.899232,22.546855],[69.896787,22.543035],[69.899665,22.539744],[69.899927,22.529614],[69.893366,22.527039],[69.879839,22.529235],[69.878465,22.531828],[69.875341,22.530263],[69.877513,22.531988],[69.875441,22.532912],[69.8678,22.531336],[69.866939,22.534008],[69.855339,22.533696],[69.853913,22.529282],[69.872049,22.517343],[69.881239,22.519413],[69.879558,22.517643],[69.884792,22.517499],[69.891247,22.511667],[69.923,22.513575],[69.93088,22.518176],[69.925625,22.525288],[69.927812,22.53047],[69.934188,22.534213],[69.928886,22.537247],[69.926439,22.534071],[69.925576,22.536198],[69.926671,22.537136],[69.932763,22.537843],[69.932822,22.547216],[69.929193,22.551744],[69.928928,22.549432],[69.924296,22.551798]]]}}
