{"type":"Feature","properties":{"ALL_Uniq":280266,"name":"Nisí Folégandros","Area_Geode":32.6066862206,"Plate":"Aegean Sea"},"geometry":{"type":"Polygon","coordinates":[[[24.857278,36.667095],[24.846771,36.660437],[24.837458,36.658912],[24.849622,36.641253],[24.859422,36.635738],[24.861033,36.631007],[24.881344,36.628546],[24.894466,36.630376],[24.892644,36.623923],[24.895142,36.614883],[24.911047,36.598716],[24.949779,36.592443],[24.960246,36.601742],[24.959995,36.604741],[24.954162,36.605984],[24.952395,36.611493],[24.94769,36.613539],[24.952973,36.614945],[24.948727,36.619576],[24.952185,36.620805],[24.943503,36.627142],[24.937506,36.627523],[24.927308,36.636036],[24.924263,36.630198],[24.922656,36.632573],[24.917568,36.631026],[24.912678,36.635805],[24.907865,36.633453],[24.903899,36.640879],[24.857278,36.667095]]]}}
