{"type":"Feature","properties":{"ALL_Uniq":280272,"name":"Nisída Sapiéntza","Area_Geode":9.38707523941,"Plate":"Aegean Sea"},"geometry":{"type":"Polygon","coordinates":[[[21.704326,36.795916],[21.692416,36.777602],[21.696981,36.758234],[21.689459,36.751415],[21.693465,36.748223],[21.690554,36.740786],[21.695341,36.736632],[21.701728,36.738262],[21.701372,36.743577],[21.705577,36.74732],[21.704724,36.752461],[21.701068,36.751031],[21.700548,36.758654],[21.719791,36.765222],[21.716154,36.779345],[21.72683,36.784964],[21.710848,36.788409],[21.704326,36.795916]]]}}
