{"type":"Feature","properties":{"ALL_Uniq":280239,"name":"Nisí Antikýthira","Area_Geode":20.7330770767,"Plate":"Aegean Sea"},"geometry":{"type":"Polygon","coordinates":[[[23.270463,35.906241],[23.268736,35.900479],[23.288954,35.854372],[23.304854,35.841161],[23.318981,35.835344],[23.31941,35.828213],[23.326344,35.822227],[23.325867,35.825122],[23.329585,35.826744],[23.327413,35.854311],[23.315224,35.88387],[23.307613,35.889837],[23.305234,35.886123],[23.296829,35.892292],[23.294052,35.891626],[23.293152,35.883257],[23.290578,35.882123],[23.285546,35.894151],[23.281642,35.894014],[23.270463,35.906241]]]}}
