{"type":"Feature","properties":{"ALL_Uniq":280201,"name":"Jazīrat Shākir","Area_Geode":41.4349874226,"Plate":"Africa"},"geometry":{"type":"Polygon","coordinates":[[[33.930435,27.537149],[33.92573,27.533951],[33.921811,27.522988],[33.915656,27.522867],[33.93165,27.501601],[33.94455,27.50606],[33.951989,27.503524],[33.960665,27.494933],[33.978066,27.49448],[33.999003,27.476358],[33.999264,27.472173],[34.007567,27.471621],[34.013457,27.467447],[34.023995,27.454956],[34.023014,27.448076],[34.033973,27.448532],[34.038149,27.451801],[34.039342,27.456954],[34.034564,27.470869],[34.030544,27.474256],[34.023739,27.495784],[34.017931,27.503531],[34.006529,27.50381],[34.002354,27.508822],[33.979641,27.518899],[33.960414,27.535494],[33.930435,27.537149]]]}}
