{"type":"Feature","properties":{"ALL_Uniq":280352,"name":"Nisída Petalás","Area_Geode":5.55882256587,"Plate":"Eurasia"},"geometry":{"type":"Polygon","coordinates":[[[21.083095,38.435794],[21.077701,38.429348],[21.081106,38.428156],[21.079878,38.423783],[21.084891,38.41951],[21.081791,38.419276],[21.082302,38.414897],[21.086069,38.406241],[21.090272,38.406343],[21.092266,38.401119],[21.099429,38.39905],[21.100858,38.392936],[21.107052,38.402423],[21.102789,38.414101],[21.108092,38.416522],[21.092312,38.423204],[21.092975,38.426012],[21.083095,38.435794]]]}}
