{"type":"Feature","properties":{"ALL_Uniq":280322,"name":"Nisí Sýros","Area_Geode":85.2682677877,"Plate":"Aegean Sea"},"geometry":{"type":"Polygon","coordinates":[[[24.884095,37.51439],[24.876495,37.510641],[24.881797,37.507846],[24.882747,37.500442],[24.888524,37.496082],[24.891428,37.500061],[24.895029,37.498935],[24.89247,37.495547],[24.89813,37.497106],[24.900978,37.492361],[24.901476,37.488848],[24.894879,37.484652],[24.893457,37.47887],[24.901477,37.472972],[24.892189,37.47199],[24.896355,37.467858],[24.893635,37.461584],[24.889411,37.461164],[24.890612,37.458096],[24.895393,37.46022],[24.899049,37.457713],[24.89617,37.449679],[24.900169,37.446127],[24.896419,37.443227],[24.889718,37.446098],[24.887174,37.439554],[24.88325,37.439611],[24.887528,37.435284],[24.883361,37.432231],[24.862502,37.428578],[24.877531,37.421323],[24.860669,37.415719],[24.85633,37.406752],[24.859454,37.406456],[24.858651,37.402668],[24.85465,37.397299],[24.855003,37.395064],[24.87236,37.393638],[24.879091,37.397938],[24.882341,37.396544],[24.88482,37.391771],[24.883109,37.388029],[24.873842,37.386819],[24.880769,37.385206],[24.882919,37.377509],[24.878678,37.375476],[24.88049,37.372818],[24.875197,37.364685],[24.8775,37.362117],[24.887912,37.369076],[24.896886,37.370273],[24.898429,37.373667],[24.906004,37.373479],[24.909479,37.378793],[24.914667,37.376194],[24.915675,37.381209],[24.925608,37.381816],[24.933335,37.386363],[24.93807,37.383725],[24.944256,37.390646],[24.943389,37.383204],[24.948582,37.382916],[24.956323,37.394922],[24.973497,37.401255],[24.964376,37.410216],[24.967196,37.414906],[24.957193,37.419571],[24.95308,37.424986],[24.953254,37.431287],[24.947593,37.432982],[24.938989,37.429229],[24.936878,37.433181],[24.937775,37.436445],[24.942453,37.436361],[24.940899,37.439744],[24.943383,37.442905],[24.945662,37.439018],[24.945777,37.445809],[24.949447,37.44683],[24.951129,37.458199],[24.946991,37.485781],[24.930578,37.501111],[24.919959,37.500701],[24.918671,37.503832],[24.915376,37.501779],[24.905121,37.507353],[24.891156,37.508231],[24.884095,37.51439]]]}}
