{"type":"Feature","properties":{"ALL_Uniq":280320,"name":"Mykonos","Area_Geode":87.6489525484,"Plate":"Aegean Sea"},"geometry":{"type":"Polygon","coordinates":[[[25.345913,37.50038],[25.330219,37.497647],[25.324187,37.49285],[25.312112,37.491966],[25.307978,37.483263],[25.313042,37.4764],[25.310119,37.471099],[25.32862,37.462847],[25.326015,37.450744],[25.329743,37.448867],[25.325497,37.447429],[25.327332,37.440265],[25.323318,37.437126],[25.323506,37.426866],[25.319897,37.427371],[25.317026,37.435077],[25.307215,37.439985],[25.299922,37.431577],[25.303923,37.423126],[25.312492,37.419605],[25.305578,37.402342],[25.31028,37.406558],[25.317298,37.405598],[25.314986,37.408068],[25.319195,37.410966],[25.318489,37.415889],[25.322474,37.422207],[25.331231,37.410671],[25.336975,37.409343],[25.338379,37.415465],[25.345595,37.412982],[25.349305,37.403141],[25.34922,37.407076],[25.353094,37.405545],[25.355556,37.409792],[25.363718,37.406061],[25.369041,37.407736],[25.369184,37.414603],[25.377612,37.41256],[25.378651,37.417889],[25.387359,37.422457],[25.392759,37.421338],[25.399743,37.413665],[25.40557,37.43319],[25.419589,37.429517],[25.42012,37.434545],[25.423525,37.431672],[25.426473,37.434199],[25.42063,37.437974],[25.422867,37.442116],[25.45962,37.445782],[25.4573,37.450378],[25.461807,37.45993],[25.461431,37.474999],[25.430146,37.47104],[25.429958,37.482514],[25.424208,37.481011],[25.423272,37.485007],[25.420732,37.481813],[25.416534,37.483645],[25.411278,37.480468],[25.411358,37.483866],[25.405541,37.483792],[25.407381,37.49142],[25.403809,37.495719],[25.387002,37.496258],[25.379366,37.491483],[25.383619,37.468695],[25.37851,37.461935],[25.374693,37.461595],[25.360527,37.476247],[25.363165,37.478297],[25.36026,37.484614],[25.363725,37.486566],[25.361069,37.487821],[25.363431,37.490487],[25.360798,37.491052],[25.359882,37.497068],[25.345913,37.50038]]]}}
