{"type":"Feature","properties":{"ALL_Uniq":280491,"name":"Otok Unije","Area_Geode":17.5147912961,"Plate":"Eurasia"},"geometry":{"type":"Polygon","coordinates":[[[14.279529,44.689983],[14.262538,44.681857],[14.252184,44.666946],[14.238576,44.659804],[14.239599,44.643792],[14.247611,44.635762],[14.231462,44.628412],[14.235852,44.618941],[14.253439,44.619368],[14.280763,44.604315],[14.283187,44.606773],[14.280714,44.613138],[14.252021,44.648658],[14.26557,44.639934],[14.267244,44.642223],[14.264035,44.649742],[14.258445,44.652651],[14.255262,44.659209],[14.265102,44.655577],[14.262761,44.66601],[14.268462,44.659905],[14.278442,44.656361],[14.28395,44.660984],[14.283035,44.664075],[14.28799,44.665837],[14.286914,44.670544],[14.282199,44.670171],[14.286383,44.677279],[14.280658,44.681889],[14.277284,44.680855],[14.281844,44.686975],[14.279529,44.689983]]]}}
