{"type":"Feature","properties":{"ALL_Uniq":280432,"name":"Otok Lastovo","Area_Geode":44.2747568857,"Plate":"Eurasia"},"geometry":{"type":"Polygon","coordinates":[[[16.855359,42.778187],[16.846549,42.767775],[16.845801,42.775155],[16.834734,42.777152],[16.831914,42.77448],[16.838772,42.772157],[16.835289,42.768896],[16.823019,42.766987],[16.824402,42.769286],[16.831516,42.770551],[16.82943,42.772808],[16.82138,42.77129],[16.827661,42.776837],[16.818868,42.772824],[16.817687,42.776542],[16.806027,42.773033],[16.801164,42.768985],[16.801586,42.765607],[16.797666,42.764574],[16.806944,42.758743],[16.807098,42.754037],[16.813289,42.753694],[16.81529,42.756091],[16.81001,42.757551],[16.815072,42.761927],[16.80926,42.764386],[16.822301,42.765536],[16.822975,42.754091],[16.826636,42.749467],[16.824146,42.745952],[16.813348,42.748264],[16.81169,42.744057],[16.819887,42.743103],[16.822332,42.740365],[16.819775,42.737862],[16.824666,42.731909],[16.830761,42.730536],[16.835268,42.733408],[16.838342,42.726533],[16.842558,42.725543],[16.841373,42.722748],[16.847142,42.724176],[16.844288,42.730991],[16.857506,42.732164],[16.867525,42.73726],[16.87863,42.736636],[16.877397,42.733309],[16.885455,42.729975],[16.888078,42.736928],[16.891853,42.731402],[16.880394,42.725269],[16.886665,42.722985],[16.894792,42.726995],[16.905538,42.727065],[16.922518,42.73596],[16.93002,42.748815],[16.936318,42.751883],[16.93753,42.762249],[16.943119,42.766086],[16.924404,42.773643],[16.916742,42.769622],[16.908217,42.77072],[16.906722,42.774431],[16.880468,42.770139],[16.879187,42.77634],[16.874814,42.771796],[16.872983,42.774193],[16.866756,42.771519],[16.868406,42.774918],[16.855359,42.778187]]]}}
