{"type":"Feature","properties":{"ALL_Uniq":280638,"name":"Hengqin Dao","Area_Geode":82.7314128807,"Plate":"Yangtze"},"geometry":{"type":"Polygon","coordinates":[[[113.433226,22.17138],[113.434308,22.163505],[113.456647,22.118059],[113.469686,22.121941],[113.457745,22.116574],[113.460774,22.110443],[113.467249,22.115736],[113.468139,22.110101],[113.462052,22.107413],[113.468109,22.109149],[113.468184,22.101738],[113.465036,22.102598],[113.467364,22.094974],[113.472983,22.095165],[113.470957,22.093811],[113.474133,22.088835],[113.497458,22.077055],[113.496937,22.06567],[113.485348,22.078849],[113.479518,22.078558],[113.473383,22.086186],[113.492496,22.060567],[113.50178,22.06275],[113.510594,22.072069],[113.504251,22.067153],[113.503676,22.070555],[113.520837,22.081844],[113.540993,22.083852],[113.54466,22.078386],[113.552648,22.077083],[113.555334,22.083892],[113.550948,22.087153],[113.558398,22.092027],[113.549861,22.093963],[113.545153,22.100577],[113.548131,22.143878],[113.530758,22.169758],[113.525324,22.167767],[113.526148,22.16445],[113.520772,22.165698],[113.504275,22.157172],[113.474013,22.148053],[113.459774,22.152591],[113.433226,22.17138]]]}}
