{"type":"Feature","properties":{"ALL_Uniq":280772,"name":"Niyu Dao","Area_Geode":12.3606768947,"Plate":"Yangtze"},"geometry":{"type":"Polygon","coordinates":[[[121.030701,27.883307],[121.032278,27.876742],[121.029222,27.87465],[121.032554,27.870335],[121.021282,27.867545],[121.024517,27.857658],[121.020072,27.856454],[121.023073,27.85054],[121.016323,27.846812],[121.021377,27.836023],[121.024533,27.837431],[121.025833,27.84731],[121.031411,27.849369],[121.034379,27.846385],[121.035679,27.853315],[121.039124,27.850653],[121.044983,27.853736],[121.061459,27.850414],[121.060101,27.844934],[121.062305,27.844456],[121.06794,27.849872],[121.065179,27.854057],[121.085374,27.868883],[121.067226,27.865875],[121.065233,27.86185],[121.060017,27.863395],[121.064301,27.866715],[121.052661,27.869299],[121.052361,27.86744],[121.060729,27.866296],[121.052788,27.86569],[121.047321,27.877031],[121.036906,27.877295],[121.030701,27.883307]]]}}
