{"type":"Feature","properties":{"ALL_Uniq":280859,"name":"Zhoushan Dao","Area_Geode":512.031412498,"Plate":"Yangtze"},"geometry":{"type":"Polygon","coordinates":[[[121.948887,30.184913],[121.947092,30.1775],[121.942288,30.177456],[121.933004,30.168158],[121.935922,30.164975],[121.934312,30.161769],[121.950583,30.149459],[121.96224,30.125945],[121.966521,30.124849],[121.965903,30.121792],[121.973247,30.116142],[121.976682,30.108211],[121.984132,30.103598],[121.984516,30.080557],[121.987888,30.078217],[121.987947,30.07357],[121.983423,30.071058],[121.98787,30.076013],[121.983551,30.080255],[121.983677,30.086422],[121.977824,30.085297],[121.971233,30.074977],[121.975083,30.070138],[121.98338,30.070224],[121.976463,30.066713],[121.974436,30.06008],[121.981354,30.047507],[121.98906,30.045569],[121.987056,30.042886],[121.990277,30.044744],[121.994268,30.042068],[122.003001,30.027984],[122.0075,30.026946],[122.018007,30.010238],[122.01626,30.00708],[122.018322,30.00286],[122.020251,30.003909],[122.022323,29.995476],[122.03519,29.993282],[122.06286,30.009698],[122.076251,30.01],[122.081654,30.007667],[122.082045,30.004277],[122.082974,30.007588],[122.097735,30.009138],[122.10527,30.006907],[122.119862,29.989561],[122.147368,29.990026],[122.1638,29.994281],[122.181143,29.983698],[122.234077,29.966704],[122.275338,29.941304],[122.283707,29.940148],[122.304271,29.946094],[122.318159,29.944484],[122.31774,29.958626],[122.336583,29.998902],[122.327793,30.004745],[122.331656,30.012586],[122.341719,30.014737],[122.340615,30.020679],[122.334563,30.022545],[122.331032,30.018359],[122.32585,30.020529],[122.32044,30.032184],[122.322016,30.034849],[122.319191,30.033505],[122.307011,30.038731],[122.286654,30.066732],[122.260892,30.063651],[122.251597,30.066394],[122.25127,30.073582],[122.254592,30.075955],[122.251861,30.077663],[122.252314,30.087744],[122.249773,30.08781],[122.250758,30.07938],[122.236155,30.089366],[122.237454,30.09281],[122.250521,30.089231],[122.252761,30.099404],[122.274826,30.102639],[122.279986,30.086434],[122.267811,30.086671],[122.279235,30.085111],[122.280463,30.081312],[122.258088,30.078088],[122.279179,30.080322],[122.279272,30.076367],[122.284108,30.075468],[122.294464,30.08657],[122.296438,30.084498],[122.299999,30.090956],[122.294647,30.091979],[122.290606,30.102055],[122.274848,30.104492],[122.253469,30.100261],[122.236936,30.109907],[122.230192,30.106917],[122.2147,30.11168],[122.215234,30.108946],[122.205708,30.109482],[122.207464,30.112332],[122.203249,30.112673],[122.20387,30.10967],[122.188057,30.109542],[122.194767,30.109074],[122.190622,30.105196],[122.184805,30.106946],[122.187053,30.109568],[122.177893,30.117118],[122.176604,30.114105],[122.171667,30.115569],[122.166216,30.112757],[122.163288,30.117649],[122.160239,30.113333],[122.151048,30.113723],[122.138138,30.119564],[122.126191,30.136507],[122.116584,30.139117],[122.114563,30.151233],[122.098001,30.158262],[122.098388,30.160467],[122.091968,30.158816],[122.088781,30.161932],[122.090099,30.158608],[122.048113,30.147957],[122.045433,30.143743],[122.045913,30.147412],[122.030657,30.148773],[122.026723,30.144296],[122.028381,30.151325],[122.007021,30.159428],[121.991877,30.161213],[121.980363,30.168345],[121.975419,30.165773],[121.976869,30.171711],[121.972918,30.174843],[121.967849,30.174304],[121.967306,30.177826],[121.948887,30.184913]]]}}
