{"type":"Feature","properties":{"ALL_Uniq":280857,"name":"Jintang Dao","Area_Geode":97.1967483566,"Plate":"Yangtze"},"geometry":{"type":"Polygon","coordinates":[[[121.939464,30.116767],[121.918512,30.107044],[121.907396,30.096701],[121.911233,30.08731],[121.924196,30.084985],[121.929147,30.075894],[121.905654,30.056092],[121.900724,30.05808],[121.901365,30.062097],[121.896226,30.064218],[121.891025,30.07422],[121.885596,30.077119],[121.888353,30.083598],[121.876334,30.084419],[121.875016,30.087824],[121.882447,30.095279],[121.875191,30.094313],[121.876839,30.090689],[121.872573,30.087359],[121.851866,30.086907],[121.847886,30.090747],[121.84712,30.101862],[121.854844,30.097883],[121.85951,30.101603],[121.853305,30.103425],[121.843406,30.102075],[121.846485,30.100935],[121.846966,30.079669],[121.851585,30.070077],[121.83582,30.04697],[121.845771,30.018784],[121.844985,30.009027],[121.836298,30.000549],[121.835177,29.994675],[121.838836,29.992701],[121.839794,29.987057],[121.847459,29.984506],[121.848145,29.973352],[121.86114,29.968337],[121.867132,29.972114],[121.869669,29.96896],[121.890115,29.982472],[121.919691,29.994118],[121.928826,30.001382],[121.91821,30.039238],[121.918936,30.051141],[121.911464,30.057444],[121.924966,30.069307],[121.941037,30.067635],[121.94982,30.085902],[121.953397,30.087412],[121.953529,30.098155],[121.95736,30.10084],[121.958174,30.107518],[121.939464,30.116767]]]}}
