{"type":"Feature","properties":{"ALL_Uniq":280856,"name":"Dapeng Shan","Area_Geode":6.18992173758,"Plate":"Yangtze"},"geometry":{"type":"Polygon","coordinates":[[[121.837842,30.102619],[121.831161,30.100617],[121.836334,30.098012],[121.83699,30.09323],[121.836973,30.088263],[121.830839,30.090603],[121.833314,30.08393],[121.828574,30.085261],[121.829852,30.089494],[121.818503,30.08401],[121.820124,30.069078],[121.835422,30.065949],[121.838232,30.061312],[121.846326,30.065077],[121.848115,30.070599],[121.838849,30.088539],[121.837842,30.102619]]]}}
