{"type":"Feature","properties":{"ALL_Uniq":280978,"name":"U-do","Area_Geode":6.65576752261,"Plate":"Amur"},"geometry":{"type":"Polygon","coordinates":[[[126.954123,33.525063],[126.948218,33.522599],[126.948866,33.514885],[126.940867,33.509236],[126.943243,33.508165],[126.941106,33.506196],[126.943306,33.495003],[126.949639,33.491133],[126.959378,33.492715],[126.965512,33.489526],[126.97018,33.502297],[126.964742,33.513382],[126.957892,33.513809],[126.961288,33.518455],[126.954123,33.525063]]]}}
