{"type":"Feature","properties":{"ALL_Uniq":281009,"name":"Tsuwaji-jima","Area_Geode":2.95972497163,"Plate":"Amur"},"geometry":{"type":"Polygon","coordinates":[[[132.512712,33.99036],[132.508708,33.987471],[132.502896,33.989541],[132.501471,33.984407],[132.495119,33.980959],[132.500404,33.974514],[132.497649,33.970019],[132.491617,33.97018],[132.492933,33.964886],[132.504927,33.970557],[132.505876,33.974458],[132.512748,33.975131],[132.513444,33.981444],[132.523011,33.986509],[132.522666,33.98985],[132.512712,33.99036]]]}}
