{"type":"Feature","properties":{"ALL_Uniq":281024,"name":"Miyake Jima","Area_Geode":55.0020852302,"Plate":"Amur"},"geometry":{"type":"Polygon","coordinates":[[[139.52891,34.125446],[139.514761,34.120062],[139.498306,34.121919],[139.49091,34.117825],[139.488975,34.112695],[139.494035,34.103469],[139.487698,34.101156],[139.490276,34.098681],[139.482826,34.091144],[139.481604,34.083474],[139.47389,34.077026],[139.480015,34.070339],[139.477659,34.06073],[139.482012,34.052209],[139.500788,34.045696],[139.511795,34.048637],[139.531415,34.046793],[139.534086,34.052899],[139.544398,34.057515],[139.545408,34.055689],[139.558448,34.064631],[139.563801,34.073258],[139.563131,34.078752],[139.569188,34.080499],[139.560935,34.082772],[139.566009,34.093347],[139.56109,34.108648],[139.539811,34.123489],[139.52891,34.125446]]]}}
