{"type":"Feature","properties":{"ALL_Uniq":281052,"name":"Kwanmae-do","Area_Geode":4.70540360056,"Plate":"Amur"},"geometry":{"type":"Polygon","coordinates":[[[126.050103,34.254306],[126.048613,34.252764],[126.053373,34.247542],[126.049522,34.23979],[126.045119,34.239691],[126.041943,34.235442],[126.037303,34.238924],[126.031506,34.235718],[126.026032,34.238364],[126.025192,34.22878],[126.033589,34.232163],[126.036984,34.221701],[126.042608,34.231929],[126.057893,34.225019],[126.05667,34.231007],[126.061727,34.23375],[126.060196,34.238064],[126.065458,34.240118],[126.062038,34.247017],[126.063348,34.251165],[126.054112,34.24949],[126.050103,34.254306]]]}}
