{"type":"Feature","properties":{"ALL_Uniq":281183,"name":"Yoncho To","Area_Geode":3.90662504646,"Plate":"Amur"},"geometry":{"type":"Polygon","coordinates":[[[128.494297,34.750146],[128.48522,34.744861],[128.475742,34.746092],[128.466497,34.739796],[128.481357,34.739643],[128.481939,34.734873],[128.486205,34.736409],[128.489161,34.732654],[128.492948,34.735064],[128.49582,34.731324],[128.501668,34.738024],[128.504576,34.73189],[128.514318,34.734315],[128.504527,34.741003],[128.502907,34.739469],[128.494297,34.750146]]]}}
