{"type":"Feature","properties":{"ALL_Uniq":281270,"name":"Deokjeokdo","Area_Geode":22.2408586918,"Plate":"Amur"},"geometry":{"type":"Polygon","coordinates":[[[126.10481,37.274262],[126.1001,37.271784],[126.102131,37.265766],[126.096553,37.259318],[126.095929,37.253104],[126.089535,37.247392],[126.092685,37.23124],[126.08478,37.221771],[126.091057,37.222052],[126.096642,37.230021],[126.102258,37.229772],[126.104562,37.226747],[126.099809,37.222324],[126.112921,37.220264],[126.115068,37.216456],[126.11026,37.213844],[126.112493,37.211279],[126.137963,37.211469],[126.141109,37.214928],[126.148463,37.214778],[126.144285,37.219112],[126.145096,37.223798],[126.153258,37.222294],[126.155658,37.227588],[126.165444,37.230944],[126.151907,37.238645],[126.142996,37.238477],[126.144993,37.242646],[126.130811,37.247382],[126.128397,37.251599],[126.117666,37.24844],[126.118551,37.257215],[126.111963,37.257905],[126.110215,37.271713],[126.10481,37.274262]]]}}
