{"type":"Feature","properties":{"ALL_Uniq":281393,"name":"Insel Baltrum","Area_Geode":7.18975790417,"Plate":"Eurasia"},"geometry":{"type":"Polygon","coordinates":[[[7.396306,53.736164],[7.375162,53.732609],[7.374031,53.728907],[7.361141,53.728832],[7.358889,53.725839],[7.362188,53.720859],[7.365008,53.724297],[7.367416,53.722771],[7.364618,53.721143],[7.374146,53.718669],[7.374354,53.721288],[7.381544,53.721849],[7.380516,53.719798],[7.40105,53.720455],[7.399429,53.718954],[7.39365,53.718286],[7.406623,53.716756],[7.409915,53.719718],[7.429681,53.718457],[7.432635,53.721696],[7.430646,53.726426],[7.438354,53.728315],[7.43716,53.730993],[7.429227,53.731494],[7.433005,53.732637],[7.396306,53.736164]]]}}
