{"type":"Feature","properties":{"ALL_Uniq":281372,"name":"Yuri-tō","Area_Geode":9.81583589953,"Plate":"Okhotsk"},"geometry":{"type":"Polygon","coordinates":[[[146.098499,43.4481],[146.082873,43.439666],[146.08209,43.437338],[146.088432,43.433355],[146.086765,43.425534],[146.077404,43.427064],[146.071332,43.423346],[146.068232,43.429396],[146.071398,43.433192],[146.063637,43.433788],[146.060963,43.432879],[146.063324,43.424724],[146.056911,43.422509],[146.052564,43.429452],[146.047137,43.431367],[146.046384,43.427713],[146.039207,43.424039],[146.038544,43.418711],[146.031731,43.417107],[146.027603,43.419484],[146.024925,43.408812],[146.034702,43.407086],[146.042131,43.401769],[146.061902,43.417059],[146.07627,43.418719],[146.081622,43.416534],[146.080641,43.413601],[146.085425,43.414747],[146.085034,43.41947],[146.091627,43.42338],[146.089829,43.426083],[146.093606,43.431022],[146.107242,43.432247],[146.106286,43.435846],[146.109143,43.437783],[146.101699,43.439847],[146.101346,43.446354],[146.098499,43.4481]]]}}
