{"type":"Feature","properties":{"ALL_Uniq":281486,"name":"Suur-Pakri Saar","Area_Geode":13.1004925002,"Plate":"Eurasia"},"geometry":{"type":"Polygon","coordinates":[[[23.906842,59.350797],[23.876551,59.346551],[23.861047,59.347693],[23.875299,59.337755],[23.878369,59.332268],[23.918051,59.310043],[23.92066,59.304521],[23.937857,59.300667],[23.950161,59.30635],[23.952097,59.310247],[23.948678,59.311835],[23.945908,59.322665],[23.932124,59.332941],[23.929151,59.330333],[23.913085,59.338632],[23.932688,59.336238],[23.932369,59.338635],[23.923703,59.338984],[23.921077,59.345871],[23.906842,59.350797]]]}}
