{"type":"Feature","properties":{"ALL_Uniq":281580,"name":"Pikku Nauvo","Area_Geode":43.9335317213,"Plate":"Eurasia"},"geometry":{"type":"Polygon","coordinates":[[[22.049635,60.217172],[22.040977,60.210175],[22.042167,60.207581],[22.037506,60.209083],[22.037851,60.206778],[22.018596,60.197569],[22.007878,60.202124],[21.96929,60.198824],[21.966379,60.194082],[21.956393,60.19427],[21.954939,60.192527],[21.969675,60.190089],[21.958215,60.190466],[21.952548,60.184746],[21.960781,60.179682],[21.955224,60.178544],[21.95913,60.176009],[21.951118,60.177047],[21.942906,60.173783],[21.93798,60.167218],[21.956721,60.159845],[21.96103,60.162428],[21.959118,60.155248],[21.952554,60.152975],[21.965108,60.151325],[21.958268,60.148266],[21.973658,60.148812],[21.975496,60.154664],[21.981091,60.157367],[21.980712,60.153435],[21.976263,60.152904],[21.982628,60.15268],[21.977632,60.148016],[21.988544,60.144993],[21.990979,60.145936],[21.984901,60.152181],[21.990449,60.154298],[21.97894,60.165619],[21.996834,60.164894],[21.997928,60.161716],[21.991076,60.157803],[21.993435,60.154726],[21.991632,60.152343],[21.999575,60.150293],[21.995728,60.146924],[22.0079,60.146092],[21.98259,60.142805],[21.976005,60.136438],[21.996479,60.132061],[22.021098,60.132372],[22.010736,60.135978],[22.020752,60.136131],[22.034058,60.143617],[22.043517,60.145188],[22.034059,60.145289],[22.030838,60.148225],[22.023937,60.144749],[22.008609,60.147617],[22.028569,60.149333],[22.038583,60.15546],[22.057275,60.157791],[22.045053,60.165159],[22.052234,60.162534],[22.054534,60.165448],[22.064925,60.163588],[22.069144,60.165875],[22.063855,60.167989],[22.067223,60.178338],[22.039114,60.188328],[22.060306,60.188911],[22.063072,60.18464],[22.063368,60.1878],[22.077347,60.18868],[22.08682,60.194805],[22.105221,60.197887],[22.107158,60.20167],[22.103991,60.203593],[22.105206,60.206673],[22.101583,60.207589],[22.104736,60.211054],[22.101134,60.214211],[22.083527,60.207044],[22.096378,60.220628],[22.049635,60.217172]]]}}
