{"type":"Feature","properties":{"ALL_Uniq":281634,"name":"Andersö","Area_Geode":5.08777440799,"Plate":"Eurasia"},"geometry":{"type":"Polygon","coordinates":[[[19.764724,60.375956],[19.737371,60.370511],[19.728674,60.364231],[19.728632,60.359227],[19.736831,60.352027],[19.739114,60.353231],[19.738158,60.358946],[19.7481,60.364565],[19.755722,60.361068],[19.744377,60.360271],[19.742406,60.356672],[19.752663,60.350428],[19.758342,60.353019],[19.767636,60.347847],[19.766392,60.339155],[19.771201,60.335526],[19.774891,60.338008],[19.776295,60.344929],[19.771545,60.347596],[19.775425,60.349088],[19.780085,60.357908],[19.768363,60.356592],[19.766548,60.362403],[19.756212,60.365196],[19.767069,60.371136],[19.764724,60.375956]]]}}
