{"type":"Feature","properties":{"ALL_Uniq":281663,"name":"Luonnonmaa","Area_Geode":29.0171602656,"Plate":"Eurasia"},"geometry":{"type":"Polygon","coordinates":[[[21.922371,60.484114],[21.928273,60.460163],[21.931119,60.457363],[21.938698,60.45782],[21.934996,60.454347],[21.941394,60.449387],[21.939636,60.447726],[21.982853,60.437852],[21.980559,60.431052],[21.984144,60.427463],[21.990957,60.427872],[21.984624,60.426178],[21.991692,60.422349],[22.017197,60.420441],[22.028968,60.426881],[22.02776,60.4237],[22.033098,60.420717],[22.066569,60.425564],[22.067634,60.43382],[22.07318,60.440751],[22.065476,60.446022],[22.062314,60.443596],[22.052329,60.445972],[22.049842,60.444847],[22.051612,60.44198],[22.028393,60.442822],[22.03765,60.44947],[22.026743,60.458907],[22.003819,60.463311],[21.997311,60.469705],[21.987923,60.467087],[21.978709,60.475364],[21.922371,60.484114]]]}}
