{"type":"Feature","properties":{"ALL_Uniq":281662,"name":"Palva","Area_Geode":3.42349877115,"Plate":"Eurasia"},"geometry":{"type":"Polygon","coordinates":[[[21.644896,60.480172],[21.641029,60.478026],[21.644686,60.476598],[21.64238,60.474921],[21.649501,60.470866],[21.640233,60.469107],[21.643316,60.46441],[21.638325,60.465251],[21.651153,60.460246],[21.645068,60.458357],[21.651117,60.455924],[21.648291,60.454715],[21.65362,60.453564],[21.652887,60.459137],[21.664211,60.460332],[21.667556,60.463518],[21.673506,60.460963],[21.675423,60.469549],[21.669875,60.473005],[21.669176,60.477205],[21.644896,60.480172]]]}}
