{"type":"Feature","properties":{"ALL_Uniq":281765,"name":"Ostrov Mednyy","Area_Geode":217.647149555,"Plate":"Okhotsk"},"geometry":{"type":"Polygon","coordinates":[[[167.438539,54.867928],[167.440621,54.865608],[167.437647,54.861979],[167.44306,54.860849],[167.443774,54.854543],[167.451458,54.844609],[167.443165,54.837194],[167.457713,54.827403],[167.455724,54.824409],[167.44811,54.823767],[167.453901,54.819973],[167.451627,54.818506],[167.494546,54.795944],[167.498686,54.796324],[167.496639,54.791232],[167.503895,54.785359],[167.523428,54.778202],[167.52248,54.773499],[167.526657,54.773059],[167.528145,54.769185],[167.546818,54.763681],[167.548586,54.758709],[167.559944,54.751128],[167.577002,54.752628],[167.57975,54.750432],[167.578005,54.74736],[167.592061,54.74113],[167.605139,54.73733],[167.613971,54.73832],[167.612761,54.734425],[167.621505,54.728066],[167.620267,54.723943],[167.636809,54.716345],[167.656528,54.716222],[167.668887,54.707992],[167.681835,54.704934],[167.700353,54.688338],[167.70776,54.687362],[167.708018,54.682961],[167.70223,54.681351],[167.711567,54.680096],[167.713209,54.672315],[167.737194,54.661821],[167.753113,54.650043],[167.77065,54.648144],[167.789028,54.651049],[167.856191,54.626501],[167.873477,54.617586],[167.881453,54.607489],[167.916456,54.597605],[167.918954,54.592608],[167.927401,54.589633],[167.937395,54.575832],[167.937395,54.565125],[167.958537,54.561575],[167.965008,54.554941],[168.021402,54.539866],[168.046637,54.521266],[168.055401,54.51868],[168.059721,54.511254],[168.082293,54.50339],[168.087817,54.497091],[168.101637,54.498747],[168.101923,54.502117],[168.089302,54.516965],[168.069372,54.526159],[168.045558,54.529414],[168.033052,54.535182],[168.006725,54.558465],[167.993762,54.578526],[167.988223,54.580468],[167.978629,54.578183],[167.965437,54.582352],[167.957889,54.596002],[167.934772,54.609397],[167.935225,54.612678],[167.931597,54.613165],[167.925033,54.625102],[167.926962,54.632379],[167.93606,54.63455],[167.932383,54.639123],[167.938761,54.645184],[167.934622,54.653986],[167.927338,54.648693],[167.907978,54.648089],[167.900258,54.643273],[167.877466,54.644923],[167.875119,54.651279],[167.864219,54.653832],[167.867367,54.661257],[167.863785,54.667701],[167.857739,54.668396],[167.85304,54.677971],[167.833166,54.690256],[167.831325,54.69276],[167.833515,54.695511],[167.822444,54.687756],[167.804127,54.682914],[167.783342,54.68215],[167.769957,54.691992],[167.762599,54.691305],[167.76386,54.693833],[167.755381,54.69848],[167.758118,54.704012],[167.752764,54.709961],[167.755024,54.711805],[167.748243,54.714482],[167.743068,54.722393],[167.750384,54.725665],[167.749671,54.729591],[167.755679,54.736967],[167.751634,54.738693],[167.740807,54.732982],[167.734204,54.734469],[167.737238,54.741191],[167.733001,54.747781],[167.734983,54.750181],[167.730496,54.750702],[167.730375,54.761552],[167.704819,54.762766],[167.686831,54.753343],[167.676,54.754576],[167.677853,54.756102],[167.672363,54.758896],[167.671811,54.763151],[167.680977,54.770689],[167.689186,54.771831],[167.674209,54.771367],[167.678549,54.782285],[167.66327,54.781817],[167.648314,54.785912],[167.649864,54.788343],[167.647632,54.788792],[167.633842,54.78605],[167.628776,54.782087],[167.621955,54.787139],[167.616124,54.785308],[167.6172,54.787076],[167.609608,54.790901],[167.600951,54.79126],[167.601671,54.793628],[167.598778,54.790701],[167.59775,54.793868],[167.59678,54.791507],[167.590028,54.79388],[167.580959,54.79041],[167.579301,54.79363],[167.565713,54.792591],[167.566041,54.796234],[167.559424,54.795052],[167.558622,54.798191],[167.553869,54.795518],[167.554309,54.798464],[167.549414,54.796337],[167.540329,54.799075],[167.536703,54.803662],[167.539214,54.808641],[167.541998,54.81112],[167.556015,54.811359],[167.565038,54.825121],[167.528782,54.834844],[167.517887,54.843356],[167.519269,54.848858],[167.507179,54.846525],[167.497262,54.852317],[167.489326,54.851932],[167.480841,54.85879],[167.476401,54.858651],[167.468818,54.867095],[167.438539,54.867928]]]}}
