{"type":"Feature","properties":{"ALL_Uniq":281788,"name":"Ostrov Ulakhan-Mekchirge-Aryta","Area_Geode":70.7119345694,"Plate":"Eurasia"},"geometry":{"type":"Polygon","coordinates":[[[128.139016,72.712873],[128.097514,72.701554],[128.027445,72.692122],[127.996184,72.690235],[128.001035,72.692391],[127.992411,72.692661],[127.968156,72.68781],[127.967348,72.688888],[127.977858,72.6932],[127.959263,72.690774],[127.931775,72.68242],[127.938781,72.681881],[127.912101,72.678108],[127.879493,72.665981],[127.874911,72.6614],[127.881649,72.654123],[127.891081,72.652776],[127.970582,72.653315],[128.002113,72.648464],[128.074876,72.65062],[128.112066,72.638762],[128.133357,72.639571],[128.144675,72.644152],[128.134704,72.646038],[128.139555,72.647655],[128.181596,72.647925],[128.202347,72.651159],[128.202078,72.653315],[128.137129,72.657357],[128.175667,72.657627],[128.215822,72.653584],[128.242771,72.655471],[128.246005,72.657627],[128.240615,72.6614],[128.242232,72.665172],[128.283734,72.682959],[128.309875,72.688888],[128.321194,72.694547],[128.311762,72.703171],[128.315535,72.706944],[128.27538,72.7091],[128.132548,72.692661],[128.134434,72.694278],[128.2169,72.708022],[128.182135,72.711526],[128.184021,72.713412],[128.177823,72.716646],[128.173511,72.714759],[128.173511,72.717185],[128.139016,72.712873]]]}}
