{"type":"Feature","properties":{"ALL_Uniq":281722,"name":"Ostrov Chekaminskiy","Area_Geode":92.7292115799,"Plate":"Eurasia"},"geometry":{"type":"Polygon","coordinates":[[[40.312553,64.768437],[40.288938,64.764263],[40.286796,64.767832],[40.271092,64.767546],[40.27823,64.763121],[40.258243,64.763834],[40.252961,64.759409],[40.23506,64.762771],[40.198485,64.753894],[40.176433,64.756075],[40.17307,64.759814],[40.171734,64.755866],[40.174325,64.755373],[40.170338,64.7544],[40.173264,64.752454],[40.170071,64.751748],[40.10432,64.748201],[40.113587,64.742078],[40.131774,64.737738],[40.172779,64.739048],[40.1561,64.737041],[40.171488,64.733917],[40.166843,64.732686],[40.170785,64.731282],[40.217835,64.724216],[40.233,64.71854],[40.253938,64.701139],[40.290967,64.681036],[40.298575,64.665307],[40.298137,64.650476],[40.309241,64.640209],[40.347396,64.635831],[40.356686,64.633648],[40.356563,64.632357],[40.352548,64.632758],[40.355657,64.631301],[40.389413,64.62563],[40.410922,64.627568],[40.398884,64.655444],[40.400195,64.672981],[40.396647,64.681536],[40.385724,64.684164],[40.379308,64.692128],[40.386252,64.679042],[40.370339,64.700387],[40.367047,64.711876],[40.369671,64.726339],[40.357688,64.729442],[40.344492,64.73862],[40.348447,64.742283],[40.347252,64.754645],[40.324327,64.759045],[40.319535,64.765928],[40.312553,64.768437]]]}}
