{"type":"Feature","properties":{"ALL_Uniq":281821,"name":"Ostrov Bezymyannyy","Area_Geode":18.3844069527,"Plate":"Eurasia"},"geometry":{"type":"Polygon","coordinates":[[[112.640543,76.449583],[112.641632,76.442132],[112.655579,76.437888],[112.661731,76.433325],[112.66368,76.426317],[112.660617,76.421613],[112.640864,76.415555],[112.628811,76.405431],[112.576375,76.400817],[112.582762,76.405578],[112.561899,76.415083],[112.548763,76.413952],[112.537131,76.401377],[112.52505,76.399723],[112.523897,76.402415],[112.515245,76.399577],[112.519405,76.400491],[112.518834,76.397894],[112.52432,76.396491],[112.626137,76.395347],[112.641539,76.388334],[112.641432,76.384931],[112.654867,76.373052],[112.683123,76.373058],[112.719925,76.382511],[112.720056,76.403325],[112.73184,76.422219],[112.729959,76.428186],[112.680866,76.437748],[112.662165,76.448205],[112.640543,76.449583]]]}}
