{"type":"Feature","properties":{"ALL_Uniq":282264,"name":"Oyarvide","Area_Geode":18.7344721087,"Plate":"South America"},"geometry":{"type":"Polygon","coordinates":[[[-58.313214,-34.187032],[-58.322913,-34.191951],[-58.330172,-34.204379],[-58.330486,-34.235028],[-58.329018,-34.238704],[-58.326685,-34.237971],[-58.320563,-34.239016],[-58.318964,-34.233975],[-58.31731,-34.236235],[-58.318429,-34.238678],[-58.322118,-34.239559],[-58.326931,-34.238485],[-58.328522,-34.239496],[-58.317034,-34.244926],[-58.314368,-34.240983],[-58.311368,-34.246026],[-58.308164,-34.235109],[-58.312244,-34.238451],[-58.319064,-34.231501],[-58.314843,-34.229866],[-58.310325,-34.231249],[-58.31049,-34.234625],[-58.307107,-34.233022],[-58.309928,-34.227524],[-58.301843,-34.219901],[-58.30185,-34.230844],[-58.296168,-34.237379],[-58.293615,-34.23456],[-58.297789,-34.234243],[-58.292232,-34.23231],[-58.295385,-34.229681],[-58.286089,-34.227623],[-58.282277,-34.211497],[-58.286903,-34.203519],[-58.313214,-34.187032]]]}}
