{"type":"Feature","properties":{"ALL_Uniq":282488,"name":"Motu Mahuta","Area_Geode":18.118812303,"Plate":"Pacific"},"geometry":{"type":"Polygon","coordinates":[[[-147.841557,-14.915988],[-147.851695,-14.918534],[-147.858982,-14.936658],[-147.860977,-14.951999],[-147.867973,-14.967924],[-147.885935,-14.993513],[-147.884742,-14.996505],[-147.865823,-14.977903],[-147.857686,-14.958647],[-147.858394,-14.949455],[-147.85267,-14.950171],[-147.850163,-14.94658],[-147.852796,-14.944738],[-147.846145,-14.92959],[-147.850341,-14.927701],[-147.846403,-14.928839],[-147.837002,-14.920861],[-147.831063,-14.923543],[-147.826274,-14.921169],[-147.824547,-14.924321],[-147.822814,-14.921668],[-147.820289,-14.92512],[-147.792362,-14.930021],[-147.782017,-14.93617],[-147.744686,-14.941308],[-147.727756,-14.94052],[-147.712973,-14.945996],[-147.717447,-14.934341],[-147.780932,-14.93036],[-147.798821,-14.921399],[-147.841557,-14.915988]]]}}
