{"type":"Feature","properties":{"ALL_Uniq":282406,"name":"Katiu","Area_Geode":6.64532317549,"Plate":"Pacific"},"geometry":{"type":"Polygon","coordinates":[[[-144.351877,-16.36695],[-144.352278,-16.370108],[-144.330885,-16.3791],[-144.321864,-16.39137],[-144.285324,-16.423622],[-144.275225,-16.441277],[-144.270765,-16.442207],[-144.257862,-16.455108],[-144.246982,-16.475143],[-144.251347,-16.48675],[-144.257699,-16.489353],[-144.258226,-16.493544],[-144.249708,-16.489192],[-144.244028,-16.475816],[-144.253493,-16.455471],[-144.329268,-16.376405],[-144.351877,-16.36695]]]}}
