{"type":"Feature","properties":{"ALL_Uniq":283396,"name":"Mono","Area_Geode":67.0031176339,"Plate":"Banda Sea"},"geometry":{"type":"Polygon","coordinates":[[[155.573624,-7.329441],[155.54297,-7.332457],[155.520262,-7.348636],[155.51266,-7.364884],[155.518352,-7.38944],[155.547477,-7.39708],[155.571487,-7.395764],[155.574912,-7.399782],[155.594781,-7.389737],[155.625244,-7.366556],[155.615164,-7.365257],[155.61149,-7.355928],[155.599505,-7.345807],[155.60293,-7.339939],[155.597207,-7.33329],[155.573624,-7.329441]]]}}
