{"type":"Feature","properties":{"ALL_Uniq":283338,"name":"Paptura Faa","Area_Geode":8.46720815037,"Plate":"Sunda"},"geometry":{"type":"Polygon","coordinates":[[[158.717569,-7.541526],[158.714011,-7.546469],[158.725936,-7.572767],[158.73089,-7.572588],[158.737896,-7.578703],[158.741399,-7.578402],[158.740256,-7.57522],[158.749697,-7.577956],[158.756026,-7.585734],[158.753539,-7.577718],[158.747423,-7.572817],[158.755124,-7.570979],[158.750713,-7.571902],[158.750298,-7.567213],[158.737847,-7.552637],[158.733028,-7.552295],[158.722778,-7.542947],[158.719706,-7.546575],[158.717569,-7.541526]]]}}
