{"type":"Feature","properties":{"ALL_Uniq":283579,"name":"Silhouette","Area_Geode":20.1683499404,"Plate":"Sunda"},"geometry":{"type":"Polygon","coordinates":[[[55.229729,-4.463515],[55.214668,-4.465873],[55.208752,-4.470498],[55.20559,-4.479692],[55.207442,-4.486315],[55.224969,-4.501976],[55.22512,-4.509602],[55.238015,-4.51269],[55.245782,-4.510367],[55.25028,-4.498946],[55.254249,-4.497523],[55.25536,-4.484633],[55.25005,-4.482007],[55.250496,-4.475871],[55.245378,-4.469331],[55.229729,-4.463515]]]}}
