{"type":"Feature","properties":{"ALL_Uniq":283661,"name":"Dyaul","Area_Geode":110.737349638,"Plate":"Sunda"},"geometry":{"type":"Polygon","coordinates":[[[150.881965,-2.903019],[150.879521,-2.904863],[150.880461,-2.912651],[150.876841,-2.906787],[150.873451,-2.911308],[150.869844,-2.90929],[150.868815,-2.913753],[150.86607,-2.913116],[150.866117,-2.906254],[150.857179,-2.910648],[150.841344,-2.92594],[150.840618,-2.929864],[150.83671,-2.929727],[150.83546,-2.934221],[150.811663,-2.933788],[150.811254,-2.94227],[150.806076,-2.947691],[150.797637,-2.948595],[150.797814,-2.955426],[150.794015,-2.958706],[150.792915,-2.955842],[150.788451,-2.959945],[150.791205,-2.950719],[150.772858,-2.952645],[150.763694,-2.96478],[150.764338,-2.969536],[150.744793,-2.982057],[150.745104,-2.985387],[150.748605,-2.99051],[150.755283,-2.992185],[150.776361,-2.976637],[150.780473,-2.977605],[150.789361,-2.972027],[150.799871,-2.979469],[150.809909,-2.970297],[150.808491,-2.967712],[150.825756,-2.969517],[150.821764,-2.964243],[150.811351,-2.961833],[150.814904,-2.955887],[150.817967,-2.958486],[150.820892,-2.950753],[150.820827,-2.956557],[150.825003,-2.956151],[150.830045,-2.963595],[150.843493,-2.958275],[150.841551,-2.961887],[150.847196,-2.967376],[150.851273,-2.960477],[150.859707,-2.962062],[150.856667,-2.965702],[150.860566,-2.967071],[150.85128,-2.96882],[150.852815,-2.971974],[150.863755,-2.971674],[150.866061,-2.966882],[150.872624,-2.974098],[150.884979,-2.974114],[150.892411,-2.971886],[150.895038,-2.964464],[150.874734,-2.965603],[150.879755,-2.963103],[150.89582,-2.962593],[150.900587,-2.977109],[150.919649,-2.972248],[150.929452,-2.97708],[150.961417,-2.964435],[150.967318,-2.968879],[150.966897,-2.978657],[150.982124,-2.978447],[150.992936,-2.97593],[150.992202,-2.970765],[150.995512,-2.96718],[151.003945,-2.966257],[151.005313,-2.961801],[150.994405,-2.957468],[150.959084,-2.957898],[150.957033,-2.942964],[150.949883,-2.941968],[150.937645,-2.925969],[150.933803,-2.927204],[150.91813,-2.918106],[150.916574,-2.921797],[150.902001,-2.917231],[150.906594,-2.915187],[150.91589,-2.918581],[150.907894,-2.91192],[150.899034,-2.915086],[150.89318,-2.908184],[150.884753,-2.906729],[150.881965,-2.903019]]]}}
