{"type":"Feature","properties":{"ALL_Uniq":283843,"name":"Hithadhoo","Area_Geode":5.19017700383,"Plate":"Sunda"},"geometry":{"type":"Polygon","coordinates":[[[73.090198,-0.578745],[73.076421,-0.583814],[73.076516,-0.588882],[73.081298,-0.582148],[73.076302,-0.590881],[73.109257,-0.653056],[73.100977,-0.63314],[73.102428,-0.625645],[73.099644,-0.624883],[73.098716,-0.615413],[73.092662,-0.60562],[73.095218,-0.606276],[73.081489,-0.591809],[73.082916,-0.58536],[73.087104,-0.586836],[73.084701,-0.580887],[73.090198,-0.578745]]]}}
