{"type":"Feature","properties":{"ALL_Uniq":283997,"name":"Hutan Pulau Ketam","Area_Geode":25.2464766734,"Plate":"Sunda"},"geometry":{"type":"Polygon","coordinates":[[[101.259699,3.060385],[101.241376,3.053029],[101.229654,3.038604],[101.223863,3.036311],[101.225627,3.034385],[101.209012,3.012548],[101.209258,3.003611],[101.221495,3.006263],[101.238429,3.016368],[101.256535,3.018656],[101.276825,3.033826],[101.280581,3.042684],[101.278415,3.046561],[101.269254,3.058151],[101.259699,3.060385]]]}}
