{"type":"Feature","properties":{"ALL_Uniq":284057,"name":"Bait","Area_Geode":10.6003995446,"Plate":"Pacific"},"geometry":{"type":"Polygon","coordinates":[[[118.580399,4.579259],[118.573059,4.572597],[118.575435,4.570978],[118.575383,4.561011],[118.571074,4.565446],[118.566905,4.564906],[118.555921,4.555866],[118.522985,4.542258],[118.520826,4.534318],[118.528031,4.53209],[118.558635,4.539681],[118.559512,4.543822],[118.555561,4.548395],[118.563515,4.550925],[118.577579,4.548889],[118.582191,4.573921],[118.580399,4.579259]]]}}
