{"type":"Feature","properties":{"ALL_Uniq":284116,"name":"Topaan","Area_Geode":42.2867075462,"Plate":"Sunda"},"geometry":{"type":"Polygon","coordinates":[[[120.269849,5.256496],[120.258231,5.245858],[120.256812,5.216797],[120.241771,5.190978],[120.247603,5.191885],[120.256569,5.199359],[120.246938,5.189047],[120.244238,5.179751],[120.249429,5.179185],[120.267431,5.187479],[120.267377,5.174752],[120.272407,5.171333],[120.281711,5.181773],[120.286223,5.180239],[120.301239,5.185415],[120.300605,5.188556],[120.311473,5.198354],[120.310541,5.201153],[120.316052,5.201853],[120.318815,5.206576],[120.31546,5.211714],[120.310662,5.210656],[120.307855,5.203211],[120.310403,5.21243],[120.306893,5.223272],[120.29984,5.230831],[120.296803,5.228816],[120.291503,5.238134],[120.283014,5.24231],[120.269849,5.256496]]]}}
