{"type":"Feature","properties":{"ALL_Uniq":284176,"name":"Pata","Area_Geode":47.3360589487,"Plate":"Sunda"},"geometry":{"type":"Polygon","coordinates":[[[121.146644,5.849645],[121.140555,5.842788],[121.142091,5.837981],[121.137865,5.834159],[121.137749,5.827624],[121.134143,5.825904],[121.130823,5.812471],[121.13865,5.788028],[121.15109,5.779648],[121.159133,5.778258],[121.185711,5.788001],[121.185602,5.792161],[121.190464,5.794873],[121.186331,5.790342],[121.191316,5.79193],[121.191616,5.787432],[121.199774,5.792625],[121.193947,5.790186],[121.198252,5.797529],[121.206441,5.800366],[121.207862,5.808126],[121.196846,5.829155],[121.196743,5.831295],[121.200514,5.828652],[121.203474,5.830277],[121.203009,5.835544],[121.196768,5.837503],[121.196155,5.833251],[121.182907,5.840033],[121.182423,5.842867],[121.177888,5.841859],[121.169087,5.846132],[121.154174,5.843476],[121.152821,5.849024],[121.146644,5.849645]]]}}
