{"type":"Feature","properties":{"ALL_Uniq":284393,"name":"Caballo","Area_Geode":1.65933098687,"Plate":"North America"},"geometry":{"type":"Polygon","coordinates":[[[-97.304194,26.29852],[-97.31497,26.295829],[-97.313858,26.293427],[-97.303829,26.297176],[-97.302927,26.295173],[-97.313312,26.285926],[-97.315842,26.287136],[-97.314343,26.28512],[-97.322142,26.27921],[-97.323866,26.281815],[-97.327927,26.280423],[-97.329561,26.275424],[-97.317072,26.280811],[-97.309271,26.288801],[-97.301946,26.286443],[-97.298647,26.294582],[-97.304194,26.29852]]]}}
