{"type":"Feature","properties":{"ALL_Uniq":284515,"name":"Orinoco Delta","Area_Geode":22.2690668552,"Plate":"Africa"},"geometry":{"type":"Polygon","coordinates":[[[-60.723788,8.860185],[-60.722549,8.855238],[-60.725606,8.853211],[-60.742876,8.852848],[-60.762042,8.841013],[-60.785745,8.81459],[-60.789547,8.799622],[-60.775789,8.800909],[-60.765461,8.815144],[-60.748247,8.819525],[-60.716953,8.834866],[-60.715555,8.837679],[-60.723791,8.84876],[-60.712533,8.845632],[-60.70855,8.85142],[-60.715048,8.859293],[-60.72094,8.857769],[-60.723788,8.860185]]]}}
