{"type":"Feature","properties":{"ALL_Uniq":284652,"name":"Canouan","Area_Geode":7.62317947239,"Plate":"Africa"},"geometry":{"type":"Polygon","coordinates":[[[-61.330965,12.73902],[-61.334258,12.726043],[-61.328929,12.721097],[-61.3268,12.705665],[-61.332715,12.702096],[-61.33684,12.704752],[-61.341138,12.699664],[-61.351885,12.70525],[-61.35441,12.703614],[-61.342708,12.692413],[-61.333824,12.69747],[-61.327029,12.694103],[-61.322975,12.69932],[-61.322346,12.717646],[-61.308151,12.719247],[-61.31248,12.737558],[-61.321741,12.731466],[-61.330965,12.73902]]]}}
