{"type":"Feature","properties":{"ALL_Uniq":284797,"name":"Cayos Boca de Alonso","Area_Geode":12.0817423385,"Plate":"North America"},"geometry":{"type":"Polygon","coordinates":[[[-82.502623,21.718505],[-82.506744,21.709699],[-82.505099,21.711252],[-82.498583,21.705662],[-82.490748,21.70772],[-82.488397,21.700008],[-82.487715,21.703877],[-82.488789,21.708867],[-82.486947,21.704427],[-82.48688,21.702499],[-82.484404,21.708845],[-82.477604,21.699969],[-82.477918,21.705603],[-82.470377,21.708839],[-82.473402,21.702094],[-82.470125,21.696],[-82.463277,21.699403],[-82.460672,21.696264],[-82.457441,21.698338],[-82.456647,21.694648],[-82.44445,21.693188],[-82.437115,21.68804],[-82.437398,21.683315],[-82.443819,21.677708],[-82.45423,21.673759],[-82.450563,21.672632],[-82.451946,21.668507],[-82.45711,21.673526],[-82.460135,21.672451],[-82.457878,21.66958],[-82.462909,21.668162],[-82.459194,21.665334],[-82.465534,21.664311],[-82.465046,21.659732],[-82.45512,21.657852],[-82.467678,21.658122],[-82.464981,21.653688],[-82.454343,21.654753],[-82.451265,21.664592],[-82.441731,21.670904],[-82.427387,21.689871],[-82.430438,21.687371],[-82.43543,21.69086],[-82.430874,21.694824],[-82.427209,21.69112],[-82.427956,21.694511],[-82.435572,21.695703],[-82.444726,21.702627],[-82.453902,21.703246],[-82.461703,21.709369],[-82.461741,21.707009],[-82.463311,21.709635],[-82.466026,21.70837],[-82.470048,21.71421],[-82.478208,21.715534],[-82.479983,21.708891],[-82.479677,21.712592],[-82.48333,21.711626],[-82.488647,21.717446],[-82.492226,21.71553],[-82.491309,21.712986],[-82.494843,21.718033],[-82.499165,21.713512],[-82.502623,21.718505]]]}}
