{"type":"Feature","properties":{"ALL_Uniq":284795,"name":"Cayo San Juan","Area_Geode":2.03074647215,"Plate":"North America"},"geometry":{"type":"Polygon","coordinates":[[[-82.510249,21.709142],[-82.525904,21.702862],[-82.527187,21.698665],[-82.533757,21.699027],[-82.528617,21.696736],[-82.52132,21.699681],[-82.511427,21.694045],[-82.509101,21.70049],[-82.511394,21.699796],[-82.511871,21.703184],[-82.514031,21.70054],[-82.518137,21.702156],[-82.510468,21.70672],[-82.506519,21.697054],[-82.500402,21.696836],[-82.510249,21.709142]]]}}
