{"type":"Feature","properties":{"ALL_Uniq":284847,"name":"Cayos Dromedarios","Area_Geode":9.79151835028,"Plate":"North America"},"geometry":{"type":"Polygon","coordinates":[[[-79.895818,22.963637],[-79.911,22.962484],[-79.915492,22.950229],[-79.913531,22.963266],[-79.92825,22.960599],[-79.933957,22.954284],[-79.929962,22.951317],[-79.93398,22.952045],[-79.932165,22.946746],[-79.936925,22.951314],[-79.933647,22.941873],[-79.929072,22.935683],[-79.924407,22.936192],[-79.921064,22.943142],[-79.922869,22.947396],[-79.918944,22.944576],[-79.916086,22.949595],[-79.912329,22.952287],[-79.914645,22.94756],[-79.91644,22.947539],[-79.914796,22.941124],[-79.907538,22.929771],[-79.903337,22.930275],[-79.901237,22.940679],[-79.90997,22.934338],[-79.901175,22.942686],[-79.895901,22.956277],[-79.893364,22.955075],[-79.890947,22.958837],[-79.895818,22.963637]]]}}
