{"type":"Feature","properties":{"ALL_Uniq":284999,"name":"Cape Romaro & Kice","Area_Geode":9.21942554365,"Plate":"North America"},"geometry":{"type":"Polygon","coordinates":[[[-81.715713,25.901868],[-81.688319,25.855111],[-81.68145,25.865217],[-81.682424,25.857047],[-81.678186,25.856236],[-81.685071,25.851293],[-81.685207,25.854724],[-81.687562,25.853938],[-81.679227,25.843722],[-81.670095,25.864123],[-81.671757,25.872752],[-81.678289,25.876873],[-81.679153,25.873397],[-81.682737,25.876043],[-81.696345,25.870985],[-81.690693,25.875208],[-81.680371,25.87922],[-81.695849,25.893285],[-81.699149,25.89161],[-81.693536,25.885058],[-81.70369,25.885833],[-81.700618,25.890318],[-81.710406,25.894197],[-81.715713,25.901868]]]}}
