{"type":"Feature","properties":{"ALL_Uniq":284967,"name":"Everglades National Park","Area_Geode":5.53511503193,"Plate":"North America"},"geometry":{"type":"Polygon","coordinates":[[[-81.133671,25.342737],[-81.143715,25.337517],[-81.151452,25.3255],[-81.147325,25.329772],[-81.122581,25.331949],[-81.112898,25.320677],[-81.105933,25.320882],[-81.105177,25.318225],[-81.104263,25.322208],[-81.102797,25.318759],[-81.096106,25.321244],[-81.099195,25.325186],[-81.102686,25.322589],[-81.100405,25.327239],[-81.106732,25.32928],[-81.1093,25.335647],[-81.114925,25.33435],[-81.119073,25.338644],[-81.133671,25.342737]]]}}
