{"type":"Feature","properties":{"ALL_Uniq":285063,"name":"Anclote Keys","Area_Geode":2.42078368634,"Plate":"North America"},"geometry":{"type":"Polygon","coordinates":[[[-82.848479,28.215281],[-82.852337,28.212179],[-82.85071,28.174643],[-82.847444,28.162034],[-82.841827,28.158411],[-82.84527,28.163437],[-82.840503,28.166029],[-82.847397,28.177333],[-82.850174,28.193774],[-82.84802,28.200525],[-82.850434,28.203492],[-82.847815,28.205714],[-82.850694,28.205656],[-82.846703,28.207818],[-82.850969,28.20829],[-82.839962,28.211592],[-82.848479,28.215281]]]}}
