{"type":"Feature","properties":{"ALL_Uniq":285214,"name":"Biloxi State Wildlife Management Area","Area_Geode":7.98061784649,"Plate":"North America"},"geometry":{"type":"Polygon","coordinates":[[[-89.364098,29.7972],[-89.31639,29.769441],[-89.307364,29.767571],[-89.316825,29.774464],[-89.302912,29.772576],[-89.301971,29.76944],[-89.306364,29.766724],[-89.290644,29.761852],[-89.287131,29.76331],[-89.293812,29.769625],[-89.290922,29.785202],[-89.297425,29.781801],[-89.299683,29.786996],[-89.294209,29.798432],[-89.30457,29.795604],[-89.302456,29.789297],[-89.305377,29.787558],[-89.300858,29.78427],[-89.302035,29.777247],[-89.308015,29.788744],[-89.317459,29.782875],[-89.33082,29.782068],[-89.339881,29.787521],[-89.345421,29.797347],[-89.356922,29.79553],[-89.356957,29.799214],[-89.364098,29.7972]]]}}
