{"type":"Feature","properties":{"ALL_Uniq":285265,"name":"Talbot","Area_Geode":40.2234525133,"Plate":"North America"},"geometry":{"type":"Polygon","coordinates":[[[-81.460057,30.522154],[-81.468175,30.510142],[-81.457204,30.513661],[-81.462629,30.507941],[-81.470361,30.505962],[-81.453464,30.48677],[-81.453608,30.479425],[-81.449915,30.478579],[-81.451984,30.475866],[-81.448573,30.475653],[-81.452461,30.475029],[-81.451855,30.478139],[-81.457128,30.478932],[-81.455472,30.468859],[-81.45375,30.470063],[-81.453026,30.466161],[-81.447639,30.466928],[-81.446198,30.470621],[-81.446457,30.467246],[-81.44987,30.465525],[-81.445333,30.462234],[-81.448788,30.461435],[-81.44679,30.457529],[-81.442682,30.461442],[-81.439699,30.446812],[-81.442195,30.456348],[-81.446581,30.456325],[-81.446587,30.449721],[-81.43511,30.442777],[-81.439824,30.443427],[-81.437364,30.441347],[-81.434323,30.441371],[-81.431813,30.44478],[-81.421991,30.441079],[-81.421935,30.450388],[-81.429383,30.45119],[-81.426469,30.454685],[-81.427924,30.461459],[-81.425636,30.454839],[-81.428556,30.451666],[-81.42192,30.454162],[-81.419175,30.447977],[-81.4202,30.439537],[-81.41594,30.435039],[-81.418924,30.419765],[-81.421832,30.421822],[-81.425761,30.438557],[-81.43871,30.44081],[-81.446324,30.446419],[-81.441577,30.442254],[-81.441605,30.440564],[-81.443662,30.438792],[-81.438638,30.428191],[-81.445168,30.434243],[-81.449037,30.433876],[-81.447932,30.44042],[-81.442681,30.440282],[-81.443274,30.443143],[-81.448469,30.444198],[-81.454932,30.435834],[-81.452754,30.406565],[-81.449678,30.40634],[-81.450633,30.411018],[-81.446994,30.410906],[-81.448459,30.413999],[-81.443487,30.413888],[-81.44806,30.416239],[-81.450971,30.414399],[-81.448168,30.420781],[-81.444251,30.422145],[-81.440803,30.419262],[-81.446793,30.42078],[-81.446556,30.417343],[-81.433736,30.408187],[-81.435683,30.399863],[-81.441273,30.405182],[-81.443555,30.398235],[-81.452254,30.397292],[-81.445641,30.392317],[-81.45252,30.394745],[-81.453062,30.396566],[-81.461135,30.391103],[-81.459732,30.385563],[-81.447795,30.383907],[-81.425033,30.406453],[-81.402687,30.403324],[-81.402757,30.407105],[-81.408729,30.420205],[-81.412946,30.419711],[-81.407428,30.406852],[-81.416124,30.410115],[-81.420232,30.416223],[-81.40543,30.432199],[-81.415191,30.488663],[-81.424158,30.487596],[-81.417017,30.486289],[-81.427712,30.480287],[-81.427322,30.476944],[-81.43094,30.478033],[-81.429913,30.482166],[-81.424353,30.483811],[-81.432063,30.487219],[-81.453095,30.506612],[-81.456603,30.512419],[-81.454006,30.517462],[-81.460057,30.522154]]]}}
