{"type":"Feature","properties":{"ALL_Uniq":285430,"name":"Black and Wire Narrows Marsh","Area_Geode":3.76854688031,"Plate":"North America"},"geometry":{"type":"Polygon","coordinates":[[[-75.400375,37.94693],[-75.407741,37.943693],[-75.404349,37.944471],[-75.403537,37.939815],[-75.414219,37.935308],[-75.402036,37.917615],[-75.398657,37.921183],[-75.401608,37.92434],[-75.40072,37.93291],[-75.39723,37.92626],[-75.388617,37.935337],[-75.382759,37.937078],[-75.389293,37.94396],[-75.397388,37.942165],[-75.400375,37.94693]]]}}
