{"type":"Feature","properties":{"ALL_Uniq":285433,"name":"Smith","Area_Geode":2.92262967171,"Plate":"North America"},"geometry":{"type":"Polygon","coordinates":[[[-76.028794,37.9602],[-76.029785,37.952835],[-76.02557,37.950967],[-76.025062,37.948402],[-76.026632,37.951037],[-76.027644,37.9486],[-76.024717,37.943245],[-76.027587,37.940076],[-76.023888,37.938097],[-76.028341,37.939128],[-76.028513,37.934455],[-76.032231,37.932776],[-76.03028,37.925235],[-76.025896,37.92253],[-76.025677,37.927242],[-76.014715,37.928805],[-76.02252,37.935102],[-76.021873,37.938298],[-76.018557,37.935538],[-76.021455,37.945848],[-76.019966,37.948022],[-76.018629,37.943281],[-76.016111,37.946041],[-76.019289,37.949671],[-76.017464,37.95441],[-76.021604,37.953502],[-76.028794,37.9602]]]}}
