{"type":"Feature","properties":{"ALL_Uniq":285585,"name":"Barren","Area_Geode":3.55553794211,"Plate":"North America"},"geometry":{"type":"Polygon","coordinates":[[[-62.08122,44.948201],[-62.080304,44.943683],[-62.085558,44.944086],[-62.092299,44.93788],[-62.091412,44.935577],[-62.099193,44.940349],[-62.104927,44.939003],[-62.102931,44.937013],[-62.104963,44.93398],[-62.09917,44.931205],[-62.093245,44.933569],[-62.095311,44.929519],[-62.091283,44.925556],[-62.087272,44.929243],[-62.08957,44.934652],[-62.084888,44.934522],[-62.079838,44.939523],[-62.073846,44.938947],[-62.075529,44.933683],[-62.070814,44.935809],[-62.064571,44.933402],[-62.063168,44.938943],[-62.053624,44.942089],[-62.058322,44.94763],[-62.066037,44.948172],[-62.068776,44.943658],[-62.075094,44.943608],[-62.08122,44.948201]]]}}
