{"type":"Feature","properties":{"ALL_Uniq":285563,"name":"Deer Isle","Area_Geode":78.3275863331,"Plate":"North America"},"geometry":{"type":"Polygon","coordinates":[[[-68.682788,44.280934],[-68.677489,44.276151],[-68.67724,44.266767],[-68.692716,44.253398],[-68.698458,44.241547],[-68.697338,44.236258],[-68.679167,44.225644],[-68.68144,44.223617],[-68.676207,44.217082],[-68.684368,44.219501],[-68.682104,44.223992],[-68.704744,44.23457],[-68.711366,44.231215],[-68.707669,44.228459],[-68.710203,44.226536],[-68.717481,44.227882],[-68.714914,44.230126],[-68.717446,44.231309],[-68.7185,44.227908],[-68.732958,44.221069],[-68.717681,44.213215],[-68.719123,44.210901],[-68.710697,44.209742],[-68.716949,44.207353],[-68.71775,44.209739],[-68.722175,44.205375],[-68.711778,44.20652],[-68.713263,44.194278],[-68.711564,44.191226],[-68.70578,44.190714],[-68.718082,44.186529],[-68.720245,44.168073],[-68.713704,44.170705],[-68.71041,44.168615],[-68.703366,44.178376],[-68.706477,44.17929],[-68.69801,44.183035],[-68.703798,44.176557],[-68.70708,44.166035],[-68.695287,44.166389],[-68.693703,44.164023],[-68.704283,44.162297],[-68.708929,44.157571],[-68.699952,44.159064],[-68.696834,44.15517],[-68.682403,44.150955],[-68.68602,44.147596],[-68.679562,44.147253],[-68.678078,44.148782],[-68.682025,44.150781],[-68.679159,44.152353],[-68.675486,44.149175],[-68.668925,44.150782],[-68.669796,44.154221],[-68.646448,44.155901],[-68.640642,44.159148],[-68.638456,44.16524],[-68.646951,44.165638],[-68.646024,44.167979],[-68.65017,44.169296],[-68.644108,44.173036],[-68.651464,44.172638],[-68.650914,44.176844],[-68.643893,44.17767],[-68.641273,44.172664],[-68.629477,44.169642],[-68.619856,44.177537],[-68.627845,44.180304],[-68.613589,44.181881],[-68.618406,44.182953],[-68.618234,44.19246],[-68.628803,44.195497],[-68.634968,44.193365],[-68.633849,44.195442],[-68.638915,44.197635],[-68.643742,44.195085],[-68.637382,44.192628],[-68.646961,44.189165],[-68.629333,44.179911],[-68.64333,44.185722],[-68.64593,44.184924],[-68.643572,44.181814],[-68.648232,44.182599],[-68.648699,44.186535],[-68.659565,44.188532],[-68.649476,44.197259],[-68.663267,44.197411],[-68.65755,44.19968],[-68.66472,44.20163],[-68.662413,44.204901],[-68.656531,44.20172],[-68.652175,44.20291],[-68.657968,44.207141],[-68.657694,44.211911],[-68.66633,44.204141],[-68.668664,44.210515],[-68.680938,44.207987],[-68.675411,44.211433],[-68.674696,44.215645],[-68.67275,44.211459],[-68.650099,44.216744],[-68.655328,44.210461],[-68.654222,44.207151],[-68.640189,44.20706],[-68.636437,44.201764],[-68.630821,44.202763],[-68.625385,44.199549],[-68.620894,44.199901],[-68.620895,44.203121],[-68.627786,44.207119],[-68.628237,44.211092],[-68.618192,44.208185],[-68.611195,44.211909],[-68.596087,44.210344],[-68.598021,44.215095],[-68.605297,44.217044],[-68.610773,44.216457],[-68.610592,44.214118],[-68.646396,44.215526],[-68.629853,44.218478],[-68.62578,44.221977],[-68.629712,44.226081],[-68.621445,44.230405],[-68.628266,44.234033],[-68.635026,44.231384],[-68.632063,44.235338],[-68.623214,44.235891],[-68.605038,44.228983],[-68.606387,44.234499],[-68.614359,44.235234],[-68.607998,44.239766],[-68.609052,44.244152],[-68.619493,44.24868],[-68.624985,44.25849],[-68.630175,44.256713],[-68.645121,44.265551],[-68.654966,44.263173],[-68.657032,44.269553],[-68.662569,44.269675],[-68.670797,44.279234],[-68.682788,44.280934]]]}}
