{"type":"Feature","properties":{"ALL_Uniq":285693,"name":"Yukon Delta","Area_Geode":10.1500333823,"Plate":"North America"},"geometry":{"type":"Polygon","coordinates":[[[-163.558907,63.135848],[-163.577761,63.124052],[-163.572085,63.132276],[-163.597543,63.119331],[-163.613727,63.102228],[-163.602115,63.10213],[-163.590531,63.097337],[-163.572304,63.105745],[-163.589464,63.10128],[-163.569652,63.109951],[-163.565067,63.107557],[-163.534411,63.11379],[-163.528421,63.117321],[-163.528871,63.121726],[-163.5222,63.123849],[-163.529294,63.133914],[-163.529185,63.129395],[-163.539594,63.1342],[-163.558907,63.135848]]]}}
