{"type":"Feature","properties":{"ALL_Uniq":285749,"name":"Whale Head","Area_Geode":2.54909322424,"Plate":"North America"},"geometry":{"type":"Polygon","coordinates":[[[-133.677339,55.882133],[-133.683037,55.879725],[-133.676937,55.875876],[-133.680606,55.874395],[-133.678234,55.871448],[-133.692092,55.868071],[-133.697052,55.862538],[-133.687466,55.86131],[-133.689237,55.858324],[-133.683677,55.857014],[-133.687634,55.854111],[-133.684486,55.851166],[-133.676076,55.854731],[-133.67598,55.864013],[-133.671227,55.864526],[-133.674381,55.867711],[-133.670971,55.869047],[-133.671243,55.875812],[-133.675163,55.876831],[-133.673129,55.879309],[-133.677339,55.882133]]]}}
