{"type":"Feature","properties":{"ALL_Uniq":286029,"name":"Hovgaard","Area_Geode":2.06169339051,"Plate":"North America"},"geometry":{"type":"Polygon","coordinates":[[[-95.67301,68.46942],[-95.683102,68.463257],[-95.698209,68.460744],[-95.709482,68.453584],[-95.71414,68.454615],[-95.712329,68.456197],[-95.71545,68.453777],[-95.722186,68.455934],[-95.743277,68.451449],[-95.735389,68.448662],[-95.723584,68.450252],[-95.721467,68.447589],[-95.702361,68.449483],[-95.679247,68.459851],[-95.685009,68.460025],[-95.684471,68.462093],[-95.673985,68.462375],[-95.676215,68.459893],[-95.673465,68.459741],[-95.661275,68.463531],[-95.658514,68.467132],[-95.676659,68.463809],[-95.667923,68.467119],[-95.67301,68.46942]]]}}
