{"type":"Feature","properties":{"ALL_Uniq":286330,"name":"Polynia","Area_Geode":3.79406885242,"Plate":"North America"},"geometry":{"type":"Polygon","coordinates":[[[-115.845507,77.749998],[-115.860549,77.74721],[-115.858029,77.743591],[-115.835858,77.73602],[-115.765828,77.721658],[-115.76468,77.71914],[-115.769423,77.716384],[-115.752518,77.711699],[-115.761159,77.711751],[-115.710713,77.707684],[-115.70757,77.707778],[-115.711251,77.708577],[-115.706636,77.711456],[-115.692074,77.70716],[-115.673333,77.708861],[-115.69082,77.707705],[-115.677074,77.710736],[-115.69424,77.709845],[-115.714325,77.71337],[-115.724669,77.718976],[-115.743748,77.720933],[-115.75008,77.724354],[-115.745304,77.725647],[-115.751013,77.728121],[-115.764882,77.728252],[-115.758293,77.72601],[-115.78088,77.730627],[-115.822924,77.740865],[-115.845507,77.749998]]]}}
