{"type":"Feature","properties":{"ALL_Uniq":286683,"name":"Tuktuinak","Area_Geode":12.7159113389,"Plate":"North America"},"geometry":{"type":"Polygon","coordinates":[[[-61.266651,56.160138],[-61.287898,56.153888],[-61.293626,56.144045],[-61.292436,56.141336],[-61.286443,56.141064],[-61.310799,56.130573],[-61.292678,56.128316],[-61.286636,56.122719],[-61.259326,56.122406],[-61.249753,56.117254],[-61.252642,56.114255],[-61.249033,56.112727],[-61.242213,56.114671],[-61.236947,56.125059],[-61.226938,56.12162],[-61.216625,56.124391],[-61.222827,56.133409],[-61.236203,56.135732],[-61.234998,56.139367],[-61.261969,56.141076],[-61.267206,56.149635],[-61.264554,56.158251],[-61.266651,56.160138]]]}}
