{"type":"Feature","properties":{"ALL_Uniq":286740,"name":"West Red","Area_Geode":4.13790455656,"Plate":"North America"},"geometry":{"type":"Polygon","coordinates":[[[-61.295494,56.539312],[-61.301215,56.530551],[-61.308392,56.528483],[-61.304242,56.527179],[-61.30477,56.524337],[-61.314858,56.520671],[-61.310149,56.517455],[-61.310817,56.513267],[-61.298214,56.511312],[-61.285853,56.515998],[-61.285153,56.522583],[-61.273091,56.520202],[-61.268636,56.523243],[-61.27091,56.526104],[-61.276255,56.525374],[-61.295494,56.539312]]]}}
