{"type":"Feature","properties":{"ALL_Uniq":287098,"name":"Strathcona","Area_Geode":11.0644952827,"Plate":"North America"},"geometry":{"type":"Polygon","coordinates":[[[-71.484168,63.034523],[-71.489304,63.029565],[-71.485618,63.027073],[-71.494435,63.025486],[-71.483788,63.012986],[-71.469487,63.010058],[-71.473279,63.016181],[-71.453729,63.010535],[-71.416977,63.00729],[-71.411075,63.011069],[-71.401847,63.009109],[-71.402229,63.006512],[-71.396406,63.004081],[-71.387715,63.006486],[-71.36346,63.001374],[-71.357881,63.002893],[-71.377753,63.009591],[-71.377409,63.01209],[-71.369555,63.011923],[-71.366068,63.015326],[-71.386783,63.02123],[-71.448544,63.028317],[-71.454829,63.023608],[-71.451681,63.020369],[-71.453158,63.017872],[-71.462856,63.023762],[-71.461364,63.026515],[-71.464751,63.030718],[-71.484168,63.034523]]]}}
