{"type":"Feature","properties":{"ALL_Uniq":287185,"name":"Lemieux","Area_Geode":3.09191680729,"Plate":"North America"},"geometry":{"type":"Polygon","coordinates":[[[-64.278155,63.684542],[-64.284929,63.681425],[-64.274214,63.669908],[-64.281904,63.665099],[-64.28352,63.660585],[-64.274847,63.659416],[-64.268609,63.650877],[-64.258352,63.651192],[-64.260459,63.654074],[-64.25077,63.652835],[-64.255014,63.657441],[-64.252361,63.65979],[-64.254304,63.662077],[-64.270333,63.664332],[-64.274381,63.661722],[-64.269146,63.666452],[-64.262993,63.664915],[-64.256432,63.672228],[-64.258408,63.675869],[-64.266079,63.67763],[-64.26514,63.67964],[-64.276006,63.680562],[-64.278155,63.684542]]]}}
