{"type":"Feature","properties":{"ALL_Uniq":287251,"name":"Angisorsuaq","Area_Geode":11.4964492137,"Plate":"North America"},"geometry":{"type":"Polygon","coordinates":[[[-51.75215,63.97937],[-51.753689,63.976721],[-51.746473,63.97346],[-51.74989,63.968373],[-51.744652,63.967147],[-51.744623,63.963859],[-51.75957,63.960736],[-51.754337,63.958479],[-51.760713,63.955252],[-51.763373,63.942301],[-51.761598,63.937452],[-51.766554,63.938085],[-51.769909,63.932942],[-51.766203,63.926441],[-51.77015,63.924201],[-51.770157,63.921524],[-51.766181,63.920752],[-51.767701,63.91873],[-51.753336,63.92703],[-51.746533,63.927688],[-51.743556,63.931813],[-51.74358,63.919616],[-51.748028,63.926807],[-51.761777,63.917781],[-51.757074,63.917357],[-51.762077,63.914111],[-51.756579,63.910909],[-51.750618,63.91176],[-51.749988,63.914403],[-51.743836,63.91259],[-51.743634,63.917585],[-51.740946,63.912032],[-51.733328,63.913673],[-51.73533,63.919747],[-51.731992,63.919444],[-51.731852,63.916111],[-51.729567,63.917735],[-51.729438,63.928576],[-51.725203,63.92942],[-51.728323,63.930629],[-51.730241,63.938813],[-51.725477,63.93546],[-51.71958,63.938258],[-51.722684,63.941498],[-51.722791,63.959562],[-51.726992,63.960086],[-51.723655,63.968284],[-51.73015,63.974194],[-51.75215,63.97937]]]}}
