{"type":"Feature","properties":{"ALL_Uniq":287340,"name":"Ascension","Area_Geode":1.54368559823,"Plate":"North America"},"geometry":{"type":"Polygon","coordinates":[[[-81.678706,64.382534],[-81.692289,64.375564],[-81.696402,64.377072],[-81.698889,64.373345],[-81.694613,64.368693],[-81.697213,64.368582],[-81.699452,64.37121],[-81.699979,64.370533],[-81.699367,64.368315],[-81.693842,64.364734],[-81.69197,64.365492],[-81.697477,64.367618],[-81.691498,64.366431],[-81.684751,64.370606],[-81.679857,64.36777],[-81.666628,64.376664],[-81.666611,64.379291],[-81.673494,64.377201],[-81.678706,64.382534]]]}}
