{"type":"Feature","properties":{"ALL_Uniq":287479,"name":"Kudjak","Area_Geode":3.67757792825,"Plate":"North America"},"geometry":{"type":"Polygon","coordinates":[[[-67.185827,65.639454],[-67.224326,65.627603],[-67.227825,65.628035],[-67.224955,65.631023],[-67.23403,65.632145],[-67.22062,65.632574],[-67.224531,65.634568],[-67.244825,65.631896],[-67.236229,65.628295],[-67.239621,65.626004],[-67.231207,65.623493],[-67.232671,65.621223],[-67.214224,65.620528],[-67.217004,65.619109],[-67.213334,65.616398],[-67.216085,65.61522],[-67.192266,65.617638],[-67.189386,65.619448],[-67.201414,65.621744],[-67.19666,65.623383],[-67.199852,65.625147],[-67.179957,65.626333],[-67.184802,65.634528],[-67.192461,65.631663],[-67.194085,65.63358],[-67.182907,65.637907],[-67.185827,65.639454]]]}}
