{"type":"Feature","properties":{"ALL_Uniq":287703,"name":"Batz","Area_Geode":4.05994959014,"Plate":"Eurasia"},"geometry":{"type":"Polygon","coordinates":[[[-4.006199,48.753827],[-4.023473,48.753545],[-4.025947,48.748767],[-4.032636,48.750575],[-4.032883,48.747734],[-4.037633,48.748616],[-4.041144,48.744586],[-4.035931,48.740676],[-4.032261,48.74305],[-4.023733,48.738776],[-4.018942,48.74032],[-4.017733,48.737671],[-4.010644,48.737709],[-4.016861,48.739761],[-4.013559,48.744163],[-4.007402,48.741248],[-4.00883,48.737887],[-4.004101,48.7411],[-3.995148,48.740743],[-3.996725,48.738601],[-3.993869,48.736817],[-3.988454,48.73904],[-3.991043,48.743119],[-3.989111,48.749336],[-3.996421,48.746081],[-4.000647,48.748937],[-3.996478,48.75282],[-3.99979,48.753162],[-4.002646,48.749222],[-4.006199,48.753827]]]}}
