{"type":"Feature","properties":{"ALL_Uniq":287897,"name":"Imilik","Area_Geode":1.71442434587,"Plate":"North America"},"geometry":{"type":"Polygon","coordinates":[[[-36.691204,65.638101],[-36.713165,65.629505],[-36.718237,65.631316],[-36.72518,65.624689],[-36.729122,65.625602],[-36.727053,65.624231],[-36.729367,65.620708],[-36.721602,65.619776],[-36.717906,65.622532],[-36.722914,65.62516],[-36.705929,65.620878],[-36.702005,65.625407],[-36.693451,65.623345],[-36.687444,65.625503],[-36.68642,65.630512],[-36.698128,65.628577],[-36.69203,65.631961],[-36.691204,65.638101]]]}}
