{"type":"Feature","properties":{"ALL_Uniq":287832,"name":"Tupikajik","Area_Geode":2.15652594027,"Plate":"North America"},"geometry":{"type":"Polygon","coordinates":[[[-41.048543,63.295315],[-41.048319,63.290232],[-41.044868,63.288791],[-41.047265,63.286894],[-41.044474,63.281679],[-41.037901,63.280237],[-41.040204,63.278948],[-41.033264,63.280371],[-41.038776,63.276567],[-41.031821,63.276759],[-41.028191,63.274806],[-41.03103,63.273358],[-41.023602,63.271936],[-41.008799,63.275777],[-41.016176,63.276593],[-41.013324,63.278592],[-41.01676,63.279073],[-41.015588,63.281868],[-41.026991,63.282255],[-41.021965,63.284212],[-41.031067,63.285242],[-41.026255,63.288137],[-41.032888,63.288722],[-41.029244,63.289864],[-41.031487,63.291836],[-41.041727,63.289765],[-41.040313,63.291804],[-41.048543,63.295315]]]}}
