{"type":"Feature","properties":{"ALL_Uniq":288175,"name":"South","Area_Geode":11.8935476287,"Plate":"North America"},"geometry":{"type":"Polygon","coordinates":[[[-91.46637,69.854079],[-91.488215,69.850764],[-91.489738,69.84494],[-91.496567,69.843208],[-91.495648,69.839304],[-91.50105,69.833887],[-91.509788,69.830527],[-91.508959,69.826104],[-91.501378,69.818292],[-91.477857,69.810175],[-91.452449,69.810147],[-91.452566,69.811454],[-91.461551,69.812912],[-91.458975,69.816004],[-91.463996,69.817829],[-91.45526,69.81792],[-91.457511,69.815946],[-91.455155,69.814205],[-91.445562,69.815581],[-91.449458,69.825409],[-91.43855,69.824371],[-91.445123,69.822951],[-91.440689,69.820383],[-91.436964,69.824386],[-91.427446,69.825849],[-91.43275,69.829637],[-91.424493,69.830971],[-91.425938,69.840028],[-91.413226,69.841992],[-91.409066,69.846249],[-91.420908,69.850821],[-91.46637,69.854079]]]}}
