{"type":"Feature","properties":{"ALL_Uniq":288177,"name":"Astronomical Society","Area_Geode":37.1616943893,"Plate":"North America"},"geometry":{"type":"Polygon","coordinates":[[[-91.746298,69.877179],[-91.782182,69.871814],[-91.783812,69.868131],[-91.769674,69.871293],[-91.761078,69.869261],[-91.776049,69.866197],[-91.785093,69.868331],[-91.791133,69.866672],[-91.795695,69.860835],[-91.805093,69.861396],[-91.805458,69.865132],[-91.818642,69.860139],[-91.81085,69.855169],[-91.828767,69.85654],[-91.827957,69.859708],[-91.83123,69.859955],[-91.838619,69.856467],[-91.83121,69.855368],[-91.833219,69.852362],[-91.830367,69.850657],[-91.843726,69.847503],[-91.84307,69.839832],[-91.853122,69.840694],[-91.836021,69.83647],[-91.845351,69.834215],[-91.84034,69.831937],[-91.841261,69.82962],[-91.835422,69.829362],[-91.838616,69.825205],[-91.834639,69.824023],[-91.840213,69.825146],[-91.837846,69.82035],[-91.841282,69.818365],[-91.826212,69.815804],[-91.788367,69.823669],[-91.785877,69.826488],[-91.797658,69.824729],[-91.781087,69.827439],[-91.781797,69.830882],[-91.756159,69.829298],[-91.742552,69.831481],[-91.734953,69.834765],[-91.736306,69.836798],[-91.717356,69.837652],[-91.70666,69.842732],[-91.677127,69.84656],[-91.672921,69.853511],[-91.668077,69.850443],[-91.672088,69.848894],[-91.668545,69.842592],[-91.638443,69.839121],[-91.68237,69.827399],[-91.702031,69.827137],[-91.692877,69.831318],[-91.709409,69.832513],[-91.756942,69.823474],[-91.732126,69.821734],[-91.713536,69.826317],[-91.693958,69.825769],[-91.701909,69.822733],[-91.698247,69.822173],[-91.69883,69.819924],[-91.710564,69.815612],[-91.680924,69.815268],[-91.672697,69.816955],[-91.663811,69.826293],[-91.646086,69.821735],[-91.62656,69.828672],[-91.639354,69.830944],[-91.647217,69.834464],[-91.645414,69.835467],[-91.638413,69.831992],[-91.622904,69.831446],[-91.600429,69.834224],[-91.602542,69.832528],[-91.625981,69.830171],[-91.618396,69.828472],[-91.590098,69.833314],[-91.573473,69.831904],[-91.582004,69.835044],[-91.580853,69.839746],[-91.589364,69.839267],[-91.600124,69.843279],[-91.636113,69.840052],[-91.654117,69.843051],[-91.650001,69.845164],[-91.633406,69.845766],[-91.623351,69.853418],[-91.654057,69.857329],[-91.666953,69.863494],[-91.674655,69.862476],[-91.699762,69.87614],[-91.746298,69.877179]]]}}
