{"type":"Feature","properties":{"ALL_Uniq":288123,"name":"Coxe","Area_Geode":2.23795377681,"Plate":"North America"},"geometry":{"type":"Polygon","coordinates":[[[-82.493818,69.491609],[-82.497924,69.490172],[-82.488813,69.486666],[-82.498685,69.486392],[-82.496541,69.483863],[-82.484066,69.48136],[-82.480888,69.485107],[-82.478887,69.483883],[-82.482247,69.480646],[-82.473707,69.478958],[-82.443245,69.47813],[-82.434693,69.481187],[-82.437087,69.483227],[-82.422824,69.48146],[-82.439619,69.483566],[-82.434909,69.485646],[-82.439464,69.487004],[-82.486702,69.488287],[-82.493818,69.491609]]]}}
