{"type":"Feature","properties":{"ALL_Uniq":288327,"name":"Fisher","Area_Geode":7.09671638781,"Plate":"North America"},"geometry":{"type":"Polygon","coordinates":[[[-61.495112,76.157677],[-61.489925,76.154726],[-61.504345,76.152918],[-61.510341,76.148444],[-61.498301,76.14459],[-61.486356,76.152347],[-61.477742,76.154012],[-61.467701,76.150633],[-61.471984,76.145637],[-61.454138,76.142876],[-61.463513,76.136642],[-61.466321,76.130694],[-61.4618,76.128266],[-61.468795,76.12622],[-61.465274,76.118035],[-61.458421,76.114894],[-61.42311,76.115132],[-61.424109,76.119034],[-61.414258,76.121604],[-61.408881,76.127553],[-61.384229,76.136452],[-61.389655,76.14102],[-61.42468,76.146826],[-61.4381,76.152489],[-61.481978,76.15525],[-61.495112,76.157677]]]}}
