{"type":"Feature","properties":{"ALL_Uniq":288584,"name":"Munaung","Area_Geode":465.969100945,"Plate":"India"},"geometry":{"type":"Polygon","coordinates":[[[93.614072,18.921163],[93.610582,18.914217],[93.592728,18.900194],[93.582486,18.893997],[93.563323,18.888519],[93.563831,18.885887],[93.562162,18.887569],[93.564362,18.88983],[93.582269,18.895193],[93.577682,18.895534],[93.565766,18.891472],[93.547387,18.879964],[93.52096,18.88235],[93.505816,18.875641],[93.484971,18.877752],[93.479166,18.872244],[93.490641,18.862074],[93.488895,18.856312],[93.494421,18.851023],[93.501565,18.833652],[93.516481,18.81926],[93.521945,18.80671],[93.522319,18.795925],[93.530765,18.790695],[93.545187,18.767113],[93.556666,18.763708],[93.572175,18.748225],[93.596806,18.732162],[93.629399,18.700413],[93.637663,18.683002],[93.648986,18.686675],[93.661789,18.676142],[93.663907,18.670841],[93.680106,18.671874],[93.701067,18.667878],[93.70212,18.67184],[93.710231,18.671932],[93.724589,18.679558],[93.729293,18.693907],[93.741686,18.717626],[93.749363,18.72559],[93.751019,18.732979],[93.75046,18.761229],[93.744403,18.77179],[93.747539,18.761032],[93.74548,18.759498],[93.741295,18.77497],[93.737037,18.778654],[93.739998,18.790048],[93.738105,18.79566],[93.74074,18.817546],[93.738175,18.820512],[93.741273,18.831287],[93.740517,18.845718],[93.738309,18.850762],[93.732512,18.850434],[93.738063,18.853383],[93.744266,18.887357],[93.723365,18.877537],[93.718834,18.880429],[93.699921,18.870523],[93.677579,18.874086],[93.662257,18.880697],[93.655106,18.880473],[93.628223,18.89321],[93.62039,18.907552],[93.621079,18.915436],[93.614072,18.921163]]]}}
