{"type":"Feature","properties":{"ALL_Uniq":288739,"name":"Mukawwar","Area_Geode":30.4419546259,"Plate":"India"},"geometry":{"type":"Polygon","coordinates":[[[37.273483,20.854871],[37.268847,20.854732],[37.258148,20.843997],[37.25511,20.837495],[37.256234,20.831228],[37.250983,20.821548],[37.248491,20.762814],[37.249963,20.756687],[37.259459,20.745847],[37.258174,20.755892],[37.268769,20.758759],[37.274859,20.766511],[37.281825,20.826212],[37.289911,20.844214],[37.280918,20.845731],[37.273483,20.854871]]]}}
