{"type":"Feature","properties":{"ALL_Uniq":289102,"name":"Sveti Klement","Area_Geode":5.69077654239,"Plate":"Eurasia"},"geometry":{"type":"Polygon","coordinates":[[[16.351151,43.177355],[16.343171,43.1733],[16.338773,43.176486],[16.339138,43.172542],[16.330361,43.1673],[16.331182,43.16392],[16.338901,43.168975],[16.342358,43.168923],[16.34348,43.165498],[16.349245,43.167077],[16.347127,43.161488],[16.357192,43.164408],[16.356826,43.159332],[16.362771,43.162796],[16.369073,43.158924],[16.366458,43.153089],[16.372512,43.153927],[16.373536,43.161722],[16.376901,43.154178],[16.381102,43.158688],[16.385273,43.15281],[16.391132,43.15868],[16.389612,43.152287],[16.397792,43.158708],[16.403822,43.156178],[16.401861,43.167334],[16.399055,43.166442],[16.400067,43.163156],[16.395109,43.161985],[16.392832,43.162866],[16.39572,43.164608],[16.389287,43.163881],[16.387565,43.166565],[16.382366,43.162598],[16.381937,43.166532],[16.376869,43.168719],[16.367393,43.164976],[16.361316,43.166926],[16.357655,43.172454],[16.354082,43.169863],[16.351151,43.177355]]]}}
