{"type":"Feature","properties":{"ALL_Uniq":289202,"name":"Ko Surin Tai","Area_Geode":13.3535573708,"Plate":"Sunda"},"geometry":{"type":"Polygon","coordinates":[[[97.884997,9.46358],[97.87887,9.461632],[97.878152,9.457416],[97.871398,9.457326],[97.870274,9.453624],[97.854899,9.454879],[97.852156,9.446516],[97.85882,9.446544],[97.861529,9.435944],[97.858787,9.434216],[97.852923,9.438245],[97.847073,9.436223],[97.852051,9.431256],[97.865806,9.431428],[97.868938,9.422639],[97.879923,9.414798],[97.871024,9.435465],[97.87188,9.442752],[97.879555,9.443021],[97.889628,9.431063],[97.898665,9.427433],[97.900182,9.421864],[97.904148,9.42563],[97.901473,9.429872],[97.902996,9.433569],[97.89323,9.436673],[97.891481,9.440879],[97.89263,9.444908],[97.901358,9.445813],[97.902984,9.452477],[97.897753,9.450978],[97.892091,9.455833],[97.892529,9.460237],[97.884997,9.46358]]]}}
