{"type":"Feature","properties":{"ALL_Uniq":289384,"name":"Tagubanhan","Area_Geode":14.1495681829,"Plate":"Sunda"},"geometry":{"type":"Polygon","coordinates":[[[123.145617,11.154524],[123.140596,11.147799],[123.133566,11.151284],[123.128744,11.146996],[123.113958,11.14612],[123.107707,11.136387],[123.108247,11.130065],[123.114866,11.125281],[123.110871,11.122187],[123.116784,11.115986],[123.113319,11.10863],[123.117836,11.101558],[123.116064,11.100139],[123.120157,11.097986],[123.126725,11.103971],[123.127918,11.113211],[123.135888,11.118793],[123.136785,11.130404],[123.143012,11.139889],[123.148242,11.144783],[123.152323,11.141975],[123.152062,11.15251],[123.145617,11.154524]]]}}
