{"type":"Feature","properties":{"ALL_Uniq":289370,"name":"Jenkins","Area_Geode":17.9202246219,"Plate":"Sunda"},"geometry":{"type":"Polygon","coordinates":[[[98.673081,11.063792],[98.664541,11.061826],[98.665651,11.053579],[98.653784,11.060472],[98.646418,11.041889],[98.655491,11.042687],[98.647842,11.03974],[98.651461,11.035582],[98.645953,11.039773],[98.640609,11.038444],[98.638331,11.037048],[98.64014,11.033424],[98.637326,11.035692],[98.635909,11.031224],[98.64152,11.026187],[98.640253,11.022103],[98.644667,11.025475],[98.654852,11.015028],[98.661487,11.027371],[98.656432,11.030501],[98.661705,11.028813],[98.667032,11.03841],[98.663677,11.030648],[98.665234,11.026721],[98.6602,11.020251],[98.662615,11.015641],[98.672841,11.009898],[98.674475,11.023454],[98.675929,11.023034],[98.67419,11.015805],[98.677615,11.009885],[98.682763,11.01654],[98.68549,11.03785],[98.68347,11.040806],[98.680934,11.040161],[98.682712,11.036921],[98.680037,11.03953],[98.678577,11.037188],[98.676798,11.045127],[98.674189,11.044303],[98.675697,11.046773],[98.671797,11.045851],[98.673452,11.048394],[98.667217,11.044502],[98.670205,11.048887],[98.67656,11.050701],[98.671818,11.051747],[98.675503,11.052756],[98.671768,11.055057],[98.677909,11.054741],[98.673081,11.063792]]]}}
