{"type":"Feature","properties":{"ALL_Uniq":289307,"name":"Lord Loughborough","Area_Geode":32.3674948233,"Plate":"Sunda"},"geometry":{"type":"Polygon","coordinates":[[[97.904427,10.499995],[97.902782,10.492481],[97.893524,10.488358],[97.896618,10.481809],[97.891854,10.469039],[97.899861,10.458094],[97.904163,10.441922],[97.899671,10.436489],[97.90119,10.429735],[97.891045,10.4222],[97.897139,10.420141],[97.895647,10.413356],[97.90043,10.412232],[97.900423,10.405541],[97.895917,10.399208],[97.908464,10.402986],[97.913196,10.399498],[97.92969,10.410478],[97.937305,10.410059],[97.937342,10.412861],[97.933374,10.413897],[97.940225,10.419379],[97.929952,10.422347],[97.924809,10.415177],[97.918379,10.42127],[97.915816,10.418074],[97.915967,10.422077],[97.908875,10.419754],[97.908302,10.423291],[97.913801,10.421894],[97.914267,10.430133],[97.920327,10.427843],[97.920197,10.432284],[97.9253,10.43559],[97.92632,10.434581],[97.925049,10.430541],[97.941284,10.426206],[97.946517,10.440415],[97.942713,10.457099],[97.938526,10.457221],[97.936061,10.461443],[97.933209,10.455839],[97.927698,10.457608],[97.929902,10.472439],[97.938417,10.476135],[97.935414,10.484035],[97.925445,10.471776],[97.910062,10.472752],[97.905106,10.466916],[97.899404,10.478529],[97.911752,10.495187],[97.904427,10.499995]]]}}
