{"type":"Feature","properties":{"ALL_Uniq":289531,"name":"Boracay","Area_Geode":10.09632613,"Plate":"Sunda"},"geometry":{"type":"Polygon","coordinates":[[[121.922638,11.999655],[121.910449,11.994235],[121.905176,11.98825],[121.909798,11.977348],[121.927444,11.956727],[121.933246,11.939885],[121.941343,11.939847],[121.949309,11.947224],[121.947418,11.954528],[121.935135,11.955518],[121.936603,11.958095],[121.927571,11.967453],[121.93099,11.978061],[121.924834,11.985892],[121.92512,11.99624],[121.927992,11.998207],[121.922638,11.999655]]]}}
