{"type":"Feature","properties":{"ALL_Uniq":289625,"name":"Cabanongon","Area_Geode":9.90298056646,"Plate":"Sunda"},"geometry":{"type":"Polygon","coordinates":[[[124.485741,12.586614],[124.48028,12.584705],[124.481449,12.581011],[124.474901,12.581713],[124.472661,12.578648],[124.48953,12.570372],[124.490193,12.56167],[124.49389,12.562443],[124.494277,12.550844],[124.499003,12.554366],[124.494996,12.548675],[124.500857,12.543683],[124.499937,12.541092],[124.504896,12.542215],[124.505197,12.545358],[124.520834,12.542515],[124.522979,12.547397],[124.517697,12.549493],[124.514916,12.557401],[124.512583,12.555958],[124.50924,12.566026],[124.503404,12.565984],[124.501952,12.577324],[124.499367,12.576451],[124.485741,12.586614]]]}}
