{"type":"Feature","properties":{"ALL_Uniq":289690,"name":"Marikaban","Area_Geode":32.4498839746,"Plate":"Sunda"},"geometry":{"type":"Polygon","coordinates":[[[120.83038,13.688313],[120.827199,13.686595],[120.831415,13.685534],[120.831794,13.678183],[120.837367,13.671738],[120.841828,13.652217],[120.848065,13.652679],[120.859978,13.644399],[120.865633,13.646455],[120.872573,13.634723],[120.905325,13.624702],[120.942387,13.632026],[120.946515,13.638843],[120.933224,13.656182],[120.907614,13.659465],[120.88456,13.655439],[120.87825,13.662385],[120.871555,13.661381],[120.858282,13.665168],[120.855876,13.669936],[120.840968,13.671674],[120.83038,13.688313]]]}}
