{"type":"Feature","properties":{"ALL_Uniq":289709,"name":"Quinalasag","Area_Geode":32.3780757911,"Plate":"Sunda"},"geometry":{"type":"Polygon","coordinates":[[[123.642248,13.982055],[123.638028,13.978378],[123.641749,13.973241],[123.640199,13.969518],[123.646292,13.968106],[123.645409,13.976356],[123.65165,13.97339],[123.650155,13.969303],[123.659515,13.945803],[123.656455,13.944633],[123.652879,13.947883],[123.64925,13.95746],[123.645305,13.958163],[123.642509,13.963658],[123.635207,13.964776],[123.638205,13.95302],[123.630786,13.954364],[123.629508,13.959639],[123.624864,13.958812],[123.62132,13.953035],[123.624508,13.950065],[123.622947,13.947142],[123.629607,13.942554],[123.619588,13.940307],[123.618201,13.950208],[123.611706,13.951827],[123.607367,13.945431],[123.603583,13.947893],[123.606699,13.948213],[123.609155,13.960759],[123.60584,13.961276],[123.601014,13.946286],[123.597431,13.944634],[123.597011,13.948079],[123.595445,13.945697],[123.609095,13.936145],[123.608805,13.932798],[123.604799,13.937585],[123.596537,13.933961],[123.609948,13.924197],[123.606223,13.921705],[123.603327,13.924081],[123.605927,13.915744],[123.601686,13.914209],[123.608229,13.913917],[123.612209,13.917619],[123.623137,13.913468],[123.616773,13.908012],[123.625873,13.907402],[123.629992,13.914065],[123.638888,13.913891],[123.646048,13.91774],[123.656667,13.93401],[123.671021,13.936288],[123.678132,13.942883],[123.677042,13.956057],[123.669977,13.966343],[123.666764,13.960295],[123.66152,13.960566],[123.657434,13.96741],[123.659199,13.970432],[123.642248,13.982055]]]}}
