{"type":"Feature","properties":{"ALL_Uniq":289719,"name":"North","Area_Geode":13.1398877708,"Plate":"Sunda"},"geometry":{"type":"Polygon","coordinates":[[[97.821836,14.191006],[97.804062,14.181597],[97.801726,14.18635],[97.796778,14.18186],[97.790356,14.183409],[97.784641,14.176645],[97.786439,14.161818],[97.78396,14.157923],[97.780063,14.15805],[97.777627,14.150708],[97.785583,14.146727],[97.786529,14.139057],[97.789625,14.138783],[97.798943,14.150822],[97.802849,14.151438],[97.80297,14.154812],[97.809297,14.156567],[97.816415,14.181174],[97.824687,14.186537],[97.821836,14.191006]]]}}
