{"type":"Feature","properties":{"ALL_Uniq":289913,"name":"Hauido","Area_Geode":29.7579916565,"Plate":"Amur"},"geometry":{"type":"Polygon","coordinates":[[[126.047263,34.6688],[126.045775,34.664029],[126.026244,34.64608],[126.026512,34.641907],[126.029595,34.641108],[126.010031,34.630875],[126.016199,34.618063],[126.010846,34.606883],[126.014844,34.602526],[126.011124,34.596428],[126.014533,34.595842],[126.019182,34.600333],[126.019197,34.594776],[126.022729,34.597383],[126.025877,34.594501],[126.024222,34.589627],[126.019237,34.59029],[126.014121,34.58538],[126.017523,34.581563],[126.015498,34.579074],[126.021029,34.578057],[126.016495,34.575574],[126.021532,34.573832],[126.017843,34.57159],[126.019534,34.563486],[126.029078,34.565104],[126.03552,34.576596],[126.041866,34.567539],[126.049684,34.57069],[126.05597,34.568044],[126.061133,34.572369],[126.059666,34.577628],[126.064957,34.581665],[126.062784,34.592936],[126.0555,34.604061],[126.047864,34.602272],[126.036719,34.611309],[126.041512,34.622077],[126.039731,34.629931],[126.043859,34.630291],[126.051751,34.644458],[126.052565,34.653508],[126.047263,34.6688]]]}}
