{"type":"Feature","properties":{"ALL_Uniq":290062,"name":"Inston","Area_Geode":3.47236228271,"Plate":"Eurasia"},"geometry":{"type":"Polygon","coordinates":[[[11.630165,57.904905],[11.628756,57.902324],[11.632965,57.903201],[11.628215,57.900243],[11.633734,57.894655],[11.632276,57.892917],[11.647971,57.882314],[11.653959,57.886164],[11.65361,57.89116],[11.660674,57.891515],[11.65649,57.89377],[11.66424,57.897773],[11.659216,57.899236],[11.666899,57.90321],[11.65873,57.905762],[11.649624,57.902022],[11.647904,57.903245],[11.652331,57.905705],[11.630165,57.904905]]]}}
