{"type":"Feature","properties":{"ALL_Uniq":290217,"name":"Jungfruskar","Area_Geode":4.18804755421,"Plate":"Eurasia"},"geometry":{"type":"Polygon","coordinates":[[[18.731247,59.167242],[18.728941,59.163275],[18.722185,59.163983],[18.721978,59.160079],[18.713251,59.15625],[18.711426,59.161283],[18.706862,59.161036],[18.709642,59.159905],[18.706091,59.15629],[18.694445,59.149248],[18.691188,59.150503],[18.664187,59.132846],[18.67385,59.136521],[18.676165,59.134475],[18.666902,59.130382],[18.683072,59.13064],[18.684889,59.135206],[18.691529,59.134034],[18.689562,59.130121],[18.693644,59.131198],[18.698015,59.135601],[18.692189,59.134237],[18.693024,59.139719],[18.69368,59.135488],[18.697784,59.138406],[18.692729,59.14368],[18.693274,59.147008],[18.694851,59.144637],[18.700105,59.148081],[18.696719,59.145559],[18.702065,59.143693],[18.700873,59.138717],[18.706848,59.14009],[18.710155,59.143692],[18.703539,59.148844],[18.70736,59.152131],[18.71278,59.151317],[18.706503,59.14915],[18.710616,59.146555],[18.714915,59.151849],[18.734927,59.16114],[18.732594,59.162497],[18.735456,59.164777],[18.731247,59.167242]]]}}
