{"type":"Feature","properties":{"ALL_Uniq":290264,"name":"Stavsudda","Area_Geode":2.7570563965,"Plate":"Eurasia"},"geometry":{"type":"Polygon","coordinates":[[[18.820067,59.402738],[18.808938,59.400091],[18.812956,59.393391],[18.80644,59.399817],[18.80391,59.394246],[18.799482,59.39601],[18.802003,59.392101],[18.793474,59.396337],[18.787069,59.394011],[18.79597,59.385897],[18.802522,59.38685],[18.801479,59.383966],[18.807131,59.385076],[18.804586,59.391752],[18.818738,59.384548],[18.819039,59.392271],[18.821729,59.390553],[18.820991,59.387537],[18.82461,59.389292],[18.823452,59.386172],[18.827917,59.384833],[18.832233,59.391632],[18.826152,59.392119],[18.8266,59.396699],[18.823522,59.399303],[18.821321,59.396686],[18.820067,59.402738]]]}}
