{"type":"Feature","properties":{"ALL_Uniq":290325,"name":"Halsnoya","Area_Geode":38.5398324723,"Plate":"Eurasia"},"geometry":{"type":"Polygon","coordinates":[[[5.71906,59.817583],[5.700469,59.813173],[5.701267,59.810367],[5.706763,59.809456],[5.708724,59.802712],[5.707354,59.79661],[5.697374,59.790356],[5.682383,59.793105],[5.685815,59.797328],[5.682421,59.805691],[5.665818,59.80488],[5.655997,59.799589],[5.656009,59.816461],[5.628348,59.812688],[5.631107,59.809669],[5.627687,59.808547],[5.645544,59.796865],[5.668292,59.794562],[5.670445,59.786981],[5.661648,59.785163],[5.662841,59.782025],[5.685944,59.784969],[5.696975,59.782291],[5.70412,59.784747],[5.705844,59.791898],[5.714275,59.794391],[5.718669,59.793267],[5.720463,59.788783],[5.725904,59.789245],[5.731026,59.776099],[5.752884,59.780583],[5.747059,59.777295],[5.744343,59.769367],[5.746992,59.76566],[5.7322,59.763143],[5.748865,59.755996],[5.735441,59.739964],[5.740382,59.727598],[5.74668,59.725603],[5.744227,59.721928],[5.766976,59.724072],[5.777703,59.728204],[5.78077,59.738539],[5.789283,59.746284],[5.789123,59.753369],[5.794634,59.755651],[5.789985,59.761205],[5.808787,59.755869],[5.836522,59.757718],[5.83763,59.754308],[5.842333,59.754561],[5.839448,59.763204],[5.841587,59.764834],[5.837088,59.766169],[5.838079,59.769506],[5.802869,59.78611],[5.801391,59.790016],[5.789673,59.791616],[5.796244,59.787357],[5.794685,59.785799],[5.779036,59.79305],[5.770866,59.79015],[5.764906,59.794135],[5.759424,59.790641],[5.743886,59.79043],[5.738467,59.796883],[5.739916,59.799756],[5.737115,59.798834],[5.739916,59.808376],[5.71906,59.817583]]]}}
