{"type":"Feature","properties":{"ALL_Uniq":290487,"name":"Soderholmen","Area_Geode":3.53068256274,"Plate":"Eurasia"},"geometry":{"type":"Polygon","coordinates":[[[21.065606,60.391554],[21.064707,60.38653],[21.060454,60.390488],[21.060077,60.387866],[21.048093,60.383664],[21.048118,60.380661],[21.054613,60.381589],[21.059862,60.377366],[21.057394,60.382083],[21.066256,60.375679],[21.073271,60.378874],[21.076301,60.375485],[21.068405,60.375364],[21.068098,60.371933],[21.059178,60.373626],[21.065579,60.370037],[21.074402,60.371838],[21.074289,60.366876],[21.084109,60.364294],[21.090577,60.357423],[21.091972,60.363626],[21.084776,60.374744],[21.091408,60.37555],[21.084867,60.381031],[21.076421,60.380334],[21.08034,60.382552],[21.076274,60.387449],[21.065606,60.391554]]]}}
