{"type":"Feature","properties":{"ALL_Uniq":290413,"name":"Segelskar","Area_Geode":1.96499624193,"Plate":"Eurasia"},"geometry":{"type":"Polygon","coordinates":[[[20.453355,60.178343],[20.453364,60.17471],[20.460963,60.169021],[20.468125,60.170314],[20.47614,60.16648],[20.477796,60.162865],[20.472139,60.160635],[20.471051,60.164569],[20.46689,60.164892],[20.461713,60.161096],[20.46279,60.157191],[20.466889,60.160359],[20.47823,60.15797],[20.478162,60.162455],[20.481462,60.163319],[20.495524,60.157026],[20.49109,60.150991],[20.498237,60.155304],[20.495478,60.159768],[20.480907,60.164441],[20.483683,60.165374],[20.479524,60.170302],[20.466837,60.171741],[20.468829,60.177026],[20.453355,60.178343]]]}}
