{"type":"Feature","properties":{"ALL_Uniq":290552,"name":"Osteroy","Area_Geode":329.134209789,"Plate":"Eurasia"},"geometry":{"type":"Polygon","coordinates":[[[5.651557,60.708463],[5.643283,60.702574],[5.632685,60.700302],[5.63196,60.694754],[5.629464,60.693953],[5.629779,60.700332],[5.610858,60.687899],[5.61143,60.682349],[5.617194,60.680693],[5.630649,60.689295],[5.64473,60.686596],[5.638475,60.679692],[5.626735,60.674709],[5.628504,60.67107],[5.609802,60.666383],[5.623453,60.663986],[5.611129,60.653569],[5.619872,60.655724],[5.60655,60.649903],[5.600026,60.643203],[5.608825,60.643326],[5.591188,60.632925],[5.586335,60.626727],[5.59455,60.621208],[5.574395,60.620857],[5.569874,60.618843],[5.572673,60.617413],[5.558042,60.615675],[5.555004,60.610755],[5.557923,60.6105],[5.555535,60.608596],[5.558185,60.605091],[5.554489,60.606628],[5.557902,60.602613],[5.551264,60.601543],[5.55397,60.599607],[5.546712,60.602376],[5.550668,60.607044],[5.550237,60.615722],[5.527323,60.612454],[5.539333,60.605242],[5.522746,60.611406],[5.505266,60.611662],[5.499851,60.609253],[5.499318,60.605002],[5.512628,60.603551],[5.511676,60.595882],[5.522643,60.589978],[5.495793,60.601978],[5.483505,60.600903],[5.478825,60.597098],[5.479732,60.59158],[5.473904,60.590763],[5.475981,60.582735],[5.472837,60.577933],[5.476519,60.574317],[5.458503,60.58717],[5.458836,60.578684],[5.463891,60.575697],[5.451911,60.573932],[5.447567,60.568882],[5.439215,60.568552],[5.461292,60.54737],[5.47494,60.540725],[5.476653,60.53659],[5.492137,60.532111],[5.48981,60.531216],[5.492195,60.529812],[5.488746,60.526418],[5.49046,60.52497],[5.472391,60.530922],[5.476298,60.531154],[5.427861,60.562942],[5.417356,60.559349],[5.42196,60.554866],[5.410809,60.559681],[5.407494,60.55222],[5.398687,60.555369],[5.386319,60.549197],[5.363721,60.548907],[5.343842,60.544327],[5.338865,60.541846],[5.344988,60.537268],[5.343249,60.532005],[5.364597,60.522012],[5.40153,60.513291],[5.407257,60.509738],[5.402806,60.506795],[5.404752,60.504767],[5.428489,60.504659],[5.423513,60.498009],[5.427069,60.488892],[5.448215,60.480663],[5.458646,60.470266],[5.473546,60.465844],[5.470677,60.463296],[5.47209,60.460611],[5.491887,60.454235],[5.496734,60.451015],[5.49493,60.449123],[5.498172,60.445527],[5.521131,60.442705],[5.527987,60.438894],[5.531031,60.433913],[5.528366,60.430463],[5.532084,60.428469],[5.545553,60.43329],[5.553796,60.432809],[5.562531,60.438408],[5.609048,60.438736],[5.625143,60.458563],[5.664611,60.478007],[5.685463,60.479643],[5.686417,60.476711],[5.681147,60.474906],[5.698393,60.475334],[5.708277,60.47083],[5.706751,60.475684],[5.712096,60.483781],[5.705161,60.498378],[5.703465,60.515038],[5.695444,60.534449],[5.704797,60.546344],[5.709667,60.5588],[5.711625,60.576547],[5.718516,60.588626],[5.715892,60.595949],[5.720718,60.603007],[5.719661,60.613533],[5.714613,60.624281],[5.720258,60.636639],[5.729058,60.646057],[5.72721,60.649579],[5.730104,60.659043],[5.725345,60.662446],[5.733877,60.66972],[5.734457,60.674596],[5.730512,60.676456],[5.729605,60.68329],[5.706282,60.69791],[5.690139,60.696552],[5.690974,60.694494],[5.677377,60.69003],[5.675675,60.682654],[5.672355,60.682089],[5.669814,60.686141],[5.670786,60.694409],[5.66017,60.698552],[5.661089,60.701144],[5.651557,60.708463]]]}}
