{"type":"Feature","properties":{"ALL_Uniq":290585,"name":"Ytre Sula","Area_Geode":35.0948441328,"Plate":"Eurasia"},"geometry":{"type":"Polygon","coordinates":[[[4.702859,61.096809],[4.701148,61.089555],[4.694046,61.085688],[4.697999,61.082812],[4.694441,61.080153],[4.682178,61.080967],[4.687741,61.088805],[4.680349,61.090019],[4.676716,61.084537],[4.680405,61.08329],[4.680993,61.079416],[4.674961,61.081662],[4.673822,61.077729],[4.67772,61.078269],[4.671358,61.075054],[4.67747,61.075144],[4.670864,61.073293],[4.673677,61.068321],[4.664428,61.070319],[4.663709,61.064793],[4.65555,61.065498],[4.656109,61.061833],[4.648768,61.063039],[4.646308,61.061082],[4.651815,61.054261],[4.644849,61.061153],[4.641408,61.059275],[4.64916,61.052758],[4.642785,61.049665],[4.648061,61.04346],[4.659073,61.041545],[4.664262,61.044447],[4.657323,61.0386],[4.646332,61.042019],[4.650517,61.040126],[4.64818,61.03975],[4.649268,61.035482],[4.654752,61.029459],[4.646352,61.036134],[4.642837,61.033024],[4.652557,61.020554],[4.663851,61.012512],[4.671312,61.013701],[4.670344,61.008977],[4.660308,61.010212],[4.667485,61.008043],[4.665399,61.005964],[4.667656,61.002235],[4.675033,61.001324],[4.678196,60.995242],[4.686875,60.997288],[4.685386,60.993436],[4.688718,60.992555],[4.691013,60.997911],[4.688931,61.004281],[4.693363,61.00146],[4.698372,61.010806],[4.708727,61.016023],[4.706864,61.026336],[4.702153,61.031248],[4.713545,61.024816],[4.709353,61.018672],[4.713025,61.013846],[4.703772,61.008368],[4.697001,60.994828],[4.706534,60.993554],[4.702615,60.987565],[4.708122,60.982799],[4.724047,60.994951],[4.721862,61.001356],[4.731392,60.993947],[4.739867,61.015597],[4.742699,61.014735],[4.740311,61.013048],[4.742538,61.01002],[4.747304,61.014899],[4.742892,61.02103],[4.741067,61.016285],[4.738747,61.018233],[4.741369,61.032287],[4.729667,61.03514],[4.725784,61.039101],[4.715039,61.034354],[4.719767,61.039488],[4.717634,61.044647],[4.711571,61.047994],[4.707503,61.046741],[4.71012,61.049127],[4.706403,61.051114],[4.707204,61.056549],[4.713944,61.051815],[4.716845,61.054935],[4.714798,61.05763],[4.718204,61.057206],[4.714382,61.06358],[4.704245,61.06404],[4.71062,61.077263],[4.705607,61.077173],[4.70579,61.08293],[4.701287,61.086413],[4.707416,61.094286],[4.702859,61.096809]]]}}
