{"type":"Feature","properties":{"ALL_Uniq":290560,"name":"Fedje","Area_Geode":8.15358900098,"Plate":"Eurasia"},"geometry":{"type":"Polygon","coordinates":[[[4.688641,60.783573],[4.692603,60.782333],[4.689451,60.77889],[4.691992,60.775586],[4.706016,60.775745],[4.693189,60.771647],[4.697658,60.768503],[4.696746,60.76406],[4.708174,60.760383],[4.705618,60.758391],[4.714255,60.75111],[4.731506,60.751604],[4.746469,60.760334],[4.740514,60.77143],[4.731741,60.774348],[4.742408,60.772394],[4.743489,60.775488],[4.735561,60.781194],[4.727088,60.784967],[4.724479,60.783784],[4.72731,60.781586],[4.722651,60.779913],[4.721801,60.785808],[4.70581,60.78231],[4.704315,60.784435],[4.708713,60.78571],[4.688641,60.783573]]]}}
