{"type":"Feature","properties":{"ALL_Uniq":290607,"name":"Atloyna","Area_Geode":38.9528335273,"Plate":"Eurasia"},"geometry":{"type":"Polygon","coordinates":[[[4.929977,61.382468],[4.925481,61.378701],[4.919023,61.381623],[4.906123,61.379154],[4.910314,61.378244],[4.905062,61.376708],[4.905057,61.372291],[4.917854,61.370681],[4.899709,61.361652],[4.901661,61.359612],[4.893456,61.356516],[4.894349,61.354206],[4.879985,61.354634],[4.877544,61.347562],[4.890353,61.33748],[4.912458,61.337452],[4.922958,61.332634],[4.932077,61.33337],[4.951588,61.320135],[4.938193,61.321281],[4.930554,61.318615],[4.926604,61.322359],[4.92663,61.319218],[4.930722,61.31778],[4.936608,61.319903],[4.949708,61.312409],[4.957145,61.312436],[4.960344,61.316934],[4.976647,61.321546],[5.012734,61.320212],[5.006114,61.323922],[5.012076,61.326684],[5.024779,61.32378],[5.032374,61.327002],[5.030483,61.331442],[5.023893,61.333757],[5.027261,61.336019],[5.019308,61.340223],[5.018343,61.347398],[5.013402,61.349099],[5.026459,61.352176],[5.021874,61.36568],[5.014715,61.365809],[5.014049,61.375935],[5.008618,61.379454],[4.995457,61.382436],[4.986576,61.37067],[4.965589,61.367672],[4.957945,61.375137],[4.947212,61.37252],[4.940316,61.37609],[4.939679,61.379964],[4.929977,61.382468]]]}}
