{"type":"Feature","properties":{"ALL_Uniq":290614,"name":"Stavoya","Area_Geode":11.8466242674,"Plate":"Eurasia"},"geometry":{"type":"Polygon","coordinates":[[[5.091288,61.576232],[5.072926,61.573121],[5.076738,61.571135],[5.063216,61.571243],[5.06744,61.56895],[5.036789,61.568601],[5.046661,61.56332],[5.045177,61.566454],[5.050586,61.566231],[5.052582,61.561968],[5.056344,61.564305],[5.063363,61.559552],[5.104616,61.551613],[5.095809,61.551792],[5.098469,61.550915],[5.121134,61.548198],[5.134616,61.550073],[5.130864,61.548066],[5.158983,61.541734],[5.173097,61.546172],[5.14229,61.56379],[5.091288,61.576232]]]}}
