{"type":"Feature","properties":{"ALL_Uniq":290697,"name":"Ekkilsoya","Area_Geode":5.3614590033,"Plate":"Eurasia"},"geometry":{"type":"Polygon","coordinates":[[[7.585177,63.089715],[7.555751,63.084218],[7.567307,63.082946],[7.553649,63.078333],[7.565685,63.076264],[7.560127,63.07453],[7.5654,63.072591],[7.558454,63.069127],[7.555807,63.063926],[7.586138,63.063441],[7.572731,63.056827],[7.589506,63.057936],[7.601461,63.062576],[7.594555,63.063811],[7.599632,63.066997],[7.59931,63.077528],[7.596029,63.081573],[7.590559,63.081694],[7.589824,63.084805],[7.583021,63.084951],[7.585177,63.089715]]]}}
