{"type":"Feature","properties":{"ALL_Uniq":290948,"name":"Sandskar","Area_Geode":5.13400424805,"Plate":"Eurasia"},"geometry":{"type":"Polygon","coordinates":[[[23.76071,65.607385],[23.740673,65.597857],[23.74111,65.586883],[23.738136,65.583216],[23.721832,65.580656],[23.720295,65.572665],[23.715597,65.57136],[23.736358,65.570965],[23.741067,65.569039],[23.739306,65.566214],[23.762085,65.560682],[23.760819,65.5586],[23.770979,65.561368],[23.770213,65.563442],[23.777754,65.561398],[23.779906,65.567044],[23.774324,65.56836],[23.775331,65.571973],[23.759789,65.576725],[23.750375,65.58348],[23.751049,65.587028],[23.747364,65.58999],[23.753849,65.602202],[23.763161,65.605027],[23.76071,65.607385]]]}}
