{"type":"Feature","properties":{"ALL_Uniq":291076,"name":"Meloy","Area_Geode":22.2118178292,"Plate":"Eurasia"},"geometry":{"type":"Polygon","coordinates":[[[13.420228,66.847676],[13.415101,66.844336],[13.418689,66.843412],[13.412525,66.843867],[13.405067,66.838782],[13.403153,66.842789],[13.39403,66.838525],[13.365039,66.838188],[13.366994,66.836716],[13.341753,66.826139],[13.351377,66.825642],[13.334856,66.820941],[13.332068,66.817339],[13.341341,66.818792],[13.342231,66.815459],[13.33804,66.810834],[13.350831,66.810757],[13.390571,66.817749],[13.411277,66.816428],[13.426854,66.822205],[13.418888,66.823507],[13.420748,66.825027],[13.430604,66.823078],[13.426641,66.820152],[13.430648,66.818562],[13.474187,66.825837],[13.550526,66.828813],[13.57618,66.838746],[13.544833,66.840696],[13.527278,66.845779],[13.499589,66.842541],[13.483966,66.846854],[13.464608,66.846577],[13.460941,66.843617],[13.462084,66.845455],[13.436694,66.847138],[13.430747,66.844606],[13.43033,66.84127],[13.419067,66.837709],[13.419415,66.841944],[13.43038,66.843272],[13.420228,66.847676]]]}}
