{"type":"Feature","properties":{"ALL_Uniq":291022,"name":"Havstein","Area_Geode":2.26030984312,"Plate":"Eurasia"},"geometry":{"type":"Polygon","coordinates":[[[12.374647,66.174427],[12.364315,66.169786],[12.365712,66.167495],[12.35579,66.168223],[12.353519,66.16231],[12.35615,66.160867],[12.349798,66.156591],[12.353212,66.156393],[12.349214,66.155513],[12.349511,66.152773],[12.360917,66.154575],[12.363196,66.155871],[12.361288,66.157481],[12.365824,66.156216],[12.367363,66.162578],[12.370278,66.157834],[12.374813,66.157779],[12.371113,66.161236],[12.394349,66.168063],[12.387499,66.168134],[12.393052,66.171604],[12.393074,66.176494],[12.374647,66.174427]]]}}
