{"type":"Feature","properties":{"ALL_Uniq":291056,"name":"Stortovaer","Area_Geode":1.35657908203,"Plate":"Eurasia"},"geometry":{"type":"Polygon","coordinates":[[[12.162071,66.54746],[12.146432,66.544988],[12.149475,66.543707],[12.146821,66.541974],[12.161839,66.543945],[12.158997,66.542664],[12.165539,66.539951],[12.156901,66.542533],[12.14202,66.537812],[12.145228,66.535329],[12.153186,66.536858],[12.14955,66.533713],[12.158865,66.53603],[12.153291,66.533525],[12.156498,66.53263],[12.174992,66.53805],[12.166759,66.540096],[12.170973,66.540532],[12.172538,66.544703],[12.162071,66.54746]]]}}
