{"type":"Feature","properties":{"ALL_Uniq":291067,"name":"Gjessoya","Area_Geode":4.44543373625,"Plate":"Eurasia"},"geometry":{"type":"Polygon","coordinates":[[[12.976563,66.697568],[12.952379,66.692363],[12.969001,66.692793],[12.966955,66.690856],[12.957722,66.688952],[12.941142,66.691024],[12.933742,66.689646],[12.936642,66.688266],[12.93543,66.686002],[12.924956,66.687804],[12.911401,66.679361],[12.920865,66.679535],[12.93441,66.6857],[12.924078,66.679575],[12.93267,66.682445],[12.935567,66.681526],[12.933844,66.679549],[12.939899,66.679811],[12.93297,66.678229],[12.939046,66.678167],[12.959061,66.684417],[12.952414,66.68163],[12.954032,66.680356],[12.941608,66.678089],[12.937789,66.674737],[12.940824,66.673613],[12.912888,66.671932],[12.915647,66.669446],[12.912469,66.66859],[12.948021,66.669546],[12.952523,66.671052],[12.942173,66.674889],[12.975098,66.677931],[12.98007,66.685911],[12.973936,66.693449],[12.986484,66.695807],[12.976563,66.697568]]]}}
