{"type":"Feature","properties":{"ALL_Uniq":291073,"name":"Gronnoya","Area_Geode":3.87504870865,"Plate":"Eurasia"},"geometry":{"type":"Polygon","coordinates":[[[13.408204,66.794813],[13.410947,66.793096],[13.401687,66.791838],[13.403889,66.789488],[13.398119,66.787397],[13.438259,66.780862],[13.436135,66.782899],[13.461406,66.790253],[13.495223,66.779714],[13.492173,66.776698],[13.494677,66.775718],[13.506917,66.781557],[13.496164,66.785129],[13.493226,66.78393],[13.498828,66.782015],[13.482599,66.784904],[13.470026,66.78916],[13.478847,66.789653],[13.46605,66.793744],[13.460884,66.791367],[13.444941,66.793251],[13.441745,66.794392],[13.445643,66.796951],[13.408204,66.794813]]]}}
