{"type":"Feature","properties":{"ALL_Uniq":291123,"name":"Zeliv Lumbovskiy","Area_Geode":8.7120096708,"Plate":"Eurasia"},"geometry":{"type":"Polygon","coordinates":[[[40.514559,67.835564],[40.506923,67.832378],[40.512251,67.830904],[40.510737,67.826255],[40.518421,67.821512],[40.516165,67.819417],[40.50866,67.819434],[40.504156,67.825248],[40.496218,67.825945],[40.497581,67.828792],[40.489257,67.828867],[40.486785,67.831159],[40.492318,67.832731],[40.486505,67.834485],[40.478706,67.831161],[40.47509,67.825145],[40.469803,67.827405],[40.464927,67.821674],[40.475061,67.818236],[40.470935,67.811623],[40.479852,67.810459],[40.480692,67.807285],[40.487768,67.807701],[40.483271,67.805818],[40.48662,67.802434],[40.522355,67.805114],[40.538184,67.800256],[40.547788,67.804329],[40.54468,67.806098],[40.549475,67.810679],[40.545934,67.815282],[40.529313,67.817146],[40.542148,67.823791],[40.541781,67.826905],[40.533138,67.827077],[40.542702,67.830237],[40.542193,67.8325],[40.534999,67.830442],[40.537303,67.834143],[40.514559,67.835564]]]}}
