{"type":"Feature","properties":{"ALL_Uniq":291171,"name":"Grytoya","Area_Geode":104.322581799,"Plate":"Eurasia"},"geometry":{"type":"Polygon","coordinates":[[[16.302223,68.993618],[16.295203,68.991691],[16.29257,68.988575],[16.286089,68.988758],[16.261236,68.976071],[16.260301,68.969475],[16.254514,68.965269],[16.251277,68.956828],[16.272116,68.956669],[16.280495,68.950565],[16.310765,68.949439],[16.34607,68.939469],[16.354079,68.931056],[16.351738,68.928742],[16.353901,68.925026],[16.3662,68.919202],[16.370123,68.913692],[16.421388,68.897934],[16.425498,68.895485],[16.424572,68.891605],[16.432221,68.888851],[16.459876,68.886374],[16.458829,68.884026],[16.467122,68.881552],[16.5052,68.88208],[16.56683,68.874539],[16.572959,68.876249],[16.570666,68.878804],[16.643813,68.897298],[16.639621,68.90119],[16.618698,68.901255],[16.618671,68.90386],[16.61374,68.904525],[16.615029,68.919565],[16.628905,68.922822],[16.649702,68.934854],[16.631707,68.931685],[16.629493,68.939411],[16.609696,68.943329],[16.611874,68.949693],[16.619533,68.95358],[16.617193,68.955028],[16.618472,68.959564],[16.61132,68.96371],[16.597023,68.964348],[16.59758,68.970452],[16.571818,68.967752],[16.562777,68.963143],[16.567007,68.96038],[16.56526,68.955417],[16.576705,68.947445],[16.571904,68.944088],[16.558007,68.943841],[16.545094,68.951302],[16.515972,68.958131],[16.505472,68.965356],[16.491986,68.963423],[16.483851,68.958382],[16.474189,68.958295],[16.486261,68.955126],[16.501005,68.955893],[16.486832,68.954238],[16.478282,68.947917],[16.472236,68.948117],[16.469832,68.949128],[16.478537,68.949501],[16.484539,68.954177],[16.467511,68.952994],[16.465264,68.955633],[16.410753,68.965346],[16.403589,68.964056],[16.401663,68.965593],[16.409421,68.969105],[16.431741,68.962627],[16.414921,68.970536],[16.411423,68.975553],[16.394119,68.98231],[16.373862,68.985702],[16.376808,68.986898],[16.37006,68.986347],[16.383728,68.981189],[16.382517,68.978113],[16.387753,68.976231],[16.380256,68.974804],[16.375492,68.978562],[16.37419,68.976967],[16.378594,68.974611],[16.370104,68.974256],[16.358044,68.976183],[16.345809,68.9834],[16.318626,68.980724],[16.31242,68.982471],[16.314987,68.984151],[16.290619,68.986165],[16.297406,68.991723],[16.308524,68.990485],[16.302223,68.993618]]]}}
