{"type":"Feature","properties":{"ALL_Uniq":291203,"name":"Vengsoya","Area_Geode":17.4858042961,"Plate":"Eurasia"},"geometry":{"type":"Polygon","coordinates":[[[18.501414,69.863307],[18.498039,69.860957],[18.50708,69.854223],[18.501803,69.854608],[18.49131,69.847443],[18.484273,69.847276],[18.491223,69.849275],[18.488831,69.849573],[18.468884,69.846907],[18.472085,69.84365],[18.475737,69.846002],[18.485299,69.84231],[18.494281,69.843072],[18.499202,69.8391],[18.472966,69.838527],[18.470225,69.841761],[18.457465,69.841459],[18.458551,69.839689],[18.453451,69.837991],[18.446541,69.839469],[18.456258,69.845795],[18.433363,69.834681],[18.433344,69.831912],[18.439932,69.828521],[18.437941,69.826466],[18.443931,69.82132],[18.466348,69.820189],[18.527447,69.825859],[18.569596,69.821552],[18.586782,69.825901],[18.594657,69.83188],[18.576676,69.840942],[18.579872,69.843895],[18.59277,69.844252],[18.592346,69.847556],[18.595473,69.848351],[18.592176,69.851145],[18.565914,69.856009],[18.546459,69.854948],[18.548093,69.853631],[18.561292,69.853048],[18.543828,69.851732],[18.532482,69.857371],[18.525526,69.857317],[18.529464,69.855634],[18.527287,69.854424],[18.517992,69.855843],[18.511522,69.858675],[18.523827,69.856661],[18.501414,69.863307]]]}}
