{"type":"Feature","properties":{"ALL_Uniq":291462,"name":"Dikson","Area_Geode":25.4319774384,"Plate":"Eurasia"},"geometry":{"type":"Polygon","coordinates":[[[80.278398,73.534566],[80.269782,73.533186],[80.279947,73.532063],[80.272238,73.5285],[80.291003,73.522299],[80.277391,73.519922],[80.281587,73.517994],[80.277334,73.515451],[80.281839,73.513462],[80.280422,73.510888],[80.266711,73.511622],[80.270818,73.50727],[80.264862,73.505197],[80.24355,73.507043],[80.24098,73.505859],[80.245425,73.505647],[80.245448,73.502022],[80.23237,73.500686],[80.262632,73.492211],[80.266933,73.488256],[80.273298,73.489279],[80.285389,73.484995],[80.296816,73.484469],[80.296841,73.48713],[80.310131,73.483088],[80.327041,73.485778],[80.353673,73.484144],[80.357889,73.480913],[80.352799,73.477804],[80.363613,73.47582],[80.374921,73.481196],[80.408432,73.482277],[80.414144,73.478325],[80.399979,73.476754],[80.454252,73.476082],[80.45565,73.476832],[80.438999,73.476906],[80.436603,73.479127],[80.457691,73.48339],[80.460781,73.488674],[80.432325,73.491847],[80.434587,73.493327],[80.378287,73.496331],[80.374683,73.499161],[80.387466,73.499741],[80.362786,73.505602],[80.38338,73.507401],[80.384456,73.509443],[80.378143,73.510446],[80.379767,73.513811],[80.391719,73.511874],[80.387332,73.510127],[80.395324,73.504642],[80.424474,73.506547],[80.427114,73.508018],[80.421841,73.509409],[80.457618,73.512208],[80.459993,73.513408],[80.45579,73.515088],[80.469408,73.516374],[80.376479,73.524608],[80.367695,73.527043],[80.370974,73.529935],[80.358641,73.531318],[80.343203,73.527286],[80.315918,73.528104],[80.278398,73.534566]]]}}
