{"type":"Feature","properties":{"ALL_Uniq":291445,"name":"Khalyango","Area_Geode":31.1289133303,"Plate":"Eurasia"},"geometry":{"type":"Polygon","coordinates":[[[72.896423,72.683688],[72.909301,72.680657],[72.843435,72.681565],[72.821542,72.660958],[72.84406,72.650495],[72.84257,72.64236],[72.849479,72.629148],[72.847436,72.62211],[72.86237,72.612009],[72.862162,72.599127],[72.85977,72.598171],[72.880429,72.589375],[72.877089,72.581967],[72.898566,72.584845],[72.920851,72.579112],[72.918894,72.577088],[72.935618,72.574576],[72.945903,72.569951],[72.954414,72.558527],[72.969797,72.55439],[72.976293,72.547447],[72.982775,72.547724],[72.979883,72.557781],[72.971789,72.565385],[72.930428,72.590057],[72.911461,72.608474],[72.906445,72.610031],[72.910932,72.610756],[72.904279,72.62134],[72.907114,72.622452],[72.905049,72.630753],[72.910582,72.63205],[72.911791,72.639472],[72.918899,72.640974],[72.921546,72.646213],[72.931024,72.65111],[72.937061,72.650791],[72.937432,72.646073],[72.947251,72.649625],[72.945643,72.653556],[72.959389,72.653658],[72.960218,72.663697],[72.931773,72.674675],[72.927976,72.677166],[72.929161,72.679411],[72.896423,72.683688]]]}}
