{"type":"Feature","properties":{"ALL_Uniq":291562,"name":"Gavrilova","Area_Geode":10.2684101156,"Plate":"Eurasia"},"geometry":{"type":"Polygon","coordinates":[[[92.68383,76.003947],[92.656334,76.003938],[92.659473,76.001922],[92.618802,75.999618],[92.605396,75.995855],[92.576959,75.999605],[92.576576,75.994305],[92.590064,75.993129],[92.593466,75.989086],[92.583611,75.986619],[92.588296,75.981946],[92.575459,75.974487],[92.595861,75.970794],[92.640949,75.972658],[92.679596,75.967833],[92.693824,75.969475],[92.699109,75.971844],[92.692995,75.974395],[92.696662,75.978727],[92.69596,75.983928],[92.705253,75.987328],[92.708008,75.991039],[92.704836,75.992489],[92.70769,75.993339],[92.692513,75.998074],[92.696372,75.999453],[92.693824,76.001489],[92.676244,76.00197],[92.68383,76.003947]]]}}
