{"type":"Feature","properties":{"ALL_Uniq":291573,"name":"Slozhnyy","Area_Geode":50.6352831362,"Plate":"Eurasia"},"geometry":{"type":"Polygon","coordinates":[[[88.985472,77.133189],[88.875065,77.132713],[88.787739,77.121054],[88.727301,77.100353],[88.704458,77.083934],[88.701126,77.068706],[88.7135,77.051098],[88.741815,77.033014],[88.797257,77.008268],[88.87102,76.988518],[88.906236,76.982807],[89.023781,76.973052],[89.101828,76.977335],[89.17107,76.986377],[89.174639,76.989708],[89.053435,76.977115],[89.017776,76.976541],[88.884717,76.988343],[88.830767,77.003952],[88.831243,77.007045],[88.878118,77.012756],[88.882639,77.010852],[88.879308,77.007283],[88.882401,77.005142],[88.901913,76.996814],[88.921424,76.990151],[88.929277,76.993007],[88.918331,76.99491],[88.909289,77.002524],[88.876691,77.017515],[88.866459,77.019419],[88.855513,77.016087],[88.836716,77.018705],[88.796027,77.035361],[88.772708,77.03774],[88.732495,77.052493],[88.749151,77.056538],[88.860748,77.049162],[88.864079,77.046306],[88.834574,77.034171],[88.836716,77.02965],[88.831005,77.026557],[88.853372,77.024653],[88.855316,77.0254],[88.848415,77.029921],[88.852936,77.033014],[88.920275,77.057284],[88.940976,77.078224],[88.911233,77.089883],[88.937169,77.07751],[88.931458,77.075606],[88.809154,77.101067],[88.785597,77.100353],[88.776555,77.094642],[88.732773,77.088693],[88.728728,77.094404],[88.775366,77.112012],[88.850319,77.106063],[89.003794,77.123433],[89.041865,77.120816],[89.033537,77.126289],[88.985472,77.133189]]]}}
