{"type":"Feature","properties":{"ALL_Uniq":291613,"name":"Payer","Area_Geode":144.006428283,"Plate":"Eurasia"},"geometry":{"type":"Polygon","coordinates":[[[57.86646,81.227486],[57.784368,81.215493],[57.709082,81.21892],[57.667442,81.212828],[57.601198,81.211401],[57.579116,81.207641],[57.521771,81.207831],[57.459334,81.201978],[57.358635,81.20055],[57.354114,81.197457],[57.327512,81.195839],[57.319032,81.191841],[57.277439,81.185702],[57.245411,81.185179],[57.243162,81.182038],[57.248195,81.180468],[57.243305,81.179682],[57.246767,81.17854],[57.239843,81.178219],[57.24641,81.175271],[57.225909,81.169846],[57.233747,81.167847],[57.203837,81.164706],[57.217757,81.163421],[57.187776,81.161637],[57.137236,81.166491],[57.045508,81.164064],[57.013599,81.157853],[56.985188,81.159138],[56.965632,81.15634],[56.957294,81.152342],[56.941818,81.150972],[56.947586,81.14863],[56.940333,81.146232],[56.95718,81.143034],[57.03988,81.139188],[57.127311,81.125768],[57.119316,81.124512],[57.214342,81.114575],[57.230046,81.111377],[57.237413,81.106637],[57.27379,81.102526],[57.317077,81.10184],[57.356524,81.109],[57.370872,81.108358],[57.37744,81.10486],[57.39111,81.104753],[57.382079,81.107466],[57.398805,81.105895],[57.403716,81.101555],[57.414509,81.100755],[57.480258,81.101374],[57.524183,81.105943],[57.584955,81.104087],[57.66638,81.110321],[57.743141,81.106038],[57.756609,81.107751],[57.774693,81.115604],[57.778833,81.11884],[57.773027,81.121076],[57.781085,81.125847],[57.815408,81.135305],[57.815349,81.139291],[57.807259,81.142741],[57.808449,81.146311],[57.828496,81.153806],[57.814873,81.161182],[57.852885,81.172782],[57.913526,81.177803],[57.925804,81.180468],[57.94127,81.188701],[57.980722,81.19227],[58.016318,81.193031],[58.073378,81.187225],[58.056769,81.19108],[58.057816,81.19365],[58.040922,81.195506],[58.044586,81.200455],[58.032499,81.203739],[58.031975,81.21083],[58.002898,81.217444],[57.935226,81.217968],[57.86646,81.227486]]]}}
