{"type":"Feature","properties":{"ALL_Uniq":340505,"name":"St Phillips","Area_Geode":22.6635858028,"Plate":"North America"},"geometry":{"type":"Polygon","coordinates":[[[-80.592782,32.319364],[-80.593274,32.315158],[-80.593634,32.317796],[-80.598758,32.314748],[-80.594844,32.31169],[-80.601039,32.30385],[-80.61761,32.302885],[-80.614764,32.296642],[-80.624122,32.293704],[-80.627637,32.286071],[-80.623158,32.280423],[-80.643485,32.277291],[-80.643197,32.271468],[-80.634159,32.267892],[-80.64268,32.269749],[-80.64624,32.264171],[-80.644837,32.260189],[-80.623443,32.256149],[-80.620592,32.261676],[-80.608868,32.266389],[-80.604948,32.272981],[-80.587573,32.282557],[-80.586356,32.289423],[-80.568682,32.306868],[-80.573779,32.310501],[-80.577073,32.305413],[-80.576357,32.309398],[-80.574443,32.311007],[-80.571328,32.311306],[-80.569539,32.310761],[-80.56793,32.308155],[-80.564407,32.312479],[-80.561907,32.31881],[-80.592782,32.319364]]]}}
