{"type":"Feature","properties":{"ALL_Uniq":340547,"name":"Mackenzie Delta","Area_Geode":1434.96565092,"Plate":"North America"},"geometry":{"type":"Polygon","coordinates":[[[-135.246183,68.928502],[-135.330541,68.910988],[-135.459847,68.906647],[-135.463523,68.905501],[-135.463539,68.902153],[-135.36849,68.90556],[-135.400826,68.904221],[-135.418817,68.898312],[-135.484377,68.900185],[-135.493715,68.895646],[-135.521093,68.892356],[-135.524106,68.888392],[-135.53549,68.885401],[-135.568415,68.879897],[-135.546416,68.854851],[-135.548051,68.845787],[-135.449604,68.832569],[-135.399518,68.83309],[-135.344967,68.822594],[-135.321618,68.824058],[-135.325551,68.827134],[-135.358854,68.831237],[-135.375958,68.837231],[-135.367392,68.839273],[-135.341437,68.834949],[-135.340327,68.831253],[-135.321619,68.826526],[-135.319175,68.823137],[-135.292275,68.823402],[-135.287501,68.826048],[-135.286316,68.824872],[-135.288632,68.823213],[-135.280427,68.820893],[-135.277531,68.814006],[-135.273159,68.814604],[-135.275999,68.815961],[-135.275113,68.820389],[-135.269331,68.817628],[-135.272235,68.816529],[-135.270993,68.813783],[-135.275712,68.812693],[-135.261567,68.801865],[-135.249103,68.802939],[-135.257271,68.802944],[-135.256994,68.806061],[-135.262174,68.805648],[-135.26681,68.810117],[-135.246165,68.81018],[-135.236581,68.805606],[-135.223605,68.807716],[-135.221126,68.806818],[-135.222857,68.804825],[-135.246107,68.803365],[-135.235269,68.802339],[-135.217499,68.795644],[-135.202802,68.802552],[-135.209877,68.796498],[-135.214857,68.79509],[-135.220665,68.795414],[-135.240572,68.802331],[-135.227533,68.795969],[-135.239809,68.79505],[-135.242293,68.793655],[-135.241202,68.789982],[-135.249609,68.79609],[-135.239682,68.799243],[-135.243881,68.800792],[-135.242472,68.802314],[-135.257683,68.799971],[-135.266209,68.802151],[-135.281911,68.814288],[-135.284197,68.819817],[-135.290584,68.821755],[-135.32934,68.821495],[-135.350708,68.816138],[-135.366513,68.823359],[-135.394743,68.826623],[-135.447422,68.823655],[-135.500341,68.829328],[-135.529288,68.826029],[-135.510796,68.813314],[-135.513986,68.812528],[-135.508807,68.808378],[-135.458359,68.784634],[-135.429794,68.773584],[-135.396313,68.766022],[-135.373928,68.765999],[-135.336652,68.77165],[-135.29948,68.769203],[-135.236826,68.75489],[-135.227087,68.748984],[-135.216079,68.735594],[-135.203986,68.73257],[-135.184874,68.734492],[-135.163038,68.742035],[-135.159632,68.747653],[-135.161169,68.755943],[-135.151363,68.761104],[-135.044931,68.757139],[-135.048176,68.760819],[-135.058008,68.762188],[-135.047634,68.763028],[-135.029546,68.753231],[-135.013688,68.736672],[-134.987977,68.730954],[-134.919265,68.748305],[-134.899895,68.762558],[-134.902176,68.773716],[-134.869684,68.783498],[-134.876884,68.781203],[-134.8625,68.779139],[-134.862427,68.774715],[-134.867142,68.773866],[-134.853276,68.766349],[-134.870054,68.771157],[-134.872338,68.773535],[-134.873902,68.771776],[-134.871053,68.770108],[-134.877412,68.77044],[-134.873208,68.768592],[-134.87575,68.764936],[-134.885525,68.763936],[-134.881481,68.769213],[-134.893321,68.767461],[-134.879953,68.772257],[-134.87941,68.775625],[-134.886547,68.776156],[-134.870737,68.779201],[-134.873893,68.777385],[-134.866865,68.775723],[-134.864244,68.777517],[-134.866667,68.779717],[-134.876726,68.779702],[-134.898569,68.77351],[-134.899631,68.761482],[-134.91814,68.747422],[-134.900219,68.741787],[-134.924086,68.746302],[-134.984944,68.729474],[-134.891334,68.70719],[-134.863248,68.68965],[-134.866593,68.677142],[-134.845467,68.667387],[-134.751004,68.649848],[-134.720748,68.648225],[-134.70489,68.652774],[-134.707816,68.650704],[-134.715684,68.647472],[-134.697688,68.645521],[-134.672405,68.64886],[-134.681223,68.652663],[-134.652636,68.665458],[-134.644205,68.665149],[-134.637076,68.660365],[-134.580111,68.658699],[-134.532142,68.64603],[-134.516683,68.636662],[-134.472739,68.635005],[-134.442891,68.629575],[-134.436592,68.624151],[-134.447562,68.618254],[-134.447256,68.614321],[-134.430559,68.602484],[-134.422681,68.601917],[-134.413058,68.608055],[-134.394446,68.606419],[-134.388588,68.603274],[-134.396079,68.59802],[-134.393909,68.595206],[-134.367313,68.590298],[-134.326907,68.588661],[-134.294671,68.591945],[-134.258355,68.622005],[-134.24858,68.625799],[-134.2578,68.621181],[-134.291166,68.592214],[-134.310564,68.588119],[-134.350919,68.588393],[-134.368663,68.58976],[-134.395748,68.594637],[-134.397419,68.598563],[-134.390742,68.602614],[-134.395321,68.605892],[-134.413059,68.607521],[-134.421936,68.60109],[-134.429496,68.600798],[-134.43347,68.602187],[-134.449452,68.613855],[-134.448874,68.618757],[-134.439555,68.623615],[-134.445588,68.629306],[-134.473007,68.633926],[-134.519648,68.635854],[-134.537485,68.645474],[-134.586665,68.657634],[-134.637816,68.65928],[-134.649673,68.66438],[-134.668508,68.656545],[-134.665213,68.653669],[-134.674508,68.654233],[-134.66945,68.649979],[-134.67231,68.64695],[-134.654709,68.639919],[-134.673437,68.646857],[-134.690351,68.644899],[-134.664419,68.636851],[-134.654148,68.629592],[-134.652251,68.622914],[-134.636659,68.619337],[-134.618115,68.610735],[-134.613964,68.607186],[-134.612487,68.601926],[-134.605834,68.599251],[-134.613842,68.600197],[-134.610991,68.597115],[-134.615181,68.595226],[-134.611874,68.593557],[-134.610062,68.596743],[-134.587438,68.596181],[-134.590655,68.591696],[-134.572613,68.588153],[-134.5788,68.59398],[-134.567327,68.597818],[-134.574768,68.592835],[-134.564014,68.592691],[-134.561385,68.589888],[-134.561668,68.586241],[-134.584945,68.585428],[-134.596886,68.589207],[-134.614581,68.584847],[-134.615015,68.579256],[-134.603053,68.583803],[-134.59704,68.581158],[-134.594226,68.585411],[-134.581279,68.583949],[-134.597123,68.579698],[-134.59533,68.575288],[-134.616106,68.570333],[-134.633503,68.57644],[-134.624214,68.58217],[-134.615302,68.581746],[-134.624036,68.584917],[-134.618785,68.586372],[-134.622996,68.587658],[-134.621227,68.588859],[-134.628861,68.588437],[-134.629715,68.59154],[-134.613128,68.593724],[-134.64435,68.598495],[-134.640978,68.601058],[-134.631606,68.597577],[-134.618205,68.605359],[-134.614819,68.602178],[-134.616121,68.607724],[-134.633605,68.617122],[-134.65424,68.622695],[-134.656831,68.630345],[-134.664153,68.635227],[-134.696422,68.643898],[-134.75207,68.645424],[-134.736576,68.642466],[-134.741878,68.641211],[-134.757199,68.644921],[-134.744409,68.634926],[-134.737824,68.624339],[-134.727393,68.618451],[-134.729088,68.614578],[-134.741021,68.611226],[-134.741039,68.607659],[-134.729921,68.599489],[-134.719989,68.596716],[-134.716432,68.590336],[-134.669712,68.573469],[-134.665782,68.569571],[-134.652292,68.568669],[-134.649613,68.563914],[-134.638276,68.561935],[-134.626687,68.557075],[-134.608913,68.544787],[-134.562406,68.543905],[-134.53588,68.533463],[-134.513978,68.530115],[-134.513693,68.525191],[-134.518982,68.522101],[-134.514521,68.528762],[-134.536418,68.532119],[-134.56234,68.543088],[-134.610485,68.542075],[-134.60691,68.543198],[-134.616723,68.546409],[-134.638219,68.561102],[-134.651774,68.563909],[-134.653905,68.568403],[-134.666524,68.568749],[-134.671425,68.572981],[-134.68971,68.576026],[-134.715313,68.588688],[-134.721492,68.596407],[-134.733158,68.599486],[-134.743448,68.608138],[-134.742263,68.612083],[-134.729828,68.615934],[-134.730953,68.619891],[-134.7415,68.62537],[-134.748947,68.635719],[-134.766824,68.647365],[-134.846069,68.662501],[-134.861692,68.661157],[-134.89603,68.66547],[-134.929176,68.661236],[-134.91482,68.661928],[-134.913068,68.660209],[-134.91571,68.658745],[-134.933447,68.660553],[-134.935087,68.655352],[-134.929817,68.651485],[-134.886745,68.648174],[-134.882066,68.64426],[-134.883587,68.635624],[-134.877468,68.632338],[-134.82877,68.622528],[-134.819025,68.604975],[-134.819563,68.599297],[-134.828276,68.591684],[-134.846288,68.584326],[-134.847793,68.58211],[-134.845327,68.580585],[-134.797544,68.571366],[-134.747909,68.546921],[-134.72227,68.542982],[-134.726454,68.54578],[-134.687745,68.534783],[-134.652083,68.532308],[-134.60292,68.515121],[-134.564972,68.512079],[-134.556233,68.505939],[-134.561562,68.496369],[-134.560971,68.490599],[-134.538522,68.486975],[-134.531641,68.470487],[-134.51114,68.451296],[-134.470041,68.441249],[-134.435546,68.448177],[-134.461088,68.439628],[-134.512499,68.447711],[-134.562631,68.436802],[-134.543617,68.430222],[-134.541245,68.431774],[-134.542401,68.430024],[-134.533071,68.424351],[-134.557523,68.403394],[-134.556145,68.399553],[-134.544674,68.395577],[-134.551864,68.389113],[-134.549393,68.385284],[-134.53857,68.382773],[-134.51967,68.387352],[-134.513952,68.384794],[-134.522205,68.372925],[-134.510777,68.373309],[-134.518449,68.366193],[-134.514802,68.36345],[-134.521672,68.359914],[-134.524689,68.36458],[-134.522342,68.371962],[-134.53219,68.360789],[-134.525095,68.357441],[-134.505474,68.35876],[-134.503421,68.354936],[-134.521631,68.346153],[-134.490452,68.342596],[-134.485159,68.339594],[-134.488924,68.335145],[-134.497931,68.332673],[-134.521393,68.332301],[-134.508853,68.329333],[-134.514919,68.323553],[-134.481704,68.319441],[-134.465462,68.321044],[-134.456248,68.317298],[-134.444442,68.318349],[-134.435231,68.314872],[-134.39726,68.311496],[-134.421753,68.30837],[-134.42442,68.306699],[-134.418829,68.3026],[-134.419933,68.299571],[-134.443656,68.296771],[-134.443983,68.294421],[-134.429083,68.29196],[-134.42236,68.293119],[-134.432211,68.293427],[-134.424728,68.297056],[-134.419807,68.293562],[-134.388038,68.298421],[-134.341375,68.295453],[-134.243261,68.304376],[-134.225341,68.315054],[-134.278654,68.304479],[-134.248857,68.311402],[-134.231845,68.318663],[-134.236589,68.322663],[-134.24739,68.32134],[-134.251355,68.325805],[-134.24473,68.325221],[-134.249276,68.337053],[-134.244899,68.347332],[-134.225478,68.360866],[-134.185942,68.372777],[-134.113094,68.380106],[-134.062282,68.394751],[-134.075571,68.402124],[-134.114716,68.412114],[-134.169311,68.414859],[-134.168535,68.41695],[-134.208229,68.424884],[-134.226619,68.433686],[-134.271562,68.427773],[-134.314023,68.432385],[-134.323614,68.436771],[-134.324795,68.443874],[-134.331752,68.447718],[-134.360174,68.441471],[-134.36175,68.432393],[-134.37019,68.428613],[-134.403087,68.429592],[-134.404301,68.424346],[-134.410402,68.418528],[-134.399412,68.413925],[-134.397535,68.411747],[-134.397488,68.407694],[-134.404673,68.403589],[-134.398023,68.410589],[-134.41173,68.418198],[-134.405915,68.424343],[-134.405356,68.429801],[-134.431917,68.44873],[-134.410286,68.43694],[-134.391099,68.446336],[-134.375247,68.446415],[-134.368193,68.451998],[-134.339609,68.453637],[-134.323685,68.447611],[-134.317355,68.437772],[-134.308903,68.434002],[-134.256066,68.430749],[-134.230199,68.435387],[-134.22792,68.446312],[-134.207907,68.459266],[-134.150824,68.4623],[-134.102244,68.476062],[-134.092758,68.482274],[-134.095301,68.48784],[-134.129603,68.501597],[-134.191025,68.493292],[-134.231808,68.492181],[-134.258177,68.494079],[-134.269713,68.498215],[-134.274782,68.510485],[-134.288978,68.508317],[-134.284319,68.507303],[-134.288672,68.505666],[-134.296367,68.506026],[-134.290742,68.508066],[-134.30094,68.507636],[-134.273864,68.512468],[-134.257726,68.526177],[-134.222222,68.571656],[-134.190045,68.595499],[-134.197719,68.596651],[-134.187678,68.596792],[-134.172496,68.604954],[-134.192326,68.612077],[-134.214912,68.612966],[-134.244076,68.625675],[-134.240568,68.62582],[-134.234576,68.623916],[-134.212693,68.613216],[-134.194314,68.613904],[-134.223754,68.651096],[-134.23678,68.664364],[-134.249716,68.67218],[-134.268136,68.675693],[-134.310969,68.665486],[-134.345455,68.662049],[-134.301591,68.658061],[-134.31404,68.653335],[-134.315821,68.655747],[-134.354333,68.659659],[-134.34734,68.66222],[-134.394737,68.664396],[-134.396313,68.665714],[-134.392709,68.666184],[-134.429112,68.67088],[-134.48062,68.689403],[-134.499287,68.691432],[-134.487563,68.693128],[-134.503328,68.709199],[-134.510183,68.733256],[-134.51815,68.743425],[-134.524775,68.761052],[-134.537216,68.766209],[-134.58708,68.7752],[-134.648257,68.801289],[-134.698322,68.795334],[-134.733145,68.783242],[-134.742582,68.785445],[-134.743303,68.79127],[-134.75115,68.793212],[-134.782858,68.782178],[-134.812788,68.782987],[-134.850375,68.799941],[-134.856638,68.79799],[-134.856504,68.790263],[-134.858012,68.797936],[-134.852997,68.800927],[-134.866753,68.820623],[-134.924868,68.841904],[-134.913294,68.840351],[-134.865994,68.821189],[-134.853882,68.803503],[-134.809825,68.784065],[-134.781239,68.783796],[-134.752772,68.79429],[-134.742211,68.792833],[-134.741236,68.786522],[-134.730106,68.784595],[-134.698862,68.797769],[-134.636018,68.803279],[-134.645949,68.818257],[-134.64403,68.828928],[-134.638441,68.836566],[-134.643625,68.855105],[-134.691632,68.878323],[-134.708964,68.883289],[-134.719071,68.891499],[-134.746903,68.901047],[-134.775446,68.915506],[-134.778501,68.915425],[-134.77164,68.912401],[-134.780651,68.911861],[-134.767797,68.906494],[-134.830758,68.92442],[-134.852296,68.926342],[-134.919697,68.902821],[-134.928868,68.885172],[-134.891013,68.900978],[-134.864266,68.898281],[-134.897002,68.897993],[-134.943733,68.875743],[-134.922146,68.870584],[-134.946289,68.874603],[-134.975151,68.870288],[-134.996855,68.871921],[-135.069205,68.89184],[-135.106467,68.889677],[-135.132352,68.884701],[-135.122161,68.881347],[-135.115266,68.882636],[-135.099117,68.876156],[-135.091845,68.869256],[-135.0581,68.857109],[-135.019494,68.8563],[-135.029827,68.854651],[-135.055724,68.855727],[-135.074882,68.853038],[-135.05993,68.856359],[-135.09481,68.869256],[-135.105373,68.877531],[-135.139428,68.881874],[-135.163416,68.878098],[-135.191025,68.88084],[-135.200559,68.891546],[-135.193589,68.902066],[-135.19576,68.91842],[-135.216405,68.926306],[-135.246183,68.928502]]]}}
