{"type":"Feature","properties":{"ALL_Uniq":87877,"name":"Woodford","Area_Geode":71.3901006364,"Plate":"Australia"},"geometry":{"type":"Polygon","coordinates":[[[153.164104,-29.457641],[153.150577,-29.462332],[153.130232,-29.48807],[153.112611,-29.497331],[153.11252,-29.512366],[153.105455,-29.543535],[153.096731,-29.553829],[153.081316,-29.559618],[153.076186,-29.567499],[153.105403,-29.561944],[153.129878,-29.563789],[153.140758,-29.557925],[153.147115,-29.558947],[153.157889,-29.538836],[153.173386,-29.540371],[153.183883,-29.536264],[153.185354,-29.515444],[153.203605,-29.472382],[153.195081,-29.464944],[153.186392,-29.469214],[153.17721,-29.467867],[153.164104,-29.457641]]]}}
