{"type":"Feature","properties":{"ALL_Uniq":87896,"name":"Violin","Area_Geode":51.9671335573,"Plate":"Panama"},"geometry":{"type":"Polygon","coordinates":[[[-83.571321,8.867735],[-83.576422,8.862251],[-83.571251,8.849795],[-83.566803,8.845924],[-83.561595,8.84705],[-83.563881,8.844819],[-83.572597,8.846561],[-83.561191,8.839199],[-83.558187,8.84152],[-83.559933,8.837939],[-83.555727,8.834392],[-83.557204,8.833569],[-83.573038,8.8445],[-83.588035,8.842955],[-83.594027,8.845325],[-83.595776,8.839286],[-83.587548,8.832062],[-83.587682,8.828965],[-83.576221,8.830194],[-83.573448,8.827377],[-83.575811,8.819018],[-83.570295,8.820123],[-83.574726,8.817622],[-83.576316,8.818711],[-83.574542,8.827585],[-83.578023,8.829169],[-83.586052,8.82642],[-83.5819,8.821989],[-83.585505,8.823602],[-83.590411,8.828639],[-83.596329,8.827202],[-83.59521,8.823878],[-83.597125,8.826081],[-83.596827,8.8275],[-83.591247,8.830549],[-83.596421,8.832152],[-83.63558,8.817549],[-83.651854,8.793375],[-83.646315,8.79305],[-83.637789,8.778325],[-83.625245,8.783424],[-83.622694,8.797852],[-83.611896,8.8073],[-83.609979,8.804171],[-83.584864,8.798186],[-83.574097,8.807279],[-83.567816,8.80206],[-83.565163,8.792807],[-83.559183,8.796564],[-83.564275,8.810584],[-83.562328,8.813753],[-83.537143,8.814709],[-83.532982,8.840382],[-83.522517,8.849939],[-83.524391,8.853457],[-83.520966,8.860656],[-83.529451,8.860107],[-83.533213,8.8532],[-83.542593,8.860991],[-83.547246,8.856603],[-83.546087,8.854301],[-83.548145,8.856386],[-83.561454,8.852706],[-83.571321,8.867735]]]}}
