{"type":"Feature","properties":{"ALL_Uniq":87965,"name":"Ilha dos Macacos","Area_Geode":880.287560466,"Plate":"South America"},"geometry":{"type":"Polygon","coordinates":[[[-50.727953,-1.09549],[-50.729048,-1.097847],[-50.711655,-1.118264],[-50.702934,-1.160046],[-50.697788,-1.165492],[-50.682689,-1.160742],[-50.679293,-1.165214],[-50.68,-1.174922],[-50.663826,-1.173347],[-50.661506,-1.171255],[-50.663577,-1.162658],[-50.645702,-1.153482],[-50.640233,-1.157334],[-50.640694,-1.164391],[-50.627056,-1.162402],[-50.626614,-1.168765],[-50.61277,-1.173449],[-50.610143,-1.181953],[-50.598725,-1.179414],[-50.595474,-1.18386],[-50.596963,-1.1949],[-50.586065,-1.200724],[-50.588171,-1.214207],[-50.584965,-1.221166],[-50.589263,-1.225906],[-50.585328,-1.228621],[-50.593004,-1.227096],[-50.587935,-1.219812],[-50.588958,-1.211612],[-50.586574,-1.20139],[-50.594837,-1.197827],[-50.598072,-1.194863],[-50.598948,-1.191232],[-50.596814,-1.183341],[-50.599952,-1.179881],[-50.610311,-1.183597],[-50.614464,-1.179079],[-50.626159,-1.193575],[-50.644021,-1.186324],[-50.65527,-1.190608],[-50.667223,-1.189844],[-50.664734,-1.201048],[-50.680241,-1.202782],[-50.667871,-1.216962],[-50.652685,-1.224616],[-50.651734,-1.236854],[-50.647205,-1.239386],[-50.642253,-1.238843],[-50.636071,-1.232205],[-50.618215,-1.223997],[-50.612305,-1.214391],[-50.60278,-1.212192],[-50.593855,-1.216519],[-50.596137,-1.217263],[-50.603238,-1.212756],[-50.611226,-1.21466],[-50.613166,-1.216032],[-50.615172,-1.221765],[-50.617731,-1.224288],[-50.626249,-1.229091],[-50.63634,-1.233013],[-50.639617,-1.2377],[-50.638035,-1.241151],[-50.638678,-1.251463],[-50.639656,-1.248197],[-50.638578,-1.241076],[-50.639707,-1.239457],[-50.647943,-1.240204],[-50.652753,-1.238083],[-50.658317,-1.262779],[-50.674909,-1.268905],[-50.674998,-1.276201],[-50.68196,-1.286698],[-50.677674,-1.310634],[-50.683749,-1.313283],[-50.688978,-1.325025],[-50.682372,-1.330181],[-50.674758,-1.330299],[-50.659781,-1.342326],[-50.652761,-1.328904],[-50.634405,-1.317606],[-50.624852,-1.314622],[-50.615675,-1.318352],[-50.608846,-1.317259],[-50.597266,-1.307661],[-50.584134,-1.304084],[-50.585874,-1.306193],[-50.596186,-1.307932],[-50.608378,-1.317812],[-50.61668,-1.319167],[-50.627598,-1.315974],[-50.650305,-1.327847],[-50.656686,-1.341485],[-50.670597,-1.35002],[-50.670808,-1.357678],[-50.663647,-1.366284],[-50.681699,-1.390788],[-50.672185,-1.404532],[-50.664029,-1.403214],[-50.63796,-1.3718],[-50.621244,-1.374123],[-50.615861,-1.361829],[-50.612035,-1.359377],[-50.607946,-1.358868],[-50.602045,-1.36445],[-50.588319,-1.356412],[-50.582051,-1.357107],[-50.582202,-1.345439],[-50.574087,-1.337029],[-50.572053,-1.337644],[-50.574398,-1.338142],[-50.576376,-1.342294],[-50.58166,-1.345716],[-50.580099,-1.354615],[-50.581509,-1.357643],[-50.588411,-1.357275],[-50.594822,-1.363079],[-50.601173,-1.365249],[-50.611493,-1.360185],[-50.614812,-1.362146],[-50.618752,-1.374107],[-50.639576,-1.374765],[-50.645357,-1.385346],[-50.663317,-1.404465],[-50.660959,-1.425637],[-50.669515,-1.443272],[-50.673056,-1.46207],[-50.668704,-1.480472],[-50.65687,-1.498834],[-50.638497,-1.516102],[-50.607923,-1.533626],[-50.609457,-1.500142],[-50.608125,-1.487394],[-50.615402,-1.474297],[-50.608398,-1.45521],[-50.609767,-1.435252],[-50.61351,-1.427303],[-50.609804,-1.419521],[-50.612969,-1.427377],[-50.609229,-1.435248],[-50.60759,-1.454128],[-50.61484,-1.474141],[-50.6063,-1.486932],[-50.60839,-1.501868],[-50.606243,-1.513815],[-50.605372,-1.535182],[-50.589653,-1.552783],[-50.586482,-1.543472],[-50.566961,-1.520144],[-50.56106,-1.507787],[-50.556656,-1.494554],[-50.558808,-1.48012],[-50.556613,-1.468667],[-50.542826,-1.438906],[-50.532557,-1.423775],[-50.522883,-1.417617],[-50.493887,-1.413397],[-50.485305,-1.402644],[-50.477462,-1.379955],[-50.477124,-1.350424],[-50.468298,-1.341685],[-50.468016,-1.329605],[-50.481141,-1.320939],[-50.48176,-1.307776],[-50.488839,-1.291996],[-50.503483,-1.286388],[-50.490206,-1.28985],[-50.487189,-1.293109],[-50.479636,-1.312042],[-50.481116,-1.319375],[-50.468568,-1.326846],[-50.466373,-1.334065],[-50.467148,-1.342164],[-50.464222,-1.344221],[-50.441672,-1.333426],[-50.437452,-1.315749],[-50.430314,-1.309471],[-50.391098,-1.334999],[-50.375672,-1.341771],[-50.370588,-1.325683],[-50.359693,-1.311484],[-50.388066,-1.270445],[-50.420715,-1.257693],[-50.422464,-1.229529],[-50.435024,-1.223266],[-50.449263,-1.222917],[-50.463361,-1.213967],[-50.471706,-1.202088],[-50.47636,-1.184338],[-50.489888,-1.172109],[-50.501205,-1.171256],[-50.518312,-1.178577],[-50.514084,-1.186306],[-50.515146,-1.208735],[-50.513013,-1.211468],[-50.514569,-1.211277],[-50.515884,-1.209223],[-50.526675,-1.212243],[-50.524084,-1.228499],[-50.527414,-1.226243],[-50.53768,-1.233509],[-50.537443,-1.241763],[-50.531358,-1.243844],[-50.533201,-1.250515],[-50.530937,-1.254427],[-50.53373,-1.250661],[-50.531895,-1.243841],[-50.538247,-1.241758],[-50.54051,-1.228728],[-50.550931,-1.225396],[-50.554349,-1.230735],[-50.562246,-1.227553],[-50.564634,-1.231528],[-50.571446,-1.218077],[-50.569337,-1.219912],[-50.565686,-1.228313],[-50.5596,-1.226756],[-50.555215,-1.229951],[-50.552775,-1.224882],[-50.549698,-1.224322],[-50.535697,-1.23071],[-50.5271,-1.222663],[-50.528544,-1.211991],[-50.516268,-1.206671],[-50.515685,-1.185642],[-50.518181,-1.180999],[-50.551396,-1.17737],[-50.573235,-1.162907],[-50.566904,-1.174448],[-50.564685,-1.186999],[-50.561367,-1.190315],[-50.566542,-1.187025],[-50.567527,-1.174492],[-50.574091,-1.165493],[-50.577421,-1.154963],[-50.584711,-1.148423],[-50.63526,-1.132446],[-50.665393,-1.129942],[-50.699892,-1.11539],[-50.717339,-1.098805],[-50.727953,-1.09549]]]}}
