{"type":"Feature","properties":{"ALL_Uniq":88031,"name":"Pulau Yetpelle","Area_Geode":14.336252525,"Plate":"Birds Head"},"geometry":{"type":"Polygon","coordinates":[[[130.242114,-2.179862],[130.223463,-2.181885],[130.236257,-2.189538],[130.252179,-2.188146],[130.244771,-2.185435],[130.246456,-2.183948],[130.253293,-2.187502],[130.253516,-2.191379],[130.240197,-2.197902],[130.229208,-2.194137],[130.228841,-2.196997],[130.255128,-2.211363],[130.262828,-2.209234],[130.26516,-2.211654],[130.279898,-2.211643],[130.274404,-2.207017],[130.26967,-2.194979],[130.298656,-2.198459],[130.304216,-2.193422],[130.301027,-2.189306],[130.282869,-2.189263],[130.27401,-2.184713],[130.263809,-2.187131],[130.242114,-2.179862]]]}}
