{"type":"Feature","properties":{"ALL_Uniq":88053,"name":"Schiess Island","Area_Geode":52.2750567795,"Plate":"Sunda"},"geometry":{"type":"Polygon","coordinates":[[[9.406936,4.049455],[9.396524,4.039815],[9.386675,4.038967],[9.386122,4.035647],[9.389651,4.034494],[9.386489,4.034791],[9.384481,4.036884],[9.378548,4.024364],[9.370762,4.025017],[9.364722,4.031727],[9.344377,4.01755],[9.346039,4.01462],[9.344655,4.012072],[9.348917,4.010301],[9.344759,4.010933],[9.344001,4.0124],[9.345484,4.014353],[9.344453,4.016128],[9.335436,4.009748],[9.323602,4.008383],[9.321321,4.005605],[9.325933,4.004092],[9.327374,4.000004],[9.326211,4.000418],[9.324943,4.004184],[9.321206,4.002335],[9.325375,3.993207],[9.336278,3.983077],[9.343203,3.989455],[9.351842,3.986462],[9.35222,3.991853],[9.356428,3.996627],[9.363511,3.989743],[9.366254,3.995002],[9.377817,4.000093],[9.381287,4.005837],[9.392509,4.005572],[9.399095,4.002732],[9.390944,4.003543],[9.391367,3.999223],[9.39686,3.996673],[9.391218,3.9982],[9.388266,4.004188],[9.382737,4.005588],[9.378338,3.9995],[9.370699,3.994513],[9.366419,3.994049],[9.364127,3.988912],[9.358763,3.994184],[9.353505,3.991677],[9.352257,3.985301],[9.350013,3.985255],[9.345343,3.988619],[9.34069,3.987076],[9.339297,3.979188],[9.341977,3.980561],[9.347977,3.976677],[9.356417,3.979795],[9.363581,3.973042],[9.376688,3.968875],[9.379093,3.969344],[9.381842,3.983322],[9.399651,3.982506],[9.397433,3.99414],[9.39936,3.992389],[9.40908,3.996104],[9.412515,4.006757],[9.413357,4.004587],[9.420183,4.0097],[9.421164,4.021519],[9.426867,4.027554],[9.416361,4.036193],[9.415931,4.047984],[9.406936,4.049455]]]}}
