{"type":"Feature","properties":{"ALL_Uniq":88454,"name":"Marajo","Area_Geode":46.3579481221,"Plate":"South America"},"geometry":{"type":"Polygon","coordinates":[[[-50.297999,-1.627213],[-50.302044,-1.64142],[-50.312482,-1.648361],[-50.299295,-1.673013],[-50.297694,-1.686044],[-50.303035,-1.705639],[-50.290191,-1.723494],[-50.286264,-1.742474],[-50.273939,-1.759251],[-50.270716,-1.757049],[-50.265035,-1.672746],[-50.257265,-1.64707],[-50.26141,-1.643158],[-50.29241,-1.635241],[-50.297999,-1.627213]]]}}
