{"type":"Feature","properties":{"ALL_Uniq":88521,"name":"Marajo","Area_Geode":32.8579393871,"Plate":"South America"},"geometry":{"type":"Polygon","coordinates":[[[-50.645665,-1.154777],[-50.662992,-1.163444],[-50.660156,-1.170653],[-50.662049,-1.174089],[-50.672516,-1.176057],[-50.681616,-1.174652],[-50.680351,-1.16508],[-50.682895,-1.161837],[-50.694219,-1.167177],[-50.703715,-1.163204],[-50.712136,-1.188537],[-50.707219,-1.201333],[-50.697321,-1.204102],[-50.666517,-1.201104],[-50.667334,-1.188809],[-50.654732,-1.1898],[-50.645244,-1.185514],[-50.625169,-1.192172],[-50.612774,-1.174532],[-50.625727,-1.17039],[-50.627915,-1.162913],[-50.640938,-1.166021],[-50.641044,-1.157609],[-50.645665,-1.154777]]]}}
