{"type":"Feature","properties":{"ALL_Uniq":88596,"name":"Amazon Delta","Area_Geode":6.37065801102,"Plate":"South America"},"geometry":{"type":"Polygon","coordinates":[[[-51.2303,-0.385371],[-51.241356,-0.394076],[-51.248858,-0.422258],[-51.233198,-0.41902],[-51.227254,-0.41121],[-51.226839,-0.399682],[-51.231279,-0.409828],[-51.232896,-0.408042],[-51.238131,-0.411388],[-51.233413,-0.404867],[-51.237342,-0.405731],[-51.227195,-0.393873],[-51.228735,-0.386745],[-51.237312,-0.393637],[-51.2303,-0.385371]]]}}
