{"type":"Feature","properties":{"ALL_Uniq":88614,"name":"Amazon Delta","Area_Geode":34.8693252433,"Plate":"South America"},"geometry":{"type":"Polygon","coordinates":[[[-50.328945,-0.091623],[-50.345914,-0.091913],[-50.362527,-0.098602],[-50.373092,-0.098998],[-50.374431,-0.121959],[-50.367793,-0.119286],[-50.374393,-0.124036],[-50.389738,-0.151153],[-50.37285,-0.156846],[-50.357358,-0.148271],[-50.343735,-0.14497],[-50.331942,-0.134961],[-50.325616,-0.114069],[-50.314492,-0.111528],[-50.312754,-0.10847],[-50.314449,-0.097644],[-50.328945,-0.091623]]]}}
