{"type":"Feature","properties":{"ALL_Uniq":89027,"name":"Orinoco Delta","Area_Geode":266.504700827,"Plate":"South America"},"geometry":{"type":"Polygon","coordinates":[[[-61.094925,8.621567],[-61.118063,8.594915],[-61.128976,8.575376],[-61.15932,8.557207],[-61.154909,8.549216],[-61.157728,8.550078],[-61.161974,8.556698],[-61.174158,8.558712],[-61.191162,8.571797],[-61.215682,8.582036],[-61.230121,8.579041],[-61.255513,8.567705],[-61.255899,8.556851],[-61.272508,8.523713],[-61.278414,8.50128],[-61.271467,8.49826],[-61.244673,8.508974],[-61.233333,8.509832],[-61.223976,8.499125],[-61.216158,8.498274],[-61.20984,8.502089],[-61.205626,8.514112],[-61.197608,8.517076],[-61.178583,8.502851],[-61.166713,8.506318],[-61.140585,8.498001],[-61.117466,8.497169],[-61.076016,8.501777],[-61.034403,8.520149],[-61.029518,8.527497],[-61.040869,8.542363],[-61.060291,8.548645],[-61.067817,8.541975],[-61.073093,8.542305],[-61.059708,8.549435],[-61.039791,8.543172],[-61.0282,8.52957],[-61.01348,8.547533],[-60.996401,8.558953],[-60.995306,8.565229],[-60.999431,8.560801],[-61.002488,8.568669],[-60.987203,8.601067],[-61.001318,8.60501],[-61.012406,8.614099],[-61.031553,8.621371],[-61.056021,8.616284],[-61.06847,8.622175],[-61.094925,8.621567]]]}}
