{"type":"Feature","properties":{"ALL_Uniq":89046,"name":"Orinoco Delta","Area_Geode":5.36042234184,"Plate":"Africa"},"geometry":{"type":"Polygon","coordinates":[[[-61.488653,8.853953],[-61.493892,8.846508],[-61.506457,8.843816],[-61.490339,8.833033],[-61.491406,8.822974],[-61.499801,8.807142],[-61.538488,8.793062],[-61.550873,8.78545],[-61.555799,8.767541],[-61.55204,8.756158],[-61.553914,8.750777],[-61.551774,8.74609],[-61.560303,8.743138],[-61.56364,8.728755],[-61.586341,8.720551],[-61.609332,8.701684],[-61.635641,8.673484],[-61.643573,8.679313],[-61.651662,8.677381],[-61.676825,8.643409],[-61.685733,8.636599],[-61.694058,8.633817],[-61.713578,8.641839],[-61.722551,8.642412],[-61.731975,8.639384],[-61.728439,8.632757],[-61.712666,8.621494],[-61.730608,8.638886],[-61.716136,8.641055],[-61.696884,8.633041],[-61.691424,8.632522],[-61.678596,8.640021],[-61.65296,8.674983],[-61.644453,8.677977],[-61.637927,8.672132],[-61.6351,8.672408],[-61.608311,8.700798],[-61.584594,8.71993],[-61.564126,8.726507],[-61.561189,8.725366],[-61.564645,8.721527],[-61.563811,8.718759],[-61.55557,8.720638],[-61.564149,8.720366],[-61.56066,8.724874],[-61.560989,8.726432],[-61.563055,8.727879],[-61.561206,8.731073],[-61.560623,8.741147],[-61.550972,8.745553],[-61.553095,8.750892],[-61.551235,8.758045],[-61.55472,8.767795],[-61.552342,8.772446],[-61.549823,8.785131],[-61.539227,8.792211],[-61.510384,8.801205],[-61.501808,8.804683],[-61.498501,8.807661],[-61.493864,8.815026],[-61.490341,8.824793],[-61.48927,8.831966],[-61.490116,8.834766],[-61.493079,8.837732],[-61.505385,8.843278],[-61.496972,8.844305],[-61.492809,8.845964],[-61.488653,8.853953]]]}}
