{"type":"Feature","properties":{"ALL_Uniq":89142,"name":"Turneffe Atoll","Area_Geode":5.05969107333,"Plate":"North America"},"geometry":{"type":"Polygon","coordinates":[[[-87.849585,17.300771],[-87.848781,17.291934],[-87.842683,17.290613],[-87.844303,17.289271],[-87.847484,17.288394],[-87.84346,17.282972],[-87.848514,17.288162],[-87.849212,17.290724],[-87.849782,17.283282],[-87.852519,17.282995],[-87.854624,17.289667],[-87.858806,17.28673],[-87.857425,17.280327],[-87.84757,17.277518],[-87.845387,17.272589],[-87.849596,17.269489],[-87.855132,17.272169],[-87.860318,17.268732],[-87.854654,17.270781],[-87.849371,17.268428],[-87.842991,17.271453],[-87.83165,17.288221],[-87.829781,17.297182],[-87.845904,17.297537],[-87.849585,17.300771]]]}}
