{"type":"Feature","properties":{"ALL_Uniq":89418,"name":"Mackenzie Delta","Area_Geode":13.7166117617,"Plate":"North America"},"geometry":{"type":"Polygon","coordinates":[[[-134.223193,67.72385],[-134.224131,67.716112],[-134.211273,67.708167],[-134.21355,67.705036],[-134.224136,67.703304],[-134.218857,67.695701],[-134.220361,67.691587],[-134.211085,67.686308],[-134.209849,67.681885],[-134.194635,67.677156],[-134.18433,67.669967],[-134.195027,67.663686],[-134.196275,67.650585],[-134.208742,67.645199],[-134.174218,67.630389],[-134.135565,67.622356],[-134.146424,67.647515],[-134.150067,67.649108],[-134.150878,67.643643],[-134.152841,67.65069],[-134.166507,67.663397],[-134.170363,67.672592],[-134.182846,67.67701],[-134.189121,67.682756],[-134.193576,67.708724],[-134.223193,67.72385]]]}}
