{"type":"Feature","properties":{"ALL_Uniq":90211,"name":"Dao Long Son","Area_Geode":25.3332801682,"Plate":"Sunda"},"geometry":{"type":"Polygon","coordinates":[[[107.069339,10.482799],[107.06064,10.476116],[107.050591,10.476805],[107.050445,10.471294],[107.042194,10.465895],[107.056526,10.445952],[107.063346,10.442418],[107.062192,10.44774],[107.063801,10.443792],[107.073361,10.442309],[107.081442,10.433476],[107.087045,10.436382],[107.090554,10.433526],[107.092893,10.437795],[107.095719,10.433779],[107.101927,10.435168],[107.10494,10.445113],[107.101757,10.444895],[107.101207,10.448323],[107.10381,10.445942],[107.105695,10.45125],[107.107636,10.447254],[107.106379,10.443793],[107.118612,10.444018],[107.112798,10.45071],[107.116511,10.46407],[107.10823,10.465998],[107.111632,10.475184],[107.10339,10.469204],[107.103379,10.46618],[107.10478,10.467141],[107.107849,10.465107],[107.104494,10.46603],[107.104888,10.463215],[107.099216,10.460735],[107.091531,10.469452],[107.094193,10.47591],[107.092431,10.479245],[107.08782,10.479812],[107.091199,10.47641],[107.090378,10.470328],[107.082556,10.466114],[107.084964,10.471344],[107.080769,10.471284],[107.081696,10.478189],[107.075769,10.475285],[107.071726,10.47981],[107.06898,10.475833],[107.066421,10.477623],[107.069339,10.482799]]]}}
