{"type":"Feature","properties":{"ALL_Uniq":90690,"name":"Iqitarjuaq","Area_Geode":8.78179600873,"Plate":"North America"},"geometry":{"type":"Polygon","coordinates":[[[-63.910005,67.462928],[-63.940963,67.457258],[-63.944885,67.460145],[-63.948844,67.456747],[-63.940087,67.45631],[-63.92879,67.446923],[-63.927919,67.440665],[-63.931575,67.432451],[-63.921495,67.428549],[-63.9153,67.422091],[-63.916278,67.41982],[-63.904859,67.412229],[-63.885861,67.407059],[-63.871365,67.412796],[-63.876779,67.417504],[-63.886846,67.417932],[-63.893079,67.424719],[-63.893204,67.433415],[-63.903041,67.440853],[-63.898441,67.447415],[-63.880283,67.456614],[-63.898582,67.458809],[-63.900037,67.455908],[-63.910005,67.462928]]]}}
