{"type":"Feature","id":"FAO_AREAS_NOCOASTLINE.201","geometry_name":"the_geom","properties":{"ID":"fao:21.0.b","F_CODE":"21.0.B","F_LEVEL":"DIVISION","F_STATUS":"endorsed","F_NAME":"Atlantic, Northwest / 21.0.B","OCEAN":"Atlantic","SUBOCEAN":"2","F_AREA":"21","F_SUBAREA":"21.0","F_DIVISION":"21.0.B","F_SUBDIVIS":"","F_SUBUNIT":"","NAME_EN":"Atlantic, Northwest / 21.0.B","NAME_FR":"Atl NW / 21.0.B","NAME_ES":"Atl NW / 21.0.B","name":"Atlantic, Northwest / 21.0.B"},"bbox":[-69.0,60.200001,-57.216667,67.5],"geometry":{"type":"Polygon","coordinates":[[[-64.111244,66.422234],[-63.337904,66.3855],[-63.029999,66.480003],[-62.882255,66.25],[-57.6343,66.25],[-57.66,66.058334],[-57.698334,65.628334],[-57.763332,65.301666],[-57.731667,65.148331],[-57.818333,64.071663],[-57.943333,63.876667],[-57.98,63.735001],[-58.033333,63.583332],[-57.956665,63.380001],[-57.613499,62.629219],[-57.423332,62.191666],[-57.351666,62.008335],[-57.218334,61.0],[-57.216667,60.200001],[-59.0,61.0],[-65.0,61.0],[-66.258392,61.866249],[-69.0,63.330002],[-69.0,67.5],[-64.111244,66.422234]]]}}
