{"type":"Feature","id":"FAO_AREAS_NOCOASTLINE.319","geometry_name":"the_geom","properties":{"ID":"fao:21.4.v.n","F_CODE":"21.4.V.n","F_LEVEL":"SUBDIVISION","F_STATUS":"endorsed","F_NAME":"Atlantic, Northwest / 21.4.V.n","OCEAN":"Atlantic","SUBOCEAN":"2","F_AREA":"21","F_SUBAREA":"21.4","F_DIVISION":"21.4.V","F_SUBDIVIS":"21.4.V.n","F_SUBUNIT":"","NAME_EN":"Atlantic, Northwest / 21.4.V.n","NAME_FR":"Atl NW / 21.4.V.n","NAME_ES":"Atl NW / 21.4.V.n","name":"Atlantic, Northwest / 21.4.V.n"},"bbox":[-61.330002,45.632604,-57.451267,47.833332],"geometry":{"type":"Polygon","coordinates":[[[-60.0,47.833332],[-58.517029,46.583332],[-57.451267,45.666668],[-60.0,45.666668],[-60.151459,45.700001],[-60.195844,45.81647],[-60.815238,45.632604],[-60.959999,45.700001],[-61.16,45.639999],[-61.330002,45.75],[-60.525155,46.962115],[-60.439409,46.997071],[-60.405079,47.032093],[-60.408051,47.049999],[-60.0,47.833332]]]}}
