{"type":"Feature","id":"FAO_AREAS_NOCOASTLINE.331","geometry_name":"the_geom","properties":{"ID":"fao:27.3.d.28","F_CODE":"27.3.d.28","F_LEVEL":"SUBDIVISION","F_STATUS":"endorsed","F_NAME":"East of Gotland or Gulf of Riga (Subdivision 27.3.d.28)","OCEAN":"Atlantic","SUBOCEAN":"2","F_AREA":"27","F_SUBAREA":"27.3","F_DIVISION":"27.3.d","F_SUBDIVIS":"27.3.d.28","F_SUBUNIT":"","NAME_EN":"East of Gotland or Gulf of Riga (Subdivision 27.3.d.28)","NAME_FR":"Est de Gotland ou Golfe de Riga (Sous-division 27.3.d.28)","NAME_ES":"Este de Gotland o Golfo de Riga (Subdivisión 27.3.d.28)","name":"East of Gotland or Gulf of Riga (Subdivision 27.3.d.28)"},"bbox":[18.0,56.489396,24.923848,58.642214],"geometry":{"type":"Polygon","coordinates":[[[21.960532,58.482778],[22.038424,58.397348],[22.241949,58.339557],[23.21886,58.499995],[23.965796,58.497549],[24.211728,58.642214],[24.890328,58.554985],[24.923848,56.518643],[21.74205,56.489396],[20.992535,56.5],[18.0,56.5],[18.0,57.0],[18.294,57.0],[18.327549,57.10376],[18.39389,57.459096],[18.469039,57.592898],[18.839285,57.792684],[18.998747,57.89716],[19.0,58.5],[21.924,58.5],[21.960532,58.482778]]]}}
