{"type":"Feature","id":"FAO_AREAS_NOCOASTLINE.328","geometry_name":"the_geom","properties":{"ID":"fao:27.5.b.2","F_CODE":"27.5.b.2","F_LEVEL":"SUBDIVISION","F_STATUS":"endorsed","F_NAME":"Faroe Bank (Subdivision 27.5.b.2)","OCEAN":"Atlantic","SUBOCEAN":"2","F_AREA":"27","F_SUBAREA":"27.5","F_DIVISION":"27.5.b","F_SUBDIVIS":"27.5.b.2","F_SUBUNIT":"","NAME_EN":"Faroe Bank (Subdivision 27.5.b.2)","NAME_FR":"Banc des Féroé (Sous-division 27.5.b.2)","NAME_ES":"Banco de las Feroe (Subdivisión 27.5.b.2)","name":"Faroe Bank (Subdivision 27.5.b.2)"},"bbox":[-10.0,60.0,-7.5,61.5],"geometry":{"type":"Polygon","coordinates":[[[-8.0,60.0],[-10.0,60.0],[-10.0,61.5],[-8.0,61.5],[-7.5,61.25],[-7.5,60.5],[-8.0,60.5],[-8.0,60.0]]]}}
