{"type":"Feature","id":"FAO_AREAS_NOCOASTLINE.346","geometry_name":"the_geom","properties":{"ID":"fao:27.6.b.2","F_CODE":"27.6.b.2","F_LEVEL":"SUBDIVISION","F_STATUS":"endorsed","F_NAME":"Rockall Non-NEAFC area (Subdivision 27.6.b.2)","OCEAN":"Atlantic","SUBOCEAN":"2","F_AREA":"27","F_SUBAREA":"27.6","F_DIVISION":"27.6.b","F_SUBDIVIS":"27.6.b.2","F_SUBUNIT":"","NAME_EN":"Rockall Non-NEAFC area (Subdivision 27.6.b.2)","NAME_FR":"Rockall - Partie de non-CPANE (Sous-division 27.6.b.2)","NAME_ES":"Rockall Non-CPANE (Subdivisión 27.6.b.2)","name":"Rockall Non-NEAFC area (Subdivision 27.6.b.2)"},"bbox":[-15.984662,54.5,-12.0,60.0],"geometry":{"type":"Polygon","coordinates":[[[-12.0,60.0],[-12.0,54.5],[-15.984662,54.5],[-15.955326,54.652285],[-15.865768,54.932932],[-15.787034,55.102906],[-15.581332,55.446401],[-15.264328,55.812457],[-14.908329,56.1432],[-14.716977,56.304149],[-14.335812,56.574054],[-14.620443,57.000902],[-14.878833,57.873258],[-14.794791,58.508468],[-14.572699,59.009326],[-13.983978,59.657719],[-13.49957,60.0],[-12.0,60.0]]]}}
