{"type":"Feature","id":"FAO_AREAS_NOCOASTLINE.142","geometry_name":"the_geom","properties":{"ID":"fao:34.4.1","F_CODE":"34.4.1","F_LEVEL":"DIVISION","F_STATUS":"endorsed","F_NAME":"Southwest Gulf of Guinea","OCEAN":"Atlantic","SUBOCEAN":"3","F_AREA":"34","F_SUBAREA":"34.4","F_DIVISION":"34.4.1","F_SUBDIVIS":"","F_SUBUNIT":"","NAME_EN":"Southwest Gulf of Guinea","NAME_FR":"Golfe de Guinée, sud-ouest","NAME_ES":"Golfo de Guinea sudoccidental","name":"Southwest Gulf of Guinea"},"bbox":[-20.0,-6.0,3.0,0.0],"geometry":{"type":"Polygon","coordinates":[[[3.0,0.0],[3.0,-6.0],[-20.0,-6.0],[-20.0,0.0],[3.0,0.0]]]}}
