{"type":"Feature","id":"FAO_AREAS_NOCOASTLINE.21","geometry_name":"the_geom","properties":{"ID":"fao:37.1","F_CODE":"37.1","F_LEVEL":"SUBAREA","F_STATUS":"endorsed","F_NAME":"Western subarea","OCEAN":"Atlantic","SUBOCEAN":"3","F_AREA":"37","F_SUBAREA":"37.1","F_DIVISION":"","F_SUBDIVIS":"","F_SUBUNIT":"","NAME_EN":"Western subarea","NAME_FR":"Sous-zone occidentale","NAME_ES":"Subárea occidental","name":"Western subarea"},"bbox":[-5.913127,34.563847,16.5,46.0],"geometry":{"type":"Polygon","coordinates":[[[8.59,34.563847],[-5.913127,34.563847],[-5.61,35.0],[-5.6,42.428025],[-4.460679,42.421401],[-1.986716,42.615635],[-1.993999,43.0],[0.0,43.0],[0.0,46.0],[9.0,46.0],[16.0,40.0],[16.5,39.0],[16.0,38.0],[15.0,38.0],[14.0,37.5],[12.5,38.02],[11.04,37.080002],[10.0,36.0],[8.59,35.0],[8.59,34.563847]]]}}
