{"type":"Feature","id":"FAO_AREAS_NOCOASTLINE.63","geometry_name":"the_geom","properties":{"ID":"fao:58.4","F_CODE":"58.4","F_LEVEL":"SUBAREA","F_STATUS":"endorsed","F_NAME":"Indian Antarctic 58.4","OCEAN":"Indian","SUBOCEAN":"10","F_AREA":"58","F_SUBAREA":"58.4","F_DIVISION":"","F_SUBDIVIS":"","F_SUBUNIT":"","NAME_EN":"Indian Antarctic 58.4","NAME_FR":"Ind Antar 58.4","NAME_ES":"Ind Antar 58.4","name":"Indian Antarctic 58.4"},"bbox":[29.994797,-87.794796,150.0,-50.0],"geometry":{"type":"Polygon","coordinates":[[[149.792626,-87.64941],[29.994797,-87.794796],[30.0,-50.0],[60.0,-50.0],[60.0,-56.0],[80.0,-56.0],[80.0,-55.0],[150.0,-55.0],[150.0,-87.583924],[149.792626,-87.64941]]]}}
