{"type":"Feature","properties":{"OBJECTID":654.0,"ECO_NAME":"New Zealand South Island temperate forests","BIOME_NUM":4.0,"BIOME_NAME":"Temperate Broadleaf & Mixed Forests","REALM":"Australasia","ECO_BIOME_":"AU04","NNH":3,"ECO_ID":172,"SHAPE_LENG":9.29818988266,"SHAPE_AREA":1.36476135666,"NNH_NAME":"Nature Could Recover","COLOR":"#A5E692","COLOR_BIO":"#00734C","COLOR_NNH":"#F9A91B","LICENSE":"CC-BY 4.0","name":"New Zealand South Island temperate forests"},"geometry":{"type":"Polygon","coordinates":[[[168.220551,-45.652187],[168.204316,-45.645843],[168.159745,-45.611061],[168.145447,-45.593429],[168.129135,-45.577472],[168.119797,-45.568698],[168.109375,-45.563079],[168.089554,-45.556255],[168.078873,-45.555759],[168.006729,-45.539123],[167.960129,-45.530719],[167.90474,-45.536197],[167.870591,-45.546558],[167.85936,-45.550838],[167.805756,-45.582454],[167.794846,-45.586654],[167.784912,-45.588554],[167.769654,-45.588321],[167.763611,-45.590576],[167.725632,-45.618076],[167.714524,-45.624244],[167.70195,-45.627597],[167.691208,-45.627063],[167.684098,-45.623943],[167.680558,-45.620555],[167.64621,-45.64376],[167.641983,-45.649021],[167.634888,-45.665153],[167.628418,-45.671798],[167.609619,-45.684185],[167.606629,-45.690719],[167.607788,-45.69614],[167.619019,-45.708873],[167.620911,-45.713337],[167.620911,-45.718879],[167.616135,-45.723713],[167.592133,-45.732475],[167.58667,-45.735828],[167.585389,-45.740459],[167.588669,-45.745389],[167.601792,-45.750324],[167.603821,-45.752629],[167.603852,-45.761151],[167.607956,-45.767471],[167.612305,-45.770603],[167.625122,-45.774078],[167.627076,-45.778004],[167.634323,-45.836693],[167.556214,-45.878693],[167.463242,-45.925233],[167.417267,-45.954705],[167.367478,-45.978337],[167.352143,-45.988103],[167.335556,-46.005337],[167.315934,-46.04691],[167.291489,-46.071652],[167.275818,-46.083787],[167.255127,-46.093506],[167.222596,-46.101781],[167.212433,-46.10286],[167.181977,-46.097024],[167.17157,-46.097993],[167.164917,-46.102173],[167.158005,-46.110036],[167.147232,-46.139626],[167.140702,-46.148184],[167.116333,-46.165411],[167.100586,-46.172734],[167.058014,-46.184839],[167.026429,-46.191263],[166.996735,-46.195112],[166.951477,-46.204694],[166.932923,-46.212171],[166.922638,-46.223711],[166.949982,-46.221746],[166.966065,-46.222578],[167.001374,-46.227026],[167.029694,-46.236753],[167.063019,-46.235365],[167.08664,-46.238416],[167.147766,-46.253141],[167.155243,-46.257032],[167.163605,-46.269529],[167.184967,-46.268697],[167.201355,-46.262029],[167.212189,-46.260641],[167.238556,-46.261755],[167.261109,-46.265638],[167.280274,-46.270918],[167.292481,-46.270635],[167.301911,-46.268415],[167.308869,-46.263975],[167.333863,-46.253973],[167.356629,-46.252309],[167.389435,-46.256475],[167.397766,-46.253141],[167.410523,-46.243696],[167.415802,-46.228414],[167.415528,-46.202581],[167.420258,-46.196194],[167.434143,-46.187856],[167.439972,-46.182583],[167.443299,-46.175359],[167.446076,-46.157858],[167.451905,-46.152577],[167.460236,-46.149251],[167.483033,-46.147588],[167.534424,-46.150639],[167.556641,-46.154248],[167.596924,-46.164251],[167.646637,-46.185636],[167.657196,-46.188138],[167.670533,-46.188696],[167.693299,-46.18675],[167.703583,-46.188969],[167.708313,-46.194806],[167.704132,-46.199255],[167.701905,-46.207304],[167.716645,-46.224523],[167.722748,-46.229246],[167.740509,-46.253141],[167.75943,-46.267584],[167.766938,-46.271475],[167.778046,-46.282034],[167.7836,-46.296201],[167.781372,-46.30425],[167.776917,-46.310636],[167.748291,-46.317587],[167.741333,-46.322035],[167.74469,-46.32842],[167.753876,-46.331747],[167.767212,-46.332304],[167.776093,-46.335363],[167.782471,-46.340086],[167.791352,-46.360639],[167.806641,-46.368696],[167.812744,-46.373693],[167.817749,-46.379247],[167.819702,-46.386755],[167.824402,-46.392309],[167.832184,-46.396475],[167.8508,-46.397306],[167.864685,-46.388418],[167.873017,-46.385084],[167.883881,-46.383695],[167.893036,-46.385084],[167.905548,-46.394811],[167.916077,-46.397031],[167.929963,-46.388418],[167.940247,-46.376745],[167.955536,-46.369245],[167.967743,-46.368696],[167.976624,-46.371748],[167.988556,-46.373136],[168.012482,-46.372305],[168.0336,-46.376745],[168.050263,-46.383978],[168.059693,-46.383421],[168.061646,-46.375082],[168.054688,-46.362028],[168.056641,-46.353697],[168.063874,-46.349531],[168.116364,-46.341474],[168.153595,-46.340917],[168.174988,-46.33814],[168.194702,-46.343412],[168.21109,-46.35314],[168.218018,-46.366468],[168.223023,-46.37203],[168.224976,-46.37953],[168.22995,-46.385084],[168.237732,-46.388975],[168.250275,-46.398695],[168.254975,-46.404525],[168.265534,-46.423972],[168.280274,-46.44119],[168.29776,-46.473967],[168.30246,-46.479529],[168.310242,-46.483695],[168.319428,-46.484809],[168.325257,-46.479529],[168.327759,-46.463973],[168.346924,-46.459249],[168.353852,-46.454809],[168.356903,-46.447584],[168.346619,-46.427863],[168.344422,-46.420637],[168.350251,-46.415365],[168.359681,-46.412862],[168.368836,-46.413969],[168.373841,-46.419805],[168.376618,-46.435362],[168.394135,-46.468138],[168.396088,-46.475638],[168.395539,-46.482863],[168.392487,-46.490088],[168.37967,-46.499808],[168.352448,-46.508147],[168.346619,-46.513419],[168.344117,-46.530638],[168.339417,-46.537032],[168.328858,-46.53842],[168.321076,-46.534529],[168.318299,-46.518698],[168.30774,-46.518416],[168.286103,-46.521193],[168.268311,-46.52703],[168.275269,-46.55564],[168.30774,-46.551474],[168.312744,-46.557029],[168.310791,-46.565367],[168.316376,-46.579253],[168.328858,-46.588973],[168.345795,-46.595916],[168.351899,-46.600646],[168.360504,-46.612868],[168.373017,-46.62258],[168.395539,-46.626197],[168.399994,-46.619803],[168.399414,-46.611754],[168.395813,-46.605086],[168.386109,-46.593695],[168.375519,-46.591475],[168.367737,-46.587584],[168.362732,-46.581748],[168.357178,-46.567862],[168.352173,-46.562308],[168.351624,-46.553969],[168.353577,-46.545645],[168.361908,-46.542311],[168.371064,-46.5437],[168.376068,-46.549254],[168.384156,-46.547858],[168.386109,-46.539534],[168.391358,-46.537863],[168.399994,-46.550086],[168.415253,-46.558142],[168.428589,-46.558417],[168.474396,-46.554526],[168.508606,-46.559531],[168.541657,-46.565367],[168.550812,-46.568419],[168.563599,-46.577864],[168.566925,-46.584525],[168.561371,-46.589804],[168.551636,-46.592307],[168.505555,-46.585913],[168.499115,-46.581191],[168.506104,-46.57675],[168.502472,-46.572036],[168.490509,-46.570922],[168.4422,-46.572867],[168.43274,-46.575087],[168.427765,-46.590636],[168.416077,-46.601195],[168.425263,-46.604254],[168.448029,-46.604254],[168.492737,-46.611197],[168.568848,-46.612868],[168.593018,-46.612029],[168.614685,-46.608977],[168.640534,-46.601752],[168.636933,-46.595084],[168.62912,-46.591193],[168.639435,-46.579535],[168.641358,-46.571479],[168.63498,-46.568419],[168.625519,-46.568976],[168.615509,-46.557585],[168.613587,-46.55036],[168.620514,-46.54592],[168.701081,-46.556754],[168.708863,-46.56092],[168.704407,-46.565367],[168.670807,-46.568701],[168.66388,-46.573142],[168.666382,-46.578696],[168.676636,-46.580924],[168.689972,-46.581191],[168.733307,-46.575362],[168.741333,-46.572036],[168.76416,-46.569808],[168.783326,-46.565085],[168.80719,-46.565924],[168.823853,-46.558974],[168.835785,-46.558417],[168.844971,-46.561476],[168.847199,-46.568976],[168.846344,-46.578147],[168.849976,-46.584807],[168.861359,-46.595084],[168.86496,-46.601752],[168.861908,-46.626197],[168.865509,-46.632865],[168.875519,-46.644256],[168.878846,-46.650641],[168.878296,-46.659804],[168.883332,-46.665642],[168.892762,-46.665085],[168.901093,-46.661475],[168.921357,-46.657584],[168.945526,-46.65647],[168.974396,-46.664809],[168.997467,-46.676474],[169.008026,-46.678694],[169.028595,-46.674812],[169.053864,-46.676474],[169.061921,-46.672866],[169.062744,-46.638976],[169.0672,-46.632865],[169.07248,-46.636473],[169.082184,-46.647856],[169.084412,-46.655364],[169.097199,-46.664809],[169.107727,-46.667029],[169.133026,-46.6687],[169.141358,-46.665366],[169.148316,-46.660918],[169.15387,-46.66008],[169.15802,-46.653693],[169.169434,-46.643141],[169.169129,-46.627585],[169.165528,-46.620917],[169.167206,-46.614524],[169.179413,-46.613974],[169.187195,-46.61814],[169.1922,-46.623694],[169.195801,-46.63008],[169.196625,-46.638419],[169.190247,-46.652862],[169.192475,-46.660361],[169.203034,-46.662581],[169.247467,-46.659247],[169.266388,-46.65425],[169.292755,-46.635642],[169.309418,-46.628974],[169.329682,-46.624808],[169.340241,-46.627028],[169.348023,-46.630919],[169.36911,-46.635085],[169.383332,-46.643698],[169.391358,-46.643973],[169.394989,-46.627585],[169.409973,-46.619803],[169.446076,-46.619803],[169.458008,-46.621192],[169.473572,-46.628974],[169.484131,-46.630919],[169.496918,-46.621192],[169.493286,-46.614806],[169.480255,-46.605368],[169.482178,-46.597029],[169.496064,-46.588141],[169.512482,-46.581191],[169.570526,-46.567313],[169.59607,-46.567031],[169.615784,-46.572036],[169.622193,-46.57675],[169.631348,-46.57981],[169.646363,-46.572036],[169.657196,-46.570365],[169.661652,-46.564254],[169.669709,-46.560637],[169.681641,-46.56008],[169.701905,-46.555915],[169.707733,-46.550643],[169.722748,-46.542868],[169.736908,-46.52481],[169.748291,-46.513976],[169.751374,-46.506758],[169.750275,-46.500365],[169.743836,-46.497306],[169.718567,-46.497588],[169.710785,-46.493972],[169.699982,-46.493697],[169.679688,-46.497588],[169.666382,-46.497306],[169.657471,-46.494254],[169.654969,-46.490638],[169.666931,-46.490088],[169.683319,-46.483138],[169.706086,-46.480918],[169.728577,-46.482306],[169.763031,-46.487029],[169.793305,-46.493972],[169.793579,-46.486754],[169.798035,-46.480361],[169.828858,-46.474807],[169.845246,-46.467856],[169.8508,-46.462584],[169.853852,-46.455366],[169.853546,-46.452407],[169.783509,-46.388754],[169.772416,-46.385179],[169.728318,-46.365534],[169.686539,-46.337919],[169.66095,-46.325369],[169.61026,-46.304411],[169.565186,-46.281427],[169.528412,-46.259252],[169.485688,-46.240358],[169.393402,-46.209688],[169.33017,-46.179033],[169.30307,-46.164056],[169.27594,-46.146638],[169.218735,-46.120156],[169.201813,-46.114617],[169.177277,-46.116311],[169.162583,-46.115338],[169.11081,-46.09866],[169.082245,-46.095917],[169.051651,-46.098508],[169.037079,-46.096715],[169.00911,-46.086407],[168.999359,-46.087117],[168.985169,-46.094651],[168.97023,-46.106484],[168.924271,-46.160856],[168.906266,-46.176901],[168.890488,-46.193604],[168.877426,-46.213781],[168.828522,-46.203649],[168.760773,-46.176877],[168.747101,-46.173189],[168.718308,-46.167154],[168.693375,-46.164266],[168.661606,-46.163331],[168.66565,-46.157083],[168.680176,-46.145947],[168.726654,-46.120606],[168.753678,-46.102028],[168.800553,-46.085457],[168.850907,-46.07219],[168.884491,-46.059624],[168.889008,-46.052483],[168.886536,-46.041947],[168.853485,-46.022191],[168.81601,-46.008576],[168.769852,-45.998822],[168.74025,-45.997174],[168.702378,-45.989358],[168.674973,-45.978131],[168.649598,-45.970261],[168.617981,-45.957871],[168.563446,-45.932992],[168.488602,-45.89613],[168.478913,-45.889763],[168.430878,-45.848888],[168.407502,-45.826756],[168.401062,-45.816186],[168.376145,-45.791188],[168.361786,-45.77422],[168.332154,-45.745105],[168.289261,-45.724956],[168.272522,-45.708782],[168.233002,-45.685817],[168.226395,-45.678608],[168.220398,-45.667953],[168.218155,-45.659343],[168.220551,-45.652187]]]}}
