{"type":"Feature","properties":{"OBJECTID":170.0,"ECO_NAME":"Christmas and Cocos Islands tropical forests","BIOME_NUM":1.0,"BIOME_NAME":"Tropical & Subtropical Moist Broadleaf Forests","REALM":"Indomalayan","ECO_BIOME_":"IN01","NNH":2,"ECO_ID":227,"SHAPE_LENG":0.897464334408,"SHAPE_AREA":0.0110705262994,"NNH_NAME":"Nature Could Reach Half Protected","COLOR":"#47B700","COLOR_BIO":"#38A700","COLOR_NNH":"#7BC141","LICENSE":"CC-BY 4.0","name":"Christmas and Cocos Islands tropical forests"},"geometry":{"type":"MultiPolygon","coordinates":[[[[96.921097,-12.190504],[96.924424,-12.181893],[96.921647,-12.167172],[96.914704,-12.151063],[96.918045,-12.174393],[96.915543,-12.185227],[96.9086,-12.191892],[96.89972,-12.188559],[96.892762,-12.188559],[96.886109,-12.181893],[96.88472,-12.189949],[96.890824,-12.19717],[96.902481,-12.199113],[96.914154,-12.19717],[96.921097,-12.190504]]],[[[96.835267,-12.157728],[96.828324,-12.151063],[96.826386,-12.127452],[96.820832,-12.131618],[96.820832,-12.155785],[96.81749,-12.165783],[96.819443,-12.177172],[96.833878,-12.189949],[96.842209,-12.195226],[96.852478,-12.198558],[96.862763,-12.195226],[96.866929,-12.187171],[96.859986,-12.183282],[96.853043,-12.189949],[96.844147,-12.190504],[96.836655,-12.184394],[96.833878,-12.175227],[96.824997,-12.175782],[96.826386,-12.16634],[96.835267,-12.171061],[96.835267,-12.157728]]],[[[96.901658,-12.104675],[96.891373,-12.101343],[96.88527,-12.096621],[96.889985,-12.105509],[96.897767,-12.107454],[96.901658,-12.104675]]],[[[96.827774,-11.842749],[96.829163,-11.830528],[96.824433,-11.824695],[96.818055,-11.831917],[96.819443,-11.842749],[96.827774,-11.842749]]],[[[105.736298,-10.503792],[105.7519,-10.482983],[105.7491,-10.449355],[105.7444,-10.437716],[105.742104,-10.418418],[105.750901,-10.39332],[105.736603,-10.38332],[105.715203,-10.38371],[105.6904,-10.406129],[105.654602,-10.414128],[105.628998,-10.436546],[105.644501,-10.465374],[105.683098,-10.473374],[105.701401,-10.510201],[105.736298,-10.503792]]]]}}
