{"type":"Feature","properties":{"OBJECTID":522.0,"ECO_NAME":"Northern Triangle subtropical forests","BIOME_NUM":1.0,"BIOME_NAME":"Tropical & Subtropical Moist Broadleaf Forests","REALM":"Indomalayan","ECO_BIOME_":"IN01","NNH":2,"ECO_ID":259,"SHAPE_LENG":15.9247041017,"SHAPE_AREA":4.86170530266,"NNH_NAME":"Nature Could Reach Half Protected","COLOR":"#004600","COLOR_BIO":"#38A700","COLOR_NNH":"#7BC141","LICENSE":"CC-BY 4.0","name":"Northern Triangle subtropical forests"},"geometry":{"type":"Polygon","coordinates":[[[98.372551,27.525526],[98.363839,27.437256],[98.342881,27.411058],[98.306199,27.411058],[98.2538,27.379619],[98.217125,27.36914],[98.180443,27.379619],[98.159485,27.348181],[98.154244,27.321985],[98.122803,27.311504],[98.03373,27.306265],[97.991814,27.264349],[97.934174,27.264349],[97.866059,27.248629],[97.860817,27.206713],[97.866059,27.175277],[97.719338,27.222431],[97.69838,27.253869],[97.672181,27.353423],[97.64074,27.411058],[97.630265,27.421537],[97.53595,27.458213],[97.499268,27.494889],[97.452111,27.589202],[97.368271,27.583963],[97.300156,27.568241],[97.284439,27.552526],[97.273957,27.489651],[97.279198,27.342942],[97.268715,27.321985],[97.247757,27.311504],[97.205841,27.342942],[97.178994,27.443463],[97.158684,27.473932],[97.111527,27.494889],[97.064362,27.479172],[97.038163,27.421538],[97.043404,27.358661],[97.090561,27.301026],[97.163918,27.175276],[97.268715,27.070485],[97.247757,27.028567],[97.211083,27.012849],[97.205841,27.002369],[97.221558,26.902817],[97.237282,26.860901],[97.237282,26.834703],[97.216317,26.818986],[97.158684,26.850423],[97.122002,26.960451],[97.090561,27.002369],[97.043404,27.018088],[97.027687,26.991888],[97.022446,26.960453],[96.975289,26.944735],[96.907174,26.970931],[96.765694,26.99713],[96.697579,27.023328],[96.718537,27.080965],[96.755219,27.107161],[96.781418,27.149077],[96.781418,27.206713],[96.765694,27.24339],[96.72902,27.264349],[96.681862,27.227672],[96.671379,27.175276],[96.618981,27.12288],[96.561341,27.13336],[96.503708,27.13336],[96.446068,27.12288],[96.372712,27.164798],[96.341271,27.170036],[96.278397,27.107163],[96.241715,27.143838],[96.220757,27.138601],[96.194558,27.086203],[96.11596,27.033806],[96.05832,27.044287],[96.03212,27.00761],[96.037362,26.976173],[96.084519,26.970931],[96.08976,26.944735],[96.084519,26.923776],[96.131676,26.908057],[96.1474,26.913296],[96.241715,26.876619],[96.246956,26.855662],[96.236473,26.782306],[96.215516,26.76135],[96.20504,26.813744],[96.178841,26.813744],[96.163117,26.792787],[96.126442,26.803265],[96.105477,26.834703],[96.074044,26.782306],[95.979721,26.750869],[95.943047,26.698475],[95.916848,26.687995],[95.853966,26.693235],[95.827767,26.714193],[95.78061,26.735152],[95.743935,26.724671],[95.728211,26.703714],[95.691536,26.583205],[95.654854,26.530808],[95.597222,26.530808],[95.56054,26.551767],[95.481942,26.541288],[95.429543,26.551767],[95.39811,26.577965],[95.377144,26.614641],[95.335228,26.614641],[95.277588,26.635602],[95.283738,26.644048],[95.257378,26.640483],[95.260132,26.615679],[95.356598,26.579848],[95.370377,26.560555],[95.345574,26.519213],[95.326279,26.508191],[95.3125,26.455823],[95.229813,26.400702],[95.15815,26.329044],[95.160904,26.312506],[95.177445,26.306994],[95.202248,26.312506],[95.240838,26.342824],[95.35109,26.403458],[95.414483,26.392434],[95.464089,26.370384],[95.505433,26.370384],[95.546776,26.397946],[95.582611,26.400702],[95.60466,26.386921],[95.611069,26.371973],[95.599144,26.34558],[95.519219,26.309752],[95.469605,26.304238],[95.425507,26.315262],[95.417237,26.243606],[95.392426,26.185726],[95.431015,26.193994],[95.472359,26.182971],[95.49717,26.16092],[95.49717,26.138871],[95.480629,26.122335],[95.447556,26.108555],[95.381401,26.100287],[95.306984,26.111311],[95.3125,26.045165],[95.301476,26.009335],[95.262886,25.967991],[95.216034,25.951457],[95.243592,25.93492],[95.326279,25.973505],[95.392426,25.992799],[95.436531,25.990043],[95.466851,26.023115],[95.49717,26.028627],[95.563057,26.060528],[95.660027,26.064158],[95.717293,26.094175],[95.822289,26.076266],[95.874482,26.013766],[95.866623,26.003385],[95.879471,26.003242],[95.932343,25.876456],[95.947983,25.777611],[95.933991,25.683337],[95.976044,25.627269],[96.071984,25.56184],[96.131592,25.492856],[96.204377,25.305354],[96.268647,25.244257],[96.287613,25.248467],[96.514679,25.447068],[96.567902,25.518803],[96.612603,25.649178],[96.626404,25.717364],[96.692063,25.706656],[96.738839,25.667176],[96.766617,25.58512],[96.785958,25.467319],[96.806458,25.40169],[96.892312,25.354251],[97.02697,25.405179],[97.094742,25.403407],[97.099648,25.37421],[97.148491,25.373342],[97.201912,25.4021],[97.241578,25.439158],[97.270989,25.508514],[97.316452,25.569052],[97.360169,25.566172],[97.396119,25.515264],[97.455529,25.523774],[97.497834,25.571041],[97.550797,25.539441],[97.609497,25.349732],[97.594551,25.298435],[97.641808,25.255627],[97.673409,25.240776],[97.655991,25.190149],[97.684197,25.162291],[97.679001,25.126372],[97.711823,25.104864],[97.724884,25.082121],[97.74971,25.083075],[97.806092,25.168623],[97.82222,25.240286],[97.833329,25.257508],[97.846375,25.266675],[97.873032,25.256956],[97.911103,25.206677],[97.941086,25.212509],[97.99582,25.260842],[98.015274,25.29084],[98.069443,25.312785],[98.107468,25.385563],[98.138596,25.385279],[98.13443,25.422224],[98.143326,25.46083],[98.125534,25.486662],[98.124985,25.504167],[98.14943,25.517777],[98.168045,25.548606],[98.157761,25.607491],[98.165268,25.621101],[98.182206,25.619437],[98.216095,25.594995],[98.270539,25.584161],[98.30748,25.548053],[98.326661,25.549995],[98.341935,25.563883],[98.361374,25.567774],[98.383042,25.590272],[98.391663,25.654989],[98.438584,25.68943],[98.444428,25.730539],[98.47638,25.757211],[98.480271,25.791931],[98.530823,25.843869],[98.557755,25.840539],[98.602631,25.813869],[98.592797,25.916208],[98.549416,26.00296],[98.49421,26.255332],[98.490265,26.452497],[98.470543,26.649664],[98.462662,26.858658],[98.502091,27.114976],[98.458718,27.316083],[98.454773,27.398893],[98.42717,27.47776],[98.372551,27.525526]]]}}
