{"type":"Feature","properties":{"OBJECTID":650.0,"ECO_NAME":"South China Sea Islands","BIOME_NUM":1.0,"BIOME_NAME":"Tropical & Subtropical Moist Broadleaf Forests","REALM":"Indomalayan","ECO_BIOME_":"IN01","NNH":3,"ECO_ID":267,"SHAPE_LENG":0.907902106481,"SHAPE_AREA":0.00255411078887,"NNH_NAME":"Nature Could Recover","COLOR":"#36C900","COLOR_BIO":"#38A700","COLOR_NNH":"#F9A91B","LICENSE":"CC-BY 4.0","name":"South China Sea Islands"},"geometry":{"type":"MultiPolygon","coordinates":[[[[114.373597,9.707619],[114.368317,9.704285],[114.372208,9.699009],[114.373597,9.707619]]],[[[114.362763,10.198139],[114.360527,10.19564],[114.362488,10.188419],[114.362763,10.198139]]],[[[114.367203,10.382014],[114.365258,10.380349],[114.367203,10.377571],[114.367203,10.382014]]],[[[114.465271,10.384795],[114.463608,10.382293],[114.470261,10.377016],[114.465271,10.384795]]],[[[115.84166,10.723936],[115.818879,10.730047],[115.814148,10.722269],[115.820267,10.711436],[115.84166,10.723936]]],[[[115.77388,10.744489],[115.786652,10.755323],[115.771927,10.75949],[115.767762,10.750046],[115.77388,10.744489]]],[[[115.856369,10.822263],[115.841927,10.834206],[115.829712,10.827818],[115.848877,10.817819],[115.856369,10.822263]]],[[[115.802468,10.860594],[115.797493,10.875035],[115.787201,10.86948],[115.790543,10.859203],[115.802468,10.860594]]],[[[115.007767,11.091132],[115.004441,11.092521],[114.99971,11.08891],[115.007767,11.091132]]],[[[111.208039,15.783875],[111.207489,15.789711],[111.19664,15.784432],[111.208039,15.783875]]],[[[111.761933,16.049691],[111.756653,16.049134],[111.756379,16.04497],[111.761933,16.049691]]],[[[111.493592,16.446608],[111.486924,16.445498],[111.487198,16.438274],[111.493592,16.446608]]],[[[111.708039,16.461051],[111.699143,16.459387],[111.713883,16.44633],[111.708039,16.461051]]],[[[111.75,16.468828],[111.744713,16.471052],[111.741928,16.465498],[111.75,16.468828]]],[[[111.584992,16.513552],[111.584427,16.519663],[111.576394,16.517718],[111.577767,16.514105],[111.584992,16.513552]]],[[[111.608872,16.536882],[111.606934,16.545495],[111.599717,16.542992],[111.60138,16.536607],[111.608872,16.536882]]],[[[112.749154,16.654927],[112.739434,16.666875],[112.732758,16.66604],[112.74054,16.654927],[112.749154,16.654927]]],[[[112.343872,16.829919],[112.341088,16.839918],[112.333054,16.838251],[112.333603,16.832418],[112.343872,16.829919]]],[[[112.358597,16.846863],[112.358033,16.853528],[112.348603,16.853528],[112.35109,16.846585],[112.358597,16.846863]]],[[[112.353318,16.906579],[112.352204,16.916581],[112.348328,16.916581],[112.347489,16.909359],[112.353318,16.906579]]],[[[112.349152,16.926578],[112.349152,16.934913],[112.341927,16.934356],[112.343048,16.927135],[112.349152,16.926578]]],[[[112.337487,16.948801],[112.330834,16.947966],[112.333878,16.942412],[112.337487,16.948801]]],[[[112.316384,16.960187],[112.309708,16.961854],[112.309708,16.955465],[112.316384,16.960187]]],[[[112.218872,16.973797],[112.218323,16.983242],[112.208603,16.980465],[112.211647,16.971298],[112.218872,16.973797]]],[[[112.275269,16.973519],[112.281372,16.981297],[112.280823,16.984352],[112.268334,16.97963],[112.275269,16.973519]]]]}}
