{"type":"Feature","properties":{"OBJECTID":764.0,"ECO_NAME":"Upper Midwest US forest-savanna transition","BIOME_NUM":4.0,"BIOME_NAME":"Temperate Broadleaf & Mixed Forests","REALM":"Nearctic","ECO_BIOME_":"NE04","NNH":3,"ECO_ID":343,"SHAPE_LENG":46.4206607137,"SHAPE_AREA":15.4816845082,"NNH_NAME":"Nature Could Recover","COLOR":"#69BD34","COLOR_BIO":"#00734C","COLOR_NNH":"#F9A91B","LICENSE":"CC-BY 4.0","name":"Upper Midwest US forest-savanna transition"},"geometry":{"type":"MultiPolygon","coordinates":[[[[-86.11976,45.048545],[-86.144477,45.038334],[-86.156744,45.002588],[-86.119358,44.997033],[-86.091833,45.009881],[-86.101706,45.019645],[-86.097097,45.030136],[-86.077142,45.029772],[-86.086724,45.040381],[-86.11976,45.048545]]],[[[-86.042333,45.159136],[-86.059397,45.152299],[-86.065633,45.138763],[-86.060646,45.098659],[-86.007978,45.055548],[-85.962051,45.060908],[-85.983742,45.083263],[-85.977297,45.139081],[-85.993197,45.152818],[-86.042333,45.159136]]],[[[-87.334679,45.210872],[-87.379554,45.197662],[-87.379514,45.176761],[-87.327542,45.157308],[-87.338088,45.170772],[-87.334679,45.210872]]],[[[-87.014251,45.29839],[-87.046429,45.28506],[-87.059351,45.298399],[-87.073762,45.29446],[-87.082631,45.262455],[-87.114397,45.256912],[-87.130161,45.220534],[-87.127598,45.195086],[-87.174252,45.181152],[-87.180083,45.154191],[-87.189176,45.152818],[-87.195406,45.163254],[-87.222497,45.175163],[-87.242657,45.168022],[-87.253441,45.130952],[-87.262839,45.123671],[-87.268337,45.083358],[-87.364158,44.990072],[-87.411028,44.910627],[-87.408285,44.899615],[-87.384149,44.887266],[-87.393029,44.888907],[-87.387981,44.831104],[-87.426455,44.886396],[-87.420042,44.887236],[-87.435097,44.893072],[-87.480972,44.863726],[-87.515088,44.86979],[-87.507969,44.860277],[-87.527919,44.850576],[-87.53377,44.857654],[-87.550735,44.829445],[-87.564073,44.833554],[-87.550297,44.851299],[-87.578806,44.852672],[-87.61455,44.837056],[-87.641597,44.811635],[-87.697019,44.751871],[-87.634316,44.661237],[-87.53547,44.593417],[-87.492258,44.583415],[-87.459739,44.563008],[-87.438458,44.602723],[-87.393524,44.640663],[-87.348161,44.710772],[-87.336533,44.746927],[-87.318988,44.771345],[-87.318606,44.78849],[-87.28257,44.814736],[-87.267451,44.846863],[-87.204551,44.875599],[-87.216542,44.905294],[-87.171833,44.931117],[-87.188379,44.948081],[-87.189415,44.968645],[-87.163533,45.004899],[-87.139388,45.012572],[-87.124815,45.042172],[-87.123015,45.06749],[-87.104045,45.068778],[-87.090542,45.051108],[-87.079324,45.058654],[-87.07946,45.070154],[-87.096206,45.081263],[-87.09457,45.091754],[-87.088162,45.094658],[-87.06607,45.078527],[-87.056542,45.09339],[-87.04757,45.088054],[-87.051251,45.116572],[-87.075079,45.12809],[-87.084006,45.144736],[-87.079133,45.155372],[-87.070696,45.155743],[-87.052369,45.135586],[-87.033124,45.141763],[-87.028851,45.146381],[-87.045233,45.158408],[-87.046488,45.171445],[-87.041079,45.211136],[-87.032824,45.213463],[-87.037642,45.221418],[-87.032333,45.223381],[-87.040779,45.228327],[-87.028807,45.231906],[-87.008136,45.211979],[-86.996197,45.212581],[-86.984042,45.217736],[-86.978742,45.227227],[-86.985415,45.237945],[-86.973188,45.243645],[-86.985179,45.261836],[-86.971133,45.276863],[-86.973315,45.285136],[-86.98336,45.295381],[-87.014251,45.29839]]],[[[-86.960306,45.312072],[-86.957415,45.304918],[-86.944424,45.301945],[-86.94767,45.312445],[-86.960306,45.312072]]],[[[-86.93056,45.333408],[-86.930915,45.339281],[-86.931788,45.333472],[-86.923851,45.322499],[-86.905642,45.309427],[-86.904906,45.296845],[-86.897742,45.295545],[-86.918788,45.336336],[-86.93056,45.333408]]],[[[-84.907631,45.404032],[-84.917228,45.41887],[-84.915342,45.393509],[-84.990059,45.369492],[-85.043873,45.36326],[-85.138619,45.374218],[-85.203376,45.362121],[-85.250424,45.340145],[-85.252108,45.330547],[-85.271773,45.316938],[-85.304635,45.321019],[-85.374984,45.269585],[-85.39163,45.233666],[-85.382664,45.148883],[-85.366231,45.109152],[-85.381824,45.050644],[-85.384752,44.966747],[-85.410521,44.904285],[-85.451705,44.853854],[-85.462647,44.825532],[-85.507278,44.796181],[-85.506911,44.77063],[-85.53252,44.74829],[-85.565352,44.753257],[-85.573558,44.764243],[-85.560307,44.782739],[-85.556148,44.813922],[-85.497529,44.859417],[-85.48592,44.957527],[-85.464651,44.961545],[-85.475015,44.99159],[-85.520005,44.974218],[-85.532069,44.929836],[-85.564305,44.895308],[-85.559769,44.887436],[-85.549171,44.898407],[-85.530281,44.893495],[-85.535581,44.873424],[-85.578896,44.817736],[-85.597426,44.767327],[-85.635332,44.770783],[-85.633569,44.800136],[-85.650882,44.84211],[-85.645688,44.883217],[-85.629601,44.911834],[-85.600369,44.924945],[-85.599378,44.989554],[-85.631651,44.968517],[-85.646823,44.977314],[-85.629989,45.00199],[-85.59966,45.021754],[-85.596481,45.043842],[-85.565751,45.045199],[-85.566069,45.059208],[-85.58346,45.069191],[-85.59796,45.089999],[-85.595769,45.10349],[-85.60546,45.107763],[-85.614324,45.127572],[-85.599805,45.149299],[-85.571365,45.15544],[-85.557751,45.134354],[-85.561687,45.158945],[-85.531469,45.177254],[-85.526742,45.189327],[-85.540987,45.210454],[-85.553231,45.211467],[-85.570608,45.189897],[-85.590314,45.180632],[-85.621425,45.18598],[-85.661079,45.144666],[-85.678483,45.118842],[-85.685158,45.091927],[-85.716507,45.066488],[-85.750482,45.05239],[-85.780015,45.009481],[-85.783101,44.976662],[-85.805138,44.951576],[-85.861758,44.938197],[-85.87574,44.941631],[-85.902932,44.966955],[-85.937038,44.968932],[-85.984469,44.903308],[-86.019114,44.903594],[-86.039312,44.919102],[-86.073496,44.904171],[-86.079329,44.886559],[-86.069176,44.82133],[-86.086616,44.745454],[-86.117124,44.728299],[-86.15556,44.732245],[-86.244415,44.701781],[-86.255642,44.691417],[-86.257697,44.655737],[-86.22984,44.603957],[-86.221843,44.564364],[-86.248924,44.483017],[-86.248616,44.419471],[-86.262424,44.365408],[-86.272351,44.339754],[-86.345869,44.247508],[-86.360597,44.211845],[-86.398565,44.16022],[-86.358464,44.159252],[-86.273669,44.17629],[-86.272997,44.203827],[-86.285699,44.239006],[-86.268662,44.256288],[-86.222503,44.264076],[-86.198306,44.279791],[-86.133491,44.298449],[-86.065058,44.295523],[-86.042028,44.327461],[-86.008879,44.332747],[-85.969928,44.351345],[-85.92533,44.389843],[-85.918213,44.452897],[-85.926422,44.473001],[-85.920552,44.482998],[-85.774153,44.584249],[-85.642793,44.656553],[-85.606464,44.709063],[-85.552579,44.714586],[-85.507358,44.75148],[-85.47859,44.752627],[-85.436548,44.768594],[-85.362402,44.766295],[-85.278628,44.78344],[-85.268107,44.822719],[-85.271599,44.845873],[-85.252946,44.891839],[-85.231637,44.896756],[-85.203828,44.880096],[-85.191494,44.897253],[-85.186098,44.959813],[-85.162073,44.974875],[-85.178003,44.991798],[-85.186222,45.017886],[-85.18572,45.031995],[-85.161834,45.060176],[-85.189174,45.080763],[-85.188217,45.088982],[-85.134843,45.101751],[-85.088373,45.090965],[-85.092929,45.112949],[-85.060136,45.134851],[-84.984999,45.139559],[-84.943932,45.125229],[-84.904099,45.131467],[-84.91903,45.155576],[-84.904323,45.183862],[-84.918673,45.247385],[-84.883896,45.261614],[-84.881364,45.286266],[-84.911977,45.333066],[-84.897039,45.348436],[-84.844286,45.346504],[-84.832422,45.357903],[-84.845783,45.377716],[-84.907631,45.404032]]],[[[-86.932433,45.41949],[-86.950256,45.41227],[-86.960808,45.383859],[-86.962986,45.341271],[-86.94057,45.336263],[-86.926792,45.352082],[-86.903524,45.334108],[-86.867606,45.334272],[-86.864624,45.363554],[-86.849206,45.370781],[-86.83816,45.395072],[-86.862715,45.41249],[-86.926504,45.406092],[-86.932433,45.41949]]],[[[-86.805451,45.408908],[-86.81006,45.422627],[-86.830324,45.42809],[-86.834988,45.402508],[-86.805451,45.408908]]],[[[-86.758041,45.478276],[-86.758083,45.503387],[-86.77108,45.509752],[-86.784018,45.50559],[-86.784578,45.487388],[-86.758041,45.478276]]],[[[-86.630676,45.546733],[-86.621684,45.558988],[-86.626839,45.571118],[-86.656162,45.585355],[-86.661339,45.575134],[-86.648864,45.542436],[-86.630676,45.546733]]],[[[-95.112883,47.73578],[-95.473522,47.701432],[-95.587731,47.677132],[-95.639796,47.644716],[-95.699867,47.591504],[-95.778771,47.504504],[-95.818125,47.432305],[-95.825265,47.395187],[-95.820614,47.31441],[-95.880798,47.156006],[-95.893067,47.065782],[-95.887801,46.971056],[-95.908678,46.890728],[-95.921396,46.869282],[-95.938611,46.857252],[-95.962841,46.85505],[-96.086444,46.893967],[-96.191433,46.912524],[-96.262284,46.895021],[-96.293611,46.857429],[-96.289242,46.774289],[-96.311117,46.689212],[-96.30306,46.655436],[-96.276596,46.615173],[-96.293733,46.507242],[-96.270351,46.441937],[-96.217541,46.367116],[-96.130636,46.281062],[-96.069552,46.180916],[-96.034569,46.08876],[-96.022372,45.998798],[-95.918827,45.920208],[-95.81813,45.879459],[-95.768935,45.837308],[-95.767662,45.711468],[-95.758816,45.664239],[-95.734259,45.625545],[-95.691282,45.588243],[-95.625712,45.502844],[-95.582568,45.382357],[-95.552604,45.36012],[-95.352776,45.275269],[-95.048367,45.181693],[-94.905752,45.120985],[-94.845208,45.126379],[-94.673208,45.182346],[-94.627361,45.176838],[-94.559408,45.138409],[-94.527316,45.107435],[-94.513538,45.069107],[-94.516711,44.979032],[-94.507052,44.959204],[-94.485813,44.942489],[-94.422398,44.932417],[-94.217529,44.935119],[-94.153516,44.92119],[-94.106291,44.895567],[-94.033954,44.827266],[-94.012253,44.759302],[-94.013249,44.631568],[-94.060894,44.499463],[-94.047396,44.477131],[-93.989672,44.445953],[-93.972623,44.412625],[-93.978059,44.389954],[-94.005917,44.368784],[-94.023119,44.340814],[-94.0313,44.308097],[-94.024643,44.279197],[-94.002267,44.246666],[-93.906301,44.176357],[-93.821153,44.130707],[-93.741307,44.10407],[-93.6973,44.106554],[-93.638271,44.131549],[-93.511174,44.148591],[-93.452156,44.170451],[-93.404329,44.228061],[-93.331254,44.266859],[-93.239851,44.269724],[-93.213322,44.286104],[-93.200576,44.312975],[-93.204524,44.358227],[-93.160105,44.410567],[-93.156338,44.42471],[-93.158213,44.456006],[-93.184339,44.526611],[-93.225589,44.59019],[-93.232423,44.614092],[-93.232032,44.695806],[-93.200292,44.73107],[-93.138334,44.755063],[-93.029612,44.778911],[-92.945331,44.806706],[-92.932345,44.817812],[-92.907953,44.871822],[-92.865124,44.921358],[-92.762462,44.981449],[-92.744789,44.999306],[-92.699627,45.006056],[-92.662463,45.02149],[-92.562633,45.106876],[-92.532995,45.110266],[-92.507908,45.08874],[-92.480097,45.090038],[-92.461161,45.080036],[-92.409431,45.085637],[-92.323345,45.07372],[-92.246179,45.048897],[-92.232997,45.039963],[-92.24017,45.025885],[-92.225206,44.980458],[-92.144266,44.859571],[-92.14497,44.844534],[-92.171026,44.821902],[-92.173077,44.803938],[-92.195679,44.795372],[-92.19615,44.76457],[-92.234162,44.750585],[-92.296895,44.743665],[-92.344786,44.768459],[-92.356724,44.736717],[-92.387475,44.739708],[-92.42107,44.730309],[-92.504565,44.753886],[-92.545646,44.75291],[-92.55591,44.763133],[-92.574659,44.765868],[-92.610963,44.753075],[-92.641407,44.760677],[-92.68569,44.741327],[-92.723568,44.749398],[-92.779446,44.745414],[-92.788745,44.738247],[-92.777395,44.732131],[-92.745065,44.661138],[-92.773751,44.608481],[-92.826997,44.585016],[-92.86393,44.549282],[-92.914615,44.517421],[-92.987645,44.483586],[-93.009454,44.458968],[-93.007914,44.440316],[-92.982068,44.402171],[-92.987843,44.365998],[-92.982488,44.339399],[-92.95679,44.313602],[-92.97568,44.280692],[-92.841307,44.250067],[-92.834344,44.234724],[-92.852323,44.203898],[-92.845041,44.19125],[-92.816115,44.176921],[-92.816553,44.154718],[-92.749603,44.116187],[-92.698533,44.108658],[-92.702851,44.098081],[-92.767558,44.067632],[-92.757938,44.054744],[-92.698919,44.049722],[-92.682665,44.037902],[-92.688175,44.025327],[-92.729073,44.000623],[-92.74932,43.970095],[-92.749461,43.953891],[-92.727129,43.93087],[-92.658106,43.89218],[-92.596774,43.823601],[-92.587684,43.748798],[-92.567742,43.708297],[-92.498122,43.670358],[-92.421597,43.598195],[-92.299243,43.569285],[-92.247046,43.546815],[-92.23655,43.531192],[-92.235577,43.499457],[-92.24119,43.499463],[-92.219682,43.483268],[-92.064192,43.434706],[-91.940965,43.374842],[-91.938493,43.315077],[-91.920975,43.29157],[-91.980967,43.257988],[-91.992472,43.232936],[-91.967504,43.205195],[-91.962693,43.156956],[-91.920513,43.119917],[-91.907136,43.063563],[-91.875633,43.044843],[-91.876794,43.031507],[-91.903059,42.998039],[-91.820567,42.972104],[-91.792507,42.941855],[-91.790256,42.911506],[-91.814448,42.863244],[-91.809211,42.834935],[-91.754254,42.80549],[-91.710934,42.792065],[-91.678941,42.763671],[-91.604902,42.74565],[-91.530581,42.689603],[-91.40849,42.65806],[-91.367742,42.62984],[-91.340435,42.589359],[-91.3156,42.576767],[-91.285711,42.576742],[-91.224285,42.602592],[-91.145691,42.576602],[-91.081597,42.583573],[-91.022144,42.570635],[-90.984079,42.532491],[-90.983977,42.507035],[-91.002787,42.476323],[-90.974054,42.447838],[-90.946826,42.437128],[-90.849881,42.434837],[-90.829683,42.423148],[-90.808455,42.385438],[-90.79092,42.376938],[-90.760464,42.380611],[-90.731386,42.395996],[-90.708043,42.393571],[-90.696087,42.375538],[-90.703293,42.343655],[-90.693799,42.324129],[-90.588018,42.293455],[-90.554283,42.25036],[-90.489611,42.218522],[-90.461282,42.178198],[-90.361832,42.121409],[-90.276612,42.111087],[-90.200799,42.087274],[-90.110106,42.086839],[-90.065608,42.101754],[-90.029227,42.145857],[-90.010339,42.198652],[-89.941565,42.253719],[-89.920695,42.289538],[-89.923119,42.307893],[-89.938354,42.322239],[-89.985492,42.325632],[-90.011372,42.342844],[-90.019919,42.366782],[-90.012708,42.401196],[-89.950783,42.428148],[-89.887505,42.494458],[-89.824972,42.503351],[-89.808016,42.545666],[-89.819919,42.56838],[-89.803822,42.575116],[-89.748427,42.572847],[-89.686034,42.596098],[-89.659268,42.612311],[-89.625967,42.650058],[-89.614197,42.717058],[-89.563039,42.778657],[-89.543887,42.824833],[-89.538126,42.862907],[-89.542406,42.954007],[-89.566311,42.988699],[-89.581777,43.037168],[-89.602712,43.062523],[-89.584734,43.094162],[-89.579983,43.157508],[-89.594963,43.206892],[-89.594195,43.249575],[-89.571945,43.296608],[-89.541782,43.30661],[-89.535522,43.320111],[-89.552632,43.342835],[-89.581408,43.356689],[-89.678795,43.370049],[-89.689844,43.379824],[-89.687548,43.405746],[-89.657962,43.404907],[-89.600369,43.423808],[-89.535371,43.454348],[-89.494597,43.489569],[-89.504459,43.503769],[-89.522172,43.510703],[-89.621274,43.509116],[-89.584706,43.526588],[-89.54582,43.559619],[-89.527886,43.598999],[-89.487359,43.646459],[-89.423246,43.656164],[-89.337688,43.690608],[-89.295142,43.716201],[-89.242331,43.732593],[-89.096202,43.751434],[-89.089205,43.769835],[-89.130786,43.831036],[-89.121162,43.887147],[-89.149299,43.917501],[-89.174895,43.980049],[-89.132454,44.004308],[-89.112437,44.004806],[-89.076907,44.073997],[-89.002717,44.104987],[-88.916554,44.184246],[-88.875731,44.206942],[-88.862096,44.261891],[-88.847085,44.278199],[-88.828386,44.282526],[-88.79612,44.276079],[-88.718965,44.230794],[-88.653993,44.238809],[-88.474497,44.313443],[-88.40086,44.358436],[-88.306823,44.384116],[-88.175386,44.519722],[-88.095758,44.556064],[-88.03631,44.567073],[-88.021643,44.58029],[-88.022233,44.589663],[-88.015097,44.587099],[-88.00706,44.615473],[-87.985083,44.5961],[-87.981844,44.584369],[-87.978238,44.588122],[-87.980838,44.596369],[-88.004446,44.617564],[-88.00977,44.637099],[-88.015024,44.63499],[-88.012424,44.643217],[-88.00307,44.643372],[-88.00357,44.660617],[-87.991388,44.682045],[-87.990578,44.67759],[-87.992468,44.672285],[-87.976144,44.65175],[-87.989597,44.684836],[-87.986674,44.71658],[-87.952969,44.752109],[-87.936033,44.758536],[-87.940801,44.760869],[-87.921667,44.785557],[-87.951215,44.780441],[-87.963133,44.793541],[-87.955125,44.853373],[-87.894786,44.906982],[-87.879974,44.950351],[-87.806273,45.019978],[-87.809864,45.039804],[-87.797052,45.070789],[-87.775541,45.071167],[-87.770007,45.078379],[-87.780084,45.099274],[-87.758941,45.138526],[-87.776074,45.149253],[-87.7505,45.17457],[-87.753173,45.190658],[-87.795176,45.180173],[-87.841345,45.138782],[-87.875619,45.129116],[-87.923966,45.091316],[-87.949804,45.087736],[-87.975969,45.073239],[-87.987756,45.076582],[-87.987964,45.084126],[-87.947991,45.1155],[-87.951628,45.165596],[-87.979999,45.161912],[-88.031937,45.194302],[-88.083658,45.199063],[-88.102299,45.193843],[-88.100848,45.179995],[-88.117672,45.170645],[-88.113566,45.134876],[-88.121865,45.128913],[-88.168371,45.140985],[-88.177385,45.158644],[-88.194755,45.149286],[-88.204288,45.132227],[-88.233094,45.140594],[-88.255867,45.094585],[-88.421007,45.01575],[-88.467507,45.008252],[-88.511586,45.033279],[-88.548944,45.036429],[-88.601755,45.070523],[-88.630593,45.106297],[-88.654993,45.122096],[-88.743957,45.128461],[-88.874622,45.165984],[-88.931768,45.195227],[-88.951134,45.216002],[-88.997124,45.242431],[-89.065681,45.246126],[-89.151564,45.26493],[-89.219876,45.294899],[-89.324726,45.371003],[-89.37986,45.383613],[-89.426438,45.404087],[-89.452891,45.386589],[-89.486137,45.343834],[-89.543894,45.340449],[-89.559022,45.298771],[-89.583197,45.275263],[-89.619649,45.263373],[-89.661491,45.27161],[-89.69978,45.264482],[-89.753627,45.222666],[-89.801205,45.231148],[-89.842837,45.21153],[-89.888664,45.21061],[-89.976518,45.242035],[-90.02022,45.235932],[-90.080703,45.245966],[-90.119488,45.258442],[-90.155194,45.305868],[-90.202407,45.303398],[-90.270555,45.280699],[-90.295258,45.23284],[-90.324831,45.211111],[-90.516063,45.13809],[-90.561066,45.135581],[-90.583189,45.125897],[-90.64722,45.074038],[-90.660144,45.044598],[-90.703556,45.021069],[-90.744904,45.018757],[-90.825479,44.993707],[-90.863826,44.990199],[-91.185901,44.986734],[-91.200583,44.994091],[-91.205648,45.01475],[-91.223978,45.025074],[-91.279299,45.03192],[-91.268198,45.055022],[-91.211109,45.102442],[-91.188212,45.136031],[-91.184634,45.154986],[-91.222603,45.137985],[-91.254845,45.088906],[-91.303032,45.053845],[-91.337629,45.016954],[-91.360741,45.011239],[-91.380872,45.035233],[-91.36348,45.085347],[-91.370573,45.152156],[-91.381772,45.180774],[-91.43858,45.21097],[-91.472808,45.245387],[-91.539916,45.280429],[-91.619065,45.292072],[-91.722502,45.3862],[-91.701291,45.423217],[-91.702078,45.459207],[-91.667925,45.471715],[-91.675295,45.484492],[-91.65797,45.503371],[-91.635385,45.513006],[-91.619771,45.507841],[-91.597543,45.520643],[-91.594317,45.53673],[-91.571317,45.554718],[-91.59871,45.586795],[-91.624181,45.577004],[-91.643786,45.583746],[-91.65795,45.638119],[-91.74926,45.702697],[-91.784172,45.710212],[-91.875087,45.8009],[-91.946256,45.801732],[-91.993988,45.790262],[-91.998301,45.812257],[-92.046336,45.840647],[-92.062871,45.821923],[-92.098919,45.808002],[-92.13001,45.78422],[-92.139683,45.740877],[-92.154242,45.719362],[-92.179694,45.729521],[-92.203857,45.720055],[-92.234494,45.720171],[-92.252893,45.707924],[-92.280303,45.704693],[-92.303907,45.7139],[-92.313361,45.698624],[-92.381098,45.72745],[-92.385579,45.74467],[-92.370163,45.762097],[-92.389291,45.783038],[-92.416648,45.797893],[-92.464459,45.808639],[-92.468361,45.820714],[-92.45572,45.838845],[-92.458002,45.849313],[-92.481994,45.851851],[-92.487731,45.807117],[-92.475397,45.788045],[-92.485802,45.782306],[-92.506074,45.787689],[-92.547279,45.823754],[-92.581215,45.827785],[-92.683718,45.77946],[-92.706135,45.761948],[-92.664001,45.685066],[-92.663123,45.663288],[-92.732535,45.544617],[-92.773417,45.568244],[-92.823317,45.560944],[-92.883762,45.57549],[-92.889444,45.641208],[-92.870153,45.696763],[-92.863914,45.744665],[-92.834054,45.80092],[-92.846446,45.831066],[-92.842557,45.886038],[-92.868063,45.92008],[-92.873089,45.986269],[-92.884816,46.006507],[-92.921049,46.030751],[-92.965626,46.045558],[-93.009788,46.05668],[-93.054704,46.057414],[-93.15976,46.037671],[-93.271251,46.03366],[-93.32446,46.004498],[-93.337503,45.963526],[-93.3581,45.937857],[-93.459599,45.868915],[-93.565553,45.840726],[-93.671464,45.855418],[-93.798634,45.84015],[-93.852264,45.850164],[-93.973438,45.916479],[-93.986165,45.967351],[-93.978259,46.061891],[-93.987967,46.095352],[-94.007749,46.109579],[-94.078825,46.096598],[-94.183538,46.029585],[-94.218529,46.02166],[-94.286907,46.03332],[-94.306168,46.058777],[-94.327643,46.120563],[-94.341204,46.134022],[-94.367875,46.140503],[-94.424017,46.131348],[-94.597454,46.055119],[-94.672398,46.04407],[-94.725478,46.050181],[-94.746726,46.067943],[-94.754043,46.10417],[-94.724978,46.172006],[-94.696062,46.294648],[-94.669416,46.358102],[-94.669971,46.473848],[-94.661521,46.551602],[-94.6964,46.646689],[-94.665409,46.779056],[-94.676447,46.809309],[-94.692236,46.826597],[-94.889755,46.911485],[-95.063451,46.952049],[-95.134897,46.957951],[-95.171942,46.950742],[-95.211922,46.92667],[-95.26424,46.862685],[-95.302457,46.83214],[-95.483917,46.788733],[-95.610632,46.700492],[-95.644214,46.699193],[-95.668627,46.707351],[-95.680769,46.721119],[-95.688156,46.757621],[-95.683838,46.930509],[-95.706875,47.018535],[-95.706427,47.078988],[-95.689254,47.172472],[-95.643768,47.292528],[-95.628713,47.358292],[-95.577374,47.462458],[-95.547223,47.503273],[-95.492252,47.540148],[-95.39003,47.593647],[-95.27938,47.633889],[-95.203805,47.652126],[-95.120392,47.659763],[-94.957294,47.658398],[-94.919452,47.666077],[-94.903329,47.68115],[-94.905642,47.704059],[-94.93206,47.724571],[-95.112883,47.73578]],[[-88.011792,44.625288],[-88.008803,44.626141],[-88.009949,44.621071],[-88.011792,44.625288]]]]}}
