{"type":"Feature","properties":{"OBJECTID":271.0,"ECO_NAME":"Flint Hills tallgrass prairie","BIOME_NUM":8.0,"BIOME_NAME":"Temperate Grasslands, Savannas & Shrublands","REALM":"Nearctic","ECO_BIOME_":"NE08","NNH":4,"ECO_ID":392,"SHAPE_LENG":9.46111589042,"SHAPE_AREA":2.87363603356,"NNH_NAME":"Nature Imperiled","COLOR":"#A87001","COLOR_BIO":"#FEFF73","COLOR_NNH":"#EE1E23","LICENSE":"CC-BY 4.0","name":"Flint Hills tallgrass prairie"},"geometry":{"type":"Polygon","coordinates":[[[-96.687821,39.685899],[-96.693156,39.689555],[-96.755573,39.713792],[-96.785378,39.719757],[-96.820503,39.71748],[-96.839333,39.709157],[-96.847188,39.700049],[-96.851009,39.6842],[-96.85475,39.65668],[-96.847817,39.611285],[-96.841106,39.584681],[-96.841963,39.565476],[-96.848489,39.544519],[-96.854597,39.536271],[-96.862315,39.529796],[-96.88992,39.511675],[-96.911766,39.499648],[-96.92627,39.485357],[-96.931784,39.474099],[-96.934243,39.459763],[-96.939336,39.443122],[-96.955751,39.405846],[-96.96316,39.393196],[-96.992924,39.351308],[-97.011426,39.332101],[-97.041439,39.306982],[-97.046251,39.300238],[-97.051103,39.287931],[-97.05194,39.279529],[-97.049776,39.270694],[-97.04012,39.247313],[-97.033255,39.239841],[-97.021558,39.220928],[-97.009317,39.196501],[-96.997951,39.183272],[-96.98725,39.176259],[-96.969417,39.16766],[-96.961837,39.158554],[-96.958892,39.150961],[-96.95785,39.140494],[-96.962928,39.10056],[-96.959151,39.091966],[-96.943879,39.073407],[-96.93804,39.063488],[-96.931564,39.040938],[-96.937139,39.029268],[-96.963168,38.997812],[-96.97147,38.990077],[-97.017505,38.929606],[-97.024418,38.913973],[-97.030899,38.889628],[-97.053468,38.834861],[-97.060296,38.81034],[-97.06705,38.76884],[-97.06734,38.751233],[-97.065122,38.731116],[-97.073149,38.669024],[-97.074845,38.628931],[-97.087604,38.604526],[-97.105918,38.581283],[-97.160876,38.545434],[-97.21634,38.51511],[-97.265763,38.490805],[-97.276018,38.484473],[-97.303263,38.462843],[-97.330104,38.435648],[-97.342269,38.419618],[-97.367718,38.375562],[-97.364654,38.359055],[-97.354952,38.33776],[-97.346835,38.330157],[-97.34202,38.320739],[-97.333629,38.312934],[-97.332288,38.292863],[-97.324313,38.275154],[-97.302541,38.257073],[-97.283703,38.245693],[-97.261993,38.222758],[-97.245093,38.197518],[-97.228149,38.149986],[-97.223773,38.141242],[-97.212274,38.125671],[-97.186127,38.117267],[-97.175464,38.11717],[-97.162608,38.119925],[-97.152691,38.115242],[-97.131966,38.098197],[-97.119861,38.082805],[-97.105682,38.073463],[-97.095369,38.063413],[-97.060406,38.040809],[-97.040623,38.026043],[-97.030274,38.014754],[-97.02828,38.009318],[-97.028822,37.975416],[-97.049289,37.895556],[-97.049869,37.880578],[-97.046276,37.863812],[-97.037949,37.842857],[-97.012255,37.797305],[-97.006727,37.780987],[-97.005338,37.771663],[-97.008374,37.742857],[-96.999786,37.708347],[-96.992774,37.663205],[-96.996522,37.648239],[-97.007301,37.635072],[-97.0092,37.629476],[-97.004725,37.606473],[-97.005116,37.587148],[-97.00807,37.571892],[-97.013677,37.55682],[-97.027154,37.531881],[-97.029063,37.523139],[-97.028534,37.514216],[-97.023198,37.491269],[-97.016056,37.471457],[-97.014942,37.451156],[-97.018806,37.424294],[-97.031001,37.377394],[-97.036443,37.347621],[-97.036226,37.318057],[-97.037868,37.303881],[-97.03683,37.296329],[-97.032096,37.284076],[-97.022016,37.268829],[-97.012552,37.259532],[-96.986751,37.244454],[-96.974232,37.233198],[-96.970409,37.226608],[-96.962703,37.199243],[-96.945579,37.171269],[-96.925302,37.147282],[-96.920862,37.137885],[-96.922125,37.129942],[-96.932834,37.117522],[-96.943094,37.111509],[-96.948184,37.112416],[-96.953519,37.106423],[-96.962483,37.078496],[-96.959737,37.058001],[-96.951591,37.044629],[-96.942411,37.039325],[-96.926387,37.033178],[-96.922904,37.027831],[-96.918107,37.008159],[-96.920838,36.992611],[-96.927971,36.977216],[-96.942055,36.954099],[-96.954008,36.926336],[-96.959275,36.910645],[-96.960187,36.895518],[-96.956517,36.885482],[-96.949005,36.873202],[-96.937274,36.84756],[-96.932237,36.806231],[-96.926383,36.792405],[-96.922709,36.785061],[-96.912571,36.775178],[-96.900709,36.768731],[-96.894122,36.760975],[-96.891036,36.750938],[-96.891107,36.735238],[-96.894112,36.715359],[-96.900801,36.69876],[-96.918686,36.673592],[-96.922524,36.656237],[-96.922482,36.649359],[-96.917126,36.637773],[-96.910676,36.633744],[-96.87795,36.62609],[-96.85833,36.627983],[-96.85116,36.626471],[-96.847553,36.623251],[-96.849606,36.610478],[-96.855206,36.598234],[-96.859041,36.583459],[-96.859236,36.572398],[-96.855168,36.5623],[-96.846949,36.55901],[-96.834592,36.559488],[-96.798649,36.575814],[-96.778957,36.579529],[-96.759288,36.579568],[-96.742765,36.575893],[-96.730102,36.568623],[-96.714921,36.555785],[-96.696679,36.534963],[-96.686029,36.515489],[-96.669587,36.493069],[-96.650305,36.472637],[-96.640155,36.464397],[-96.596265,36.43851],[-96.583191,36.433745],[-96.569596,36.432296],[-96.558454,36.434014],[-96.545894,36.442627],[-96.543736,36.455592],[-96.528066,36.487478],[-96.524745,36.501781],[-96.523504,36.521371],[-96.515255,36.554155],[-96.489654,36.581447],[-96.487302,36.589685],[-96.488137,36.598857],[-96.487015,36.604808],[-96.479886,36.61485],[-96.464594,36.616818],[-96.453464,36.614568],[-96.43679,36.605696],[-96.420034,36.59172],[-96.408874,36.585916],[-96.40029,36.58517],[-96.395751,36.591326],[-96.391918,36.623844],[-96.390092,36.674019],[-96.384446,36.702512],[-96.365007,36.736179],[-96.360763,36.746461],[-96.356485,36.790717],[-96.352404,36.798822],[-96.336204,36.807983],[-96.330587,36.819285],[-96.329286,36.832969],[-96.334456,36.847446],[-96.34095,36.852706],[-96.348884,36.862791],[-96.35821,36.881996],[-96.359482,36.90154],[-96.352002,36.95597],[-96.351131,36.975385],[-96.354777,36.987098],[-96.36725,37.00724],[-96.365395,37.019485],[-96.35377,37.036359],[-96.332711,37.053273],[-96.316905,37.060813],[-96.292243,37.064624],[-96.287232,37.067737],[-96.284324,37.071541],[-96.284126,37.075425],[-96.288297,37.087757],[-96.288173,37.091415],[-96.284989,37.094586],[-96.26916,37.099118],[-96.252124,37.096471],[-96.247182,37.097553],[-96.245493,37.102381],[-96.247081,37.10749],[-96.277891,37.131277],[-96.300413,37.153046],[-96.30455,37.163262],[-96.303595,37.17437],[-96.299453,37.181474],[-96.294865,37.18546],[-96.280143,37.188024],[-96.273233,37.186956],[-96.251759,37.170347],[-96.244627,37.162091],[-96.228487,37.158504],[-96.218371,37.161774],[-96.214919,37.17043],[-96.211098,37.172848],[-96.195062,37.175595],[-96.191952,37.178079],[-96.19102,37.182871],[-96.195486,37.189492],[-96.23671,37.220903],[-96.248456,37.237827],[-96.249996,37.249447],[-96.248608,37.256121],[-96.234852,37.279896],[-96.227023,37.28244],[-96.211288,37.281678],[-96.187972,37.271216],[-96.162782,37.268488],[-96.148484,37.264215],[-96.143909,37.264224],[-96.140012,37.266466],[-96.133047,37.272621],[-96.129361,37.279324],[-96.128451,37.286688],[-96.132495,37.297138],[-96.137867,37.305142],[-96.150622,37.316658],[-96.155854,37.324774],[-96.156631,37.342732],[-96.163918,37.347842],[-96.172976,37.349655],[-96.180004,37.353161],[-96.186772,37.35952],[-96.187503,37.363016],[-96.183596,37.37452],[-96.178195,37.380866],[-96.155226,37.393192],[-96.152871,37.405686],[-96.160959,37.423323],[-96.159052,37.430389],[-96.155788,37.432812],[-96.15163,37.432995],[-96.134091,37.427941],[-96.124637,37.427894],[-96.108349,37.433597],[-96.098456,37.442288],[-96.096321,37.449695],[-96.094908,37.469112],[-96.087973,37.488582],[-96.087052,37.500231],[-96.090158,37.519359],[-96.095735,37.532684],[-96.102956,37.542314],[-96.103452,37.55095],[-96.101162,37.558812],[-96.091007,37.566357],[-96.088231,37.572745],[-96.087399,37.57683],[-96.093072,37.594798],[-96.092461,37.608522],[-96.088492,37.616367],[-96.080122,37.622255],[-96.051928,37.634429],[-96.049917,37.638407],[-96.047153,37.648148],[-96.04707,37.656606],[-96.04793,37.660674],[-96.055031,37.671697],[-96.055355,37.683709],[-96.05094,37.692327],[-96.037993,37.697009],[-96.027569,37.698243],[-96.021856,37.697996],[-96.015453,37.695092],[-96.010309,37.690431],[-96.005171,37.69142],[-95.988056,37.688008],[-95.971679,37.687401],[-95.966126,37.687358],[-95.962429,37.690028],[-95.958104,37.697656],[-95.956833,37.706423],[-95.963115,37.767539],[-95.962441,37.783186],[-95.943879,37.795484],[-95.916563,37.801275],[-95.903587,37.8096],[-95.882148,37.81967],[-95.875374,37.824489],[-95.868578,37.840712],[-95.866867,37.851239],[-95.867211,37.866388],[-95.877846,37.880903],[-95.886069,37.89587],[-95.891549,37.908692],[-95.894271,37.927929],[-95.894262,37.934334],[-95.883215,37.962103],[-95.880426,37.985604],[-95.883151,38.0027],[-95.891395,38.013392],[-95.896896,38.017669],[-95.929921,38.039056],[-95.951955,38.043343],[-95.985012,38.043349],[-95.990522,38.041215],[-96.004023,38.042261],[-96.010283,38.04343],[-96.021917,38.049929],[-96.0353,38.062257],[-96.045045,38.07509],[-96.053813,38.080371],[-96.061611,38.087918],[-96.075272,38.111317],[-96.079181,38.121885],[-96.087021,38.158876],[-96.087068,38.198894],[-96.089062,38.234379],[-96.093985,38.267597],[-96.096783,38.313823],[-96.09604,38.345741],[-96.099048,38.401611],[-96.103004,38.432564],[-96.115785,38.469548],[-96.117763,38.481626],[-96.111955,38.526179],[-96.108061,38.543547],[-96.096323,38.561679],[-96.079245,38.57534],[-96.070932,38.586025],[-96.054302,38.615946],[-96.051534,38.626629],[-96.05988,38.645854],[-96.07379,38.669353],[-96.087332,38.676548],[-96.092109,38.689252],[-96.122406,38.718297],[-96.137613,38.758974],[-96.13008,38.779331],[-96.104091,38.815835],[-96.077132,38.828794],[-96.039256,38.843349],[-96.005155,38.846263],[-95.978629,38.852075],[-95.944506,38.875316],[-95.929328,38.889846],[-95.910332,38.921808],[-95.906512,38.942156],[-95.906494,38.956687],[-95.917858,38.974141],[-95.940598,39.017757],[-95.951955,39.075905],[-95.951934,39.107881],[-95.944314,39.125321],[-95.940496,39.14276],[-95.929065,39.160197],[-95.913826,39.174721],[-95.898572,39.195063],[-95.887109,39.221214],[-95.872512,39.244799],[-95.871038,39.254095],[-95.864163,39.270614],[-95.860284,39.305497],[-95.864291,39.331511],[-95.875442,39.360749],[-95.879724,39.367343],[-95.885383,39.371127],[-95.886821,39.375855],[-95.91121,39.396616],[-95.991149,39.436086],[-96.084471,39.467532],[-96.118672,39.481521],[-96.146031,39.495588],[-96.159225,39.506825],[-96.165856,39.514618],[-96.184084,39.524885],[-96.221382,39.534819],[-96.307398,39.546453],[-96.32876,39.55223],[-96.342289,39.557725],[-96.363439,39.56985],[-96.374907,39.578434],[-96.382753,39.586788],[-96.412167,39.627135],[-96.423504,39.63795],[-96.441063,39.648636],[-96.451136,39.651488],[-96.469792,39.651742],[-96.510472,39.637754],[-96.538222,39.630313],[-96.562971,39.625538],[-96.578729,39.62608],[-96.596407,39.629997],[-96.609104,39.635953],[-96.612242,39.638671],[-96.620346,39.654423],[-96.62936,39.661652],[-96.653401,39.676041],[-96.683774,39.686696],[-96.687821,39.685899]]]}}
