{"type":"Feature","properties":{"OBJECTID":266.0,"ECO_NAME":"Fernando de Noronha-Atol das Rocas moist forests","BIOME_NUM":1.0,"BIOME_NAME":"Tropical & Subtropical Moist Broadleaf Forests","REALM":"Neotropic","ECO_BIOME_":"NO01","NNH":4,"ECO_ID":462,"SHAPE_LENG":0.237170723609,"SHAPE_AREA":0.00153269638721,"NNH_NAME":"Nature Imperiled","COLOR":"#4DE600","COLOR_BIO":"#38A700","COLOR_NNH":"#EE1E23","LICENSE":"CC-BY 4.0","name":"Fernando de Noronha-Atol das Rocas moist forests"},"geometry":{"type":"Polygon","coordinates":[[[-32.392997,-3.850801],[-32.401944,-3.831935],[-32.450772,-3.854069],[-32.482632,-3.878029],[-32.428296,-3.876379],[-32.427842,-3.86648],[-32.392997,-3.850801]]]}}
