{"type":"Feature","properties":{"OBJECTID":803.0,"ECO_NAME":"Xingu-Tocantins-Araguaia moist forests","BIOME_NUM":1.0,"BIOME_NAME":"Tropical & Subtropical Moist Broadleaf Forests","REALM":"Neotropic","ECO_BIOME_":"NO01","NNH":2,"ECO_ID":518,"SHAPE_LENG":87.8985314588,"SHAPE_AREA":21.6494658849,"NNH_NAME":"Nature Could Reach Half Protected","COLOR":"#6C9400","COLOR_BIO":"#38A700","COLOR_NNH":"#7BC141","LICENSE":"CC-BY 4.0","name":"Xingu-Tocantins-Araguaia moist forests"},"geometry":{"type":"MultiPolygon","coordinates":[[[[-50.465184,-10.378068],[-50.399689,-10.381913],[-50.396084,-10.375883],[-50.418052,-10.367384],[-50.402984,-10.329438],[-50.396985,-10.283603],[-50.421086,-10.267882],[-50.428574,-10.323745],[-50.444596,-10.356643],[-50.493477,-10.325662],[-50.543671,-10.329651],[-50.634362,-10.299865],[-50.664303,-10.317823],[-50.622554,-10.308996],[-50.506825,-10.352828],[-50.465184,-10.378068]]],[[[-52.470063,-9.448109],[-52.452934,-9.498834],[-52.426453,-9.532357],[-52.380181,-9.554449],[-52.318557,-9.527114],[-52.264908,-9.467517],[-52.220733,-9.444703],[-52.20543,-9.396423],[-52.202889,-9.350415],[-52.222343,-9.300841],[-52.27073,-9.240762],[-52.293587,-9.180815],[-52.316712,-9.170344],[-52.412018,-9.22281],[-52.46424,-9.238652],[-52.487647,-9.278814],[-52.494811,-9.315609],[-52.532044,-9.338428],[-52.549645,-9.376327],[-52.529007,-9.414416],[-52.483887,-9.433081],[-52.470063,-9.448109]]],[[[-49.917572,-8.871964],[-49.922242,-8.839819],[-49.938454,-8.832947],[-49.992852,-8.845642],[-50.031067,-8.829598],[-50.05651,-8.854907],[-50.121346,-8.843483],[-50.120141,-8.942277],[-50.103905,-8.965235],[-50.066857,-8.962895],[-50.02977,-8.989279],[-50.017037,-8.985807],[-50.012444,-8.946758],[-50.00087,-8.935251],[-49.936058,-8.911037],[-49.917572,-8.871964]]],[[[-50.312104,-8.209301],[-50.2705,-8.194375],[-50.226585,-8.201275],[-50.211556,-8.198973],[-50.199982,-8.153019],[-50.176849,-8.101327],[-50.18953,-8.064555],[-50.214943,-8.062254],[-50.257699,-8.070282],[-50.303924,-8.092089],[-50.342141,-8.196644],[-50.334061,-8.205837],[-50.312104,-8.209301]]],[[[-50.160187,-7.508488],[-50.194794,-7.513047],[-50.193763,-7.611858],[-50.211082,-7.619895],[-50.25261,-7.602619],[-50.261817,-7.588823],[-50.297463,-7.502607],[-50.333206,-7.484184],[-50.355172,-7.514035],[-50.359848,-7.550806],[-50.326432,-7.586467],[-50.319541,-7.608307],[-50.333435,-7.643914],[-50.31157,-7.6853],[-50.275841,-7.727844],[-50.28048,-7.74279],[-50.323196,-7.749644],[-50.352097,-7.781792],[-50.351006,-7.832357],[-50.337173,-7.848457],[-50.282906,-7.855391],[-50.267922,-7.873788],[-50.267937,-7.889872],[-50.286437,-7.919735],[-50.334946,-7.923148],[-50.362702,-7.957611],[-50.34658,-7.996685],[-50.295769,-8.013952],[-50.269188,-7.996727],[-50.252991,-7.961128],[-50.21946,-7.926666],[-50.217103,-7.856585],[-50.203209,-7.825567],[-50.18473,-7.819826],[-50.163956,-7.824439],[-50.140885,-7.848575],[-50.124718,-7.843987],[-50.107346,-7.787694],[-50.117722,-7.754376],[-50.154633,-7.722187],[-50.168456,-7.688857],[-50.145287,-7.609607],[-50.160187,-7.508488]]],[[[-49.989955,-7.27377],[-50.05338,-7.311822],[-50.05338,-7.342132],[-50.043274,-7.365709],[-50.006222,-7.365709],[-49.982646,-7.3455],[-49.952331,-7.338765],[-49.935494,-7.315189],[-49.938862,-7.291615],[-49.989955,-7.27377]]],[[[-50.122284,-6.935545],[-50.089966,-6.909166],[-50.033539,-6.936827],[-50.007011,-6.919628],[-49.998887,-6.878282],[-50.027664,-6.857566],[-50.035668,-6.824235],[-50.000954,-6.733538],[-50.003205,-6.700227],[-50.01812,-6.66918],[-50.036538,-6.661108],[-50.078003,-6.664482],[-50.132172,-6.681618],[-50.111496,-6.712671],[-50.233994,-6.89974],[-50.242165,-6.953728],[-50.237664,-7.008892],[-50.182419,-7.058392],[-50.168702,-7.122751],[-50.146843,-7.157254],[-50.058098,-7.179183],[-50.029221,-7.145909],[-50.018745,-7.070095],[-50.040634,-7.055139],[-50.071784,-7.072337],[-50.091369,-7.068868],[-50.144325,-7.019387],[-50.138421,-6.937819],[-50.122284,-6.935545]]],[[[-49.665726,-6.722455],[-49.704911,-6.737356],[-49.731385,-6.72814],[-49.73481,-6.706325],[-49.702515,-6.663857],[-49.6875,-6.628286],[-49.689698,-6.547895],[-49.698891,-6.532965],[-49.721916,-6.52834],[-49.740365,-6.5375],[-49.78196,-6.638506],[-49.794648,-6.652268],[-49.817695,-6.660284],[-49.85225,-6.657941],[-49.87185,-6.67515],[-49.856995,-6.761304],[-49.892785,-6.810647],[-49.895134,-6.851996],[-49.867501,-6.861214],[-49.836373,-6.852065],[-49.816796,-6.857829],[-49.784569,-6.888859],[-49.767273,-6.883138],[-49.759186,-6.864771],[-49.760331,-6.847541],[-49.779885,-6.821111],[-49.784462,-6.800442],[-49.780991,-6.786654],[-49.763695,-6.770597],[-49.67733,-6.808568],[-49.650811,-6.793666],[-49.63005,-6.764974],[-49.632324,-6.73052],[-49.665726,-6.722455]]],[[[-50.917939,-1.579885],[-50.967202,-1.585211],[-50.979653,-1.570158],[-50.976936,-1.519568],[-51.02784,-1.447823],[-51.046753,-1.385529],[-51.05922,-1.371622],[-51.111725,-1.355062],[-51.120743,-1.338884],[-51.114647,-1.296363],[-51.093873,-1.276982],[-51.013465,-1.243172],[-50.990105,-1.189322],[-50.996865,-1.177754],[-51.022027,-1.17523],[-51.062385,-1.210535],[-51.195595,-1.261143],[-51.216408,-1.285112],[-51.211982,-1.302415],[-51.173469,-1.347626],[-51.18171,-1.374018],[-51.19783,-1.386525],[-51.329514,-1.393434],[-51.39183,-1.451579],[-51.417061,-1.457111],[-51.443421,-1.460331],[-51.514283,-1.449348],[-51.575234,-1.482202],[-51.599488,-1.50615],[-51.651047,-1.51376],[-51.892585,-1.643995],[-51.968323,-1.666353],[-51.998139,-1.671844],[-52.007202,-1.661409],[-52.003556,-1.638412],[-51.980857,-1.601793],[-52.133439,-1.649644],[-52.216973,-1.690757],[-52.254925,-1.732449],[-52.261372,-1.779224],[-52.257317,-1.828474],[-52.189556,-2.06198],[-52.117588,-2.168663],[-52.020482,-2.373553],[-52.002368,-2.428802],[-51.942994,-2.793735],[-51.908833,-2.884237],[-51.793892,-3.074493],[-51.76973,-3.090325],[-51.632782,-3.127267],[-51.611535,-3.147031],[-51.63556,-3.291421],[-51.675285,-3.329196],[-51.728058,-3.340028],[-51.744729,-3.355861],[-51.735001,-3.375582],[-51.707505,-3.396135],[-51.677224,-3.448077],[-51.67028,-3.481684],[-51.679451,-3.502795],[-51.71917,-3.521958],[-51.749169,-3.562234],[-51.801392,-3.598621],[-51.83223,-3.608897],[-51.863892,-3.599177],[-51.926674,-3.553345],[-51.940559,-3.532237],[-51.946113,-3.491963],[-51.935837,-3.428355],[-51.944451,-3.40919],[-51.963059,-3.389192],[-52.012505,-3.361137],[-52.036393,-3.329751],[-52.046113,-3.294198],[-52.087227,-3.275035],[-52.119446,-3.236704],[-52.140007,-3.231982],[-52.160004,-3.245035],[-52.164452,-3.283921],[-52.157784,-3.342807],[-52.181672,-3.414468],[-52.197503,-3.434466],[-52.216668,-3.436411],[-52.224167,-3.446687],[-52.227501,-3.487794],[-52.237786,-3.510294],[-52.311951,-3.584178],[-52.356392,-3.66556],[-52.420281,-3.708058],[-52.462784,-3.761386],[-52.545563,-3.798882],[-52.607224,-3.860545],[-52.596115,-3.943874],[-52.616669,-4.021645],[-52.613617,-4.044977],[-52.643616,-4.151635],[-52.639451,-4.193299],[-52.662224,-4.226074],[-52.716668,-4.267183],[-52.73806,-4.330789],[-52.730003,-4.375785],[-52.695008,-4.396894],[-52.662781,-4.433004],[-52.657227,-4.45439],[-52.662224,-4.49272],[-52.703896,-4.591048],[-52.713341,-4.652987],[-52.756669,-4.718538],[-52.793061,-4.751589],[-52.810837,-4.789645],[-52.830559,-4.882415],[-52.926391,-5.00824],[-52.921952,-5.086565],[-52.915558,-5.106565],[-52.884728,-5.144619],[-52.869728,-5.209612],[-52.867783,-5.365157],[-52.840836,-5.406542],[-52.729172,-5.450429],[-52.706116,-5.46876],[-52.680557,-5.603751],[-52.645005,-5.688466],[-52.627228,-5.711519],[-52.600281,-5.779015],[-52.543334,-5.8329],[-52.53167,-5.859289],[-52.529725,-5.884564],[-52.546952,-5.939281],[-52.53807,-6.035941],[-52.509179,-6.115101],[-52.458626,-6.16121],[-52.430565,-6.209817],[-52.436112,-6.303699],[-52.430557,-6.337586],[-52.383057,-6.360916],[-52.36139,-6.380638],[-52.294724,-6.491741],[-52.224724,-6.573403],[-52.194169,-6.581456],[-52.15084,-6.57118],[-52.108338,-6.544793],[-52.077507,-6.552293],[-52.043892,-6.627009],[-52.037315,-6.634442],[-52.031273,-6.630679],[-52.000367,-6.663074],[-51.98565,-6.708042],[-52.006951,-6.823661],[-52.056397,-6.900044],[-52.078896,-6.918377],[-52.183891,-6.953096],[-52.208619,-6.948928],[-52.285836,-6.965317],[-52.32917,-6.959763],[-52.406394,-6.976149],[-52.449723,-7.016148],[-52.466118,-7.082255],[-52.505005,-7.112253],[-52.524445,-7.112253],[-52.542229,-7.129749],[-52.585555,-7.210577],[-52.57917,-7.305293],[-52.68834,-7.435562],[-52.68834,-7.489168],[-52.656395,-7.552496],[-52.670281,-7.572217],[-52.70945,-7.581663],[-52.743057,-7.620549],[-52.763062,-7.671377],[-52.783341,-7.809145],[-52.810006,-7.83442],[-52.814171,-7.854143],[-52.780007,-7.9633],[-52.724449,-8.058295],[-52.712226,-8.131624],[-52.675835,-8.202728],[-52.652504,-8.227728],[-52.65306,-8.341051],[-52.66639,-8.406047],[-52.662224,-8.427157],[-52.612786,-8.451599],[-52.595841,-8.47993],[-52.575004,-8.492151],[-52.56945,-8.531594],[-52.554451,-8.547705],[-52.469452,-8.566037],[-52.431115,-8.558536],[-52.389451,-8.572145],[-52.325005,-8.622976],[-52.301673,-8.684638],[-52.27639,-8.710471],[-52.27639,-8.802409],[-52.268059,-8.812683],[-52.198334,-8.840461],[-52.157784,-8.887679],[-52.104172,-8.920176],[-52.059174,-9.002117],[-52.036393,-9.082111],[-52.044724,-9.105166],[-52.070008,-9.134886],[-52.074173,-9.155716],[-52.06028,-9.178214],[-52.041946,-9.188768],[-52.046113,-9.212657],[-52.017228,-9.264041],[-52.088368,-9.338649],[-52.07787,-9.351431],[-52.021553,-9.369675],[-51.992596,-9.364383],[-51.94051,-9.398827],[-51.905709,-9.39454],[-51.879944,-9.400826],[-51.867749,-9.422402],[-51.840469,-9.575975],[-51.822578,-9.636542],[-51.82668,-9.702244],[-51.854195,-9.719026],[-51.881001,-9.718528],[-52.035401,-9.693457],[-52.055943,-9.710058],[-52.061322,-9.727454],[-52.0458,-9.751512],[-52.045868,-9.767634],[-52.082055,-9.831885],[-52.084557,-9.86069],[-52.105786,-9.904741],[-52.076633,-9.920959],[-52.00935,-9.890821],[-51.966247,-9.891042],[-51.933709,-9.880794],[-51.874351,-9.843016],[-51.823242,-9.830524],[-51.775734,-9.859422],[-51.706109,-9.869968],[-51.732925,-9.904408],[-51.732972,-9.919374],[-51.684296,-9.949407],[-51.67968,-9.960932],[-51.700699,-9.999992],[-51.684516,-10.02534],[-51.634674,-10.064574],[-51.616065,-10.054258],[-51.548745,-10.078561],[-51.488266,-10.04418],[-51.445122,-9.971788],[-51.430016,-9.96722],[-51.412613,-9.974155],[-51.409188,-10.000607],[-51.399903,-10.007526],[-51.359238,-9.999537],[-51.33603,-10.009929],[-51.329094,-10.030636],[-51.354698,-10.058202],[-51.413918,-10.044307],[-51.441826,-10.056916],[-51.444169,-10.06841],[-51.429093,-10.081089],[-51.37915,-10.088068],[-51.374543,-10.107636],[-51.383881,-10.129464],[-51.400155,-10.134048],[-51.443115,-10.116718],[-51.493111,-10.138483],[-51.441589,-10.244484],[-51.410881,-10.275503],[-51.361416,-10.282472],[-51.339001,-10.272203],[-51.315781,-10.226723],[-51.262959,-10.237987],[-51.241593,-10.20981],[-51.248402,-10.175475],[-51.239895,-10.146488],[-51.201497,-10.143171],[-51.121918,-10.192819],[-51.08318,-10.241242],[-51.037074,-10.261854],[-50.966121,-10.254171],[-50.943463,-10.270803],[-50.878064,-10.272454],[-50.858348,-10.307564],[-50.772293,-10.370991],[-50.804099,-10.326419],[-50.837807,-10.318379],[-50.852921,-10.297689],[-50.857567,-10.273554],[-50.843613,-10.229865],[-50.799454,-10.228704],[-50.758773,-10.19076],[-50.751815,-10.053962],[-50.743683,-10.039007],[-50.734382,-10.034409],[-50.716958,-10.043601],[-50.683273,-10.086113],[-50.655381,-10.097593],[-50.575219,-10.091782],[-50.547333,-10.102086],[-50.5206,-10.122756],[-50.476365,-10.20774],[-50.46262,-10.21779],[-50.47498,-10.174848],[-50.448323,-10.13154],[-50.437981,-10.088704],[-50.384182,-10.018173],[-50.344552,-9.980239],[-50.311139,-9.929841],[-50.290986,-9.828095],[-50.23524,-9.747126],[-50.371116,-9.726126],[-50.402459,-9.70892],[-50.429169,-9.677919],[-50.431504,-9.659539],[-50.407143,-9.642277],[-50.371178,-9.643385],[-50.332916,-9.613473],[-50.320144,-9.616906],[-50.296905,-9.65939],[-50.229584,-9.681126],[-50.211327,-9.696811],[-50.208531,-9.669373],[-50.246384,-9.612995],[-50.328113,-9.568213],[-50.338334,-9.538616],[-50.319806,-9.481143],[-50.344582,-9.516963],[-50.344559,-9.558327],[-50.37703,-9.55031],[-50.407211,-9.520471],[-50.451279,-9.507858],[-50.467522,-9.483737],[-50.439705,-9.430851],[-50.460579,-9.410173],[-50.461739,-9.39524],[-50.436242,-9.376835],[-50.409577,-9.379127],[-50.379448,-9.358418],[-50.359734,-9.35725],[-50.314515,-9.382495],[-50.290154,-9.385922],[-50.296284,-9.409207],[-50.276515,-9.351772],[-50.230599,-9.292985],[-50.179904,-9.276593],[-50.052983,-9.279823],[-50.018536,-9.265028],[-49.974883,-9.209744],[-49.950909,-9.195253],[-49.921753,-9.123158],[-50.126984,-9.073244],[-50.218972,-9.024825],[-50.254044,-8.979838],[-50.270524,-8.934322],[-50.271968,-8.886082],[-50.247845,-8.780201],[-50.242829,-8.694445],[-50.276452,-8.61492],[-50.278748,-8.566657],[-50.335418,-8.56666],[-50.372429,-8.534481],[-50.418702,-8.537915],[-50.44992,-8.528716],[-50.47416,-8.468944],[-50.498421,-8.440197],[-50.513398,-8.389616],[-50.506424,-8.356288],[-50.485611,-8.348261],[-50.401246,-8.385084],[-50.29374,-8.409238],[-50.27871,-8.441415],[-50.284501,-8.458646],[-50.279876,-8.474731],[-50.25084,-8.504582],[-50.209321,-8.433366],[-50.156136,-8.387397],[-50.161911,-8.369024],[-50.27636,-8.352941],[-50.445107,-8.312653],[-50.473998,-8.298838],[-50.501748,-8.302272],[-50.553818,-8.342462],[-50.590806,-8.342433],[-50.616219,-8.328615],[-50.624238,-8.281473],[-50.589493,-8.229781],[-50.584839,-8.204507],[-50.594056,-8.184961],[-50.489907,-8.077028],[-50.458657,-8.024183],[-50.4505,-7.973622],[-50.453918,-7.940288],[-50.464287,-7.923038],[-50.498925,-7.910351],[-50.556649,-7.90683],[-50.59594,-7.915976],[-50.596016,-7.961956],[-50.620385,-8.026298],[-50.692147,-8.111259],[-50.736115,-8.139933],[-50.780029,-8.14906],[-50.878258,-8.146593],[-50.939514,-8.155685],[-51.030723,-8.126744],[-51.104683,-8.132315],[-51.148514,-8.104612],[-51.150681,-8.053997],[-51.1633,-8.026361],[-51.185196,-8.011363],[-51.217545,-8.010119],[-51.256913,-8.038768],[-51.276665,-8.076666],[-51.341507,-8.116723],[-51.361138,-8.114368],[-51.374901,-8.085575],[-51.38871,-8.070577],[-51.403725,-8.067074],[-51.490479,-8.098991],[-51.521653,-8.093142],[-51.538918,-8.074677],[-51.551415,-8.02286],[-51.556724,-7.904337],[-51.546226,-7.879076],[-51.54358,-7.797402],[-51.5308,-7.776747],[-51.463707,-7.744784],[-51.419647,-7.696619],[-51.361847,-7.670363],[-51.308342,-7.56012],[-51.274711,-7.51307],[-51.231254,-7.306198],[-51.213906,-7.292446],[-51.038842,-7.357406],[-50.927146,-7.41981],[-50.951478,-7.453092],[-50.969964,-7.459935],[-51.089837,-7.432001],[-51.124367,-7.407743],[-51.146271,-7.40538],[-51.194771,-7.417873],[-51.210975,-7.435066],[-51.21658,-7.445187],[-51.159316,-7.500229],[-51.114647,-7.567037],[-51.089497,-7.64238],[-51.088379,-7.686165],[-50.956749,-7.678448],[-50.890892,-7.65102],[-50.868904,-7.630374],[-50.800765,-7.608678],[-50.736382,-7.712279],[-50.705276,-7.735329],[-50.655594,-7.717017],[-50.622056,-7.690642],[-50.543571,-7.687319],[-50.490447,-7.672446],[-50.459221,-7.634566],[-50.460358,-7.621923],[-50.47757,-7.569028],[-50.545464,-7.475817],[-50.554627,-7.447069],[-50.553414,-7.417182],[-50.527954,-7.379303],[-50.532532,-7.364353],[-50.556716,-7.343618],[-50.647789,-7.327349],[-50.660386,-7.293982],[-50.626915,-7.283705],[-50.604905,-7.241222],[-50.588753,-7.236661],[-50.549576,-7.251673],[-50.494339,-7.301206],[-50.436669,-7.293261],[-50.413529,-7.256526],[-50.391617,-7.251957],[-50.378936,-7.261174],[-50.369812,-7.310603],[-50.317864,-7.279649],[-50.275192,-7.279715],[-50.237114,-7.260224],[-50.23703,-7.213112],[-50.219674,-7.172916],[-50.225411,-7.156827],[-50.238083,-7.152213],[-50.281998,-7.208457],[-50.299293,-7.209575],[-50.33722,-7.149769],[-50.40178,-7.151956],[-50.431733,-7.135817],[-50.429375,-7.11513],[-50.410897,-7.10368],[-50.335991,-7.114143],[-50.320992,-7.101532],[-50.330117,-7.055548],[-50.395806,-7.053131],[-50.478692,-7.011595],[-50.499604,-7.079369],[-50.516877,-7.075884],[-50.527199,-7.049426],[-50.517876,-7.008071],[-50.523582,-6.98621],[-50.531608,-6.971251],[-50.587975,-6.934347],[-50.587951,-6.926303],[-50.579834,-6.906775],[-50.561356,-6.895319],[-50.5486,-6.864315],[-50.5336,-6.85516],[-50.500198,-6.855231],[-50.494408,-6.843757],[-50.528908,-6.825279],[-50.566765,-6.765424],[-50.590897,-6.745818],[-50.612747,-6.735415],[-50.627731,-6.739981],[-50.642769,-6.757175],[-50.653336,-6.82383],[-50.685524,-6.834321],[-50.719033,-6.864121],[-50.776658,-6.867406],[-50.788139,-6.857014],[-50.786933,-6.839778],[-50.756737,-6.765133],[-50.756661,-6.739845],[-50.77504,-6.722547],[-50.809593,-6.724731],[-50.907723,-6.785341],[-50.938866,-6.793297],[-50.979179,-6.792006],[-51.004525,-6.775621],[-50.999581,-6.688252],[-51.024811,-6.662862],[-51.052406,-6.651262],[-51.063935,-6.651218],[-51.099723,-6.676386],[-51.181434,-6.661133],[-51.195267,-6.664529],[-51.234604,-6.705785],[-51.281792,-6.699836],[-51.303703,-6.706656],[-51.374527,-6.830601],[-51.434525,-6.852198],[-51.475013,-6.885397],[-51.495713,-6.878401],[-51.525383,-6.818444],[-51.578225,-6.787148],[-51.66217,-6.759146],[-51.752213,-6.796675],[-51.78096,-6.787332],[-51.81186,-6.748054],[-51.847466,-6.730609],[-51.86937,-6.735095],[-51.890221,-6.75455],[-51.94603,-6.846319],[-51.983094,-6.8795],[-51.998032,-6.873668],[-51.953644,-6.751945],[-51.946511,-6.712867],[-51.960006,-6.655249],[-51.998856,-6.60324],[-52.036477,-6.538577],[-52.036399,-6.525921],[-51.995926,-6.497383],[-51.965752,-6.456126],[-51.933465,-6.448257],[-51.902504,-6.470291],[-51.922455,-6.535771],[-51.89273,-6.573919],[-51.85933,-6.571793],[-51.798005,-6.520345],[-51.784188,-6.519266],[-51.768128,-6.529709],[-51.764733,-6.541228],[-51.771965,-6.599887],[-51.758262,-6.622967],[-51.722611,-6.632355],[-51.66838,-6.613069],[-51.622429,-6.636316],[-51.593627,-6.634145],[-51.548446,-6.582596],[-51.516167,-6.573552],[-51.444886,-6.599191],[-51.427612,-6.599273],[-51.389527,-6.581035],[-51.347092,-6.621491],[-51.32061,-6.621596],[-51.285706,-6.543537],[-51.272987,-6.532082],[-51.244202,-6.531058],[-51.207405,-6.542713],[-51.152099,-6.538347],[-51.094314,-6.486829],[-51.05635,-6.493868],[-51.042602,-6.510028],[-51.01175,-6.569948],[-51.008544,-6.634354],[-50.981003,-6.660901],[-50.959129,-6.664429],[-50.939522,-6.657601],[-50.897956,-6.628998],[-50.829926,-6.603932],[-50.78846,-6.601774],[-50.627343,-6.641363],[-50.531708,-6.626685],[-50.508598,-6.602618],[-50.503785,-6.531361],[-50.466767,-6.471703],[-50.417122,-6.424707],[-50.399224,-6.442026],[-50.322175,-6.476711],[-50.300255,-6.462978],[-50.264465,-6.421687],[-50.220208,-6.404529],[-50.161515,-6.410408],[-49.990325,-6.362553],[-49.976532,-6.369471],[-49.917824,-6.37188],[-49.885567,-6.362754],[-49.879754,-6.331745],[-49.896981,-6.311033],[-50.026879,-6.234918],[-49.962974,-6.164997],[-49.950211,-6.123667],[-49.951165,-6.039807],[-49.98426,-5.938638],[-49.976166,-5.920285],[-49.935891,-5.912346],[-49.903794,-5.956059],[-49.883225,-6.008946],[-49.857963,-6.030817],[-49.838402,-6.029712],[-49.814141,-5.981529],[-49.785294,-5.94829],[-49.745026,-5.936884],[-49.697892,-5.951904],[-49.667984,-5.950817],[-49.600029,-5.902722],[-49.539063,-5.897083],[-49.501069,-5.878788],[-49.490593,-5.81221],[-49.441132,-5.791629],[-49.424836,-5.690654],[-49.417923,-5.684914],[-49.39952,-5.691834],[-49.386956,-5.726298],[-49.380257,-5.838793],[-49.432274,-6.002873],[-49.430007,-6.026976],[-49.38871,-6.111975],[-49.429009,-6.124549],[-49.458901,-6.11533],[-49.487717,-6.146289],[-49.500367,-6.146271],[-49.529107,-6.124427],[-49.548652,-6.122098],[-49.582062,-6.141563],[-49.582116,-6.185194],[-49.514321,-6.242691],[-49.496131,-6.435578],[-49.482361,-6.475764],[-49.492767,-6.518231],[-49.510041,-6.526262],[-49.529618,-6.523951],[-49.57911,-6.506687],[-49.596383,-6.513552],[-49.606774,-6.535351],[-49.606811,-6.56406],[-49.593041,-6.606558],[-49.571183,-6.629536],[-49.553971,-6.708764],[-49.528626,-6.6996],[-49.497459,-6.627286],[-49.480171,-6.606641],[-49.460595,-6.600915],[-49.443328,-6.612401],[-49.432998,-6.666361],[-49.438781,-6.696207],[-49.468749,-6.736359],[-49.468766,-6.763915],[-49.4515,-6.778843],[-49.391579,-6.766245],[-49.363938,-6.773133],[-49.421578,-6.855769],[-49.44806,-6.828207],[-49.4665,-6.821313],[-49.489541,-6.833939],[-49.498803,-6.917729],[-49.517251,-6.956763],[-49.60028,-7.037102],[-49.603753,-7.058925],[-49.593376,-7.079586],[-49.576095,-7.087627],[-49.542656,-7.084193],[-49.494232,-7.065825],[-49.475799,-7.073859],[-49.471184,-7.087642],[-49.481575,-7.135859],[-49.535759,-7.163401],[-49.553063,-7.225402],[-49.595742,-7.254114],[-49.595742,-7.265589],[-49.585357,-7.275919],[-49.556533,-7.27133],[-49.523086,-7.251806],[-49.48964,-7.270164],[-49.456208,-7.239161],[-49.438904,-7.240314],[-49.42157,-7.35165],[-49.404549,-7.378746],[-49.425019,-7.397554],[-49.448067,-7.45037],[-49.486405,-7.503927],[-49.507179,-7.487869],[-49.507187,-7.453425],[-49.517579,-7.425882],[-49.547561,-7.402932],[-49.564866,-7.404085],[-49.698677,-7.469575],[-49.734444,-7.473025],[-49.81173,-7.448913],[-49.830185,-7.456946],[-49.849808,-7.47532],[-49.863671,-7.504032],[-49.869468,-7.579839],[-49.906411,-7.590175],[-49.928058,-7.620138],[-49.91544,-7.60273],[-49.875229,-7.591279],[-49.83656,-7.606299],[-49.739426,-7.561088],[-49.619636,-7.538211],[-49.578308,-7.564615],[-49.587162,-7.655606],[-49.650166,-7.717445],[-49.625962,-7.718712],[-49.589013,-7.742785],[-49.593605,-7.805942],[-49.580887,-7.825449],[-49.534722,-7.79899],[-49.44246,-7.671478],[-49.405556,-7.638156],[-49.392868,-7.635851],[-49.397461,-7.659953],[-49.445893,-7.708216],[-49.460877,-7.734634],[-49.419327,-7.746064],[-49.449242,-7.852854],[-49.349915,-7.879119],[-49.319901,-7.866447],[-49.273797,-7.802104],[-49.253022,-7.800912],[-49.195244,-7.835244],[-49.159469,-7.825996],[-49.176575,-7.955689],[-49.172944,-8.049775],[-49.224709,-8.168077],[-49.229233,-8.216284],[-49.247627,-8.262224],[-49.269593,-8.26343],[-49.297302,-8.283003],[-49.319207,-8.30945],[-49.338723,-8.374902],[-49.368729,-8.408246],[-49.388497,-8.354357],[-49.424363,-8.332618],[-49.431313,-8.318859],[-49.432602,-8.233916],[-49.447655,-8.214432],[-49.48233,-8.216794],[-49.50425,-8.242081],[-49.502999,-8.312105],[-49.515656,-8.353452],[-49.499412,-8.391309],[-49.497033,-8.428033],[-49.523591,-8.456782],[-49.603385,-8.456931],[-49.602089,-8.545324],[-49.609024,-8.551083],[-49.661255,-8.547944],[-49.68769,-8.578612],[-49.694241,-8.629349],[-49.688728,-8.731432],[-49.678154,-8.744099],[-49.596286,-8.752175],[-49.515107,-8.637853],[-49.414933,-8.537248],[-49.365325,-8.417486],[-49.285645,-8.368027],[-49.254029,-8.30393],[-49.21093,-8.262649],[-49.181885,-8.201256],[-49.183196,-8.119787],[-49.145218,-8.043973],[-49.140679,-7.999214],[-49.147683,-7.969391],[-49.130508,-7.87986],[-49.137496,-7.843163],[-49.123718,-7.799538],[-49.126106,-7.755943],[-49.15844,-7.746819],[-49.178086,-7.723904],[-49.228913,-7.699899],[-49.267052,-7.655188],[-49.325959,-7.604769],[-49.335205,-7.581829],[-49.311821,-7.574219],[-49.247178,-7.599406],[-49.163949,-7.689938],[-49.12468,-7.709381],[-49.078537,-7.684057],[-49.042687,-7.718414],[-49.04377,-7.764304],[-49.071372,-7.828602],[-49.105796,-7.943406],[-49.076783,-8.012179],[-49.080155,-8.053491],[-49.007157,-8.078393],[-48.963788,-8.056421],[-48.977456,-8.028142],[-48.960235,-7.947666],[-48.932549,-7.93728],[-48.89901,-7.95325],[-48.881691,-7.953208],[-48.874764,-7.946297],[-48.881783,-7.914206],[-48.872582,-7.899266],[-48.814797,-7.908291],[-48.76426,-7.952342],[-48.697547,-7.853527],[-48.665558,-7.727292],[-48.610642,-7.70047],[-48.564812,-7.632376],[-48.557641,-7.603484],[-48.564797,-7.561264],[-48.582936,-7.537728],[-48.584523,-7.488457],[-48.555565,-7.41515],[-48.48985,-7.335338],[-48.489499,-7.310097],[-48.536812,-7.206013],[-48.524575,-7.154033],[-48.51233,-7.145661],[-48.487156,-7.154676],[-48.463353,-7.15105],[-48.451279,-7.123732],[-48.431675,-7.119094],[-48.425404,-7.106334],[-48.438923,-7.081512],[-48.517106,-7.060915],[-48.544838,-7.026508],[-48.549485,-7.004743],[-48.505883,-6.885443],[-48.467972,-6.82003],[-48.472718,-6.718025],[-48.455566,-6.627439],[-48.451806,-6.551227],[-48.434624,-6.475567],[-48.421982,-6.45377],[-48.435776,-6.436504],[-48.428986,-6.357501],[-48.405739,-6.351966],[-48.383027,-6.31504],[-48.393063,-6.288958],[-48.438385,-6.2421],[-48.437569,-6.192766],[-48.402371,-6.134429],[-48.368305,-6.11511],[-48.293297,-6.109754],[-48.272282,-6.082553],[-48.293457,-6.004404],[-48.290001,-5.982639],[-48.234817,-5.960822],[-48.209519,-5.937897],[-48.194573,-5.90695],[-48.247513,-5.823348],[-48.262482,-5.762612],[-48.257882,-5.743134],[-48.230286,-5.725946],[-48.168213,-5.709883],[-48.114189,-5.617072],[-48.106148,-5.580405],[-48.109604,-5.560938],[-48.130288,-5.547197],[-48.261306,-5.504798],[-48.277405,-5.491052],[-48.337105,-5.382167],[-48.365822,-5.370693],[-48.449707,-5.36492],[-48.51062,-5.382063],[-48.579575,-5.391185],[-48.607155,-5.387721],[-48.670304,-5.35212],[-48.665696,-5.336066],[-48.579529,-5.341886],[-48.542725,-5.315548],[-48.507042,-5.253684],[-48.487504,-5.236503],[-48.381767,-5.202214],[-48.30825,-5.209151],[-48.220985,-5.255031],[-48.1624,-5.271096],[-48.134827,-5.268818],[-48.086571,-5.287158],[-48.007294,-5.261971],[-47.968224,-5.260832],[-47.922272,-5.274579],[-47.897003,-5.282592],[-47.880913,-5.302051],[-47.864838,-5.352431],[-47.846444,-5.37991],[-47.731514,-5.40618],[-47.68686,-5.427391],[-47.668923,-5.425939],[-47.678627,-5.410183],[-47.727013,-5.373768],[-47.80413,-5.340439],[-47.830571,-5.30453],[-47.911778,-5.240611],[-47.964169,-5.227031],[-47.997883,-5.234541],[-48.055562,-5.262712],[-48.106266,-5.260731],[-48.166718,-5.24919],[-48.32304,-5.176959],[-48.372639,-5.165283],[-48.419747,-5.164424],[-48.466782,-5.1744],[-48.501694,-5.191517],[-48.536511,-5.221892],[-48.580586,-5.310197],[-48.656807,-5.302299],[-48.696473,-5.335132],[-48.748356,-5.352377],[-48.859921,-5.310907],[-48.920715,-5.264243],[-48.965469,-5.265725],[-49.034169,-5.310792],[-49.094723,-5.30512],[-49.163578,-5.330872],[-49.292443,-5.238598],[-49.374623,-5.022814],[-49.451435,-4.892698],[-49.589637,-4.42936],[-49.685962,-3.925973],[-49.6945,-3.814907],[-49.671601,-3.677287],[-49.618488,-3.561427],[-49.620896,-3.496266],[-49.635354,-3.4118],[-49.661877,-3.355076],[-49.670261,-3.271818],[-49.658089,-3.166872],[-49.673642,-3.067935],[-49.731094,-2.830206],[-49.710316,-2.712066],[-49.64988,-2.642289],[-49.565448,-2.608758],[-49.515904,-2.546218],[-49.479564,-2.466793],[-49.415154,-2.262215],[-49.357403,-2.127873],[-49.38261,-2.15867],[-49.393609,-2.161908],[-49.41249,-2.143239],[-49.412194,-2.12984],[-49.382691,-2.077672],[-49.372708,-2.005798],[-49.387101,-1.977255],[-49.364445,-1.928485],[-49.369645,-1.937828],[-49.437157,-1.931609],[-49.489571,-1.897934],[-49.537888,-1.929741],[-49.574593,-1.939807],[-49.589577,-1.954624],[-49.589837,-1.990234],[-49.552239,-2.014623],[-49.445999,-2.047518],[-49.41961,-2.039668],[-49.425926,-2.122295],[-49.439819,-2.146315],[-49.492897,-2.204518],[-49.551491,-2.232816],[-49.596108,-2.227922],[-49.619866,-2.185257],[-49.640969,-2.09438],[-49.651222,-2.08627],[-49.671914,-2.098751],[-49.67569,-2.146973],[-49.684998,-2.166437],[-49.713761,-2.185755],[-49.730927,-2.185634],[-49.755356,-2.239456],[-49.795432,-2.240325],[-49.793624,-2.146144],[-49.826508,-2.10225],[-49.861824,-2.077867],[-49.86613,-2.043746],[-49.881928,-2.009944],[-49.912659,-1.985588],[-50.00644,-1.972252],[-50.031411,-1.944487],[-50.229126,-2.048734],[-50.303375,-2.026337],[-50.317131,-2.029677],[-50.315574,-2.123957],[-50.341012,-2.158251],[-50.385689,-2.160216],[-50.39933,-2.148611],[-50.423035,-2.102457],[-50.475266,-2.046877],[-50.478485,-2.019259],[-50.558152,-1.958844],[-50.598847,-1.89299],[-50.629486,-1.859402],[-50.678672,-1.855566],[-50.717,-1.867377],[-50.725403,-1.841753],[-50.770264,-1.855972],[-50.811668,-1.879795],[-50.76976,-1.793874],[-50.778817,-1.781158],[-50.835015,-1.794495],[-50.856675,-1.782812],[-50.861083,-1.762084],[-50.857415,-1.734511],[-50.782959,-1.590205],[-50.786133,-1.559129],[-50.804345,-1.54747],[-50.845574,-1.549437],[-50.917939,-1.579885]],[[-49.274933,-5.437379],[-49.27842,-5.458026],[-49.294556,-5.478659],[-49.352082,-5.506098],[-49.425835,-5.590909],[-49.466079,-5.594268],[-49.477493,-5.55864],[-49.46914,-5.432362],[-49.473595,-5.376091],[-49.440026,-5.282023],[-49.419311,-5.26944],[-49.360809,-5.305178],[-49.343644,-5.337357],[-49.284042,-5.40062],[-49.274933,-5.437379]],[[-50.693595,-7.207687],[-50.742104,-7.236305],[-50.761704,-7.236268],[-50.781273,-7.225871],[-50.811135,-7.185557],[-50.780915,-7.098258],[-50.793496,-7.067177],[-50.771882,-7.027123],[-50.716057,-6.994949],[-50.695411,-7.028351],[-50.694321,-7.051342],[-50.678237,-7.072069],[-50.658669,-7.080167],[-50.632072,-7.048046],[-50.620583,-7.059567],[-50.609177,-7.110174],[-50.636993,-7.162981],[-50.647477,-7.204343],[-50.655564,-7.21007],[-50.693595,-7.207687]],[[-52.374306,-8.48869],[-52.376465,-8.462199],[-52.36351,-8.420839],[-52.372246,-8.332168],[-52.358269,-8.313824],[-52.34539,-8.239318],[-52.328042,-8.284067],[-52.314225,-8.294498],[-52.285317,-8.292344],[-52.238701,-8.222381],[-52.228301,-8.225886],[-52.194222,-8.334236],[-52.162156,-8.391944],[-52.172936,-8.460941],[-52.162598,-8.477111],[-52.142952,-8.4795],[-52.071122,-8.453366],[-52.027733,-8.447506],[-51.978439,-8.416961],[-51.90551,-8.397712],[-51.885781,-8.383982],[-51.877601,-8.36446],[-51.875199,-8.344906],[-51.940743,-8.269835],[-51.964699,-8.202983],[-51.970437,-8.196051],[-52.012032,-8.194713],[-52.017769,-8.187783],[-52.019738,-8.11873],[-52.083031,-8.070092],[-52.078301,-8.020239],[-52.064202,-7.975414],[-52.023697,-7.96066],[-51.961579,-8.013926],[-51.924843,-8.061295],[-51.904313,-8.118933],[-51.834114,-8.182569],[-51.812203,-8.195315],[-51.792549,-8.196563],[-51.734581,-8.171729],[-51.717438,-8.216677],[-51.715767,-8.367401],[-51.69854,-8.398527],[-51.713639,-8.415734],[-51.71045,-8.484772],[-51.734948,-8.537616],[-51.731574,-8.560635],[-51.701653,-8.597559],[-51.711067,-8.63894],[-51.730851,-8.666488],[-51.709136,-8.736744],[-51.720871,-8.778121],[-51.732499,-8.79188],[-51.761536,-8.817089],[-51.78006,-8.819332],[-51.902527,-8.765936],[-51.973114,-8.763357],[-52.045776,-8.710111],[-52.123993,-8.618847],[-52.166657,-8.589873],[-52.204506,-8.527535],[-52.227631,-8.52628],[-52.261429,-8.573291],[-52.276413,-8.564008],[-52.292428,-8.530551],[-52.307395,-8.518965],[-52.342086,-8.518789],[-52.359383,-8.508337],[-52.374306,-8.48869]],[[-52.336373,-8.160271],[-52.34539,-8.239318],[-52.369286,-8.221691],[-52.428894,-8.140783],[-52.624054,-7.94624],[-52.665482,-7.924115],[-52.712876,-7.929553],[-52.718705,-7.901271],[-52.742774,-7.873466],[-52.752999,-7.848062],[-52.752838,-7.82503],[-52.710938,-7.776966],[-52.710396,-7.737318],[-52.652016,-7.810227],[-52.614144,-7.845001],[-52.524422,-7.89965],[-52.411065,-8.058007],[-52.390397,-8.078844],[-52.366188,-8.089337],[-52.371003,-8.121533],[-52.336373,-8.160271]],[[-51.443985,-8.692713],[-51.480919,-8.664995],[-51.487815,-8.651172],[-51.484269,-8.629333],[-51.404487,-8.644503],[-51.372002,-8.613539],[-51.367324,-8.596305],[-51.399346,-8.480039],[-51.402688,-8.442063],[-51.373565,-8.374281],[-51.412712,-8.327008],[-51.387131,-8.28223],[-51.37539,-8.227039],[-51.355645,-8.198345],[-51.286316,-8.203149],[-51.293511,-8.283646],[-51.275146,-8.326256],[-51.248635,-8.353917],[-51.278916,-8.427451],[-51.230614,-8.52073],[-51.213295,-8.533425],[-51.182198,-8.582953],[-51.08062,-8.676314],[-51.050651,-8.735004],[-51.048417,-8.771814],[-51.062516,-8.874127],[-51.0476,-8.938542],[-51.072045,-9.008651],[-51.064003,-9.039707],[-51.074509,-9.083386],[-51.102295,-9.079905],[-51.136948,-9.02925],[-51.170495,-9.014237],[-51.193657,-9.014187],[-51.21666,-8.942851],[-51.230506,-8.924413],[-51.283683,-8.890951],[-51.356278,-8.770011],[-51.415214,-8.744546],[-51.435975,-8.719187],[-51.443985,-8.692713]],[[-50.689461,-8.626259],[-50.773872,-8.596282],[-50.813241,-8.615777],[-50.854958,-8.658269],[-50.879281,-8.672038],[-50.907052,-8.670843],[-50.923226,-8.660471],[-50.926674,-8.647819],[-50.912681,-8.591505],[-50.911438,-8.546663],[-50.922974,-8.5294],[-50.970337,-8.500573],[-50.986466,-8.4741],[-51.018807,-8.456788],[-51.029107,-8.408469],[-51.09031,-8.378449],[-51.105309,-8.363468],[-51.135201,-8.302445],[-51.103919,-8.274919],[-51.071549,-8.270389],[-51.034592,-8.284269],[-50.974572,-8.323492],[-50.889191,-8.40182],[-50.860314,-8.415666],[-50.84877,-8.427184],[-50.836136,-8.481239],[-50.796898,-8.527279],[-50.757599,-8.545723],[-50.681252,-8.541198],[-50.638482,-8.560785],[-50.548279,-8.572336],[-50.511277,-8.60224],[-50.513619,-8.620637],[-50.552956,-8.634408],[-50.631614,-8.618266],[-50.689461,-8.626259]],[[-50.382927,-8.732132],[-50.397965,-8.71834],[-50.414147,-8.678123],[-50.43496,-8.662031],[-50.432633,-8.642486],[-50.414124,-8.632155],[-50.397896,-8.575852],[-50.371293,-8.578148],[-50.358582,-8.602278],[-50.360909,-8.633306],[-50.345871,-8.639058],[-50.336609,-8.653995],[-50.342415,-8.708],[-50.368973,-8.728663],[-50.382927,-8.732132]],[[-50.570465,-8.81715],[-50.576233,-8.790704],[-50.569268,-8.760836],[-50.541466,-8.722908],[-50.52063,-8.721774],[-50.491723,-8.752808],[-50.458168,-8.765451],[-50.458184,-8.794191],[-50.480187,-8.820622],[-50.484826,-8.839004],[-50.473267,-8.864298],[-50.436211,-8.872337],[-50.362122,-8.866587],[-50.341285,-8.875778],[-50.334343,-8.895303],[-50.351708,-8.947016],[-50.349395,-8.987238],[-50.366761,-9.004474],[-50.387604,-8.994151],[-50.408455,-8.950475],[-50.494126,-8.932095],[-50.516121,-8.920593],[-50.529998,-8.901056],[-50.540398,-8.861982],[-50.570465,-8.81715]],[[-50.710694,-8.984902],[-50.68174,-8.971125],[-50.637741,-8.981483],[-50.600701,-9.010233],[-50.537003,-9.001056],[-50.518471,-9.005644],[-50.506905,-9.025185],[-50.499962,-9.075765],[-50.516189,-9.094148],[-50.538192,-9.083799],[-50.56482,-9.05047],[-50.635476,-9.056205],[-50.722389,-9.099845],[-50.826652,-9.112421],[-50.889266,-9.151455],[-50.910118,-9.157186],[-50.92981,-9.152564],[-50.955262,-9.130695],[-50.971405,-9.07779],[-50.974816,-9.03869],[-50.96312,-8.966261],[-50.980401,-8.920244],[-50.987267,-8.874248],[-50.969857,-8.847824],[-50.917733,-8.824895],[-50.878395,-8.842194],[-50.873818,-8.876695],[-50.91211,-8.927231],[-50.916763,-8.950226],[-50.908692,-8.96978],[-50.871682,-8.995114],[-50.825425,-9.052638],[-50.776764,-9.036587],[-50.710694,-8.984902]],[[-50.376992,-9.116362],[-50.359611,-9.097978],[-50.334137,-9.099116],[-50.277344,-9.120946],[-50.254174,-9.119783],[-50.178893,-9.077221],[-50.161507,-9.079504],[-50.145279,-9.096735],[-50.145264,-9.119705],[-50.108155,-9.146112],[-50.103507,-9.159885],[-50.118569,-9.174846],[-50.134781,-9.180606],[-50.191567,-9.172605],[-50.214729,-9.19216],[-50.243706,-9.197925],[-50.288909,-9.171506],[-50.341056,-9.164638],[-50.380471,-9.133609],[-50.376992,-9.116362]],[[-50.513733,-9.283049],[-50.520691,-9.252012],[-50.480125,-9.249713],[-50.45346,-9.179591],[-50.43145,-9.158907],[-50.405953,-9.178445],[-50.402474,-9.19223],[-50.415215,-9.224414],[-50.403626,-9.239361],[-50.368851,-9.254293],[-50.371163,-9.284178],[-50.401283,-9.311774],[-50.449981,-9.289944],[-50.513733,-9.283049]],[[-50.327133,-9.225543],[-50.291207,-9.219779],[-50.278458,-9.228973],[-50.264504,-9.295625],[-50.277245,-9.310567],[-50.327103,-9.311747],[-50.339859,-9.297958],[-50.342178,-9.278419],[-50.327133,-9.225543]],[[-51.078568,-9.424921],[-51.020568,-9.403132],[-50.975358,-9.413523],[-50.970734,-9.421575],[-50.96376,-9.407787],[-50.962517,-9.342244],[-50.940484,-9.334223],[-50.897636,-9.374498],[-50.873299,-9.376821],[-50.814187,-9.403294],[-50.745789,-9.386067],[-50.737671,-9.389525],[-50.743499,-9.444696],[-50.717995,-9.458498],[-50.653054,-9.449311],[-50.631028,-9.460809],[-50.634514,-9.49758],[-50.647271,-9.514828],[-50.713402,-9.561954],[-50.736634,-9.643572],[-50.76101,-9.667709],[-50.829468,-9.673452],[-50.887467,-9.643536],[-50.887436,-9.614785],[-50.838676,-9.567684],[-50.834008,-9.528594],[-50.852547,-9.497538],[-50.885003,-9.489477],[-50.952324,-9.536571],[-50.966233,-9.533106],[-50.975487,-9.517002],[-50.976616,-9.48826],[-50.987029,-9.470998],[-51.010201,-9.456035],[-51.130852,-9.484651],[-51.150559,-9.483471],[-51.169067,-9.460444],[-51.168983,-9.414439],[-51.153847,-9.378815],[-51.119088,-9.38462],[-51.102898,-9.409937],[-51.078568,-9.424921]],[[-51.027924,-9.710129],[-51.049958,-9.694012],[-51.054551,-9.653765],[-51.099693,-9.591625],[-51.086907,-9.567486],[-51.068352,-9.56751],[-51.034729,-9.585948],[-51.003479,-9.644612],[-50.97216,-9.648086],[-50.942009,-9.664205],[-50.928101,-9.682609],[-50.94207,-9.725142],[-50.961792,-9.726276],[-50.993111,-9.706705],[-51.027924,-9.710129]],[[-51.115112,-9.821594],[-51.155732,-9.818105],[-51.187035,-9.789319],[-51.156823,-9.773255],[-51.087204,-9.780228],[-51.055831,-9.763008],[-51.022178,-9.760728],[-51.003632,-9.776841],[-51.03276,-9.883761],[-51.030472,-9.913647],[-51.016564,-9.938955],[-50.981743,-9.960815],[-50.945748,-9.970036],[-50.914375,-9.945904],[-50.913208,-9.928649],[-50.957253,-9.832053],[-50.951432,-9.815965],[-50.925889,-9.802178],[-50.910805,-9.810234],[-50.878327,-9.865424],[-50.842362,-9.893024],[-50.837731,-9.936709],[-50.758773,-9.958548],[-50.754128,-9.965443],[-50.750649,-9.981534],[-50.769234,-10.004534],[-50.829612,-9.991895],[-50.858658,-9.994199],[-50.874924,-10.007988],[-50.872605,-10.020631],[-50.834282,-10.068924],[-50.83429,-10.089609],[-50.849403,-10.119506],[-50.861031,-10.124096],[-50.876121,-10.118354],[-50.928391,-10.088459],[-51.003913,-10.102231],[-51.082917,-10.096444],[-51.127121,-10.142404],[-51.144211,-10.150202],[-51.17125,-10.126272],[-51.174705,-10.100976],[-51.170037,-10.088323],[-51.140984,-10.07686],[-51.120034,-10.052726],[-51.136292,-10.036616],[-51.165322,-10.034284],[-51.233895,-10.056065],[-51.254822,-10.072142],[-51.283867,-10.076704],[-51.291985,-10.068642],[-51.300095,-10.052531],[-51.294273,-10.039891],[-51.273339,-10.027263],[-51.209443,-10.018142],[-51.155961,-9.980244],[-51.103721,-10.003284],[-51.083977,-10.001004],[-51.068862,-9.983761],[-51.068848,-9.968817],[-51.089714,-9.941207],[-51.094345,-9.921659],[-51.081505,-9.871066],[-51.084961,-9.841173],[-51.115112,-9.821594]],[[-50.578804,-9.860764],[-50.521912,-9.873372],[-50.504479,-9.90898],[-50.511406,-9.972202],[-50.545075,-9.988312],[-50.562493,-9.986034],[-50.593865,-9.96307],[-50.590409,-9.904454],[-50.598534,-9.88951],[-50.597374,-9.869973],[-50.578804,-9.860764]],[[-48.655907,-7.42458],[-48.644103,-7.541493],[-48.665847,-7.612643],[-48.743203,-7.599086],[-48.797417,-7.609547],[-48.79889,-7.44555],[-48.755227,-7.357164],[-48.750649,-7.337652],[-48.757584,-7.325055],[-48.709197,-7.299727],[-48.682595,-7.338651],[-48.655907,-7.42458]]]]}}
