{"type":"Feature","properties":{"OBJECTID":386.0,"ECO_NAME":"Lara-Falcón dry forests","BIOME_NUM":2.0,"BIOME_NAME":"Tropical & Subtropical Dry Broadleaf Forests","REALM":"Neotropic","ECO_BIOME_":"NO02","NNH":2,"ECO_ID":536,"SHAPE_LENG":6.19747178703,"SHAPE_AREA":1.3951065354,"NNH_NAME":"Nature Could Reach Half Protected","COLOR":"#6EB81B","COLOR_BIO":"#CCCD65","COLOR_NNH":"#7BC141","LICENSE":"CC-BY 4.0","name":"Lara-Falcón dry forests"},"geometry":{"type":"Polygon","coordinates":[[[-69.228455,11.510826],[-69.27034,11.534374],[-69.372483,11.482785],[-69.46238,11.499496],[-69.528161,11.500835],[-69.550255,11.485375],[-69.561532,11.424106],[-69.574143,11.398452],[-69.605523,11.360653],[-69.665589,11.31811],[-69.769143,11.297832],[-69.810265,11.299263],[-69.931298,11.267989],[-70.038475,11.268457],[-70.084618,11.258846],[-70.147034,11.227242],[-70.1596,11.19789],[-70.116227,11.136475],[-70.016701,11.106666],[-69.961914,11.10275],[-69.889861,11.061994],[-69.812699,11.051818],[-69.784256,11.011249],[-69.788384,10.931644],[-69.80848,10.893772],[-69.895897,10.82805],[-69.912201,10.799953],[-69.913589,10.76811],[-69.878952,10.726298],[-69.735839,10.739045],[-69.676362,10.69585],[-69.681412,10.681177],[-69.65181,10.636913],[-69.61345,10.602396],[-69.626496,10.490997],[-69.606987,10.424736],[-69.474152,10.403113],[-69.46798,10.395725],[-69.484665,10.30763],[-69.461365,10.258485],[-69.451806,10.198401],[-69.453309,10.155537],[-69.472413,10.077262],[-69.456345,10.066136],[-69.410172,10.105037],[-69.328217,10.109393],[-69.240181,10.094085],[-69.194123,10.112131],[-69.127564,10.216999],[-69.049194,10.400172],[-69.017891,10.431785],[-68.829536,10.516037],[-68.725716,10.591118],[-68.555717,10.688844],[-68.520752,10.703224],[-68.452218,10.716058],[-68.372147,10.74809],[-68.402153,10.790608],[-68.408478,10.815713],[-68.406464,10.925648],[-68.387162,10.960298],[-68.356278,10.978077],[-68.332619,10.972657],[-68.3032,10.97784],[-68.348427,11.07164],[-68.391579,11.138486],[-68.378968,11.161014],[-68.401299,11.184766],[-68.413559,11.167991],[-68.455002,11.18013],[-68.529632,11.259039],[-68.606766,11.284764],[-68.658027,11.344295],[-68.687523,11.351333],[-68.689376,11.33911],[-68.700783,11.338436],[-68.757035,11.36658],[-68.790679,11.393996],[-68.828217,11.440652],[-68.834557,11.438681],[-68.830024,11.404649],[-68.839539,11.389308],[-68.882103,11.391004],[-68.896599,11.407233],[-68.895646,11.442198],[-68.905922,11.444897],[-68.920502,11.443454],[-68.915329,11.432599],[-68.923035,11.392671],[-68.910912,11.363664],[-68.917672,11.349881],[-68.928071,11.348432],[-68.999558,11.387369],[-68.995491,11.435939],[-69.054993,11.44011],[-69.103631,11.490877],[-69.121224,11.485001],[-69.170273,11.504312],[-69.20691,11.474617],[-69.22255,11.449735],[-69.23127,11.451456],[-69.235558,11.496359],[-69.228455,11.510826]]]}}
