{"type":"Feature","properties":{"OBJECTID":636.0,"ECO_NAME":"Sinú Valley dry forests","BIOME_NUM":2.0,"BIOME_NAME":"Tropical & Subtropical Dry Broadleaf Forests","REALM":"Neotropic","ECO_BIOME_":"NO02","NNH":3,"ECO_ID":546,"SHAPE_LENG":20.8970839124,"SHAPE_AREA":2.05220655491,"NNH_NAME":"Nature Could Recover","COLOR":"#83DB27","COLOR_BIO":"#CCCD65","COLOR_NNH":"#F9A91B","LICENSE":"CC-BY 4.0","name":"Sinú Valley dry forests"},"geometry":{"type":"MultiPolygon","coordinates":[[[[-73.162095,11.093812],[-73.209122,11.111506],[-73.20121,11.102338],[-73.232826,11.085439],[-73.24012,11.056855],[-73.228302,11.052571],[-73.2127,11.073803],[-73.201325,11.060887],[-73.170624,11.05914],[-73.212975,10.987104],[-73.170617,10.997655],[-73.165703,10.969616],[-73.135621,10.975472],[-73.117913,10.967313],[-73.107178,10.929878],[-73.183342,10.921813],[-73.213166,10.907312],[-73.20839,10.897583],[-73.169281,10.900228],[-73.15609,10.893853],[-73.165299,10.882219],[-73.209366,10.87307],[-73.200829,10.856388],[-73.206482,10.849892],[-73.222062,10.860784],[-73.230828,10.857086],[-73.227547,10.838394],[-73.233857,10.83536],[-73.283661,10.843538],[-73.277977,10.82102],[-73.284371,10.77826],[-73.301415,10.7826],[-73.320031,10.803195],[-73.309838,10.778207],[-73.344445,10.771347],[-73.307892,10.764021],[-73.316834,10.743742],[-73.348458,10.754465],[-73.362893,10.742192],[-73.385201,10.743134],[-73.391999,10.726976],[-73.365219,10.687293],[-73.314019,10.681186],[-73.282776,10.668046],[-73.280098,10.657998],[-73.289666,10.643944],[-73.339196,10.642437],[-73.350052,10.637378],[-73.361802,10.614365],[-73.391068,10.616767],[-73.412079,10.607328],[-73.415574,10.64053],[-73.430595,10.671095],[-73.442368,10.678824],[-73.455773,10.664464],[-73.440064,10.63251],[-73.440644,10.61006],[-73.451531,10.602236],[-73.479363,10.607722],[-73.464135,10.597192],[-73.494667,10.576797],[-73.454956,10.573947],[-73.422448,10.582916],[-73.421601,10.563561],[-73.411553,10.557922],[-73.389771,10.574261],[-73.389191,10.529692],[-73.397278,10.522528],[-73.43074,10.522553],[-73.436913,10.498784],[-73.455895,10.516611],[-73.480324,10.513768],[-73.484207,10.508975],[-73.470803,10.49052],[-73.479256,10.481975],[-73.450463,10.468878],[-73.449852,10.460236],[-73.483292,10.461982],[-73.493905,10.445861],[-73.498925,10.466296],[-73.508645,10.470202],[-73.514465,10.446082],[-73.543129,10.436716],[-73.550225,10.424355],[-73.551217,10.394309],[-73.580414,10.400838],[-73.562873,10.378198],[-73.586968,10.372234],[-73.588448,10.363958],[-73.526856,10.357087],[-73.528191,10.327737],[-73.520234,10.32247],[-73.541298,10.305423],[-73.551392,10.306566],[-73.564789,10.325362],[-73.576539,10.299577],[-73.589302,10.311802],[-73.603013,10.299508],[-73.593346,10.336113],[-73.597535,10.353119],[-73.633782,10.358558],[-73.619347,10.338716],[-73.641509,10.3158],[-73.652245,10.2862],[-73.667862,10.328853],[-73.676644,10.320999],[-73.677208,10.298548],[-73.70176,10.316763],[-73.719582,10.31107],[-73.714134,10.334508],[-73.738839,10.337174],[-73.746186,10.334485],[-73.754487,10.303476],[-73.745514,10.294058],[-73.760621,10.280044],[-73.775948,10.279851],[-73.767449,10.257312],[-73.783211,10.247104],[-73.803894,10.270799],[-73.791512,10.291752],[-73.794555,10.3018],[-73.833077,10.27834],[-73.846253,10.285032],[-73.790421,10.334579],[-73.770173,10.33956],[-73.803817,10.355439],[-73.809296,10.365856],[-73.803284,10.375471],[-73.784836,10.373908],[-73.760308,10.389209],[-73.739724,10.391767],[-73.737481,10.408327],[-73.699563,10.401726],[-73.723458,10.417168],[-73.712914,10.427079],[-73.719826,10.433023],[-73.709252,10.446389],[-73.710274,10.485091],[-73.722451,10.487633],[-73.739417,10.461549],[-73.758851,10.47107],[-73.766633,10.495676],[-73.789536,10.506613],[-73.776391,10.458464],[-73.800858,10.450414],[-73.797852,10.43622],[-73.836083,10.446959],[-73.81939,10.482032],[-73.83667,10.498093],[-73.858062,10.4831],[-73.874436,10.483949],[-73.86657,10.466946],[-73.89119,10.441272],[-73.919274,10.457432],[-73.922356,10.423604],[-73.932915,10.411613],[-73.939086,10.423417],[-73.958641,10.418763],[-73.979027,10.438645],[-73.970253,10.445819],[-73.960564,10.437438],[-73.954537,10.450164],[-73.933892,10.459986],[-73.934159,10.468972],[-73.951477,10.480879],[-73.928467,10.482391],[-73.917038,10.513375],[-73.910057,10.515037],[-73.907357,10.504993],[-73.880082,10.51475],[-73.867691,10.497703],[-73.858498,10.512124],[-73.817772,10.506199],[-73.841323,10.522666],[-73.808472,10.532019],[-73.791466,10.562598],[-73.805039,10.564806],[-73.865593,10.537413],[-73.929688,10.541823],[-73.950875,10.510241],[-73.962693,10.55457],[-73.956299,10.568675],[-73.942513,10.550582],[-73.93335,10.561895],[-73.918442,10.552428],[-73.900986,10.555715],[-73.861954,10.593343],[-73.866089,10.598909],[-73.90561,10.584088],[-73.915268,10.596271],[-73.947014,10.594153],[-73.963669,10.602945],[-74.011566,10.587498],[-74.025483,10.590389],[-74.02678,10.602147],[-73.965805,10.638548],[-73.944901,10.636625],[-73.926339,10.645432],[-73.914536,10.640138],[-73.905343,10.653869],[-73.917481,10.661585],[-73.882119,10.677484],[-73.878899,10.687126],[-73.893509,10.690721],[-73.947082,10.666356],[-74.008561,10.653799],[-74.018631,10.659073],[-74.031594,10.651247],[-74.04094,10.659968],[-73.991188,10.687148],[-73.994614,10.694781],[-74.012054,10.694251],[-74.011643,10.701501],[-73.970978,10.726],[-73.962143,10.73939],[-73.980248,10.743013],[-74.002304,10.733198],[-74.016747,10.716403],[-74.023339,10.720955],[-74.022301,10.733428],[-74.035324,10.746973],[-74.030335,10.75971],[-74.046829,10.789226],[-74.025307,10.812383],[-74.025658,10.825502],[-74.032853,10.833317],[-74.067185,10.816701],[-74.076241,10.860309],[-74.096817,10.904712],[-74.060921,10.940318],[-74.053414,10.920213],[-74.040322,10.941513],[-74.030007,10.922764],[-74.012856,10.969244],[-74.028168,10.975257],[-74.044281,10.968496],[-74.049752,10.981673],[-74.057778,10.98209],[-74.075409,10.961176],[-74.075135,10.993647],[-74.082779,10.998205],[-74.089821,10.988202],[-74.078522,10.96047],[-74.101037,10.93074],[-74.183205,10.868563],[-74.208405,10.869498],[-74.216889,10.877679],[-74.209984,10.90726],[-74.213059,10.97334],[-74.240822,11.036102],[-74.273644,11.003876],[-74.273301,10.977139],[-74.309273,10.891235],[-74.310219,10.877399],[-74.303048,10.874721],[-74.268464,10.883451],[-74.257554,10.875517],[-74.262871,10.853661],[-74.343605,10.704733],[-74.424286,10.660139],[-74.532235,10.641983],[-74.557251,10.649289],[-74.595498,10.687911],[-74.645576,10.790315],[-74.637871,10.856357],[-74.645813,10.905806],[-74.639405,10.92288],[-74.647652,10.937197],[-74.691346,10.967249],[-74.755639,10.987567],[-74.810006,11.040616],[-74.786255,10.952828],[-74.74701,10.882509],[-74.716004,10.797925],[-74.698159,10.709648],[-74.712899,10.639872],[-74.758309,10.532001],[-74.779511,10.503444],[-74.796166,10.494991],[-74.920914,10.517071],[-74.970887,10.494044],[-75.013253,10.43927],[-75.044945,10.300932],[-75.106369,10.244748],[-75.198945,10.196403],[-75.250527,10.125661],[-75.232163,10.128596],[-75.083245,10.083798],[-74.981002,10.075234],[-74.878807,10.075772],[-74.804558,10.094433],[-74.748718,10.076396],[-74.71431,10.042826],[-74.667344,10.039412],[-74.635498,10.014487],[-74.595124,9.94291],[-74.581734,9.894051],[-74.580025,9.835509],[-74.609024,9.764443],[-74.61496,9.72211],[-74.606911,9.691863],[-74.586869,9.659589],[-74.503762,9.593806],[-74.453118,9.492017],[-74.425652,9.363863],[-74.379303,9.327547],[-74.335801,9.307548],[-74.257523,9.236854],[-74.192643,9.219691],[-74.123627,9.226039],[-73.965363,9.288374],[-73.901017,9.292217],[-73.730041,9.32895],[-73.671196,9.363096],[-73.608894,9.355107],[-73.581771,9.320537],[-73.579872,9.243207],[-73.595543,9.200663],[-73.693901,9.027379],[-73.711586,8.970741],[-73.710434,8.923895],[-73.678879,8.788451],[-73.662743,8.774994],[-73.654122,8.720814],[-73.637261,8.684361],[-73.575333,8.61935],[-73.563057,8.671657],[-73.570618,8.709329],[-73.55291,8.728283],[-73.571946,8.745603],[-73.566353,8.772531],[-73.580864,8.806421],[-73.596505,8.785732],[-73.60933,8.790945],[-73.592995,8.811632],[-73.603394,8.816494],[-73.608223,8.830667],[-73.615174,8.821012],[-73.622796,8.829322],[-73.638413,8.818994],[-73.638054,8.82832],[-73.658837,8.843912],[-73.648774,8.850108],[-73.625542,8.84729],[-73.618943,8.854183],[-73.626893,8.869746],[-73.614396,8.879043],[-73.579392,8.860305],[-73.586983,8.882777],[-73.5821,8.898308],[-73.598359,8.92702],[-73.561905,8.942474],[-73.564667,8.952153],[-73.597985,8.946364],[-73.622506,9.013436],[-73.617295,9.021368],[-73.605499,9.019613],[-73.609641,9.032404],[-73.592606,9.049634],[-73.625573,9.050059],[-73.620011,9.057991],[-73.628678,9.062502],[-73.609574,9.07282],[-73.59877,9.102846],[-73.628983,9.091173],[-73.633828,9.098785],[-73.603264,9.113911],[-73.60009,9.142918],[-73.576477,9.151841],[-73.569558,9.134552],[-73.55291,9.131056],[-73.544982,9.099601],[-73.553681,9.085807],[-73.537728,9.080583],[-73.541565,9.067812],[-73.519379,9.053936],[-73.510666,9.072911],[-73.488106,9.078032],[-73.499511,9.098442],[-73.507035,9.161675],[-73.493454,9.182019],[-73.499336,9.194124],[-73.493409,9.20447],[-73.507958,9.222473],[-73.496476,9.233839],[-73.486321,9.27837],[-73.450936,9.26238],[-73.452301,9.275855],[-73.46997,9.295596],[-73.462326,9.297301],[-73.451584,9.285526],[-73.432824,9.28927],[-73.451165,9.320756],[-73.439338,9.329704],[-73.436852,9.355602],[-73.429207,9.358687],[-73.427132,9.352464],[-73.426156,9.322411],[-73.398972,9.365159],[-73.393685,9.401757],[-73.387481,9.379631],[-73.375313,9.385121],[-73.368576,9.443819],[-73.327851,9.474428],[-73.336838,9.494837],[-73.322228,9.501697],[-73.326012,9.516563],[-73.303765,9.519251],[-73.320015,9.552465],[-73.297409,9.55826],[-73.292496,9.577931],[-73.268113,9.598227],[-73.265389,9.577493],[-73.257386,9.583337],[-73.234688,9.622286],[-73.266633,9.631379],[-73.199028,9.693307],[-73.192032,9.708133],[-73.195496,9.713325],[-73.227837,9.709301],[-73.186707,9.745415],[-73.192223,9.760978],[-73.221131,9.745887],[-73.236382,9.761486],[-73.215073,9.796984],[-73.202736,9.853927],[-73.179017,9.875596],[-73.180031,9.884926],[-73.194977,9.888091],[-73.184143,9.904974],[-73.202965,9.893647],[-73.212342,9.899208],[-73.183365,9.933292],[-73.1791,9.962289],[-73.19265,9.970283],[-73.225403,9.953829],[-73.218026,9.976251],[-73.196373,10.00311],[-73.210526,10.000784],[-73.307488,9.901222],[-73.362297,9.866689],[-73.431527,9.848589],[-73.474572,9.849516],[-73.524903,9.869273],[-73.581367,9.912587],[-73.60682,9.964353],[-73.614235,10.000891],[-73.601471,10.058812],[-73.56147,10.159415],[-73.566612,10.211324],[-73.575097,10.226613],[-73.57164,10.246706],[-73.45353,10.311232],[-73.407021,10.343404],[-73.367745,10.383794],[-73.331177,10.477313],[-73.335343,10.570593],[-73.329437,10.584801],[-73.303177,10.60386],[-73.274444,10.612298],[-73.227662,10.609027],[-73.191842,10.637579],[-73.178727,10.650648],[-73.184853,10.673058],[-73.174431,10.739273],[-73.132675,10.783219],[-73.1195,10.786835],[-73.106408,10.806992],[-73.091217,10.882693],[-73.097611,10.953557],[-73.162095,11.093812]]],[[[-73.309822,11.265428],[-73.342339,11.270292],[-73.431664,11.260187],[-73.485627,11.265262],[-73.52224,11.256839],[-73.585228,11.267952],[-73.655838,11.257494],[-73.690453,11.266053],[-73.73655,11.263546],[-73.73996,11.238682],[-73.760086,11.23116],[-73.839013,11.242466],[-73.884133,11.233855],[-73.961029,11.233165],[-73.971482,11.22831],[-73.940499,11.220063],[-73.940941,11.209703],[-73.947953,11.206661],[-73.951012,11.216362],[-73.994927,11.187752],[-73.980744,11.171729],[-73.965996,11.181266],[-73.959793,11.170844],[-73.990349,11.151438],[-74.008858,11.1523],[-74.013733,11.112271],[-74.027847,11.095473],[-74.005524,11.092506],[-74.00705,11.077319],[-73.987801,11.081978],[-73.984749,11.071587],[-73.95407,11.106536],[-73.954185,11.093064],[-73.934113,11.072148],[-73.942299,11.054953],[-73.964737,11.044109],[-73.939232,11.045942],[-73.921569,11.069265],[-73.903962,11.046643],[-73.872787,11.057745],[-73.893601,11.073145],[-73.895211,11.088361],[-73.884346,11.092747],[-73.869446,11.079822],[-73.852982,11.08588],[-73.838868,11.13998],[-73.818879,11.148766],[-73.817948,11.135975],[-73.809594,11.132784],[-73.81704,11.12111],[-73.810494,11.111029],[-73.826355,11.095293],[-73.824105,11.073854],[-73.810097,11.078207],[-73.80806,11.071622],[-73.828331,11.031405],[-73.818261,11.026122],[-73.813308,10.994294],[-73.796463,11.004145],[-73.78965,11.023769],[-73.776711,11.026403],[-73.777909,11.047488],[-73.756569,11.051766],[-73.740601,11.079242],[-73.715447,11.080368],[-73.710999,11.107615],[-73.69677,11.098141],[-73.690987,11.082537],[-73.679375,11.091054],[-73.671418,11.083717],[-73.675599,11.04818],[-73.687569,11.038285],[-73.673317,11.031228],[-73.679207,10.999853],[-73.662354,11.009698],[-73.649529,11.036511],[-73.612229,11.030938],[-73.643189,11.078243],[-73.625992,11.087046],[-73.577942,11.073067],[-73.566658,11.083654],[-73.576615,11.100689],[-73.633399,11.114758],[-73.627961,11.135429],[-73.524064,11.151598],[-73.514839,11.131807],[-73.501983,11.125104],[-73.511612,11.105864],[-73.493866,11.099798],[-73.501313,11.088825],[-73.493409,11.075957],[-73.505791,11.060201],[-73.493645,11.019306],[-73.47892,11.025364],[-73.473594,11.067104],[-73.465462,11.077033],[-73.452431,11.020928],[-73.444123,11.047435],[-73.419915,11.058911],[-73.436866,11.073609],[-73.432915,11.083927],[-73.401337,11.098429],[-73.41375,11.146583],[-73.40458,11.155463],[-73.378593,11.135481],[-73.377357,11.153084],[-73.36242,11.146006],[-73.356682,11.159413],[-73.347245,11.160341],[-73.363022,11.121833],[-73.352517,11.092351],[-73.347519,11.102312],[-73.32975,11.099],[-73.317345,11.115438],[-73.294373,11.108611],[-73.283761,11.120924],[-73.277855,11.149872],[-73.254479,11.161184],[-73.26635,11.237346],[-73.309822,11.265428]]]]}}
