{"type":"Feature","properties":{"OBJECTID":373.0,"ECO_NAME":"Khangai Mountains conifer forests","BIOME_NUM":5.0,"BIOME_NAME":"Temperate Conifer Forests","REALM":"Palearctic","ECO_BIOME_":"PA05","NNH":3,"ECO_ID":700,"SHAPE_LENG":4.6822480809,"SHAPE_AREA":0.352506374514,"NNH_NAME":"Nature Could Recover","COLOR":"#C1CF78","COLOR_BIO":"#458970","COLOR_NNH":"#F9A91B","LICENSE":"CC-BY 4.0","name":"Khangai Mountains conifer forests"},"geometry":{"type":"Polygon","coordinates":[[[99.945664,48.349692],[99.976906,48.382526],[99.998108,48.456902],[99.98024,48.513207],[99.92595,48.544381],[99.84945,48.524213],[99.784974,48.489468],[99.521332,48.458798],[99.429917,48.457993],[99.159897,48.496643],[98.859238,48.500591],[98.807129,48.520138],[98.743294,48.524388],[98.368721,48.533257],[98.310669,48.527935],[98.182122,48.495159],[98.079918,48.488186],[97.94883,48.529069],[97.880455,48.522142],[97.869736,48.483811],[97.962769,48.401832],[97.989472,48.365604],[97.947411,48.28573],[97.949471,48.254545],[98.024041,48.241587],[98.074906,48.242792],[98.120469,48.258131],[98.168206,48.261839],[98.244538,48.247572],[98.396431,48.244345],[98.445351,48.259459],[98.485367,48.28665],[98.998963,48.346606],[99.120789,48.379829],[99.258469,48.402812],[99.339577,48.402003],[99.506379,48.379413],[99.890801,48.367591],[99.945664,48.349692]]]}}
