{"type":"Feature","properties":{"OBJECTID":483.0,"ECO_NAME":"Nile Delta flooded savanna","BIOME_NUM":9.0,"BIOME_NAME":"Flooded Grasslands & Savannas","REALM":"Palearctic","ECO_BIOME_":"PA09","NNH":4,"ECO_ID":744,"SHAPE_LENG":30.9934723364,"SHAPE_AREA":4.68715792502,"NNH_NAME":"Nature Imperiled","COLOR":"#97DBE8","COLOR_BIO":"#BEE7FF","COLOR_NNH":"#EE1E23","LICENSE":"CC-BY 4.0","name":"Nile Delta flooded savanna"},"geometry":{"type":"MultiPolygon","coordinates":[[[[32.080071,31.130933],[32.078,31.129054],[32.087269,31.122623],[32.080071,31.130933]]],[[[32.06334,31.137424],[32.062211,31.131204],[32.071399,31.127295],[32.06334,31.137424]]],[[[32.24738,31.123374],[32.232208,31.142953],[32.226159,31.143253],[32.238961,31.127523],[32.24738,31.123374]]],[[[32.21228,31.174353],[32.20662,31.176283],[32.201962,31.171822],[32.207921,31.168743],[32.21228,31.174353]]],[[[32.221119,31.177551],[32.215149,31.175263],[32.234771,31.167252],[32.221119,31.177551]]],[[[32.08545,31.175812],[32.077381,31.176062],[32.083599,31.167483],[32.08702,31.167473],[32.08545,31.175812]]],[[[32.073571,31.193721],[32.066159,31.205232],[32.058682,31.202682],[32.06828,31.193591],[32.073571,31.193721]]],[[[32.282681,31.19583],[32.275162,31.202352],[32.241908,31.199552],[32.227131,31.212999],[32.206439,31.208381],[32.242241,31.187322],[32.249378,31.172892],[32.241971,31.196622],[32.25993,31.194682],[32.271622,31.178202],[32.26714,31.194381],[32.278222,31.18912],[32.282681,31.19583]]],[[[32.2015,31.201621],[32.170331,31.208482],[32.149571,31.22477],[32.150189,31.21706],[32.1726,31.202621],[32.2015,31.201621]]],[[[32.122428,31.21217],[32.113289,31.21722],[32.113892,31.228731],[32.111302,31.21339],[32.122428,31.21217]]],[[[32.04361,31.241719],[32.034661,31.238041],[32.038289,31.234671],[32.04361,31.241719]]],[[[32.16407,31.23873],[32.13921,31.23882],[32.14737,31.228001],[32.15599,31.23395],[32.18293,31.21517],[32.18013,31.232349],[32.167161,31.231081],[32.16407,31.23873]]],[[[32.101361,31.23349],[32.09964,31.24583],[32.08147,31.246779],[32.083568,31.231001],[32.101361,31.23349]]],[[[32.331131,31.21253],[32.34502,31.23885],[32.325489,31.253718],[32.313241,31.243829],[32.314019,31.22316],[32.331131,31.21253]]],[[[31.93076,31.25665],[31.917891,31.256179],[31.925949,31.24932],[31.93076,31.25665]]],[[[32.028949,31.259549],[32.024369,31.260739],[32.024762,31.256429],[32.028949,31.259549]]],[[[32.109551,31.260758],[32.103119,31.256719],[32.112801,31.253259],[32.109551,31.260758]]],[[[32.268849,31.252889],[32.26075,31.26072],[32.2505,31.258199],[32.257161,31.241719],[32.268849,31.252889]]],[[[32.163891,31.263679],[32.155652,31.263989],[32.174831,31.249639],[32.163891,31.263679]]],[[[32.085709,31.26562],[32.085171,31.25847],[32.095799,31.257199],[32.09359,31.263639],[32.085709,31.26562]]],[[[32.02781,31.263419],[32.031689,31.268489],[32.02222,31.265019],[32.02781,31.263419]]],[[[31.959481,31.25221],[31.9392,31.261498],[31.925541,31.279619],[31.94207,31.25356],[31.959481,31.25221]]],[[[32.152932,31.271978],[32.14825,31.281069],[32.147271,31.269218],[32.152932,31.271978]]],[[[32.138722,31.267389],[32.13086,31.280678],[32.12593,31.279089],[32.12516,31.272989],[32.138722,31.267389]]],[[[32.060551,31.280628],[32.056159,31.283989],[32.05111,31.284088],[32.051751,31.279768],[32.060551,31.280628]]],[[[32.123471,31.284449],[32.099381,31.284069],[32.099071,31.281759],[32.110699,31.276937],[32.123471,31.284449]]],[[[32.07996,31.285728],[32.07082,31.279549],[32.082649,31.268359],[32.07996,31.285728]]],[[[31.985121,31.288279],[31.98051,31.258369],[31.98693,31.273878],[31.99386,31.274048],[31.99405,31.284828],[31.985121,31.288279]]],[[[31.81906,31.296428],[31.810899,31.294619],[31.81704,31.284189],[31.81906,31.296428]]],[[[32.09261,31.291069],[32.089378,31.308648],[32.082642,31.310777],[32.080291,31.300637],[32.086541,31.288858],[32.09261,31.291069]]],[[[31.83849,31.307807],[31.829121,31.313998],[31.82906,31.299077],[31.83849,31.307807]]],[[[31.986451,31.296798],[31.972429,31.317098],[31.940901,31.328316],[31.929501,31.299309],[31.906111,31.296207],[31.90985,31.280249],[31.90359,31.2653],[31.913601,31.26406],[31.91733,31.288229],[31.986451,31.296798]]],[[[32.027481,31.323918],[32.006421,31.331218],[32.023442,31.316947],[32.029309,31.275578],[32.039939,31.268728],[32.033371,31.296669],[32.042161,31.299277],[32.027481,31.323918]]],[[[31.970351,31.334936],[31.95865,31.335806],[31.95247,31.331716],[31.966021,31.326787],[31.970351,31.334936]]],[[[31.938941,31.329586],[31.94139,31.336706],[31.919411,31.341766],[31.920901,31.337036],[31.938941,31.329586]]],[[[31.906509,31.340246],[31.893931,31.343826],[31.900691,31.335796],[31.906509,31.340246]]],[[[32.104931,31.321637],[32.052441,31.348017],[32.104591,31.313907],[32.104931,31.321637]]],[[[32.037349,31.357407],[32.021882,31.365056],[32.013679,31.362574],[32.030731,31.355646],[32.037349,31.357407]]],[[[32.002368,31.369675],[31.96247,31.389926],[31.97868,31.367976],[31.995269,31.364095],[32.002368,31.369675]]],[[[31.894381,31.405035],[31.887961,31.413914],[31.886629,31.413554],[31.886361,31.398275],[31.894381,31.405035]]],[[[31.89464,31.420483],[31.90044,31.389253],[31.918439,31.383444],[31.927811,31.389755],[31.95428,31.376756],[31.89464,31.420483]]],[[[31.97155,31.375525],[31.939301,31.406624],[31.92116,31.437594],[31.90484,31.446133],[31.91989,31.411655],[31.95826,31.377995],[31.97155,31.375525]]],[[[30.830571,31.439404],[30.85649,31.452152],[30.85949,31.463031],[30.8238,31.447433],[30.830571,31.439404]]],[[[30.80312,31.461672],[30.80435,31.470203],[30.799571,31.475312],[30.79317,31.462953],[30.80312,31.461672]]],[[[31.89441,31.485211],[31.89187,31.477151],[31.89768,31.470892],[31.89441,31.485211]]],[[[30.85911,31.496272],[30.862221,31.50485],[30.860219,31.50777],[30.85116,31.500832],[30.85911,31.496272]]],[[[31.880739,31.51287],[31.87893,31.511221],[31.88794,31.502381],[31.880739,31.51287]]],[[[31.910601,31.51872],[31.90448,31.518251],[31.911539,31.495591],[31.890569,31.515611],[31.91063,31.482602],[31.948759,31.453142],[31.94921,31.457092],[31.910601,31.51872]]],[[[30.93048,31.52284],[30.923519,31.52285],[30.92047,31.51909],[30.92438,31.51531],[30.93048,31.52284]]],[[[31.88709,31.528211],[31.879959,31.52724],[31.883631,31.51987],[31.88709,31.528211]]],[[[31.90228,31.526889],[31.89683,31.52939],[31.894101,31.519151],[31.90228,31.526889]]],[[[30.981701,31.53912],[30.966851,31.52972],[30.984899,31.52684],[30.981701,31.53912]]],[[[32.282681,31.19583],[32.282348,31.166973],[32.273029,31.157822],[32.25798,31.161843],[32.279259,31.136403],[32.276291,31.120055],[32.243012,31.101424],[32.213791,31.098244],[32.206452,31.103125],[32.22108,31.121575],[32.204979,31.134053],[32.215661,31.142093],[32.20718,31.157723],[32.219632,31.160523],[32.195931,31.168242],[32.171479,31.165852],[32.15049,31.180533],[32.148041,31.190772],[32.123932,31.194341],[32.122059,31.203012],[32.10286,31.203021],[32.106029,31.187041],[32.146771,31.180193],[32.139351,31.170162],[32.120529,31.181121],[32.09024,31.163511],[32.14172,31.136964],[32.18171,31.145213],[32.184041,31.130134],[32.157441,31.128604],[32.15895,31.105704],[32.136212,31.091426],[32.126769,31.096416],[32.140271,31.071466],[32.09557,31.087726],[32.100731,31.067437],[32.090542,31.052746],[32.080189,31.076816],[32.059681,31.085275],[32.056469,31.077165],[32.03233,31.082555],[32.065529,31.102154],[32.05148,31.108244],[32.04345,31.151164],[32.02792,31.161352],[32.036399,31.171183],[32.037629,31.208722],[32.052929,31.21308],[31.98231,31.227251],[31.96685,31.2434],[31.963061,31.23369],[31.90003,31.231051],[31.910721,31.25825],[31.899949,31.262158],[31.88497,31.23486],[31.833401,31.244399],[31.83364,31.25312],[31.847701,31.25554],[31.83612,31.258689],[31.828449,31.272249],[31.840379,31.26682],[31.843139,31.287758],[31.856599,31.285488],[31.86867,31.310317],[31.861289,31.301797],[31.83917,31.298368],[31.822161,31.281748],[31.79142,31.284838],[31.7911,31.272158],[31.78458,31.271667],[31.819401,31.349306],[31.884781,31.351526],[31.82686,31.373336],[31.851651,31.382905],[31.841181,31.384245],[31.844959,31.406814],[31.869971,31.402164],[31.882481,31.411644],[31.862699,31.411615],[31.853149,31.425353],[31.855079,31.439164],[31.84548,31.446482],[31.82485,31.439774],[31.826701,31.456102],[31.84046,31.468143],[31.84121,31.454172],[31.84865,31.455282],[31.87669,31.424643],[31.87153,31.458603],[31.852831,31.481982],[31.860291,31.498442],[31.848101,31.495152],[31.85245,31.508791],[31.88633,31.533901],[31.908979,31.52738],[31.941731,31.494492],[31.9446,31.480582],[31.98374,31.434304],[31.97896,31.427533],[31.96656,31.438153],[31.959101,31.428113],[31.989,31.414944],[31.98708,31.399994],[31.99675,31.398624],[32.01466,31.373605],[32.02525,31.376605],[32.061379,31.349256],[32.07307,31.351366],[32.09185,31.331867],[32.203839,31.282038],[32.149429,31.309348],[32.10775,31.344156],[32.048981,31.369605],[31.988479,31.430753],[31.952361,31.492732],[31.961451,31.496581],[31.95752,31.502211],[31.906701,31.53421],[31.86093,31.53468],[31.84015,31.51651],[31.73876,31.470591],[31.55468,31.437283],[31.500601,31.453462],[31.358281,31.52445],[31.23222,31.572158],[31.112761,31.599547],[31.02685,31.598526],[30.976691,31.581619],[31.045419,31.570669],[31.099609,31.54848],[31.117331,31.52104],[31.10268,31.486891],[31.090089,31.493851],[31.09198,31.512941],[31.084151,31.50811],[31.06643,31.51606],[31.0218,31.51469],[31.021659,31.498862],[31.000851,31.472303],[31.004919,31.464403],[30.97988,31.443212],[30.93924,31.449283],[30.932329,31.435994],[30.89576,31.409605],[30.87632,31.426413],[30.817811,31.425454],[30.81033,31.437594],[30.791861,31.444103],[30.77215,31.430163],[30.76903,31.410105],[30.74373,31.401933],[30.72693,31.383264],[30.697461,31.414403],[30.668641,31.419173],[30.662701,31.396955],[30.630631,31.385106],[30.62933,31.378405],[30.623247,31.384168],[30.587903,31.330519],[30.323245,31.091073],[30.110203,30.970735],[30.119595,30.897174],[30.082624,30.815842],[30.178746,30.778876],[30.237896,30.786268],[30.289654,30.823237],[30.43753,30.80845],[30.504075,30.786268],[30.444924,30.756695],[30.518861,30.741907],[30.607588,30.741907],[30.703709,30.675365],[30.762859,30.60143],[30.828131,30.362536],[30.818054,30.346184],[30.820832,30.32702],[30.868575,30.298979],[31.005997,30.076476],[31.06998,29.937707],[31.105805,29.822263],[31.121659,29.722419],[31.114881,29.622596],[31.08614,29.50004],[31.048314,29.391901],[31.001051,29.288462],[30.787671,28.939788],[30.743236,28.851893],[30.672495,28.653718],[30.622075,28.434145],[30.603795,28.27021],[30.607744,28.129495],[30.632155,27.926529],[30.687206,27.653847],[30.780337,27.382489],[31.060859,27.021203],[31.189538,26.88264],[31.398427,26.684325],[31.654198,26.313377],[31.759945,26.187883],[31.849947,26.107805],[31.981785,26.007631],[32.070096,25.948045],[32.144539,25.909284],[32.253005,25.88226],[32.402001,25.877418],[32.466786,25.886466],[32.483619,25.879181],[32.484463,25.838288],[32.46392,25.780418],[32.369706,25.677432],[32.344295,25.618842],[32.324451,25.495532],[32.331749,25.363436],[32.356343,25.259488],[32.394444,25.176168],[32.662629,24.870181],[32.69925,24.813189],[32.72203,24.750467],[32.748355,24.590522],[32.752823,24.357356],[32.685474,23.860435],[32.666508,23.647961],[32.686192,23.595471],[32.705876,23.569227],[32.763287,23.542984],[32.840382,23.542984],[32.878113,23.567587],[32.919121,23.621717],[32.976532,23.731615],[33.042431,24.092616],[33.076409,24.547987],[33.067494,24.664045],[33.042439,24.827495],[32.996068,25.044856],[32.971707,25.120053],[32.946721,25.161566],[32.91536,25.192807],[32.718831,25.330387],[32.688805,25.372022],[32.672912,25.42739],[32.672352,25.484917],[32.687461,25.529572],[32.783055,25.615671],[32.896149,25.782375],[32.905007,25.960678],[32.852384,26.164704],[32.821564,26.210566],[32.766241,26.243016],[32.351863,26.185184],[32.303273,26.18993],[32.250683,26.211755],[32.194321,26.248108],[32.03175,26.390353],[31.883068,26.564045],[31.586226,26.870289],[31.522903,26.957016],[31.422617,27.151831],[31.369698,27.186647],[31.255892,27.288874],[31.235436,27.3257],[31.22561,27.326004],[31.153303,27.429257],[31.05962,27.614454],[31.004067,27.760009],[30.953085,27.970044],[30.917931,28.210903],[30.916609,28.30473],[30.927592,28.387465],[30.958376,28.503757],[31.001801,28.616469],[31.063231,28.728946],[31.273057,29.016924],[31.312933,29.092662],[31.336939,29.17863],[31.402682,29.523116],[31.410848,29.671473],[31.382664,29.838538],[31.341037,29.949887],[31.2406,30.118325],[31.341064,30.146255],[31.47247,30.28391],[31.735278,30.455981],[31.879197,30.490396],[32.066917,30.496654],[32.235866,30.518553],[32.361011,30.549838],[32.458599,30.647491],[32.589139,30.734514],[32.700047,30.838024],[32.737015,30.897174],[32.766167,30.969913],[32.773288,30.96948],[32.755841,31.021877],[32.705071,31.009628],[32.67833,31.037467],[32.695716,31.043768],[32.678761,31.044466],[32.67651,31.038688],[32.667542,31.045857],[32.752141,31.059397],[32.92416,31.138194],[32.910042,31.138173],[32.82397,31.094436],[32.737671,31.062567],[32.593071,31.052416],[32.55334,31.064227],[32.4931,31.113915],[32.42733,31.187301],[32.349418,31.23494],[32.354679,31.219],[32.384171,31.204721],[32.383339,31.187282],[32.35553,31.135083],[32.317269,31.097066],[32.315609,31.193742],[32.323239,31.20891],[32.29255,31.229801],[32.30309,31.23003],[32.300789,31.2413],[32.317748,31.27053],[32.20752,31.283899],[32.274479,31.261039],[32.27777,31.254809],[32.266919,31.244119],[32.28621,31.227371],[32.278069,31.220991],[32.284031,31.217911],[32.282681,31.19583]]]]}}
