{"type":"Feature","properties":{"OBJECTID":527.0,"ECO_NAME":"Northwest Russian-Novaya Zemlya tundra","BIOME_NUM":11.0,"BIOME_NAME":"Tundra","REALM":"Palearctic","ECO_BIOME_":"PA11","NNH":2,"ECO_ID":776,"SHAPE_LENG":165.358116615,"SHAPE_AREA":62.3079373592,"NNH_NAME":"Nature Could Reach Half Protected","COLOR":"#5DB3C8","COLOR_BIO":"#9ED7C2","COLOR_NNH":"#7BC141","LICENSE":"CC-BY 4.0","name":"Northwest Russian-Novaya Zemlya tundra"},"geometry":{"type":"MultiPolygon","coordinates":[[[[59.2258,65.881713],[59.290749,65.89431],[59.417851,65.923777],[59.476449,65.940982],[59.521599,65.962414],[59.547482,65.991895],[59.546437,66.020889],[59.514027,66.047188],[59.464348,66.070512],[59.405605,66.08845],[59.335766,66.096094],[59.26426,66.092318],[59.19151,66.083735],[59.128727,66.069642],[59.080658,66.049111],[59.041131,66.023177],[59.011567,65.994809],[58.99393,65.966671],[58.995522,65.936258],[59.013817,65.906556],[59.0527,65.884186],[59.118195,65.868995],[59.2258,65.881713]]],[[[56.298118,66.377634],[56.240529,66.396533],[56.178523,66.408733],[56.102494,66.407291],[56.039669,66.394434],[55.992047,66.359826],[55.916203,66.372743],[55.844941,66.373239],[55.771466,66.370889],[55.698918,66.365884],[55.630397,66.357147],[55.566098,66.344383],[55.504219,66.32862],[55.38881,66.291798],[55.337647,66.27132],[55.294503,66.247409],[55.254109,66.222582],[55.17936,66.171988],[55.244587,66.082919],[55.314709,66.089045],[55.518433,66.120251],[55.583867,66.13242],[55.645707,66.146787],[55.702889,66.164053],[55.756249,66.183776],[56.003704,66.286885],[56.301621,66.099925],[56.375114,66.049332],[56.409565,66.023666],[56.439846,65.997228],[56.456151,65.968273],[56.46457,65.938312],[56.458161,65.91002],[56.472912,65.84992],[56.476563,65.820325],[56.478398,65.760881],[56.483483,65.73143],[56.495354,65.702437],[56.528458,65.645046],[56.662907,65.45099],[56.681065,65.42234],[56.692055,65.393354],[56.694657,65.363988],[56.692341,65.3344],[56.683556,65.27501],[56.682404,65.245391],[56.68687,65.215955],[56.696557,65.186657],[56.719776,65.128152],[56.859597,65.061842],[56.911927,65.042294],[56.975555,65.029018],[57.045529,65.028354],[57.116398,65.035091],[57.167767,65.05193],[57.200097,65.079748],[57.216122,65.10878],[57.208916,65.138925],[57.182496,65.165911],[57.110589,65.217099],[57.045342,65.270317],[57.020089,65.297922],[57.010437,65.3268],[57.005417,65.356068],[57.000279,65.415001],[57.000435,65.623362],[56.871098,65.694143],[56.831089,65.718459],[56.794713,65.744126],[56.765515,65.771944],[56.756587,65.800654],[56.760815,65.829762],[56.77044,65.859182],[56.798707,65.918],[56.84591,65.969929],[56.842579,65.999289],[56.806893,66.057099],[56.786969,66.08581],[56.762955,66.113696],[56.732808,66.140255],[56.659024,66.190605],[56.57655,66.239344],[56.488183,66.286664],[56.350193,66.355461],[56.298118,66.377634]]],[[[58.020024,66.083041],[58.156125,66.103115],[58.222408,66.115589],[58.284581,66.130444],[58.340855,66.148115],[58.392849,66.168089],[58.442097,66.189636],[58.584713,66.257464],[58.676152,66.292241],[58.720406,66.316321],[58.755718,66.341591],[58.765416,66.37153],[58.747318,66.400981],[58.701409,66.425274],[58.636013,66.425144],[58.562401,66.416699],[58.4931,66.403201],[58.433674,66.386988],[58.376984,66.368508],[58.322957,66.348289],[58.223248,66.30483],[58.177296,66.282132],[58.090618,66.23475],[58.008721,66.185829],[57.930062,66.136152],[57.896161,66.109805],[57.876335,66.080416],[57.94917,66.080126],[58.020024,66.083041]]],[[[42.542942,66.40649],[42.560105,66.448293],[42.562439,66.469908],[42.424843,66.491874],[42.345307,66.509743],[42.262738,66.519861],[42.205441,66.524911],[42.151515,66.514801],[42.107705,66.486152],[42.063893,66.44402],[42.015023,66.406947],[41.999999,66.391666],[41.999999,66.338127],[42.005566,66.333893],[42.012454,66.318633],[42.066578,66.258602],[42.09758,66.227106],[42.131038,66.196106],[42.264385,66.122296],[42.294892,66.11098],[42.336449,66.099284],[42.414547,66.087763],[42.480954,66.075678],[42.545013,66.062036],[42.605846,66.046883],[42.6613,66.028152],[42.711945,66.006689],[42.758961,65.984265],[42.797474,65.959422],[42.832715,65.933474],[42.892251,65.951762],[42.954091,65.965679],[43.022553,65.966641],[43.093948,65.961781],[43.193405,65.953738],[43.43383,65.884369],[43.500432,65.881012],[43.568657,65.871558],[43.639163,65.872535],[43.709164,65.869437],[43.773499,65.880607],[43.965473,65.921801],[44.098014,65.928392],[44.080285,65.957217],[44.047329,65.983716],[44.030354,66.013548],[43.893635,66.130948],[43.790928,66.172041],[43.694287,66.250537],[43.553608,66.304258],[43.519192,66.299452],[43.336918,66.351608],[43.236672,66.397326],[43.157933,66.418217],[42.592202,66.400462],[42.542942,66.40649]]],[[[55.211094,66.418842],[55.259182,66.441091],[55.29049,66.468321],[55.302098,66.49849],[55.280514,66.52556],[55.221291,66.545329],[55.151864,66.551447],[55.078334,66.553149],[55.003743,66.551524],[54.931656,66.54658],[54.791577,66.530191],[54.722743,66.519594],[54.591134,66.49411],[54.530555,66.478332],[54.47401,66.459715],[54.325573,66.40388],[54.188134,66.414569],[54.116707,66.416064],[54.044926,66.411999],[53.972621,66.405025],[53.903012,66.395266],[53.839413,66.382677],[53.79052,66.35978],[53.765397,66.331984],[53.775772,66.301748],[53.819111,66.279279],[53.873993,66.259104],[53.990231,66.223184],[54.111892,66.191124],[54.17503,66.177008],[54.24615,66.172141],[54.320274,66.172736],[54.387944,66.180404],[54.447429,66.198838],[54.484971,66.223421],[54.494847,66.252574],[54.498714,66.282986],[54.570675,66.28642],[54.709839,66.302961],[54.84655,66.322738],[54.911324,66.335441],[55.036457,66.365678],[55.096858,66.38254],[55.211094,66.418842]]],[[[60.004258,66.243426],[60.254527,66.350319],[60.301551,66.372712],[60.39095,66.419926],[60.432255,66.444593],[60.469723,66.469824],[60.500767,66.496247],[60.504082,66.527154],[60.462906,66.551356],[60.394936,66.55936],[60.322541,66.552714],[60.25512,66.538828],[60.19806,66.521028],[60.142617,66.501633],[60.089488,66.480872],[60.039402,66.458975],[59.993054,66.436154],[59.950965,66.412273],[59.913006,66.386767],[59.879357,66.360086],[59.850171,66.332747],[59.825905,66.305273],[59.821018,66.276081],[59.825992,66.242305],[60.004258,66.243426]]],[[[57.054841,66.177963],[57.12302,66.188232],[57.177471,66.206261],[57.405545,66.323501],[57.458523,66.342499],[57.520726,66.356149],[57.589417,66.366044],[57.802807,66.388056],[58.089165,66.410594],[58.158276,66.41853],[58.225182,66.428997],[58.289513,66.443387],[58.350007,66.460867],[58.405246,66.480323],[58.45385,66.502411],[58.490967,66.529329],[58.507725,66.557254],[58.49469,66.588894],[58.453728,66.611181],[58.383361,66.620063],[58.305771,66.619681],[58.236267,66.612952],[58.167336,66.603147],[57.964951,66.567173],[57.77063,66.525247],[57.703862,66.514092],[57.634407,66.506386],[57.562928,66.501152],[57.270855,66.488342],[57.199645,66.483299],[57.130505,66.475974],[57.06472,66.463934],[57.003106,66.447309],[56.945858,66.428112],[56.89283,66.407916],[56.844428,66.384569],[56.80957,66.358514],[56.79356,66.33042],[56.788414,66.300305],[56.792198,66.269924],[56.803872,66.241091],[56.837844,66.215012],[56.884106,66.19152],[56.942737,66.17417],[57.054841,66.177963]]],[[[42.628548,66.687082],[42.595997,66.734937],[42.475308,66.7807],[42.447014,66.821641],[42.328278,66.867634],[42.277646,66.847392],[42.281422,66.815332],[42.378684,66.756216],[42.413243,66.752035],[42.415169,66.729245],[42.518868,66.667444],[42.568768,66.661393],[42.628548,66.687082]]],[[[51.545979,68.520531],[51.542008,68.542268],[51.453155,68.566065],[51.114762,68.51271],[51.115494,68.508995],[50.873948,68.471532],[50.877919,68.448056],[50.937934,68.445317],[50.881581,68.434696],[50.79813,68.393128],[50.80315,68.380318],[50.856354,68.369086],[50.89346,68.375992],[50.930005,68.403154],[50.966145,68.415125],[51.070374,68.439189],[51.076969,68.438884],[51.15622,68.451115],[51.274815,68.454213],[51.383191,68.484807],[51.377614,68.492575],[51.334766,68.488326],[51.545979,68.520531]]],[[[58.72969,69.384943],[58.701901,69.368738],[58.706864,69.352868],[58.739251,69.330261],[58.77179,69.321555],[58.831882,69.286732],[59.093849,69.160405],[59.152359,69.14616],[59.256081,69.139836],[59.252182,69.144467],[59.287098,69.143925],[59.275913,69.158498],[59.282989,69.159215],[59.279179,69.180098],[59.241859,69.22368],[59.25195,69.243661],[59.049321,69.29218],[58.977509,69.327292],[58.950303,69.330832],[58.881127,69.36722],[58.798,69.381648],[58.782062,69.371302],[58.72969,69.384943]]],[[[49.187703,68.734257],[49.31144,68.77561],[49.729546,68.837191],[49.831952,68.892499],[49.974728,68.943551],[49.992051,68.983249],[50.081208,69.056655],[50.368649,69.119762],[50.34301,69.174544],[50.283069,69.19947],[50.250489,69.239123],[50.140854,69.314573],[50.043148,69.34655],[49.862633,69.389834],[49.653622,69.423177],[49.479194,69.468543],[49.416919,69.492135],[49.288388,69.518969],[49.183274,69.527736],[49.068061,69.523852],[48.85698,69.483956],[48.665719,69.468993],[48.470382,69.384111],[48.299378,69.307005],[48.183541,69.194],[48.189251,69.050062],[48.140065,69.000866],[48.169926,68.805268],[48.389472,68.776182],[48.444465,68.76039],[48.444175,68.754674],[48.416119,68.749799],[48.589485,68.710483],[48.61073,68.717937],[48.613553,68.727131],[48.915989,68.711734],[48.945682,68.707965],[49.187703,68.734257]]],[[[59.060841,70.467852],[58.967335,70.463183],[58.898098,70.44671],[58.86483,70.44372],[58.852066,70.444132],[58.84245,70.441713],[58.812596,70.439027],[58.711361,70.437173],[58.667519,70.421814],[58.667752,70.395949],[58.646065,70.379964],[58.581143,70.35767],[58.5803,70.355099],[58.545998,70.348972],[58.421967,70.353695],[58.42376,70.345752],[58.547776,70.289513],[58.579468,70.281197],[58.55468,70.278069],[58.435032,70.268989],[58.438164,70.262428],[58.377614,70.26087],[58.336171,70.237508],[58.33675,70.211635],[58.39846,70.214901],[58.401653,70.207301],[58.487694,70.142876],[58.547657,70.083317],[58.573017,70.073313],[58.568847,70.056651],[58.604053,70.026124],[58.699002,69.974226],[58.831231,69.945522],[58.857243,69.933932],[58.900825,69.900155],[58.926166,69.895127],[58.940651,69.896669],[58.95818,69.888809],[59.024079,69.869376],[59.113423,69.856077],[59.14465,69.859297],[59.132904,69.883126],[59.11192,69.899904],[59.085083,69.911958],[59.10315,69.913859],[59.366318,69.891091],[59.496991,69.846655],[59.484322,69.795062],[59.48415,69.740936],[59.507924,69.724105],[59.526809,69.722243],[59.538109,69.71414],[59.754506,69.679477],[59.785297,69.671879],[59.922223,69.650011],[59.997815,69.648698],[60.255047,69.68459],[60.292195,69.706922],[60.416653,69.728484],[60.450707,69.762322],[60.462044,69.795177],[60.476922,69.80186],[60.503468,69.721494],[60.483376,69.698896],[60.188427,69.662554],[60.122948,69.609596],[60.216237,69.457129],[60.44579,69.287625],[60.51038,69.213227],[60.585484,69.166876],[60.604355,69.12643],[60.680027,69.137455],[60.70427,69.122531],[60.725617,69.086549],[60.831303,69.118121],[60.920136,69.070038],[60.945855,68.979678],[60.867802,68.887243],[60.813603,68.862598],[60.643376,68.814645],[60.547596,68.758124],[60.443104,68.741155],[60.197476,68.692163],[59.984238,68.696329],[59.935765,68.706683],[59.811764,68.709025],[59.772328,68.693254],[59.718041,68.656586],[59.875122,68.52652],[59.867512,68.46742],[59.544555,68.492827],[59.440247,68.51329],[59.363942,68.532647],[59.306092,68.55662],[59.250386,68.600079],[59.161194,68.627653],[59.134984,68.663674],[59.186809,68.684176],[59.389172,68.713924],[59.38409,68.724049],[59.50713,68.737721],[59.465141,68.767065],[59.232247,68.839045],[59.090194,68.890394],[58.944066,68.932487],[58.955818,68.940545],[59.014175,68.94056],[58.997708,68.95134],[59.235989,68.94883],[59.285115,68.951424],[59.309535,68.962602],[59.295868,68.974458],[59.29184,68.975756],[59.307015,68.983584],[59.296402,68.995059],[59.268601,69.002849],[59.265484,69.010739],[59.187489,69.026152],[58.974911,69.02953],[58.830571,69.003406],[58.733532,69.007023],[58.447655,68.973581],[58.276749,68.902518],[58.263996,68.801232],[58.184853,68.793136],[58.154744,68.847949],[58.114662,68.866803],[58.076344,68.887098],[58.045853,68.891531],[57.995876,68.887257],[57.961235,68.870083],[57.932114,68.822008],[57.92595,68.816583],[57.916989,68.831713],[57.646885,68.789733],[57.665284,68.802918],[57.598259,68.834032],[57.272415,68.803345],[57.270946,68.76808],[57.370289,68.760367],[57.595074,68.780433],[57.648545,68.770033],[57.750641,68.777747],[57.726956,68.756781],[57.703694,68.719058],[57.566216,68.697832],[57.541946,68.685122],[57.423446,68.688311],[57.226605,68.710254],[56.934632,68.658432],[56.833062,68.657867],[56.628064,68.680994],[56.459351,68.665489],[56.340329,68.633094],[56.330021,68.622656],[56.22897,68.603711],[56.05032,68.637717],[55.876774,68.635283],[55.753052,68.611668],[55.740693,68.602193],[55.555283,68.578388],[55.295914,68.556452],[55.04535,68.468397],[54.97213,68.446858],[54.841309,68.330861],[54.88292,68.26919],[54.735882,68.237915],[54.678692,68.235855],[54.579972,68.285281],[54.540622,68.275492],[54.524582,68.284045],[54.41951,68.297358],[54.244453,68.253587],[54.195584,68.250741],[54.119,68.299434],[54.071038,68.284907],[54.022286,68.244934],[53.73386,68.252885],[53.472638,68.252801],[53.457756,68.255357],[53.568787,68.335195],[53.715774,68.360366],[53.814015,68.349928],[54.073867,68.358436],[54.162156,68.366752],[54.122479,68.461453],[53.974312,68.600255],[54.061821,68.664139],[54.080613,68.733059],[54.120877,68.776756],[54.210544,68.802193],[54.241257,68.825303],[54.13953,68.845881],[53.906804,68.834383],[53.920655,68.845577],[53.838086,68.865894],[53.601986,68.849094],[53.581475,68.870038],[53.622726,68.903517],[53.809372,68.917349],[54.195137,68.954088],[54.325066,68.983424],[54.323796,69.006954],[53.911614,68.974925],[53.193032,68.879307],[53.181382,68.869679],[52.949414,68.816964],[52.937973,68.807411],[52.692345,68.716434],[52.272469,68.643294],[52.258576,68.605351],[52.291061,68.594228],[52.445725,68.596951],[52.515748,68.579349],[52.615464,68.522202],[52.678169,68.459675],[52.560437,68.410646],[52.401665,68.367988],[52.341858,68.375969],[52.316627,68.418238],[52.384297,68.437534],[52.440201,68.459103],[52.419861,68.505905],[52.32177,68.524407],[52.295468,68.540102],[52.312114,68.57983],[52.223732,68.580158],[52.033013,68.54693],[52.024765,68.54677],[51.712254,68.48902],[51.696324,68.483],[51.483787,68.441295],[51.448204,68.427332],[51.240525,68.406778],[50.971253,68.389145],[50.769036,68.342604],[50.730374,68.340582],[50.494129,68.287097],[50.278294,68.196233],[50.0462,68.130556],[49.956986,68.08776],[49.726432,67.993387],[49.386754,67.9045],[49.013183,67.865786],[48.764039,67.892362],[48.709565,67.866732],[48.68029,67.837305],[48.722039,67.757719],[48.136956,67.712565],[47.950058,67.688966],[47.890717,67.706889],[47.803631,67.686342],[47.733811,67.611127],[47.784165,67.515564],[47.639926,67.386651],[47.621335,67.341657],[47.575516,67.300075],[47.632527,67.224364],[47.633324,67.139956],[47.540749,67.083114],[47.463783,67.040144],[47.450856,66.999468],[47.358688,66.984751],[47.217693,67.039404],[46.997361,67.003399],[46.832257,66.960328],[46.43647,66.923705],[46.280678,66.915923],[46.263442,66.928482],[46.264634,66.959961],[46.189743,66.974107],[45.841294,66.962259],[45.728573,66.978982],[45.536149,67.107743],[45.362717,67.171619],[45.310142,67.202376],[45.11015,67.267245],[45.045311,67.274676],[44.913811,67.297794],[44.838803,67.406229],[44.990487,67.535989],[45.240651,67.613919],[45.220058,67.672181],[45.250148,67.72365],[45.442116,67.76486],[45.629695,67.76769],[45.745022,67.785582],[45.97205,67.816124],[46.202384,67.818162],[46.428406,67.814926],[46.587063,67.83204],[46.589776,67.881924],[46.50027,67.972428],[46.455735,68.112496],[46.314408,68.226561],[45.869694,68.391983],[45.802773,68.478788],[45.598668,68.527718],[45.288948,68.556749],[45.223514,68.56515],[44.947876,68.567004],[44.567742,68.548319],[44.515114,68.554872],[44.2528,68.55414],[44.200317,68.560588],[44.125901,68.558687],[44.046895,68.568331],[44.016362,68.566493],[43.764473,68.630057],[43.627324,68.646453],[43.41549,68.682679],[43.324559,68.660348],[43.37106,68.610754],[43.796704,68.477224],[44.141194,68.319226],[44.195595,68.229713],[44.177192,68.104859],[44.264976,68.038694],[44.159489,67.963432],[44.174538,67.878666],[44.089947,67.845087],[44.05341,67.78337],[44.064057,67.710307],[44.095059,67.662162],[43.938037,67.538339],[43.756596,67.312764],[43.794331,67.203261],[43.870384,67.177098],[44.012352,67.181096],[44.181045,67.115343],[44.439853,66.855067],[44.346989,66.740048],[44.480266,66.633964],[44.370438,66.582074],[44.290566,66.482032],[44.341782,66.466803],[44.382798,66.492515],[44.442086,66.50747],[44.578793,66.528436],[44.649525,66.537302],[44.791947,66.550784],[44.86271,66.55279],[44.999568,66.539332],[45.138343,66.459433],[45.202534,66.450864],[45.276562,66.451308],[45.338318,66.438268],[45.443703,66.400691],[45.787407,66.452788],[45.877082,66.445653],[46.011811,66.467909],[46.081402,66.476035],[46.180481,66.480552],[46.251156,66.514963],[46.304154,66.535341],[46.358578,66.555141],[46.47535,66.592466],[46.540795,66.607305],[46.607636,66.605749],[46.673836,66.588528],[46.712948,66.564853],[46.732777,66.535655],[46.744069,66.50573],[46.747998,66.476112],[46.748082,66.446225],[46.751541,66.416699],[46.76669,66.388117],[46.799294,66.361154],[46.843708,66.33699],[46.908799,66.327834],[47.053849,66.336585],[47.007309,66.359406],[46.991517,66.38862],[46.985863,66.418881],[46.999798,66.447019],[47.035653,66.474036],[47.087433,66.495125],[47.1482,66.510042],[47.213928,66.52263],[47.40039,66.553828],[47.561909,66.532175],[47.619874,66.516],[47.665223,66.49269],[47.708474,66.468184],[47.786805,66.518777],[47.830266,66.542353],[47.882709,66.56232],[47.939258,66.580639],[48.058754,66.61473],[48.303948,66.680078],[48.736104,66.792076],[48.919266,66.841334],[49.097373,66.893918],[49.210419,66.932647],[49.263371,66.953347],[49.31303,66.975008],[49.357953,66.998004],[49.396512,67.023045],[49.498761,67.102609],[49.573464,67.142123],[49.689606,67.105073],[49.752059,67.088753],[49.8228,67.081566],[49.897972,67.084946],[49.967349,67.095803],[50.147622,67.146899],[50.437218,67.240814],[50.49136,67.261003],[50.539956,67.283602],[50.586257,67.307507],[50.689362,67.227821],[50.890762,67.171254],[50.956723,67.157238],[51.012066,67.139728],[50.931653,67.119585],[50.88179,67.099473],[50.863137,67.069716],[50.878437,67.041578],[50.953797,66.989657],[51.058831,66.960602],[51.130379,66.951325],[51.203473,66.948884],[51.275906,66.952157],[51.494056,66.969919],[51.641255,66.97973],[51.715615,66.984042],[51.788651,66.9854],[51.860157,66.980662],[51.928047,66.966074],[51.977097,66.944787],[52.014592,66.919157],[52.044266,66.891202],[52.066226,66.862988],[52.069546,66.833613],[52.066014,66.803589],[52.086498,66.75733],[52.092614,66.727901],[52.104355,66.58009],[52.128567,66.165892],[52.130978,66.136319],[52.143994,66.077372],[52.244801,66.020468],[52.289101,65.997434],[52.349003,65.982564],[52.477149,66.011015],[52.538311,66.026305],[52.590252,66.045082],[52.618892,66.072763],[52.639435,66.101589],[52.65704,66.130688],[52.660797,66.159987],[52.654915,66.189247],[52.646256,66.218545],[52.594555,66.352226],[52.662018,66.350174],[52.722363,66.333983],[52.780671,66.315665],[52.834649,66.295767],[52.883271,66.27403],[52.928341,66.250796],[53.000119,66.208428],[53.151665,66.144407],[53.205158,66.125149],[53.269192,66.113063],[53.338974,66.103641],[53.409928,66.109516],[53.471116,66.123425],[53.513813,66.164213],[53.51236,66.193824],[53.499352,66.22291],[53.488578,66.252139],[53.473649,66.311994],[53.473782,66.341507],[53.48621,66.369988],[53.509804,66.397555],[53.540122,66.424595],[53.605758,66.478362],[53.63343,66.50573],[53.653247,66.534212],[53.66423,66.564365],[53.663425,66.594152],[53.646972,66.622344],[53.611652,66.649742],[53.560238,66.67103],[53.437065,66.701304],[53.371552,66.714855],[53.236092,66.739476],[53.099328,66.761686],[53.028965,66.76943],[52.883526,66.779426],[52.81527,66.789749],[52.668686,66.795059],[52.595379,66.794914],[52.522839,66.7911],[52.413289,66.782119],[52.37994,66.839968],[52.368363,66.869053],[52.367669,66.898465],[52.376988,66.943932],[52.627644,66.881627],[52.686268,66.863231],[52.751698,66.854144],[52.902142,66.852153],[52.970128,66.860339],[53.096863,66.888706],[53.442269,66.98231],[53.458947,66.901616],[53.469231,66.872578],[53.495697,66.845531],[53.556637,66.828348],[53.626872,66.835757],[53.693859,66.849666],[53.750057,66.868199],[53.795333,66.891599],[53.831643,66.918005],[53.858982,66.945405],[53.881974,66.973405],[53.962601,67.087601],[54.011876,67.144023],[54.042369,67.171407],[54.083385,67.195456],[54.134545,67.216247],[54.191205,67.23539],[54.433415,67.307163],[54.498402,67.321371],[54.570954,67.3281],[54.648198,67.332754],[54.725338,67.334295],[54.7976,67.331441],[54.860615,67.319302],[54.909943,67.294307],[54.94143,67.267191],[54.963814,67.238373],[54.975861,67.208403],[54.973458,67.179059],[54.960751,67.150393],[54.943078,67.12182],[54.854512,67.007839],[54.846279,66.979486],[54.788365,66.943886],[54.767033,66.915602],[54.768161,66.886213],[54.776226,66.856166],[54.792836,66.827021],[54.819668,66.800011],[54.856186,66.774413],[54.899338,66.749945],[54.945965,66.726627],[54.995094,66.704882],[55.052597,66.686274],[55.11354,66.669663],[55.178299,66.654815],[55.248681,66.647857],[55.325344,66.645202],[55.398385,66.64769],[55.455513,66.662186],[55.485856,66.691171],[55.487053,66.721142],[55.461677,66.748724],[55.420052,66.772849],[55.373196,66.796227],[55.330357,66.820428],[55.25412,66.871052],[55.383324,66.884595],[55.53098,66.893026],[55.606453,66.895673],[55.679341,66.894414],[55.747212,66.886793],[55.811791,66.872883],[55.87262,66.854709],[55.928727,66.834345],[55.979862,66.81331],[56.028264,66.791237],[56.210041,66.697917],[56.305119,66.652505],[56.366036,66.63678],[56.501278,66.613669],[56.571156,66.604993],[56.642224,66.598241],[56.787919,66.588849],[56.860589,66.587994],[56.932427,66.590405],[57.004695,66.594862],[57.14796,66.609129],[57.217408,66.618735],[57.284394,66.630005],[57.349156,66.643448],[57.601357,66.704844],[57.666626,66.718044],[57.734169,66.72897],[57.873322,66.747572],[58.015931,66.762838],[58.160191,66.775016],[58.305066,66.784354],[58.380925,66.78746],[58.457219,66.788116],[58.530446,66.785026],[58.597058,66.776832],[58.653141,66.759901],[58.751343,66.712772],[58.807309,66.693736],[58.879784,66.683748],[58.947044,66.690204],[59.074696,66.721462],[59.20718,66.749074],[59.2753,66.75981],[59.345772,66.763784],[59.418526,66.761984],[59.565434,66.751814],[59.635212,66.744321],[59.710007,66.740216],[59.783852,66.73866],[59.853333,66.743787],[59.920491,66.755857],[59.983796,66.772597],[60.039753,66.792007],[60.085957,66.814454],[60.124775,66.840014],[60.159779,66.866535],[60.192875,66.892957],[60.221905,66.920287],[60.245713,66.948304],[60.264115,66.976892],[60.30828,67.06404],[60.347306,67.123293],[60.374721,67.15202],[60.420411,67.171162],[60.491078,67.180013],[60.571689,67.181447],[60.643689,67.176595],[60.706337,67.159908],[60.761563,67.139049],[60.800644,67.113664],[60.83863,66.992526],[60.862149,66.934379],[60.898495,66.908568],[61.007134,66.849643],[61.105595,66.804649],[61.149254,66.781287],[61.176071,66.753912],[61.181073,66.723492],[61.161534,66.695636],[61.120865,66.669878],[61.068153,66.649582],[61.01051,66.631453],[60.829476,66.580098],[60.772792,66.561824],[60.72459,66.539225],[60.712222,66.510537],[60.744069,66.483039],[60.798562,66.463888],[60.871811,66.464033],[60.945347,66.468153],[61.015324,66.476707],[61.139679,66.506157],[61.320313,66.556232],[61.556893,66.626479],[61.612755,66.645439],[61.665223,66.666146],[61.877457,66.715321],[62.00634,66.743474],[62.141388,66.768157],[62.215897,66.779944],[62.289734,66.787491],[62.356484,66.786681],[62.411774,66.773078],[62.45905,66.749219],[62.546635,66.697444],[62.35476,66.648521],[62.092446,66.595494],[62.028622,66.581379],[61.967549,66.565731],[61.911969,66.546771],[61.862092,66.524789],[61.771447,66.477554],[61.733246,66.451833],[61.712441,66.424534],[61.713002,66.395023],[61.73613,66.335647],[61.770661,66.2775],[61.784153,66.248538],[61.788861,66.219605],[61.776344,66.190483],[61.751511,66.162016],[61.722714,66.134793],[61.6889,66.108142],[61.64695,66.084154],[61.596009,66.063928],[61.540181,66.045525],[61.364758,65.993177],[61.196457,65.938098],[61.085327,65.900918],[60.924817,65.841352],[60.867024,65.824589],[60.803673,65.81158],[60.598977,65.782542],[60.533981,65.771173],[60.475789,65.755784],[60.43092,65.732559],[60.356739,65.680684],[60.333107,65.652896],[60.325225,65.623766],[60.323036,65.593994],[60.325585,65.564124],[60.331986,65.534673],[60.342785,65.505505],[60.385861,65.418396],[60.393399,65.389021],[60.280636,65.362851],[60.215424,65.353245],[60.144795,65.349422],[60.074326,65.351223],[60.007424,65.359135],[59.942246,65.371236],[59.881299,65.385664],[59.80452,65.435487],[59.617619,65.560981],[59.446724,65.514638],[59.332451,65.480235],[59.280457,65.460497],[59.234379,65.437844],[59.193848,65.41342],[59.157563,65.388158],[59.123887,65.362034],[59.093655,65.33517],[59.067749,65.307664],[59.046601,65.279541],[59.028977,65.250823],[58.981652,65.163859],[58.962487,65.135491],[58.938996,65.107887],[58.909306,65.081359],[58.874336,65.055745],[58.836285,65.030727],[58.757805,64.981371],[58.707631,64.958649],[58.670189,64.934607],[58.661778,64.906644],[58.663144,64.877078],[58.671448,64.846873],[58.684575,64.816934],[58.700637,64.788085],[58.720845,64.759978],[58.744586,64.732212],[58.796425,64.677073],[58.870883,64.593138],[58.893509,64.564671],[58.903279,64.536097],[58.897514,64.50744],[58.884182,64.478692],[58.807201,64.36365],[58.765778,64.306748],[58.749745,64.278128],[58.742699,64.248975],[58.74424,64.218876],[58.753761,64.189142],[58.772522,64.161355],[58.8152,64.137398],[58.8722,64.121466],[58.940758,64.123358],[59.004677,64.13372],[59.046676,64.156243],[59.069405,64.184976],[59.076886,64.214412],[59.078675,64.244657],[59.082447,64.274511],[59.095879,64.302773],[59.131398,64.327234],[59.178605,64.349802],[59.215703,64.374828],[59.246173,64.401616],[59.292294,64.42233],[59.351605,64.437872],[59.38522,64.463645],[59.426513,64.487656],[59.461884,64.512712],[59.486409,64.541057],[59.499176,64.570637],[59.488644,64.599006],[59.46558,64.626831],[59.407715,64.682108],[59.383315,64.709911],[59.368893,64.738088],[59.367279,64.768202],[59.378918,64.798752],[59.404564,64.826516],[59.442218,64.85026],[59.485283,64.873059],[59.532509,64.895031],[59.582882,64.916174],[59.688939,64.955849],[59.742714,64.974343],[59.804829,64.991358],[59.872456,65.003245],[59.933934,65.005053],[59.983075,64.983942],[60.026242,64.958367],[60.063748,64.933371],[60.122223,64.91754],[60.188237,64.90756],[60.250943,64.915457],[60.37394,64.946724],[60.439721,64.953491],[60.507904,64.954521],[60.787236,64.94535],[60.856339,64.945633],[60.925129,64.948906],[60.993943,64.954925],[61.061284,64.963502],[61.125621,64.974435],[61.186924,64.988085],[61.245827,65.004908],[61.3,65.024158],[61.34694,65.04527],[61.380054,65.071943],[61.393376,65.101478],[61.391308,65.130563],[61.383007,65.159937],[61.361981,65.219091],[61.356457,65.248648],[61.356208,65.308267],[61.360028,65.3381],[61.368138,65.367474],[61.381932,65.396056],[61.405922,65.423919],[61.43991,65.450478],[61.480843,65.474771],[61.526669,65.496998],[61.576809,65.518047],[61.630539,65.537703],[61.687027,65.555724],[61.745377,65.572196],[61.92698,65.617967],[62.239384,65.688222],[62.335919,65.703757],[62.382241,65.621836],[62.636108,65.674694],[62.864795,65.728378],[63.067573,65.825665],[63.160088,65.880568],[63.283074,65.96262],[63.375939,66.052407],[63.774655,66.313597],[63.963691,66.400943],[64.181854,66.488746],[64.370179,66.536974],[64.98172,66.680712],[65.469947,66.752935],[65.737999,66.785194],[65.97683,66.807824],[66.319321,66.848537],[66.585831,66.886403],[66.790184,66.929496],[66.918213,66.970209],[67.116692,67.085205],[67.221549,67.179288],[67.262558,67.261842],[67.23996,67.350165],[67.139931,67.453816],[66.985276,67.560412],[66.933952,67.578105],[66.98587,67.625974],[67.032502,67.682916],[67.098999,67.81575],[67.13057,67.914862],[67.137452,67.991747],[67.117119,68.059927],[67.061898,68.124315],[67.044274,68.136682],[67.151955,68.208632],[67.293107,68.222235],[67.640221,68.192999],[67.697189,68.17793],[67.776558,68.177624],[67.84829,68.18565],[67.907517,68.203626],[67.961342,68.225791],[68.011498,68.248696],[68.058098,68.272165],[68.169861,68.333692],[68.162277,68.340361],[68.166924,68.34989],[68.16845,68.386849],[68.139068,68.417231],[68.077462,68.445865],[67.955269,68.462979],[67.867051,68.463383],[67.718789,68.508628],[67.50763,68.595814],[67.23227,68.69417],[67.057511,68.803528],[67.106353,68.831033],[67.073868,68.853198],[66.762307,68.90367],[66.678528,68.931595],[66.529328,68.948167],[66.463021,68.948167],[66.49617,68.981326],[66.413285,69.064224],[66.230927,69.097384],[66.065148,69.097384],[65.982254,69.113962],[65.878724,69.128749],[65.850594,69.139569],[65.556953,69.174788],[65.183197,69.264362],[65.049912,69.282612],[65.045319,69.281384],[64.906548,69.307813],[64.937561,69.309256],[64.881524,69.359521],[64.761284,69.395617],[64.785538,69.450988],[64.749863,69.483956],[64.571556,69.494873],[64.457451,69.524637],[64.306443,69.553227],[64.148934,69.636964],[64.080742,69.631684],[64.052201,69.634355],[63.829453,69.617692],[63.556443,69.651102],[63.431202,69.632905],[63.329834,69.643564],[63.319596,69.700879],[63.075272,69.730193],[62.879002,69.712354],[62.831639,69.685673],[62.721504,69.693974],[62.72395,69.706067],[62.773816,69.739624],[62.764985,69.764367],[62.563,69.835279],[62.52591,69.84075],[62.349755,69.872794],[62.272376,69.872787],[62.227288,69.879677],[62.023181,69.888184],[61.970687,69.885918],[61.95554,69.888489],[61.73605,69.881172],[61.460751,69.860854],[61.230969,69.825245],[60.99619,69.869109],[60.787888,69.864349],[60.763085,69.855017],[60.589633,69.893379],[60.487565,69.871558],[60.483349,69.861961],[60.38176,69.940509],[60.254429,69.9623],[60.127472,70.0149],[60.055805,70.06354],[60.028271,70.091344],[59.959824,70.106115],[59.878952,70.108862],[59.828434,70.122642],[59.650197,70.21159],[59.545769,70.213116],[59.491044,70.247687],[59.475358,70.274505],[59.406655,70.298372],[59.341099,70.340953],[59.133534,70.40464],[59.106514,70.439295],[59.060841,70.467852]],[[53.252621,67.472585],[53.325398,67.480054],[53.38942,67.494154],[53.502541,67.534585],[53.563302,67.551339],[53.63604,67.562388],[53.712662,67.566248],[53.781555,67.558405],[53.843795,67.538369],[53.879479,67.51342],[53.890107,67.483396],[53.886403,67.453052],[53.847413,67.428164],[53.747918,67.383827],[53.799964,67.337408],[53.825214,67.309628],[53.829228,67.281863],[53.798981,67.253618],[53.751244,67.230376],[53.693753,67.212135],[53.5677,67.179288],[53.513756,67.203817],[53.455037,67.215377],[53.388431,67.207014],[53.252858,67.175801],[53.173985,67.152653],[53.02998,67.167545],[52.966851,67.183141],[52.93019,67.208465],[52.841626,67.281702],[52.734425,67.311505],[52.689186,67.336057],[52.657779,67.363494],[52.657467,67.392014],[52.686123,67.421221],[52.734704,67.442463],[52.802998,67.45692],[52.876244,67.464551],[52.950294,67.466862],[53.101765,67.466519],[53.252621,67.472585]]],[[[53.002934,71.334412],[52.96048,71.350892],[52.756131,71.397923],[52.689595,71.429778],[52.476613,71.433638],[52.2888,71.404783],[52.220939,71.351816],[52.23964,71.338868],[52.175564,71.320557],[52.204944,71.28671],[52.276359,71.259503],[52.493679,71.25906],[52.555439,71.244128],[52.728863,71.11275],[52.872128,71.04418],[52.953705,70.979533],[53.045723,70.991588],[53.102086,70.972353],[53.162972,70.970576],[53.197049,70.989902],[53.207062,71.020237],[53.129913,71.083619],[53.251255,71.12595],[53.248379,71.171912],[53.281441,71.242229],[53.224316,71.282209],[53.132603,71.295027],[53.132802,71.266987],[53.078473,71.265583],[52.936329,71.310958],[52.908745,71.324334],[52.929963,71.32373],[53.002934,71.334412]]],[[[55.737778,73.318771],[55.583919,73.337419],[55.314502,73.352395],[55.175423,73.375202],[55.060833,73.412427],[54.958821,73.433913],[54.7939,73.436888],[54.551204,73.411695],[54.460534,73.371287],[54.449486,73.340996],[54.396943,73.314613],[54.173169,73.288472],[54.039234,73.297682],[53.951851,73.318183],[53.89325,73.322487],[53.641678,73.260975],[53.508931,73.246898],[53.364045,73.220315],[53.227013,73.167936],[53.136837,73.121936],[53.116086,73.074111],[53.239582,73.040174],[53.267075,73.019031],[53.101551,72.995516],[53.070961,72.983537],[53.080319,72.95781],[53.180745,72.927084],[53.238553,72.915875],[53.121193,72.933142],[52.978855,72.914075],[52.961319,72.917676],[52.911511,72.907743],[52.734063,72.903294],[52.585927,72.87298],[52.519489,72.82447],[52.468419,72.805174],[52.401173,72.763545],[52.390908,72.723061],[52.410676,72.709809],[52.497489,72.684859],[52.620541,72.679282],[52.659432,72.682585],[52.685737,72.610925],[52.702331,72.603768],[52.697854,72.595857],[52.72527,72.593872],[52.80695,72.5585],[52.795159,72.52721],[52.724105,72.508601],[52.677196,72.486871],[52.735341,72.464974],[52.704833,72.442824],[52.659413,72.426153],[52.700085,72.392719],[52.693715,72.385158],[52.625256,72.360414],[52.586017,72.364343],[52.504002,72.356248],[52.531051,72.32624],[52.524487,72.323852],[52.50047,72.288366],[52.46735,72.275669],[52.396698,72.176489],[52.359074,72.160649],[52.062764,72.144726],[51.903088,72.164571],[51.867211,72.175077],[51.833054,72.173215],[51.796769,72.177686],[51.639591,72.148853],[51.511269,72.075836],[51.494857,72.060881],[51.451703,72.04134],[51.408806,71.996363],[51.391617,71.900105],[51.397076,71.805899],[51.412826,71.724199],[51.503537,71.592607],[51.556675,71.57373],[51.683362,71.548094],[51.8349,71.476099],[52.183082,71.4985],[52.225029,71.510212],[52.191872,71.529897],[52.610092,71.529881],[52.614578,71.490237],[52.671303,71.473413],[52.742581,71.46901],[52.811615,71.487963],[52.891915,71.456253],[52.936043,71.450226],[52.969414,71.437338],[53.004616,71.451614],[53.004376,71.464318],[53.091324,71.482195],[53.103463,71.469178],[53.148346,71.467835],[53.156353,71.479234],[53.249699,71.39359],[53.161892,71.396161],[53.149326,71.378665],[53.166355,71.355264],[53.210053,71.343797],[53.381215,71.3208],[53.385823,71.321274],[53.440578,71.312606],[53.446484,71.253886],[53.633267,71.218308],[53.703225,71.195541],[53.730118,71.191231],[53.772789,71.168616],[53.788723,71.150182],[53.841904,71.140866],[53.805069,71.198776],[53.867432,71.205155],[53.923665,71.186584],[54.104287,71.214456],[54.13675,71.206674],[54.134063,71.179877],[54.111569,71.167517],[54.108345,71.163267],[53.824589,71.123844],[53.683818,71.105928],[53.546372,71.127987],[53.479892,71.115527],[53.49068,71.073273],[53.65944,70.999858],[53.638142,70.933791],[53.546906,70.902243],[53.433663,70.891484],[53.42455,70.846705],[53.48647,70.830904],[53.510914,70.830805],[53.548619,70.816009],[53.635979,70.80806],[53.669102,70.817201],[53.752354,70.788993],[53.83788,70.788794],[53.848855,70.806213],[53.839543,70.819962],[53.964417,70.799506],[53.992119,70.775892],[54.042851,70.761456],[54.312043,70.751988],[54.320331,70.774503],[54.416397,70.736202],[54.446166,70.738346],[54.464306,70.728641],[54.626282,70.666488],[54.717853,70.668136],[54.718071,70.686089],[54.55788,70.753339],[54.55362,70.761296],[54.647988,70.773],[54.748805,70.734966],[54.758103,70.720255],[54.804791,70.695557],[54.957935,70.655586],[55.054459,70.622342],[55.081128,70.617771],[55.096611,70.619137],[55.194058,70.593387],[55.359639,70.637693],[55.362195,70.665718],[55.331841,70.702837],[55.270604,70.71171],[55.437481,70.731891],[55.604935,70.685265],[55.631863,70.668891],[55.81816,70.671516],[55.938088,70.650435],[56.026168,70.648619],[56.12418,70.627866],[56.303242,70.607838],[56.376488,70.59605],[56.391869,70.606822],[56.503277,70.607861],[56.554223,70.620816],[56.460465,70.655898],[56.387635,70.659377],[56.341488,70.647887],[56.284218,70.671447],[56.237969,70.720912],[56.318215,70.741985],[56.431321,70.727665],[56.49535,70.705507],[56.495911,70.700456],[56.55407,70.679703],[56.574752,70.677926],[56.676335,70.642477],[56.775344,70.618641],[56.887825,70.604167],[56.934533,70.603955],[57.12431,70.590389],[57.240933,70.592273],[57.224639,70.610989],[57.175923,70.621151],[56.993226,70.634008],[56.951568,70.679963],[57.04461,70.668777],[57.131791,70.672218],[57.19561,70.648375],[57.299435,70.62515],[57.350418,70.632894],[57.446415,70.697183],[57.463734,70.714358],[57.455872,70.728251],[57.51883,70.740383],[57.616749,70.747502],[57.44815,70.830727],[57.360828,70.845362],[57.318051,70.845285],[57.044589,70.894986],[56.895194,70.929343],[56.810696,70.972666],[56.676544,71.020054],[56.522023,71.093897],[56.393414,71.143262],[56.27863,71.199745],[56.13903,71.284322],[56.098072,71.314559],[56.082535,71.331307],[55.972233,71.407751],[55.892178,71.482836],[55.520974,71.8716],[55.446991,71.901234],[55.387974,71.975388],[55.371105,72.095284],[55.49535,72.191985],[55.493386,72.285955],[55.476436,72.417593],[55.403428,72.499674],[55.477898,72.569587],[55.338489,72.592072],[55.456588,72.579932],[55.57404,72.603562],[55.634552,72.64983],[55.660374,72.692305],[55.706669,72.703315],[55.882802,72.681082],[55.943108,72.709312],[55.894452,72.752223],[55.813134,72.773418],[55.463765,72.804716],[55.4427,72.831154],[55.864563,72.83538],[56.145901,72.829147],[56.208371,72.875238],[56.246453,72.937789],[56.203315,72.977914],[55.994133,72.983751],[55.882287,72.97545],[55.728481,72.976258],[55.70364,72.997675],[55.890194,73.013538],[56.318195,73.021923],[56.360352,73.05863],[56.308033,73.078628],[56.207703,73.082733],[55.97593,73.074165],[55.889737,73.095391],[55.93924,73.111368],[56.040989,73.125346],[56.40223,73.154164],[56.482815,73.176534],[56.507145,73.195969],[56.42252,73.235331],[56.238526,73.260837],[55.937245,73.282949],[55.737778,73.318771]]],[[[54.386376,73.407079],[54.581372,73.444206],[54.880574,73.461259],[54.95015,73.5033],[55.032273,73.600641],[55.08421,73.678596],[55.082528,73.687873],[54.711151,73.646596],[54.512024,73.604532],[54.36684,73.588708],[54.319619,73.559501],[54.278412,73.517383],[54.388943,73.511364],[54.461612,73.473321],[54.209973,73.417486],[54.101094,73.382495],[54.16573,73.365275],[54.239571,73.363131],[54.386376,73.407079]]],[[[55.096726,73.841371],[54.976142,73.925109],[54.890164,73.970553],[54.793221,74.00227],[54.720241,73.982333],[54.601262,73.979616],[54.240406,73.931571],[54.149331,73.891629],[54.109386,73.856425],[54.092755,73.827027],[54.056775,73.805076],[53.79993,73.799811],[53.634133,73.829995],[53.60381,73.818084],[53.606659,73.800177],[53.633271,73.768887],[53.700524,73.733843],[53.961155,73.6997],[54.07283,73.643673],[54.195969,73.627124],[54.337594,73.627902],[54.394925,73.646481],[54.444401,73.685767],[54.549847,73.70546],[54.844365,73.723878],[55.066636,73.748882],[55.096726,73.841371]]]]}}
