{"type":"Feature","properties":{"OBJECTID":595.0,"ECO_NAME":"Registan-North Pakistan sandy desert","BIOME_NUM":13.0,"BIOME_NAME":"Deserts & Xeric Shrublands","REALM":"Palearctic","ECO_BIOME_":"PA13","NNH":3,"ECO_ID":838,"SHAPE_LENG":40.0703296877,"SHAPE_AREA":25.9865051733,"NNH_NAME":"Nature Could Recover","COLOR":"#F6CE5C","COLOR_BIO":"#CC6767","COLOR_NNH":"#F9A91B","LICENSE":"CC-BY 4.0","name":"Registan-North Pakistan sandy desert"},"geometry":{"type":"Polygon","coordinates":[[[66.555542,30.971994],[66.537491,30.96866],[66.52443,30.968103],[66.475815,30.959772],[66.455826,30.958936],[66.428818,30.952439],[66.42141,30.970342],[66.408165,31.025794],[66.409821,31.068004],[66.430512,31.134216],[66.482865,31.238078],[66.506989,31.266666],[66.567711,31.356703],[66.626236,31.420808],[66.650841,31.439658],[66.697373,31.470012],[66.776497,31.512592],[66.838317,31.535387],[66.892846,31.559119],[66.929009,31.571586],[66.959656,31.585113],[66.989251,31.607163],[67.010506,31.638675],[67.007354,31.664244],[66.993844,31.671925],[66.905144,31.64875],[66.810547,31.615151],[66.751969,31.609763],[66.72477,31.626547],[66.723755,31.649394],[66.756035,31.678788],[66.804871,31.704999],[66.843193,31.729071],[66.885987,31.760606],[66.919671,31.778633],[66.986657,31.803208],[67.012688,31.825019],[67.041558,31.838425],[67.055306,31.857973],[67.072616,31.877761],[67.078545,31.90251],[67.034447,31.925314],[66.983727,31.929049],[66.939949,31.934689],[66.899147,31.91618],[66.826027,31.853952],[66.761803,31.792326],[66.737694,31.754892],[66.67794,31.700727],[66.651032,31.686019],[66.638566,31.685178],[66.599778,31.694019],[66.613625,31.756541],[66.599617,31.782808],[66.517342,31.765796],[66.404068,31.738096],[66.363816,31.729651],[66.259972,31.698291],[66.202271,31.685803],[66.111412,31.651023],[66.03199,31.639932],[66.01635,31.650335],[66.010865,31.665718],[66.019623,31.682066],[66.03746,31.697591],[66.064896,31.708038],[66.1139,31.73283],[66.181092,31.770309],[66.224205,31.784678],[66.255028,31.796784],[66.299218,31.816955],[66.340928,31.842686],[66.434998,31.880548],[66.481666,31.895158],[66.525826,31.901001],[66.564148,31.925074],[66.601075,31.960508],[66.60379,31.982176],[66.531853,31.968725],[66.500123,31.949397],[66.393128,31.943604],[66.327431,31.937737],[66.241036,31.910421],[66.19133,31.891311],[66.142876,31.87658],[66.092995,31.858891],[66.009079,31.826013],[65.854828,31.781223],[65.803719,31.773478],[65.747307,31.779694],[65.73362,31.788798],[65.742234,31.820888],[65.748131,31.831313],[65.75972,31.839256],[65.793404,31.857285],[65.824959,31.878034],[65.8601,31.913349],[65.911271,31.949746],[65.948517,31.968016],[66.003479,32.031883],[65.996422,32.06005],[65.948349,32.056807],[65.844414,31.98247],[65.81324,31.973205],[65.769433,31.964519],[65.726876,31.960213],[65.697312,31.952489],[65.669175,31.947724],[65.516144,31.892993],[65.482285,31.876384],[65.444283,31.835148],[65.375138,31.798969],[65.34697,31.779881],[65.287277,31.754367],[65.248459,31.748882],[65.221055,31.752761],[65.207047,31.779028],[65.193749,31.799614],[65.205887,31.81762],[65.174111,31.857012],[65.142067,31.854849],[65.090226,31.838457],[65.045197,31.839714],[64.948037,31.856072],[64.918183,31.879838],[64.906578,31.94494],[64.907692,31.965065],[64.914208,32.014202],[64.910889,32.041195],[64.921662,32.084886],[64.937432,32.131787],[64.95121,32.16566],[64.961083,32.202131],[64.972877,32.222982],[65.01786,32.280445],[65.040688,32.29917],[65.068855,32.318262],[65.096116,32.330125],[65.139046,32.345918],[65.16774,32.360745],[65.187706,32.373551],[65.217507,32.408504],[65.221161,32.451719],[65.231736,32.48251],[65.250473,32.505261],[65.297875,32.52851],[65.352021,32.540759],[65.455979,32.542047],[65.478394,32.534968],[65.529113,32.531234],[65.610137,32.543863],[65.673385,32.569616],[65.731324,32.609338],[65.777329,32.64395],[65.784478,32.658759],[65.815461,32.742489],[65.784729,32.773356],[65.740715,32.751766],[65.685493,32.733716],[65.644341,32.718045],[65.60891,32.714219],[65.539856,32.721017],[65.518349,32.735322],[65.491211,32.780753],[65.49096,32.82657],[65.500794,32.848717],[65.587662,32.930495],[65.617119,32.968289],[65.63192,32.979313],[65.644477,33.023128],[65.626557,33.051996],[65.599396,33.083104],[65.579316,33.100369],[65.559029,33.104729],[65.540909,33.120693],[65.534142,33.117371],[65.511918,33.049986],[65.458732,32.986241],[65.39962,32.897747],[65.372849,32.867295],[65.343421,32.843823],[65.247101,32.751384],[65.199668,32.713807],[65.1381,32.645199],[65.109413,32.630371],[65.081246,32.611282],[65.016769,32.595471],[64.976349,32.588445],[64.937737,32.595864],[64.89518,32.591557],[64.870049,32.576971],[64.834237,32.561663],[64.80362,32.56246],[64.782433,32.559599],[64.792099,32.583165],[64.773797,32.600552],[64.699836,32.559751],[64.676865,32.556768],[64.645409,32.578992],[64.610566,32.599557],[64.58783,32.623802],[64.548141,32.625419],[64.519097,32.613434],[64.50161,32.595067],[64.501023,32.570677],[64.504349,32.543689],[64.497864,32.508877],[64.480172,32.477605],[64.441674,32.454953],[64.395592,32.464734],[64.342942,32.484093],[64.301011,32.518504],[64.281807,32.528667],[64.259537,32.52],[64.241875,32.503052],[64.226487,32.467641],[64.199723,32.437185],[64.172248,32.412418],[64.112739,32.385483],[64.085586,32.343545],[64.069564,32.342462],[64.043976,32.360787],[64.001626,32.369385],[63.960122,32.35656],[63.945672,32.342695],[63.936387,32.33061],[63.909653,32.314482],[63.843636,32.325777],[63.812149,32.333677],[63.807914,32.353444],[63.793183,32.371071],[63.737641,32.370186],[63.708282,32.375363],[63.653965,32.364537],[63.603447,32.381176],[63.559144,32.391074],[63.533375,32.410819],[63.513855,32.438147],[63.509625,32.457913],[63.542786,32.480207],[63.580555,32.494213],[63.600693,32.5056],[63.634758,32.535113],[63.662925,32.554201],[63.69521,32.583592],[63.737267,32.606484],[63.761879,32.625332],[63.787217,32.652823],[63.782631,32.675433],[63.752747,32.684873],[63.731705,32.666266],[63.703743,32.660079],[63.676133,32.651053],[63.649044,32.637768],[63.614281,32.613938],[63.568837,32.589383],[63.509324,32.562448],[63.508065,32.558069],[63.474209,32.541461],[63.300801,32.448115],[63.260872,32.422503],[63.220067,32.403991],[63.180756,32.417094],[63.177926,32.425493],[63.191883,32.457948],[63.184472,32.488957],[63.167431,32.510722],[63.134686,32.514243],[63.106202,32.512318],[63.092102,32.495613],[63.067845,32.473924],[63.039883,32.467736],[62.996632,32.469113],[62.977253,32.480698],[62.941677,32.492619],[62.876885,32.493973],[62.825432,32.489067],[62.799981,32.491646],[62.775963,32.497185],[62.721566,32.530753],[62.68882,32.53427],[62.613694,32.532062],[62.558297,32.515434],[62.503106,32.511707],[62.431922,32.521224],[62.418412,32.528907],[62.379101,32.542006],[62.342586,32.532382],[62.306458,32.53424],[62.290432,32.533156],[62.241841,32.534171],[62.233113,32.532149],[62.191669,32.547972],[62.150929,32.558111],[62.062469,32.562166],[62.049687,32.578493],[62.040641,32.593636],[62.081829,32.62363],[62.128323,32.639659],[62.237305,32.658473],[62.297696,32.678304],[62.367192,32.711644],[62.406739,32.72577],[62.444653,32.724034],[62.490208,32.718514],[62.545781,32.733727],[62.593883,32.751297],[62.630459,32.789572],[62.65168,32.80676],[62.697823,32.825632],[62.783837,32.841462],[62.832287,32.856194],[62.886113,32.885608],[62.905727,32.901255],[62.955051,32.908881],[63.010623,32.92409],[63.059105,32.953145],[63.070233,32.994],[63.05745,33.010322],[63.023448,33.00946],[62.96627,32.99271],[62.928359,32.994446],[62.902356,32.986962],[62.845032,32.985958],[62.803212,32.990296],[62.769242,33.003757],[62.686707,33.032561],[62.632423,33.036055],[62.568394,33.060381],[62.51336,33.128277],[62.497891,33.137261],[62.49004,33.128136],[62.484841,33.11203],[62.476754,33.075677],[62.462449,33.046065],[62.414109,33.001266],[62.375988,32.990097],[62.339303,32.981892],[62.292312,32.984448],[62.20018,33.018333],[62.15284,33.023731],[62.107663,33.040732],[62.059276,33.054655],[62.039723,33.067655],[62.011269,33.080056],[61.948081,33.082956],[61.881943,33.036951],[61.812733,32.972123],[61.775104,32.942373],[61.753155,32.916541],[61.736657,32.861001],[61.6997,32.811239],[61.655098,32.765262],[61.634926,32.739552],[61.617123,32.738351],[61.600574,32.741527],[61.569115,32.763752],[61.556191,32.795825],[61.56107,32.829095],[61.567524,32.849583],[61.580048,32.879074],[61.601826,32.906325],[61.627686,32.929556],[61.665866,32.969372],[61.695179,33.02291],[61.676915,33.054621],[61.650734,33.048556],[61.557744,33.016498],[61.52155,32.989704],[61.497673,32.9795],[61.452988,32.977917],[61.43557,32.993038],[61.254227,32.885314],[61.256694,32.837189],[61.25275,32.825468],[61.224377,32.793475],[61.2019,32.771903],[61.103508,32.710835],[61.077469,32.689024],[60.98494,32.624054],[60.980301,32.618011],[60.955899,32.612068],[60.915127,32.607884],[60.888024,32.60899],[60.880059,32.620045],[60.611199,32.492764],[60.560692,32.459073],[60.473828,32.406413],[60.481408,32.357965],[60.478775,32.31721],[60.432843,32.311468],[60.412041,32.277793],[60.38609,32.206266],[60.358223,32.114045],[60.342576,31.976248],[60.337899,31.846699],[60.316231,31.680545],[60.255135,31.621895],[60.216656,31.674551],[60.173385,31.723051],[60.158982,31.84466],[60.083661,31.860136],[60.061253,31.79689],[60.079472,31.709804],[60.060421,31.600348],[60.009133,31.616301],[60.033894,31.437726],[60.054863,31.399757],[60.099171,31.197209],[60.08564,31.088161],[60.044373,31.089866],[60.032258,30.980505],[60.031643,30.848911],[60.018127,30.753096],[60.0029,30.617375],[59.974877,30.517441],[59.97993,30.413767],[59.976468,30.333954],[60.038994,30.246621],[60.040749,30.208809],[60.024205,30.194148],[60.095997,30.163954],[60.121953,30.079835],[60.119225,29.986491],[60.111275,29.897856],[60.115199,29.827485],[60.151036,29.761408],[60.243149,29.776036],[60.401249,29.688588],[60.469017,29.70943],[60.433491,29.805633],[60.453804,29.872453],[60.548676,29.885249],[60.645896,29.838961],[60.71352,29.778729],[60.739796,29.710466],[60.758976,29.633803],[60.750775,29.50672],[60.752434,29.438942],[60.784687,29.314079],[60.832776,29.273498],[60.892734,29.337227],[60.925328,29.432991],[60.96737,29.44919],[60.996155,29.271722],[61.017956,29.168211],[61.051471,29.035197],[61.128986,28.947464],[61.185837,28.816632],[61.250901,28.709969],[61.294014,28.621763],[61.315529,28.500255],[61.314377,28.384096],[61.30193,28.295712],[61.331706,28.190667],[61.335278,28.11215],[61.383503,27.984209],[61.418332,27.924383],[61.457161,27.96509],[61.46632,28.249474],[61.482743,28.318048],[61.53217,28.339211],[61.580349,28.271892],[61.58347,28.114954],[61.601384,27.977667],[61.631203,27.92409],[61.635655,27.879677],[61.666611,27.834795],[61.720311,27.810455],[61.795804,27.82494],[61.842057,27.840517],[61.956696,27.781878],[62.013623,27.77395],[62.068997,27.745757],[62.121624,27.682446],[62.202462,27.535149],[62.276314,27.428124],[62.297135,27.357221],[62.312088,27.284314],[62.329461,27.271396],[62.390774,27.248688],[62.479374,27.201226],[62.60278,27.217047],[62.681889,27.267673],[62.783143,27.315135],[62.79758,27.33112],[62.801926,27.3278],[62.854866,27.365697],[62.890583,27.377602],[62.946145,27.369666],[62.997737,27.38554],[63.021549,27.405383],[63.061238,27.425225],[63.100922,27.433163],[63.168389,27.425225],[63.219982,27.409351],[63.251732,27.409351],[63.29142,27.421258],[63.331105,27.441099],[63.358887,27.433163],[63.418415,27.429194],[63.454136,27.429194],[63.477948,27.445068],[63.497792,27.445068],[63.628758,27.456973],[63.684319,27.472847],[63.724007,27.472847],[63.767662,27.445068],[63.799412,27.41332],[63.799412,27.386481],[63.809712,27.384896],[63.836815,27.363216],[63.853073,27.330695],[63.885598,27.287335],[63.912696,27.260235],[63.988583,27.227716],[64.021102,27.178936],[64.024971,27.181455],[64.037041,27.202794],[64.038369,27.231594],[64.059128,27.258019],[64.074226,27.292937],[64.093102,27.31653],[64.108208,27.327854],[64.139351,27.375983],[64.216736,27.453368],[64.250611,27.462781],[64.264373,27.462896],[64.311318,27.471336],[64.339028,27.478075],[64.449432,27.496808],[64.58944,27.557919],[64.608529,27.55688],[64.71991,27.542567],[64.794129,27.549521],[64.816529,27.559299],[64.844819,27.577003],[64.922783,27.603003],[64.945916,27.626489],[64.999924,27.664787],[65.01117,27.721914],[65.005607,27.771705],[64.97609,27.802379],[64.993042,27.808031],[64.999718,27.814704],[65.026405,27.828049],[65.033081,27.828049],[65.073121,27.848071],[65.153206,27.901454],[65.206589,27.921473],[65.279999,27.968186],[65.318528,28.006709],[65.347657,28.008994],[65.37484,28.022062],[65.387718,28.034142],[65.416459,28.054511],[65.432854,28.07062],[65.455132,28.10612],[65.464158,28.126568],[65.464858,28.138968],[65.460328,28.165306],[65.462594,28.177427],[65.469437,28.187585],[65.498688,28.213455],[65.509507,28.225345],[65.521561,28.256734],[65.541054,28.285161],[65.557824,28.303092],[65.567681,28.33799],[65.57502,28.35388],[65.580468,28.360628],[65.583603,28.367668],[65.586159,28.380928],[65.58609,28.393347],[65.584008,28.400297],[65.578148,28.403917],[65.566308,28.407697],[65.554573,28.407336],[65.545929,28.405967],[65.529999,28.397448],[65.512894,28.392178],[65.488831,28.389387],[65.463494,28.394457],[65.42302,28.413486],[65.407914,28.413436],[65.388184,28.407527],[65.376244,28.401416],[65.356553,28.396647],[65.303078,28.393927],[65.280762,28.388298],[65.237107,28.367359],[65.222924,28.363359],[65.188149,28.358949],[65.166092,28.360889],[65.14315,28.367908],[65.134644,28.378237],[65.132058,28.387038],[65.135277,28.397988],[65.14605,28.408986],[65.170433,28.414117],[65.194581,28.411897],[65.214127,28.412317],[65.221764,28.414657],[65.223824,28.421956],[65.217377,28.447635],[65.22033,28.458144],[65.228974,28.467343],[65.251343,28.481484],[65.259201,28.490704],[65.262352,28.499133],[65.26532,28.517673],[65.27224,28.529682],[65.278923,28.534561],[65.304077,28.546322],[65.313248,28.555051],[65.319893,28.566371],[65.32499,28.58577],[65.337959,28.606788],[65.320137,28.59556],[65.30423,28.58304],[65.293343,28.577669],[65.283471,28.57696],[65.279908,28.583689],[65.279328,28.59288],[65.296532,28.634258],[65.295464,28.642958],[65.286797,28.651746],[65.27961,28.653937],[65.261544,28.654656],[65.241027,28.652735],[65.216614,28.638637],[65.201859,28.632248],[65.220253,28.651017],[65.245713,28.669316],[65.255578,28.674407],[65.308327,28.688955],[65.30674,28.708554],[65.308777,28.730104],[65.304299,28.736663],[65.29795,28.741884],[65.281853,28.744604],[65.260079,28.741943],[65.219193,28.722074],[65.165657,28.690336],[65.147698,28.683885],[65.136719,28.683475],[65.104317,28.690485],[65.086776,28.689306],[65.055558,28.676047],[65.036637,28.672146],[65.017631,28.665246],[64.992782,28.646766],[64.988564,28.645258],[64.942803,28.608188],[64.935173,28.59779],[64.917267,28.558221],[64.905762,28.548141],[64.893631,28.543602],[64.879441,28.540022],[64.857491,28.538231],[64.824462,28.532082],[64.810463,28.534472],[64.789078,28.534262],[64.769333,28.527351],[64.695374,28.493134],[64.686738,28.492174],[64.678688,28.493033],[64.677468,28.496054],[64.67836,28.499703],[64.701638,28.521042],[64.704888,28.525332],[64.706139,28.532661],[64.704674,28.535912],[64.700524,28.536921],[64.683037,28.536381],[64.668763,28.529112],[64.65561,28.524792],[64.638619,28.513673],[64.615624,28.501973],[64.609467,28.496133],[64.606629,28.487913],[64.606942,28.480324],[64.602157,28.476973],[64.591629,28.473063],[64.566491,28.468305],[64.560761,28.468194],[64.553031,28.471574],[64.545662,28.478394],[64.53434,28.493343],[64.530991,28.494564],[64.515511,28.480854],[64.490676,28.448496],[64.471711,28.430494],[64.436272,28.409597],[64.420311,28.396357],[64.384247,28.380978],[64.351783,28.373338],[64.306717,28.372138],[64.271462,28.377408],[64.227738,28.377529],[64.191674,28.382107],[64.15255,28.378908],[64.126351,28.382597],[64.095879,28.381987],[64.081597,28.383387],[64.059066,28.388377],[64.039574,28.389397],[64.027131,28.391917],[63.998219,28.403208],[63.974041,28.404536],[63.95982,28.409137],[63.952759,28.407645],[63.934639,28.412317],[63.92175,28.418037],[63.91137,28.420047],[63.90136,28.426645],[63.892521,28.439896],[63.881569,28.451565],[63.871811,28.470794],[63.864731,28.480564],[63.86213,28.493473],[63.863121,28.503793],[63.868069,28.516131],[63.891072,28.543802],[63.90762,28.574561],[63.896099,28.597058],[63.886032,28.601817],[63.971814,28.625212],[63.998509,28.645231],[64.051896,28.671922],[64.11863,28.698616],[64.165344,28.705289],[64.218727,28.725309],[64.265442,28.752001],[64.325509,28.81206],[64.369256,28.84791],[64.400673,28.83781],[64.437134,28.8125],[64.44796,28.807],[64.467484,28.803851],[64.503037,28.804961],[64.52568,28.810931],[64.5672,28.829149],[64.591904,28.843109],[64.607094,28.853819],[64.617417,28.858658],[64.659089,28.871329],[64.712532,28.884187],[64.769577,28.912346],[64.839814,28.942935],[64.862954,28.955275],[64.910927,28.975303],[64.927483,28.977454],[64.95356,28.974545],[65.00164,28.963514],[65.01529,28.964794],[65.0448,28.970984],[65.057266,28.976422],[65.06292,28.981113],[65.078568,28.987624],[65.17936,29.019592],[65.204133,29.032071],[65.227943,29.046861],[65.251411,29.05316],[65.24923,29.058969],[65.250892,29.0574],[65.283402,29.057871],[65.301369,29.065731],[65.30095,29.06769],[65.346527,29.08785],[65.351128,29.137017],[65.347748,29.148818],[65.342347,29.155237],[65.353783,29.159216],[65.362267,29.174366],[65.374138,29.183705],[65.394288,29.189835],[65.419388,29.195145],[65.442833,29.205314],[65.457421,29.217094],[65.461571,29.223194],[65.464058,29.234152],[65.458183,29.238673],[65.450844,29.238644],[65.43837,29.234843],[65.411049,29.219034],[65.389397,29.200316],[65.381157,29.196856],[65.367508,29.196755],[65.360718,29.204975],[65.356324,29.214513],[65.344613,29.217125],[65.335877,29.215055],[65.318108,29.217209],[65.387299,29.27775],[65.44468,29.294964],[65.456162,29.30644],[65.496322,29.35885],[65.535294,29.374448],[65.581093,29.398457],[65.648423,29.413797],[65.693123,29.428146],[65.712143,29.437475],[65.732888,29.450665],[65.759194,29.464605],[65.806221,29.495604],[65.801598,29.499264],[65.79979,29.503094],[65.798768,29.515693],[65.793679,29.525823],[65.796708,29.532163],[65.812157,29.546652],[65.834313,29.559132],[65.839051,29.56348],[65.8424,29.57351],[65.850579,29.586291],[65.858689,29.60482],[65.871842,29.627019],[65.891007,29.654528],[65.896843,29.667207],[65.901841,29.693866],[65.900048,29.701854],[65.900864,29.706016],[65.897118,29.728844],[65.894333,29.731484],[65.884407,29.757473],[65.901352,29.761671],[65.913125,29.818586],[65.986138,30.001116],[66.022644,30.086295],[66.083497,30.189731],[66.113915,30.256657],[66.138253,30.335754],[66.211266,30.45744],[66.253861,30.536536],[66.291298,30.552583],[66.301377,30.537843],[66.305542,30.516733],[66.31276,30.508955],[66.329711,30.501457],[66.338883,30.494789],[66.34027,30.489787],[66.34256,30.494037],[66.37423,30.520958],[66.407485,30.546296],[66.418572,30.568466],[66.431243,30.582718],[66.441368,30.591153],[66.42733,30.588742],[66.418251,30.589477],[66.410241,30.592952],[66.390732,30.609359],[66.38723,30.616217],[66.386712,30.624172],[66.390961,30.639645],[66.387092,30.64935],[66.386718,30.656001],[66.396599,30.684189],[66.406593,30.701686],[66.429093,30.731647],[66.462433,30.769027],[66.494294,30.790254],[66.520073,30.820424],[66.525254,30.833024],[66.532753,30.861574],[66.536522,30.890193],[66.539673,30.901111],[66.551491,30.92867],[66.551293,30.93233],[66.558197,30.952579],[66.569573,30.969089],[66.57367,30.980253],[66.555542,30.971994]],[[66.141204,31.277779],[66.097572,31.267672],[66.071426,31.275932],[66.059075,31.280729],[66.043351,31.299818],[66.030045,31.320405],[66.031891,31.349174],[66.042252,31.367061],[66.060646,31.39265],[66.084725,31.415762],[66.132508,31.450496],[66.169579,31.470186],[66.205391,31.485495],[66.240296,31.49358],[66.277718,31.510429],[66.321701,31.517696],[66.382377,31.506036],[66.397461,31.485572],[66.405777,31.461784],[66.408577,31.439057],[66.403695,31.405784],[66.392952,31.376414],[66.38276,31.357107],[66.367234,31.337438],[66.350479,31.327714],[66.31379,31.319509],[66.292222,31.305161],[66.264435,31.297558],[66.203171,31.284826],[66.141204,31.277779]]]}}
