{"type":"Feature","properties":{"OBJECTID":656.0,"ECO_NAME":"South Sahara desert","BIOME_NUM":13.0,"BIOME_NAME":"Deserts & Xeric Shrublands","REALM":"Palearctic","ECO_BIOME_":"PA13","NNH":2,"ECO_ID":842,"SHAPE_LENG":174.069849621,"SHAPE_AREA":253.97401953,"NNH_NAME":"Nature Could Reach Half Protected","COLOR":"#DF8245","COLOR_BIO":"#CC6767","COLOR_NNH":"#7BC141","LICENSE":"CC-BY 4.0","name":"South Sahara desert"},"geometry":{"type":"MultiPolygon","coordinates":[[[[36.253609,22.607499],[36.25342,22.60029],[36.253452,22.600216],[36.253609,22.607499]]],[[[36.193127,22.648738],[36.193649,22.647036],[36.194703,22.648219],[36.193127,22.648738]]],[[[36.184025,22.651737],[36.183766,22.651822],[36.183482,22.648706],[36.184025,22.651737]]],[[[3.483311,27.0199],[3.449104,27.054728],[3.413908,27.083485],[3.36473,27.115324],[3.303774,27.145306],[3.261935,27.161422],[3.19716,27.180954],[3.156839,27.190424],[3.099356,27.201024],[3.015122,27.21153],[2.959007,27.215816],[2.853251,27.219177],[2.715826,27.216317],[2.634073,27.21159],[2.539642,27.20389],[2.438561,27.193455],[2.261054,27.170912],[2.032365,27.136539],[1.520736,27.053779],[1.279654,27.020604],[1.075548,27.001141],[0.525826,26.966413],[0.301815,26.947496],[0.207964,26.937405],[0.107764,26.92415],[-0.031568,26.900813],[-0.130285,26.88049],[-0.244985,26.851433],[-0.316301,26.830189],[-0.393621,26.803897],[-0.442445,26.785375],[-0.5247,26.750256],[-0.565373,26.730823],[-0.630179,26.696514],[-0.684186,26.664916],[-0.746683,26.625352],[-0.827068,26.570451],[-0.923274,26.500002],[-1.192919,26.294285],[-1.382047,26.163351],[-2.381927,25.601714],[-2.469996,25.567389],[-2.575059,25.531591],[-2.658028,25.50706],[-2.760092,25.481026],[-2.872751,25.455938],[-2.976214,25.439272],[-3.090656,25.423617],[-3.204689,25.411898],[-3.339266,25.402517],[-3.490589,25.39703],[-3.630529,25.395419],[-3.82776,25.399849],[-3.998848,25.408021],[-4.195609,25.421186],[-4.40056,25.437863],[-4.987723,25.489909],[-5.162667,25.503009],[-5.328517,25.512935],[-5.429307,25.517055],[-5.562059,25.51917],[-5.785283,25.51785],[-5.858642,25.51569],[-5.913156,25.516477],[-5.927318,25.514778],[-5.940935,25.516275],[-6.14379,25.517467],[-6.319248,25.524988],[-6.454193,25.537208],[-6.56749,25.553266],[-6.657372,25.570648],[-6.76139,25.595222],[-6.846967,25.623589],[-6.896988,25.643133],[-6.952189,25.6691],[-7.0355,25.71679],[-7.208209,25.826745],[-7.257645,25.854581],[-7.29936,25.875089],[-7.350673,25.895669],[-7.395988,25.908775],[-7.447747,25.917267],[-7.500862,25.920672],[-7.555239,25.920179],[-7.61919,25.915989],[-7.861898,25.886592],[-7.911926,25.881921],[-7.960326,25.879567],[-7.99915,25.880108],[-8.045064,25.885178],[-8.075909,25.89282],[-8.101505,25.903347],[-10.157155,25.903347],[-11.97488,25.842757],[-12.214731,25.798164],[-12.400452,25.73022],[-12.620202,25.643587],[-12.784543,25.573524],[-13.031441,25.457782],[-13.160033,25.39142],[-13.294412,25.316597],[-13.44007,25.227439],[-13.500086,25.185046],[-13.565772,25.132803],[-13.633631,25.071776],[-13.700559,25.003807],[-13.762539,24.933227],[-13.82628,24.852148],[-13.896475,24.751767],[-13.936615,24.68862],[-13.980606,24.614196],[-14.032803,24.518285],[-14.078138,24.427804],[-14.130179,24.31514],[-14.174445,24.211514],[-14.211324,24.119516],[-14.288688,23.909605],[-14.341847,23.752574],[-14.368286,23.69687],[-14.490878,23.386262],[-14.599944,23.090873],[-14.868067,22.595527],[-15.208901,22.03656],[-15.417946,21.686637],[-15.658802,21.345803],[-15.877286,21.15962],[-15.882951,21.157555],[-15.983088,21.144974],[-16.187082,21.136245],[-16.266778,21.129527],[-16.298732,21.124515],[-16.336533,21.115064],[-16.355357,21.107831],[-16.378609,21.094024],[-16.32815,20.99147],[-16.24058,20.83537],[-16.224,20.77587],[-16.13396,20.63855],[-16.02662,20.51492],[-15.93986,20.38941],[-15.88264,20.25357],[-15.87002,20.13075],[-15.83893,20.00708],[-15.83132,19.80498],[-15.839581,19.625404],[-15.83933,19.58377],[-15.8545,19.48401],[-15.85701,19.36495],[-15.8297,19.28004],[-15.76117,19.23834],[-15.71965,19.22569],[-15.66977,19.21346],[-15.58438,19.17132],[-14.975082,19.106681],[-14.73146,19.084462],[-14.692742,19.08738],[-14.649118,19.098475],[-14.603906,19.114996],[-14.576454,19.127758],[-14.53659,19.150307],[-14.497931,19.177095],[-14.466302,19.202764],[-14.432095,19.234914],[-14.410173,19.258008],[-14.3685,19.307643],[-14.330675,19.35962],[-14.295089,19.414893],[-14.252745,19.489017],[-14.211355,19.570282],[-14.180348,19.636634],[-14.106677,19.810152],[-13.990785,20.1079],[-13.931657,20.252275],[-13.873921,20.38132],[-13.833077,20.46386],[-13.794641,20.534522],[-13.753399,20.602827],[-13.711607,20.664404],[-13.691093,20.69195],[-13.652294,20.739494],[-13.607807,20.787145],[-13.557038,20.833344],[-13.525972,20.85768],[-13.494201,20.879722],[-13.442529,20.909901],[-13.381625,20.937321],[-13.254816,20.980763],[-13.106032,21.010519],[-13.09882,21.0253],[-13.0994,21.03037],[-13.10311,21.03807],[-13.1015,21.04972],[-13.0968,21.05925],[-13.10004,21.06554],[-13.09788,21.07214],[-13.08081,21.0942],[-13.06944,21.09734],[-13.0621,21.10495],[-13.063,21.10751],[-13.06667,21.10784],[-13.07907,21.10266],[-13.08173,21.10387],[-13.08126,21.11121],[-13.07271,21.13442],[-13.07248,21.142],[-13.07528,21.14667],[-13.07297,21.14982],[-13.06614,21.14895],[-13.06227,21.15528],[-13.06028,21.17268],[-13.05466,21.17965],[-13.05708,21.18869],[-13.05254,21.19292],[-13.04271,21.19381],[-13.04033,21.19971],[-13.0418,21.20355],[-13.0046,21.23456],[-12.97702,21.22274],[-12.88641,21.20698],[-12.84702,21.23849],[-12.78399,21.22668],[-12.69732,21.2188],[-12.68156,21.23456],[-12.65398,21.27001],[-12.60671,21.27395],[-12.55155,21.25031],[-12.52792,21.26213],[-12.5161,21.28577],[-12.46882,21.28971],[-12.40185,21.28183],[-12.35458,21.32122],[-12.29155,21.3291],[-12.20882,21.28971],[-12.16154,21.28971],[-12.13003,21.30547],[-12.05912,21.30152],[-12.00396,21.28971],[-11.94487,21.30941],[-11.90548,21.29759],[-11.90665,21.29725],[-11.87545,21.28045],[-11.87443,21.26314],[-11.87333,21.26297],[-11.87333,21.2439],[-11.88968,21.2167],[-11.91131,21.19919],[-11.90255,21.19444],[-11.90208,21.18871],[-11.90366,21.18521],[-11.9147,21.17909],[-11.91054,21.17326],[-11.90972,21.16456],[-11.91514,21.14616],[-11.9151,21.06672],[-11.91691,21.05289],[-11.91039,21.01727],[-11.9107,21.01266],[-11.91414,21.00657],[-11.92291,20.99915],[-11.94626,20.98916],[-11.95362,20.98339],[-11.96338,20.96996],[-11.98242,20.95621],[-11.99446,20.945],[-12.0,20.94314],[-12.0105,20.92864],[-12.01108,20.92284],[-12.00909,20.91706],[-12.00242,20.9071],[-11.99847,20.89593],[-11.98807,20.88128],[-11.99059,20.87589],[-11.9981,20.87164],[-12.0,20.86736],[-12.0074,20.85904],[-12.01065,20.85065],[-12.01758,20.81548],[-12.02127,20.80848],[-12.01845,20.79896],[-12.01068,20.78446],[-12.01041,20.77847],[-12.01312,20.77144],[-12.02112,20.76664],[-12.02923,20.7653],[-12.03505,20.76664],[-12.04991,20.77448],[-12.05766,20.77634],[-12.06567,20.78465],[-12.07009,20.7841],[-12.07292,20.78029],[-12.06552,20.76878],[-12.07148,20.75955],[-12.082,20.75944],[-12.09286,20.76301],[-12.09708,20.7613],[-12.09673,20.75762],[-12.09161,20.75056],[-12.09197,20.74712],[-12.094279,20.744509],[-11.132167,20.183277],[-9.507147,19.793272],[-7.362121,18.948262],[-7.023777,18.763711],[-6.517302,18.459077],[-6.384611,18.383244],[-6.249374,18.311095],[-6.170295,18.27194],[-6.087542,18.233748],[-6.025489,18.207149],[-5.844504,18.139489],[-5.703599,18.092665],[-5.613203,18.06532],[-5.32284,17.987675],[-5.166667,17.952738],[-5.081222,17.935129],[-4.962936,17.91377],[-4.785843,17.884864],[-4.678268,17.870254],[-4.456592,17.847916],[-4.261157,17.831919],[-4.153544,17.826752],[-3.940042,17.822316],[-3.788331,17.823951],[-3.641513,17.829426],[-3.523834,17.836658],[-3.298919,17.857815],[-2.965632,17.908168],[-2.875881,17.92593],[-2.752976,17.953385],[-2.617413,17.988118],[-2.529948,18.013166],[-2.233278,18.114774],[-2.063669,18.18414],[-1.698552,18.359252],[-1.487181,18.478409],[-1.282597,18.599304],[-1.081015,18.730832],[-0.983949,18.79811],[-0.831116,18.908484],[-0.741754,18.98409],[-0.642117,19.081448],[-0.533365,19.204209],[-0.336269,19.461553],[-0.111004,19.78095],[-0.003089,19.921071],[0.080442,20.02355],[0.184464,20.137794],[0.296525,20.244645],[0.364783,20.296283],[0.429525,20.340721],[0.50424,20.3841],[0.61225,20.4326],[0.691362,20.458607],[0.757011,20.475898],[0.892577,20.502266],[0.966473,20.510556],[1.023262,20.51891],[1.29153,20.537641],[1.716356,20.55714],[2.473387,20.56861],[3.484791,20.532065],[3.834995,20.480642],[4.431844,20.288168],[4.655243,20.174223],[5.638039,19.533269],[7.130357,18.757264],[7.221197,18.721292],[7.353257,18.680147],[7.471696,18.650325],[8.641738,18.43759],[8.64029,18.44343],[8.64295,18.46199],[8.64136,18.46866],[8.63682,18.47148],[8.61907,18.47606],[8.61433,18.48162],[8.61226,18.48945],[8.61558,18.50364],[8.6151,18.52178],[8.62164,18.52422],[8.63389,18.522],[8.63875,18.52539],[8.64072,18.52856],[8.64234,18.54278],[8.65872,18.54212],[8.66616,18.53973],[8.68351,18.54042],[8.69176,18.54514],[8.70262,18.54705],[8.70771,18.54952],[8.71564,18.54781],[8.72463,18.55366],[8.73357,18.55515],[8.74111,18.56102],[8.75004,18.56182],[8.75295,18.56339],[8.75468,18.56681],[8.74912,18.5818],[8.7441,18.58463],[8.74144,18.5842],[8.73387,18.57672],[8.72613,18.57476],[8.71569,18.56893],[8.70843,18.5665],[8.69083,18.56558],[8.67714,18.56805],[8.66588,18.57278],[8.65519,18.58347],[8.65553,18.59058],[8.6487,18.60261],[8.6531,18.60737],[8.66703,18.60375],[8.66693,18.61611],[8.66294,18.62216],[8.64113,18.63092],[8.63404,18.64089],[8.63701,18.64659],[8.65524,18.65807],[8.67622,18.67662],[8.6975,18.6993],[8.69659,18.70298],[8.67141,18.69527],[8.66636,18.69625],[8.65872,18.70141],[8.6536,18.71547],[8.65098,18.7178],[8.64833,18.71783],[8.64323,18.71399],[8.63161,18.71138],[8.62951,18.69901],[8.62319,18.69473],[8.62096,18.69062],[8.62491,18.67888],[8.62287,18.6711],[8.62357,18.6681],[8.62831,18.66345],[8.62053,18.65781],[8.60888,18.63363],[8.60276,18.62682],[8.59324,18.61754],[8.58747,18.61829],[8.58439,18.62291],[8.58399,18.6282],[8.58698,18.63596],[8.59602,18.64504],[8.59678,18.64824],[8.5956,18.65078],[8.58663,18.6463],[8.5808,18.64631],[8.57442,18.65241],[8.57048,18.66394],[8.57113,18.67678],[8.56937,18.69012],[8.56493,18.7005],[8.5566,18.70932],[8.55085,18.71169],[8.54708,18.71839],[8.54516,18.7191],[8.5414,18.72717],[8.5402,18.74647],[8.53812,18.75292],[8.53191,18.75759],[8.52852,18.75671],[8.52387,18.75126],[8.51761,18.75271],[8.5154,18.74883],[8.52173,18.71639],[8.5207,18.7109],[8.51114,18.71721],[8.50828,18.70095],[8.50458,18.69411],[8.49871,18.68775],[8.49361,18.68505],[8.46437,18.69825],[8.46122,18.69713],[8.4585,18.69143],[8.45631,18.69008],[8.44861,18.69085],[8.44197,18.70011],[8.43616,18.69903],[8.42696,18.69477],[8.42214,18.6946],[8.42413,18.67989],[8.42311,18.67531],[8.41873,18.67168],[8.42101,18.6611],[8.41976,18.65744],[8.40988,18.65733],[8.40828,18.66469],[8.40912,18.67478],[8.4082,18.67823],[8.40604,18.67894],[8.40121,18.67808],[8.39584,18.67171],[8.39098,18.66901],[8.38398,18.66794],[8.37656,18.67262],[8.3715,18.67313],[8.36616,18.66952],[8.36146,18.65993],[8.35867,18.64734],[8.35549,18.64393],[8.35261,18.64442],[8.35024,18.64812],[8.35197,18.6722],[8.34621,18.67431],[8.34233,18.67253],[8.33962,18.66705],[8.33551,18.64575],[8.34184,18.60988],[8.34081,18.60392],[8.33643,18.60007],[8.32727,18.59994],[8.32321,18.60298],[8.31613,18.61567],[8.31136,18.61962],[8.30557,18.61922],[8.30322,18.62407],[8.30495,18.62864],[8.3159,18.63793],[8.32033,18.64592],[8.32061,18.6489],[8.31848,18.65282],[8.31416,18.65424],[8.30788,18.65316],[8.2938,18.64344],[8.28366,18.64194],[8.28171,18.64036],[8.27746,18.62572],[8.2716,18.61958],[8.26265,18.61623],[8.24793,18.61409],[8.24385,18.6162],[8.24497,18.6198],[8.26134,18.62864],[8.26259,18.63298],[8.2607,18.63668],[8.25591,18.63856],[8.24142,18.63619],[8.23203,18.63651],[8.22743,18.63427],[8.22449,18.62993],[8.22064,18.63066],[8.21593,18.64104],[8.20589,18.64848],[8.18906,18.65278],[8.16858,18.65276],[8.1638,18.65602],[8.16217,18.66177],[8.16299,18.6714],[8.1559,18.68501],[8.15763,18.68845],[8.16102,18.69024],[8.17162,18.68968],[8.1822,18.68659],[8.19753,18.67772],[8.20553,18.68085],[8.20798,18.68564],[8.20401,18.69739],[8.19642,18.70894],[8.1972,18.7149],[8.20708,18.71411],[8.20519,18.71803],[8.2004,18.72084],[8.19582,18.72134],[8.18722,18.72854],[8.17661,18.7282],[8.174,18.73212],[8.17154,18.7505],[8.1754,18.76569],[8.17751,18.76766],[8.18813,18.76823],[8.20668,18.76622],[8.21002,18.76366],[8.2169,18.75326],[8.23089,18.75265],[8.24023,18.74751],[8.24927,18.7364],[8.26582,18.7282],[8.27305,18.72767],[8.28273,18.73101],[8.28641,18.7365],[8.28771,18.74472],[8.29064,18.74791],[8.29665,18.74647],[8.30788,18.73809],[8.31605,18.73524],[8.3166,18.74097],[8.31379,18.74835],[8.30359,18.76269],[8.30267,18.76729],[8.30442,18.77232],[8.31049,18.77616],[8.31278,18.78623],[8.31598,18.79194],[8.32375,18.79759],[8.33587,18.80205],[8.34432,18.80265],[8.35223,18.79751],[8.3568,18.79723],[8.36463,18.80656],[8.36949,18.8088],[8.37743,18.80779],[8.38131,18.8089],[8.37633,18.81607],[8.36672,18.81985],[8.3605,18.82427],[8.35337,18.83353],[8.34494,18.83477],[8.33445,18.84613],[8.33274,18.86119],[8.33495,18.86793],[8.33831,18.86721],[8.34643,18.85909],[8.35053,18.8588],[8.3569,18.86701],[8.36395,18.87083],[8.3724,18.87212],[8.38108,18.8711],[8.38467,18.86831],[8.38817,18.85817],[8.3874,18.83477],[8.39191,18.82783],[8.40051,18.82062],[8.40555,18.81873],[8.40991,18.82028],[8.42028,18.82017],[8.42578,18.81574],[8.43405,18.80211],[8.43388,18.78811],[8.44013,18.766],[8.44368,18.74117],[8.44722,18.73494],[8.4513,18.7342],[8.45907,18.73733],[8.46581,18.73702],[8.46824,18.7386],[8.46908,18.74708],[8.4613,18.76209],[8.46352,18.76596],[8.47703,18.76627],[8.47998,18.77059],[8.47647,18.77982],[8.4743,18.77984],[8.45899,18.78966],[8.45522,18.79705],[8.45436,18.80532],[8.45701,18.80552],[8.4738,18.79775],[8.48953,18.79702],[8.5047,18.79968],[8.51522,18.81104],[8.51788,18.81169],[8.52028,18.81029],[8.52757,18.79574],[8.52972,18.79388],[8.53286,18.79431],[8.53778,18.80159],[8.54914,18.80329],[8.55732,18.81971],[8.56167,18.8215],[8.56611,18.82856],[8.57123,18.83263],[8.57825,18.83461],[8.57948,18.83949],[8.5786,18.84287],[8.56627,18.85931],[8.56281,18.87175],[8.56409,18.87724],[8.57691,18.89821],[8.57675,18.9044],[8.57392,18.90903],[8.57688,18.91427],[8.57643,18.91703],[8.57262,18.92097],[8.55078,18.93089],[8.53289,18.94786],[8.51077,18.97383],[8.50429,18.97735],[8.49667,18.9857],[8.47698,19.01439],[8.46731,19.03309],[8.46866,19.0441],[8.46556,19.04803],[8.45192,19.05806],[8.4216,19.0692],[8.41659,19.07361],[8.41401,19.08007],[8.41479,19.08442],[8.41969,19.09033],[8.40723,19.11917],[8.40613,19.1279],[8.4074,19.1334],[8.41007,19.13405],[8.41295,19.13264],[8.42084,19.12497],[8.42375,19.12587],[8.42742,19.13019],[8.42877,19.14165],[8.43121,19.14346],[8.43627,19.14156],[8.43903,19.15048],[8.43862,19.15577],[8.43505,19.1604],[8.4247,19.16465],[8.42234,19.16835],[8.42237,19.17179],[8.43095,19.18132],[8.42883,19.18572],[8.41614,19.19642],[8.40845,19.22084],[8.4083,19.22796],[8.41078,19.23321],[8.41419,19.23524],[8.42724,19.2344],[8.45732,19.22143],[8.4762,19.22282],[8.48219,19.21839],[8.48605,19.21743],[8.49793,19.23887],[8.49605,19.24348],[8.48028,19.25995],[8.47342,19.27106],[8.47047,19.2867],[8.46231,19.29253],[8.46118,19.29875],[8.4651,19.3026],[8.47313,19.30618],[8.48306,19.30721],[8.49061,19.31057],[8.50218,19.32649],[8.5117,19.33259],[8.51451,19.34403],[8.51842,19.34697],[8.53977,19.35108],[8.54551,19.34573],[8.54889,19.345],[8.56006,19.34785],[8.59653,19.34144],[8.605,19.34178],[8.60698,19.34476],[8.60083,19.34995],[8.594,19.35226],[8.58756,19.35877],[8.57963,19.36322],[8.56536,19.36409],[8.56369,19.36639],[8.57052,19.37045],[8.57817,19.38115],[8.58355,19.38544],[8.59425,19.38852],[8.61194,19.38992],[8.62015,19.38798],[8.62616,19.38469],[8.62955,19.38488],[8.64078,19.39232],[8.66187,19.39411],[8.67113,19.3979],[8.67791,19.39827],[8.68655,19.39265],[8.70197,19.38717],[8.71072,19.38959],[8.72574,19.39008],[8.73061,19.39232],[8.74069,19.40297],[8.74747,19.40311],[8.77432,19.38371],[8.79401,19.37288],[8.7995,19.36753],[8.80136,19.36222],[8.79519,19.35427],[8.79338,19.34604],[8.79625,19.3437],[8.82422,19.33644],[8.84035,19.33048],[8.84316,19.32401],[8.87685,19.29508],[8.91062,19.2875],[8.92139,19.28023],[8.9326,19.26951],[8.93646,19.26877],[8.94847,19.27847],[8.96896,19.27358],[8.98184,19.2773],[8.99745,19.26973],[9.0046,19.2632],[9.00669,19.25743],[9.00319,19.25036],[8.99192,19.2418],[8.98992,19.23747],[8.99271,19.23009],[8.98946,19.22347],[8.98697,19.18839],[8.98468,19.18017],[8.97951,19.17518],[8.97636,19.17477],[8.97299,19.17551],[8.96032,19.1851],[8.95741,19.18445],[8.95396,19.17991],[8.95488,19.17714],[8.95347,19.16431],[8.94887,19.14785],[8.94043,19.13396],[8.92983,19.10473],[8.93239,19.09803],[8.941,19.09218],[8.95856,19.07173],[8.96646,19.06656],[8.97104,19.06604],[8.97736,19.06824],[8.98422,19.07457],[8.99804,19.0925],[9.00146,19.09499],[9.00533,19.09538],[9.01227,19.09069],[9.02168,19.08986],[9.02381,19.08708],[9.02345,19.07974],[9.02627,19.07465],[9.03199,19.06974],[9.03801,19.0685],[9.04952,19.07775],[9.05972,19.08081],[9.06438,19.08487],[9.06516,19.0883],[9.06122,19.09869],[9.06351,19.10623],[9.06794,19.11099],[9.07354,19.11366],[9.07789,19.11336],[9.0822,19.11077],[9.09544,19.09267],[9.10818,19.08857],[9.13783,19.08422],[9.14608,19.08593],[9.15925,19.09352],[9.16651,19.09387],[9.16938,19.09199],[9.17171,19.08669],[9.17226,19.07635],[9.17522,19.06574],[9.17949,19.06131],[9.18742,19.0582],[9.20042,19.05547],[9.21084,19.0576],[9.22745,19.06767],[9.23102,19.06463],[9.2316,19.05635],[9.22533,19.04291],[9.21966,19.03634],[9.20921,19.03238],[9.20671,19.02782],[9.20689,19.02415],[9.21112,19.01697],[9.21221,19.01006],[9.22115,18.99592],[9.22955,18.96525],[9.23069,18.94733],[9.24594,18.93538],[9.24922,18.92982],[9.24717,18.92251],[9.24398,18.91957],[9.23498,18.91582],[9.23396,18.91262],[9.23935,18.90243],[9.23674,18.88071],[9.23498,18.87404],[9.21173,18.82643],[9.21427,18.82019],[9.21712,18.81739],[9.22537,18.81956],[9.23344,18.82632],[9.24037,18.83562],[9.25499,18.8448],[9.25905,18.8536],[9.26536,18.8584],[9.27384,18.90165],[9.28825,18.92505],[9.29626,18.92745],[9.29915,18.92672],[9.30143,18.91934],[9.29595,18.89624],[9.29808,18.89172],[9.30645,18.88941],[9.31299,18.89022],[9.3164,18.89201],[9.31938,18.89678],[9.3216,18.91304],[9.32386,18.91805],[9.32728,18.92075],[9.33423,18.9172],[9.33689,18.91829],[9.34303,18.93702],[9.34961,18.94034],[9.3531,18.94626],[9.35841,18.94618],[9.35923,18.93813],[9.3623,18.93417],[9.36615,18.93364],[9.37247,18.93584],[9.37663,18.93921],[9.39058,18.96263],[9.3922,18.98532],[9.39422,18.99011],[9.39763,18.9919],[9.40947,18.99215],[9.41531,18.99411],[9.41781,18.99866],[9.41163,19.00451],[9.40588,19.00667],[9.4057,19.01035],[9.40939,19.01374],[9.40919,19.01603],[9.40253,19.02211],[9.40236,19.02578],[9.40794,19.04015],[9.41261,19.04443],[9.41861,19.04249],[9.43359,19.02916],[9.45533,19.01593],[9.4555,19.01225],[9.45151,19.00566],[9.45404,18.99896],[9.46648,18.99232],[9.47326,18.9805],[9.4788,18.97948],[9.48434,18.99155],[9.4875,18.99265],[9.50264,18.98848],[9.51354,18.97698],[9.51794,18.96755],[9.52017,18.95787],[9.51764,18.95172],[9.51322,18.94767],[9.51293,18.93595],[9.52343,18.92545],[9.54222,18.89966],[9.5471,18.89602],[9.5593,18.89618],[9.56216,18.89475],[9.56242,18.88766],[9.56028,18.88417],[9.54411,18.87137],[9.54258,18.8668],[9.54507,18.8585],[9.53875,18.85631],[9.53662,18.84579],[9.5293,18.84134],[9.52433,18.83407],[9.52474,18.82993],[9.54218,18.83377],[9.55704,18.85324],[9.56318,18.85863],[9.56678,18.85811],[9.57051,18.85116],[9.56793,18.84271],[9.57028,18.83901],[9.57556,18.83776],[9.57897,18.83953],[9.58109,18.84891],[9.58599,18.85272],[9.5893,18.86161],[9.5932,18.86362],[9.59813,18.85617],[9.60395,18.85768],[9.6068,18.85556],[9.60841,18.85163],[9.60422,18.84711],[9.601,18.83064],[9.59544,18.83005],[9.59323,18.82826],[9.59143,18.82186],[9.60117,18.79024],[9.59769,18.7841],[9.59079,18.77688],[9.58779,18.75857],[9.57796,18.75002],[9.5735,18.74391],[9.56795,18.73115],[9.54737,18.7267],[9.53337,18.72626],[9.53212,18.72352],[9.53301,18.71961],[9.5297,18.71071],[9.53123,18.70219],[9.52577,18.69425],[9.52767,18.69261],[9.53471,18.69501],[9.54071,18.69376],[9.54639,18.70078],[9.5529,18.70066],[9.56779,18.71027],[9.57384,18.71131],[9.57847,18.71398],[9.58548,18.71454],[9.5878,18.71037],[9.59188,18.70938],[9.59823,18.71339],[9.61051,18.71271],[9.61684,18.70767],[9.61733,18.70364],[9.61318,18.70119],[9.6013,18.68533],[9.60048,18.68053],[9.6033,18.67634],[9.60812,18.67649],[9.62813,18.70137],[9.63198,18.70085],[9.63503,18.6962],[9.63839,18.69568],[9.64208,18.6995],[9.64736,18.69827],[9.65499,18.70593],[9.658,18.71208],[9.66188,18.71315],[9.66817,18.70826],[9.67224,18.70011],[9.66848,18.69329],[9.66037,18.68541],[9.65906,18.68015],[9.66042,18.67599],[9.66681,18.66991],[9.67562,18.6523],[9.68784,18.64863],[9.7068,18.6329],[9.71727,18.62651],[9.73414,18.62619],[9.73886,18.62128],[9.74246,18.60882],[9.7472,18.60506],[9.75355,18.6093],[9.75713,18.60739],[9.75805,18.60508],[9.74551,18.59315],[9.742,18.58633],[9.73885,18.58524],[9.73313,18.58855],[9.71841,18.58746],[9.70734,18.60007],[9.70188,18.60384],[9.69817,18.59932],[9.69907,18.59586],[9.69514,18.59248],[9.69971,18.57978],[9.70347,18.57512],[9.72001,18.57114],[9.72401,18.56624],[9.72442,18.56302],[9.72172,18.56032],[9.71788,18.56108],[9.71221,18.56646],[9.70577,18.5698],[9.69015,18.57146],[9.68686,18.56372],[9.68274,18.56265],[9.68095,18.55739],[9.68234,18.55462],[9.70638,18.55211],[9.70924,18.55045],[9.70967,18.54838],[9.70817,18.54519],[9.70403,18.54297],[9.70411,18.5354],[9.70135,18.53016],[9.69581,18.52981],[9.68657,18.5371],[9.68242,18.53442],[9.68013,18.5285],[9.68125,18.52435],[9.68664,18.5169],[9.68198,18.51262],[9.66823,18.5115],[9.66671,18.50763],[9.66928,18.50345],[9.67595,18.50011],[9.69579,18.50456],[9.70396,18.50372],[9.70825,18.50135],[9.70986,18.49765],[9.7045,18.49476],[9.70193,18.48677],[9.70286,18.48492],[9.71624,18.48007],[9.72288,18.47491],[9.72489,18.4673],[9.72092,18.46117],[9.71047,18.45655],[9.70379,18.45943],[9.69362,18.46857],[9.68978,18.46886],[9.68776,18.46454],[9.69289,18.45619],[9.69739,18.45243],[9.69814,18.44186],[9.692,18.43555],[9.68035,18.43094],[9.67715,18.42756],[9.67611,18.42345],[9.6775,18.4209],[9.68884,18.42138],[9.6919,18.41879],[9.69256,18.41558],[9.69076,18.40963],[9.69287,18.40683],[9.70202,18.40736],[9.70889,18.41389],[9.71249,18.41336],[9.71741,18.40661],[9.71324,18.40256],[9.71527,18.39609],[9.71281,18.39316],[9.7173,18.38917],[9.71773,18.38687],[9.71602,18.38528],[9.70975,18.38495],[9.70824,18.38154],[9.71146,18.37413],[9.70675,18.36733],[9.68514,18.35764],[9.68025,18.35337],[9.68548,18.35052],[9.69676,18.34916],[9.70054,18.34542],[9.70417,18.34649],[9.70847,18.34527],[9.72272,18.35969],[9.73005,18.36483],[9.7339,18.36568],[9.73742,18.36102],[9.7364,18.34658],[9.73247,18.34252],[9.7319,18.33794],[9.73466,18.33169],[9.72936,18.33133],[9.72604,18.32199],[9.72195,18.32183],[9.71939,18.31409],[9.7162,18.3116],[9.70538,18.31113],[9.69169,18.30013],[9.6871,18.29884],[9.68306,18.30144],[9.68009,18.30953],[9.67479,18.30894],[9.66599,18.30199],[9.65172,18.29743],[9.64788,18.29796],[9.64458,18.30123],[9.64647,18.31153],[9.6381,18.31443],[9.63424,18.31359],[9.63106,18.31112],[9.6231,18.2975],[9.61943,18.29458],[9.61606,18.29441],[9.61037,18.29866],[9.60461,18.29898],[9.5995,18.29609],[9.59629,18.29156],[9.59698,18.27777],[9.5952,18.27275],[9.58882,18.26598],[9.58154,18.26267],[9.58178,18.27507],[9.5758,18.27654],[9.5726,18.2851],[9.56665,18.28864],[9.56528,18.29234],[9.56728,18.29621],[9.57116,18.29774],[9.58506,18.2952],[9.58655,18.2977],[9.58284,18.30511],[9.57077,18.31519],[9.55289,18.32332],[9.53373,18.32779],[9.53149,18.3113],[9.5271,18.30771],[9.51963,18.30761],[9.5167,18.30492],[9.51093,18.29238],[9.50743,18.27225],[9.50126,18.25148],[9.49637,18.24697],[9.49227,18.24612],[9.4863,18.24806],[9.48205,18.25227],[9.47391,18.26733],[9.46779,18.27432],[9.46234,18.27831],[9.45229,18.28124],[9.44876,18.2852],[9.44693,18.29074],[9.44765,18.30358],[9.45143,18.32578],[9.44822,18.3341],[9.44321,18.33671],[9.43769,18.33726],[9.4355,18.33592],[9.43034,18.31696],[9.4274,18.3138],[9.42043,18.31392],[9.41482,18.32319],[9.41709,18.32866],[9.41476,18.3398],[9.40646,18.35241],[9.40144,18.37318],[9.39261,18.38475],[9.382,18.38965],[9.35205,18.39611],[9.34126,18.39198],[9.33745,18.38695],[9.33034,18.38197],[9.32968,18.3694],[9.3312,18.36347],[9.3365,18.36062],[9.362,18.35858],[9.36483,18.35578],[9.36512,18.34988],[9.36301,18.34756],[9.32995,18.34227],[9.31709,18.33739],[9.28461,18.34034],[9.27593,18.33892],[9.27318,18.32314],[9.26933,18.31387],[9.27232,18.31051],[9.29338,18.30409],[9.29626,18.3056],[9.30797,18.32017],[9.31251,18.3232],[9.32565,18.32762],[9.3432,18.32867],[9.34762,18.32587],[9.3492,18.32312],[9.34833,18.32041],[9.3415,18.31528],[9.33973,18.30831],[9.34556,18.3047],[9.34694,18.29261],[9.35074,18.28865],[9.36257,18.28941],[9.36588,18.29168],[9.36822,18.29631],[9.3715,18.29761],[9.377,18.29751],[9.38265,18.29468],[9.38523,18.29151],[9.38593,18.28586],[9.35574,18.24753],[9.35297,18.24024],[9.357,18.23672],[9.37235,18.23555],[9.37424,18.23345],[9.3724,18.22499],[9.36925,18.22321],[9.3589,18.22269],[9.35598,18.22068],[9.35171,18.21019],[9.33495,18.2139],[9.32113,18.2208],[9.31704,18.22063],[9.3141,18.21747],[9.33227,18.18504],[9.33292,18.18067],[9.33108,18.17221],[9.32865,18.17018],[9.3229,18.17143],[9.30157,18.1883],[9.29226,18.19189],[9.28457,18.19179],[9.28093,18.18979],[9.27891,18.18408],[9.27797,18.17193],[9.27261,18.16766],[9.26705,18.16568],[9.25075,18.16755],[9.24567,18.16603],[9.2445,18.15919],[9.24986,18.15793],[9.26186,18.14351],[9.25937,18.13805],[9.25309,18.13653],[9.24399,18.13806],[9.2415,18.13305],[9.24192,18.12959],[9.23086,18.12909],[9.22698,18.1124],[9.21982,18.11595],[9.20131,18.14748],[9.19688,18.15074],[9.19112,18.15106],[9.18723,18.14837],[9.18684,18.13964],[9.18841,18.1332],[9.1987,18.10206],[9.1981,18.09496],[9.19321,18.08998],[9.1981,18.0665],[9.20711,18.0597],[9.21227,18.05297],[9.22617,18.05137],[9.23253,18.04392],[9.2526,18.03809],[9.2542,18.03371],[9.25028,18.02918],[9.23942,18.02591],[9.224,18.03649],[9.18827,18.05335],[9.18354,18.05755],[9.15781,18.09811],[9.14246,18.14379],[9.13102,18.16347],[9.11752,18.17903],[9.1101,18.20559],[9.06633,18.2053],[9.06648,18.18442],[9.06303,18.17919],[9.05771,18.1772],[9.04048,18.18182],[9.0411,18.17493],[9.03466,18.16332],[9.03601,18.15755],[9.03931,18.15315],[9.05624,18.14556],[9.06382,18.13879],[9.06516,18.13234],[9.05339,18.11715],[9.03817,18.11186],[9.02687,18.11134],[9.02564,18.1093],[9.05119,18.08505],[9.06028,18.08262],[9.06183,18.07479],[9.06925,18.07285],[9.07304,18.06958],[9.0777,18.06125],[9.0976,18.05934],[9.10497,18.05487],[9.11012,18.0463],[9.12665,18.04375],[9.1323,18.03747],[9.13525,18.0271],[9.13859,18.02567],[9.14847,18.02804],[9.15047,18.0186],[9.14707,18.0159],[9.13287,18.01405],[9.13116,18.01178],[9.13344,18.00463],[9.13118,17.99847],[9.1212,17.99037],[9.11716,17.97827],[9.1094,17.97288],[9.09902,17.96959],[9.09051,17.97753],[9.08361,17.9813],[9.08,17.98044],[9.081282,17.975349],[9.10572,17.946838],[9.11184,17.94598],[9.12905,17.95674],[9.13406,17.9702],[9.13906,17.96737],[9.1457,17.948],[9.14627,17.93881],[9.15122,17.93345],[9.15552,17.93247],[9.16134,17.93605],[9.16734,17.93619],[9.17785,17.93327],[9.18665,17.92854],[9.18874,17.92484],[9.18756,17.91132],[9.20252,17.90236],[9.20457,17.89567],[9.20858,17.89171],[9.22683,17.89302],[9.23485,17.89932],[9.24014,17.89993],[9.24299,17.89781],[9.24481,17.89251],[9.23824,17.88688],[9.23422,17.87662],[9.23486,17.87156],[9.24388,17.86613],[9.25167,17.8589],[9.25561,17.8508],[9.2525,17.83777],[9.25461,17.83499],[9.25918,17.83537],[9.26492,17.82105],[9.27406,17.80874],[9.27934,17.80911],[9.28081,17.8107],[9.28089,17.81529],[9.27768,17.82406],[9.2716,17.83265],[9.27075,17.85285],[9.27249,17.85627],[9.2768,17.85597],[9.28034,17.8527],[9.28567,17.84228],[9.28993,17.82524],[9.29364,17.8176],[9.30789,17.81003],[9.31139,17.80445],[9.31292,17.79618],[9.31165,17.7923],[9.29954,17.78492],[9.29456,17.77422],[9.30384,17.7431],[9.30083,17.73534],[9.29701,17.73564],[9.29061,17.74033],[9.28722,17.73855],[9.286284,17.73618],[9.387956,17.617562],[9.52778,17.471801],[9.615619,17.394552],[9.675914,17.344859],[9.780622,17.270094],[9.938252,17.174402],[10.002909,17.138679],[10.109683,17.083052],[10.209724,17.037153],[10.489905,16.922166],[10.631549,16.871248],[10.815297,16.809682],[10.950897,16.766355],[11.1437,16.732969],[13.362055,16.627333],[13.534813,16.640333],[13.730425,16.679455],[13.858224,16.742051],[13.999065,16.817687],[14.145122,16.922014],[14.721525,17.237601],[14.948435,17.347143],[15.046805,17.39266],[15.35778,17.480875],[17.262424,17.841213],[17.57158,17.951893],[17.745923,18.033774],[18.006333,18.16216],[18.114306,18.212296],[18.235007,18.262678],[18.295335,18.285016],[18.381422,18.312276],[18.44725,18.328483],[18.528661,18.34181],[18.599062,18.346028],[18.658378,18.343189],[18.709631,18.335136],[18.754971,18.324662],[18.776331,18.317219],[18.844214,18.284533],[18.879734,18.26226],[18.910015,18.240796],[18.961889,18.198955],[19.018713,18.146137],[19.072697,18.089579],[19.187821,17.949892],[19.238944,17.880259],[19.287044,17.809531],[19.400114,17.625288],[19.449489,17.504663],[19.52107,17.314535],[19.561669,17.224646],[19.611636,17.153034],[19.6538,17.102389],[19.687955,17.069468],[19.751089,17.038134],[19.825536,17.020222],[19.919674,17.016395],[20.016656,17.027058],[20.096657,17.043691],[20.183223,17.067596],[20.294057,17.104915],[20.368814,17.133307],[20.544316,17.206933],[20.641461,17.250419],[20.754725,17.292442],[20.902987,17.326667],[21.303231,17.388243],[21.942233,17.422784],[21.93651,17.43156],[21.93762,17.43819],[21.93659,17.4451],[21.93815,17.45012],[21.9418,17.45279],[21.9521,17.45348],[21.95747,17.4575],[21.95729,17.4699],[21.95948,17.47146],[21.96781,17.46966],[21.98071,17.45859],[21.98413,17.4615],[21.98792,17.47013],[21.99129,17.47052],[21.99667,17.46489],[21.99975,17.44416],[22.00279,17.44111],[22.01049,17.443],[22.01814,17.4426],[22.02561,17.43508],[22.02461,17.43242],[22.01973,17.42925],[22.01696,17.42357],[22.01999,17.42029],[22.0295,17.41778],[22.04316,17.40875],[22.04771,17.40887],[22.05475,17.41307],[22.06431,17.41286],[22.07393,17.4147],[22.07855,17.41781],[22.08002,17.4288],[22.08421,17.43375],[22.09663,17.43278],[22.12408,17.41998],[22.12932,17.41917],[22.13248,17.42116],[22.13452,17.42616],[22.13371,17.43238],[22.12856,17.44628],[22.11537,17.46449],[22.11069,17.46873],[22.11005,17.47219],[22.11227,17.47489],[22.12044,17.47539],[22.1251,17.48057],[22.12797,17.4805],[22.13637,17.47181],[22.15031,17.4646],[22.15464,17.46518],[22.15863,17.48117],[22.15665,17.4881],[22.14968,17.4963],[22.14466,17.50652],[22.13439,17.51708],[22.1326,17.52172],[22.14069,17.53898],[22.14705,17.54434],[22.16858,17.54361],[22.17949,17.53944],[22.18347,17.53615],[22.19733,17.51562],[22.19811,17.50871],[22.20767,17.48943],[22.21259,17.48518],[22.21807,17.48413],[22.2208,17.48774],[22.21932,17.49535],[22.22345,17.50719],[22.21797,17.51766],[22.22096,17.52218],[22.22749,17.52455],[22.23913,17.52106],[22.25016,17.51253],[22.27587,17.50686],[22.28591,17.49675],[22.29504,17.47059],[22.29832,17.46775],[22.30217,17.46858],[22.30371,17.47245],[22.30272,17.48051],[22.30382,17.48576],[22.31019,17.49158],[22.31903,17.48218],[22.32155,17.4773],[22.32121,17.4734],[22.32495,17.47009],[22.32808,17.47071],[22.33034,17.47479],[22.32969,17.48673],[22.33196,17.49081],[22.33413,17.49145],[22.33742,17.48931],[22.34322,17.47264],[22.34667,17.46773],[22.3526,17.46575],[22.35932,17.46627],[22.36663,17.47137],[22.37022,17.47129],[22.37965,17.46578],[22.38493,17.46634],[22.38942,17.46393],[22.39511,17.46589],[22.39673,17.4688],[22.39414,17.47943],[22.3813,17.49168],[22.38256,17.4944],[22.38545,17.49502],[22.40135,17.48958],[22.40498,17.4911],[22.40705,17.49701],[22.40358,17.50146],[22.38686,17.51198],[22.38537,17.5189],[22.38773,17.52665],[22.39085,17.52703],[22.39884,17.52087],[22.40339,17.52121],[22.40764,17.528],[22.41202,17.53064],[22.41586,17.53101],[22.42655,17.52753],[22.43044,17.5295],[22.43446,17.53675],[22.43803,17.53597],[22.44194,17.53012],[22.44478,17.52891],[22.44842,17.53043],[22.45138,17.5338],[22.45327,17.55051],[22.45686,17.55938],[22.45497,17.56907],[22.45582,17.57411],[22.46374,17.58331],[22.48443,17.5867],[22.49447,17.58599],[22.51054,17.578],[22.52033,17.56811],[22.52186,17.56279],[22.52717,17.55554],[22.53029,17.55569],[22.53267,17.54643],[22.53836,17.54423],[22.54129,17.54645],[22.54574,17.56012],[22.54986,17.56185],[22.55295,17.56981],[22.5554,17.57158],[22.55922,17.57125],[22.5665,17.56602],[22.57153,17.56612],[22.57693,17.57057],[22.58103,17.57184],[22.58298,17.56445],[22.6007,17.54723],[22.60529,17.54847],[22.60735,17.55326],[22.60226,17.56854],[22.60451,17.57193],[22.61172,17.57266],[22.62088,17.56645],[22.62564,17.55691],[22.63087,17.55518],[22.63482,17.55116],[22.6349,17.54541],[22.63873,17.53682],[22.6365,17.53413],[22.62803,17.53068],[22.62716,17.52542],[22.64131,17.50944],[22.6579,17.50326],[22.65899,17.49956],[22.6569,17.49319],[22.6575,17.48927],[22.65936,17.48738],[22.66985,17.48573],[22.6712,17.48271],[22.66455,17.476],[22.65726,17.47205],[22.64493,17.45952],[22.62419,17.42837],[22.61782,17.42303],[22.61086,17.42229],[22.59952,17.4274],[22.5959,17.42658],[22.59315,17.42229],[22.59679,17.41531],[22.59525,17.41167],[22.60153,17.40531],[22.60073,17.40212],[22.60365,17.39561],[22.59673,17.38753],[22.59833,17.38495],[22.60867,17.38653],[22.61773,17.38561],[22.62319,17.39258],[22.63018,17.39447],[22.64374,17.39159],[22.65147,17.38542],[22.65398,17.38145],[22.65857,17.36617],[22.66159,17.36288],[22.66731,17.36205],[22.67197,17.37455],[22.67663,17.37029],[22.68046,17.37042],[22.68365,17.37309],[22.68953,17.39498],[22.6922,17.39606],[22.69278,17.39972],[22.6979,17.40302],[22.70319,17.4038],[22.70961,17.40273],[22.71614,17.39657],[22.71924,17.39626],[22.72195,17.39895],[22.72581,17.40825],[22.7287,17.4091],[22.7346,17.40619],[22.74617,17.39233],[22.75446,17.38958],[22.76123,17.38366],[22.76503,17.38264],[22.76867,17.38484],[22.76778,17.3867],[22.7694,17.39354],[22.77284,17.39644],[22.77716,17.39678],[22.78356,17.39454],[22.79429,17.39357],[22.79925,17.3916],[22.80461,17.3864],[22.80846,17.38699],[22.81186,17.397],[22.80808,17.40674],[22.80988,17.41105],[22.8157,17.41411],[22.81798,17.41795],[22.81817,17.42438],[22.82053,17.42339],[22.82899,17.42638],[22.83075,17.42932],[22.82272,17.44101],[22.82731,17.45076],[22.82508,17.4561],[22.81266,17.46516],[22.81017,17.47051],[22.81106,17.47577],[22.81669,17.48848],[22.82483,17.49675],[22.83017,17.49913],[22.84382,17.49899],[22.84967,17.50296],[22.84907,17.50665],[22.83311,17.51788],[22.8323,17.52318],[22.83556,17.52769],[22.85453,17.52947],[22.86721,17.53716],[22.87893,17.5288],[22.88299,17.52823],[22.88423,17.53784],[22.88278,17.54546],[22.88479,17.54863],[22.89004,17.54801],[22.89515,17.54259],[22.89896,17.54203],[22.9083,17.54981],[22.91735,17.54795],[22.92168,17.54898],[22.93167,17.56248],[22.93648,17.56303],[22.94022,17.55995],[22.94274,17.54816],[22.94684,17.54116],[22.94669,17.53611],[22.95266,17.53549],[22.95489,17.53795],[22.95858,17.55714],[22.9667,17.57253],[22.96896,17.59273],[22.97494,17.59939],[22.98501,17.59957],[22.99484,17.59173],[23.00268,17.58943],[23.01137,17.58413],[23.0181,17.58486],[23.0197,17.58987],[23.01324,17.6059],[22.99958,17.61386],[22.98582,17.61815],[22.98238,17.6233],[22.98326,17.62878],[22.96903,17.63377],[22.9673,17.63979],[22.96495,17.6417],[22.9578,17.64258],[22.95095,17.64599],[22.94568,17.64614],[22.94049,17.64077],[22.93595,17.64112],[22.9274,17.65192],[22.91804,17.65149],[22.915,17.6541],[22.91491,17.65893],[22.92417,17.67199],[22.91759,17.68434],[22.91816,17.68731],[22.92536,17.69584],[22.92262,17.70051],[22.91834,17.70155],[22.87668,17.69511],[22.849,17.68324],[22.84081,17.68208],[22.82895,17.68654],[22.81827,17.69808],[22.82074,17.70054],[22.82991,17.70259],[22.84209,17.70111],[22.8443,17.70289],[22.84641,17.70926],[22.84907,17.71011],[22.85401,17.70676],[22.85833,17.7071],[22.86487,17.71725],[22.87115,17.71892],[22.8816,17.71565],[22.88719,17.71802],[22.8919,17.7234],[22.89272,17.7266],[22.9048,17.73797],[22.90493,17.74233],[22.90057,17.75669],[22.90025,17.76221],[22.90283,17.76834],[22.90506,17.77058],[22.90841,17.77026],[22.91307,17.76576],[22.91785,17.76517],[22.92059,17.76877],[22.92385,17.78154],[22.92902,17.78599],[22.93947,17.78249],[22.94788,17.78294],[22.9513,17.78492],[22.95464,17.78437],[22.95885,17.7808],[22.96197,17.78095],[22.96392,17.78204],[22.96761,17.79296],[22.97257,17.7981],[22.97765,17.79957],[22.98385,17.79848],[23.00293,17.77911],[23.02494,17.77757],[23.02936,17.77285],[23.03226,17.76542],[23.03154,17.75787],[23.02629,17.74287],[23.00605,17.70829],[23.00447,17.70351],[23.00597,17.69772],[23.01323,17.69982],[23.01768,17.69888],[23.02128,17.69684],[23.02205,17.69039],[23.02412,17.6878],[23.02773,17.68816],[23.03095,17.69151],[23.03452,17.69072],[23.04076,17.6832],[23.04727,17.68416],[23.05348,17.67618],[23.05781,17.67628],[23.06224,17.68787],[23.06789,17.68449],[23.08678,17.65203],[23.08537,17.64495],[23.07717,17.62797],[23.08154,17.6143],[23.07377,17.60326],[23.07092,17.59622],[23.07318,17.5918],[23.07948,17.59414],[23.08982,17.59521],[23.09713,17.59938],[23.10453,17.59848],[23.10552,17.59179],[23.11906,17.56476],[23.12851,17.55301],[23.13054,17.54147],[23.12869,17.53555],[23.12119,17.52567],[23.12182,17.52289],[23.12786,17.51698],[23.13099,17.50977],[23.15549,17.49689],[23.15586,17.4932],[23.15183,17.48712],[23.15247,17.48458],[23.15624,17.4824],[23.16967,17.48316],[23.17983,17.48784],[23.18706,17.48793],[23.18979,17.49865],[23.19684,17.50211],[23.20648,17.50413],[23.21764,17.50105],[23.22105,17.50278],[23.24236,17.49549],[23.2474,17.49558],[23.25637,17.49899],[23.25812,17.50146],[23.25753,17.50537],[23.24738,17.51003],[23.24255,17.51639],[23.26046,17.52229],[23.26926,17.52777],[23.27523,17.53471],[23.27689,17.54155],[23.27596,17.55007],[23.27111,17.56308],[23.2704,17.57067],[23.2783,17.59295],[23.28513,17.60423],[23.31321,17.63531],[23.32302,17.64971],[23.33402,17.65604],[23.3408,17.65814],[23.36284,17.65058],[23.36976,17.64969],[23.38998,17.65229],[23.41082,17.65923],[23.42044,17.66009],[23.42807,17.65894],[23.44015,17.65467],[23.4424,17.65046],[23.43552,17.64493],[23.4366,17.64145],[23.45335,17.63336],[23.45753,17.62956],[23.45919,17.6217],[23.4578,17.60865],[23.46074,17.60351],[23.4648,17.60292],[23.48093,17.61253],[23.49345,17.62331],[23.50727,17.64777],[23.51148,17.65178],[23.52177,17.65811],[23.53339,17.66166],[23.54274,17.66849],[23.55086,17.68914],[23.56891,17.70534],[23.58043,17.71256],[23.58715,17.7128],[23.59545,17.71001],[23.60142,17.71626],[23.59951,17.72413],[23.60396,17.73478],[23.60773,17.75373],[23.61893,17.76577],[23.62555,17.7697],[23.63393,17.76943],[23.64956,17.76343],[23.65438,17.76419],[23.65691,17.76801],[23.65494,17.78048],[23.65751,17.78522],[23.66368,17.79031],[23.67338,17.79321],[23.68213,17.78972],[23.68693,17.78979],[23.69112,17.79288],[23.69444,17.80563],[23.69364,17.81714],[23.70646,17.82707],[23.73069,17.85665],[23.73547,17.86059],[23.74167,17.85947],[23.74665,17.84415],[23.75086,17.8408],[23.7562,17.84223],[23.76044,17.85381],[23.76418,17.85782],[23.76683,17.8582],[23.77535,17.8547],[23.77955,17.84469],[23.78374,17.84111],[23.78803,17.84005],[23.7972,17.84158],[23.80019,17.83782],[23.79893,17.82247],[23.80542,17.81628],[23.82121,17.82151],[23.85983,17.82805],[23.86549,17.82511],[23.87602,17.81121],[23.88165,17.80757],[23.88574,17.80767],[23.89019,17.81143],[23.90132,17.83403],[23.91023,17.8482],[23.9149,17.85126],[23.92045,17.852],[23.93167,17.84381],[23.93648,17.84388],[23.95036,17.85605],[23.95572,17.85817],[23.96169,17.85751],[23.9667,17.85642],[23.97705,17.84413],[23.98158,17.84352],[23.98504,17.84616],[23.98479,17.85283],[23.98677,17.86057],[23.98996,17.86253],[24.00761,17.85111],[24.03311,17.81987],[24.05688,17.79593],[24.06099,17.78896],[24.06807,17.76785],[24.06901,17.75639],[24.06735,17.74347],[24.04048,17.68412],[24.02313,17.66832],[24.01588,17.66369],[24.00423,17.66119],[23.99299,17.64398],[23.98054,17.61799],[23.97235,17.59714],[23.97297,17.59459],[23.96439,17.58271],[23.95066,17.57398],[23.93426,17.57109],[23.92831,17.57174],[23.91548,17.56873],[23.88572,17.56696],[23.86851,17.56156],[23.86429,17.55734],[23.85865,17.5403],[23.85213,17.53224],[23.833374,17.519923],[24.546342,17.529486],[24.637658,17.519622],[24.700135,17.508877],[24.7641,17.500318],[24.844924,17.494406],[24.894709,17.494405],[24.945473,17.498159],[25.005722,17.509011],[25.051452,17.523463],[25.15103,17.577761],[25.209456,17.616503],[25.275415,17.669911],[25.479872,17.854573],[25.523328,17.889974],[25.572167,17.9224],[25.595258,17.93142],[25.67918,17.939659],[29.57406,18.014802],[30.966026,17.989493],[31.045095,17.974598],[31.132622,17.954126],[31.23496,17.926439],[31.456725,17.86121],[31.551976,17.834684],[31.654146,17.809728],[31.743815,17.792319],[31.796003,17.784691],[31.846028,17.779432],[31.894255,17.776505],[31.940923,17.775901],[32.018203,17.78032],[32.028363,17.778248],[32.039175,17.782407],[32.133552,17.79715],[32.209032,17.813549],[32.28621,17.834229],[32.36485,17.85913],[32.441331,17.886873],[32.522238,17.919863],[32.603651,17.956744],[32.685136,17.99732],[32.762821,18.03944],[32.864647,18.099896],[32.873373,18.103252],[32.892207,18.117089],[33.097516,18.241589],[33.175231,18.291682],[33.240451,18.337313],[33.305058,18.388082],[33.356482,18.435556],[33.397419,18.482338],[33.41323,18.504692],[33.426264,18.526702],[33.440042,18.557473],[33.448081,18.586824],[33.450838,18.615632],[33.448348,18.644681],[33.440328,18.676667],[33.426742,18.710875],[33.407521,18.747494],[33.381406,18.78844],[33.344,18.838873],[33.295511,18.897157],[33.100538,19.111626],[33.055269,19.152782],[33.005346,19.193],[32.827132,19.321063],[32.764484,19.369253],[32.705076,19.422112],[32.658482,19.47309],[32.631376,19.509839],[32.605907,19.551927],[32.491388,19.838223],[32.48871,19.856543],[32.489263,19.887141],[32.493138,19.923193],[32.497424,19.944543],[32.511329,19.990771],[32.528316,20.031294],[32.553528,20.078857],[32.568767,20.103569],[32.606596,20.157052],[32.657647,20.217883],[32.703315,20.265011],[32.734102,20.293829],[32.76202,20.3182],[32.814347,20.359831],[32.875943,20.402543],[32.906425,20.421181],[32.950132,20.444456],[33.575061,20.506949],[33.609238,20.494979],[33.631782,20.48527],[33.659358,20.471502],[33.691049,20.453148],[33.747973,20.41353],[33.811646,20.359388],[33.869779,20.301223],[33.919505,20.245171],[33.995446,20.149033],[34.04698,20.076459],[34.107161,19.985936],[34.132136,19.943295],[34.161381,19.881619],[34.174642,19.848354],[34.199483,19.774193],[34.223671,19.684971],[34.257233,19.541739],[34.365026,19.218361],[34.428073,19.104531],[34.469033,19.034021],[34.529065,18.939972],[34.589273,18.856661],[34.644292,18.792087],[34.677197,18.757486],[34.728701,18.714029],[34.774635,18.683646],[34.847228,18.648197],[34.901355,18.628788],[34.931747,18.619928],[35.012632,18.60217],[35.079817,18.592828],[35.124799,18.589019],[35.22289,18.586231],[35.317419,18.590555],[35.412372,18.601351],[35.458672,18.609009],[35.529543,18.623898],[35.620558,18.649233],[35.7001,18.678237],[35.761585,18.707541],[35.796837,18.73],[35.834082,18.758248],[35.867193,18.786764],[35.90686,18.824278],[36.040148,18.958858],[36.092094,19.005809],[36.128454,19.034318],[36.158012,19.054311],[36.18253,19.068551],[36.217152,19.084741],[36.278967,19.102488],[36.310819,19.10755],[36.346077,19.110736],[36.391591,19.111822],[36.437964,19.110113],[36.504289,19.103813],[36.552568,19.096975],[36.622537,19.084477],[36.731027,19.060734],[36.803195,19.049325],[37.390104,19.021698],[37.37793,19.039247],[37.378399,19.048457],[37.372689,19.065176],[37.37107,19.059616],[37.368729,19.057877],[37.3634,19.058436],[37.3639,19.093864],[37.357991,19.106825],[37.352748,19.113133],[37.354439,19.122144],[37.35004,19.124103],[37.349972,19.126633],[37.353749,19.129942],[37.353192,19.132692],[37.351451,19.134483],[37.344182,19.135233],[37.340939,19.138832],[37.33685,19.138273],[37.336208,19.161941],[37.331631,19.170101],[37.328411,19.181979],[37.327899,19.191859],[37.331631,19.197008],[37.330799,19.200889],[37.33358,19.205789],[37.331809,19.208278],[37.33221,19.211507],[37.32896,19.215336],[37.328171,19.235777],[37.324929,19.239376],[37.319481,19.253045],[37.322731,19.258185],[37.32695,19.281043],[37.326141,19.284243],[37.321941,19.287363],[37.320672,19.280663],[37.31826,19.280373],[37.316502,19.282633],[37.317811,19.287953],[37.314362,19.299133],[37.314412,19.306032],[37.312401,19.308742],[37.313511,19.312682],[37.311432,19.317921],[37.308021,19.318751],[37.307141,19.324252],[37.30074,19.32846],[37.303559,19.331521],[37.307171,19.3323],[37.30819,19.33048],[37.312019,19.331731],[37.316589,19.34196],[37.316472,19.355059],[37.312111,19.364379],[37.30468,19.397307],[37.299431,19.403155],[37.301281,19.415165],[37.298789,19.417635],[37.297519,19.429096],[37.291871,19.431945],[37.29126,19.445495],[37.287499,19.458744],[37.279221,19.469342],[37.279579,19.480012],[37.283058,19.479562],[37.283471,19.473132],[37.28727,19.465743],[37.29184,19.477473],[37.288079,19.487932],[37.28669,19.489452],[37.285351,19.488642],[37.285431,19.485292],[37.283458,19.488081],[37.277012,19.50702],[37.274829,19.50697],[37.27359,19.502301],[37.27195,19.502781],[37.269059,19.513011],[37.26429,19.518869],[37.259881,19.529569],[37.254211,19.533109],[37.251708,19.540208],[37.24458,19.548068],[37.2425,19.562248],[37.240779,19.563127],[37.23811,19.572026],[37.23938,19.578726],[37.235779,19.585997],[37.2328,19.588455],[37.232379,19.595115],[37.228321,19.601446],[37.227971,19.605345],[37.221871,19.605635],[37.224239,19.611525],[37.222329,19.620492],[37.21693,19.623554],[37.212891,19.628503],[37.206718,19.628894],[37.197911,19.633993],[37.197499,19.637243],[37.200329,19.638023],[37.207161,19.633674],[37.210201,19.635334],[37.214531,19.629863],[37.224221,19.623193],[37.228802,19.608185],[37.233712,19.601924],[37.236069,19.601875],[37.234082,19.603665],[37.233231,19.608014],[37.236729,19.621893],[37.235951,19.641423],[37.238449,19.647232],[37.237629,19.650893],[37.232651,19.655362],[37.234311,19.656782],[37.236721,19.665811],[37.233891,19.671722],[37.236461,19.675461],[37.23679,19.681221],[37.23864,19.68426],[37.24451,19.682791],[37.24844,19.672082],[37.241601,19.665012],[37.24297,19.657031],[37.244888,19.658401],[37.2458,19.662361],[37.253361,19.669441],[37.257031,19.67713],[37.25813,19.68894],[37.26163,19.69432],[37.26102,19.69617],[37.258781,19.69638],[37.256371,19.691819],[37.25396,19.691999],[37.25404,19.69798],[37.259202,19.70408],[37.257882,19.734637],[37.259165,19.741533],[37.25193,19.74218],[37.13258,19.80873],[37.03299,19.84272],[36.92656,19.84747],[36.871274,19.853942],[36.814167,19.865364],[36.800842,19.872978],[36.766578,19.887255],[36.744687,19.906291],[36.705664,19.963398],[36.686628,20.00718],[36.680917,20.029071],[36.6548,20.094649],[36.65157,20.11672],[36.6573,20.22389],[36.66608,20.30447],[36.69681,20.38517],[36.7392,20.44545],[36.79172,20.51425],[36.82338,20.57089],[36.84785,20.66319],[36.83994,20.77592],[36.79395,20.86395],[36.71776,20.97934],[36.64473,21.06784],[36.56434,21.14857],[36.4032,21.30356],[36.3004,21.39551],[36.22881,21.55312],[36.21504,21.59793],[36.21108,21.62849],[36.19818,21.69139],[36.16984,21.7983],[36.11119,21.98983],[36.06864,22.06962],[35.98581,22.19635],[35.77541,22.47565],[35.66035,22.59991],[35.56107,22.72483],[35.44464,22.89277],[35.37222,22.96716],[35.2537,23.2212],[35.22676,23.29679],[35.1611,23.44788],[35.08718,23.64804],[35.0435,23.78316],[34.9696,23.94892],[34.88583,24.06716],[34.79823,24.16638],[34.71287,24.28337],[34.61991,24.46354],[34.54323,24.59489],[34.47032,24.72587],[34.40087,24.84454],[34.350937,24.94579],[33.454727,25.843241],[33.416454,25.876281],[33.385997,25.893889],[33.294626,25.938623],[33.255536,25.954279],[33.23356,25.959127],[33.208489,25.960514],[33.198601,25.956983],[33.182471,25.947878],[33.169375,25.933222],[33.163755,25.922919],[33.145304,25.876382],[33.128232,25.8119],[33.100846,25.658078],[33.086138,25.596795],[33.073882,25.528158],[33.034661,25.422751],[32.975829,25.295281],[32.931705,25.221741],[32.907135,25.203301],[32.90601,25.200344],[32.937061,25.172755],[32.957111,25.146877],[32.97546,25.111594],[32.990303,25.068054],[33.022632,24.92795],[33.049205,24.788919],[33.069619,24.646208],[33.074814,24.595708],[33.076397,24.556954],[33.073731,24.485019],[33.042431,24.092616],[32.976532,23.731615],[32.919121,23.621717],[32.878113,23.567587],[32.840382,23.542984],[32.763287,23.542984],[32.705876,23.569227],[32.686192,23.595471],[32.666508,23.647961],[32.67175,23.659639],[32.679668,23.797759],[32.685837,23.86341],[32.712212,24.02631],[32.738281,24.214055],[32.747371,24.288698],[32.752662,24.354373],[32.754143,24.399121],[32.753594,24.465185],[32.749264,24.578302],[32.74073,24.660104],[32.727084,24.731205],[32.678371,24.603331],[32.16398,23.638849],[32.125698,23.604242],[32.093592,23.580194],[32.048218,23.551476],[31.996837,23.525061],[31.961238,23.510032],[31.894911,23.486096],[31.817851,23.464124],[31.735866,23.44476],[31.583889,23.418706],[31.458792,23.402996],[31.38011,23.391306],[31.294528,23.381323],[31.208263,23.368171],[31.051819,23.336519],[30.993413,23.320511],[30.95001,23.306441],[30.873554,23.275584],[30.820036,23.247637],[30.793777,23.231301],[30.762739,23.209093],[30.736247,23.187003],[30.705809,23.156886],[30.678106,23.123352],[30.637439,23.05913],[30.614127,23.016475],[30.586331,22.959558],[30.562139,22.903943],[30.524934,22.802585],[30.510936,22.757468],[30.494097,22.694624],[30.480318,22.632379],[30.46854,22.55609],[30.467482,22.470586],[30.479656,22.380722],[30.495344,22.312379],[30.515709,22.246064],[30.536275,22.189207],[30.562141,22.125407],[30.592608,22.056672],[30.618062,22.00244],[30.676939,21.88639],[30.701558,21.832384],[30.738149,21.761111],[30.754901,21.680706],[30.75919,21.594925],[30.757813,21.549501],[30.73561,21.463534],[30.717164,21.41512],[30.699997,21.397952],[30.665991,21.38116],[30.637561,21.370224],[30.547227,21.348716],[30.303624,21.31035],[29.968084,21.264595],[29.735133,21.248418],[29.469828,21.251653],[28.919804,21.264595],[28.266247,21.290478],[27.981529,21.313126],[27.784167,21.332539],[27.573864,21.348716],[27.25352,21.36752],[26.963446,21.363435],[26.823017,21.3718],[26.744332,21.374571],[26.588869,21.376111],[26.50147,21.374006],[26.388814,21.36759],[26.316555,21.360922],[26.25457,21.352534],[25.952696,21.304582],[25.562601,21.22953],[24.987034,21.124881],[24.78833,21.092585],[24.525533,21.064124],[24.301397,21.044716],[24.007265,21.025553],[23.733146,21.013657],[23.510379,21.007905],[23.372325,21.005992],[23.069351,21.005918],[22.840415,21.009355],[22.648334,21.014368],[22.255987,21.030311],[20.848225,21.158289],[19.548571,21.027993],[18.94619,20.99918],[18.93412,20.85232],[18.97066,20.7651],[19.021,20.73043],[19.08056,20.68589],[19.15073,20.63759],[19.18752,20.58709],[19.19764,20.53807],[19.17518,20.42201],[19.15097,20.26073],[19.11396,20.14235],[19.08766,20.0325],[19.05635,19.94955],[19.0003,19.75422],[18.97589,19.67971],[18.92362,19.5759],[18.85861,19.51496],[18.7503,19.45288],[18.67123,19.41637],[18.54502,19.37866],[18.35755,19.37531],[18.27771,19.40978],[18.21097,19.46388],[18.14293,19.55474],[18.09712,19.59524],[18.04474,19.61241],[17.99417,19.64292],[17.93147,19.66193],[17.83811,19.66762],[17.69588,19.7087],[17.57979,19.76096],[17.47779,19.844],[17.3527,19.99202],[17.29784,20.07892],[17.19964,20.15937],[17.08677,20.2446],[16.96277,20.35926],[16.84791,20.38775],[16.55271,20.4242],[16.4369,20.49688],[16.37577,20.59233],[16.34471,20.69432],[16.30464,20.78391],[16.23769,20.89418],[16.09921,21.01102],[16.01066,21.1297],[15.95503,21.24885],[15.92081,21.35349],[15.93356,21.48601],[15.93968,21.61976],[15.85672,21.82298],[15.76138,21.98272],[15.69065,22.10937],[15.638942,22.190937],[15.633744,22.206985],[15.633759,22.216216],[15.63833,22.238255],[15.645337,22.260327],[15.649321,22.26863],[15.655127,22.274705],[15.663498,22.275717],[15.678914,22.271917],[15.70129,22.262619],[15.82266,22.20174],[16.04305,22.02743],[16.28314,21.84578],[16.399067,21.769718],[16.413215,21.762383],[16.432613,21.756791],[16.53127,21.74281],[16.548402,21.743956],[16.563314,21.747681],[16.611111,21.768701],[16.624249,21.776126],[16.629807,21.781457],[16.633598,21.788872],[16.636119,21.801583],[16.637065,21.829636],[16.635015,21.845173],[16.628581,21.85881],[16.58566,21.90985],[16.534387,21.976885],[16.523555,21.993714],[16.520385,22.002499],[16.518535,22.016717],[16.51706,22.09377],[16.211104,22.521555],[16.199356,22.531409],[16.098313,22.647259],[16.033842,22.716773],[15.980831,22.770409],[15.771594,22.937322],[15.682014,22.982139],[15.578105,23.011653],[15.526252,23.018255],[15.44223,23.020827],[15.321786,23.012522],[14.909081,22.954728],[14.743612,22.925073],[14.537897,22.886351],[14.32416,22.829889],[14.117816,22.769573],[13.918327,22.700085],[13.746311,22.633391],[13.480675,22.515781],[13.300104,22.424948],[12.967386,22.231528],[12.824239,22.134798],[12.546705,21.911437],[12.402315,21.780322],[12.179454,21.635557],[12.070352,21.58633],[11.992144,21.556246],[11.918195,21.531266],[11.794538,21.496259],[11.70152,21.475086],[11.6282,21.466529],[11.536049,21.447787],[11.446059,21.438454],[11.375474,21.433906],[11.237208,21.433565],[11.176333,21.435079],[11.093185,21.442305],[10.965511,21.462441],[10.86584,21.487129],[10.779949,21.516159],[10.673425,21.559496],[10.61632,21.598746],[10.556224,21.635613],[10.506445,21.682624],[10.454847,21.742349],[10.394913,21.821524],[10.339791,21.902228],[10.281587,21.973619],[10.231295,22.026488],[10.135042,22.100361],[10.044864,22.146803],[9.940514,22.182398],[9.818893,22.210033],[9.704814,22.2286],[9.459434,22.264246],[9.334165,22.290006],[9.246881,22.315411],[9.160646,22.351149],[9.072474,22.405058],[8.52061,23.01657],[8.51278,22.97639],[8.55476,22.91206],[8.5929,22.86358],[8.60743,22.79006],[8.55915,22.7375],[8.49573,22.74846],[8.44902,22.80507],[8.44216,22.90007],[8.40121,22.94956],[8.3559,22.912],[8.35209,22.85475],[8.31922,22.81179],[8.24851,22.79494],[8.20694,22.74526],[8.1964,22.69015],[8.23276,22.63053],[8.24724,22.56089],[8.19371,22.53039],[8.1554,22.54534],[8.12889,22.61543],[8.10259,22.66449],[8.05285,22.61938],[8.03787,22.53694],[8.04661,22.45724],[8.06495,22.39048],[8.06764,22.32037],[8.00775,22.22093],[7.9325,22.21918],[7.9329,22.31628],[7.9597,22.41507],[7.97966,22.46556],[7.98937,22.52905],[7.96559,22.59672],[7.96738,22.69438],[7.97164,22.76014],[7.93409,22.79857],[7.87977,22.7445],[7.82907,22.64511],[7.77477,22.57653],[7.71841,22.53504],[7.63418,22.59403],[7.64842,22.64774],[7.68525,22.70166],[7.75883,22.76165],[7.83467,22.8454],[7.8257,22.90907],[7.76838,22.91036],[7.71254,22.84263],[7.67942,22.79124],[7.58866,22.74747],[7.54877,22.76473],[7.5427,22.83943],[7.57052,22.90644],[7.63684,22.94147],[7.69512,23.01185],[7.67647,23.04522],[7.63133,23.04352],[7.57447,23.03862],[7.57655,23.0622],[7.54844,23.11343],[7.49511,23.0816],[7.44098,23.05964],[7.42363,23.10903],[7.42319,23.19527],[7.35705,23.25382],[7.27286,23.22489],[7.23633,23.18437],[7.26712,23.11869],[7.32862,23.06724],[7.37603,23.02471],[7.38912,22.9628],[7.38655,22.88149],[7.33607,22.81828],[7.2481,22.79226],[7.18716,22.79109],[7.18205,22.85207],[7.20725,22.91482],[7.23235,22.99485],[7.20586,23.0411],[7.14693,23.07794],[7.06139,23.05308],[7.00782,23.02778],[6.91313,22.95324],[6.9006,22.87998],[6.91218,22.82052],[6.89124,22.75028],[6.8034,22.66563],[6.74412,22.65668],[6.6895,22.70593],[6.62259,22.74197],[6.53323,22.69133],[6.52519,22.59085],[6.49167,22.52553],[6.43901,22.49954],[6.36747,22.49314],[6.30652,22.47143],[6.29219,22.43335],[6.31893,22.39824],[6.32827,22.34703],[6.38016,22.31376],[6.43261,22.29037],[6.47673,22.25401],[6.48985,22.20432],[6.43705,22.16345],[6.38238,22.18174],[6.32211,22.2206],[6.27261,22.25776],[6.23434,22.32167],[6.13602,22.30208],[6.04014,22.40368],[6.00419,22.3541],[5.99262,22.29891],[5.9726,22.26656],[5.92741,22.23356],[5.77047,22.25399],[5.70723,22.26532],[5.62558,22.25922],[5.57324,22.31576],[5.52497,22.30721],[5.48411,22.27331],[5.40681,22.24902],[5.37304,22.27362],[5.34269,22.32068],[5.28701,22.33871],[5.19117,22.37962],[5.14005,22.46826],[5.0933,22.49063],[5.02391,22.4238],[4.97039,22.38773],[4.9061,22.4149],[4.8433,22.37927],[4.80516,22.30239],[4.76816,22.3032],[4.74749,22.34347],[4.78397,22.42395],[4.82043,22.48965],[4.8412,22.56889],[4.78303,22.55451],[4.67027,22.55916],[4.61512,22.61388],[4.6104,22.69606],[4.60433,22.74854],[4.62896,22.79856],[4.7226,22.87623],[4.73676,22.96848],[4.78019,23.04452],[4.92821,23.16429],[5.01742,23.24611],[4.728028,23.823322],[4.221864,24.441967],[4.20871,24.43328],[4.15294,24.41639],[4.07484,24.43164],[4.0219,24.49769],[3.93385,24.50467],[3.83094,24.45183],[3.69941,24.35364],[3.6282,24.32894],[3.55653,24.34435],[3.52613,24.41102],[3.5605,24.51154],[3.73494,24.63429],[3.81935,24.71955],[3.83275,24.78997],[3.78485,24.86584],[3.73383,24.93289],[3.734308,24.992455],[3.558013,25.188339],[3.548143,25.217698],[3.522411,25.261489],[3.498668,25.312808],[3.483938,25.353197],[3.465843,25.419584],[3.454706,25.480502],[3.447041,25.550701],[3.443721,25.637879],[3.446364,25.73573],[3.453927,25.831423],[3.46411,25.919045],[3.479656,26.026457],[3.549696,26.445263],[3.563652,26.553738],[3.569071,26.612452],[3.57287,26.68849],[3.572971,26.727668],[3.570481,26.78156],[3.567264,26.813011],[3.560451,26.85494],[3.553436,26.884823],[3.539285,26.927819],[3.528197,26.952927],[3.505051,26.992348],[3.483311,27.0199]],[[1.30585,26.26498],[1.19484,26.28082],[1.05198,26.29188],[0.97536,26.31631],[0.97139,26.32561],[0.96583,26.35666],[0.99191,26.39489],[1.06716,26.41176],[1.20712,26.41383],[1.32476,26.43171],[1.44906,26.44176],[1.5174,26.46269],[1.57387,26.40661],[1.56786,26.29486],[1.56824,26.19733],[1.55893,26.10126],[1.52554,25.98198],[1.49059,25.96848],[1.4879,26.05095],[1.47064,26.15137],[1.41101,26.22165],[1.30585,26.26498]],[[0.86511,26.19949],[0.88997,26.13655],[0.95523,26.10481],[1.00978,26.06216],[1.0212,26.02115],[1.02825,26.00585],[1.03944,25.97166],[1.04139,25.94251],[1.04916,25.91639],[1.05667,25.90305],[1.06667,25.8914],[1.08667,25.87416],[1.09639,25.8625],[1.09972,25.85223],[1.10027,25.84083],[1.09389,25.82417],[1.07575,25.80464],[1.0786,25.79525],[1.07641,25.71256],[1.0577,25.67179],[1.00267,25.65014],[0.92483,25.6672],[0.88554,25.73685],[0.83576,25.79447],[0.80093,25.89009],[0.74349,25.97358],[0.74018,26.02661],[0.77379,26.057],[0.70665,26.09336],[0.63074,26.07652],[0.56701,26.05982],[0.55106,26.08718],[0.60281,26.14145],[0.66963,26.19497],[0.75772,26.23263],[0.82206,26.24705],[0.86511,26.19949]],[[-9.79583,24.97472],[-9.81559,24.98005],[-9.83992,25.00791],[-9.91045,25.0407],[-9.91778,25.04833],[-9.92639,25.05417],[-9.9325,25.0636],[-9.93861,25.07777],[-9.93889,25.08389],[-9.94221,25.09444],[-9.95174,25.10885],[-9.93623,25.1308],[-9.89045,25.15161],[-9.84206,25.15526],[-9.83916,25.1529],[-9.84722,25.14944],[-9.85306,25.14083],[-9.8525,25.13444],[-9.84972,25.12944],[-9.83778,25.11916],[-9.82805,25.11471],[-9.82501,25.10416],[-9.81806,25.10305],[-9.81278,25.105],[-9.80667,25.10333],[-9.80306,25.09973],[-9.79807,25.08972],[-9.79722,25.07777],[-9.79222,25.06778],[-9.77971,25.05889],[-9.73528,25.04249],[-9.72278,25.03194],[-9.71889,25.02278],[-9.72083,25.01056],[-9.73639,24.98139],[-9.75611,24.97166],[-9.76917,24.97028],[-9.79583,24.97472]],[[-11.78217,24.41595],[-11.75463,24.42744],[-11.75472,24.44083],[-11.74945,24.4575],[-11.74306,24.46555],[-11.7375,24.4675],[-11.73306,24.46444],[-11.72611,24.4525],[-11.71861,24.44472],[-11.70972,24.43889],[-11.69833,24.435],[-11.6875,24.43944],[-11.66028,24.45472],[-11.65471,24.45722],[-11.64861,24.45778],[-11.64333,24.45554],[-11.63556,24.44222],[-11.63111,24.44],[-11.625,24.43833],[-11.61279,24.44056],[-11.60306,24.43555],[-11.59056,24.41917],[-11.57722,24.38945],[-11.57362,24.38583],[-11.56833,24.38361],[-11.56139,24.38277],[-11.55555,24.38389],[-11.53972,24.39111],[-11.52695,24.39139],[-11.48389,24.36],[-11.47472,24.355],[-11.45833,24.34972],[-11.43056,24.35139],[-11.40889,24.35972],[-11.40278,24.36028],[-11.39778,24.35806],[-11.38861,24.35222],[-11.36167,24.32917],[-11.34833,24.31333],[-11.33306,24.29889],[-11.32722,24.29055],[-11.32806,24.28416],[-11.34667,24.25916],[-11.36001,24.24972],[-11.37083,24.24667],[-11.39278,24.2475],[-11.41556,24.255],[-11.43056,24.25555],[-11.44361,24.25805],[-11.44861,24.26056],[-11.45972,24.27111],[-11.47056,24.27499],[-11.50472,24.2725],[-11.51417,24.28472],[-11.52528,24.29],[-11.53138,24.29083],[-11.54444,24.29],[-11.58834,24.27528],[-11.59528,24.27472],[-11.605,24.28],[-11.61583,24.29139],[-11.6275,24.29444],[-11.65021,24.30677],[-11.70197,24.32299],[-11.75894,24.33253],[-11.7713,24.33843],[-11.78195,24.3375],[-11.80139,24.32777],[-11.81583,24.32805],[-11.82111,24.33028],[-11.82944,24.33694],[-11.82972,24.34305],[-11.82361,24.35111],[-11.80866,24.38059],[-11.78217,24.41595]],[[-11.9148,24.26504],[-11.77687,24.20715],[-11.70303,24.18489],[-11.62573,24.1644],[-11.55813,24.12909],[-11.48935,24.0998],[-11.42981,24.06519],[-11.37231,24.02778],[-11.34168,24.00058],[-11.31553,23.95252],[-11.31998,23.9199],[-11.38949,23.91277],[-11.5021,23.95394],[-11.55919,24.01842],[-11.62206,24.07348],[-11.70123,24.08542],[-11.80749,24.13085],[-11.89648,24.15127],[-11.98207,24.1453],[-12.05789,24.16463],[-12.08284,24.22779],[-12.06425,24.26541],[-12.00491,24.28397],[-11.97199,24.28214],[-11.9148,24.26504]],[[-12.70056,24.27889],[-12.70028,24.24472],[-12.69861,24.24],[-12.69972,24.23361],[-12.70472,24.22333],[-12.71345,24.21571],[-12.72007,24.19494],[-12.73331,24.18568],[-12.73972,24.165],[-12.74611,24.15694],[-12.75528,24.15083],[-12.76083,24.14972],[-12.76667,24.15111],[-12.77334,24.15972],[-12.77583,24.17722],[-12.78111,24.18694],[-12.79945,24.19694],[-12.80139,24.20972],[-12.795,24.22972],[-12.7975,24.24083],[-12.80417,24.25],[-12.81111,24.25639],[-12.84083,24.27778],[-12.84833,24.285],[-12.85417,24.29417],[-12.86306,24.32694],[-12.86833,24.33611],[-12.8775,24.36194],[-12.87773,24.38504],[-12.87148,24.40938],[-12.8525,24.41222],[-12.83806,24.40972],[-12.82917,24.40472],[-12.76083,24.335],[-12.7114,24.30111],[-12.70556,24.29361],[-12.70056,24.27889]],[[-12.93148,22.60221],[-12.96629,22.6698],[-12.95954,22.73709],[-12.93619,22.84991],[-12.91183,22.92426],[-12.88613,22.98128],[-12.86952,23.00175],[-12.82814,23.02446],[-12.80349,23.01618],[-12.77832,22.98936],[-12.77308,22.94492],[-12.81875,22.84356],[-12.85081,22.79692],[-12.86023,22.75558],[-12.84907,22.69022],[-12.84167,22.68389],[-12.83556,22.67583],[-12.83083,22.66639],[-12.82972,22.66027],[-12.83111,22.655],[-12.83473,22.65139],[-12.84139,22.65055],[-12.85032,22.65187],[-12.85145,22.61718],[-12.86825,22.59653],[-12.93148,22.60221]]]]}}
