{"type":"Feature","properties":{"ISO_Code":"AR","Level_4_Na":"San Luis","Level4_cod":"AGW-SL","Level4_2":"SL","Level3_cod":"AGW","Level2_cod":85,"Level1_cod":8,"name":"San Luis","source":"level4"},"geometry":{"type":"Polygon","coordinates":[[[-67.360687,-32.398529],[-67.156113,-33.42334],[-66.763626,-34.013893],[-66.811401,-34.390007],[-66.540009,-34.939728],[-66.633896,-35.976112],[-65.087891,-36.002327],[-65.134171,-33.218338],[-64.878616,-32.613335],[-64.916397,-32.307228],[-65.195007,-32.328613],[-65.251114,-32.111115],[-65.636124,-31.891392],[-67.337784,-31.846668],[-67.360687,-32.398529]]]}}
