{"type":"Feature","properties":{"LEVEL3_NAM":"Albania","LEVEL3_COD":"ALB","LEVEL2_COD":13,"LEVEL1_COD":1,"name":"Albania"},"geometry":{"type":"Polygon","coordinates":[[[19.770274,42.586906],[19.657174,42.628306],[19.282474,42.185506],[19.367774,41.849006],[19.600574,41.796706],[19.442474,41.406906],[19.521374,40.908006],[19.307174,40.645306],[19.478574,40.350306],[19.288574,40.417506],[19.452774,40.224706],[19.863074,40.039706],[19.987474,39.688006],[20.218374,39.646406],[20.412174,39.815806],[20.316074,39.993306],[20.671974,40.098006],[21.053074,40.673306],[20.519174,41.246406],[20.526074,42.211706],[20.071374,42.560906],[19.822474,42.471906],[19.770274,42.586906]]]}}
