{"type":"Feature","properties":{"ISO_Code":"BR","Level_4_Na":"Mato Grosso","Level4_cod":"BZC-MT","Level4_2":"MT","Level3_cod":"BZC","Level2_cod":84,"Level1_cod":8,"name":"Mato Grosso","source":"level4"},"geometry":{"type":"Polygon","coordinates":[[[-60.744293,-13.68236],[-60.383896,-13.984446],[-60.483025,-14.168957],[-60.258896,-15.093613],[-60.571396,-15.097502],[-60.227226,-15.478613],[-60.160278,-16.263058],[-58.327507,-16.279167],[-58.475769,-16.674633],[-58.397507,-17.249168],[-57.901672,-17.461945],[-57.468895,-17.901112],[-57.082893,-17.763512],[-56.752502,-17.314724],[-56.121948,-17.18528],[-55.180557,-17.685837],[-54.681671,-17.508335],[-54.384171,-17.677223],[-54.121948,-17.629448],[-53.730003,-17.249168],[-53.751114,-17.651947],[-53.981392,-17.934448],[-53.077782,-18.027225],[-53.227783,-17.498058],[-53.011673,-16.861115],[-52.72084,-16.664722],[-52.243057,-15.88028],[-51.876945,-15.800556],[-51.636673,-15.175556],[-51.18528,-14.977501],[-50.969452,-14.536112],[-50.87056,-13.718613],[-50.477226,-12.87639],[-50.659729,-12.601389],[-50.741394,-11.464445],[-50.232506,-9.844168],[-56.776947,-9.401945],[-57.593613,-8.708889],[-57.656113,-8.260279],[-58.135559,-7.339168],[-58.379723,-7.818056],[-58.304169,-8.105001],[-58.54528,-8.748335],[-61.611343,-8.768612],[-61.482506,-8.903891],[-61.61528,-9.322779],[-61.477501,-9.626945],[-61.527229,-11.000834],[-60.426949,-11.001667],[-60.006393,-11.134724],[-59.90889,-11.370556],[-60.10778,-11.669445],[-59.889168,-12.106668],[-59.890556,-12.588057],[-60.38195,-13.425835],[-60.744293,-13.68236]]]}}
