{"type":"Feature","properties":{"ISO_Code":"BR","Level_4_Na":"Santa Catarina","Level4_cod":"BZS-SC","Level4_2":"SC","Level3_cod":"BZS","Level2_cod":84,"Level1_cod":8,"name":"Santa Catarina"},"geometry":{"type":"MultiPolygon","coordinates":[[[[-48.916946,-28.641945],[-48.563896,-27.864445],[-48.622505,-27.242226],[-48.485283,-27.211391],[-48.802505,-26.067223],[-48.679169,-26.242779],[-48.584106,-25.981201],[-49.115837,-25.991112],[-49.510002,-26.231113],[-49.944168,-26.013058],[-50.541389,-26.026947],[-51.195282,-26.29417],[-51.238892,-26.614723],[-51.410561,-26.708889],[-53.347778,-26.241669],[-53.708061,-26.350281],[-53.838753,-27.17112],[-53.365837,-27.078056],[-52.250282,-27.246113],[-51.076118,-27.826115],[-50.606949,-28.385281],[-49.758057,-28.469448],[-49.701393,-28.609447],[-49.926949,-28.725281],[-50.162781,-29.212223],[-50.053062,-29.356113],[-49.958061,-29.191669],[-49.702385,-29.32468],[-48.916946,-28.641945]]],[[[-48.585838,-26.425556],[-48.485001,-26.234169],[-48.537781,-26.167225],[-48.707779,-26.309723],[-48.585838,-26.425556]]],[[[-48.556671,-27.822781],[-48.406395,-27.592781],[-48.418335,-27.388889],[-48.517227,-27.430836],[-48.556671,-27.822781]]]]}}
