{"type":"Feature","properties":{"LEVEL3_NAM":"Manchuria","LEVEL3_COD":"CHM","LEVEL2_COD":36,"LEVEL1_COD":3,"name":"Manchuria"},"geometry":{"type":"MultiPolygon","coordinates":[[[[121.436145,39.391705],[121.393045,39.479205],[121.255845,39.409405],[121.409445,39.361405],[121.436145,39.391705]]],[[[123.382245,53.526705],[121.414245,53.315705],[121.799745,53.017805],[121.165245,52.580805],[121.846945,52.262505],[122.207745,52.490805],[122.766145,52.236105],[122.631045,52.115505],[122.708645,51.710805],[123.103045,51.305305],[124.369745,51.280505],[124.829445,51.366405],[125.136645,51.615805],[125.506645,51.495005],[126.060845,50.970905],[125.224945,49.958305],[125.223645,49.214705],[124.852245,49.159705],[124.552245,48.580005],[124.511345,48.121905],[124.246245,48.537905],[122.405845,47.340305],[123.078345,46.792805],[123.379445,46.901105],[123.633645,46.800505],[123.378045,46.590305],[123.009745,46.603905],[123.095245,46.116405],[122.798045,46.097805],[122.696345,45.709205],[121.794445,46.015505],[121.647445,45.741705],[121.939745,45.686905],[122.213045,45.354705],[122.004145,45.086405],[122.272245,44.217505],[123.108045,44.523605],[123.529945,43.675805],[123.349145,43.480305],[123.698045,43.336605],[123.616945,43.089705],[123.049445,42.783305],[122.383845,42.853005],[122.378845,42.646905],[122.048045,42.723005],[121.724445,42.454205],[121.362745,42.502505],[121.015045,42.249405],[120.500545,42.148005],[120.096145,41.701705],[119.848345,42.193905],[119.520845,42.400305],[119.247445,42.203605],[119.373845,42.079705],[119.384445,41.414705],[118.846645,40.834405],[119.550845,40.502505],[119.851345,39.982205],[120.455245,40.200505],[121.177445,40.921905],[122.045245,40.742205],[122.298345,40.517205],[121.875845,39.993605],[121.468345,39.811405],[121.535845,39.621705],[121.228845,39.538305],[121.751145,39.351705],[121.599445,39.218605],[121.675545,39.085805],[121.088345,38.914405],[121.154945,38.720805],[121.695845,38.859405],[121.648045,38.996405],[123.262245,39.693305],[123.238545,39.814205],[124.131045,39.829205],[124.880545,40.470505],[126.016945,40.900005],[126.566545,41.617005],[126.913045,41.796105],[127.270845,41.472505],[128.155845,41.382505],[128.301945,41.577805],[128.058845,42.003305],[128.925845,42.024405],[129.341945,42.445805],[129.711945,42.444105],[129.907545,43.005805],[130.252245,42.892505],[130.243245,42.718305],[130.604345,42.421905],[130.605245,42.619705],[130.405245,42.718005],[131.123245,42.910805],[131.311345,43.392205],[131.187245,43.552805],[131.298045,44.051905],[130.953845,44.846105],[131.469145,44.973905],[131.864645,45.345505],[133.074645,45.088905],[133.149145,45.450805],[133.468245,45.622205],[133.477445,45.826705],[133.900145,46.250305],[133.845845,46.475505],[134.222245,47.110805],[134.182445,47.323305],[134.773545,47.723905],[134.557145,47.994705],[134.740745,48.267105],[134.415345,48.391105],[133.506645,48.071405],[133.088545,48.101705],[132.542445,47.713905],[130.963045,47.700805],[130.658345,48.103605],[130.826345,48.322205],[130.521645,48.607805],[130.671645,48.865005],[130.221645,48.864705],[129.482745,49.418405],[129.103245,49.346705],[128.773545,49.575505],[127.838045,49.586605],[127.517545,49.801505],[127.586045,50.208605],[127.331345,50.319205],[127.291945,50.741405],[126.930545,51.060005],[126.972745,51.318005],[126.816045,51.266405],[126.915245,51.379205],[126.442245,51.988005],[126.557245,52.130505],[125.988545,52.582205],[126.095545,52.764405],[125.164945,53.193005],[124.818345,53.126905],[123.382245,53.526705]]]]}}
