{"type":"Feature","properties":{"ISO_Code":"CL","Level_4_Na":"Biobío","Level4_cod":"CLC-BI","Level4_2":"BI","Level3_cod":"CLC","Level2_cod":85,"Level1_cod":8,"name":"Biobío"},"geometry":{"type":"Polygon","coordinates":[[[-72.781265,-35.960732],[-73.198624,-37.154724],[-73.643341,-37.208618],[-73.505005,-38.321312],[-73.360001,-38.390839],[-73.101395,-38.17778],[-73.164459,-37.990837],[-73.003067,-37.737785],[-73.103897,-37.679726],[-72.881119,-37.573616],[-72.061676,-38.017227],[-71.736679,-38.024445],[-71.624451,-38.296112],[-71.412231,-38.155838],[-71.400284,-37.86528],[-71.123901,-37.837784],[-71.186951,-36.848892],[-71.016479,-36.475914],[-71.121948,-36.366951],[-71.299454,-36.53389],[-72.088699,-36.119553],[-72.288895,-36.240562],[-72.781265,-35.960732]]]}}
