{"type":"Feature","properties":{"ISO_Code":"CL","Level_4_Na":"Coquimbo","Level4_cod":"CLC-CO","Level4_2":"CO","Level3_cod":"CLC","Level2_cod":85,"Level1_cod":8,"name":"Coquimbo"},"geometry":{"type":"Polygon","coordinates":[[[-70.320984,-32.265282],[-70.234451,-31.942501],[-70.458893,-31.8325],[-70.561111,-31.314167],[-70.295013,-31.029724],[-70.21167,-30.559448],[-69.83168,-30.190556],[-69.915009,-29.717781],[-70.295578,-29.67889],[-70.736679,-29.063892],[-71.493408,-29.183777],[-71.311401,-29.411114],[-71.287796,-29.896946],[-71.40889,-30.189724],[-71.679169,-30.345558],[-71.538361,-32.186958],[-70.741959,-32.03334],[-70.320984,-32.265282]]]}}
