{"type":"Feature","properties":{"LEVEL3_NAM":"Iowa","LEVEL3_COD":"IOW","LEVEL2_COD":74,"LEVEL1_COD":7,"name":"Iowa"},"geometry":{"type":"Polygon","coordinates":[[[-96.482773,42.513054],[-95.919998,41.45694],[-95.761887,40.600197],[-91.775009,40.623604],[-91.390564,40.386383],[-91.410553,40.566666],[-90.947495,40.976654],[-91.040833,41.404991],[-90.35556,41.58416],[-90.139725,41.99305],[-90.692215,42.643608],[-91.060272,42.75222],[-91.220749,43.500832],[-96.602493,43.5],[-96.45195,43.119713],[-96.639725,42.739433],[-96.482773,42.513054]]]}}
