{"type":"Feature","properties":{"LEVEL3_NAM":"Iraq","LEVEL3_COD":"IRQ","LEVEL2_COD":34,"LEVEL1_COD":3,"name":"Iraq"},"geometry":{"type":"Polygon","coordinates":[[[42.950574,37.322506],[42.724674,37.351906],[41.835274,36.598906],[41.367174,36.472806],[41.254974,36.055006],[41.383874,35.625306],[41.229174,34.788306],[41.003874,34.419406],[38.794674,33.377606],[39.043674,32.304006],[39.259974,32.355506],[39.196774,32.154906],[40.413374,31.948306],[42.084974,31.111706],[44.721674,29.198306],[46.426674,29.061706],[47.209474,30.035506],[48.554474,29.930506],[48.032474,30.491406],[48.036374,30.997506],[47.693874,31.001106],[47.864474,31.798606],[47.434174,32.397806],[46.107174,32.967506],[46.181974,33.260306],[45.401074,33.979606],[45.583574,34.289406],[45.438074,34.460306],[45.722174,34.556606],[45.652174,34.740006],[45.933774,35.098706],[46.171374,35.113406],[46.021674,35.680306],[46.344474,35.821906],[45.765874,35.811906],[45.405774,35.990806],[45.279174,36.381106],[44.849174,36.798306],[44.909674,37.023906],[44.774674,37.166406],[44.317174,36.970506],[44.116374,37.316406],[42.950574,37.322506]]]}}
