{"type":"Feature","properties":{"ISO_Code":"US","Level_4_Na":"Michigan","Level4_cod":"MIC-OO","Level4_2":"OO","Level3_cod":"MIC","Level2_cod":75,"Level1_cod":7,"name":"Michigan","source":"level4"},"geometry":{"type":"Polygon","coordinates":[[[-87.021194,42.485264],[-87.211113,41.762257],[-83.42588,41.72665],[-83.117416,41.946194],[-83.08696,42.300545],[-82.521393,42.618881],[-82.13028,43.585266],[-82.54306,45.355827],[-83.597778,45.827217],[-83.447769,46.01194],[-83.577499,46.10527],[-83.958893,46.071663],[-84.126389,46.531937],[-84.565002,46.466385],[-84.856949,46.902214],[-88.188324,48.244156],[-88.645554,48.26416],[-89.493126,48.003166],[-90.401398,46.55027],[-90.018066,46.320549],[-88.115829,45.932213],[-88.118332,45.805267],[-87.800278,45.684158],[-87.880829,45.366386],[-87.648621,45.116936],[-87.437157,45.07106],[-87.088478,45.444977],[-86.242455,45.233833],[-86.711105,44.836014],[-87.071732,43.940952],[-87.157303,43.41103],[-87.021194,42.485264]]]}}
