{"type":"Feature","properties":{"ISO_Code":"RU","Level_4_Na":"Kabardino-Balkariya","Level4_cod":"NCS-KB","Level4_2":"KB","Level3_cod":"NCS","Level2_cod":33,"Level1_cod":3,"name":"Kabardino-Balkariya"},"geometry":{"type":"Polygon","coordinates":[[[44.28508,43.818832],[43.905823,43.994987],[43.733871,43.837212],[43.315536,43.805817],[43.19471,43.951935],[42.692215,43.818604],[42.452209,43.607491],[42.363884,43.237488],[43.392891,42.900124],[43.837769,43.314713],[44.383324,43.451935],[44.436371,43.649155],[44.28508,43.818832]]]}}
