{"type":"Feature","properties":{"ISO_Code":"RU","Level_4_Na":"Chechnya","Level4_cod":"NCS-CH","Level4_2":"CH","Level3_cod":"NCS","Level2_cod":33,"Level1_cod":3,"name":"Chechnya"},"geometry":{"type":"Polygon","coordinates":[[[44.836544,43.582939],[45.252136,43.328228],[45.091476,42.697422],[45.796944,42.477486],[46.164711,42.7211],[46.194427,42.900826],[46.506943,42.927216],[46.323875,43.428879],[46.677773,43.811928],[46.433594,44.000542],[46.05555,43.819153],[45.509415,44.015182],[45.447205,43.878319],[45.071381,43.949158],[44.836544,43.582939]]]}}
