{"type":"Feature","properties":{"LEVEL3_NAM":"New Caledonia","LEVEL3_COD":"NWC","LEVEL2_COD":60,"LEVEL1_COD":6,"name":"New Caledonia","source":"level3"},"geometry":{"type":"MultiPolygon","coordinates":[[[[166.027191,-22.054722],[166.043854,-22.079723],[166.052765,-22.050556],[166.045532,-22.034447],[166.027191,-22.054722]]],[[[163.98941,-20.087223],[164.381897,-20.780003],[165.259979,-21.558056],[166.116364,-21.946388],[166.451904,-22.316666],[166.916931,-22.398888],[166.947479,-22.09],[165.630798,-21.279724],[165.223297,-20.765278],[164.506104,-20.305836],[163.98941,-20.087223]],[[164.286926,-20.249722],[164.285522,-20.258614],[164.275269,-20.248886],[164.270264,-20.219719],[164.286926,-20.249722]]],[[[166.38858,-20.72583],[166.418854,-20.739998],[166.448029,-20.734165],[166.459137,-20.719719],[166.38858,-20.72583]]],[[[163.922485,-20.16972],[163.943298,-20.176109],[163.923859,-20.143055],[163.910248,-20.139999],[163.922485,-20.16972]]],[[[164.161102,-20.113335],[164.230804,-20.165833],[164.218292,-20.127499],[164.1633,-20.065277],[164.161102,-20.113335]]],[[[163.78775,-20.057503],[163.8172,-20.085278],[163.821899,-20.050278],[163.806915,-20.036667],[163.78775,-20.057503]]],[[[163.939972,-20.068058],[163.973297,-20.083332],[163.981903,-20.049446],[163.949402,-20.002224],[163.939972,-20.068058]]],[[[163.61969,-19.625832],[163.63443,-19.710556],[163.66748,-19.786945],[163.700806,-19.766392],[163.61969,-19.625832]]],[[[163.57663,-19.549446],[163.568024,-19.573055],[163.6008,-19.604446],[163.612457,-19.596111],[163.57663,-19.549446]]],[[[159.922211,-19.250835],[159.944122,-19.345001],[159.978851,-19.171665],[159.95108,-19.114445],[159.922211,-19.250835]]],[[[167.508026,-22.688332],[167.527771,-22.694164],[167.556641,-22.674442],[167.531372,-22.651112],[167.508026,-22.688332]]],[[[167.419128,-22.646389],[167.496338,-22.673889],[167.553864,-22.612499],[167.434692,-22.543056],[167.419128,-22.646389]]],[[[166.811646,-22.395],[166.772491,-22.456108],[166.806641,-22.46833],[166.843018,-22.413334],[166.811646,-22.395]]],[[[171.311646,-22.328613],[171.301086,-22.329723],[171.304413,-22.338612],[171.313873,-22.33139],[171.311646,-22.328613]]],[[[166.418579,-21.699165],[166.446075,-21.7075],[166.440796,-21.68861],[166.415527,-21.691387],[166.418579,-21.699165]]],[[[167.99469,-21.660831],[168.129944,-21.619167],[168.095245,-21.455555],[167.810516,-21.381943],[167.883331,-21.56889],[167.99469,-21.660831]]],[[[167.798584,-21.115276],[167.831635,-21.145279],[167.84079,-21.128613],[167.80246,-21.100277],[167.798584,-21.115276]]],[[[167.46524,-21.058056],[167.279144,-20.906387],[167.308319,-20.723053],[167.053314,-20.718609],[167.190247,-20.806946],[167.064972,-20.997219],[167.362732,-21.183331],[167.46524,-21.058056]]],[[[166.606628,-20.388332],[166.55719,-20.402222],[166.499115,-20.717777],[166.625793,-20.601665],[166.606628,-20.388332]]]]}}
