{"type":"Feature","properties":{"ISO_Code":"PG","Level_4_Na":"North Solomons","Level4_cod":"SOL-NO","Level4_2":"NO","Level3_cod":"SOL","Level2_cod":43,"Level1_cod":4,"name":"North Solomons","source":"level4"},"geometry":{"type":"MultiPolygon","coordinates":[[[[154.818573,-3.530278],[154.830261,-3.480278],[154.799408,-3.425],[154.795258,-3.441389],[154.818573,-3.530278]]],[[[154.15387,-4.442222],[154.152771,-4.379444],[154.132721,-4.371666],[154.126617,-4.379444],[154.15387,-4.442222]]],[[[159.513306,-4.581667],[159.523041,-4.563889],[159.51886,-4.536388],[159.515533,-4.539722],[159.513306,-4.581667]]],[[[154.637207,-5.458611],[154.728302,-5.216389],[154.646088,-5.016389],[154.530273,-5.133889],[154.637207,-5.458611]]],[[[155.404083,-6.0],[155.073578,-5.561666],[154.753601,-5.518056],[154.744385,-5.93978],[155.214142,-6.320278],[155.335236,-6.7375],[155.693848,-6.883333],[155.918579,-6.807777],[155.917755,-6.524445],[155.404083,-6.0]]]]}}
