{"type":"Feature","properties":{"LEVEL3_NAM":"Solomon Is.","LEVEL3_COD":"SOL","LEVEL2_COD":43,"LEVEL1_COD":4,"name":"Solomon Is."},"geometry":{"type":"MultiPolygon","coordinates":[[[[160.080745,-11.498095],[159.960745,-11.521695],[160.527445,-11.808095],[160.439145,-11.681395],[160.080745,-11.498095]]],[[[159.853245,-11.324695],[159.841645,-11.303895],[159.776645,-11.288595],[159.803245,-11.316095],[159.853245,-11.324695]]],[[[162.474945,-10.855595],[162.500545,-10.839995],[162.481345,-10.807495],[162.464645,-10.818295],[162.474945,-10.855595]]],[[[161.751345,-10.294495],[161.771845,-10.254495],[161.719945,-10.214695],[161.712945,-10.249695],[161.751345,-10.294495]]],[[[161.545245,-10.276695],[161.301345,-10.206695],[161.283345,-10.331995],[161.498545,-10.367795],[161.778245,-10.720795],[162.390745,-10.841995],[162.108545,-10.449995],[161.545245,-10.276695]]],[[[161.974645,-9.853095],[161.974045,-9.689695],[161.944645,-9.690295],[161.931645,-9.761095],[161.974645,-9.853095]]],[[[161.387445,-9.468595],[161.388845,-9.457795],[161.385545,-9.454495],[161.381345,-9.469495],[161.387445,-9.468595]]],[[[161.569045,-9.724195],[161.349945,-9.338895],[161.405145,-9.472295],[161.397145,-9.669495],[161.569045,-9.724195]]],[[[159.938245,-9.433595],[159.601845,-9.317195],[159.828045,-9.796995],[160.831045,-9.861995],[160.386345,-9.426695],[159.938245,-9.433595]]],[[[159.828545,-9.172495],[159.845745,-9.138095],[159.811345,-9.110795],[159.801845,-9.141995],[159.828545,-9.172495]]],[[[160.411045,-9.136695],[160.318545,-9.060295],[160.271345,-9.154195],[160.212445,-9.170595],[160.359145,-9.190795],[160.411045,-9.136695]]],[[[159.204345,-9.133295],[159.236645,-9.091995],[159.228245,-9.025595],[159.168045,-9.102795],[159.204345,-9.133295]]],[[[160.299345,-9.058095],[160.192445,-8.996695],[160.076045,-9.046695],[160.264445,-9.131895],[160.299345,-9.058095]]],[[[159.147445,-9.108895],[159.137145,-8.994495],[159.032445,-9.060295],[159.099345,-9.119695],[159.147445,-9.108895]]],[[[160.112145,-8.997195],[160.109645,-8.963295],[160.073245,-8.947795],[160.065745,-9.017495],[160.112145,-8.997195]]],[[[160.047145,-8.915295],[160.029345,-8.880295],[160.008345,-8.884695],[160.010745,-8.902495],[160.047145,-8.915295]]],[[[161.060745,-8.748095],[161.031345,-8.737795],[161.009445,-8.754195],[161.044445,-8.772495],[161.060745,-8.748095]]],[[[157.633845,-8.748095],[157.556345,-8.691995],[157.443845,-8.714995],[157.619945,-8.800795],[157.633845,-8.748095]]],[[[158.205245,-8.833295],[158.253845,-8.793295],[158.213545,-8.681095],[158.149645,-8.781395],[158.205245,-8.833295]]],[[[158.003045,-8.771095],[158.105745,-8.698095],[158.116845,-8.533295],[157.875445,-8.609995],[158.003045,-8.771095]]],[[[157.408345,-8.500795],[157.353545,-8.410595],[157.199145,-8.565795],[157.384445,-8.734495],[157.326645,-8.641095],[157.408345,-8.500795]]],[[[159.683245,-8.546995],[159.643045,-8.394495],[159.568845,-8.378895],[159.537445,-8.468295],[159.683245,-8.546995]]],[[[162.741045,-8.373895],[162.725245,-8.381395],[162.761645,-8.378095],[162.758845,-8.373895],[162.741045,-8.373895]]],[[[160.974345,-8.847495],[160.979145,-8.584695],[160.751045,-8.312195],[160.580245,-8.329995],[160.809145,-9.064995],[161.377945,-9.634995],[161.165545,-8.974195],[160.974345,-8.847495]]],[[[157.124645,-8.255295],[157.081345,-8.196395],[157.023045,-8.190795],[157.151345,-8.342795],[157.124645,-8.255295]]],[[[157.207445,-8.270295],[157.180745,-8.170595],[157.092445,-8.165795],[157.202745,-8.292795],[157.207445,-8.270295]]],[[[156.844945,-8.118295],[156.829945,-8.076395],[156.782745,-8.055295],[156.783345,-8.098095],[156.844945,-8.118295]]],[[[157.631545,-8.236395],[157.497445,-7.965595],[157.214345,-8.243095],[157.534945,-8.255295],[157.811845,-8.620795],[157.905745,-8.479695],[157.631545,-8.236395]]],[[[156.598845,-8.203095],[156.603845,-8.048295],[156.542145,-7.944695],[156.531845,-8.091995],[156.598845,-8.203095]]],[[[157.156045,-8.150295],[157.183545,-7.931695],[157.027145,-7.865295],[156.967745,-8.046395],[157.156045,-8.150295]]],[[[158.571845,-7.703595],[158.570545,-7.677795],[158.549945,-7.664195],[158.532145,-7.691395],[158.571845,-7.703595]]],[[[156.706645,-7.897195],[156.808545,-7.726695],[156.554345,-7.578595],[156.504445,-7.707795],[156.706645,-7.897195]]],[[[158.530745,-7.654195],[158.381845,-7.567195],[158.312745,-7.580795],[158.359345,-7.640595],[158.530745,-7.654195]]],[[[159.852445,-8.333895],[158.487445,-7.554195],[158.843245,-7.975295],[159.622445,-8.360595],[159.886945,-8.566395],[159.852445,-8.333895]]],[[[158.429345,-7.529695],[158.271645,-7.465795],[158.262745,-7.477495],[158.370445,-7.552795],[158.429345,-7.529695]]],[[[157.781645,-7.476095],[157.749345,-7.393895],[157.683545,-7.415595],[157.709145,-7.476095],[157.781645,-7.476095]]],[[[155.587445,-7.390595],[155.584645,-7.331995],[155.510745,-7.351095],[155.517745,-7.389695],[155.587445,-7.390595]]],[[[155.858845,-7.100295],[155.740245,-6.967495],[155.669645,-7.088095],[155.769145,-7.129495],[155.858845,-7.100295]]],[[[156.110245,-6.941095],[156.094645,-6.820595],[156.074645,-6.819195],[156.084945,-6.989495],[156.110245,-6.941095]]],[[[156.019945,-6.824695],[156.046645,-6.803095],[156.045245,-6.788595],[155.999945,-6.803595],[156.019945,-6.824695]]],[[[157.428845,-7.324495],[157.042445,-6.901695],[156.438545,-6.643595],[156.936045,-7.219195],[157.528245,-7.376395],[157.428845,-7.324495]]],[[[159.712745,-5.516695],[159.723845,-5.489995],[159.714145,-5.483895],[159.703245,-5.513895],[159.712745,-5.516695]]],[[[154.882445,-5.543295],[154.753645,-5.518095],[154.744345,-5.939795],[155.214145,-6.320295],[155.239945,-6.622495],[155.558845,-6.852495],[155.918545,-6.807795],[155.813645,-6.371395],[155.432745,-6.120795],[155.073545,-5.561695],[154.882445,-5.543295]]],[[[159.528545,-5.498895],[159.509945,-5.470795],[159.496345,-5.466995],[159.498245,-5.477195],[159.528545,-5.498895]]],[[[159.403845,-5.448295],[159.359145,-5.413595],[159.348845,-5.415795],[159.371545,-5.440795],[159.403845,-5.448295]]],[[[159.252145,-5.312795],[159.252145,-5.296395],[159.248845,-5.293095],[159.250245,-5.324195],[159.252145,-5.312795]]],[[[154.675545,-5.440795],[154.728345,-5.202795],[154.639145,-5.016395],[154.530245,-5.133895],[154.675545,-5.440795]]],[[[159.516945,-4.578095],[159.523045,-4.563895],[159.518845,-4.536395],[159.511345,-4.576695],[159.516945,-4.578095]]],[[[154.155245,-4.438095],[154.152745,-4.379395],[154.132745,-4.371695],[154.126645,-4.379395],[154.155245,-4.438095]]],[[[154.833045,-3.510295],[154.830245,-3.480295],[154.799445,-3.424995],[154.818545,-3.530295],[154.833045,-3.510295]]]]}}
