{"type":"Feature","properties":{"LEVEL3_NAM":"Spain","LEVEL3_COD":"SPA","LEVEL2_COD":12,"LEVEL1_COD":1,"name":"Spain"},"geometry":{"type":"MultiPolygon","coordinates":[[[[-3.036155,35.912805],[-3.027255,35.924405],[-3.051155,35.909705],[-3.046455,35.907805],[-3.036155,35.912805]]],[[[-6.925055,37.170805],[-6.948655,37.203305],[-6.973055,37.210305],[-6.954155,37.180305],[-6.925055,37.170805]]],[[[-7.855555,43.760005],[-8.329755,43.403905],[-9.169755,43.185805],[-9.293355,42.922505],[-9.086655,42.740305],[-8.911655,42.793305],[-9.035855,42.525305],[-8.721555,42.701105],[-8.908355,42.467505],[-8.840855,42.391405],[-8.656155,42.427805],[-8.869155,42.251405],[-8.579755,42.351705],[-8.644155,42.288305],[-8.896455,42.113005],[-8.871955,41.875805],[-8.201255,42.152705],[-8.079755,42.054205],[-8.218655,41.913605],[-8.140555,41.809205],[-6.594155,41.953605],[-6.539455,41.679405],[-6.187255,41.579705],[-6.931655,41.018005],[-6.796155,40.524405],[-7.027255,40.187805],[-6.870555,40.021705],[-7.017255,39.675005],[-7.532555,39.669405],[-6.961155,39.056705],[-7.321155,38.449405],[-7.087855,38.174405],[-6.933755,38.209105],[-7.524455,37.552505],[-7.398655,37.180805],[-6.959955,37.221805],[-6.578955,37.019405],[-6.355555,36.860805],[-6.435055,36.697205],[-6.050855,36.191905],[-5.613655,36.006105],[-5.338255,36.112205],[-5.171955,36.412805],[-4.633055,36.510505],[-4.398355,36.722205],[-2.768955,36.678305],[-2.350355,36.840805],[-2.129155,36.731405],[-1.643655,37.372805],[-1.327555,37.558005],[-0.715555,37.606905],[-0.860055,37.716705],[-0.511655,38.325005],[0.215245,38.758005],[-0.182555,39.029205],[-0.320555,39.510005],[0.541945,40.569205],[0.902745,40.719705],[0.704145,40.813005],[0.993045,41.048005],[2.110845,41.285805],[2.939445,41.720005],[3.201645,41.892805],[3.116345,42.221405],[3.319145,42.321405],[2.949945,42.480505],[2.017145,42.353005],[1.738645,42.616405],[0.719945,42.859205],[0.675445,42.688505],[-0.549455,42.778605],[-0.746655,42.965505],[-1.434455,43.045505],[-1.391455,43.262805],[-1.787855,43.392205],[-2.295555,43.296105],[-3.585555,43.510305],[-4.514555,43.396305],[-5.854155,43.648005],[-7.044855,43.490405],[-7.855555,43.760005]]]]}}
